{"type":"FeatureCollection","features":[{"type":"Feature","properties":{"pid":"a388fb95-5364-4ce1-a03d-242ef5c216f8","full":17.0},"geometry":{"type":"Polygon","coordinates":[[[136.1502,36.06364],[136.14957,36.06344],[136.1494,36.0638],[136.15,36.064],[136.15002,36.06398],[136.15004,36.06398],[136.1502,36.06364]]]}},{"type":"Feature","properties":{"pid":"74c6c1fb-37c3-4773-84cb-b44d87031d4a","full":31.6},"geometry":{"type":"Polygon","coordinates":[[[136.14875,36.06441],[136.1488,36.06443],[136.14891,36.06422],[136.1497,36.06447],[136.14991,36.06404],[136.14986,36.06403],[136.14987,36.064],[136.14909,36.06374],[136.14875,36.06441]]]}},{"type":"Feature","properties":{"pid":"cc6e27d4-7a11-4fe7-8550-98d6190b2ce4","full":2.6},"geometry":{"type":"Polygon","coordinates":[[[136.14967,36.0645],[136.14931,36.06439],[136.14923,36.06456],[136.14932,36.06459],[136.14933,36.06461],[136.14953,36.06464],[136.14959,36.06466],[136.1496,36.06465],[136.14967,36.0645]]]}},{"type":"Feature","properties":{"pid":"b6ecdecd-7298-40c5-a5dc-d0ee99902d5f","full":2.7},"geometry":{"type":"Polygon","coordinates":[[[136.15012,36.06465],[136.14974,36.06452],[136.14973,36.06454],[136.14971,36.06454],[136.14965,36.06466],[136.14967,36.06468],[136.15004,36.06482],[136.15012,36.06465]]]}},{"type":"Feature","properties":{"pid":"0d3b6ae6-d2d0-4c8d-89cd-7caefdf0ae68","full":1.9},"geometry":{"type":"Polygon","coordinates":[[[136.12947,36.07387],[136.12952,36.07388],[136.12957,36.07391],[136.1296,36.07388],[136.12955,36.07385],[136.12955,36.0738],[136.12949,36.07374],[136.12943,36.0737],[136.12938,36.07372],[136.12921,36.07364],[136.12916,36.0738],[136.12935,36.07391],[136.12942,36.07388],[136.12947,36.07387]]]}},{"type":"Feature","properties":{"pid":"50cae936-8905-4cb4-b3ff-f3501e66de63","full":5.9},"geometry":{"type":"Polygon","coordinates":[[[136.13796,36.07329],[136.13769,36.07324],[136.13764,36.07324],[136.1377,36.07353],[136.13778,36.07386],[136.13798,36.07376],[136.13797,36.0737],[136.13793,36.07364],[136.13792,36.07352],[136.13796,36.07329]]]}},{"type":"Feature","properties":{"pid":"54367383-1cf7-463d-9412-ad2d60087bd2","full":1.4},"geometry":{"type":"Polygon","coordinates":[[[136.13674,36.07311],[136.13652,36.07301],[136.1365,36.07303],[136.13656,36.07308],[136.13661,36.0732],[136.13669,36.07334],[136.13683,36.07339],[136.13683,36.07336],[136.13681,36.07328],[136.13685,36.07316],[136.13681,36.07313],[136.13674,36.07311]]]}},{"type":"Feature","properties":{"pid":"65bd145a-9274-4cd3-9aeb-b5675347797f","full":1.1},"geometry":{"type":"Polygon","coordinates":[[[136.14931,36.06439],[136.1491,36.06432],[136.14902,36.0645],[136.14923,36.06455],[136.14931,36.06439]]]}},{"type":"Feature","properties":{"pid":"86f7cc6d-cfc5-4b2f-b27b-2d94cd927269","full":0.7},"geometry":{"type":"Polygon","coordinates":[[[136.14796,36.06337],[136.14764,36.06326],[136.14763,36.06337],[136.1477,36.06339],[136.1477,36.06342],[136.14777,36.06344],[136.14788,36.06351],[136.1479,36.0635],[136.14796,36.06337]]]}},{"type":"Feature","properties":{"pid":"9e3378a5-08ba-4ab5-b0b2-36079e3949ce","full":3.3},"geometry":{"type":"Polygon","coordinates":[[[136.14821,36.06367],[136.14796,36.06359],[136.14795,36.06367],[136.14782,36.06382],[136.14804,36.06401],[136.14821,36.06367]]]}},{"type":"Feature","properties":{"pid":"0e2a07aa-9f38-4cf1-9e4a-eb5a86d9d13e","full":15.1},"geometry":{"type":"Polygon","coordinates":[[[136.14867,36.06362],[136.14832,36.0635],[136.14829,36.06351],[136.14805,36.06401],[136.14819,36.06412],[136.14837,36.06423],[136.14867,36.06362]]]}},{"type":"Feature","properties":{"pid":"da623cfd-b517-4ee2-b1c4-9b69084824c5","full":19.5},"geometry":{"type":"Polygon","coordinates":[[[136.14909,36.06374],[136.14868,36.06362],[136.14837,36.06424],[136.14875,36.06441],[136.14909,36.06374]]]}},{"type":"Feature","properties":{"pid":"5c80b631-717b-4e22-b88b-be39c5f1f9ca","full":40.2},"geometry":{"type":"Polygon","coordinates":[[[136.1482,36.06301],[136.14805,36.06333],[136.14808,36.06338],[136.14937,36.06379],[136.14938,36.06378],[136.1494,36.06378],[136.14957,36.06343],[136.1482,36.06301]]]}},{"type":"Feature","properties":{"pid":"76704ef0-055f-4d0b-8583-a545ba1db820","full":13.7},"geometry":{"type":"Polygon","coordinates":[[[136.14913,36.06306],[136.14853,36.06242],[136.14848,36.06244],[136.14828,36.06286],[136.14919,36.06313],[136.14921,36.06311],[136.14913,36.06306]]]}},{"type":"Feature","properties":{"pid":"dfb78bb7-aa08-4fb9-90c2-f16d8c667f53","full":38.6},"geometry":{"type":"Polygon","coordinates":[[[136.14764,36.06194],[136.14766,36.06225],[136.14766,36.06269],[136.14821,36.06285],[136.14839,36.06248],[136.14844,36.06238],[136.14835,36.06226],[136.14819,36.06211],[136.14795,36.06197],[136.14774,36.06188],[136.14775,36.06192],[136.14764,36.06194]]]}},{"type":"Feature","properties":{"pid":"8821af9c-5493-4ad5-9636-988bc2320153","full":10.7},"geometry":{"type":"Polygon","coordinates":[[[136.14816,36.06297],[136.14766,36.06282],[136.14764,36.06326],[136.14796,36.06336],[136.14808,36.06313],[136.14807,36.06312],[136.14807,36.0631],[136.1481,36.06309],[136.14816,36.06297]]]}},{"type":"Feature","properties":{"pid":"a5eebaf1-72a6-40de-bc7a-ba20855f81c3","full":53.9},"geometry":{"type":"Polygon","coordinates":[[[136.1476,36.06281],[136.14684,36.06257],[136.14647,36.06327],[136.14692,36.06338],[136.14693,36.06336],[136.14697,36.06337],[136.14696,36.06339],[136.14716,36.06343],[136.14725,36.06344],[136.14751,36.06345],[136.14758,36.06345],[136.1476,36.06281]]]}},{"type":"Feature","properties":{"pid":"21d0b680-b3fa-4bf3-9bf3-75d9e786b11e","full":2.6},"geometry":{"type":"Polygon","coordinates":[[[136.14761,36.06265],[136.14761,36.06243],[136.14693,36.06245],[136.14693,36.06246],[136.14756,36.06266],[136.14761,36.06265]]]}},{"type":"Feature","properties":{"pid":"ad778f0d-58fb-4738-bcc4-d7b3ce6f23fb","full":6.0},"geometry":{"type":"Polygon","coordinates":[[[136.14603,36.06297],[136.14612,36.06281],[136.1463,36.06286],[136.14652,36.06246],[136.14626,36.06238],[136.14585,36.06312],[136.14594,36.06314],[136.14602,36.06297],[136.14603,36.06297]]]}},{"type":"Feature","properties":{"pid":"2800bc79-df39-4403-8899-3be3975ccc64","full":29.5},"geometry":{"type":"Polygon","coordinates":[[[136.14626,36.06238],[136.14578,36.06222],[136.14537,36.06299],[136.14585,36.06312],[136.14626,36.06238]]]}},{"type":"Feature","properties":{"pid":"290102dc-7f75-46d0-b79b-d6eca62a85de","full":10.4},"geometry":{"type":"Polygon","coordinates":[[[136.14683,36.06256],[136.14657,36.06248],[136.14631,36.06298],[136.14633,36.06323],[136.14647,36.06327],[136.14683,36.06256]]]}},{"type":"Feature","properties":{"pid":"053ad875-e03a-4ffe-a78b-75d5f5ae2f73","full":51.8},"geometry":{"type":"Polygon","coordinates":[[[136.14535,36.06298],[136.14576,36.06221],[136.14513,36.06199],[136.14479,36.062],[136.14481,36.06248],[136.14484,36.06248],[136.14486,36.06285],[136.14493,36.06288],[136.14529,36.06299],[136.14535,36.06298]]]}},{"type":"Feature","properties":{"pid":"a70b5490-c142-46be-b2e6-9d130288da83","full":4.0},"geometry":{"type":"Polygon","coordinates":[[[136.1367,36.06384],[136.13668,36.06387],[136.13674,36.06399],[136.137,36.06392],[136.1372,36.06385],[136.13746,36.06384],[136.13751,36.06379],[136.13751,36.06376],[136.13738,36.06366],[136.1367,36.06384]]]}},{"type":"Feature","properties":{"pid":"d1865acb-83f6-4ab4-a7bb-390f3587e019","full":3.1},"geometry":{"type":"Polygon","coordinates":[[[136.1373,36.0635],[136.13663,36.06366],[136.13662,36.06372],[136.13665,36.06379],[136.13738,36.06364],[136.1373,36.0635]]]}},{"type":"Feature","properties":{"pid":"a37d7f67-b89f-4129-a55a-3073ab472e31","full":3.8},"geometry":{"type":"Polygon","coordinates":[[[136.13729,36.06348],[136.13722,36.06336],[136.13717,36.06335],[136.13655,36.0635],[136.13654,36.06353],[136.1366,36.06365],[136.13729,36.06348]]]}},{"type":"Feature","properties":{"pid":"897cc5b9-cf7d-401a-a4e1-4300f64f26ac","full":3.5},"geometry":{"type":"Polygon","coordinates":[[[136.13709,36.0632],[136.13706,36.06318],[136.13648,36.06333],[136.13653,36.06348],[136.13715,36.06332],[136.13709,36.0632]]]}},{"type":"Feature","properties":{"pid":"21de0484-1202-42a0-8240-38551ea45735","full":4.2},"geometry":{"type":"Polygon","coordinates":[[[136.13705,36.06304],[136.1368,36.06298],[136.13682,36.06305],[136.1364,36.06315],[136.13645,36.06328],[136.13648,36.06331],[136.13707,36.06316],[136.13705,36.06304]]]}},{"type":"Feature","properties":{"pid":"f88b2a15-ae13-4fb0-8a28-b1f9f020118c","full":1.6},"geometry":{"type":"Polygon","coordinates":[[[136.1367,36.06295],[136.13664,36.06292],[136.13636,36.06299],[136.13637,36.06305],[136.1364,36.06313],[136.1368,36.06304],[136.13678,36.06297],[136.1367,36.06295]]]}},{"type":"Feature","properties":{"pid":"924c25e6-3880-4fd6-8d83-03b883b192f1","full":1.0},"geometry":{"type":"Polygon","coordinates":[[[136.13654,36.06279],[136.1365,36.06277],[136.1363,36.06281],[136.13632,36.06289],[136.13634,36.06296],[136.13662,36.0629],[136.13654,36.06279]]]}},{"type":"Feature","properties":{"pid":"9109ccde-3277-47c3-8853-227caab38c65","full":1.8},"geometry":{"type":"Polygon","coordinates":[[[136.13554,36.06299],[136.13518,36.06266],[136.13515,36.06267],[136.13512,36.06281],[136.13543,36.06308],[136.13555,36.06302],[136.13554,36.06299]]]}},{"type":"Feature","properties":{"pid":"b6f43170-130f-4300-819e-c6071441de2c","full":6.1},"geometry":{"type":"Polygon","coordinates":[[[136.13582,36.06308],[136.13589,36.06301],[136.13526,36.06241],[136.13522,36.06239],[136.13517,36.0626],[136.13562,36.06299],[136.1356,36.06304],[136.13568,36.06307],[136.13577,36.06307],[136.13582,36.06308]]]}},{"type":"Feature","properties":{"pid":"d2e414bd-6190-44a9-b384-2037f9c589c7","full":9.1},"geometry":{"type":"Polygon","coordinates":[[[136.13598,36.06312],[136.13602,36.06312],[136.13607,36.06311],[136.13619,36.06302],[136.13619,36.06298],[136.13617,36.06295],[136.13602,36.06282],[136.136,36.06277],[136.13532,36.0622],[136.1353,36.06219],[136.13524,36.06232],[136.13524,36.06235],[136.13595,36.063],[136.13594,36.06304],[136.13589,36.0631],[136.13591,36.06313],[136.13598,36.06312]]]}},{"type":"Feature","properties":{"pid":"f5f56f5e-9f6e-4279-85eb-8df4d7fb4362","full":8.8},"geometry":{"type":"Polygon","coordinates":[[[136.1361,36.06245],[136.13541,36.06205],[136.13532,36.06217],[136.13536,36.06219],[136.13599,36.06271],[136.13602,36.06273],[136.13609,36.06265],[136.13611,36.06257],[136.1361,36.06245]]]}},{"type":"Feature","properties":{"pid":"8ecbd14c-0745-4e7e-b9e6-be649ec17f8e","full":1.5},"geometry":{"type":"Polygon","coordinates":[[[136.13541,36.06313],[136.13511,36.06286],[136.13507,36.06289],[136.13505,36.06288],[136.135,36.06297],[136.13529,36.06322],[136.13532,36.0632],[136.13541,36.06313]]]}},{"type":"Feature","properties":{"pid":"82b291db-f2f3-47a0-8f4f-fa4f5b90e732","full":1.8},"geometry":{"type":"Polygon","coordinates":[[[136.13523,36.06325],[136.13495,36.06298],[136.13482,36.06309],[136.13511,36.06335],[136.13522,36.06326],[136.13523,36.06325]]]}},{"type":"Feature","properties":{"pid":"b5c381ba-5202-46ab-81f5-a6f65c45c063","full":3.5},"geometry":{"type":"Polygon","coordinates":[[[136.13508,36.06337],[136.13478,36.0631],[136.13469,36.0632],[136.13467,36.06326],[136.1347,36.06334],[136.13486,36.06349],[136.13488,36.06349],[136.13495,36.06343],[136.13502,36.06343],[136.13504,36.06342],[136.13508,36.06337]]]}},{"type":"Feature","properties":{"pid":"4b528e9c-3d47-4075-a670-f7f58541eb55","full":3.3},"geometry":{"type":"Polygon","coordinates":[[[136.1346,36.06326],[136.13458,36.06325],[136.13444,36.06334],[136.1344,36.06338],[136.1344,36.06342],[136.13451,36.0636],[136.13454,36.06367],[136.13466,36.06366],[136.13472,36.06357],[136.13477,36.06353],[136.1346,36.06337],[136.1346,36.06326]]]}},{"type":"Feature","properties":{"pid":"8833d822-fc0e-4f55-b7ca-3eb27e0f92dd","full":2.3},"geometry":{"type":"Polygon","coordinates":[[[136.13479,36.06389],[136.13473,36.06367],[136.13462,36.06371],[136.13456,36.06371],[136.13452,36.06383],[136.13458,36.06393],[136.1347,36.06402],[136.13478,36.064],[136.13479,36.06389]]]}},{"type":"Feature","properties":{"pid":"07c8e0be-524f-4170-ad6c-19c41a09c2ff","full":1.4},"geometry":{"type":"Polygon","coordinates":[[[136.1282,36.05986],[136.12824,36.05986],[136.12833,36.05981],[136.12832,36.05979],[136.12836,36.05975],[136.12835,36.0597],[136.12807,36.05956],[136.12803,36.05952],[136.12802,36.05953],[136.12801,36.05958],[136.12799,36.05963],[136.12803,36.05966],[136.12809,36.05971],[136.1282,36.05986]]]}},{"type":"Feature","properties":{"pid":"074bfb17-e272-4996-9e79-24342c1f7dcc","full":1.3},"geometry":{"type":"Polygon","coordinates":[[[136.12792,36.05928],[136.12749,36.05914],[136.12746,36.05916],[136.12759,36.05936],[136.12786,36.05937],[136.12792,36.05928]]]}},{"type":"Feature","properties":{"pid":"3591cefd-2516-4779-95db-17cd6c78a34c","full":2.1},"geometry":{"type":"Polygon","coordinates":[[[136.12856,36.05952],[136.128,36.05935],[136.12799,36.05939],[136.12817,36.05953],[136.1284,36.05965],[136.12843,36.05969],[136.12843,36.05975],[136.12841,36.05981],[136.12847,36.05987],[136.12855,36.05968],[136.12856,36.05952]]]}},{"type":"Feature","properties":{"pid":"1ea0a637-1114-46d9-a7e2-d1668a4eeee4","full":2.8},"geometry":{"type":"Polygon","coordinates":[[[136.12864,36.05935],[136.12806,36.05917],[136.12801,36.05931],[136.12859,36.0595],[136.12864,36.05935]]]}},{"type":"Feature","properties":{"pid":"a73b59f3-4d31-4dfe-913f-44e794e0313b","full":7.3},"geometry":{"type":"Polygon","coordinates":[[[136.12875,36.05915],[136.12816,36.05889],[136.12808,36.05915],[136.12867,36.05933],[136.12875,36.05915]]]}},{"type":"Feature","properties":{"pid":"c8636dca-f38d-4fbd-b7ab-c69d66da8b5c","full":1.1},"geometry":{"type":"Polygon","coordinates":[[[136.12871,36.05885],[136.12825,36.05871],[136.12822,36.05879],[136.12825,36.05882],[136.12865,36.05898],[136.12868,36.05895],[136.12871,36.05885]]]}},{"type":"Feature","properties":{"pid":"97637207-d21c-4581-8557-b28a1d2cb935","full":4.7},"geometry":{"type":"Polygon","coordinates":[[[136.12798,36.05907],[136.12727,36.05886],[136.12727,36.05893],[136.12747,36.05911],[136.12789,36.05925],[136.12793,36.05922],[136.12798,36.05907]]]}},{"type":"Feature","properties":{"pid":"da870527-2126-4f11-9ab4-94bb12167929","full":2.5},"geometry":{"type":"Polygon","coordinates":[[[136.12755,36.0588],[136.1273,36.05879],[136.12728,36.05884],[136.12799,36.05904],[136.12804,36.0589],[136.12804,36.05887],[136.12795,36.05885],[136.12755,36.0588]]]}},{"type":"Feature","properties":{"pid":"25e7d2fb-23fa-4f05-b1c8-d1707f04b3c7","full":5.8},"geometry":{"type":"Polygon","coordinates":[[[136.12476,36.05878],[136.12472,36.05878],[136.12467,36.05883],[136.12469,36.05887],[136.12473,36.0589],[136.12472,36.05894],[136.12475,36.05897],[136.12481,36.059],[136.12507,36.05903],[136.12515,36.05912],[136.12519,36.05923],[136.12522,36.05921],[136.12531,36.05887],[136.12476,36.05878]]]}},{"type":"Feature","properties":{"pid":"897f5221-0bb6-4757-98ec-6a474073210b","full":7.0},"geometry":{"type":"Polygon","coordinates":[[[136.12541,36.0582],[136.12436,36.05805],[136.12465,36.05827],[136.12541,36.05839],[136.12539,36.05828],[136.12541,36.0582]]]}},{"type":"Feature","properties":{"pid":"6754fa70-fdfe-4fbc-a5d9-38c526fe78b9","full":8.5},"geometry":{"type":"Polygon","coordinates":[[[136.12586,36.05748],[136.12542,36.05742],[136.12539,36.05743],[136.12534,36.05767],[136.12535,36.05771],[136.12547,36.05778],[136.12562,36.05787],[136.12571,36.05779],[136.12587,36.05749],[136.12586,36.05748]]]}},{"type":"Feature","properties":{"pid":"732202a0-1de1-4902-8083-42d2448431fa","full":6.2},"geometry":{"type":"Polygon","coordinates":[[[136.12597,36.05723],[136.12544,36.05715],[136.12538,36.05738],[136.12545,36.0574],[136.12586,36.05746],[136.12597,36.05723]]]}},{"type":"Feature","properties":{"pid":"57492cb5-08b3-4581-a24b-52b0a01dddba","full":9.3},"geometry":{"type":"Polygon","coordinates":[[[136.12664,36.05767],[136.12598,36.05746],[136.12588,36.0577],[136.1265,36.05788],[136.12655,36.05789],[136.12664,36.05767]]]}},{"type":"Feature","properties":{"pid":"c8736499-1c12-45a0-9fe9-88878735f1ab","full":9.4},"geometry":{"type":"Polygon","coordinates":[[[136.12652,36.05792],[136.12588,36.05773],[136.12581,36.05784],[136.12571,36.05794],[136.12645,36.05816],[136.12652,36.05792]]]}},{"type":"Feature","properties":{"pid":"a450df69-e1ea-4803-8a15-1673b4756bf3","full":11.3},"geometry":{"type":"Polygon","coordinates":[[[136.12644,36.05817],[136.1257,36.05795],[136.12561,36.05818],[136.12563,36.0582],[136.12635,36.05841],[136.1264,36.05831],[136.12644,36.05818],[136.12644,36.05817]]]}},{"type":"Feature","properties":{"pid":"a0ccb29b-9bc7-4ebb-8671-92678d257ecf","full":1.1},"geometry":{"type":"Polygon","coordinates":[[[136.12601,36.05833],[136.1256,36.05821],[136.12555,36.05832],[136.12595,36.05844],[136.12601,36.05833]]]}},{"type":"Feature","properties":{"pid":"d3f0759b-ea27-4343-9212-58a3499ecd6e","full":6.5},"geometry":{"type":"Polygon","coordinates":[[[136.12542,36.05842],[136.12463,36.05831],[136.12475,36.05852],[136.12545,36.05863],[136.12549,36.05859],[136.12549,36.05857],[136.12545,36.0585],[136.12542,36.05842]]]}},{"type":"Feature","properties":{"pid":"40cd1e9b-b37a-401e-b09e-5f32a80c90ae","full":5.0},"geometry":{"type":"Polygon","coordinates":[[[136.12539,36.05865],[136.12474,36.05855],[136.12478,36.05876],[136.12532,36.05883],[136.12535,36.05871],[136.12539,36.05865]]]}},{"type":"Feature","properties":{"pid":"e0c25cdc-c573-488c-a3c5-a39f0d3fe0c4","full":4.6},"geometry":{"type":"Polygon","coordinates":[[[136.12636,36.05843],[136.12601,36.05833],[136.12589,36.05857],[136.12625,36.05868],[136.12636,36.05843]]]}},{"type":"Feature","properties":{"pid":"defb1abd-4852-4f03-a4a0-31d2ac4092e7","full":2.8},"geometry":{"type":"Polygon","coordinates":[[[136.12687,36.05861],[136.12646,36.0585],[136.12641,36.05853],[136.12633,36.05881],[136.12657,36.05872],[136.12658,36.05871],[136.12672,36.05869],[136.12685,36.05869],[136.12687,36.05861]]]}},{"type":"Feature","properties":{"pid":"e511b70b-3d31-46e9-b691-4955330ec3b2","full":11.1},"geometry":{"type":"Polygon","coordinates":[[[136.12662,36.05824],[136.12655,36.05825],[136.12646,36.05846],[136.12692,36.05859],[136.1269,36.05865],[136.12696,36.05866],[136.1272,36.05865],[136.12723,36.05863],[136.12728,36.05844],[136.12662,36.05824]]]}},{"type":"Feature","properties":{"pid":"14644e8c-ba8a-427e-aa27-7b563243825b","full":10.6},"geometry":{"type":"Polygon","coordinates":[[[136.1274,36.05818],[136.12671,36.05798],[136.12666,36.05798],[136.12658,36.0582],[136.12731,36.05842],[136.12733,36.0584],[136.1274,36.05819],[136.1274,36.05818]]]}},{"type":"Feature","properties":{"pid":"dd874e15-19c4-47cf-bdbf-eaf33c85d1fa","full":10.6},"geometry":{"type":"Polygon","coordinates":[[[136.12749,36.05792],[136.12683,36.05773],[136.12677,36.05773],[136.12668,36.05795],[136.12741,36.05816],[136.12743,36.05812],[136.12749,36.05792]]]}},{"type":"Feature","properties":{"pid":"e40470d1-87ef-489e-9aed-06ae82556dea","full":3.3},"geometry":{"type":"Polygon","coordinates":[[[136.12814,36.05869],[136.12739,36.05847],[136.1273,36.05863],[136.1273,36.05866],[136.1275,36.05867],[136.12792,36.05874],[136.12811,36.05878],[136.12814,36.05871],[136.12814,36.05869]]]}},{"type":"Feature","properties":{"pid":"fda3d1aa-d9d1-4c47-a588-31cf3fc726e8","full":10.5},"geometry":{"type":"Polygon","coordinates":[[[136.12814,36.05862],[136.12819,36.05862],[136.12824,36.05851],[136.12826,36.05844],[136.12752,36.05822],[136.12749,36.05822],[136.12738,36.05844],[136.12812,36.05865],[136.12814,36.05862]]]}},{"type":"Feature","properties":{"pid":"6d94393b-8f91-4735-857c-96a3dc0b40bf","full":6.0},"geometry":{"type":"Polygon","coordinates":[[[136.12882,36.05861],[136.12838,36.05847],[136.12835,36.05849],[136.12825,36.05869],[136.12873,36.05883],[136.12875,36.05881],[136.12882,36.05861]]]}},{"type":"Feature","properties":{"pid":"5c38e919-6d80-4afd-9277-2e83604350a5","full":5.9},"geometry":{"type":"Polygon","coordinates":[[[136.12894,36.05835],[136.12848,36.05821],[136.12846,36.05823],[136.12837,36.05844],[136.12884,36.05857],[136.12894,36.05835]]]}},{"type":"Feature","properties":{"pid":"1b05a56d-afa9-4345-8ee6-a307fc719718","full":10.5},"geometry":{"type":"Polygon","coordinates":[[[136.12847,36.05792],[136.12772,36.05771],[136.12761,36.05793],[136.12839,36.05815],[136.12847,36.05792]]]}},{"type":"Feature","properties":{"pid":"dbf1a0c5-217a-4eb6-9467-78dc444e537b","full":11.6},"geometry":{"type":"Polygon","coordinates":[[[136.12837,36.05817],[136.12761,36.05795],[136.1275,36.05819],[136.12827,36.05842],[136.12834,36.05827],[136.12837,36.05817]]]}},{"type":"Feature","properties":{"pid":"a1679cfa-222e-47c1-8170-9747a0f2f16d","full":10.4},"geometry":{"type":"Polygon","coordinates":[[[136.12858,36.05766],[136.12783,36.05746],[136.12773,36.05768],[136.12847,36.05789],[136.1285,36.05788],[136.12858,36.05766]]]}},{"type":"Feature","properties":{"pid":"2d1c147c-d9f5-4c64-8f5e-5a73ec06ce8c","full":2.5},"geometry":{"type":"Polygon","coordinates":[[[136.12865,36.05758],[136.12793,36.05726],[136.12785,36.05742],[136.12861,36.05765],[136.12863,36.05764],[136.12865,36.05758]]]}},{"type":"Feature","properties":{"pid":"36d0bef7-9805-4557-b137-0307bbf45094","full":9.1},"geometry":{"type":"Polygon","coordinates":[[[136.12771,36.05744],[136.12702,36.05723],[136.12695,36.05729],[136.1269,36.05744],[136.12761,36.05764],[136.12763,36.05763],[136.12765,36.05761],[136.12771,36.05744]]]}},{"type":"Feature","properties":{"pid":"5bb667a1-64ed-4e32-91e4-81b18821a2b8","full":10.9},"geometry":{"type":"Polygon","coordinates":[[[136.12762,36.05767],[136.12688,36.05746],[136.12679,36.05767],[136.1268,36.0577],[136.12751,36.05791],[136.12762,36.05767]]]}},{"type":"Feature","properties":{"pid":"bedf000c-ad61-49de-b3fb-9b563a2dc0ab","full":9.1},"geometry":{"type":"Polygon","coordinates":[[[136.12676,36.05742],[136.12609,36.05721],[136.12598,36.05743],[136.12666,36.05764],[136.12676,36.05742]]]}},{"type":"Feature","properties":{"pid":"181771e2-4771-4578-a749-e7c4d6d0ef00","full":25.5},"geometry":{"type":"Polygon","coordinates":[[[136.13934,36.05841],[136.13897,36.05819],[136.13866,36.05913],[136.13908,36.05922],[136.13934,36.05841]]]}},{"type":"Feature","properties":{"pid":"1b705a56-fd1b-4d0e-a0b8-24a676feb7a5","full":29.6},"geometry":{"type":"Polygon","coordinates":[[[136.13894,36.05817],[136.13859,36.05794],[136.13823,36.05904],[136.13864,36.05912],[136.13894,36.05817]]]}},{"type":"Feature","properties":{"pid":"3dc3ec20-18ce-4140-814f-76dc1ec42e12","full":47.4},"geometry":{"type":"Polygon","coordinates":[[[136.13858,36.05794],[136.13846,36.05787],[136.13842,36.05791],[136.13833,36.05786],[136.13791,36.05811],[136.13765,36.05891],[136.13823,36.05904],[136.13858,36.05794]]]}},{"type":"Feature","properties":{"pid":"74a8aef2-e08c-4d8b-8381-734d217627eb","full":56.3},"geometry":{"type":"Polygon","coordinates":[[[136.13769,36.05826],[136.13654,36.05801],[136.13657,36.05871],[136.13749,36.05891],[136.13769,36.05826]]]}},{"type":"Feature","properties":{"pid":"d718098e-b2ad-423e-bb3e-03fda8eb054d","full":20.1},"geometry":{"type":"Polygon","coordinates":[[[136.13755,36.0573],[136.13729,36.05712],[136.13653,36.05792],[136.13653,36.05795],[136.13685,36.05802],[136.13755,36.0573]]]}},{"type":"Feature","properties":{"pid":"7186bbd1-0e00-4737-9200-a27ab91c74e1","full":20.0},"geometry":{"type":"Polygon","coordinates":[[[136.13785,36.05748],[136.13756,36.0573],[136.13685,36.05802],[136.13726,36.05811],[136.13785,36.05748]]]}},{"type":"Feature","properties":{"pid":"0f2ee510-520e-4dab-8d36-485bea1d7711","full":18.7},"geometry":{"type":"Polygon","coordinates":[[[136.13825,36.05774],[136.13785,36.05749],[136.13726,36.05811],[136.13771,36.0582],[136.13777,36.05804],[136.13825,36.05774]]]}},{"type":"Feature","properties":{"pid":"04e8cf5d-9c95-4f3b-b689-0a7615983685","full":35.0},"geometry":{"type":"Polygon","coordinates":[[[136.13728,36.05712],[136.13651,36.05664],[136.13648,36.05667],[136.13653,36.05791],[136.13728,36.05712]]]}},{"type":"Feature","properties":{"pid":"f4d2d7aa-f843-4b5c-af36-44a7ce89c7bc","full":10.5},"geometry":{"type":"Polygon","coordinates":[[[136.13477,36.05797],[136.13448,36.05796],[136.13445,36.05796],[136.13442,36.05853],[136.13468,36.05861],[136.13473,36.05857],[136.13477,36.05797]]]}},{"type":"Feature","properties":{"pid":"fca65f58-a47d-4560-aa57-0ff288004dc3","full":11.4},"geometry":{"type":"Polygon","coordinates":[[[136.13502,36.05796],[136.13479,36.05796],[136.13475,36.05863],[136.13498,36.05869],[136.13504,36.05869],[136.13509,36.05798],[136.13502,36.05796]]]}},{"type":"Feature","properties":{"pid":"446ac402-8a4a-4886-a8de-8f0d5c75a212","full":8.7},"geometry":{"type":"Polygon","coordinates":[[[136.13443,36.05795],[136.13413,36.05794],[136.13409,36.05845],[136.13437,36.05853],[136.1344,36.0585],[136.13443,36.05795]]]}},{"type":"Feature","properties":{"pid":"d963d6de-c9ba-409a-89a9-7d373877f1a3","full":101.5},"geometry":{"type":"Polygon","coordinates":[[[136.13506,36.05792],[136.13512,36.05699],[136.13386,36.05693],[136.13382,36.05696],[136.13377,36.05788],[136.13506,36.05792]]]}},{"type":"Feature","properties":{"pid":"635f9acd-650c-476d-a055-9ed3f1c94c8f","full":8.0},"geometry":{"type":"Polygon","coordinates":[[[136.13124,36.05739],[136.13018,36.05734],[136.13014,36.05738],[136.1312,36.05767],[136.13122,36.05765],[136.13124,36.05753],[136.13124,36.05739]]]}},{"type":"Feature","properties":{"pid":"490dd207-c4ac-444e-b147-d74df3b37096","full":7.2},"geometry":{"type":"Polygon","coordinates":[[[136.12929,36.05761],[136.1294,36.05765],[136.1294,36.05767],[136.12944,36.05768],[136.12945,36.05766],[136.12948,36.05764],[136.12963,36.05763],[136.12966,36.05751],[136.12963,36.05747],[136.1292,36.05734],[136.12914,36.05734],[136.12904,36.05731],[136.12901,36.05744],[136.12922,36.05773],[136.12929,36.05761]]]}},{"type":"Feature","properties":{"pid":"20204c3d-fee6-4e9b-8594-19166ba5de35","full":7.2},"geometry":{"type":"Polygon","coordinates":[[[136.13002,36.05746],[136.12971,36.05739],[136.12963,36.05763],[136.12977,36.05765],[136.1298,36.05769],[136.1297,36.05791],[136.12985,36.05797],[136.12983,36.058],[136.12989,36.05803],[136.12993,36.05801],[136.13,36.0578],[136.13002,36.05746]]]}},{"type":"Feature","properties":{"pid":"2064ae6f-8c65-428a-afac-20e47b09330f","full":6.7},"geometry":{"type":"Polygon","coordinates":[[[136.12985,36.05812],[136.12928,36.05786],[136.12917,36.05809],[136.12919,36.05811],[136.12971,36.05827],[136.12975,36.05825],[136.12985,36.05812]]]}},{"type":"Feature","properties":{"pid":"4695d6bf-7585-4777-8b24-1df0c778abbc","full":6.8},"geometry":{"type":"Polygon","coordinates":[[[136.12972,36.05829],[136.12917,36.05813],[136.12909,36.05828],[136.12906,36.05836],[136.12945,36.05847],[136.12956,36.05851],[136.1296,36.05842],[136.12962,36.05841],[136.12972,36.05829]]]}},{"type":"Feature","properties":{"pid":"d8ec2370-c781-40ef-a611-52fd7ee0e55f","full":7.3},"geometry":{"type":"Polygon","coordinates":[[[136.12941,36.05847],[136.12905,36.05838],[136.12894,36.0586],[136.12895,36.05862],[136.12944,36.05876],[136.12947,36.05873],[136.12956,36.05854],[136.12955,36.05852],[136.12941,36.05847]]]}},{"type":"Feature","properties":{"pid":"53c0962d-e0f6-48bc-ab6a-3f207905a09a","full":0.6},"geometry":{"type":"Polygon","coordinates":[[[136.13243,36.05831],[136.13225,36.05828],[136.13223,36.0583],[136.13221,36.0583],[136.13218,36.05843],[136.13243,36.05844],[136.13243,36.05831]]]}},{"type":"Feature","properties":{"pid":"f1887319-b22f-450d-a831-c25176d4cfec","full":5.6},"geometry":{"type":"Polygon","coordinates":[[[136.13187,36.05798],[136.13186,36.05805],[136.13177,36.05828],[136.1319,36.05842],[136.13202,36.05843],[136.13211,36.05822],[136.13216,36.05805],[136.13188,36.05798],[136.13187,36.05798]]]}},{"type":"Feature","properties":{"pid":"c580f97f-b142-44f9-9d46-d6980517b67b","full":2.4},"geometry":{"type":"Polygon","coordinates":[[[136.13209,36.05769],[136.13153,36.05767],[136.13152,36.05775],[136.13204,36.05788],[136.13208,36.05786],[136.13209,36.05769]]]}},{"type":"Feature","properties":{"pid":"0cbec1f6-f28b-4764-9bce-8412fd4c4ce9","full":12.0},"geometry":{"type":"Polygon","coordinates":[[[136.13249,36.05743],[136.13143,36.05739],[136.13137,36.05741],[136.13136,36.05744],[136.1314,36.05746],[136.13159,36.05747],[136.13157,36.05764],[136.1316,36.05764],[136.13244,36.05767],[136.13248,36.05767],[136.13249,36.05743]]]}},{"type":"Feature","properties":{"pid":"4eeb3c6a-5bbb-4d74-9551-6327415273c6","full":15.8},"geometry":{"type":"Polygon","coordinates":[[[136.13252,36.05715],[136.13143,36.05712],[136.13139,36.05715],[136.13138,36.05734],[136.13141,36.05736],[136.1325,36.05741],[136.13252,36.05715]]]}},{"type":"Feature","properties":{"pid":"560a6c75-577d-43b3-acbb-a32f74d0e862","full":4.6},"geometry":{"type":"Polygon","coordinates":[[[136.13246,36.0577],[136.1321,36.05769],[136.13209,36.05786],[136.13207,36.05787],[136.13207,36.0579],[136.13248,36.05801],[136.13249,36.05792],[136.13247,36.0579],[136.13247,36.05771],[136.13246,36.0577]]]}},{"type":"Feature","properties":{"pid":"5186ef16-32ec-420b-aaf2-9a357597eadb","full":14.9},"geometry":{"type":"Polygon","coordinates":[[[136.13369,36.05776],[136.13259,36.05771],[136.13257,36.05795],[136.13366,36.058],[136.13367,36.05799],[136.13369,36.05776]]]}},{"type":"Feature","properties":{"pid":"be0d96cc-54e9-4088-bb79-da9ee0cb6617","full":15.4},"geometry":{"type":"Polygon","coordinates":[[[136.1337,36.05749],[136.13261,36.05745],[136.13259,36.05769],[136.13368,36.05774],[136.13369,36.05773],[136.13371,36.0575],[136.1337,36.05749]]]}},{"type":"Feature","properties":{"pid":"b8b66867-329d-40cf-965b-eb4cd3163f02","full":16.1},"geometry":{"type":"Polygon","coordinates":[[[136.13372,36.05721],[136.13266,36.05717],[136.13262,36.05717],[136.13261,36.0574],[136.13262,36.05742],[136.13369,36.05746],[136.13371,36.05745],[136.13372,36.05721]]]}},{"type":"Feature","properties":{"pid":"cab37def-b809-4800-ac8d-5d99c4bd97d7","full":1.6},"geometry":{"type":"Polygon","coordinates":[[[136.13282,36.05848],[136.13294,36.05827],[136.13266,36.0582],[136.13262,36.05837],[136.13266,36.05841],[136.13282,36.05848]]]}},{"type":"Feature","properties":{"pid":"2b5f9477-6b29-48c6-9401-947461d6bbc9","full":8.4},"geometry":{"type":"Polygon","coordinates":[[[136.13367,36.05803],[136.13301,36.05799],[136.13257,36.05798],[136.13257,36.05803],[136.13363,36.05831],[136.13365,36.05828],[136.13367,36.05803]]]}},{"type":"Feature","properties":{"pid":"79bfc49d-d789-445f-a2fe-9f638fb83799","full":0.7},"geometry":{"type":"Polygon","coordinates":[[[136.13333,36.05836],[136.13317,36.05831],[136.13308,36.05849],[136.13323,36.05856],[136.13333,36.05836]]]}},{"type":"Feature","properties":{"pid":"706c2403-e529-4635-ad50-561269282061","full":2.5},"geometry":{"type":"Polygon","coordinates":[[[136.13282,36.0585],[136.13253,36.05836],[136.13251,36.05837],[136.13251,36.05854],[136.13287,36.05869],[136.13293,36.05868],[136.13299,36.05859],[136.133,36.05857],[136.13282,36.0585]]]}},{"type":"Feature","properties":{"pid":"9af79c2b-7116-4c0b-8362-d29823cd688c","full":0.9},"geometry":{"type":"Polygon","coordinates":[[[136.13319,36.05866],[136.13303,36.05857],[136.13301,36.05858],[136.13298,36.05863],[136.13294,36.05869],[136.13289,36.05871],[136.13287,36.05876],[136.13302,36.05879],[136.13302,36.0588],[136.1331,36.05881],[136.1331,36.05879],[136.13319,36.05867],[136.13319,36.05866]]]}},{"type":"Feature","properties":{"pid":"817a3290-987c-482d-9dee-ebca71fddbab","full":1.0},"geometry":{"type":"Polygon","coordinates":[[[136.1327,36.05889],[136.13268,36.05889],[136.13263,36.05903],[136.13263,36.05909],[136.13264,36.05913],[136.13283,36.05911],[136.13283,36.05908],[136.13286,36.05901],[136.13285,36.05897],[136.1327,36.05889]]]}},{"type":"Feature","properties":{"pid":"91804b87-6c34-4706-8fbb-ce623022207b","full":0.7},"geometry":{"type":"Polygon","coordinates":[[[136.13185,36.06057],[136.13179,36.06055],[136.13181,36.06049],[136.13161,36.06042],[136.13155,36.06055],[136.13165,36.06059],[136.13163,36.06061],[136.13173,36.06064],[136.13183,36.06066],[136.13185,36.06057]]]}},{"type":"Feature","properties":{"pid":"0ff5bb90-3d8b-4713-b264-6c1c33eed951","full":1.1},"geometry":{"type":"Polygon","coordinates":[[[136.1319,36.06001],[136.13163,36.05997],[136.13161,36.05998],[136.13157,36.06013],[136.13177,36.06018],[136.13181,36.0601],[136.13185,36.06007],[136.13189,36.06006],[136.1319,36.06001]]]}},{"type":"Feature","properties":{"pid":"bc98715e-7524-4052-beb5-6abfc0c19bb3","full":1.8},"geometry":{"type":"Polygon","coordinates":[[[136.13166,36.05922],[136.13152,36.05916],[136.1315,36.05918],[136.13135,36.05914],[136.1313,36.05928],[136.13169,36.05938],[136.13175,36.05924],[136.13166,36.05922]]]}},{"type":"Feature","properties":{"pid":"1002514f-2b9b-4287-8233-acb6a5b7b9f6","full":0.9},"geometry":{"type":"Polygon","coordinates":[[[136.13195,36.05879],[136.13183,36.05877],[136.13176,36.05874],[136.13175,36.05877],[136.13171,36.05876],[136.13165,36.05888],[136.13187,36.05896],[136.13195,36.05879]]]}},{"type":"Feature","properties":{"pid":"63b4f40a-3408-4932-a079-b5e9df75da0b","full":2.5},"geometry":{"type":"Polygon","coordinates":[[[136.13022,36.05908],[136.13028,36.05909],[136.13032,36.05892],[136.1301,36.05883],[136.13003,36.05881],[136.12998,36.05895],[136.12994,36.05902],[136.13022,36.05909],[136.13022,36.05908]]]}},{"type":"Feature","properties":{"pid":"2cd3806f-eceb-4de8-bb08-2203f6ee14e2","full":14.1},"geometry":{"type":"Polygon","coordinates":[[[136.13009,36.0591],[136.12948,36.05892],[136.12936,36.05923],[136.12994,36.05946],[136.13009,36.0591]]]}},{"type":"Feature","properties":{"pid":"90c2b5ce-62b0-47ce-aa4f-d1e02fb26e79","full":4.4},"geometry":{"type":"Polygon","coordinates":[[[136.13,36.05879],[136.12958,36.05871],[136.12951,36.05882],[136.12951,36.0589],[136.12992,36.05901],[136.12999,36.05888],[136.13,36.05879]]]}},{"type":"Feature","properties":{"pid":"ca6f0be7-996d-427c-98da-3645130967d1","full":6.7},"geometry":{"type":"Polygon","coordinates":[[[136.12937,36.05876],[136.12895,36.05864],[136.12893,36.05865],[136.12887,36.05877],[136.12884,36.05886],[136.12885,36.05887],[136.12933,36.05901],[136.12939,36.05892],[136.12938,36.0589],[136.1294,36.05889],[136.12944,36.05879],[136.12937,36.05876]]]}},{"type":"Feature","properties":{"pid":"61af4a85-5749-4129-8f03-3498302ee97b","full":2.4},"geometry":{"type":"Polygon","coordinates":[[[136.12929,36.05903],[136.12883,36.05889],[136.12881,36.05889],[136.12876,36.05901],[136.12922,36.05919],[136.1293,36.05907],[136.12929,36.05903]]]}},{"type":"Feature","properties":{"pid":"9453eff5-e282-4372-9ad9-654f77b09753","full":13.2},"geometry":{"type":"Polygon","coordinates":[[[136.12971,36.05964],[136.12981,36.05965],[136.12985,36.05965],[136.12991,36.05959],[136.12992,36.05957],[136.12885,36.05916],[136.12875,36.05941],[136.12963,36.05968],[136.12971,36.05964]]]}},{"type":"Feature","properties":{"pid":"0ee20948-9f67-4c9d-a231-55c46fa20d29","full":5.1},"geometry":{"type":"Polygon","coordinates":[[[136.1296,36.05972],[136.12872,36.05946],[136.12864,36.05961],[136.12875,36.05963],[136.12914,36.05974],[136.12945,36.05984],[136.1296,36.05972]]]}},{"type":"Feature","properties":{"pid":"bda430d0-5385-44da-ba53-fa526f47ad10","full":8.3},"geometry":{"type":"Polygon","coordinates":[[[136.12941,36.05989],[136.12862,36.05966],[136.12852,36.05987],[136.12863,36.05991],[136.12883,36.05993],[136.12921,36.06005],[136.12935,36.06001],[136.12934,36.05997],[136.12936,36.05997],[136.12941,36.05989]]]}},{"type":"Feature","properties":{"pid":"c5548717-7f92-4148-b759-aeb25bed391c","full":2.5},"geometry":{"type":"Polygon","coordinates":[[[136.13151,36.05992],[136.13117,36.05986],[136.13113,36.06001],[136.13149,36.06015],[136.13153,36.05995],[136.13153,36.05993],[136.13151,36.05992]]]}},{"type":"Feature","properties":{"pid":"ac5b5f2f-acef-46ca-9bee-17797deeb965","full":1.3},"geometry":{"type":"Polygon","coordinates":[[[136.13105,36.0605],[136.13079,36.0604],[136.13071,36.06055],[136.13101,36.06064],[136.13103,36.0606],[136.13105,36.0605]]]}},{"type":"Feature","properties":{"pid":"891ff405-3164-4140-aff4-7e4eb4908026","full":2.1},"geometry":{"type":"Polygon","coordinates":[[[136.1309,36.06066],[136.13056,36.06056],[136.13054,36.06076],[136.13069,36.06078],[136.13083,36.06082],[136.13089,36.06072],[136.1309,36.06066]]]}},{"type":"Feature","properties":{"pid":"b1d55dba-5bd6-48bc-92db-1609bea8a226","full":0.6},"geometry":{"type":"Polygon","coordinates":[[[136.13214,36.06061],[136.13214,36.0606],[136.13195,36.06056],[136.13194,36.06057],[136.13196,36.06058],[136.13195,36.0606],[136.13193,36.06059],[136.13189,36.0607],[136.1321,36.06074],[136.13216,36.06062],[136.13214,36.06061]]]}},{"type":"Feature","properties":{"pid":"308e9d94-f418-4d3b-a77f-c4d3c9c1a538","full":6.8},"geometry":{"type":"Polygon","coordinates":[[[136.13597,36.06202],[136.13548,36.06189],[136.13546,36.06197],[136.13544,36.06201],[136.13546,36.06203],[136.1361,36.0624],[136.13611,36.06238],[136.1361,36.06225],[136.13606,36.06214],[136.13601,36.06204],[136.13597,36.06202]]]}},{"type":"Feature","properties":{"pid":"95f1b3cd-ce1d-4fa9-9bc4-617ba5778e5d","full":3.5},"geometry":{"type":"Polygon","coordinates":[[[136.13597,36.06145],[136.13564,36.06138],[136.13557,36.0616],[136.13597,36.06171],[136.13599,36.0617],[136.13599,36.06164],[136.13594,36.0616],[136.13594,36.06152],[136.13597,36.06145]]]}},{"type":"Feature","properties":{"pid":"58c672a5-f7ee-40d6-972e-209031d75b38","full":5.0},"geometry":{"type":"Polygon","coordinates":[[[136.13558,36.06165],[136.13556,36.06163],[136.13549,36.06186],[136.13549,36.06187],[136.13591,36.06197],[136.13599,36.062],[136.136,36.06198],[136.13596,36.06194],[136.13596,36.06188],[136.13598,36.06183],[136.13598,36.06175],[136.13597,36.06174],[136.13558,36.06165]]]}},{"type":"Feature","properties":{"pid":"922d8088-8370-462d-a82a-90ac80cd9a0b","full":17.1},"geometry":{"type":"Polygon","coordinates":[[[136.13618,36.06117],[136.13508,36.06089],[136.13507,36.06091],[136.13503,36.0609],[136.13497,36.06103],[136.13498,36.06105],[136.13565,36.06134],[136.13574,36.06135],[136.13596,36.0614],[136.13602,36.06141],[136.13609,36.06135],[136.13618,36.06117]]]}},{"type":"Feature","properties":{"pid":"a4e3a6ce-b084-480b-b643-38124a0e4f1e","full":8.5},"geometry":{"type":"Polygon","coordinates":[[[136.13669,36.06117],[136.13671,36.06111],[136.13675,36.06111],[136.13677,36.06091],[136.13673,36.06089],[136.13662,36.06087],[136.13624,36.06082],[136.13621,36.06095],[136.13621,36.061],[136.13628,36.06113],[136.13665,36.06117],[136.13669,36.06117]]]}},{"type":"Feature","properties":{"pid":"51d45734-84d0-4e99-8eee-c75504aa8af1","full":13.1},"geometry":{"type":"Polygon","coordinates":[[[136.1352,36.06065],[136.13519,36.06066],[136.13514,36.06066],[136.13507,36.06085],[136.13618,36.06114],[136.13619,36.0611],[136.13614,36.06099],[136.13616,36.06089],[136.1352,36.06065]]]}},{"type":"Feature","properties":{"pid":"fe544037-8a23-47b2-8753-b7c0c6603eea","full":1.5},"geometry":{"type":"Polygon","coordinates":[[[136.13563,36.06061],[136.13517,36.06044],[136.13517,36.0606],[136.13556,36.06071],[136.13559,36.06069],[136.13563,36.06061]]]}},{"type":"Feature","properties":{"pid":"5f840f01-bf6d-4143-a553-8f1f71973fcb","full":2.7},"geometry":{"type":"Polygon","coordinates":[[[136.13443,36.0609],[136.13486,36.06106],[136.13492,36.06089],[136.13456,36.06078],[136.1345,36.06078],[136.13443,36.0609]]]}},{"type":"Feature","properties":{"pid":"2808e3c4-0cab-4a1f-bbf6-17961ce918e4","full":1.0},"geometry":{"type":"Polygon","coordinates":[[[136.13443,36.05905],[136.13446,36.05906],[136.13447,36.0589],[136.13446,36.05882],[136.13431,36.05879],[136.13426,36.05897],[136.13432,36.05899],[136.13432,36.05906],[136.13443,36.05909],[136.13443,36.05905]]]}},{"type":"Feature","properties":{"pid":"b3ec6672-0016-4ae6-bce4-fe1f0a4226e4","full":2.3},"geometry":{"type":"Polygon","coordinates":[[[136.13508,36.05893],[136.1349,36.05887],[136.13486,36.05908],[136.13493,36.0591],[136.13532,36.05913],[136.13531,36.05906],[136.13517,36.05897],[136.13508,36.05893]]]}},{"type":"Feature","properties":{"pid":"1ac0e16c-83ef-4b02-acf5-312aa1c554d3","full":1.4},"geometry":{"type":"Polygon","coordinates":[[[136.13532,36.05914],[136.13495,36.05911],[136.13492,36.05926],[136.1353,36.05928],[136.13532,36.05914]]]}},{"type":"Feature","properties":{"pid":"37aba6c8-9ea0-412f-8a38-14a1dc713a3b","full":3.1},"geometry":{"type":"Polygon","coordinates":[[[136.13531,36.0593],[136.13492,36.05927],[136.13488,36.05945],[136.13529,36.0595],[136.13531,36.0593]]]}},{"type":"Feature","properties":{"pid":"4974fc8e-3952-4b92-840b-72c5bf69f202","full":10.5},"geometry":{"type":"Polygon","coordinates":[[[136.13632,36.06006],[136.13646,36.0596],[136.136,36.05937],[136.13597,36.05949],[136.13597,36.05956],[136.1361,36.05972],[136.13615,36.05985],[136.13615,36.05993],[136.13609,36.06011],[136.13646,36.06019],[136.13649,36.06009],[136.13632,36.06006]]]}},{"type":"Feature","properties":{"pid":"e7270237-6d1d-4967-a488-9431f3c7f7a0","full":1.8},"geometry":{"type":"Polygon","coordinates":[[[136.13549,36.06023],[136.13534,36.06017],[136.13529,36.06018],[136.13518,36.06037],[136.13517,36.06042],[136.13533,36.06048],[136.13549,36.06023]]]}},{"type":"Feature","properties":{"pid":"f8f35527-3868-4b8a-b4f2-428949d0f790","full":1.4},"geometry":{"type":"Polygon","coordinates":[[[136.13564,36.0606],[136.13572,36.0605],[136.13559,36.06046],[136.13563,36.06038],[136.13544,36.06033],[136.13533,36.06048],[136.13552,36.06056],[136.13564,36.0606]]]}},{"type":"Feature","properties":{"pid":"832abb6f-cee3-4aef-951a-0961cac8d04f","full":1.9},"geometry":{"type":"Polygon","coordinates":[[[136.13701,36.06023],[136.13683,36.06019],[136.13674,36.06049],[136.13694,36.06053],[136.13702,36.06025],[136.13701,36.06023]]]}},{"type":"Feature","properties":{"pid":"4f03e72a-90b9-407d-a42b-fcc36961c726","full":10.5},"geometry":{"type":"Polygon","coordinates":[[[136.1378,36.06011],[136.13733,36.05999],[136.13722,36.06034],[136.13771,36.06045],[136.1378,36.06011]]]}},{"type":"Feature","properties":{"pid":"72312ce0-2b0c-4336-a202-9c270f21d8a1","full":18.8},"geometry":{"type":"Polygon","coordinates":[[[136.13632,36.06006],[136.13705,36.06022],[136.13714,36.05992],[136.13684,36.05979],[136.13646,36.0596],[136.13632,36.06006]]]}},{"type":"Feature","properties":{"pid":"1ab4d13d-4ca1-47bc-9b1c-4ebafbd89db8","full":16.6},"geometry":{"type":"Polygon","coordinates":[[[136.13747,36.05897],[136.13657,36.05878],[136.13659,36.059],[136.13655,36.05909],[136.13738,36.05927],[136.13747,36.05897]]]}},{"type":"Feature","properties":{"pid":"a9bfbdea-f1c6-409d-8896-c664791bdf6b","full":32.6},"geometry":{"type":"Polygon","coordinates":[[[136.13807,36.0591],[136.13762,36.059],[136.13734,36.05984],[136.13757,36.05991],[136.13783,36.05998],[136.13811,36.05912],[136.13807,36.0591]]]}},{"type":"Feature","properties":{"pid":"85c78feb-cde1-4e4b-853f-7811151f1294","full":31.3},"geometry":{"type":"Polygon","coordinates":[[[136.13859,36.05923],[136.13811,36.05912],[136.13783,36.05998],[136.1383,36.06008],[136.13832,36.06007],[136.13859,36.05928],[136.13859,36.05923]]]}},{"type":"Feature","properties":{"pid":"b22da20b-0434-4a28-9c4d-c2e392af6d93","full":71.6},"geometry":{"type":"Polygon","coordinates":[[[136.13834,36.06009],[136.1393,36.0603],[136.13959,36.05943],[136.13958,36.05942],[136.13917,36.05933],[136.13913,36.05933],[136.13863,36.05922],[136.13834,36.06009]]]}},{"type":"Feature","properties":{"pid":"b48e51d1-5cfb-42bb-8aa8-f6acf1dc05e6","full":12.2},"geometry":{"type":"Polygon","coordinates":[[[136.13789,36.06013],[136.13782,36.06012],[136.13772,36.06045],[136.13796,36.06049],[136.13833,36.06054],[136.13843,36.06025],[136.13789,36.06013]]]}},{"type":"Feature","properties":{"pid":"4537a45e-7a31-4b98-82b4-f96ae9e9809e","full":12.7},"geometry":{"type":"Polygon","coordinates":[[[136.13886,36.06072],[136.13895,36.06074],[136.13908,36.06039],[136.13844,36.06025],[136.13835,36.06054],[136.13866,36.06061],[136.13867,36.06062],[136.13876,36.06065],[136.13872,36.06074],[136.13883,36.06077],[136.13886,36.06072]]]}},{"type":"Feature","properties":{"pid":"ee68445b-35c8-4bb8-b225-e7dd536d188d","full":0.7},"geometry":{"type":"Polygon","coordinates":[[[136.13856,36.06061],[136.13838,36.06056],[136.13832,36.06076],[136.13849,36.0608],[136.13853,36.06063],[136.13856,36.06061]]]}},{"type":"Feature","properties":{"pid":"315364d1-e426-4016-8e43-cbbbf2900cc7","full":12.7},"geometry":{"type":"Polygon","coordinates":[[[136.13973,36.06053],[136.13939,36.06045],[136.13937,36.06046],[136.13933,36.06045],[136.13918,36.06095],[136.13957,36.06103],[136.13973,36.06053]]]}},{"type":"Feature","properties":{"pid":"14ebe1ed-a792-4f2f-9cf4-37d63fd46e00","full":8.0},"geometry":{"type":"Polygon","coordinates":[[[136.14001,36.06059],[136.13973,36.06053],[136.13957,36.06103],[136.13989,36.06109],[136.1399,36.06102],[136.13996,36.0608],[136.13995,36.06077],[136.14001,36.06059]]]}},{"type":"Feature","properties":{"pid":"fa47ad7e-ab6e-4369-8c28-3b6470af1804","full":4.6},"geometry":{"type":"Polygon","coordinates":[[[136.14129,36.06087],[136.141,36.06081],[136.14089,36.06114],[136.14111,36.06119],[136.14107,36.06133],[136.14112,36.06134],[136.14129,36.06087]]]}},{"type":"Feature","properties":{"pid":"962f241a-cedf-4cc8-8f9c-dac4d4baefa9","full":0.6},"geometry":{"type":"Polygon","coordinates":[[[136.14139,36.06125],[136.14118,36.06121],[136.14113,36.06136],[136.14132,36.0614],[136.14134,36.06138],[136.14139,36.06125]]]}},{"type":"Feature","properties":{"pid":"a99eb64f-af21-47a9-8612-a337a966bb74","full":0.8},"geometry":{"type":"Polygon","coordinates":[[[136.14131,36.06171],[136.14128,36.0617],[136.14114,36.06176],[136.14118,36.06195],[136.14135,36.06195],[136.14131,36.06171]]]}},{"type":"Feature","properties":{"pid":"51844390-f09e-4b29-a760-0bf4df3b4a78","full":0.7},"geometry":{"type":"Polygon","coordinates":[[[136.14259,36.06193],[136.14261,36.06192],[136.1428,36.06193],[136.14282,36.06182],[136.14282,36.06181],[136.14267,36.06179],[136.14255,36.06177],[136.14253,36.06193],[136.14259,36.06193]]]}},{"type":"Feature","properties":{"pid":"97bf2894-58e1-451e-bb8e-aee1e5cbd200","full":24.7},"geometry":{"type":"Polygon","coordinates":[[[136.14436,36.06171],[136.14355,36.06143],[136.14341,36.06183],[136.14342,36.06185],[136.14373,36.06203],[136.14394,36.06219],[136.14398,36.06218],[136.14397,36.06198],[136.14414,36.06197],[136.14415,36.06193],[136.14436,36.06171]]]}},{"type":"Feature","properties":{"pid":"158d317e-b703-48ae-bdc2-217402c1ceee","full":15.7},"geometry":{"type":"Polygon","coordinates":[[[136.14272,36.06167],[136.14322,36.06177],[136.14327,36.06179],[136.1434,36.0614],[136.14339,36.06138],[136.14286,36.06124],[136.14272,36.06167]]]}},{"type":"Feature","properties":{"pid":"e7c3720d-0eba-442f-8747-0b3f774d1e07","full":19.0},"geometry":{"type":"Polygon","coordinates":[[[136.14383,36.0609],[136.14376,36.06087],[136.14373,36.06091],[136.14359,36.06128],[136.14443,36.06159],[136.14449,36.06156],[136.1446,36.06147],[136.14383,36.0609]]]}},{"type":"Feature","properties":{"pid":"7d1b18a0-6614-432b-86c3-5c27e9198903","full":10.7},"geometry":{"type":"Polygon","coordinates":[[[136.14431,36.06059],[136.1439,36.0603],[136.14374,36.06078],[136.14395,36.06093],[136.14431,36.06059]]]}},{"type":"Feature","properties":{"pid":"33017d30-4bf5-4138-867f-6992097cc3d4","full":37.0},"geometry":{"type":"Polygon","coordinates":[[[136.14371,36.06033],[136.14321,36.06021],[136.14292,36.06109],[136.14345,36.06125],[136.14363,36.06066],[136.14371,36.06033]]]}},{"type":"Feature","properties":{"pid":"e99b91a5-f0c8-4318-9ebe-4d281752cda4","full":8.8},"geometry":{"type":"Polygon","coordinates":[[[136.1432,36.06021],[136.14299,36.06016],[136.14271,36.06104],[136.14291,36.06109],[136.1432,36.06021]]]}},{"type":"Feature","properties":{"pid":"fcaa2ec7-1c79-4beb-9cf2-b0ff413a3aab","full":20.1},"geometry":{"type":"Polygon","coordinates":[[[136.14206,36.06154],[136.14269,36.06166],[136.14284,36.06122],[136.14222,36.06108],[136.14206,36.06154]]]}},{"type":"Feature","properties":{"pid":"7af67fb2-e2c7-48b7-ad5c-fadc48c4faba","full":11.9},"geometry":{"type":"Polygon","coordinates":[[[136.14153,36.06127],[136.14208,36.0614],[136.14219,36.06107],[136.14163,36.06094],[136.14153,36.06127]]]}},{"type":"Feature","properties":{"pid":"a2048fcd-6dc4-45d2-a9ab-f93ff7d1923a","full":77.6},"geometry":{"type":"Polygon","coordinates":[[[136.14197,36.05996],[136.14195,36.05996],[136.14167,36.0608],[136.14271,36.06104],[136.14299,36.06016],[136.14198,36.05994],[136.14197,36.05996]]]}},{"type":"Feature","properties":{"pid":"886bd324-b85f-4411-99e9-7e7d4fe37469","full":12.7},"geometry":{"type":"Polygon","coordinates":[[[136.1438,36.0597],[136.14355,36.05963],[136.14338,36.06014],[136.14378,36.06023],[136.14393,36.05976],[136.1438,36.0597]]]}},{"type":"Feature","properties":{"pid":"1b4110ca-6a1b-40d5-ab6f-11eaa319049e","full":7.7},"geometry":{"type":"Polygon","coordinates":[[[136.14355,36.05963],[136.14328,36.05954],[136.14311,36.06008],[136.14338,36.06014],[136.14355,36.05963]]]}},{"type":"Feature","properties":{"pid":"741d34cf-f64a-4ee2-b5d8-6be5eeaeb5cb","full":23.7},"geometry":{"type":"Polygon","coordinates":[[[136.14328,36.05954],[136.14272,36.05937],[136.14253,36.05995],[136.14311,36.06008],[136.14328,36.05954]]]}},{"type":"Feature","properties":{"pid":"c93196af-3845-4702-b72a-bd764b0c4095","full":97.1},"geometry":{"type":"Polygon","coordinates":[[[136.14427,36.05904],[136.14454,36.05911],[136.14461,36.05904],[136.14479,36.05859],[136.14355,36.05827],[136.14317,36.05923],[136.14408,36.05952],[136.14427,36.05904]]]}},{"type":"Feature","properties":{"pid":"e970d7c7-1b72-4907-b83e-b16a6f2de607","full":24.0},"geometry":{"type":"Polygon","coordinates":[[[136.14271,36.05937],[136.14219,36.0592],[136.14198,36.05983],[136.14252,36.05995],[136.14271,36.05937]]]}},{"type":"Feature","properties":{"pid":"1d1555e5-8f54-4d7f-a29c-b68ac1d8d33b","full":25.1},"geometry":{"type":"Polygon","coordinates":[[[136.14101,36.0589],[136.14097,36.05889],[136.14096,36.05891],[136.14093,36.0589],[136.14094,36.05888],[136.14052,36.05877],[136.1403,36.05948],[136.14079,36.05958],[136.14101,36.0589]]]}},{"type":"Feature","properties":{"pid":"d03991e7-0e6e-44ae-9861-4dc493df7d66","full":59.9},"geometry":{"type":"Polygon","coordinates":[[[136.14204,36.05915],[136.14113,36.05893],[136.14112,36.05894],[136.1411,36.05893],[136.14109,36.05892],[136.14101,36.0589],[136.14079,36.05958],[136.14185,36.05981],[136.14187,36.05979],[136.14207,36.05917],[136.14204,36.05915]]]}},{"type":"Feature","properties":{"pid":"c0762e3d-2817-4c50-a646-5305215f4224","full":124.8},"geometry":{"type":"Polygon","coordinates":[[[136.13992,36.06041],[136.1407,36.06059],[136.14154,36.06076],[136.14183,36.05991],[136.14025,36.05956],[136.14024,36.05959],[136.14021,36.05957],[136.13992,36.06041]]]}},{"type":"Feature","properties":{"pid":"d0687b3d-b8d4-431c-98f6-a6990a868777","full":35.5},"geometry":{"type":"Polygon","coordinates":[[[136.1402,36.05955],[136.13966,36.05944],[136.13937,36.0603],[136.13991,36.06041],[136.1402,36.05955]]]}},{"type":"Feature","properties":{"pid":"5d08348f-3cc9-4280-b4b3-a07725532f62","full":13.0},"geometry":{"type":"Polygon","coordinates":[[[136.14021,36.0587],[136.13996,36.05863],[136.13994,36.05863],[136.13991,36.05863],[136.13969,36.05935],[136.13998,36.05941],[136.14021,36.0587]]]}},{"type":"Feature","properties":{"pid":"2c01c698-8d79-442a-8228-38dd24995d37","full":13.1},"geometry":{"type":"Polygon","coordinates":[[[136.14049,36.05878],[136.14049,36.05876],[136.14022,36.0587],[136.13999,36.05941],[136.14029,36.05948],[136.14051,36.05879],[136.14049,36.05878]]]}},{"type":"Feature","properties":{"pid":"8a763017-f93e-4bcc-8251-fffd860e7fee","full":31.1},"geometry":{"type":"Polygon","coordinates":[[[136.13952,36.05849],[136.13934,36.05841],[136.13908,36.05922],[136.13962,36.05933],[136.13986,36.05861],[136.13968,36.05856],[136.13952,36.05849]]]}},{"type":"Feature","properties":{"pid":"04bc6b9e-d031-4022-9b79-ca0f4253ac08","full":120.2},"geometry":{"type":"Polygon","coordinates":[[[136.14189,36.05783],[136.14057,36.05749],[136.14048,36.05753],[136.14013,36.05843],[136.1415,36.05875],[136.14189,36.05783]]]}},{"type":"Feature","properties":{"pid":"80a5c6de-f270-4d06-9ea5-635ee1be6c2c","full":86.9},"geometry":{"type":"Polygon","coordinates":[[[136.14214,36.05781],[136.14251,36.05687],[136.14235,36.05678],[136.14199,36.05684],[136.1418,36.0569],[136.14156,36.05688],[136.14141,36.05694],[136.1413,36.05697],[136.1412,36.05712],[136.14113,36.05719],[136.14093,36.0573],[136.14084,36.05735],[136.14059,36.05739],[136.14058,36.05743],[136.14208,36.05783],[136.14214,36.05781]]]}},{"type":"Feature","properties":{"pid":"f6c0fd1b-26d7-42a1-9fc1-7f1e8156d79e","full":98.2},"geometry":{"type":"Polygon","coordinates":[[[136.14046,36.05753],[136.14046,36.05749],[136.14042,36.05746],[136.14024,36.05751],[136.13994,36.05748],[136.13955,36.05735],[136.13935,36.05723],[136.13916,36.05714],[136.13907,36.05714],[136.13881,36.0578],[136.13906,36.05796],[136.13936,36.05814],[136.13951,36.05822],[136.13968,36.0583],[136.14011,36.05841],[136.14046,36.05753]]]}},{"type":"Feature","properties":{"pid":"02173036-ad24-46c3-8541-6fa0870046de","full":93.1},"geometry":{"type":"Polygon","coordinates":[[[136.14455,36.05847],[136.14492,36.05754],[136.1448,36.05755],[136.14442,36.05763],[136.1443,36.05763],[136.1441,36.05751],[136.14404,36.05744],[136.14397,36.05725],[136.14396,36.05724],[136.14372,36.05717],[136.14368,36.05717],[136.14331,36.05812],[136.14332,36.05814],[136.14455,36.05847]]]}},{"type":"Feature","properties":{"pid":"3834ea4c-7a41-4c9a-8c44-ade6d41f2d49","full":94.4},"geometry":{"type":"Polygon","coordinates":[[[136.14258,36.05694],[136.14252,36.05689],[136.14215,36.05783],[136.1432,36.05811],[136.14325,36.05807],[136.14362,36.05716],[136.1436,36.05714],[136.14301,36.05699],[136.14291,36.05699],[136.14258,36.05694]]]}},{"type":"Feature","properties":{"pid":"5d4a83b3-2a7f-49af-86d0-9c9099e2e2a8","full":141.6},"geometry":{"type":"Polygon","coordinates":[[[136.14354,36.05826],[136.14191,36.05784],[136.14154,36.05877],[136.14235,36.05898],[136.14315,36.05921],[136.14354,36.05826]]]}},{"type":"Feature","properties":{"pid":"b398ba0c-603f-4698-a57f-9a6e4c3c8389","full":56.8},"geometry":{"type":"Polygon","coordinates":[[[136.14493,36.05831],[136.14535,36.05841],[136.1456,36.05823],[136.1458,36.05773],[136.14508,36.05754],[136.14492,36.05754],[136.14455,36.05847],[136.14483,36.05854],[136.14493,36.05831]]]}},{"type":"Feature","properties":{"pid":"730ac390-b264-48d6-a745-a384fa198cbb","full":70.5},"geometry":{"type":"Polygon","coordinates":[[[136.14672,36.05712],[136.14606,36.05675],[136.14585,36.05677],[136.14559,36.05696],[136.1456,36.05707],[136.14556,36.05718],[136.1454,36.05731],[136.14515,36.05746],[136.14589,36.05764],[136.14591,36.05767],[136.14622,36.05775],[136.14626,36.05775],[136.14639,36.05765],[136.14647,36.05757],[136.14651,36.05752],[136.14672,36.05712]]]}},{"type":"Feature","properties":{"pid":"3814f758-de96-4bd5-8725-bbf61c8b1cb1","full":10.8},"geometry":{"type":"Polygon","coordinates":[[[136.14461,36.06081],[136.14432,36.06059],[136.14394,36.06094],[136.14424,36.06115],[136.14461,36.06081]]]}},{"type":"Feature","properties":{"pid":"611541cd-65f0-46e8-9679-765feca18f4b","full":15.6},"geometry":{"type":"Polygon","coordinates":[[[136.14502,36.06109],[136.14462,36.06081],[136.14424,36.06116],[136.14464,36.06144],[136.14502,36.06109]]]}},{"type":"Feature","properties":{"pid":"0b34512e-75c8-449f-a879-9c945766569a","full":7.7},"geometry":{"type":"Polygon","coordinates":[[[136.14474,36.06247],[136.14472,36.062],[136.1444,36.06202],[136.14442,36.06245],[136.14446,36.06248],[136.14474,36.06247]]]}},{"type":"Feature","properties":{"pid":"fb5f564f-5778-431f-85a1-d4e6696ebf46","full":1.4},"geometry":{"type":"Polygon","coordinates":[[[136.14604,36.06217],[136.14604,36.06195],[136.14565,36.06196],[136.14562,36.06202],[136.14604,36.06217]]]}},{"type":"Feature","properties":{"pid":"347c37f7-6234-45de-b3c2-61dc631b3112","full":1.1},"geometry":{"type":"Polygon","coordinates":[[[136.14623,36.06223],[136.14622,36.06195],[136.14604,36.06195],[136.14605,36.06217],[136.14623,36.06223]]]}},{"type":"Feature","properties":{"pid":"36857871-81e6-4958-8ba4-abd74ffef177","full":11.5},"geometry":{"type":"Polygon","coordinates":[[[136.14684,36.06241],[136.14682,36.06195],[136.14677,36.06193],[136.14656,36.06194],[136.14653,36.06195],[136.14637,36.06195],[136.14636,36.062],[136.14637,36.06227],[136.14683,36.06243],[136.14684,36.06241]]]}}],"precision":5}