{"type":"FeatureCollection","features":[{"type":"Feature","properties":{"pid":"5c9e3de3-11e7-4260-94a7-7dd83b82845d"},"geometry":{"type":"Polygon","coordinates":[[[135.52621241803328,35.48830048397337],[135.52633333125456,35.48839665244568],[135.52654023865261,35.48836001151166],[135.5265095446413,35.488309319628485],[135.52646439445905,35.48827566005755],[135.52621241803328,35.48830048397337]]]}},{"type":"Feature","properties":{"pid":"747ba566-f114-487f-8698-fdc9ba5465de"},"geometry":{"type":"Polygon","coordinates":[[[135.52610046212823,35.488169667441376],[135.52612911513395,35.48821082470494],[135.5263187254333,35.48816912696772],[135.52628607460687,35.488132827999976],[135.52623998335918,35.488128284907184],[135.52610046212823,35.488169667441376]]]}},{"type":"Feature","properties":{"pid":"90751b9c-a8e0-48ed-a509-4d21f8ff82cc"},"geometry":{"type":"Polygon","coordinates":[[[135.52686468323955,35.48753814166786],[135.52712815843546,35.487495979456405],[135.5270955565169,35.48741173281559],[135.52686468323955,35.48753814166786]]]}},{"type":"Feature","properties":{"pid":"198174eb-1cf5-4961-906d-13c785d844ec"},"geometry":{"type":"Polygon","coordinates":[[[135.52664223630364,35.48742638418149],[135.52671926371306,35.48746800886432],[135.527043803224,35.48729453128828],[135.526805109894,35.487317482013246],[135.52664223630364,35.48742638418149]]]}},{"type":"Feature","properties":{"pid":"c297d278-7969-4e15-bd33-c675adb231f0"},"geometry":{"type":"Polygon","coordinates":[[[135.5268736834946,35.48689785494304],[135.52711808499487,35.48690653339797],[135.52712388173995,35.48686328058494],[135.5268759933796,35.486871817662426],[135.5268736834946,35.48689785494304]]]}},{"type":"Feature","properties":{"pid":"c88ec0f4-6d10-4224-80cb-e27191c776cd"},"geometry":{"type":"Polygon","coordinates":[[[135.52736606656504,35.48756333691848],[135.52757211070653,35.48740924982806],[135.52747130957744,35.48711223526287],[135.52725017635174,35.48732980721607],[135.52736606656504,35.48756333691848]]]}},{"type":"Feature","properties":{"pid":"73068cf2-e5b3-492d-b442-9b74aa5da329"},"geometry":{"type":"Polygon","coordinates":[[[135.5272450025992,35.48714150795357],[135.52726532304845,35.487139121800666],[135.52736623799126,35.48704600187933],[135.5273623464913,35.4870309146746],[135.52725934087016,35.487046985082046],[135.5272450025992,35.48714150795357]]]}},{"type":"Feature","properties":{"pid":"3b22fea3-c715-4113-8a80-345dc3b688f4"},"geometry":{"type":"Polygon","coordinates":[[[135.52675456767454,35.48775901323104],[135.52716913267585,35.48768635839724],[135.52720798201943,35.48768239859292],[135.52717382274727,35.487603730231086],[135.5267737264499,35.48767010402234],[135.52675456767454,35.48775901323104]]]}},{"type":"Feature","properties":{"pid":"f5ef38cd-bfc8-4ae8-ac8e-19545c36aa36"},"geometry":{"type":"Polygon","coordinates":[[[135.52650104348467,35.488149149399156],[135.52657412925169,35.48818209242187],[135.52663780796524,35.48827202852774],[135.5266791035573,35.48824669599882],[135.52661986480288,35.48815273740482],[135.52650104348467,35.488149149399156]]]}},{"type":"Feature","properties":{"pid":"871a937e-8401-46fd-812e-7bc42190432b"},"geometry":{"type":"Polygon","coordinates":[[[135.5271373534303,35.488308950701395],[135.52702628143334,35.488223345989624],[135.5269019874809,35.48827322741474],[135.52701405129284,35.48839787858061],[135.5271373534303,35.488308950701395]]]}},{"type":"Feature","properties":{"pid":"24358ecf-d3be-46e6-a578-63dbd85896cb"},"geometry":{"type":"Polygon","coordinates":[[[135.52739425796298,35.48590826930528],[135.52747734301948,35.48601569547126],[135.52751853555188,35.48603805729015],[135.52752846896053,35.4859676317079],[135.52739425796298,35.48590826930528]]]}},{"type":"Feature","properties":{"pid":"61a6dd10-5138-4039-a8e0-b0419b049e94"},"geometry":{"type":"Polygon","coordinates":[[[135.52734801418893,35.48577782473873],[135.5275911455816,35.48588499164402],[135.5275952196739,35.485868814294314],[135.52748239404715,35.485725534316906],[135.52738715383057,35.48567303199583],[135.52734901226648,35.485683542733206],[135.52734801418893,35.48577782473873]]]}},{"type":"Feature","properties":{"pid":"b9ca3e9e-7cf4-4f05-bb0a-6842636a04d6"},"geometry":{"type":"Polygon","coordinates":[[[135.52718976117643,35.48614213178178],[135.52679611475787,35.48630860306973],[135.5268069448211,35.48635418671076],[135.5271892260305,35.48620962595734],[135.52718976117643,35.48614213178178]]]}},{"type":"Feature","properties":{"pid":"52f39343-6697-489a-8888-45f6c24865d5"},"geometry":{"type":"Polygon","coordinates":[[[135.52687455737677,35.486525256162594],[135.527172721602,35.48641482516439],[135.52718281758257,35.486316956164764],[135.52684353986584,35.48644582360802],[135.52687455737677,35.486525256162594]]]}},{"type":"Feature","properties":{"pid":"8249129c-df69-44b2-a8c7-8ccb681b519a"},"geometry":{"type":"Polygon","coordinates":[[[135.52688084719514,35.48662858683424],[135.5268990129798,35.486738508628164],[135.5268908638287,35.486775373274085],[135.5271366688184,35.4867678666127],[135.5271618928921,35.48652392585436],[135.52688084719514,35.48662858683424]]]}},{"type":"Feature","properties":{"pid":"29375e2f-c236-4769-a2e5-641fbd7c7dde"},"geometry":{"type":"Polygon","coordinates":[[[135.5347474489361,35.484434158107724],[135.53493296251892,35.484346197433794],[135.5348588299957,35.48432742212628],[135.53475429682695,35.48435714808359],[135.534737754785,35.48440106645186],[135.5347474489361,35.484434158107724]]]}},{"type":"Feature","properties":{"pid":"2e9a5492-882d-493e-abf9-e5c1ff7146d0"},"geometry":{"type":"Polygon","coordinates":[[[135.53510830894197,35.48443024198146],[135.53507330256687,35.484428775308686],[135.5349313674192,35.484506275558445],[135.53495044760197,35.48457501123959],[135.53509241623868,35.48453181722486],[135.53510830894197,35.48443024198146]]]}},{"type":"Feature","properties":{"pid":"637818a6-99f4-4f00-84f6-430330362cef"},"geometry":{"type":"Polygon","coordinates":[[[135.53500529806982,35.48483599016722],[135.53502305673123,35.48492508136428],[135.53507959130584,35.48490700394803],[135.5350591514828,35.48480722054233],[135.5350765003554,35.48466791432572],[135.53501663218302,35.484686726788176],[135.53500529806982,35.48483599016722]]]}},{"type":"Feature","properties":{"pid":"95129817-1d44-439f-ac11-63dfd7184a63"},"geometry":{"type":"Polygon","coordinates":[[[135.535185745272,35.485024002681875],[135.5351740034855,35.48509565161063],[135.53531733432277,35.48509679284355],[135.5353177944399,35.485016901475014],[135.535185745272,35.485024002681875]]]}},{"type":"Feature","properties":{"pid":"1d5ef5d1-546a-49a3-8c5b-cfa058ac8ad4"},"geometry":{"type":"Polygon","coordinates":[[[135.53519466616112,35.48527432510033],[135.53537836509835,35.485281148012874],[135.5353873232007,35.48520205914666],[135.53517225614345,35.48520122999515],[135.53519466616112,35.48527432510033]]]}},{"type":"Feature","properties":{"pid":"f8f5934b-b27e-4c69-aa85-fa045e5100d0"},"geometry":{"type":"Polygon","coordinates":[[[135.5348916268815,35.48518983388502],[135.53503478162685,35.48513197837174],[135.53504678883678,35.485059354297924],[135.53486632533503,35.48510097612456],[135.5348916268815,35.48518983388502]]]}},{"type":"Feature","properties":{"pid":"63de1b56-54ae-400d-a41e-1ce5bcd6cf1b"},"geometry":{"type":"Polygon","coordinates":[[[135.53503553886463,35.48562105841457],[135.53507244445464,35.485525701768395],[135.53498396293648,35.485525954445386],[135.53493557006797,35.48554737049635],[135.53491945212647,35.48558712256806],[135.53503553886463,35.48562105841457]]]}},{"type":"Feature","properties":{"pid":"809c9a7b-293f-409c-b8ef-4c0ff9e4ba70"},"geometry":{"type":"Polygon","coordinates":[[[135.53498417338724,35.485410829750116],[135.53508780668878,35.48541155523542],[135.53508137042928,35.48533750549535],[135.5350438289203,35.485261731060184],[135.53497031597374,35.48530023595276],[135.53498417338724,35.485410829750116]]]}},{"type":"Feature","properties":{"pid":"84c06e38-2e63-4487-a04e-92cd5b3e0ebe"},"geometry":{"type":"Polygon","coordinates":[[[135.53522156605675,35.48543716591121],[135.5353450589761,35.485444639771934],[135.53535582345725,35.485384154535986],[135.53521664632157,35.485382053438066],[135.53522156605675,35.48543716591121]]]}},{"type":"Feature","properties":{"pid":"5c3c630c-693a-4833-be2d-70d74b44d8f7"},"geometry":{"type":"Polygon","coordinates":[[[135.53515606569215,35.48566776761969],[135.53528692930843,35.485699536576696],[135.53531761435275,35.48554996948986],[135.5351993664371,35.4855377057841],[135.53515606569215,35.48566776761969]]]}},{"type":"Feature","properties":{"pid":"523823bd-31df-4229-af2b-254686dae624"},"geometry":{"type":"Polygon","coordinates":[[[135.53510820864616,35.48586878072265],[135.53503179666973,35.4858393390315],[135.53489546392066,35.48584635716276],[135.53487392989274,35.4859490457174],[135.5349121846046,35.48596382727527],[135.5349660884086,35.48592549180486],[135.53510820864616,35.48586878072265]]]}},{"type":"Feature","properties":{"pid":"89f0ba41-2034-4658-853b-78a648ab7c6b"},"geometry":{"type":"Polygon","coordinates":[[[135.53490047306144,35.486177526163175],[135.5349409245956,35.48620562759906],[135.53512172725317,35.485986367603495],[135.53504636309356,35.486012876203354],[135.5349605531487,35.486081378757234],[135.53490047306144,35.486177526163175]]]}},{"type":"Feature","properties":{"pid":"2b725368-45e3-4617-bda0-2a3aa665e76d"},"geometry":{"type":"Polygon","coordinates":[[[135.5350467493894,35.486269710191635],[135.53509899668748,35.48630380233686],[135.5351974777879,35.48621984579835],[135.53516049217995,35.48612642915216],[135.5350467493894,35.486269710191635]]]}},{"type":"Feature","properties":{"pid":"98f46a63-9acb-4f09-93fb-22dfc6d0830f"},"geometry":{"type":"Polygon","coordinates":[[[135.53472075252222,35.486605601123415],[135.5349274304876,35.48643467775143],[135.53481075360259,35.486364584893934],[135.53461243354417,35.4865310634195],[135.53472075252222,35.486605601123415]]]}},{"type":"Feature","properties":{"pid":"799f34cc-c9b5-48de-9471-55154c96a3cf"},"geometry":{"type":"Polygon","coordinates":[[[135.53430610374636,35.48649421602729],[135.5343959861063,35.486435060150235],[135.5345439607502,35.48623548646658],[135.53448954724183,35.48622202642548],[135.53420677482586,35.486408596797126],[135.53430610374636,35.48649421602729]]]}},{"type":"Feature","properties":{"pid":"095deb0a-fcc7-44eb-a1f7-6bcf15f24bfb"},"geometry":{"type":"Polygon","coordinates":[[[135.53437481961348,35.486166541596305],[135.53428477376053,35.48610115546549],[135.53404724441094,35.48622369126803],[135.5341316530017,35.486322358069486],[135.53437481961348,35.486166541596305]]]}},{"type":"Feature","properties":{"pid":"76ea9cd0-fef1-4f46-8b48-663b3f782bd1"},"geometry":{"type":"Polygon","coordinates":[[[135.5333358787052,35.486028265367985],[135.53336165136565,35.486087295255125],[135.53342231490498,35.486026641691645],[135.53363084406556,35.48589458849213],[135.5333358787052,35.486028265367985]]]}},{"type":"Feature","properties":{"pid":"5215d65d-a7a0-4205-aca8-db917ee78e74"},"geometry":{"type":"Polygon","coordinates":[[[135.53378333301688,35.486428947633335],[135.5339600787334,35.48632297899098],[135.53393325563323,35.48629390106554],[135.53374942278148,35.48639365307451],[135.53378333301688,35.486428947633335]]]}},{"type":"Feature","properties":{"pid":"bb43f634-8b1f-409e-9255-42fe6e8e4d70"},"geometry":{"type":"Polygon","coordinates":[[[135.53406835488133,35.48645673826234],[135.53404022590365,35.48641592962991],[135.53386188488597,35.48653117881856],[135.53389323370465,35.486571769894866],[135.53406835488133,35.48645673826234]]]}},{"type":"Feature","properties":{"pid":"83bff125-85c0-4916-a676-4eda9cdc9769"},"geometry":{"type":"Polygon","coordinates":[[[135.53309167296325,35.485576874020765],[135.53313625190032,35.48552671831963],[135.53329002282052,35.485444476650656],[135.53325461363934,35.48542930231477],[135.5331236781337,35.485498947418314],[135.53309167296325,35.485576874020765]]]}},{"type":"Feature","properties":{"pid":"9781b0e2-0288-48b1-b15a-723fb3e9fd3c"},"geometry":{"type":"Polygon","coordinates":[[[135.5337804236027,35.4856364246343],[135.533843348142,35.485704181899564],[135.53399864640758,35.485720209041204],[135.53398135796917,35.48562538264235],[135.53393245327183,35.485559456272526],[135.5338719593359,35.48557026693494],[135.5337804236027,35.4856364246343]]]}},{"type":"Feature","properties":{"pid":"53bcea89-1a92-42d5-ae37-0ad1111d0281"},"geometry":{"type":"Polygon","coordinates":[[[135.5334615793414,35.48538003541236],[135.5335532128845,35.485441060518866],[135.53365381503477,35.48546744671881],[135.53371838503898,35.485527051576966],[135.5338239091938,35.485427316595505],[135.53362907252023,35.48529192922755],[135.53359671958123,35.48528532811908],[135.5334615793414,35.48538003541236]]]}},{"type":"Feature","properties":{"pid":"35366d1a-f2e9-49de-aae6-42c107b3bfc9"},"geometry":{"type":"Polygon","coordinates":[[[135.5340206140801,35.48673800982732],[135.5342077383463,35.48658025326654],[135.53415583053626,35.486533497666336],[135.5339587738295,35.48665745529325],[135.5340206140801,35.48673800982732]]]}},{"type":"Feature","properties":{"pid":"81ffae03-761c-499f-982b-0003d4b8e528"},"geometry":{"type":"Polygon","coordinates":[[[135.53370932979036,35.48727827090555],[135.5339402197094,35.48735502388864],[135.53401160903528,35.487221613097276],[135.53378224880413,35.48714202467579],[135.53370932979036,35.48727827090555]]]}},{"type":"Feature","properties":{"pid":"842fba4e-be5a-4a75-b02e-4c4fbcc1a2a4"},"geometry":{"type":"Polygon","coordinates":[[[135.5344739131585,35.487675792514764],[135.5346272900889,35.487415529520426],[135.53452755994118,35.4873502696482],[135.53437410243302,35.48763668466336],[135.5344739131585,35.487675792514764]]]}},{"type":"Feature","properties":{"pid":"e3355c78-57f2-417b-abaf-2d4e9f371f93"},"geometry":{"type":"Polygon","coordinates":[[[135.5340142998523,35.48701766845088],[135.53408835898006,35.48707412775035],[135.53422139990593,35.486941794091585],[135.53414644784672,35.48690900398443],[135.5340142998523,35.48701766845088]]]}},{"type":"Feature","properties":{"pid":"f89602ca-6ea5-4a23-b6ff-7ece5851fe00"},"geometry":{"type":"Polygon","coordinates":[[[135.5342264463976,35.48709928226376],[135.53446483382132,35.48717781662706],[135.5344966152051,35.487128305553554],[135.53445419165905,35.487063257234865],[135.5343761695081,35.486991677840095],[135.53434431697536,35.48698176772402],[135.5342264463976,35.48709928226376]]]}},{"type":"Feature","properties":{"pid":"7c47ee92-04ac-4752-a2df-20af8d3e34d4"},"geometry":{"type":"Polygon","coordinates":[[[135.53486006011136,35.48691227357788],[135.53475419509437,35.486833189123736],[135.53451473044595,35.48695949869535],[135.5345963540845,35.48704188231803],[135.53486006011136,35.48691227357788]]]}},{"type":"Feature","properties":{"pid":"0872dc39-0229-40a4-a48a-e54fb2d472b8"},"geometry":{"type":"Polygon","coordinates":[[[135.53469448382506,35.48711753172097],[135.53494131040307,35.48714623012687],[135.53507874270565,35.48714565940559],[135.53515439527627,35.487120031469445],[135.53495618336845,35.4869871090035],[135.53469448382506,35.48711753172097]]]}},{"type":"Feature","properties":{"pid":"91b24cb7-1baa-4b25-93c0-a999c3898fd4"},"geometry":{"type":"Polygon","coordinates":[[[135.53489772554605,35.486758773868786],[135.53495466928717,35.48679171909501],[135.5351700259701,35.486618101544714],[135.53512421457765,35.486581321456946],[135.53489772554605,35.486758773868786]]]}},{"type":"Feature","properties":{"pid":"3a57e406-daad-45ae-8d11-4c808fe1acd7"},"geometry":{"type":"Polygon","coordinates":[[[135.53504681807215,35.486859599181784],[135.53513552268254,35.48691285377633],[135.53537002692738,35.48680268608611],[135.5352538758426,35.486695678541714],[135.53504681807215,35.486859599181784]]]}},{"type":"Feature","properties":{"pid":"e26aba94-39dc-4b52-8f54-ac799e36ea46"},"geometry":{"type":"Polygon","coordinates":[[[135.53458057340958,35.48725474752568],[135.53476438252878,35.48738500763001],[135.53490689319221,35.48725283027557],[135.53461297275038,35.48721142869423],[135.53458057340958,35.48725474752568]]]}},{"type":"Feature","properties":{"pid":"7fe5489a-5ffb-49f3-9b81-e6654032d567"},"geometry":{"type":"Polygon","coordinates":[[[135.53502513612082,35.487520203807215],[135.53511923563102,35.48740632265799],[135.53521223024862,35.48733607314511],[135.53514460354674,35.487258929591206],[135.5350648996078,35.48728723977776],[135.53495428455201,35.487362394580344],[135.53487514451518,35.48744705170078],[135.53502513612082,35.487520203807215]]]}},{"type":"Feature","properties":{"pid":"f0fac4b6-404d-483b-a380-23b9768df353"},"geometry":{"type":"Polygon","coordinates":[[[135.5347167127352,35.48748228163021],[135.5345843986161,35.48770686980243],[135.53468883399304,35.48770721262336],[135.5347959002805,35.48752224620895],[135.5347167127352,35.48748228163021]]]}},{"type":"Feature","properties":{"pid":"4fbdd998-80fd-4c1e-8187-753463be7db7"},"geometry":{"type":"Polygon","coordinates":[[[135.5346224655489,35.48818508765909],[135.5346837543988,35.488165118860245],[135.53473827971143,35.488024809402766],[135.53445804846865,35.488068511342725],[135.53446902775775,35.48811908418586],[135.5346224655489,35.48818508765909]]]}},{"type":"Feature","properties":{"pid":"d98022dc-1a6c-44af-bb33-80f1831881fd"},"geometry":{"type":"Polygon","coordinates":[[[135.53481641813946,35.48815924004297],[135.53494930593078,35.488146500282944],[135.534966323002,35.48812749246294],[135.53485634079235,35.48810120513186],[135.53481641813946,35.48815924004297]]]}},{"type":"Feature","properties":{"pid":"350ec1a4-6513-4046-9f26-131daf76dd00"},"geometry":{"type":"Polygon","coordinates":[[[135.53507178737866,35.48818315107872],[135.53520156107024,35.48818192013276],[135.53524701258937,35.48814601094467],[135.53517556546117,35.488088661512464],[135.53507178737866,35.48818315107872]]]}},{"type":"Feature","properties":{"pid":"3e0f128b-3e9f-4556-b8c2-9b5d31bb4aec"},"geometry":{"type":"Polygon","coordinates":[[[135.5349090526085,35.4880064492808],[135.5350542587744,35.48804003447866],[135.5351552357411,35.48796303622369],[135.53491851316912,35.48799579827711],[135.5349090526085,35.4880064492808]]]}},{"type":"Feature","properties":{"pid":"7b8d9880-51c3-40bf-b23c-d1d3071d0b31"},"geometry":{"type":"Polygon","coordinates":[[[135.5353310204293,35.48806629021393],[135.53537301070364,35.48802181596699],[135.5354313856212,35.48793237674521],[135.53537071415874,35.48793797786802],[135.53526682776214,35.4880154998334],[135.5353310204293,35.48806629021393]]]}},{"type":"Feature","properties":{"pid":"5572438b-5de2-4d07-bbbd-083e97dbdd95"},"geometry":{"type":"Polygon","coordinates":[[[135.5300488564967,35.48881540643757],[135.53005853815526,35.488888939584456],[135.53022417531207,35.48889325248529],[135.5302127038907,35.48877407533037],[135.5302468922453,35.488727957195486],[135.5302297839635,35.488571702963036],[135.53008657845325,35.48859784935515],[135.5301041705205,35.48877478584978],[135.53008507616676,35.48880468264224],[135.5300488564967,35.48881540643757]]]}},{"type":"Feature","properties":{"pid":"fd9ad0d5-ba82-441d-9ca5-63faada158e6"},"geometry":{"type":"Polygon","coordinates":[[[135.52983988964735,35.48863626884716],[135.52976872482967,35.488646855553526],[135.52973430588784,35.4887502151224],[135.52979394206508,35.488779684861726],[135.52984889437624,35.48878218449806],[135.52983988964735,35.48863626884716]]]}},{"type":"Feature","properties":{"pid":"82515be6-dd07-4930-a7ed-4396f23a8142"},"geometry":{"type":"Polygon","coordinates":[[[135.52920999656004,35.488944427277325],[135.5292577886016,35.488788287138085],[135.52935307588743,35.48870465536721],[135.5292102441145,35.48872605753551],[135.52920999656004,35.488944427277325]]]}},{"type":"Feature","properties":{"pid":"7830f230-e024-4142-be57-045cd791b6e4"},"geometry":{"type":"Polygon","coordinates":[[[135.52934380005874,35.48897592348112],[135.5293817096464,35.48890352384936],[135.52946613637374,35.48884256213834],[135.52957497547436,35.488801517846234],[135.52956829373815,35.48874341083015],[135.52939032324275,35.488811254677906],[135.52933935966436,35.48893476491481],[135.5293304710625,35.48897289554682],[135.52934380005874,35.48897592348112]]]}},{"type":"Feature","properties":{"pid":"dfee496d-062f-4857-ae3e-c47af24b7cb1"},"geometry":{"type":"Polygon","coordinates":[[[135.52965198644665,35.48924724315451],[135.52969768795467,35.489330621860184],[135.5297818279343,35.48931866331126],[135.52977352592174,35.489068994550244],[135.5297509344995,35.4890536782444],[135.5297081352243,35.48906938845931],[135.5296775685197,35.48922055493405],[135.52965198644665,35.48924724315451]]]}},{"type":"Feature","properties":{"pid":"d8f1886d-7383-4f90-a261-a6d5856ae6c8"},"geometry":{"type":"Polygon","coordinates":[[[135.52882228417747,35.48848219772967],[135.5288441554623,35.488541453303256],[135.5288956915276,35.488363263570754],[135.52885091449113,35.488373038176235],[135.52882228417747,35.48848219772967]]]}},{"type":"Feature","properties":{"pid":"7afe43d8-e04a-4e5d-ac55-d31632d764cc"},"geometry":{"type":"Polygon","coordinates":[[[135.52686278889763,35.48853790638556],[135.52692046266247,35.488471686662876],[135.5267860291017,35.48832732576552],[135.52672217727024,35.48835643154479],[135.5266799136914,35.48840845583609],[135.52686278889763,35.48853790638556]]]}},{"type":"Feature","properties":{"pid":"77422674-2f21-426c-a660-4370ff68149a"},"geometry":{"type":"Polygon","coordinates":[[[135.52676271762402,35.48867978989178],[135.5268048512541,35.48863204247654],[135.5265648195284,35.48846708596942],[135.52641253826093,35.48848797005681],[135.52652531628047,35.488572394677874],[135.52676271762402,35.48867978989178]]]}},{"type":"Feature","properties":{"pid":"a558e9b8-fbe5-4cb7-a805-5182d4ddd862"},"geometry":{"type":"Polygon","coordinates":[[[135.52599625428556,35.48848880322124],[135.52617940795028,35.48843762969353],[135.52614080270695,35.48841456474187],[135.52605836640544,35.488410299445],[135.5260008248616,35.48843587387321],[135.52599625428556,35.48848880322124]]]}},{"type":"Feature","properties":{"pid":"f53a4562-8421-412d-bc21-a336f42f4a6e"},"geometry":{"type":"Polygon","coordinates":[[[135.52664628024553,35.48961114789779],[135.52674336674798,35.4896062366705],[135.5266658003317,35.48939882551727],[135.5265759119119,35.48940398485526],[135.526553543552,35.48942103767951],[135.52664628024553,35.48961114789779]]]}},{"type":"Feature","properties":{"pid":"0b5176f0-c66a-4891-b550-1233d0f07d65"},"geometry":{"type":"Polygon","coordinates":[[[135.53666917344424,35.48735533726711],[135.5367043980913,35.48724435909827],[135.536800201509,35.487213180381744],[135.53676711813245,35.48716829063518],[135.53668096547185,35.48712874305158],[135.5366086767146,35.487042395736566],[135.53655596463076,35.48708359736498],[135.53666917344424,35.48735533726711]]]}},{"type":"Feature","properties":{"pid":"a8032889-56dd-4ffa-8686-d18ff16c61af"},"geometry":{"type":"Polygon","coordinates":[[[135.53681097303672,35.487349708166434],[135.53699687298032,35.48731157254959],[135.5369589949881,35.48722098132168],[135.53693420279694,35.48727713608574],[135.5368167543338,35.48731929769033],[135.53681097303672,35.487349708166434]]]}},{"type":"Feature","properties":{"pid":"9ebdc853-9f04-42ed-85e3-6c8fef6e2277"},"geometry":{"type":"Polygon","coordinates":[[[135.53535416292036,35.487202614881284],[135.5354726361306,35.487184626690976],[135.535800188148,35.48717756635578],[135.5357511053512,35.487083786764074],[135.53570255336717,35.4870474367466],[135.53535416292036,35.487202614881284]]]}},{"type":"Feature","properties":{"pid":"fc99d5fb-4c8f-4c6d-8ce8-a6f2c009398d"},"geometry":{"type":"Polygon","coordinates":[[[135.53638884834217,35.48715036429722],[135.5364117342876,35.48722708693977],[135.53638301257243,35.48726805902844],[135.536462206705,35.48741074340652],[135.5365310029229,35.48741003644644],[135.5364317790779,35.48714249975571],[135.53638884834217,35.48715036429722]]]}},{"type":"Feature","properties":{"pid":"25414b55-a8ba-43d7-8733-56b19e8a6f5b"},"geometry":{"type":"Polygon","coordinates":[[[135.53606413994544,35.48717427992699],[135.53618078430256,35.48727178910642],[135.53622264858004,35.48730021256518],[135.53614223708843,35.487152334400925],[135.53606413994544,35.48717427992699]]]}},{"type":"Feature","properties":{"pid":"d633cb48-91c8-442e-a359-44ea3fe5e39e"},"geometry":{"type":"Polygon","coordinates":[[[135.53634004611268,35.48692071371014],[135.5364437800471,35.48689151274228],[135.53667426014985,35.48684642254566],[135.53661783963383,35.486770737019256],[135.5365707773443,35.486776714386345],[135.53653565998343,35.48675250107376],[135.53629461162353,35.48681975641104],[135.53634004611268,35.48692071371014]]]}},{"type":"Feature","properties":{"pid":"564702f5-a290-4e14-84cd-38dfff630386"},"geometry":{"type":"Polygon","coordinates":[[[135.53522268761114,35.48701236269426],[135.53532263085344,35.48708525695713],[135.53560230082803,35.486956486038366],[135.53549689744133,35.48688672380148],[135.53522268761114,35.48701236269426]]]}},{"type":"Feature","properties":{"pid":"66d565fc-da7b-4d46-9e4c-10005d266b01"},"geometry":{"type":"Polygon","coordinates":[[[135.5353667339369,35.48657220894756],[135.53551576340493,35.486727482427476],[135.53558679447374,35.48665337991783],[135.5354301647279,35.48652406281203],[135.5353667339369,35.48657220894756]]]}},{"type":"Feature","properties":{"pid":"919349c4-3026-4086-8e54-bcf1e072454d"},"geometry":{"type":"Polygon","coordinates":[[[135.53549134458729,35.486413142728296],[135.5355187248004,35.48640023341613],[135.5354467756884,35.486264765312235],[135.5354133066895,35.48627568155027],[135.53549134458729,35.486413142728296]]]}},{"type":"Feature","properties":{"pid":"b64caceb-688c-4063-a63a-6c8e1f3ee002"},"geometry":{"type":"Polygon","coordinates":[[[135.535335588779,35.48619438531487],[135.53542461649107,35.486167095056615],[135.53537476097608,35.48611071503883],[135.53531464209854,35.48612936166272],[135.535335588779,35.48619438531487]]]}},{"type":"Feature","properties":{"pid":"7ac9fe81-300c-433e-9cf2-5e49606f794c"},"geometry":{"type":"Polygon","coordinates":[[[135.53636665738327,35.483278401612935],[135.53661685336695,35.48329733321705],[135.53667268118693,35.48331542841352],[135.5367627136776,35.48337535494424],[135.53676162716067,35.483291280159],[135.5367168030956,35.48319001105522],[135.53667004689532,35.48314871416263],[135.5366236517983,35.483132618809904],[135.53642908961967,35.48311179920125],[135.53636665738327,35.483278401612935]]]}},{"type":"Feature","properties":{"pid":"114ea768-e603-42f2-930a-c66768f88a36"},"geometry":{"type":"Polygon","coordinates":[[[135.53672964696992,35.48353823843634],[135.53668702338052,35.48355843917183],[135.53669980721713,35.4836613123014],[135.53672980106373,35.483663937588815],[135.53674519633967,35.48356397608725],[135.53672964696992,35.48353823843634]]]}},{"type":"Feature","properties":{"pid":"c20bb9a0-d2f3-4cda-b03e-74612e9d9796"},"geometry":{"type":"Polygon","coordinates":[[[135.5360282570281,35.48251658159161],[135.53607765178816,35.48252114585615],[135.5360949307675,35.48238945085061],[135.5360462292731,35.48236840778416],[135.5360282570281,35.48251658159161]]]}},{"type":"Feature","properties":{"pid":"202f6ecd-e481-4888-af5b-1697007eb0b6"},"geometry":{"type":"Polygon","coordinates":[[[135.53622740230315,35.482530387984],[135.53633077649746,35.48254025131113],[135.5363376706382,35.48248251677116],[135.53624089753905,35.482437772090364],[135.53622740230315,35.482530387984]]]}},{"type":"Feature","properties":{"pid":"06e014db-9956-4220-a96e-10d07b509394"},"geometry":{"type":"Polygon","coordinates":[[[135.53620602065516,35.4820609211116],[135.53609723888493,35.48210083492714],[135.5360892234842,35.48211842985304],[135.5361241924983,35.48221547363752],[135.53623701627143,35.4822664047396],[135.53618667358091,35.48217205226492],[135.53620602065516,35.4820609211116]]]}},{"type":"Feature","properties":{"pid":"e5647e2b-9d21-4299-839f-327079f2dd0d"},"geometry":{"type":"Polygon","coordinates":[[[135.54447488730224,35.47550319071142],[135.54488615227447,35.47504561859239],[135.54464437315465,35.474909860883045],[135.54407173766919,35.47555869547762],[135.54413043477194,35.47560979781378],[135.54429452501654,35.47542810949332],[135.5443276432194,35.47541369459134],[135.54436887181907,35.475422492698264],[135.54447488730224,35.47550319071142]]]}},{"type":"Feature","properties":{"pid":"1ddcd7f9-8743-4449-b601-d1fc4291f096"},"geometry":{"type":"Polygon","coordinates":[[[135.5438998751847,35.47536719991409],[135.54399051741143,35.47544547849325],[135.5445337986384,35.47484534177585],[135.54443775767484,35.47478770072429],[135.5438998751847,35.47536719991409]]]}},{"type":"Feature","properties":{"pid":"0364e58c-e977-4879-93a4-eb0e0d7d05f9"},"geometry":{"type":"Polygon","coordinates":[[[135.5442859012298,35.47469858378602],[135.54376476186695,35.47526154316602],[135.54381899002544,35.47529381015295],[135.54434099651965,35.47473007095449],[135.5442859012298,35.47469858378602]]]}},{"type":"Feature","properties":{"pid":"d2134f55-fa87-4daf-abba-b4b8ffcfcdc7"},"geometry":{"type":"Polygon","coordinates":[[[135.54418383180658,35.47462142572668],[135.5441188503946,35.47456647307344],[135.543939529274,35.474528797608016],[135.5434165371404,35.47508817744899],[135.54364390545143,35.47521675819479],[135.54418383180658,35.47462142572668]]]}},{"type":"Feature","properties":{"pid":"177cf977-ecdc-4817-8bd4-f361202c86fa"},"geometry":{"type":"Polygon","coordinates":[[[135.54365333441842,35.47445646714317],[135.54334937528967,35.47478506389177],[135.54315968236767,35.47497443132672],[135.54323827316773,35.47501528469168],[135.5437353713619,35.47448167503857],[135.54365333441842,35.47445646714317]]]}},{"type":"Feature","properties":{"pid":"9f2100cc-62a8-4acf-aba8-68e8a804d136"},"geometry":{"type":"Polygon","coordinates":[[[135.54305808536085,35.47489617262516],[135.54329521743978,35.474661017590186],[135.54352684331428,35.47441771381066],[135.54345337420168,35.474394778164616],[135.54299473383853,35.47485723305217],[135.54305808536085,35.47489617262516]]]}},{"type":"Feature","properties":{"pid":"c5ea7524-254c-4563-97c4-34cafa6f8223"},"geometry":{"type":"Polygon","coordinates":[[[135.5430278371219,35.47426083892303],[135.54295537492737,35.47422390633605],[135.54255329614318,35.474628535345204],[135.5426339101414,35.47466400426121],[135.5430278371219,35.47426083892303]]]}},{"type":"Feature","properties":{"pid":"d0d29787-5ace-4958-96d1-90bd7af1c949"},"geometry":{"type":"Polygon","coordinates":[[[135.54316651387708,35.474315362407204],[135.54283875560367,35.474644116491405],[135.54275028447574,35.47473015534962],[135.54283137914436,35.47477364759554],[135.54304900709388,35.47457982664965],[135.54326642703032,35.47435094784434],[135.54316651387708,35.474315362407204]]]}},{"type":"Feature","properties":{"pid":"3591468b-6091-4ede-a405-a4a778a67dca"},"geometry":{"type":"Polygon","coordinates":[[[135.54282871524936,35.474148436693085],[135.54276071737848,35.47411212106887],[135.54234163551487,35.47453932696432],[135.54242343474436,35.474576356414445],[135.54282871524936,35.474148436693085]]]}},{"type":"Feature","properties":{"pid":"b5573db1-2160-4388-9a91-602767950111"},"geometry":{"type":"Polygon","coordinates":[[[135.54262886724368,35.4740550585842],[135.54256377483895,35.47403698536521],[135.54216768539092,35.47444922278279],[135.54222081374638,35.47447716274564],[135.54262886724368,35.4740550585842]]]}},{"type":"Feature","properties":{"pid":"694af80b-5d68-48af-a5fd-36820332bb78"},"geometry":{"type":"Polygon","coordinates":[[[135.5413581798982,35.47401371710991],[135.54146331303025,35.474071638855605],[135.54185252103576,35.47370337705129],[135.54170680031294,35.47366035377798],[135.5413581798982,35.47401371710991]]]}},{"type":"Feature","properties":{"pid":"c3018705-a70a-4ba6-a829-e61077bead93"},"geometry":{"type":"Polygon","coordinates":[[[135.54223291600593,35.473899447543594],[135.5421870040557,35.47386028949693],[135.54179281492824,35.47424257948842],[135.54187167253394,35.47428625509605],[135.54223291600593,35.473899447543594]]]}},{"type":"Feature","properties":{"pid":"8be3423e-5dbd-4612-b104-521e9410cdea"},"geometry":{"type":"Polygon","coordinates":[[[135.54242331851788,35.47398472802834],[135.5423503819468,35.47396092250572],[135.54198203495588,35.474350389867084],[135.5420399370956,35.47438244215523],[135.54242331851788,35.47398472802834]]]}},{"type":"Feature","properties":{"pid":"bb086e8c-b59e-4d9a-9691-bef4e5721438"},"geometry":{"type":"Polygon","coordinates":[[[135.54208712428579,35.473765475864624],[135.54199594509512,35.47373676737424],[135.54159446040393,35.47413718213532],[135.54166741576083,35.474174141638265],[135.54208712428579,35.473765475864624]]]}},{"type":"Feature","properties":{"pid":"20166484-77bc-4b98-91a2-6979e6750f8b"},"geometry":{"type":"Polygon","coordinates":[[[135.54771779156397,35.473610020577055],[135.5476237356929,35.473539870444675],[135.54711782936735,35.4739784691698],[135.5472121061041,35.47406712425396],[135.54771779156397,35.473610020577055]]]}},{"type":"Feature","properties":{"pid":"d09ac95d-30b3-415f-a6b9-e7d70085db87"},"geometry":{"type":"Polygon","coordinates":[[[135.5481464574441,35.473914697696735],[135.54803996131128,35.47383457662169],[135.5474950369553,35.47430256527738],[135.54763256302073,35.474368908117896],[135.5481464574441,35.473914697696735]]]}},{"type":"Feature","properties":{"pid":"1f73826b-0c3f-45a3-ae5e-69e6666494eb"},"geometry":{"type":"Polygon","coordinates":[[[135.54728949883855,35.474166859017316],[135.54734917635975,35.47423108727415],[135.54738608784956,35.47424917528676],[135.54793517846386,35.47376808503485],[135.54782426169947,35.47368271465523],[135.54728949883855,35.474166859017316]]]}},{"type":"Feature","properties":{"pid":"cdba69b4-d596-42f8-ad27-1d641985a7f0"},"geometry":{"type":"Polygon","coordinates":[[[135.54775566750283,35.474421502868005],[135.547906627336,35.474461380707226],[135.5483489870499,35.47406037161269],[135.54824403980487,35.47397966041356],[135.54775566750283,35.474421502868005]]]}},{"type":"Feature","properties":{"pid":"9dc83421-3fcc-45a6-8449-437d56bbce38"},"geometry":{"type":"Polygon","coordinates":[[[135.54857255532707,35.47400648768025],[135.5486783232892,35.47408235004189],[135.5490265916801,35.4737252589849],[135.54892222078024,35.47364941081159],[135.54857255532707,35.47400648768025]]]}},{"type":"Feature","properties":{"pid":"7c617ee6-1d57-4791-9ce8-704e47499e50"},"geometry":{"type":"Polygon","coordinates":[[[135.5488011734756,35.474171095670656],[135.54914840346504,35.47381378098629],[135.5491134836683,35.47378840416837],[135.5487679276704,35.47414707907781],[135.5488011734756,35.474171095670656]]]}},{"type":"Feature","properties":{"pid":"b1d90f20-4864-4384-b7af-2bd91a0bb56d"},"geometry":{"type":"Polygon","coordinates":[[[135.54909669219248,35.474385599179],[135.5494437826999,35.474040760049206],[135.54944258043705,35.47402748767278],[135.5493337391821,35.473948429458154],[135.54898672523416,35.4743057442067],[135.54909669219248,35.474385599179]]]}},{"type":"Feature","properties":{"pid":"255c8f48-2139-4e4d-9635-e1616b7467e5"},"geometry":{"type":"Polygon","coordinates":[[[135.54990376705743,35.47375009277834],[135.54967007062106,35.47396327965393],[135.5498923378676,35.47412329813057],[135.54993979989203,35.47406031603997],[135.55000192658858,35.474060341571374],[135.5500745250104,35.473896903785715],[135.54990376705743,35.47375009277834]]]}},{"type":"Feature","properties":{"pid":"d5e3eb08-e6e2-40de-aeb9-b15bfe88f1ad"},"geometry":{"type":"Polygon","coordinates":[[[135.54952445144332,35.474481992890105],[135.54964638050504,35.47446924218453],[135.54982578112123,35.47448075278349],[135.54986092503393,35.47433556275061],[135.54975263389022,35.47425551383477],[135.54952445144332,35.474481992890105]]]}},{"type":"Feature","properties":{"pid":"65cd2bd9-36cc-43de-8e3f-adb0ad9c3cfa"},"geometry":{"type":"Polygon","coordinates":[[[135.5502390518938,35.475287538906414],[135.55006990282948,35.475157692009134],[135.54942828670085,35.47573778635302],[135.5495940306489,35.47587234523439],[135.5502390518938,35.475287538906414]]]}},{"type":"Feature","properties":{"pid":"7cb09c7e-5007-4b15-89d3-f63672fab262"},"geometry":{"type":"Polygon","coordinates":[[[135.54997021917143,35.47508087960343],[135.5497617116557,35.474915548774376],[135.54912353143206,35.47548816805863],[135.54932966735996,35.47565700998442],[135.54997021917143,35.47508087960343]]]}},{"type":"Feature","properties":{"pid":"d6440af1-ae35-4bac-a0bb-b254123ecfc1"},"geometry":{"type":"Polygon","coordinates":[[[135.548310277818,35.47624060497277],[135.54846077282681,35.4763597033346],[135.54916643020073,35.47577373125637],[135.54901488690837,35.47565447907371],[135.548310277818,35.47624060497277]]]}},{"type":"Feature","properties":{"pid":"2695fc6a-6e34-4f5d-af70-b611f62c5782"},"geometry":{"type":"Polygon","coordinates":[[[135.54805337577181,35.47604560364047],[135.54822352472553,35.476174051891846],[135.54892764424784,35.475584515828736],[135.54875979916855,35.47544677554563],[135.54805337577181,35.47604560364047]]]}},{"type":"Feature","properties":{"pid":"537d24f0-37c7-48bb-9b0b-b33b8be1dccc"},"geometry":{"type":"Polygon","coordinates":[[[135.5485096072319,35.475241455312485],[135.54816366463896,35.47551775173743],[135.5478171219077,35.47584022807695],[135.54796898963596,35.47597605128208],[135.54867419166084,35.47537652216058],[135.5485096072319,35.475241455312485]]]}},{"type":"Feature","properties":{"pid":"40e4743d-a468-4557-bcde-f1f5332cd5a5"},"geometry":{"type":"Polygon","coordinates":[[[135.54878468158591,35.474926414304946],[135.5487293744972,35.47493567457159],[135.5485717595062,35.475061705382466],[135.54865749531075,35.4751274696234],[135.5488742358586,35.474948273728934],[135.54881843910573,35.474951528216764],[135.54878468158591,35.474926414304946]]]}},{"type":"Feature","properties":{"pid":"8df58a89-8b67-4955-95e9-f56420511732"},"geometry":{"type":"Polygon","coordinates":[[[135.5491053430771,35.47491069060736],[135.54875561464542,35.47520273208166],[135.54902069705685,35.47540606328534],[135.54966802509034,35.47484126410966],[135.54959794584468,35.47481428508575],[135.54949626850836,35.474822016226526],[135.5491053430771,35.47491069060736]]]}},{"type":"Feature","properties":{"pid":"35177783-3fd9-4fc0-9d70-125f91de7315"},"geometry":{"type":"Polygon","coordinates":[[[135.54862331861307,35.474642227729994],[135.54866849809105,35.474638478488906],[135.54906709367413,35.47455944561149],[135.54887415298612,35.47442295446187],[135.54862331861307,35.474642227729994]]]}},{"type":"Feature","properties":{"pid":"92ba4ef3-19ff-4477-b7e0-9a61bd9d764b"},"geometry":{"type":"Polygon","coordinates":[[[135.5493678920964,35.4744862687735],[135.54965488692463,35.47419789667808],[135.54965232219482,35.47418136302388],[135.54954234212713,35.47410006700094],[135.5491927715488,35.47445214108989],[135.5492531047572,35.47449379515611],[135.5493678920964,35.4744862687735]]]}},{"type":"Feature","properties":{"pid":"3913f750-43d2-4c54-ab4c-041ea242af27"},"geometry":{"type":"Polygon","coordinates":[[[135.5483213614733,35.47458986654609],[135.54845949113175,35.474625220658716],[135.5487583328833,35.474368696728526],[135.54875788111408,35.474340698907206],[135.5486721443789,35.4742800457585],[135.5483213614733,35.47458986654609]]]}},{"type":"Feature","properties":{"pid":"46069622-69e5-4026-8bc5-287aa980f8e9"},"geometry":{"type":"Polygon","coordinates":[[[135.5480256898421,35.47449696019797],[135.54820469308456,35.47455431213879],[135.54842353550308,35.47435863010726],[135.54828293834112,35.47426392613462],[135.5480256898421,35.47449696019797]]]}},{"type":"Feature","properties":{"pid":"871ef655-7916-4df3-b8f2-ed3d8bbeeb8f"},"geometry":{"type":"Polygon","coordinates":[[[135.54745246925063,35.47472741806932],[135.54755312220706,35.47492654570015],[135.5475623511968,35.47509092763595],[135.5479021927503,35.474813674858154],[135.5475264712399,35.47469247706428],[135.54745246925063,35.47472741806932]]]}},{"type":"Feature","properties":{"pid":"3e8b9fdd-c80e-4e10-97ff-559498e1da17"},"geometry":{"type":"Polygon","coordinates":[[[135.5476681097873,35.475412381395074],[135.54818634399118,35.47498262730929],[135.54803502410542,35.474864777529696],[135.5476375253744,35.47518803800406],[135.5476681097873,35.475412381395074]]]}},{"type":"Feature","properties":{"pid":"9ec0ae50-d3dd-4fd0-8ede-04a23022a087"},"geometry":{"type":"Polygon","coordinates":[[[135.54769552854847,35.4755487573904],[135.54770247457537,35.47558208875655],[135.54797143394282,35.47533834539885],[135.54830675512108,35.47507589553889],[135.548281586961,35.47505537828357],[135.54769552854847,35.4755487573904]]]}},{"type":"Feature","properties":{"pid":"1e632cd8-4447-4f20-b0df-ed4173ee0371"},"geometry":{"type":"Polygon","coordinates":[[[135.54773174431512,35.47570780816254],[135.5477465636942,35.47574933766473],[135.5480938902458,35.47542498317265],[135.54841773965921,35.47516637242611],[135.5483932005202,35.47514636795692],[135.54806044923416,35.47540439435432],[135.54773174431512,35.47570780816254]]]}},{"type":"Feature","properties":{"pid":"b9a90768-1002-43d5-96cc-672187250d62"},"geometry":{"type":"Polygon","coordinates":[[[135.54704545589956,35.47689756979568],[135.5471554331488,35.477016097517584],[135.54800403174073,35.4763406979284],[135.54786106598578,35.47623438727537],[135.54704545589956,35.47689756979568]]]}},{"type":"Feature","properties":{"pid":"42cd01be-d802-4806-82bf-91e207ea5386"},"geometry":{"type":"Polygon","coordinates":[[[135.54775567845053,35.47615601981211],[135.54765922090687,35.47608429270106],[135.5476213463349,35.476071734999955],[135.54758848667572,35.47608820496741],[135.54694520535827,35.4765825228496],[135.54675216481348,35.47674965093469],[135.54685059151657,35.47677168443951],[135.54693772544792,35.47682004626499],[135.54775567845053,35.47615601981211]]]}},{"type":"Feature","properties":{"pid":"49600357-c754-4971-8234-c1eaa980eeb8"},"geometry":{"type":"Polygon","coordinates":[[[135.5475318368853,35.47718041149736],[135.54773709416497,35.477260518730255],[135.54846530937326,35.47669627424306],[135.54829572195044,35.47656508096943],[135.5475318368853,35.47718041149736]]]}},{"type":"Feature","properties":{"pid":"56e1d9a2-9d1a-4646-bfa3-b457d3acfe50"},"geometry":{"type":"Polygon","coordinates":[[[135.54889389968648,35.47786649830443],[135.54931938768325,35.47754547072074],[135.5492769474609,35.47751341038163],[135.54886020835073,35.47783336912109],[135.54889389968648,35.47786649830443]]]}},{"type":"Feature","properties":{"pid":"86eac0d6-6a7c-48cc-80c0-3ad2c91a0764"},"geometry":{"type":"Polygon","coordinates":[[[135.54879442812953,35.47775178593265],[135.54922571232717,35.47741817079903],[135.54928720313814,35.477368126550715],[135.5492391687399,35.477326408392315],[135.54873066534697,35.477689359660104],[135.54879442812953,35.47775178593265]]]}},{"type":"Feature","properties":{"pid":"9cb8c502-77ee-45b8-99eb-2bfedf3fd11d"},"geometry":{"type":"Polygon","coordinates":[[[135.54855089759502,35.47769160105564],[135.5491513822492,35.47725616421455],[135.54904222678,35.477168359570896],[135.54849645962878,35.47758499395832],[135.54855089759502,35.47769160105564]]]}},{"type":"Feature","properties":{"pid":"9d88196b-d5bf-4358-9b96-4a1ff85f9d8c"},"geometry":{"type":"Polygon","coordinates":[[[135.54876035921765,35.4769418231573],[135.5485672286886,35.47678691989587],[135.54826923990294,35.47702631866575],[135.5484587508335,35.4771649080019],[135.54876035921765,35.4769418231573]]]}},{"type":"Feature","properties":{"pid":"c7b93e44-9b0f-4a6d-8175-9f011ed64da7"},"geometry":{"type":"Polygon","coordinates":[[[135.54829492103863,35.47741542771478],[135.5484107446519,35.477486848389525],[135.54894682975097,35.47709138395197],[135.5488456712376,35.477010248899624],[135.54829492103863,35.47741542771478]]]}},{"type":"Feature","properties":{"pid":"ecea9efa-8976-4f2b-aa98-d15a7ff4f3ba"},"geometry":{"type":"Polygon","coordinates":[[[135.54812025225348,35.47736276812657],[135.5481739020116,35.47737320012794],[135.5483709632905,35.47722962648856],[135.54818471237886,35.47709251051985],[135.5479862117665,35.47725340166825],[135.54807348151786,35.477309074154896],[135.54812025225348,35.47736276812657]]]}},{"type":"Feature","properties":{"pid":"5455ac4a-2b7e-4ee2-9c54-ac4fba92cac2"},"geometry":{"type":"Polygon","coordinates":[[[135.5493792149663,35.475941175461664],[135.54925647359633,35.47584458785277],[135.54854765355324,35.47642845867454],[135.5486788414995,35.476532603823884],[135.5493792149663,35.475941175461664]]]}},{"type":"Feature","properties":{"pid":"c8259541-f2ba-4f64-8e3e-e565f7be2f39"},"geometry":{"type":"Polygon","coordinates":[[[135.54876318764397,35.47660190380091],[135.54882426701195,35.47665208696742],[135.5495297219307,35.47605961179703],[135.5494655791512,35.47600913677382],[135.54876318764397,35.47660190380091]]]}},{"type":"Feature","properties":{"pid":"643fd919-7299-4939-b471-b3b7b606d95d"},"geometry":{"type":"Polygon","coordinates":[[[135.54890550299262,35.476718831042604],[135.54893640840356,35.47674422271502],[135.5496411639833,35.47614730688921],[135.54961524895586,35.47612691446616],[135.54890550299262,35.476718831042604]]]}},{"type":"Feature","properties":{"pid":"fad45aec-dbfc-4703-8ac6-c4bf6f2d3bd2"},"geometry":{"type":"Polygon","coordinates":[[[135.55013661868034,35.47654909362921],[135.54999270309176,35.476433985966025],[135.54928519208156,35.47702526302548],[135.54943432583912,35.47714610839503],[135.55013661868034,35.47654909362921]]]}},{"type":"Feature","properties":{"pid":"11bfa969-50f4-4183-aea9-4157a85e51e9"},"geometry":{"type":"Polygon","coordinates":[[[135.54990399143952,35.47636303169009],[135.54976710674464,35.47625354723428],[135.549174879118,35.47672913869481],[135.54905969943883,35.4768407884827],[135.54919463413393,35.47695117702533],[135.54990399143952,35.47636303169009]]]}},{"type":"Feature","properties":{"pid":"59b73232-ef22-4870-aacc-21e03be1c47f"},"geometry":{"type":"Polygon","coordinates":[[[135.54967093200818,35.477336519637355],[135.55037691433694,35.476741286934484],[135.5502254506954,35.476620143200876],[135.54952103858494,35.47721589199938],[135.54967093200818,35.477336519637355]]]}},{"type":"Feature","properties":{"pid":"fbf0d1cc-a511-4bd2-9a12-2bd9811017ef"},"geometry":{"type":"Polygon","coordinates":[[[135.54922923692965,35.478202959465456],[135.54930230495165,35.478256909442656],[135.5498848665317,35.477838830094576],[135.54981338575095,35.47778256498373],[135.54922923692965,35.478202959465456]]]}},{"type":"Feature","properties":{"pid":"1c8ee7c4-af9c-40e6-8028-e177e127b988"},"geometry":{"type":"Polygon","coordinates":[[[135.54956203599463,35.47832615270086],[135.54972220009216,35.47836498166158],[135.55009392236428,35.478097381279355],[135.54998543585145,35.47801481358147],[135.54956203599463,35.47832615270086]]]}},{"type":"Feature","properties":{"pid":"ec0356e2-8314-4fbc-85f4-d47c56beab53"},"geometry":{"type":"Polygon","coordinates":[[[135.54973132260844,35.47771225501466],[135.54952982015683,35.47752768057378],[135.54892381754667,35.47797744954342],[135.54914176649694,35.47813837385186],[135.54973132260844,35.47771225501466]]]}}]}