{"type":"FeatureCollection","features":[{"type":"Feature","properties":{"pid":"14877a84-77a2-405f-965b-3d4833ef82c5"},"geometry":{"type":"Polygon","coordinates":[[[136.3343165537957,36.045964810520076],[136.3343225363609,36.04577389772724],[136.33435424261387,36.04574583868867],[136.33440562868546,36.04574230890374],[136.33435726518553,36.04567327427596],[136.33426644336947,36.045888727562335],[136.3343165537957,36.045964810520076]]]}},{"type":"Feature","properties":{"pid":"13caf241-ddc7-4115-bc6d-acb15502b2f9"},"geometry":{"type":"Polygon","coordinates":[[[136.33406834526266,36.04460213164654],[136.3340049111152,36.044625602564224],[136.33408264725955,36.04473944949692],[136.3340993674795,36.044743735960026],[136.3341136575159,36.044731029311436],[136.33410835836153,36.044674987222415],[136.33406834526266,36.04460213164654]]]}},{"type":"Feature","properties":{"pid":"843a3e1d-5de0-4c57-9329-30e3c479c14d"},"geometry":{"type":"Polygon","coordinates":[[[136.33373652194658,36.04387325453486],[136.3336109024381,36.043670170144814],[136.33354218701848,36.043704274524636],[136.33366381111975,36.04387441558377],[136.33369157671493,36.04389137701925],[136.33373652194658,36.04387325453486]]]}},{"type":"Feature","properties":{"pid":"0b741049-9bc6-4bed-b4f7-7570941b9376"},"geometry":{"type":"Polygon","coordinates":[[[136.33387279715484,36.04361783565811],[136.33398372891986,36.04353887050891],[136.33393914982452,36.04345495440454],[136.33393233824958,36.04334165909747],[136.33384030420186,36.04352969995857],[136.33387279715484,36.04361783565811]]]}},{"type":"Feature","properties":{"pid":"0b25658c-dee1-4a59-be2a-451867dc6e7f"},"geometry":{"type":"Polygon","coordinates":[[[136.33393932746185,36.042959366729235],[136.33387984000763,36.043035780648175],[136.33386199096464,36.04313603078807],[136.33396233900052,36.04318414244056],[136.3339919092223,36.04300086385022],[136.33393932746185,36.042959366729235]]]}},{"type":"Feature","properties":{"pid":"2e84247c-bca0-4ee3-b59f-8bf9fe9e971e"},"geometry":{"type":"Polygon","coordinates":[[[136.33478949737128,36.04213039337018],[136.33492136358956,36.04210676561517],[136.33499934797877,36.04205884597341],[136.334964882631,36.041982827608585],[136.33490790353875,36.041982094877454],[136.33479727940176,36.042018837778414],[136.33478949737128,36.04213039337018]]]}},{"type":"Feature","properties":{"pid":"a93c8c50-3d80-46d5-a334-f362d869546b"},"geometry":{"type":"Polygon","coordinates":[[[136.33440346028482,36.04208514442295],[136.33457815565174,36.042057484392856],[136.33458684165407,36.0419863979257],[136.33452488687212,36.04196230588954],[136.33441757901284,36.041975559560015],[136.33440346028482,36.04208514442295]]]}},{"type":"Feature","properties":{"pid":"bae52c9e-93d6-48fa-ae89-64e1c089a11c"},"geometry":{"type":"Polygon","coordinates":[[[136.33419225357434,36.04206857606193],[136.3342112620332,36.04191155953877],[136.33403281346688,36.04188184917517],[136.3340302203583,36.04198185322417],[136.33412751646318,36.041986326545455],[136.33415246572983,36.042014531263625],[136.33415130615077,36.04205662301554],[136.33419225357434,36.04206857606193]]]}},{"type":"Feature","properties":{"pid":"07b4caec-a273-4b4c-958e-ec294d6b080d"},"geometry":{"type":"Polygon","coordinates":[[[136.33344027893455,36.04230030617683],[136.33351161550186,36.04234918063422],[136.3335486185283,36.042327669009396],[136.33353858657284,36.04225954686927],[136.33348837136035,36.042212823970964],[136.33343336050308,36.042240114483725],[136.3334485899342,36.042273744145014],[136.33344027893455,36.04230030617683]]]}},{"type":"Feature","properties":{"pid":"0d8c7aba-91d1-416f-a8a4-b5011291cd61"},"geometry":{"type":"Polygon","coordinates":[[[136.33361751164793,36.041941917415436],[136.33370159199936,36.041988817895124],[136.33381191914464,36.04198297232836],[136.33381858827653,36.041863757325785],[136.33370292549463,36.041869578904944],[136.33361751164793,36.041941917415436]]]}},{"type":"Feature","properties":{"pid":"d1bb690a-becc-4b28-8524-84b4e2ccbbaf"},"geometry":{"type":"Polygon","coordinates":[[[136.33328124889536,36.04146636710466],[136.33326997064657,36.041377631979344],[136.33321098848612,36.04138197661207],[136.33319583075644,36.04144333108454],[136.33315599814742,36.04148657552181],[136.3331203582962,36.04149855848763],[136.33316829642138,36.04163846766913],[136.33321254774702,36.041634353319644],[136.33328124889536,36.04146636710466]]]}}]}