{"type":"FeatureCollection","features":[{"type":"Feature","properties":{"pid":"a25f002a-51f5-450e-b4ec-432ba0c0eb91","full":5.8},"geometry":{"type":"Polygon","coordinates":[[[136.22228,36.04128],[136.22227,36.04091],[136.22253,36.04091],[136.22253,36.04076],[136.22209,36.04075],[136.22204,36.04129],[136.22228,36.04128]]]}},{"type":"Feature","properties":{"pid":"56e51c63-94d0-4174-8119-d5766806420c","full":2.0},"geometry":{"type":"Polygon","coordinates":[[[136.22302,36.0409],[136.22302,36.04078],[136.22296,36.04078],[136.22296,36.04075],[136.22254,36.04076],[136.22255,36.0409],[136.22302,36.0409]]]}},{"type":"Feature","properties":{"pid":"6fbb6d80-f6c8-48a8-be76-85e70cedc97f","full":3.9},"geometry":{"type":"Polygon","coordinates":[[[136.22361,36.04065],[136.22318,36.04065],[136.22318,36.04087],[136.22361,36.04086],[136.22361,36.04065]]]}},{"type":"Feature","properties":{"pid":"20d9e2a6-85d2-4773-a24b-8f7a3d06f8c2","full":4.0},"geometry":{"type":"Polygon","coordinates":[[[136.22359,36.0412],[136.22361,36.04087],[136.22333,36.04087],[136.22334,36.04123],[136.22359,36.0412]]]}},{"type":"Feature","properties":{"pid":"72f4672c-f01b-46aa-846a-dcf7a02b21db","full":1.6},"geometry":{"type":"Polygon","coordinates":[[[136.22456,36.04528],[136.22457,36.04505],[136.22435,36.04505],[136.22434,36.04529],[136.22456,36.04528]]]}},{"type":"Feature","properties":{"pid":"a623115d-d4de-43b9-8bac-4af9c8af4a29","full":1.2},"geometry":{"type":"Polygon","coordinates":[[[136.22458,36.04548],[136.22458,36.04529],[136.22434,36.04529],[136.22435,36.04548],[136.22458,36.04548]]]}},{"type":"Feature","properties":{"pid":"f422616c-6074-4e75-8940-3fa08a77d633","full":0.8},"geometry":{"type":"Polygon","coordinates":[[[136.22387,36.04607],[136.22353,36.04606],[136.22354,36.04619],[136.22387,36.04619],[136.22387,36.04607]]]}},{"type":"Feature","properties":{"pid":"3bf209ee-603c-4b3a-9d5c-e9cfb2d99299","full":4.2},"geometry":{"type":"Polygon","coordinates":[[[136.22387,36.04646],[136.22387,36.04619],[136.22354,36.04619],[136.22355,36.04641],[136.22356,36.04649],[136.22385,36.04648],[136.22387,36.04646]]]}},{"type":"Feature","properties":{"pid":"584c53c0-7bba-477b-9920-304f54ad0d4d","full":1.9},"geometry":{"type":"Polygon","coordinates":[[[136.22464,36.0464],[136.22464,36.04624],[136.22423,36.04625],[136.22423,36.0464],[136.22464,36.0464]]]}},{"type":"Feature","properties":{"pid":"ceddb687-a8e7-4baa-99b2-cd4c0b6923c3","full":1.8},"geometry":{"type":"Polygon","coordinates":[[[136.22395,36.04625],[136.2243,36.04625],[136.2243,36.04608],[136.22398,36.04608],[136.22394,36.04612],[136.22395,36.04625]]]}},{"type":"Feature","properties":{"pid":"a7de858d-c7fa-4220-a856-f3801cbc42d5","full":1.4},"geometry":{"type":"Polygon","coordinates":[[[136.22389,36.04707],[136.22385,36.04705],[136.22366,36.04705],[136.22365,36.04726],[136.22389,36.04725],[136.22389,36.04707]]]}},{"type":"Feature","properties":{"pid":"93d64e82-f078-45dd-802e-8b32f564f15b","full":1.8},"geometry":{"type":"Polygon","coordinates":[[[136.22285,36.04727],[136.22285,36.04706],[136.2226,36.04707],[136.22258,36.04708],[136.22258,36.04727],[136.22285,36.04727]]]}},{"type":"Feature","properties":{"pid":"99670783-ccef-4c16-9b69-e857a6bc5bdd","full":0.7},"geometry":{"type":"Polygon","coordinates":[[[136.22309,36.04773],[136.22308,36.04752],[136.22291,36.04752],[136.22292,36.04773],[136.22309,36.04773]]]}},{"type":"Feature","properties":{"pid":"2c526fb0-5eb5-464f-9231-8dac96431dd6","full":1.6},"geometry":{"type":"Polygon","coordinates":[[[136.22334,36.04772],[136.22333,36.04751],[136.22309,36.04752],[136.22309,36.04773],[136.22334,36.04772]]]}},{"type":"Feature","properties":{"pid":"f1b53f72-21c7-4b5c-ad3c-e4d4e2a8f8af","full":1.4},"geometry":{"type":"Polygon","coordinates":[[[136.2233,36.04799],[136.2233,36.04779],[136.22306,36.04779],[136.22307,36.04799],[136.2233,36.04799]]]}},{"type":"Feature","properties":{"pid":"0f07e9cc-df99-4688-82dc-831b208be8ca","full":0.7},"geometry":{"type":"Polygon","coordinates":[[[136.22306,36.04799],[136.22305,36.04778],[136.22288,36.04779],[136.22288,36.04799],[136.22306,36.04799]]]}},{"type":"Feature","properties":{"pid":"f20a5f10-492d-4e27-875b-b0cc1e8b8a34","full":1.9},"geometry":{"type":"Polygon","coordinates":[[[136.22288,36.04799],[136.22288,36.04779],[136.22259,36.04779],[136.22259,36.04797],[136.22261,36.04797],[136.22261,36.04799],[136.22288,36.04799]]]}},{"type":"Feature","properties":{"pid":"1188d309-44ac-4aec-a086-853588172fed","full":2.5},"geometry":{"type":"Polygon","coordinates":[[[136.22291,36.04773],[136.2229,36.04752],[136.22259,36.04753],[136.22259,36.04773],[136.22291,36.04773]]]}},{"type":"Feature","properties":{"pid":"9e87080c-a3fd-48e8-bba9-767018b46f1c","full":1.6},"geometry":{"type":"Polygon","coordinates":[[[136.22285,36.04746],[136.22285,36.04727],[136.22258,36.04728],[136.22258,36.04743],[136.22263,36.04746],[136.22285,36.04746]]]}},{"type":"Feature","properties":{"pid":"328f6cbd-db08-4fb5-896a-ec30d3144b68","full":7.2},"geometry":{"type":"Polygon","coordinates":[[[136.22268,36.04548],[136.22269,36.04526],[136.2221,36.04527],[136.22211,36.04552],[136.22266,36.0455],[136.22266,36.04549],[136.22268,36.04548]]]}},{"type":"Feature","properties":{"pid":"cfb34575-1e72-4823-a3b2-3a0f190ba1d2","full":3.2},"geometry":{"type":"Polygon","coordinates":[[[136.2235,36.04391],[136.22349,36.04368],[136.2234,36.04368],[136.22339,36.04356],[136.22326,36.04356],[136.22322,36.0436],[136.22322,36.04391],[136.2235,36.04391]]]}},{"type":"Feature","properties":{"pid":"600e189f-6a9b-4baa-9ee7-76381f31cd2f","full":0.6},"geometry":{"type":"Polygon","coordinates":[[[136.2235,36.04404],[136.2235,36.04392],[136.22325,36.04392],[136.22324,36.04394],[136.22323,36.04394],[136.22323,36.04405],[136.2235,36.04404]]]}},{"type":"Feature","properties":{"pid":"07dd88a7-b589-4b05-af8f-017b7ce4d603","full":10.4},"geometry":{"type":"Polygon","coordinates":[[[136.2231,36.04422],[136.22307,36.04421],[136.22282,36.04421],[136.22283,36.0449],[136.22285,36.0449],[136.22285,36.04493],[136.22306,36.04493],[136.22311,36.0449],[136.2231,36.04422]]]}},{"type":"Feature","properties":{"pid":"266dd4ad-cfe9-421e-b852-2919a4bef36c","full":3.9},"geometry":{"type":"Polygon","coordinates":[[[136.22455,36.04326],[136.22455,36.04304],[136.22415,36.04304],[136.22415,36.04326],[136.22455,36.04326]]]}},{"type":"Feature","properties":{"pid":"f4fc8b77-349d-4300-bc0f-36dee99290bd","full":1.6},"geometry":{"type":"Polygon","coordinates":[[[136.22372,36.04345],[136.22372,36.04321],[136.22351,36.04321],[136.2235,36.04343],[136.22352,36.04343],[136.22353,36.04345],[136.22372,36.04345]]]}},{"type":"Feature","properties":{"pid":"ab9cc90f-a546-49b1-b44e-7ca9f6e149bf","full":1.7},"geometry":{"type":"Polygon","coordinates":[[[136.22414,36.04326],[136.22414,36.04304],[136.2239,36.04304],[136.2239,36.04326],[136.22414,36.04326]]]}},{"type":"Feature","properties":{"pid":"582dec06-b076-4c3d-942e-2ba8cf380394","full":1.9},"geometry":{"type":"Polygon","coordinates":[[[136.22392,36.04221],[136.22378,36.04182],[136.22362,36.04186],[136.22376,36.04224],[136.22392,36.04221]]]}},{"type":"Feature","properties":{"pid":"f11c10ac-26b0-434d-9f1c-d3887b6a475f","full":2.6},"geometry":{"type":"Polygon","coordinates":[[[136.22412,36.04216],[136.22397,36.04177],[136.22379,36.04181],[136.22392,36.04218],[136.22395,36.04218],[136.22396,36.0422],[136.22412,36.04216]]]}},{"type":"Feature","properties":{"pid":"39bd1bb0-08ca-4785-a7df-556d72fd9b2b","full":0.6},"geometry":{"type":"Polygon","coordinates":[[[136.2246,36.04261],[136.2246,36.04216],[136.22447,36.0422],[136.22448,36.04262],[136.2246,36.04261]]]}},{"type":"Feature","properties":{"pid":"b54ce4e7-afe7-4aeb-b798-056a40faee68","full":4.5},"geometry":{"type":"Polygon","coordinates":[[[136.22483,36.04209],[136.2247,36.04214],[136.22461,36.04215],[136.22461,36.04262],[136.22484,36.04261],[136.22483,36.04209]]]}},{"type":"Feature","properties":{"pid":"eb70e14b-d137-4501-a5b0-46535cfcf67f","full":1.8},"geometry":{"type":"Polygon","coordinates":[[[136.22447,36.04262],[136.22446,36.0422],[136.22429,36.04224],[136.2243,36.04262],[136.22447,36.04262]]]}},{"type":"Feature","properties":{"pid":"95fd4ceb-963d-4997-86e3-414624c719a1","full":6.1},"geometry":{"type":"Polygon","coordinates":[[[136.22454,36.04298],[136.22454,36.04267],[136.22415,36.04268],[136.22415,36.04298],[136.22454,36.04298]]]}},{"type":"Feature","properties":{"pid":"849eab9c-abec-4aff-90bf-bfd0db4651a4","full":3.1},"geometry":{"type":"Polygon","coordinates":[[[136.22522,36.04155],[136.22513,36.0414],[136.22468,36.04158],[136.22476,36.04173],[136.22522,36.04155]]]}},{"type":"Feature","properties":{"pid":"baa27d29-d2e0-4353-91a4-1c03e6751169","full":0.8},"geometry":{"type":"Polygon","coordinates":[[[136.225,36.04138],[136.22491,36.04122],[136.22473,36.0413],[136.22482,36.04145],[136.225,36.04138]]]}},{"type":"Feature","properties":{"pid":"f114f32d-41b2-4746-967f-f21f1eb4fd66","full":1.9},"geometry":{"type":"Polygon","coordinates":[[[136.22481,36.04146],[136.22472,36.0413],[136.22443,36.04141],[136.22451,36.04156],[136.22454,36.04157],[136.22481,36.04146]]]}},{"type":"Feature","properties":{"pid":"71195cd8-86ff-4173-98f4-1a1a3ae2b68a","full":1.8},"geometry":{"type":"Polygon","coordinates":[[[136.22428,36.04212],[136.22415,36.04173],[136.22398,36.04177],[136.22412,36.04216],[136.22428,36.04212]]]}},{"type":"Feature","properties":{"pid":"7779ab29-157c-4738-8c6b-7c0316b09fd4","full":0.6},"geometry":{"type":"Polygon","coordinates":[[[136.2242,36.04166],[136.22413,36.04145],[136.22398,36.04149],[136.22404,36.04169],[136.2242,36.04166]]]}},{"type":"Feature","properties":{"pid":"3d45f1d2-03ef-43ec-b9dd-f350276388d0","full":1.7},"geometry":{"type":"Polygon","coordinates":[[[136.22391,36.04173],[136.22377,36.04132],[136.22362,36.04135],[136.22374,36.04177],[136.22391,36.04173]]]}},{"type":"Feature","properties":{"pid":"b2cb79c5-cc6b-4c51-beb0-1b3c295460c0","full":2.4},"geometry":{"type":"Polygon","coordinates":[[[136.22303,36.04123],[136.22303,36.04091],[136.22283,36.04091],[136.22282,36.04126],[136.223,36.04126],[136.22303,36.04123]]]}},{"type":"Feature","properties":{"pid":"66a04fb6-892f-4d72-9408-99de6e12f89d","full":4.3},"geometry":{"type":"Polygon","coordinates":[[[136.22282,36.04127],[136.22282,36.04091],[136.22255,36.04091],[136.22255,36.04128],[136.22282,36.04127]]]}},{"type":"Feature","properties":{"pid":"6fd23501-dec7-4871-9d9f-7d49fb5671a1","full":0.7},"geometry":{"type":"Polygon","coordinates":[[[136.19987,36.0408],[136.20022,36.04075],[136.20022,36.04074],[136.20026,36.04074],[136.20023,36.04065],[136.2002,36.04064],[136.19985,36.04068],[136.19987,36.0408]]]}},{"type":"Feature","properties":{"pid":"d09bc0dc-fe54-4e09-98e7-4ddc806131c4","full":1.4},"geometry":{"type":"Polygon","coordinates":[[[136.20153,36.04691],[136.20173,36.04691],[136.20175,36.0467],[136.20173,36.04668],[136.20154,36.04667],[136.20153,36.04691]]]}},{"type":"Feature","properties":{"pid":"422402df-8d79-436c-8342-2bbcf0173942","full":5.7},"geometry":{"type":"Polygon","coordinates":[[[136.20179,36.04762],[136.20224,36.04763],[136.20224,36.04745],[136.20202,36.04744],[136.20202,36.04727],[136.20181,36.04725],[136.20178,36.04727],[136.20177,36.04761],[136.20179,36.04762]]]}},{"type":"Feature","properties":{"pid":"edb444c4-be32-442b-a9bd-c0428293cabc","full":2.6},"geometry":{"type":"Polygon","coordinates":[[[136.2053,36.04762],[136.20555,36.04761],[136.20554,36.04733],[136.20529,36.04734],[136.2053,36.04762]]]}},{"type":"Feature","properties":{"pid":"44519abd-7766-4d62-8ab3-4f325f8a5273","full":1.2},"geometry":{"type":"Polygon","coordinates":[[[136.20473,36.04763],[136.2049,36.04763],[136.20489,36.04735],[136.20472,36.04735],[136.20473,36.04763]]]}},{"type":"Feature","properties":{"pid":"6d24eba1-b2cd-4648-ad3d-42ad9bf16952","full":4.0},"geometry":{"type":"Polygon","coordinates":[[[136.20448,36.04701],[136.20472,36.04701],[136.20475,36.04699],[136.20476,36.04697],[136.20476,36.04668],[136.20448,36.04668],[136.20448,36.04701]]]}},{"type":"Feature","properties":{"pid":"5a4ca5f0-7362-4aa6-a1ca-f3905424e5ef","full":0.6},"geometry":{"type":"Polygon","coordinates":[[[136.20475,36.04735],[136.2049,36.04734],[136.2049,36.04708],[136.20475,36.04708],[136.20475,36.04735]]]}},{"type":"Feature","properties":{"pid":"9d482333-4925-4580-812c-821f907794ab","full":19.4},"geometry":{"type":"Polygon","coordinates":[[[136.20963,36.04616],[136.20971,36.04616],[136.20971,36.04617],[136.21027,36.04614],[136.21027,36.04611],[136.2103,36.0461],[136.21024,36.04574],[136.21021,36.04572],[136.20955,36.04575],[136.20955,36.04577],[136.20952,36.04578],[136.20954,36.04596],[136.2096,36.04595],[136.20961,36.04609],[136.20962,36.04609],[136.20963,36.04616]]]}},{"type":"Feature","properties":{"pid":"19bd3924-3829-42f9-baab-1686c5337491","full":4.2},"geometry":{"type":"Polygon","coordinates":[[[136.20561,36.04576],[136.20614,36.04586],[136.20617,36.04563],[136.20603,36.04565],[136.2057,36.04557],[136.20563,36.04566],[136.2056,36.04574],[136.20561,36.04576]]]}},{"type":"Feature","properties":{"pid":"ec203d64-d5bd-45ff-8202-91db285e277f","full":4.3},"geometry":{"type":"Polygon","coordinates":[[[136.20534,36.04594],[136.20555,36.046],[136.20548,36.04619],[136.20558,36.04622],[136.20565,36.04602],[136.20594,36.04609],[136.206,36.04592],[136.20539,36.04579],[136.20534,36.04594]]]}},{"type":"Feature","properties":{"pid":"86b9eb92-194e-4da6-944e-44e85fc12744","full":3.2},"geometry":{"type":"Polygon","coordinates":[[[136.20568,36.04624],[136.20607,36.04634],[136.2061,36.04632],[136.20612,36.04615],[136.20594,36.04611],[136.20594,36.0461],[136.20576,36.04605],[136.20568,36.04624]]]}},{"type":"Feature","properties":{"pid":"09362136-8c2e-41cc-b898-baa0b967bd9b","full":1.1},"geometry":{"type":"Polygon","coordinates":[[[136.2062,36.04613],[136.20644,36.04612],[136.20643,36.04593],[136.20624,36.04593],[136.20622,36.04595],[136.2062,36.04613]]]}},{"type":"Feature","properties":{"pid":"1a17139e-a644-4c7e-b651-44d39c810034","full":0.9},"geometry":{"type":"Polygon","coordinates":[[[136.20658,36.04611],[136.20661,36.04613],[136.20662,36.04634],[136.20676,36.04632],[136.20672,36.04592],[136.20657,36.04592],[136.20658,36.04611]]]}},{"type":"Feature","properties":{"pid":"2f7b3eed-7109-4b0d-a365-a2949348faec","full":3.9},"geometry":{"type":"Polygon","coordinates":[[[136.20689,36.04631],[136.20732,36.0463],[136.20729,36.04609],[136.20687,36.0461],[136.20689,36.04631]]]}},{"type":"Feature","properties":{"pid":"e0621937-4f2f-40a5-a90a-c01e6329e73e","full":6.2},"geometry":{"type":"Polygon","coordinates":[[[136.20575,36.04737],[136.20597,36.04737],[136.20598,36.04736],[136.20601,36.04735],[136.20602,36.0471],[136.206,36.04708],[136.20556,36.04708],[136.20557,36.04733],[136.20574,36.04734],[136.20575,36.04737]]]}},{"type":"Feature","properties":{"pid":"500538d6-28cd-4997-801d-e82efb0fc6c4","full":3.3},"geometry":{"type":"Polygon","coordinates":[[[136.2055,36.04813],[136.20571,36.04813],[136.2057,36.04769],[136.2055,36.0477],[136.2055,36.04813]]]}},{"type":"Feature","properties":{"pid":"490ea0c6-92a9-4d87-a330-71d715ef402d","full":12.6},"geometry":{"type":"Polygon","coordinates":[[[136.20879,36.04686],[136.20915,36.04686],[136.20915,36.04652],[136.20921,36.04651],[136.2092,36.0463],[136.2088,36.04631],[136.20878,36.04634],[136.20879,36.04663],[136.2088,36.04663],[136.2088,36.04666],[136.20879,36.04666],[136.20879,36.04686]]]}},{"type":"Feature","properties":{"pid":"06427577-052d-49ca-8683-6ece238250a7","full":0.8},"geometry":{"type":"Polygon","coordinates":[[[136.20964,36.04757],[136.20967,36.04758],[136.20982,36.04758],[136.20982,36.04738],[136.20963,36.04738],[136.20964,36.04757]]]}},{"type":"Feature","properties":{"pid":"189d5fcb-1fe7-4b4f-beb9-5e47ff5bb4e1","full":1.9},"geometry":{"type":"Polygon","coordinates":[[[136.21009,36.04807],[136.21026,36.04808],[136.21025,36.04771],[136.21004,36.04771],[136.21004,36.04785],[136.21008,36.04785],[136.21009,36.04807]]]}},{"type":"Feature","properties":{"pid":"aab8736f-d390-4b70-bfac-e270014e68ea","full":5.1},"geometry":{"type":"Polygon","coordinates":[[[136.20591,36.04962],[136.2064,36.04965],[136.20641,36.04953],[136.20623,36.04953],[136.20624,36.0493],[136.20597,36.04929],[136.20593,36.0493],[136.20592,36.04951],[136.20594,36.04951],[136.20594,36.04952],[136.20592,36.04952],[136.20591,36.04962]]]}},{"type":"Feature","properties":{"pid":"19d26288-1470-4811-985f-a439e9e67fb6","full":1.5},"geometry":{"type":"Polygon","coordinates":[[[136.2064,36.05044],[136.20655,36.05045],[136.2066,36.05007],[136.20644,36.05006],[136.2064,36.05044]]]}},{"type":"Feature","properties":{"pid":"37b765df-93cf-48b3-ba9d-8302215ec0d7","full":1.3},"geometry":{"type":"Polygon","coordinates":[[[136.20454,36.04972],[136.20466,36.0498],[136.20496,36.04955],[136.20483,36.04946],[136.20454,36.04972]]]}},{"type":"Feature","properties":{"pid":"1452a21f-630a-4e21-a1e7-697ca09c9c0e","full":2.9},"geometry":{"type":"Polygon","coordinates":[[[136.20529,36.04907],[136.20551,36.04906],[136.20551,36.04871],[136.20529,36.04872],[136.20529,36.04907]]]}},{"type":"Feature","properties":{"pid":"18ad47dd-7de1-4eda-8c77-882698e77dc8","full":1.8},"geometry":{"type":"Polygon","coordinates":[[[136.22293,36.04831],[136.22258,36.04831],[136.22258,36.04848],[136.22292,36.04848],[136.22293,36.04831]]]}},{"type":"Feature","properties":{"pid":"c5ce695a-531e-4002-b02e-f2115ead7ef7","full":0.9},"geometry":{"type":"Polygon","coordinates":[[[136.22501,36.04895],[136.22498,36.04892],[136.22481,36.04893],[136.22482,36.04912],[136.22502,36.04912],[136.22501,36.04895]]]}}],"precision":5}