{"type":"FeatureCollection","features":[{"type":"Feature","properties":{"pid":"ef25bbaf-3f6b-423e-a7fd-b69510a99194"},"geometry":{"type":"Polygon","coordinates":[[[136.44569088704648,36.06108824101652],[136.44566094579616,36.06116462918239],[136.44561648423766,36.061222530545365],[136.4456429370328,36.06123955264393],[136.4457009802079,36.0612096471041],[136.44580053495895,36.06121807208009],[136.44578165913347,36.061131776024034],[136.44569088704648,36.06108824101652]]]}},{"type":"Feature","properties":{"pid":"0ae349bc-c98d-4edf-a59c-0152b4f06c10"},"geometry":{"type":"Polygon","coordinates":[[[136.44530287455714,36.06101047830723],[136.4454533907608,36.06113128846534],[136.44551808429742,36.06116015680196],[136.44553908746482,36.06113847926688],[136.4455733874267,36.06103256650788],[136.44547826422902,36.061030740362405],[136.4453811048268,36.06100007262743],[136.44530287455714,36.06101047830723]]]}},{"type":"Feature","properties":{"pid":"833bb422-5b72-4633-bf09-ecfbb4c10b8d"},"geometry":{"type":"Polygon","coordinates":[[[136.44511397055243,36.06102344422512],[136.44503819048296,36.06108615598876],[136.44501898148312,36.061106693889286],[136.4450540763921,36.061131900300296],[136.44517041553217,36.061065319828806],[136.44511397055243,36.06102344422512]]]}},{"type":"Feature","properties":{"pid":"b442a985-43d0-440c-8558-66b7ab1312bb"},"geometry":{"type":"Polygon","coordinates":[[[136.44518932140534,36.06127797166799],[136.445203346278,36.06130218336048],[136.44531627405524,36.061287680131926],[136.44553022027134,36.061338784012854],[136.44554560494166,36.06132302260716],[136.4453572281138,36.061209138337624],[136.44518932140534,36.06127797166799]]]}},{"type":"Feature","properties":{"pid":"e64b47e2-7e7a-4cfe-8daf-81fd9e5073f8"},"geometry":{"type":"Polygon","coordinates":[[[136.4448943373289,36.06101849490343],[136.44492518672004,36.06103997438968],[136.4450222237163,36.06095029531887],[136.4449907970657,36.06092357982201],[136.4448943373289,36.06101849490343]]]}},{"type":"Feature","properties":{"pid":"8120f945-75b6-4130-9644-96e556467d3d"},"geometry":{"type":"Polygon","coordinates":[[[136.44444185459085,36.06216551179637],[136.4444859135287,36.062187903964734],[136.44479783918945,36.061343379287614],[136.44469969806553,36.061275687276776],[136.4446777841263,36.061428472288405],[136.44444185459085,36.06216551179637]]]}},{"type":"Feature","properties":{"pid":"8b44a047-33bc-4ea7-a0f2-9f5ac448a1ab"},"geometry":{"type":"Polygon","coordinates":[[[136.4451177367713,36.06220072256881],[136.44516186981323,36.06215117521422],[136.44531972828796,36.062045277022236],[136.44539658821822,36.06201153749847],[136.44531107758831,36.06193367516901],[136.4452578209877,36.061806743690376],[136.4451177367713,36.06220072256881]]]}},{"type":"Feature","properties":{"pid":"0ca354d6-6298-4d68-9022-886d78a013fd"},"geometry":{"type":"Polygon","coordinates":[[[136.44483122859438,36.062359318643566],[136.44488453472292,36.06238983196781],[136.4451245367801,36.06173411595014],[136.44507357115722,36.06170402261264],[136.44483122859438,36.062359318643566]]]}},{"type":"Feature","properties":{"pid":"9f3f63f0-651e-43a7-8a1f-2d33c5bad8f9"},"geometry":{"type":"Polygon","coordinates":[[[136.44463149960845,36.0622644688268],[136.4446789126371,36.06228927239793],[136.44493511031055,36.0615798124557],[136.44491069089946,36.061510328277016],[136.44463149960845,36.0622644688268]]]}},{"type":"Feature","properties":{"pid":"160dd432-0617-432f-bcb8-e3e875f0e0ab"},"geometry":{"type":"Polygon","coordinates":[[[136.44545836257046,36.061504580961255],[136.44523002502785,36.06150354171065],[136.44516915405993,36.061516138076314],[136.44520711704666,36.06155335794866],[136.44539690772234,36.06158922280311],[136.44546940717137,36.06162818930013],[136.44551493996866,36.06160112056034],[136.44551360026583,36.06154727269471],[136.44545836257046,36.061504580961255]]]}},{"type":"Feature","properties":{"pid":"43175208-8e6f-4012-a6b1-acbf7447dc6d"},"geometry":{"type":"Polygon","coordinates":[[[136.44563036279953,36.06170444908697],[136.4455274413691,36.06175529038237],[136.44552074540997,36.0617979591378],[136.44554593674587,36.061836492517315],[136.44561122697937,36.06184703956947],[136.44574344437902,36.061936888473674],[136.44577407511932,36.061807440329545],[136.44574017509387,36.06175720906691],[136.44566919298876,36.06173549001873],[136.44563036279953,36.06170444908697]]]}},{"type":"Feature","properties":{"pid":"d8097818-78c1-4e1a-b198-e4137adc8b8f"},"geometry":{"type":"Polygon","coordinates":[[[136.4456510915802,36.06147499562171],[136.4457693471998,36.06155557116914],[136.4458464697177,36.061526074411304],[136.4456963759536,36.061441568287876],[136.4456510915802,36.06147499562171]]]}},{"type":"Feature","properties":{"pid":"184c96b3-d458-46f7-9d1e-7b0ea9523886"},"geometry":{"type":"Polygon","coordinates":[[[136.44716511351655,36.062107945572066],[136.44711135934847,36.06218145089406],[136.44721950150935,36.06226292291839],[136.4472728876029,36.06214699707447],[136.44716511351655,36.062107945572066]]]}},{"type":"Feature","properties":{"pid":"0cd6e0af-241e-4b3c-ba94-aac22679b589"},"geometry":{"type":"Polygon","coordinates":[[[136.44641968595755,36.06140717711764],[136.44646632276078,36.061367643476295],[136.44645474079275,36.06131067053458],[136.44647121131,36.06118680203356],[136.4464658557611,36.06107826951443],[136.44645625331432,36.0610752924699],[136.44640761301028,36.0613600286429],[136.44641968595755,36.06140717711764]]]}},{"type":"Feature","properties":{"pid":"782a1128-b4d1-4042-bbbc-b30149e5f89a"},"geometry":{"type":"Polygon","coordinates":[[[136.44781442029543,36.061731884197975],[136.44768492688019,36.062131895904685],[136.4477558183583,36.06213656124985],[136.44787176155694,36.06175970330165],[136.44781442029543,36.061731884197975]]]}},{"type":"Feature","properties":{"pid":"c9f2a064-15ed-443a-a815-9c73692d1dc3"},"geometry":{"type":"Polygon","coordinates":[[[136.4475589669189,36.061813967866165],[136.447482072521,36.06207779354807],[136.44754971724433,36.06209761513902],[136.44765518447,36.061762114028525],[136.4475589669189,36.061813967866165]]]}},{"type":"Feature","properties":{"pid":"4028c8dd-d371-401b-b4bc-556efa6ecc39"},"geometry":{"type":"Polygon","coordinates":[[[136.44788968277754,36.062170341006336],[136.4479635171157,36.06216771324231],[136.44806642648769,36.06183420597563],[136.44800408241588,36.06180584304213],[136.44788968277754,36.062170341006336]]]}},{"type":"Feature","properties":{"pid":"c494b9ac-9d99-491a-9673-01acbb39f18b"},"geometry":{"type":"Polygon","coordinates":[[[136.44812148410804,36.06216326447473],[136.44823652215683,36.06213045025579],[136.44835210720132,36.06175513422776],[136.44823377100133,36.06179130996515],[136.44812148410804,36.06216326447473]]]}},{"type":"Feature","properties":{"pid":"588c05b6-eba8-4fa5-b576-c8440ec5c706"},"geometry":{"type":"Polygon","coordinates":[[[136.44844872461118,36.0623125633425],[136.44846986327104,36.06225265924507],[136.4487424730808,36.061889870107485],[136.44854716977514,36.06177353085742],[136.44840679307688,36.062213654611575],[136.4484005745746,36.06229121393139],[136.44844872461118,36.0623125633425]]]}},{"type":"Feature","properties":{"pid":"6e468476-cd4d-4d54-8e24-91e69c3bc6b1"},"geometry":{"type":"Polygon","coordinates":[[[136.44864678942008,36.06229321233066],[136.4487273052471,36.062320739430035],[136.44897287055673,36.06197156279133],[136.44890628411628,36.06193637634252],[136.44864678942008,36.06229321233066]]]}},{"type":"Feature","properties":{"pid":"be157183-dba8-43ad-b55c-8af3d379fc09"},"geometry":{"type":"Polygon","coordinates":[[[136.4487716192478,36.06255659427897],[136.44915306400966,36.06204908471261],[136.44911014553153,36.06202817332244],[136.44883523073133,36.062399417531246],[136.44875209144308,36.062533975325685],[136.4487716192478,36.06255659427897]]]}},{"type":"Feature","properties":{"pid":"e888b034-d5b8-41e3-af18-ee46b108e9e8"},"geometry":{"type":"Polygon","coordinates":[[[136.44869982312153,36.061596818931235],[136.448863518645,36.061683099197246],[136.4488848957048,36.06170862933711],[136.44945401660055,36.061922456972816],[136.44948073182616,36.061893659405754],[136.44880890676868,36.06154287268366],[136.44877729413224,36.06154322103566],[136.44869982312153,36.061596818931235]]]}},{"type":"Feature","properties":{"pid":"45b5ab2e-7fc4-496c-8584-31ab734ce71e"},"geometry":{"type":"Polygon","coordinates":[[[136.448890374739,36.06144302991254],[136.44889415298275,36.061473227958345],[136.44954949232402,36.061802973632894],[136.44960783485786,36.06172989116248],[136.4489891907678,36.06143394452359],[136.448890374739,36.06144302991254]]]}},{"type":"Feature","properties":{"pid":"e24e44f1-7241-4229-a5ca-68f667d9b020"},"geometry":{"type":"Polygon","coordinates":[[[136.4491020261533,36.061348283989645],[136.44969210523217,36.06164447380828],[136.4497322611391,36.06160208766326],[136.44916526837312,36.06132929532332],[136.4491020261533,36.061348283989645]]]}},{"type":"Feature","properties":{"pid":"2df6f8b4-b521-4230-87a6-306304ff2e55"},"geometry":{"type":"Polygon","coordinates":[[[136.44979105727512,36.06106713171368],[136.45001450008294,36.06117935934811],[136.45005054597235,36.06113974774957],[136.44986689427634,36.061046984217484],[136.44979105727512,36.06106713171368]]]}},{"type":"Feature","properties":{"pid":"14ae09c2-1d26-4ae3-91b8-c90a2f0255b2"},"geometry":{"type":"Polygon","coordinates":[[[136.44955948800023,36.06115150017688],[136.44991876446255,36.06133694131822],[136.44995404387475,36.06129669619072],[136.44961436044176,36.06112375095814],[136.44955948800023,36.06115150017688]]]}},{"type":"Feature","properties":{"pid":"e5964485-3141-4dd3-b637-066e7e77c2ad"},"geometry":{"type":"Polygon","coordinates":[[[136.4493034515795,36.0612521405815],[136.44979538090814,36.0614981180363],[136.4498505932567,36.06143749577239],[136.44940661444997,36.06121898142813],[136.4493034515795,36.0612521405815]]]}},{"type":"Feature","properties":{"pid":"95bef921-5f54-4699-a686-35810955c1f6"},"geometry":{"type":"Polygon","coordinates":[[[136.4498167309841,36.06281823346049],[136.4500178523931,36.06282144659644],[136.45001718946838,36.06279236676316],[136.44998846453927,36.062763982472376],[136.4498540973397,36.06273108747205],[136.4498167309841,36.06281823346049]]]}},{"type":"Feature","properties":{"pid":"ee418e3d-a7ba-4065-acc5-8910c44c17f0"},"geometry":{"type":"Polygon","coordinates":[[[136.4493790143903,36.06269155742711],[136.44925163867046,36.062858242689785],[136.4493870007392,36.06289371700285],[136.44941284908668,36.06280583587728],[136.4493790143903,36.06269155742711]]]}},{"type":"Feature","properties":{"pid":"5873be79-1600-43e8-9846-b93bc33c6d69"},"geometry":{"type":"Polygon","coordinates":[[[136.4497105345497,36.062563269584345],[136.44984433555075,36.06259603684488],[136.4499568738371,36.06241033442801],[136.4497444819376,36.062302118359376],[136.44973360027564,36.06249979528799],[136.4497105345497,36.062563269584345]]]}},{"type":"Feature","properties":{"pid":"b3bc0372-112f-41d7-b264-3c36730ea0be"},"geometry":{"type":"Polygon","coordinates":[[[136.44912531188083,36.06281469921171],[136.44929935933936,36.062583434789644],[136.44933924215286,36.06256900033774],[136.4494115710923,36.062584259871855],[136.449444052275,36.062438483114036],[136.4495643270489,36.062214343597944],[136.4494981701059,36.06218808936866],[136.44905925840783,36.06278044713608],[136.44912531188083,36.06281469921171]]]}},{"type":"Feature","properties":{"pid":"72a86351-5d1d-4e8e-9f22-19e2070be16e"},"geometry":{"type":"Polygon","coordinates":[[[136.44929833114205,36.062102587114154],[136.44888780365213,36.0626529469611],[136.4489436702143,36.06269740720289],[136.44936513068393,36.06213528049416],[136.44929833114205,36.062102587114154]]]}},{"type":"Feature","properties":{"pid":"78392cd3-65c0-4c2e-aefb-9d23b25f8bdf"},"geometry":{"type":"Polygon","coordinates":[[[136.44828300939335,36.063101310529866],[136.44834926040542,36.063186280043276],[136.44834008333126,36.063229867490584],[136.44836576839387,36.0632382943515],[136.44836082173703,36.06321223497552],[136.44837835479035,36.06317721858758],[136.44835924625667,36.06308806219188],[136.44831203879917,36.063070701360445],[136.44828300939335,36.063101310529866]]]}},{"type":"Feature","properties":{"pid":"13fa96d9-ed7b-41b6-a3bc-0eca42e35742"},"geometry":{"type":"Polygon","coordinates":[[[136.447648401149,36.06287430520291],[136.44757323235223,36.06299231642541],[136.44755655927682,36.06301286906907],[136.44760332312057,36.06301658685614],[136.44766346002683,36.06294181328456],[136.4476545364597,36.06290629166448],[136.44767872619366,36.06286727106396],[136.447648401149,36.06287430520291]]]}},{"type":"Feature","properties":{"pid":"9660c45d-1efa-438b-938f-e070e1d972a4"},"geometry":{"type":"Polygon","coordinates":[[[136.44708460242086,36.06261172939656],[136.44713619465065,36.06265453471708],[136.44716768397703,36.06272982170852],[136.44719835223222,36.06272630935296],[136.44731000324862,36.06262454548118],[136.4472876278485,36.06260130440289],[136.4472858041745,36.062568019210936],[136.4471804880362,36.06253651759022],[136.44714002238302,36.062549102079174],[136.44708460242086,36.06261172939656]]]}},{"type":"Feature","properties":{"pid":"9b25f622-c2a8-42c9-91fa-345ea39a1fe1"},"geometry":{"type":"Polygon","coordinates":[[[136.44670519100714,36.06252314101137],[136.4468638268579,36.062510914304916],[136.4469548265295,36.06253185935752],[136.44700397394067,36.06247859871774],[136.44692274107453,36.06245474180364],[136.44684984770544,36.06245501327051],[136.44670519100714,36.06252314101137]]]}},{"type":"Feature","properties":{"pid":"d1ccd054-5625-4090-8d90-132ee0096c38"},"geometry":{"type":"Polygon","coordinates":[[[136.44605530434308,36.062932105640186],[136.44608208547305,36.06296113464733],[136.4462814384275,36.06285799521074],[136.44622143150602,36.06279415943215],[136.4461949885194,36.06278602517094],[136.44605530434308,36.062932105640186]]]}},{"type":"Feature","properties":{"pid":"68861c4e-2bd2-4fb7-8d2c-bb94a6630e10"},"geometry":{"type":"Polygon","coordinates":[[[136.4462902960717,36.06337236667045],[136.446428064193,36.06341278255429],[136.44651022515393,36.063297316354394],[136.44643018446718,36.063356859931076],[136.4462902960717,36.06337236667045]]]}},{"type":"Feature","properties":{"pid":"6f0e9711-dcd0-49e3-bfde-f21869b54831"},"geometry":{"type":"Polygon","coordinates":[[[136.44715754412638,36.06370026536207],[136.44700031458828,36.063722985827184],[136.44690937399176,36.0637815103495],[136.44697657547127,36.06389657703886],[136.44715754412638,36.06370026536207]]]}},{"type":"Feature","properties":{"pid":"f1ea979b-b44b-4da3-bbc4-ff84d0bfaa2f"},"geometry":{"type":"Polygon","coordinates":[[[136.44741101591697,36.06390630965241],[136.4473815641535,36.06389003141912],[136.4472501888698,36.06402343944073],[136.44737693707177,36.06396881005898],[136.44741265436988,36.06392613305442],[136.44741101591697,36.06390630965241]]]}},{"type":"Feature","properties":{"pid":"97f83267-85df-471e-86a2-4762505e4836"},"geometry":{"type":"Polygon","coordinates":[[[136.44705473881493,36.063992916328836],[136.4471016753885,36.06399830906418],[136.4472976290395,36.0638005682402],[136.4472844833008,36.06377838105662],[136.4472557619938,36.063777736055464],[136.44705473881493,36.063992916328836]]]}},{"type":"Feature","properties":{"pid":"d057e65f-dc36-4a81-95fd-44ebca221f77"},"geometry":{"type":"Polygon","coordinates":[[[136.447297304854,36.063345105672276],[136.4473465327535,36.06338470903421],[136.4474376297539,36.063417858325764],[136.44745585137224,36.063463108032096],[136.44753333343613,36.06348170986712],[136.44752916682327,36.06343765140136],[136.4474600937567,36.0632872859191],[136.44734391047442,36.06326438785567],[136.447297304854,36.063345105672276]]]}},{"type":"Feature","properties":{"pid":"bf30f356-285e-412f-ab89-6f25118a05c8"},"geometry":{"type":"Polygon","coordinates":[[[136.44761319944806,36.06468909803309],[136.44759106559644,36.06459510710912],[136.44750824433828,36.06460791913485],[136.44751150090656,36.06465129442281],[136.44761319944806,36.06468909803309]]]}},{"type":"Feature","properties":{"pid":"bb99e247-fe5a-4194-b51e-ffae8e0847bd"},"geometry":{"type":"Polygon","coordinates":[[[136.44730789119748,36.06422924939884],[136.44739886355666,36.06432616308159],[136.44746431760538,36.06432200915464],[136.4474256038059,36.06425355527506],[136.44736764203188,36.064202069765216],[136.44734144891177,36.064191558000296],[136.44730789119748,36.06422924939884]]]}},{"type":"Feature","properties":{"pid":"5ec96795-654c-4cdc-9c06-71d1e27fa9db"},"geometry":{"type":"Polygon","coordinates":[[[136.44896119534368,36.065504620215656],[136.44907056799445,36.06557253044058],[136.4491011535406,36.06554796102386],[136.44906618962585,36.06550134451282],[136.44905236024184,36.065428242514834],[136.4490111262512,36.06547781225557],[136.44896119534368,36.065504620215656]]]}},{"type":"Feature","properties":{"pid":"350f07ba-1955-493c-8b2f-386bff5a20a6"},"geometry":{"type":"Polygon","coordinates":[[[136.44962666191998,36.06543900866383],[136.44980806358177,36.06552372955534],[136.44990174495678,36.06551995072401],[136.4499013446097,36.065397409195526],[136.44994370121407,36.06522878594497],[136.44987357221032,36.06521956655484],[136.4498286883087,36.065232177542384],[136.4497109241427,36.065294338979164],[136.449704553263,36.06536149611518],[136.44962666191998,36.06543900866383]]]}},{"type":"Feature","properties":{"pid":"197cb31c-bcee-499f-afc5-04ad08343153"},"geometry":{"type":"Polygon","coordinates":[[[136.44862675906936,36.064868851234976],[136.4486699761221,36.06486289740683],[136.44864940860143,36.064809069336675],[136.44864232743126,36.064701913334495],[136.44860883214977,36.06475607979387],[136.44859519960517,36.06482534188527],[136.44862675906936,36.064868851234976]]]}},{"type":"Feature","properties":{"pid":"4ec85fc7-3979-42c4-8645-b7154ee120b5"},"geometry":{"type":"Polygon","coordinates":[[[136.44900080014477,36.06488821474433],[136.44903409613937,36.064973765974734],[136.44910559480445,36.06497430762812],[136.44915853725317,36.064914774242496],[136.44912194443293,36.0648616240726],[136.44900080014477,36.06488821474433]]]}},{"type":"Feature","properties":{"pid":"c74b58fd-99ab-4d16-91a8-ec15775ef792"},"geometry":{"type":"Polygon","coordinates":[[[136.44876185367497,36.06468348470423],[136.4487714211037,36.06479240297118],[136.44879221376107,36.064849241697786],[136.44890408748205,36.06480742061321],[136.4491133322413,36.06476193547893],[136.44907433243966,36.06473849461753],[136.4490297437671,36.064648167408365],[136.44888427934043,36.06469136407506],[136.44876185367497,36.06468348470423]]]}},{"type":"Feature","properties":{"pid":"8b9db9a5-b643-49b0-a9eb-901a1c729411"},"geometry":{"type":"Polygon","coordinates":[[[136.4499247600835,36.06568275034298],[136.44980509769164,36.0658377937408],[136.44988133197322,36.065894206707185],[136.44990907314968,36.06597278199523],[136.45002177306682,36.06602737712537],[136.45001302735758,36.065683101170954],[136.4499247600835,36.06568275034298]]]}},{"type":"Feature","properties":{"pid":"a01c9c4c-acb3-4909-a2a8-c1c29bbfd002"},"geometry":{"type":"Polygon","coordinates":[[[136.44350465719242,36.0625723928828],[136.44341311838772,36.06268046592977],[136.44346621125257,36.06272601021878],[136.4435700462637,36.0626030398108],[136.44350465719242,36.0625723928828]]]}},{"type":"Feature","properties":{"pid":"f6b6da09-79a0-4796-b08e-bed506580080"},"geometry":{"type":"Polygon","coordinates":[[[136.4437576479453,36.06266688166054],[136.44368468409073,36.062672595631476],[136.44358755151939,36.06278762893464],[136.44364414474808,36.062804096378194],[136.4437576479453,36.06266688166054]]]}},{"type":"Feature","properties":{"pid":"cfcc3b49-108a-4ad2-a86b-bbc4b87d986b"},"geometry":{"type":"MultiPolygon","coordinates":[[[[136.44382353508766,36.06280182824202],[136.44394340371576,36.06269628158939],[136.44407920324966,36.06263788668311],[136.44412873416422,36.062584863218525],[136.44407294767325,36.062610487354334],[136.44397634993513,36.062613334269116],[136.44382353508766,36.06280182824202]]],[[[136.44433831520416,36.06236050309301],[136.44436071151154,36.062336527363556],[136.44435687465634,36.0623342757573],[136.44433831520416,36.06236050309301]]]]}},{"type":"Feature","properties":{"pid":"db0eea9e-6f33-43cc-8f0d-9451ff48cbdc"},"geometry":{"type":"Polygon","coordinates":[[[136.44320491471905,36.062413232140955],[136.44317252865224,36.06246285778192],[136.443240053523,36.06250180680082],[136.44332004301353,36.06257647055155],[136.44337995176994,36.06249910801645],[136.44333655188655,36.062463026116085],[136.44320491471905,36.062413232140955]]]}},{"type":"Feature","properties":{"pid":"c5d2593f-577f-4fd9-8504-934b0e9010c6"},"geometry":{"type":"Polygon","coordinates":[[[136.4261855865123,36.07240129066601],[136.42614325178545,36.07223171350695],[136.42614196985355,36.07214314248258],[136.42582301487695,36.07197085712365],[136.4256392922458,36.072092443522074],[136.4261855865123,36.07240129066601]]]}},{"type":"Feature","properties":{"pid":"91aaab0e-0db7-4205-8f05-97a68d86c8b5"},"geometry":{"type":"Polygon","coordinates":[[[136.42531050678647,36.0722725329522],[136.42592911106516,36.07262488682201],[136.4261235207901,36.07251503171222],[136.4255002011952,36.072159414086876],[136.42531050678647,36.0722725329522]]]}},{"type":"Feature","properties":{"pid":"055e32f8-4735-4140-bfcd-97e0653c1d98"},"geometry":{"type":"Polygon","coordinates":[[[136.42602557901236,36.071734576642534],[136.4259358832127,36.071843924224595],[136.42622691358375,36.07200181731445],[136.42629030372376,36.07192250958609],[136.42602557901236,36.071734576642534]]]}},{"type":"Feature","properties":{"pid":"d5994211-5202-46a4-846b-86b62460d769"},"geometry":{"type":"Polygon","coordinates":[[[136.42534831989653,36.07148716437829],[136.42538883178008,36.07153071828876],[136.42579677839043,36.07177658426273],[136.4258935158722,36.0716640959974],[136.42578100285294,36.07154260985937],[136.42571226680502,36.07142715982845],[136.42534831989653,36.07148716437829]]]}},{"type":"Feature","properties":{"pid":"01a9d1d2-f892-4f20-8b4d-76f209d9be71"},"geometry":{"type":"Polygon","coordinates":[[[136.42599959661462,36.0715472480974],[136.42613563467276,36.07146147960765],[136.42610667914346,36.071260054779195],[136.42586497682848,36.07132451369594],[136.42591029528185,36.07143496614013],[136.42599959661462,36.0715472480974]]]}},{"type":"Feature","properties":{"pid":"5a084678-22ef-4328-b401-74cf75371f00"},"geometry":{"type":"Polygon","coordinates":[[[136.42626855115913,36.07145834312374],[136.42631216310215,36.07148662836717],[136.42632482211636,36.071291710977505],[136.4263846237207,36.07123790068389],[136.42638254006323,36.07120431960248],[136.42624252817828,36.07122029676855],[136.42626855115913,36.07145834312374]]]}},{"type":"Feature","properties":{"pid":"a1521267-f1bc-470a-be18-dabce4a0cd37"},"geometry":{"type":"Polygon","coordinates":[[[136.4262064127438,36.07157038734233],[136.42610081548534,36.071646348433966],[136.42637025483975,36.0718333522818],[136.42639581369144,36.0718166026833],[136.42643464410642,36.07174746142032],[136.4262064127438,36.07157038734233]]]}},{"type":"Feature","properties":{"pid":"ddc19558-2991-4dda-9a72-03b9994b8a62"},"geometry":{"type":"Polygon","coordinates":[[[136.42505216042636,36.0713193617627],[136.42512625111294,36.071408354573066],[136.42519601025077,36.07135518373447],[136.42515745432814,36.07129861392273],[136.42516861930304,36.07125742565158],[136.42505216042636,36.0713193617627]]]}},{"type":"Feature","properties":{"pid":"3ed17769-a367-4ba3-98b9-021880a340cf"},"geometry":{"type":"Polygon","coordinates":[[[136.4253137632903,36.07125646461335],[136.42529877518658,36.07130302175444],[136.42547526320817,36.07124967577881],[136.42531003349382,36.07117544671505],[136.42526800012723,36.07119987601819],[136.4253137632903,36.07125646461335]]]}},{"type":"Feature","properties":{"pid":"093f6603-6d9b-4ace-97db-7f194fff4262"},"geometry":{"type":"Polygon","coordinates":[[[136.42500070372094,36.071756683027736],[136.42544705257095,36.07201431663579],[136.42568276085083,36.071870781564286],[136.4252881802191,36.071639022794805],[136.42520326970592,36.07165685470965],[136.42513533335125,36.07159649868011],[136.42500070372094,36.071756683027736]]]}},{"type":"Feature","properties":{"pid":"009a9be7-4e51-434b-8234-833d38f7c512"},"geometry":{"type":"Polygon","coordinates":[[[136.42533326041374,36.07208220000468],[136.4248991075885,36.07183036365],[136.42475748603923,36.071927530239],[136.4251808100556,36.07217174377252],[136.42533326041374,36.07208220000468]]]}},{"type":"Feature","properties":{"pid":"9f179a51-5d39-44cc-94c2-81e5e0ee2e7d"},"geometry":{"type":"Polygon","coordinates":[[[136.4248494655192,36.07254082502064],[136.4256247745868,36.07296771608266],[136.42562603343583,36.07296647015671],[136.42565865126954,36.07289446713607],[136.42494164315778,36.07248883398657],[136.4248494655192,36.07254082502064]]]}},{"type":"Feature","properties":{"pid":"0feab614-c72a-4405-ab62-4d79e2e95f3b"},"geometry":{"type":"Polygon","coordinates":[[[136.42507358633887,36.072415261562156],[136.42572900530467,36.072797124786554],[136.42581503811763,36.072713392121074],[136.4251830088957,36.07234685209279],[136.42507358633887,36.072415261562156]]]}}]}