{"type":"FeatureCollection","features":[{"type":"Feature","properties":{"pid":"98707d74-cdbb-4ea5-990d-cf936174a880","full":2.4},"geometry":{"type":"Polygon","coordinates":[[[136.25662,35.97535],[136.25669,35.97541],[136.25676,35.97547],[136.25683,35.97546],[136.25686,35.97544],[136.25694,35.97531],[136.25696,35.97519],[136.25674,35.97516],[136.2567,35.97516],[136.25671,35.97522],[136.25672,35.97526],[136.25671,35.97528],[136.25662,35.97535]]]}},{"type":"Feature","properties":{"pid":"d9e0c8a4-c3a7-4159-b25a-8b172cf9c3fc","full":3.2},"geometry":{"type":"Polygon","coordinates":[[[136.26723,35.99016],[136.26685,35.99008],[136.26676,35.99008],[136.2668,35.99026],[136.26688,35.9903],[136.26726,35.9903],[136.26723,35.99016]]]}},{"type":"Feature","properties":{"pid":"bf708baa-93f3-4a61-b1ea-eb0dcb258b27","full":0.8},"geometry":{"type":"Polygon","coordinates":[[[136.26714,35.99012],[136.26717,35.99013],[136.26738,35.99016],[136.26735,35.99006],[136.26731,35.99002],[136.26725,35.98999],[136.26718,35.98994],[136.26715,35.9899],[136.26708,35.98989],[136.26714,35.99012]]]}},{"type":"Feature","properties":{"pid":"a0501fc2-7222-4e76-8180-aa2e56f4a1a5","full":3.6},"geometry":{"type":"Polygon","coordinates":[[[136.26713,35.99013],[136.26703,35.98974],[136.26679,35.98978],[136.26686,35.99008],[136.26713,35.99013]]]}},{"type":"Feature","properties":{"pid":"addfe546-e277-4519-ac37-4d2372bdca9a","full":1.8},"geometry":{"type":"Polygon","coordinates":[[[136.26506,35.9905],[136.26498,35.99005],[136.26482,35.99008],[136.2649,35.99051],[136.26506,35.9905]]]}},{"type":"Feature","properties":{"pid":"790d59a7-7c3c-42a2-958b-dae69827de5d","full":2.3},"geometry":{"type":"Polygon","coordinates":[[[136.26366,35.99016],[136.26365,35.99008],[136.26359,35.99008],[136.2635,35.99004],[136.26335,35.99002],[136.26309,35.99003],[136.26312,35.9902],[136.26366,35.99016]]]}},{"type":"Feature","properties":{"pid":"827eaadf-5c69-4759-ac71-50560753a04f","full":10.6},"geometry":{"type":"Polygon","coordinates":[[[136.26385,35.99071],[136.26383,35.99029],[136.26349,35.99031],[136.26348,35.99033],[136.26344,35.99033],[136.26344,35.99075],[136.26373,35.99076],[136.26385,35.99071]]]}},{"type":"Feature","properties":{"pid":"57281868-8ca9-4f3b-9c08-a06a49cc9e7a","full":3.0},"geometry":{"type":"Polygon","coordinates":[[[136.26412,35.9904],[136.26403,35.99041],[136.26403,35.99029],[136.26387,35.99029],[136.26387,35.9907],[136.26391,35.99071],[136.26406,35.99065],[136.26408,35.99063],[136.26413,35.99061],[136.26412,35.9904]]]}},{"type":"Feature","properties":{"pid":"f62625dc-3400-4178-a21c-e09b54d607c6","full":2.2},"geometry":{"type":"Polygon","coordinates":[[[136.26278,35.98986],[136.26278,35.98969],[136.26243,35.98967],[136.26244,35.98987],[136.26278,35.98986]]]}},{"type":"Feature","properties":{"pid":"9007b481-8e2c-4884-a8a1-0a50ade4f9d6","full":7.4},"geometry":{"type":"Polygon","coordinates":[[[136.26242,35.98968],[136.26214,35.98966],[136.26216,35.99017],[136.26221,35.99019],[136.26245,35.99018],[136.26242,35.98968]]]}},{"type":"Feature","properties":{"pid":"0433f7a6-3d04-42c5-a4e0-48666d0b36d9","full":9.3},"geometry":{"type":"Polygon","coordinates":[[[136.26194,35.98965],[136.26179,35.98961],[136.26184,35.99021],[136.26215,35.99019],[136.26211,35.98966],[136.26194,35.98965]]]}},{"type":"Feature","properties":{"pid":"b9575cef-6537-4b4a-ae7e-b3479ef0f067","full":10.2},"geometry":{"type":"Polygon","coordinates":[[[136.26177,35.98961],[136.26149,35.98956],[136.26149,35.98964],[136.26147,35.98964],[136.2615,35.9902],[136.26153,35.99022],[136.26181,35.9902],[136.26177,35.98961]]]}},{"type":"Feature","properties":{"pid":"8c2f2183-761b-4223-9765-b0799feaa8f6","full":9.0},"geometry":{"type":"Polygon","coordinates":[[[136.26141,35.99021],[136.26136,35.98964],[136.26107,35.98967],[136.2611,35.99022],[136.26141,35.99021]]]}},{"type":"Feature","properties":{"pid":"7f47f4d0-d21b-44ca-8f6f-c8f02b698414","full":23.3},"geometry":{"type":"Polygon","coordinates":[[[136.26109,35.99023],[136.26105,35.98968],[136.2604,35.98976],[136.26044,35.99025],[136.26109,35.99023]]]}},{"type":"Feature","properties":{"pid":"2be49caa-54d1-4823-9d87-fccadcbb1403","full":7.7},"geometry":{"type":"Polygon","coordinates":[[[136.26042,35.99026],[136.26039,35.98977],[136.26008,35.98981],[136.26011,35.99027],[136.26042,35.99026]]]}},{"type":"Feature","properties":{"pid":"c3cec7a8-7e8a-46bd-8506-1dffc9423f5b","full":14.4},"geometry":{"type":"Polygon","coordinates":[[[136.26009,35.99028],[136.26006,35.98983],[136.25954,35.98987],[136.25956,35.9903],[136.25963,35.99031],[136.26009,35.99028]]]}},{"type":"Feature","properties":{"pid":"ba6d3ba3-520a-4be3-acfd-1dfc605215bd","full":23.7},"geometry":{"type":"Polygon","coordinates":[[[136.25912,35.98966],[136.25895,35.98963],[136.25866,35.98965],[136.25847,35.98965],[136.2585,35.99013],[136.25858,35.99018],[136.25862,35.99017],[136.25862,35.99012],[136.25913,35.9901],[136.25913,35.99],[136.25928,35.98999],[136.25926,35.98974],[136.25912,35.98966]]]}},{"type":"Feature","properties":{"pid":"8c21bf71-3a2c-4ba8-ba1b-29c1a56e6cdb","full":0.6},"geometry":{"type":"Polygon","coordinates":[[[136.25657,35.98878],[136.257,35.98882],[136.25703,35.98872],[136.25656,35.98867],[136.25654,35.98874],[136.25657,35.98878]]]}},{"type":"Feature","properties":{"pid":"482e67c6-d65c-40c1-8a42-0315d25654c8","full":0.5},"geometry":{"type":"Polygon","coordinates":[[[136.25695,35.98849],[136.25654,35.9885],[136.25654,35.98857],[136.25702,35.98864],[136.257,35.98855],[136.25695,35.98849]]]}},{"type":"Feature","properties":{"pid":"da16face-8d15-4e27-8b95-1b6e4fccc680","full":13.9},"geometry":{"type":"Polygon","coordinates":[[[136.25623,35.98821],[136.25541,35.98819],[136.2555,35.9883],[136.25568,35.98847],[136.2558,35.98855],[136.25624,35.98856],[136.25623,35.98821]]]}},{"type":"Feature","properties":{"pid":"49868891-d9ab-4dd5-b67f-9e1a0d470af0","full":4.8},"geometry":{"type":"Polygon","coordinates":[[[136.25615,35.98803],[136.25532,35.98803],[136.25542,35.98818],[136.25624,35.9882],[136.25615,35.98803]]]}},{"type":"Feature","properties":{"pid":"74efd0fb-9fc4-4e46-9056-c832577ef9d9","full":21.8},"geometry":{"type":"Polygon","coordinates":[[[136.25513,35.98803],[136.25455,35.98802],[136.25453,35.98822],[136.25451,35.9883],[136.25442,35.98839],[136.25432,35.98852],[136.25512,35.98853],[136.25513,35.98803]]]}},{"type":"Feature","properties":{"pid":"b5ac090e-b96e-4640-91dc-57e4bb0fa170","full":2.1},"geometry":{"type":"Polygon","coordinates":[[[136.25512,35.9886],[136.2543,35.9886],[136.25421,35.98871],[136.25511,35.98873],[136.25512,35.9886]]]}},{"type":"Feature","properties":{"pid":"93b6c250-d234-4ee4-89c4-ac584acf09c7","full":50.8},"geometry":{"type":"Polygon","coordinates":[[[136.25511,35.98874],[136.25421,35.98872],[136.25408,35.98893],[136.25411,35.98914],[136.2541,35.98924],[136.25401,35.98935],[136.254,35.98938],[136.2551,35.98939],[136.25511,35.98874]]]}},{"type":"Feature","properties":{"pid":"d65b6834-99ec-4921-b2fe-b8e8596b0e94","full":62.1},"geometry":{"type":"Polygon","coordinates":[[[136.25633,35.98891],[136.25595,35.98877],[136.2558,35.9887],[136.25567,35.98862],[136.25559,35.98855],[136.25522,35.98855],[136.25521,35.9894],[136.25631,35.98941],[136.25633,35.98891]]]}},{"type":"Feature","properties":{"pid":"91d513a3-6730-4635-8c48-3045dae2c1e5","full":16.6},"geometry":{"type":"Polygon","coordinates":[[[136.25682,35.98971],[136.25657,35.98968],[136.25651,35.98971],[136.25641,35.99022],[136.2569,35.99026],[136.25697,35.9898],[136.25682,35.98971]]]}},{"type":"Feature","properties":{"pid":"db823594-6b9f-4ea3-bcc9-4a18b060b375","full":63.4},"geometry":{"type":"Polygon","coordinates":[[[136.25621,35.99017],[136.25626,35.98986],[136.2563,35.98944],[136.25521,35.98942],[136.2552,35.99002],[136.25527,35.99002],[136.25527,35.99023],[136.25584,35.99023],[136.25584,35.99018],[136.25621,35.99017]]]}},{"type":"Feature","properties":{"pid":"cde9f734-5ee4-4e6d-8e44-90a96d6a15b4","full":9.5},"geometry":{"type":"Polygon","coordinates":[[[136.25509,35.99052],[136.25508,35.99031],[136.25414,35.99031],[136.25413,35.99043],[136.25401,35.99043],[136.25401,35.99051],[136.25509,35.99052]]]}},{"type":"Feature","properties":{"pid":"375167df-5316-4126-9d07-976b159477ce","full":72.5},"geometry":{"type":"Polygon","coordinates":[[[136.25509,35.98942],[136.25399,35.98941],[136.25398,35.99023],[136.25509,35.99023],[136.25509,35.98942]]]}},{"type":"Feature","properties":{"pid":"34d7b207-3c23-452d-b388-8ef3ce4b00d9","full":7.0},"geometry":{"type":"Polygon","coordinates":[[[136.2539,35.98979],[136.25357,35.98978],[136.25347,35.98996],[136.25361,35.98996],[136.25362,35.99024],[136.25389,35.99024],[136.2539,35.98979]]]}},{"type":"Feature","properties":{"pid":"1ac7487d-4073-461f-88d2-4a1a3baf4ff0","full":1.1},"geometry":{"type":"Polygon","coordinates":[[[136.2539,35.98976],[136.25391,35.98949],[136.25389,35.98947],[136.25358,35.98975],[136.2539,35.98976]]]}},{"type":"Feature","properties":{"pid":"b271e1cf-623d-4579-9709-19d198a6c703","full":3.6},"geometry":{"type":"Polygon","coordinates":[[[136.25428,35.98839],[136.25411,35.98835],[136.25383,35.98876],[136.25389,35.9888],[136.254,35.98889],[136.25419,35.98858],[136.25416,35.98856],[136.25428,35.98839]]]}},{"type":"Feature","properties":{"pid":"0ab310a0-012e-4e06-92fb-79857dc5f240","full":3.9},"geometry":{"type":"Polygon","coordinates":[[[136.25406,35.98832],[136.2538,35.98822],[136.25366,35.98845],[136.25373,35.98851],[136.25376,35.9886],[136.25375,35.98871],[136.2538,35.98873],[136.25406,35.98832]]]}},{"type":"Feature","properties":{"pid":"ab288690-ae6b-443b-a29f-255eb416e62b","full":1.1},"geometry":{"type":"Polygon","coordinates":[[[136.25377,35.98817],[136.25355,35.98807],[136.25351,35.98808],[136.25348,35.98821],[136.25359,35.98828],[136.25361,35.98834],[136.25364,35.98835],[136.25377,35.98817]]]}},{"type":"Feature","properties":{"pid":"23af3c9e-0761-4539-a791-2303bfd2d3d9","full":4.1},"geometry":{"type":"Polygon","coordinates":[[[136.25324,35.98606],[136.25319,35.98605],[136.25293,35.98632],[136.25296,35.98642],[136.25312,35.98657],[136.25322,35.98663],[136.25324,35.98606]]]}},{"type":"Feature","properties":{"pid":"e3a44c97-f866-4a17-9d54-8f6a059eeb00","full":2.3},"geometry":{"type":"Polygon","coordinates":[[[136.25358,35.98681],[136.2536,35.98612],[136.25345,35.98613],[136.25343,35.98676],[136.25358,35.98681]]]}},{"type":"Feature","properties":{"pid":"441b52bb-f01d-4cb8-957c-64f5c24f4831","full":1.9},"geometry":{"type":"Polygon","coordinates":[[[136.2534,35.98676],[136.25342,35.98613],[136.25327,35.98608],[136.25325,35.98665],[136.25331,35.98673],[136.2534,35.98676]]]}},{"type":"Feature","properties":{"pid":"034a970d-36cb-4d9e-9ead-1a3aea75ee60","full":2.8},"geometry":{"type":"Polygon","coordinates":[[[136.25368,35.98613],[136.25362,35.98613],[136.25361,35.98684],[136.25367,35.98688],[136.25376,35.98688],[136.25378,35.98617],[136.25375,35.98613],[136.25368,35.98613]]]}},{"type":"Feature","properties":{"pid":"173455d4-4d4a-48e6-a039-36f06fb2afb9","full":2.0},"geometry":{"type":"Polygon","coordinates":[[[136.25407,35.98628],[136.25392,35.98623],[136.2539,35.98693],[136.25401,35.987],[136.25404,35.98699],[136.25407,35.98628]]]}},{"type":"Feature","properties":{"pid":"65decca1-ccd4-4729-83fb-c400a298f636","full":21.1},"geometry":{"type":"Polygon","coordinates":[[[136.25514,35.9869],[136.25447,35.9869],[136.25447,35.98717],[136.25463,35.98739],[136.25512,35.98741],[136.25514,35.9869]]]}},{"type":"Feature","properties":{"pid":"5e4a744a-b2ab-44ec-a80d-8bc202de3cb1","full":16.9},"geometry":{"type":"Polygon","coordinates":[[[136.25513,35.98744],[136.25465,35.98743],[136.25463,35.98748],[136.25469,35.98772],[136.25461,35.98785],[136.25457,35.98798],[136.25513,35.98799],[136.25513,35.98744]]]}},{"type":"Feature","properties":{"pid":"65608250-5f1c-4627-9bcd-5d2f6307899a","full":28.8},"geometry":{"type":"Polygon","coordinates":[[[136.25605,35.98782],[136.25599,35.98745],[136.25532,35.98744],[136.2553,35.98799],[136.25614,35.98801],[136.25605,35.98782]]]}},{"type":"Feature","properties":{"pid":"ac6e6ca7-a49a-4f11-87fd-727f9e32bedb","full":29.5},"geometry":{"type":"Polygon","coordinates":[[[136.25615,35.98725],[136.25614,35.98691],[136.25531,35.9869],[136.25531,35.98741],[136.256,35.98742],[136.25615,35.98725]]]}},{"type":"Feature","properties":{"pid":"79c01c93-bc7f-4922-8335-40046ba8ab92","full":27.6},"geometry":{"type":"Polygon","coordinates":[[[136.25611,35.9864],[136.25533,35.98638],[136.25532,35.98687],[136.25614,35.98689],[136.25611,35.9864]]]}},{"type":"Feature","properties":{"pid":"576f6b40-5161-4d39-a903-bfbb922e8c55","full":24.5},"geometry":{"type":"Polygon","coordinates":[[[136.2551,35.98635],[136.25446,35.98635],[136.25446,35.98686],[136.25515,35.98687],[136.25516,35.98639],[136.2551,35.98635]]]}},{"type":"Feature","properties":{"pid":"aeb67356-73a8-4ca5-86cb-6247e0285ed5","full":10.8},"geometry":{"type":"Polygon","coordinates":[[[136.25432,35.98625],[136.25411,35.98628],[136.25409,35.98704],[136.25435,35.98716],[136.25436,35.98636],[136.25433,35.98636],[136.25432,35.98625]]]}},{"type":"Feature","properties":{"pid":"88f9b943-ce2b-4ec7-a25b-69afb724579c","full":11.7},"geometry":{"type":"Polygon","coordinates":[[[136.25514,35.986],[136.25447,35.98599],[136.2544,35.98628],[136.25509,35.98628],[136.25514,35.98625],[136.25514,35.986]]]}},{"type":"Feature","properties":{"pid":"c1485583-c5a4-4aa8-abf3-ced5821304ed","full":8.1},"geometry":{"type":"Polygon","coordinates":[[[136.25514,35.98573],[136.25455,35.98572],[136.25452,35.98577],[136.2545,35.98585],[136.25448,35.98596],[136.25513,35.98597],[136.25514,35.98573]]]}},{"type":"Feature","properties":{"pid":"e3ffb937-8f91-4c02-99c3-eb37ebe75c34","full":10.1},"geometry":{"type":"Polygon","coordinates":[[[136.25516,35.98518],[136.25442,35.98517],[136.2544,35.98529],[136.25443,35.98538],[136.25447,35.98541],[136.2545,35.98542],[136.25516,35.98543],[136.25516,35.98518]]]}},{"type":"Feature","properties":{"pid":"96187acc-a36c-4c77-b8a9-480a3ec8e7f7","full":7.6},"geometry":{"type":"Polygon","coordinates":[[[136.25514,35.9857],[136.25515,35.98546],[136.2545,35.98545],[136.25456,35.98569],[136.25514,35.9857]]]}},{"type":"Feature","properties":{"pid":"0e0bba35-dc74-4d70-b8df-9730323a2273","full":14.5},"geometry":{"type":"Polygon","coordinates":[[[136.25532,35.9863],[136.2561,35.98631],[136.25611,35.98622],[136.25616,35.98607],[136.25614,35.98604],[136.25591,35.98605],[136.25591,35.98601],[136.25531,35.98599],[136.2553,35.98626],[136.25532,35.9863]]]}},{"type":"Feature","properties":{"pid":"25fdaa0e-a35c-46fa-b831-0eeb24a4f2c8","full":7.8},"geometry":{"type":"Polygon","coordinates":[[[136.25588,35.98574],[136.25531,35.98573],[136.2553,35.98597],[136.25592,35.98598],[136.25593,35.98582],[136.25588,35.98574]]]}},{"type":"Feature","properties":{"pid":"42a1db07-9331-46e1-aa30-107c68b21453","full":7.1},"geometry":{"type":"Polygon","coordinates":[[[136.25585,35.98546],[136.25532,35.98545],[136.25531,35.9857],[136.25588,35.98571],[136.25585,35.98546]]]}},{"type":"Feature","properties":{"pid":"bf086e8e-353f-44d1-be35-334bfbad0105","full":5.9},"geometry":{"type":"Polygon","coordinates":[[[136.2558,35.98519],[136.25533,35.98518],[136.25532,35.98542],[136.25583,35.98543],[136.25585,35.9854],[136.2558,35.98519]]]}},{"type":"Feature","properties":{"pid":"b6652545-f0e7-48b1-bccf-58de350fb67f","full":4.7},"geometry":{"type":"Polygon","coordinates":[[[136.25577,35.98492],[136.25532,35.98491],[136.25533,35.98513],[136.2558,35.98514],[136.25582,35.9851],[136.25577,35.98492]]]}},{"type":"Feature","properties":{"pid":"bd2aaab9-b524-4e79-8fcf-6da4c8c39904","full":5.6},"geometry":{"type":"Polygon","coordinates":[[[136.2557,35.98458],[136.25563,35.98458],[136.2554,35.98463],[136.25532,35.98468],[136.25532,35.98489],[136.25574,35.98489],[136.25573,35.98472],[136.2557,35.98458]]]}},{"type":"Feature","properties":{"pid":"dad58f26-0cc2-4905-b3a2-d92b329a4276","full":13.4},"geometry":{"type":"Polygon","coordinates":[[[136.25517,35.98469],[136.25457,35.98489],[136.25457,35.98495],[136.2544,35.98502],[136.25441,35.98513],[136.25516,35.98514],[136.25517,35.98469]]]}},{"type":"Feature","properties":{"pid":"21081a75-bfd9-497d-aabb-ca4bd3726f80","full":2.9},"geometry":{"type":"Polygon","coordinates":[[[136.2558,35.98451],[136.25579,35.98416],[136.25547,35.98429],[136.25554,35.98445],[136.2558,35.98451]]]}},{"type":"Feature","properties":{"pid":"1bb818e6-9549-4e63-97ac-2e4e5ea632e5","full":3.3},"geometry":{"type":"Polygon","coordinates":[[[136.25576,35.98376],[136.25569,35.98376],[136.25537,35.98399],[136.25543,35.98414],[136.25574,35.98403],[136.25576,35.98376]]]}}],"precision":5}