{"type":"FeatureCollection","features":[{"type":"Feature","properties":{"pid":"26f982e8-1174-4f75-81e7-c7ade0fad499"},"geometry":{"type":"Polygon","coordinates":[[[135.63864575543798,35.52381818032473],[135.63867618671827,35.523841650481366],[135.6388923170227,35.52367909096773],[135.6388558733601,35.52364131237186],[135.63864575543798,35.52381818032473]]]}},{"type":"Feature","properties":{"pid":"95715544-b026-4400-a9fe-47fd9256e3ee"},"geometry":{"type":"Polygon","coordinates":[[[135.63878117669347,35.523564482217786],[135.63873793602028,35.52352012542144],[135.6385103672658,35.52371364628488],[135.63855976603256,35.523751820890205],[135.63878117669347,35.523564482217786]]]}},{"type":"Feature","properties":{"pid":"816b22ec-8f43-41c4-9953-6fae463459d5"},"geometry":{"type":"Polygon","coordinates":[[[135.6386627983955,35.52344265687726],[135.63864261732448,35.523421750357215],[135.63840450526027,35.52363232774435],[135.63842290627142,35.52364640973085],[135.6386627983955,35.52344265687726]]]}},{"type":"Feature","properties":{"pid":"14551907-3312-43b8-9295-023e833db94b"},"geometry":{"type":"Polygon","coordinates":[[[135.63135506367806,35.516388127748094],[135.63139079744371,35.51644218387008],[135.6315253685741,35.51639926070293],[135.63149053141348,35.51634313524034],[135.63135506367806,35.516388127748094]]]}},{"type":"Feature","properties":{"pid":"4a024ebd-a349-4081-b4ea-18d94acc9a58"},"geometry":{"type":"Polygon","coordinates":[[[135.63148593822547,35.51653110508206],[135.63149972210533,35.516600134484],[135.63162100114505,35.516565011564715],[135.63158180323765,35.51650098493147],[135.63148593822547,35.51653110508206]]]}},{"type":"Feature","properties":{"pid":"e00ab25f-0e9d-419f-be03-fe36700ddcbb"},"geometry":{"type":"Polygon","coordinates":[[[135.6338404237824,35.516636740595],[135.6339205632101,35.51664186848422],[135.6339309605383,35.51656811590667],[135.6338426551772,35.516560252136316],[135.6338404237824,35.516636740595]]]}},{"type":"Feature","properties":{"pid":"67c919b4-72ae-4346-a721-b5d9fe51861e"},"geometry":{"type":"Polygon","coordinates":[[[135.63384971965345,35.51644763874252],[135.63394229090872,35.51645072344363],[135.63394381900096,35.51638054161944],[135.63385477381976,35.516378380137894],[135.63384971965345,35.51644763874252]]]}},{"type":"Feature","properties":{"pid":"4a099984-45fb-4d65-8fe6-d5e88cebd102"},"geometry":{"type":"Polygon","coordinates":[[[135.6338472411151,35.51625712321923],[135.63394620353696,35.516262067452],[135.63394588335757,35.5162019158917],[135.63384964801025,35.51619844856395],[135.6338472411151,35.51625712321923]]]}},{"type":"Feature","properties":{"pid":"bcf7ffac-b24d-4ac5-8f20-5bcc92202e68"},"geometry":{"type":"Polygon","coordinates":[[[135.63385961740036,35.516020565373424],[135.63385538347947,35.51608897973481],[135.63396459766264,35.516092605441024],[135.63396620203136,35.516021036830274],[135.63385961740036,35.516020565373424]]]}},{"type":"Feature","properties":{"pid":"69b3ee18-95f8-4736-8481-0ce4afe7ba79"},"geometry":{"type":"Polygon","coordinates":[[[135.63388616417757,35.51537754479123],[135.63400724900714,35.5153797571131],[135.63403148024997,35.515320715043],[135.63388790559335,35.51531852722408],[135.63388616417757,35.51537754479123]]]}},{"type":"Feature","properties":{"pid":"1a68b651-ad50-431f-9d26-d29198965545"},"geometry":{"type":"Polygon","coordinates":[[[135.63389696205058,35.51513334913344],[135.63389858307363,35.51520689937137],[135.6340934291877,35.515209788522284],[135.6341426729206,35.51514046215165],[135.63389696205058,35.51513334913344]]]}},{"type":"Feature","properties":{"pid":"cc08dd1a-4950-46b9-8fb1-8460cce28e38"},"geometry":{"type":"Polygon","coordinates":[[[135.63390675817982,35.51503522287625],[135.63417372471616,35.51504381803248],[135.63419656968327,35.51495420464644],[135.63390782529405,35.51495118285858],[135.63390675817982,35.51503522287625]]]}},{"type":"Feature","properties":{"pid":"4e9b08cd-789e-41f8-935c-df1b4212991e"},"geometry":{"type":"Polygon","coordinates":[[[135.63388822231326,35.514320094938256],[135.63398202946186,35.51432409489617],[135.63395583998377,35.5142502942052],[135.63390338186082,35.51425350736551],[135.63388822231326,35.514320094938256]]]}},{"type":"Feature","properties":{"pid":"a1e75e70-aef1-49bd-8702-e56fc9ab1359"},"geometry":{"type":"Polygon","coordinates":[[[135.6338993215962,35.51467100174481],[135.6340729420657,35.51467483001645],[135.63403923492996,35.514593536093024],[135.63391273832912,35.51459138594759],[135.6338993215962,35.51467100174481]]]}},{"type":"Feature","properties":{"pid":"350a3348-f3ca-4635-b9ca-3eb4eae63ddf"},"geometry":{"type":"Polygon","coordinates":[[[135.63390686159295,35.51478006724605],[135.63389846105588,35.514849017932676],[135.63416100367337,35.51485216436326],[135.63412289181662,35.514780281467715],[135.63390686159295,35.51478006724605]]]}},{"type":"Feature","properties":{"pid":"19cc48c5-9f36-4020-a779-01e4bdbec5f0"},"geometry":{"type":"Polygon","coordinates":[[[135.63525809956755,35.51374868448437],[135.6352495308158,35.513816398023316],[135.63530454553091,35.51389089744207],[135.63544371606147,35.51390086966205],[135.63549474041167,35.51388355318553],[135.63525809956755,35.51374868448437]]]}},{"type":"Feature","properties":{"pid":"c445a27a-ab42-4a44-8e14-f5817aae1cd7"},"geometry":{"type":"Polygon","coordinates":[[[135.63586764021983,35.51338161985747],[135.63591216259346,35.51367633206744],[135.63599290232148,35.51369119629973],[135.63607398421738,35.513682851340036],[135.63603164124416,35.51335950269654],[135.63586764021983,35.51338161985747]]]}},{"type":"Feature","properties":{"pid":"914f1363-73ed-462a-8481-d79f4ce138b8"},"geometry":{"type":"Polygon","coordinates":[[[135.63617041047925,35.51333804228844],[135.63620854342045,35.51368691846879],[135.6363115076798,35.5136826280099],[135.63625727359232,35.51331759832677],[135.63617041047925,35.51333804228844]]]}},{"type":"Feature","properties":{"pid":"ff423f6d-9284-47f7-9c5d-6b6ce1367118"},"geometry":{"type":"Polygon","coordinates":[[[135.63663921985332,35.513258683170214],[135.63669385306622,35.513683342234046],[135.63671744733483,35.513683260174574],[135.63666301763385,35.51325164093783],[135.63663921985332,35.513258683170214]]]}},{"type":"Feature","properties":{"pid":"26a52d63-14a8-497e-9d62-bb8f1c041a67"},"geometry":{"type":"Polygon","coordinates":[[[135.6367890487368,35.51321932578556],[135.63684412416296,35.513676873177005],[135.6368524180365,35.51367940003019],[135.63689693696273,35.513594989529174],[135.6369445523798,35.51356430993191],[135.636900593534,35.51317691622822],[135.6367890487368,35.51321932578556]]]}},{"type":"Feature","properties":{"pid":"01bc87de-df70-41bf-8308-69038f9d484a"},"geometry":{"type":"Polygon","coordinates":[[[135.63230150341525,35.52251174018897],[135.63251107449227,35.52241203513257],[135.63255817678808,35.52238061336895],[135.6325400689989,35.52235364158365],[135.63226875689259,35.522459506856165],[135.63230150341525,35.52251174018897]]]}},{"type":"Feature","properties":{"pid":"9d5a1773-0f59-4d78-a049-59d4b0dfebee"},"geometry":{"type":"Polygon","coordinates":[[[135.6319197700619,35.522563101639626],[135.63191093316894,35.52268562773964],[135.63200900985436,35.52268319921699],[135.63207811859908,35.52262628993669],[135.63220077501688,35.52256239587671],[135.6321612848215,35.52249917740991],[135.6319197700619,35.522563101639626]]]}},{"type":"Feature","properties":{"pid":"71f8d471-87a3-49cd-be90-0c4c4a7e4e19"},"geometry":{"type":"Polygon","coordinates":[[[135.62884708897764,35.52289756792107],[135.62888153844548,35.522976442842534],[135.62902150650618,35.5229318743212],[135.62898771960093,35.52285596676181],[135.62884708897764,35.52289756792107]]]}},{"type":"Feature","properties":{"pid":"4b221f64-7994-40a9-ade6-085379dadeb9"},"geometry":{"type":"Polygon","coordinates":[[[135.62895336506796,35.5234555264819],[135.6289536204215,35.52352015335182],[135.6291441481537,35.523464331915804],[135.62916407251583,35.52339196554697],[135.62895336506796,35.5234555264819]]]}},{"type":"Feature","properties":{"pid":"b265bfe2-efe4-4a1e-9fe4-6909f0c023de"},"geometry":{"type":"Polygon","coordinates":[[[135.62917246311787,35.52319933468485],[135.62893484205262,35.523268162736656],[135.6289437079664,35.52333858082532],[135.62918927129485,35.52326577974646],[135.62917246311787,35.52319933468485]]]}},{"type":"Feature","properties":{"pid":"6586f283-0998-4fa6-9d28-b53297bbaeb9"},"geometry":{"type":"Polygon","coordinates":[[[135.62891252531094,35.523091642690304],[135.62892839455853,35.52315601398373],[135.6290880137846,35.523104246735805],[135.62905883671363,35.523047181344225],[135.62891252531094,35.523091642690304]]]}},{"type":"Feature","properties":{"pid":"1f8d7215-38b4-4ed4-8e73-eacee6767343"},"geometry":{"type":"Polygon","coordinates":[[[135.62725001776013,35.52168359565389],[135.627876619545,35.52233426542169],[135.62788887003822,35.52233461655054],[135.62725001776013,35.52168359565389]]]}},{"type":"Feature","properties":{"pid":"223401be-6e9e-42aa-af00-6aec65ed13a9"},"geometry":{"type":"Polygon","coordinates":[[[135.62806511113303,35.52222017008047],[135.62810033472257,35.52219628002749],[135.62816147545922,35.522013832151465],[135.62782810591224,35.521893292861925],[135.62767631611254,35.521557637771885],[135.62745478943097,35.52160110634208],[135.62806511113303,35.52222017008047]]]}},{"type":"Feature","properties":{"pid":"ca941ef3-9d89-43da-97e8-6f7995348cac"},"geometry":{"type":"Polygon","coordinates":[[[135.6274402033688,35.52141874569099],[135.62784244396133,35.52135999016374],[135.62783217198995,35.52131515584007],[135.62755738060127,35.52126091265981],[135.6274402033688,35.52141874569099]]]}},{"type":"Feature","properties":{"pid":"b8bff157-96af-4886-a539-a51b021a304d"},"geometry":{"type":"Polygon","coordinates":[[[135.62803435339873,35.520358830578076],[135.62805747399904,35.52051008046015],[135.62828840940293,35.52049538502586],[135.62829290288627,35.52044212435999],[135.6281931748908,35.520299401637104],[135.62803435339873,35.520358830578076]]]}},{"type":"Feature","properties":{"pid":"8d1db51f-68a9-49ba-95e4-644a670361ff"},"geometry":{"type":"Polygon","coordinates":[[[135.62760630884526,35.5211691105495],[135.6278131691743,35.5212099505496],[135.62781061332828,35.52118283957335],[135.62761603383098,35.52113593293105],[135.62760630884526,35.5211691105495]]]}},{"type":"Feature","properties":{"pid":"f2f9d4c7-ad89-4e55-960f-e5169793e315"},"geometry":{"type":"Polygon","coordinates":[[[135.6278010360227,35.52087637669493],[135.62768113897988,35.52085085937203],[135.6276532907417,35.52096516785012],[135.6278200047266,35.52099509493248],[135.6278010360227,35.52087637669493]]]}},{"type":"Feature","properties":{"pid":"c5fd311f-b2ac-4154-a147-42f2705d61ad"},"geometry":{"type":"Polygon","coordinates":[[[135.62799949253798,35.52023913910194],[135.62800290073653,35.520251350618054],[135.62867555330897,35.51996795583024],[135.62867383360688,35.51996556104379],[135.62799949253798,35.52023913910194]]]}},{"type":"Feature","properties":{"pid":"d630b006-c235-48af-8738-3bc67066029f"},"geometry":{"type":"Polygon","coordinates":[[[135.6279455673768,35.51998549142656],[135.62795775958037,35.52005477150006],[135.6285623805954,35.51981619415755],[135.62853945366135,35.51974606867457],[135.6279455673768,35.51998549142656]]]}},{"type":"Feature","properties":{"pid":"38e20b56-053a-4cc4-9d50-bc09657025a4"},"geometry":{"type":"Polygon","coordinates":[[[135.62784625823957,35.51961293310197],[135.62786761922314,35.5196893321713],[135.62839984058743,35.519463358259486],[135.6283520050914,35.51941651445869],[135.62784625823957,35.51961293310197]]]}},{"type":"Feature","properties":{"pid":"d12e587f-d7a7-4066-9540-c3be4298bafd"},"geometry":{"type":"Polygon","coordinates":[[[135.6279021809076,35.51917464276216],[135.62792089407205,35.51925452120453],[135.62818941708122,35.51914347840916],[135.62816242992398,35.519071787771],[135.6279021809076,35.51917464276216]]]}},{"type":"Feature","properties":{"pid":"707d07e5-0082-40bf-8b1e-ec62757c0d7f"},"geometry":{"type":"Polygon","coordinates":[[[135.62780640352898,35.51899439993216],[135.62787086784766,35.51907665471348],[135.62811132724303,35.51897891002728],[135.62800964830348,35.51891082663135],[135.62780640352898,35.51899439993216]]]}},{"type":"Feature","properties":{"pid":"c974b645-8bb7-4ae8-b7f0-f4d516543078"},"geometry":{"type":"Polygon","coordinates":[[[135.62767867073129,35.51882605999282],[135.62773011762712,35.51890634174896],[135.6279193534897,35.5188250445233],[135.62787362802518,35.51874650992145],[135.62767867073129,35.51882605999282]]]}},{"type":"Feature","properties":{"pid":"35621db6-f1e7-49a6-86d1-1bdfffadc61e"},"geometry":{"type":"Polygon","coordinates":[[[135.62836082773728,35.518983454334766],[135.628397197629,35.51907792260017],[135.62846481223778,35.5190314318455],[135.62841894097272,35.51896723370241],[135.62836082773728,35.518983454334766]]]}},{"type":"Feature","properties":{"pid":"d9886ad8-a724-4877-9980-3d2d69f59d7a"},"geometry":{"type":"Polygon","coordinates":[[[135.63212719336758,35.51801104644266],[135.63214899658814,35.518087300248766],[135.63222565925705,35.518230184745896],[135.63236754100328,35.51839823489943],[135.6323892176227,35.5184025339844],[135.63235563900045,35.518080365404536],[135.6323713871521,35.517928974928104],[135.63212719336758,35.51801104644266]]]}},{"type":"Feature","properties":{"pid":"e1d4ec93-6f3e-405e-9abf-c33590d33da1"},"geometry":{"type":"Polygon","coordinates":[[[135.63187703282264,35.51758935087806],[135.6319320836269,35.51764428738643],[135.63248788262752,35.51744958514055],[135.63242903234917,35.51740210181991],[135.63187703282264,35.51758935087806]]]}},{"type":"Feature","properties":{"pid":"4c52f076-100f-4634-ab3c-38dd7ffcc8d7"},"geometry":{"type":"Polygon","coordinates":[[[135.63182846798838,35.51744156861549],[135.63184276961172,35.51749649431395],[135.63232881143193,35.51732940096879],[135.63229456608448,35.51728006863677],[135.63182846798838,35.51744156861549]]]}},{"type":"Feature","properties":{"pid":"bb5fd644-16d4-4bf6-a2ad-6bd88c3036cb"},"geometry":{"type":"Polygon","coordinates":[[[135.63178340391647,35.51729030613408],[135.63220671491712,35.51714650378295],[135.6321792323061,35.51711052713669],[135.6317781734192,35.517250925168085],[135.63178340391647,35.51729030613408]]]}},{"type":"Feature","properties":{"pid":"3cc9a5b0-12bc-42ba-9d9b-32e3b746e6b6"},"geometry":{"type":"Polygon","coordinates":[[[135.6316257118389,35.51689733802043],[135.63166014623815,35.51693761580996],[135.63185947425612,35.516869288829014],[135.63181444379262,35.516834588483],[135.6316257118389,35.51689733802043]]]}},{"type":"Feature","properties":{"pid":"d2b0fd2c-d29e-4cee-8ce5-b6c592dd6d4a"},"geometry":{"type":"Polygon","coordinates":[[[135.6317197350643,35.51704767617482],[135.63175120073663,35.517104887203864],[135.63206186439027,35.51700910250823],[135.63198756890213,35.516956398512775],[135.6317197350643,35.51704767617482]]]}},{"type":"Feature","properties":{"pid":"2badc1c8-c372-4d58-8f88-2b999b6102fd"},"geometry":{"type":"Polygon","coordinates":[[[135.62749999138822,35.51816248561136],[135.62759056494662,35.51866270304632],[135.62761331461235,35.51871638571739],[135.62782420416778,35.51862834851657],[135.62774921165803,35.518430243177754],[135.62767680658192,35.518331914464696],[135.62749999138822,35.51816248561136]]]}},{"type":"Feature","properties":{"pid":"150d8f89-9a06-4855-b9c4-7466d528ec14"},"geometry":{"type":"Polygon","coordinates":[[[135.62712437596429,35.517016709683155],[135.6272347760495,35.51704551055421],[135.62732076124414,35.516889702272636],[135.62725909256847,35.51688154965079],[135.62717970961145,35.516985134256956],[135.62712437596429,35.517016709683155]]]}},{"type":"Feature","properties":{"pid":"8f462fd8-c1fb-48be-a2d6-54c9d17a23a4"},"geometry":{"type":"Polygon","coordinates":[[[135.62637811617864,35.51720872932754],[135.62640028346402,35.51723854674006],[135.62664657673773,35.51711501391448],[135.6265666926642,35.51712935199811],[135.62637811617864,35.51720872932754]]]}},{"type":"Feature","properties":{"pid":"c47919a4-df4f-486e-b51b-29e7007c8ea4"},"geometry":{"type":"Polygon","coordinates":[[[135.62661627503866,35.517289958903596],[135.62695177386385,35.51731624333159],[135.62695232993497,35.51729404156706],[135.62673363275175,35.517226142210085],[135.62661627503866,35.517289958903596]]]}},{"type":"Feature","properties":{"pid":"ac41296d-425b-497e-9022-533043ebe9d5"},"geometry":{"type":"Polygon","coordinates":[[[135.6255354109931,35.51707771198485],[135.62563746835616,35.51717501751135],[135.62564664037922,35.51718127513991],[135.62563328645328,35.51712079158306],[135.62566598295086,35.517031509227984],[135.6255354109931,35.51707771198485]]]}},{"type":"Feature","properties":{"pid":"333742e1-e6db-494b-bac3-5a32a45fb38a"},"geometry":{"type":"Polygon","coordinates":[[[135.6259250491872,35.517284121189036],[135.6259610584809,35.517311472891734],[135.62599103545472,35.517301313229275],[135.62618099439794,35.517098367340246],[135.62618826731972,35.51699921243983],[135.6259250491872,35.517284121189036]]]}},{"type":"Feature","properties":{"pid":"249d8a2c-a727-43f9-b659-b56f799a9fd7"},"geometry":{"type":"Polygon","coordinates":[[[135.62588236749474,35.5169703316883],[135.62588802055222,35.51715960296703],[135.62610566303727,35.51692473878881],[135.62598932503462,35.516967693095125],[135.62588236749474,35.5169703316883]]]}},{"type":"Feature","properties":{"pid":"1c444304-d23c-4517-b7b5-a4b84a1be894"},"geometry":{"type":"Polygon","coordinates":[[[135.6249802322619,35.52140823698318],[135.62498945818197,35.52144671159218],[135.6251106098269,35.5214211136632],[135.62509044801206,35.521357898853054],[135.6249802322619,35.52140823698318]]]}},{"type":"Feature","properties":{"pid":"f126145c-5767-4a0d-8137-eac72fdf87a4"},"geometry":{"type":"Polygon","coordinates":[[[135.6251758537864,35.52207547315168],[135.62531958104773,35.52197596230498],[135.6252778555873,35.52193815197505],[135.6251324290608,35.52204026923395],[135.6251758537864,35.52207547315168]]]}},{"type":"Feature","properties":{"pid":"54dd8616-5210-4808-9bfd-e9309c72adc4"},"geometry":{"type":"Polygon","coordinates":[[[135.62688758194096,35.52186784243762],[135.6268737789505,35.52188033348347],[135.6273753746618,35.52240276480551],[135.627402552298,35.5223954903512],[135.62688758194096,35.52186784243762]]]}},{"type":"Feature","properties":{"pid":"a7e685d0-5b07-4d82-8bc4-65a05e74dc1a"},"geometry":{"type":"Polygon","coordinates":[[[135.62643968869827,35.52230396344561],[135.62674062194284,35.52261049648666],[135.6268483961579,35.522594776331175],[135.62649470603762,35.52223612162944],[135.62643968869827,35.52230396344561]]]}},{"type":"Feature","properties":{"pid":"4bc3e996-212d-4c44-9696-c4b33ca24a63"},"geometry":{"type":"Polygon","coordinates":[[[135.62656897209837,35.522141576006135],[135.62697840681088,35.52256061842582],[135.6270571731531,35.52253629948795],[135.62662323510946,35.52207694836535],[135.62656897209837,35.522141576006135]]]}},{"type":"Feature","properties":{"pid":"425d3edd-8b3a-4c11-9aad-3cc39b42e374"},"geometry":{"type":"Polygon","coordinates":[[[135.62625854127165,35.52240386121114],[135.62650671202198,35.522654449615366],[135.62658613677024,35.52262315441258],[135.62634063197518,35.52237022708195],[135.62625854127165,35.52240386121114]]]}},{"type":"Feature","properties":{"pid":"2fe13b88-6629-4a68-b566-408023ea8ec2"},"geometry":{"type":"Polygon","coordinates":[[[135.62600989415847,35.522598534306816],[135.62628419772435,35.52268228298134],[135.62640132828315,35.52271648763375],[135.6261673153102,35.52248232316027],[135.62600989415847,35.522598534306816]]]}},{"type":"Feature","properties":{"pid":"028072b7-a9e3-4143-8465-4601f7d25ef9"},"geometry":{"type":"Polygon","coordinates":[[[135.6255654697689,35.52307109955017],[135.62619935528895,35.52325161169918],[135.6262492697264,35.52318748941608],[135.62561382804927,35.52300709145404],[135.6255654697689,35.52307109955017]]]}},{"type":"Feature","properties":{"pid":"5a95fd71-e8ca-4184-b63c-af0062cadc8c"},"geometry":{"type":"Polygon","coordinates":[[[135.62570593036844,35.52285278695237],[135.62567539789026,35.52291373287608],[135.62631855269947,35.52309903050634],[135.62635103969058,35.523063666838816],[135.6263481806434,35.52301907320946],[135.62577308179203,35.522850868887666],[135.62570593036844,35.52285278695237]]]}},{"type":"Feature","properties":{"pid":"42d05386-cb75-4f69-ad52-2b71334171ab"},"geometry":{"type":"Polygon","coordinates":[[[135.62546154278647,35.52322865696661],[135.6261416794289,35.52342457749578],[135.62615986475885,35.52334850687195],[135.625520389353,35.523169333759945],[135.62546154278647,35.52322865696661]]]}},{"type":"Feature","properties":{"pid":"9373cfb9-c371-4a06-a2a2-193eb1bf88f1"},"geometry":{"type":"Polygon","coordinates":[[[135.6252080732146,35.523559879900844],[135.62604357049932,35.52379664323075],[135.62607899179397,35.52372503906396],[135.62524637367963,35.52349403323776],[135.6252080732146,35.523559879900844]]]}},{"type":"Feature","properties":{"pid":"18b47ad7-49b3-4d5b-8ca5-67632eea71d1"},"geometry":{"type":"Polygon","coordinates":[[[135.62533056394227,35.52340160385922],[135.62612307482019,35.52362448818737],[135.62612542155466,35.52361667029783],[135.62612925918737,35.523535972834374],[135.62539769406496,35.52332389306233],[135.62533056394227,35.52340160385922]]]}},{"type":"Feature","properties":{"pid":"b6445947-e42c-4bca-8b03-8396875dfb06"},"geometry":{"type":"Polygon","coordinates":[[[135.62587676943005,35.5227003380898],[135.6258207018445,35.52274463349411],[135.6263031718422,35.522884579752095],[135.62634421106293,35.52282058005379],[135.62592637415491,35.52269440843004],[135.62587676943005,35.5227003380898]]]}},{"type":"Feature","properties":{"pid":"2234f6f0-8c4d-4a5a-bcf6-7a4557dc766b"},"geometry":{"type":"Polygon","coordinates":[[[135.6254969903315,35.52245178414701],[135.62555080458986,35.52250371024238],[135.62574905132666,35.52234217446618],[135.62566960978737,35.5223082650418],[135.6254969903315,35.52245178414701]]]}},{"type":"Feature","properties":{"pid":"92eef9a8-947b-4fcd-bc55-2583f613ec39"},"geometry":{"type":"Polygon","coordinates":[[[135.62561950685728,35.52258881799684],[135.62567947419095,35.52262630337378],[135.62604495113416,35.52234843831688],[135.62591739966382,35.5223534159109],[135.62561950685728,35.52258881799684]]]}},{"type":"Feature","properties":{"pid":"69aa0ef9-c4d4-4b96-a614-80ba095d1d59"},"geometry":{"type":"Polygon","coordinates":[[[135.6252163518182,35.522288884376195],[135.62543528371518,35.52211570097136],[135.62540126530067,35.522073926501385],[135.62521607029672,35.52220761045117],[135.6252163518182,35.522288884376195]]]}},{"type":"Feature","properties":{"pid":"a8e48651-2754-4ec0-9f0c-ed9fd148cc80"},"geometry":{"type":"Polygon","coordinates":[[[135.62523802527116,35.5224294342206],[135.62527676347628,35.52243060956786],[135.6255524195516,35.52221184862366],[135.62553498591691,35.522198334859816],[135.62523802527116,35.5224294342206]]]}}]}