{"type":"FeatureCollection","features":[{"type":"Feature","properties":{"pid":"2020bf3c-5e49-4588-bddc-d3e9e789331b","full":2.7},"geometry":{"type":"Polygon","coordinates":[[[135.98645,35.64918],[135.9869,35.64885],[135.98681,35.64875],[135.98679,35.64875],[135.98632,35.64908],[135.98633,35.6491],[135.98645,35.64918]]]}},{"type":"Feature","properties":{"pid":"1ec957a1-66da-4ae3-b2bb-975a94e019e1","full":6.2},"geometry":{"type":"Polygon","coordinates":[[[135.9855,35.64861],[135.98554,35.64863],[135.98559,35.64868],[135.98561,35.64874],[135.9857,35.64878],[135.98596,35.64836],[135.98569,35.64823],[135.9855,35.64861]]]}},{"type":"Feature","properties":{"pid":"28868dac-0c96-457c-8aa5-1be3c7779032","full":9.7},"geometry":{"type":"Polygon","coordinates":[[[135.98576,35.64878],[135.98591,35.64885],[135.986,35.64887],[135.98605,35.64887],[135.98636,35.64863],[135.98637,35.6486],[135.98626,35.64849],[135.98603,35.64837],[135.98576,35.64878]]]}},{"type":"Feature","properties":{"pid":"f3164a44-0574-4ef2-b895-b9d431aabf2a","full":5.5},"geometry":{"type":"Polygon","coordinates":[[[135.99272,35.64085],[135.99323,35.64046],[135.99307,35.64032],[135.99259,35.6407],[135.99272,35.64085]]]}},{"type":"Feature","properties":{"pid":"baa9c8c9-2c8a-4e19-868e-2708648cd52f","full":3.8},"geometry":{"type":"Polygon","coordinates":[[[135.99295,35.64125],[135.9938,35.64099],[135.99373,35.64089],[135.99366,35.64082],[135.9929,35.64118],[135.99295,35.64125]]]}},{"type":"Feature","properties":{"pid":"4605d1cb-da46-4ff1-9403-817922d16da9","full":5.4},"geometry":{"type":"Polygon","coordinates":[[[135.99303,35.64142],[135.99389,35.64115],[135.99382,35.64101],[135.99295,35.64128],[135.99303,35.64142]]]}},{"type":"Feature","properties":{"pid":"d578540b-3855-438e-918a-d170bc68f799","full":5.4},"geometry":{"type":"Polygon","coordinates":[[[135.99311,35.64159],[135.99396,35.64133],[135.9939,35.64118],[135.99305,35.64144],[135.99311,35.64159]]]}},{"type":"Feature","properties":{"pid":"171c8994-ba08-4b24-9111-975757dd0a75","full":3.9},"geometry":{"type":"Polygon","coordinates":[[[135.99322,35.64175],[135.99402,35.64148],[135.99397,35.64136],[135.99312,35.64162],[135.99319,35.64173],[135.99322,35.64175]]]}},{"type":"Feature","properties":{"pid":"c24071eb-e055-42b0-aae7-a1ab5b0636d8","full":4.4},"geometry":{"type":"Polygon","coordinates":[[[135.99335,35.6419],[135.99412,35.64166],[135.99405,35.64152],[135.99324,35.64177],[135.99335,35.6419]]]}},{"type":"Feature","properties":{"pid":"2802b681-a0dc-4aca-b5ac-8d9a22a5f77a","full":4.0},"geometry":{"type":"Polygon","coordinates":[[[135.99349,35.64206],[135.9942,35.64183],[135.99414,35.6417],[135.99338,35.64193],[135.99342,35.64198],[135.99349,35.64206]]]}},{"type":"Feature","properties":{"pid":"e42cab86-d528-4d5a-91e8-946ec7c43626","full":3.2},"geometry":{"type":"Polygon","coordinates":[[[135.9936,35.6422],[135.99429,35.64199],[135.99422,35.64186],[135.99349,35.64209],[135.99355,35.64217],[135.9936,35.6422]]]}},{"type":"Feature","properties":{"pid":"d663130e-fde3-489b-8f81-29dbf0eb2aad","full":3.8},"geometry":{"type":"Polygon","coordinates":[[[135.99394,35.64267],[135.99452,35.6425],[135.99446,35.64235],[135.99384,35.64253],[135.99384,35.64257],[135.99394,35.64267]]]}},{"type":"Feature","properties":{"pid":"2e97491b-053e-47fd-810d-f2cd4ab2c803","full":2.6},"geometry":{"type":"Polygon","coordinates":[[[135.99383,35.6425],[135.99415,35.6424],[135.99444,35.64233],[135.99438,35.64218],[135.99374,35.64239],[135.99375,35.64243],[135.99383,35.6425]]]}},{"type":"Feature","properties":{"pid":"caae558d-0277-4419-9978-a9ec57e99def","full":4.0},"geometry":{"type":"Polygon","coordinates":[[[135.99373,35.64237],[135.99437,35.64215],[135.99431,35.64202],[135.9936,35.64223],[135.99368,35.64235],[135.99373,35.64237]]]}},{"type":"Feature","properties":{"pid":"2c10f2f8-ac91-4acb-8214-19c86a3d7e3e","full":1.6},"geometry":{"type":"Polygon","coordinates":[[[135.9945,35.64327],[135.99482,35.64318],[135.99477,35.64304],[135.99437,35.64314],[135.9945,35.64327]]]}},{"type":"Feature","properties":{"pid":"142d7a55-aadc-4c6b-accb-22c31dcaa368","full":1.2},"geometry":{"type":"Polygon","coordinates":[[[135.9946,35.64341],[135.99487,35.64334],[135.99483,35.6432],[135.99451,35.64328],[135.9946,35.64341]]]}},{"type":"Feature","properties":{"pid":"320b800f-1487-4102-99d6-2c343ebc6f49","full":2.5},"geometry":{"type":"Polygon","coordinates":[[[135.99435,35.64312],[135.99474,35.64302],[135.99469,35.64287],[135.9942,35.64298],[135.99435,35.64312]]]}},{"type":"Feature","properties":{"pid":"0c747bb5-1e2f-4cf9-87e3-9fd04498acc2","full":3.3},"geometry":{"type":"Polygon","coordinates":[[[135.99417,35.64296],[135.99444,35.6429],[135.99467,35.64285],[135.99461,35.64269],[135.99407,35.64282],[135.99409,35.64287],[135.99417,35.64296]]]}},{"type":"Feature","properties":{"pid":"d729570f-617e-49b3-9f73-0f78b1f42b4e","full":1.9},"geometry":{"type":"Polygon","coordinates":[[[135.99405,35.6428],[135.9946,35.64265],[135.99454,35.64252],[135.99397,35.6427],[135.99405,35.6428]]]}},{"type":"Feature","properties":{"pid":"fa699d68-ecbc-433e-9ff2-d357d098074c","full":3.1},"geometry":{"type":"Polygon","coordinates":[[[135.99289,35.64116],[135.99363,35.64079],[135.99346,35.64064],[135.99285,35.6411],[135.99289,35.64116]]]}},{"type":"Feature","properties":{"pid":"4df5aa79-c035-495a-a4f1-8ca5f71f7f7c","full":6.7},"geometry":{"type":"Polygon","coordinates":[[[135.99285,35.64106],[135.99343,35.64063],[135.99326,35.64049],[135.99274,35.64088],[135.99281,35.64105],[135.99285,35.64106]]]}},{"type":"Feature","properties":{"pid":"511da4b9-4435-45d7-976a-be573bbe51a1","full":7.4},"geometry":{"type":"Polygon","coordinates":[[[135.98987,35.64112],[135.99058,35.64099],[135.99051,35.64082],[135.99047,35.64078],[135.98988,35.64088],[135.98993,35.64099],[135.98993,35.64103],[135.98986,35.64111],[135.98987,35.64112]]]}},{"type":"Feature","properties":{"pid":"15eed547-0003-4bd9-91de-7549de699213","full":1.2},"geometry":{"type":"Polygon","coordinates":[[[135.98984,35.64124],[135.9901,35.6412],[135.99016,35.6412],[135.99022,35.64122],[135.99064,35.64114],[135.99061,35.64106],[135.99059,35.64103],[135.98982,35.64116],[135.98981,35.64117],[135.98984,35.64124]]]}},{"type":"Feature","properties":{"pid":"02bb6fe0-d960-4a01-94c7-cfa16da97562","full":0.6},"geometry":{"type":"Polygon","coordinates":[[[135.99044,35.64133],[135.99069,35.64129],[135.99066,35.6412],[135.99064,35.64117],[135.99031,35.64123],[135.99039,35.64128],[135.99044,35.64133]]]}},{"type":"Feature","properties":{"pid":"d20ea3d5-edb6-4faf-89e6-4a825b8ac731","full":0.5},"geometry":{"type":"Polygon","coordinates":[[[135.98618,35.64389],[135.98623,35.64391],[135.9863,35.64393],[135.98642,35.64355],[135.98631,35.64352],[135.98618,35.64389]]]}},{"type":"Feature","properties":{"pid":"6d882dc1-4041-41ec-845b-88214506d002","full":0.9},"geometry":{"type":"Polygon","coordinates":[[[135.98595,35.64387],[135.98609,35.64348],[135.98596,35.64344],[135.98595,35.64345],[135.98583,35.6438],[135.98595,35.64387]]]}},{"type":"Feature","properties":{"pid":"c863445c-0efa-4e0c-8d03-192c7bc2c965","full":1.8},"geometry":{"type":"Polygon","coordinates":[[[135.98581,35.6438],[135.98594,35.64344],[135.98582,35.64341],[135.98574,35.64349],[135.98564,35.64377],[135.98566,35.64378],[135.98581,35.6438]]]}},{"type":"Feature","properties":{"pid":"f1eacea6-5ca4-4838-b882-eb45f4f30839","full":0.6},"geometry":{"type":"Polygon","coordinates":[[[135.98626,35.64315],[135.98612,35.64313],[135.98604,35.64335],[135.98618,35.64338],[135.98626,35.64315]]]}},{"type":"Feature","properties":{"pid":"14c52fc5-5592-48f3-af04-6cbf78e9af7a","full":2.4},"geometry":{"type":"Polygon","coordinates":[[[135.98649,35.64343],[135.98653,35.64342],[135.98672,35.64289],[135.9867,35.64287],[135.98656,35.64287],[135.98638,35.64338],[135.98638,35.6434],[135.98639,35.64341],[135.98649,35.64343]]]}},{"type":"Feature","properties":{"pid":"140d5fb5-d9eb-4969-b385-2bf133271ee2","full":0.6},"geometry":{"type":"Polygon","coordinates":[[[135.98657,35.64344],[135.98662,35.64344],[135.98669,35.64342],[135.9869,35.64288],[135.98675,35.64289],[135.98657,35.64344]]]}},{"type":"Feature","properties":{"pid":"71a4b212-2c75-4881-b364-3c7c653ebec7","full":0.6},"geometry":{"type":"Polygon","coordinates":[[[135.98622,35.64285],[135.98612,35.6431],[135.98627,35.64313],[135.98634,35.64292],[135.98628,35.64286],[135.98622,35.64285]]]}},{"type":"Feature","properties":{"pid":"9c5b7c4f-1e21-406d-ac36-63e8d27df91e","full":4.8},"geometry":{"type":"Polygon","coordinates":[[[135.98986,35.64087],[135.99046,35.64076],[135.99042,35.64059],[135.9898,35.6407],[135.98978,35.64074],[135.98979,35.6408],[135.98983,35.64084],[135.98986,35.64087]]]}},{"type":"Feature","properties":{"pid":"81ae67b8-4964-4149-b8fc-901da3ca4176","full":3.3},"geometry":{"type":"Polygon","coordinates":[[[135.99042,35.64058],[135.99039,35.64042],[135.98979,35.64052],[135.98981,35.64067],[135.99042,35.64058]]]}},{"type":"Feature","properties":{"pid":"3595130a-bcd2-4a89-a15b-09dcbe0911c9","full":2.5},"geometry":{"type":"Polygon","coordinates":[[[135.9826,35.64767],[135.983,35.64781],[135.98307,35.64754],[135.98306,35.64748],[135.9826,35.64767]]]}},{"type":"Feature","properties":{"pid":"77c5e817-a3e0-4a19-89ba-216784cedd00","full":2.0},"geometry":{"type":"Polygon","coordinates":[[[135.98226,35.64756],[135.98234,35.64759],[135.98287,35.64729],[135.98273,35.64723],[135.98259,35.64731],[135.98252,35.64736],[135.98243,35.64736],[135.98229,35.64735],[135.98226,35.64756]]]}},{"type":"Feature","properties":{"pid":"b51797a2-532e-4626-b35c-7c28e8e8c142","full":5.9},"geometry":{"type":"Polygon","coordinates":[[[135.98182,35.6476],[135.98188,35.64756],[135.98218,35.64752],[135.98219,35.64729],[135.98204,35.64728],[135.98194,35.64724],[135.98189,35.6472],[135.98186,35.64716],[135.98183,35.64716],[135.98176,35.6475],[135.98182,35.6476]]]}},{"type":"Feature","properties":{"pid":"2dbc4904-617f-42f5-86a5-028bc9103fb1","full":13.1},"geometry":{"type":"Polygon","coordinates":[[[135.98348,35.64721],[135.98325,35.64747],[135.98326,35.64751],[135.9834,35.64757],[135.98323,35.64789],[135.98348,35.64798],[135.98379,35.64738],[135.98363,35.6473],[135.98348,35.64721]]]}},{"type":"Feature","properties":{"pid":"5a7b7796-eafa-4bef-b8c2-64e125f09ea8","full":19.7},"geometry":{"type":"Polygon","coordinates":[[[135.9843,35.64761],[135.98411,35.64735],[135.98394,35.64735],[135.98363,35.64796],[135.98377,35.64801],[135.98383,35.64809],[135.98397,35.64814],[135.98401,35.64813],[135.9843,35.64761]]]}},{"type":"Feature","properties":{"pid":"f8683c6f-e116-441f-8323-b6d836f973e7","full":12.5},"geometry":{"type":"Polygon","coordinates":[[[135.98409,35.64815],[135.98413,35.6482],[135.98438,35.64831],[135.98448,35.64831],[135.98468,35.6479],[135.98452,35.64784],[135.98441,35.64777],[135.98434,35.64767],[135.98409,35.64815]]]}},{"type":"Feature","properties":{"pid":"c0001aa2-cf03-43e5-8dd9-356d620e661d","full":12.5},"geometry":{"type":"Polygon","coordinates":[[[135.98454,35.64831],[135.98455,35.64834],[135.98481,35.64846],[135.98486,35.64846],[135.9849,35.64845],[135.98493,35.64843],[135.98513,35.64801],[135.98487,35.64793],[135.98473,35.64793],[135.98454,35.64831]]]}},{"type":"Feature","properties":{"pid":"2af884b5-487f-4bcd-8338-adc667cc19d9","full":11.1},"geometry":{"type":"Polygon","coordinates":[[[135.98501,35.64844],[135.98501,35.64852],[135.98532,35.64863],[135.98555,35.64817],[135.98519,35.64805],[135.98501,35.64844]]]}},{"type":"Feature","properties":{"pid":"ef76af58-9d8d-400d-b173-f48af0bde93b","full":6.7},"geometry":{"type":"Polygon","coordinates":[[[135.98472,35.64899],[135.98486,35.649],[135.9852,35.64889],[135.98529,35.64871],[135.98496,35.6486],[135.9849,35.64864],[135.98472,35.64899]]]}},{"type":"Feature","properties":{"pid":"caa023df-d18b-4ede-b771-c5fb8162e404","full":13.5},"geometry":{"type":"Polygon","coordinates":[[[135.98421,35.64891],[135.98439,35.64899],[135.98463,35.649],[135.98485,35.6486],[135.98481,35.64857],[135.98452,35.64845],[135.98445,35.64846],[135.98421,35.64891]]]}},{"type":"Feature","properties":{"pid":"4b6fca2b-44f3-43ac-80e3-5dca480935f3","full":14.0},"geometry":{"type":"Polygon","coordinates":[[[135.9833,35.64859],[135.9835,35.64869],[135.98368,35.64876],[135.98394,35.64825],[135.98377,35.64819],[135.98359,35.64818],[135.98353,35.64815],[135.9833,35.64859]]]}},{"type":"Feature","properties":{"pid":"b7f69fd2-5ae0-4046-9bb9-df5bff1d6f01","full":14.2},"geometry":{"type":"Polygon","coordinates":[[[135.98411,35.64886],[135.98416,35.64887],[135.98438,35.64843],[135.98433,35.64839],[135.98401,35.64827],[135.98375,35.64876],[135.98398,35.64886],[135.98408,35.64889],[135.98411,35.64886]]]}},{"type":"Feature","properties":{"pid":"01ee93e2-6874-4604-840c-a689b78722ad","full":12.2},"geometry":{"type":"Polygon","coordinates":[[[135.98285,35.64839],[135.98307,35.64853],[135.98319,35.64858],[135.98344,35.64809],[135.98308,35.64796],[135.98285,35.64839]]]}},{"type":"Feature","properties":{"pid":"65ddebea-f7b4-4ba8-8b72-ede02fc5c17a","full":3.8},"geometry":{"type":"Polygon","coordinates":[[[135.98255,35.64831],[135.98263,35.64835],[135.98275,35.64837],[135.98295,35.64793],[135.98277,35.64787],[135.98255,35.64831]]]}},{"type":"Feature","properties":{"pid":"5726ad1f-81ea-4809-a0a1-1ed5a333c0b6","full":8.4},"geometry":{"type":"Polygon","coordinates":[[[135.98186,35.64888],[135.98187,35.64893],[135.982,35.64901],[135.98205,35.64901],[135.9824,35.64835],[135.98224,35.64829],[135.98217,35.64828],[135.98186,35.64888]]]}},{"type":"Feature","properties":{"pid":"d2c1ca2d-9940-4616-bfc4-b6bf0b10651f","full":12.8},"geometry":{"type":"Polygon","coordinates":[[[135.98144,35.6488],[135.98172,35.64888],[135.98174,35.64886],[135.98181,35.64886],[135.9821,35.64826],[135.98197,35.6482],[135.98186,35.64816],[135.98144,35.6488]]]}},{"type":"Feature","properties":{"pid":"ca1eea15-8818-4d22-b849-abc83d34ac95","full":13.4},"geometry":{"type":"Polygon","coordinates":[[[135.98201,35.64809],[135.98224,35.64821],[135.98248,35.64828],[135.98271,35.64783],[135.98242,35.64773],[135.98229,35.64782],[135.98211,35.64797],[135.98201,35.64809]]]}},{"type":"Feature","properties":{"pid":"a8e502ca-1c58-4b5a-9d72-a185a51d6b89","full":0.9},"geometry":{"type":"Polygon","coordinates":[[[135.98175,35.64802],[135.98206,35.64772],[135.98205,35.64765],[135.98183,35.64768],[135.98179,35.64786],[135.98167,35.64792],[135.98158,35.64793],[135.98156,35.64797],[135.98175,35.64802]]]}},{"type":"Feature","properties":{"pid":"5f1cfb97-a4bf-4eb3-9ccc-680a9f5fee61","full":9.2},"geometry":{"type":"Polygon","coordinates":[[[135.98119,35.64787],[135.98083,35.64858],[135.98105,35.64867],[135.9814,35.64798],[135.98119,35.64787]]]}},{"type":"Feature","properties":{"pid":"d5b42b88-f200-40bf-97c3-100ef87dd443","full":11.6},"geometry":{"type":"Polygon","coordinates":[[[135.98115,35.64785],[135.98113,35.64782],[135.9811,35.64782],[135.98101,35.64775],[135.98098,35.6477],[135.98095,35.64767],[135.98083,35.64767],[135.98077,35.64773],[135.98069,35.64853],[135.98079,35.64857],[135.98115,35.64785]]]}},{"type":"Feature","properties":{"pid":"1117b6e7-d92e-4003-a7f1-14f11d232d70","full":8.2},"geometry":{"type":"Polygon","coordinates":[[[135.98146,35.64803],[135.98111,35.64867],[135.9813,35.64875],[135.98169,35.64813],[135.98156,35.64805],[135.98146,35.64803]]]}},{"type":"Feature","properties":{"pid":"14142743-410b-48a8-8a1c-2226fb3b4873","full":1.4},"geometry":{"type":"Polygon","coordinates":[[[135.98078,35.6491],[135.98092,35.6488],[135.98104,35.64879],[135.98125,35.64887],[135.98128,35.64877],[135.98112,35.64871],[135.98102,35.64871],[135.98076,35.6486],[135.9807,35.64874],[135.98079,35.64881],[135.98079,35.64886],[135.98069,35.64907],[135.98078,35.6491]]]}},{"type":"Feature","properties":{"pid":"ff9b9db3-beff-49af-9bfb-180ea732403b","full":4.1},"geometry":{"type":"Polygon","coordinates":[[[135.98249,35.64903],[135.9826,35.64924],[135.98287,35.64907],[135.98277,35.64894],[135.98273,35.64877],[135.98265,35.64874],[135.98249,35.64903]]]}},{"type":"Feature","properties":{"pid":"b81e4730-758f-4375-8aa0-bb287e90f2c6","full":7.9},"geometry":{"type":"Polygon","coordinates":[[[135.98211,35.64904],[135.98216,35.64906],[135.98234,35.64907],[135.98267,35.64846],[135.98251,35.64837],[135.98245,35.64837],[135.98211,35.64904]]]}},{"type":"Feature","properties":{"pid":"9701ce55-9d89-4d23-9998-06884ab454a4","full":3.3},"geometry":{"type":"Polygon","coordinates":[[[135.98289,35.64912],[135.98269,35.64924],[135.98285,35.64943],[135.98294,35.64952],[135.98311,35.64942],[135.98289,35.64912]]]}},{"type":"Feature","properties":{"pid":"196c0be8-de3f-44ea-bea8-ff76746e49d7","full":2.8},"geometry":{"type":"Polygon","coordinates":[[[135.98327,35.65002],[135.98343,35.65035],[135.98359,35.65025],[135.98347,35.6499],[135.98327,35.65002]]]}},{"type":"Feature","properties":{"pid":"262c8802-b5e0-4493-b7f2-cc7affd72133","full":3.8},"geometry":{"type":"Polygon","coordinates":[[[135.983,35.64958],[135.98325,35.64995],[135.98342,35.64984],[135.9832,35.64947],[135.983,35.64958]]]}},{"type":"Feature","properties":{"pid":"071bfd22-5413-4f89-9864-ce44855510c5","full":3.3},"geometry":{"type":"Polygon","coordinates":[[[135.97643,35.655],[135.97653,35.65471],[135.97644,35.65469],[135.97639,35.6547],[135.97622,35.65476],[135.97612,35.65475],[135.97609,35.65493],[135.9762,35.65492],[135.97631,35.65495],[135.97643,35.655]]]}},{"type":"Feature","properties":{"pid":"81522cd0-cce2-444d-9ca2-d5390a59133d","full":1.9},"geometry":{"type":"Polygon","coordinates":[[[135.97666,35.65504],[135.97675,35.6548],[135.97655,35.65472],[135.97645,35.655],[135.9765,35.65502],[135.97656,35.65503],[135.97666,35.65504]]]}},{"type":"Feature","properties":{"pid":"981e544c-be15-45f8-8128-5a5851f3dc7b","full":2.0},"geometry":{"type":"Polygon","coordinates":[[[135.97682,35.65506],[135.97705,35.65445],[135.97701,35.65444],[135.97688,35.65448],[135.97668,35.65504],[135.97672,35.65505],[135.97682,35.65506]]]}},{"type":"Feature","properties":{"pid":"ceda263a-a816-48e2-9596-534a97c247cd","full":2.7},"geometry":{"type":"Polygon","coordinates":[[[135.97701,35.65505],[135.97717,35.65508],[135.97739,35.6545],[135.97724,35.65446],[135.97701,35.65505]]]}},{"type":"Feature","properties":{"pid":"3cf885ac-6ef4-4912-b96e-8997c73c9cde","full":1.9},"geometry":{"type":"Polygon","coordinates":[[[135.97698,35.65508],[135.97722,35.65447],[135.97707,35.65445],[135.97685,35.65504],[135.97688,35.65505],[135.97689,35.65508],[135.97698,35.65508]]]}},{"type":"Feature","properties":{"pid":"364c9e3d-73dc-4781-9500-039006b693ec","full":1.4},"geometry":{"type":"Polygon","coordinates":[[[135.97884,35.65488],[135.97888,35.65484],[135.9789,35.65477],[135.97885,35.65469],[135.97856,35.65458],[135.97845,35.65463],[135.97884,35.65488]]]}},{"type":"Feature","properties":{"pid":"e2505c1e-218c-4a1b-8278-39e5a32ce1cd","full":1.0},"geometry":{"type":"Polygon","coordinates":[[[135.98035,35.65501],[135.98051,35.655],[135.98052,35.65499],[135.98049,35.65478],[135.98033,35.65476],[135.9803,35.65477],[135.98035,35.65501]]]}},{"type":"Feature","properties":{"pid":"26b5c720-8534-4da3-8170-0e8e18e527d9","full":2.5},"geometry":{"type":"Polygon","coordinates":[[[135.97923,35.65557],[135.97924,35.65556],[135.97939,35.65519],[135.97937,35.65517],[135.97922,35.65511],[135.97905,35.65555],[135.97915,35.65555],[135.97923,35.65557]]]}},{"type":"Feature","properties":{"pid":"300f14f2-6f86-458b-8d52-d5966cc19235","full":2.1},"geometry":{"type":"Polygon","coordinates":[[[135.97944,35.65561],[135.97957,35.65528],[135.9794,35.6552],[135.97926,35.65557],[135.97926,35.65558],[135.97929,35.65559],[135.97944,35.65561]]]}},{"type":"Feature","properties":{"pid":"bf119395-2769-4d17-9288-d4cbabb5afbf","full":4.4},"geometry":{"type":"Polygon","coordinates":[[[135.97839,35.65558],[135.97843,35.6556],[135.97851,35.65561],[135.97858,35.65559],[135.97882,35.6549],[135.97866,35.65485],[135.97839,35.65558]]]}},{"type":"Feature","properties":{"pid":"5b6cbbb2-8050-4b2e-a14d-e2486f19e7ff","full":3.8},"geometry":{"type":"Polygon","coordinates":[[[135.97862,35.65559],[135.97871,35.65558],[135.97881,35.65555],[135.97901,35.65501],[135.97899,35.65499],[135.97889,35.65497],[135.97884,35.65492],[135.97862,35.65559]]]}},{"type":"Feature","properties":{"pid":"77db4947-ba9e-480f-9772-1128a4b58e0d","full":2.8},"geometry":{"type":"Polygon","coordinates":[[[135.97884,35.65556],[135.97903,35.65554],[135.97919,35.6551],[135.97918,35.65509],[135.97903,35.65503],[135.97884,35.65556]]]}},{"type":"Feature","properties":{"pid":"f09104f7-18cc-4c1f-b700-98d8780fd4cc","full":4.6},"geometry":{"type":"Polygon","coordinates":[[[135.97836,35.65558],[135.97863,35.65483],[135.97853,35.65478],[135.97848,35.65477],[135.97818,35.65551],[135.9782,35.65553],[135.97824,35.65554],[135.97836,35.65558]]]}},{"type":"Feature","properties":{"pid":"bd52e511-1f4f-46f7-80db-4520487a8579","full":3.2},"geometry":{"type":"Polygon","coordinates":[[[135.97782,35.65536],[135.97789,35.65542],[135.97797,35.65545],[135.97821,35.6548],[135.97821,35.65478],[135.9782,35.65478],[135.97801,35.65485],[135.97782,35.65536]]]}},{"type":"Feature","properties":{"pid":"e04548fb-cd9f-4acf-af82-eca10816e896","full":4.3},"geometry":{"type":"Polygon","coordinates":[[[135.978,35.65546],[135.97806,35.65549],[135.97815,35.65551],[135.97845,35.65476],[135.97843,35.65474],[135.97836,35.65473],[135.97825,35.65479],[135.978,35.65546]]]}},{"type":"Feature","properties":{"pid":"c7fcf364-3b3f-428b-a026-472d901ffefd","full":2.7},"geometry":{"type":"Polygon","coordinates":[[[135.97772,35.6553],[135.97774,35.6553],[135.97792,35.65484],[135.97791,35.65482],[135.97778,35.65474],[135.97774,35.65483],[135.97758,35.65523],[135.97772,35.6553]]]}},{"type":"Feature","properties":{"pid":"b8d80db5-a2f6-4fdf-827b-621e1c93f7dd","full":3.0},"geometry":{"type":"Polygon","coordinates":[[[135.97755,35.65521],[135.97775,35.65473],[135.97775,35.6547],[135.97761,35.65463],[135.97739,35.65516],[135.97749,35.6552],[135.97755,35.65521]]]}},{"type":"Feature","properties":{"pid":"665d7dd4-4137-42d1-989d-f1981c35d8e6","full":2.8},"geometry":{"type":"Polygon","coordinates":[[[135.97593,35.65602],[135.97608,35.65602],[135.97611,35.65599],[135.97613,35.65597],[135.976,35.65556],[135.97584,35.65555],[135.97587,35.65572],[135.97592,35.65592],[135.97593,35.65602]]]}},{"type":"Feature","properties":{"pid":"d91e1d32-976f-4c3e-8557-334b67a2957b","full":1.3},"geometry":{"type":"Polygon","coordinates":[[[135.97567,35.65707],[135.97568,35.65706],[135.97568,35.65692],[135.97556,35.65687],[135.97552,35.65687],[135.97544,35.65689],[135.97543,35.65707],[135.97567,35.65707]]]}},{"type":"Feature","properties":{"pid":"d5aad4eb-7399-481a-957e-4ba52b671953","full":7.1},"geometry":{"type":"Polygon","coordinates":[[[135.97503,35.65692],[135.97547,35.65682],[135.97544,35.65661],[135.97535,35.65653],[135.97526,35.65648],[135.97516,35.65645],[135.97512,35.65658],[135.97514,35.6566],[135.97499,35.65681],[135.975,35.65687],[135.97503,35.65692]]]}}],"precision":5}