{"type":"FeatureCollection","features":[{"type":"Feature","properties":{"pid":"67a5724a-e7d4-4120-ad29-38f488c678d6"},"geometry":{"type":"Polygon","coordinates":[[[136.3680234095956,35.96314637240652],[136.3679571175874,35.963157049793715],[136.3679892502637,35.96332766183226],[136.3680591629142,35.96331793248219],[136.3680234095956,35.96314637240652]]]}},{"type":"Feature","properties":{"pid":"908e9bb9-7283-4ee9-9cac-d82752334ea2"},"geometry":{"type":"Polygon","coordinates":[[[136.36811813323033,35.963615692495246],[136.36806335085473,35.96342329981091],[136.36801203363473,35.963431807579134],[136.36805857032815,35.96364016176001],[136.36811813323033,35.963615692495246]]]}},{"type":"Feature","properties":{"pid":"6fadd938-46b8-4c55-bb9c-b19e646e15ea"},"geometry":{"type":"Polygon","coordinates":[[[136.3682258052545,35.963560733000584],[136.3683105521517,35.96353254286363],[136.36826221403305,35.96339471597285],[136.36819132962324,35.96340421944516],[136.3682258052545,35.963560733000584]]]}},{"type":"Feature","properties":{"pid":"134005e6-43a5-4f20-988e-c16bb56086f4"},"geometry":{"type":"Polygon","coordinates":[[[136.36842165272847,35.96348447487044],[136.36857274199266,35.963416895451466],[136.3685343547462,35.96335565031793],[136.36838286991946,35.96337839046421],[136.36842165272847,35.96348447487044]]]}},{"type":"Feature","properties":{"pid":"7e37745d-008b-43fb-bc6e-2e1be03acb64"},"geometry":{"type":"Polygon","coordinates":[[[136.36820849709926,35.963710661056055],[136.36833314935612,35.96390736530201],[136.36835163435182,35.96389516639715],[136.36825499304754,35.96368912652762],[136.36820849709926,35.963710661056055]]]}},{"type":"Feature","properties":{"pid":"a6a39305-d0bb-4456-a551-e0e9c9cd06a3"},"geometry":{"type":"Polygon","coordinates":[[[136.36899394334802,35.96512377312669],[136.3690222472924,35.96513835113543],[136.3691836394722,35.965122187789284],[136.36918745176953,35.96470674678449],[136.36920813002212,35.96467196496238],[136.36918468935056,35.96447079397362],[136.3689311040212,35.96450470184367],[136.36899394334802,35.96512377312669]]]}},{"type":"Feature","properties":{"pid":"1d6457ee-b57c-4666-93c2-40d8bbe75189"},"geometry":{"type":"Polygon","coordinates":[[[136.36856511392236,35.965178605305084],[136.36887611325574,35.96515041083134],[136.36881240210906,35.9645451954066],[136.3686859866309,35.96459776337594],[136.3685126365435,35.96476559336757],[136.36856511392236,35.965178605305084]]]}},{"type":"Feature","properties":{"pid":"073813b4-d169-44c3-a3b2-f3e889352d32"},"geometry":{"type":"Polygon","coordinates":[[[136.3679439768782,35.96368556570454],[136.36789107633473,35.96345399477998],[136.36783327540195,35.96346393222807],[136.36789199909887,35.963707759001174],[136.3679439768782,35.96368556570454]]]}},{"type":"Feature","properties":{"pid":"e0ce0157-aa52-4aa3-8918-c729eddd5be3"},"geometry":{"type":"Polygon","coordinates":[[[136.36767822021443,35.96379300414128],[136.36777652524478,35.96375577797472],[136.36770771233645,35.963482910577305],[136.36761404162203,35.963497348076714],[136.36767822021443,35.96379300414128]]]}},{"type":"Feature","properties":{"pid":"dc06ae90-87fd-40ea-87e2-c2ebcca89091"},"geometry":{"type":"Polygon","coordinates":[[[136.36783444474358,35.9631788828092],[136.36776887224354,35.963191396582694],[136.36780716071436,35.96335470629726],[136.36786705767452,35.96334659335261],[136.36783444474358,35.9631788828092]]]}},{"type":"Feature","properties":{"pid":"f2b4ea4b-b781-42df-86ce-13b7edda488a"},"geometry":{"type":"Polygon","coordinates":[[[136.36768134705093,35.96337524496565],[136.3676431631542,35.96320829605474],[136.3675504325724,35.963219288389425],[136.36758926472436,35.963387230805694],[136.36768134705093,35.96337524496565]]]}},{"type":"Feature","properties":{"pid":"7992376a-cd42-49d8-a81a-30a27e9e3c7f"},"geometry":{"type":"Polygon","coordinates":[[[136.3681068322919,35.96607602766457],[136.36761458125704,35.9661245596104],[136.36760148795807,35.96642782748626],[136.36762001688803,35.966699530368416],[136.36817025306019,35.966654580188354],[136.3681068322919,35.96607602766457]]]}},{"type":"Feature","properties":{"pid":"bea5f79b-b97b-4465-8be4-98d9173a07b6"},"geometry":{"type":"Polygon","coordinates":[[[136.3676671262393,35.965974667339125],[136.36807515425178,35.96594343615421],[136.3680210710541,35.96537681566166],[136.36799424874354,35.96537850779595],[136.36783610407423,35.96559295643039],[136.36772225885545,35.965815556680965],[136.3676671262393,35.965974667339125]]]}},{"type":"Feature","properties":{"pid":"7b800f2a-a9c1-4d2c-9b76-1b71e192ab6a"},"geometry":{"type":"Polygon","coordinates":[[[136.3685069014286,35.965902606405336],[136.3684408196238,35.96534069534315],[136.36814613052533,35.96536128832707],[136.368206922465,35.965928308535936],[136.3685069014286,35.965902606405336]]]}},{"type":"Feature","properties":{"pid":"ab6ae09a-c57b-4888-ba98-a61770f15be2"},"geometry":{"type":"Polygon","coordinates":[[[136.36812305288143,35.96521857996538],[136.36844490663867,35.96518264072741],[136.36841044638896,35.96490591359844],[136.36812305288143,35.96521857996538]]]}},{"type":"Feature","properties":{"pid":"76fe9516-1f14-400b-a77a-60abec89b4ff"},"geometry":{"type":"Polygon","coordinates":[[[136.36858064734324,35.96532742415793],[136.36863680880904,35.96582173344644],[136.36871886237034,35.965835261436155],[136.36874200622074,35.965883296199706],[136.36896620418636,35.96586382850744],[136.36889296056373,35.96530640502966],[136.36858064734324,35.96532742415793]]]}},{"type":"Feature","properties":{"pid":"9bf1875c-d703-4688-a423-a52d5d7f688e"},"geometry":{"type":"Polygon","coordinates":[[[136.369023105907,35.96529483358093],[136.36909725102382,35.965860970946835],[136.36930212853562,35.96585085746995],[136.3692147181488,35.96552954872288],[136.36917729254654,35.96535628324609],[136.36917674821188,35.96528278605733],[136.369023105907,35.96529483358093]]]}},{"type":"Feature","properties":{"pid":"bc1245d0-eed9-4d4d-8536-8b26c68906e5"},"geometry":{"type":"Polygon","coordinates":[[[136.3682957932788,35.96665215022704],[136.36860098756046,35.96662280470296],[136.3685377843524,35.96605319942482],[136.3682309216491,35.96607570112505],[136.3682957932788,35.96665215022704]]]}},{"type":"Feature","properties":{"pid":"63a39088-5ade-45fd-a919-ad1bf4319854"},"geometry":{"type":"Polygon","coordinates":[[[136.36873983780944,35.9666206056229],[136.36905702732136,35.96659535208901],[136.36899441178434,35.966011720826565],[136.3686719404541,35.966043992072954],[136.36873983780944,35.9666206056229]]]}},{"type":"Feature","properties":{"pid":"f92c507c-4e21-4568-8c1c-7809f616f556"},"geometry":{"type":"Polygon","coordinates":[[[136.369296326588,35.96658155321695],[136.36932675399467,35.96649533972732],[136.36934678651528,35.96610238199688],[136.3693304760274,35.96599289605109],[136.3691262677814,35.96600354161417],[136.36919085756304,35.96658902473453],[136.369296326588,35.96658155321695]]]}},{"type":"Feature","properties":{"pid":"8fd6ddea-ca20-4b62-b156-4aad071eedde"},"geometry":{"type":"Polygon","coordinates":[[[136.36876306182427,35.9667766746971],[136.36882923107657,35.96736070113962],[136.36923986320681,35.96733061724292],[136.3692086886933,35.96690246973997],[136.36925672906983,35.9667470831496],[136.36876306182427,35.9667766746971]]]}},{"type":"Feature","properties":{"pid":"479946cf-961a-46d2-a299-3e4e0502d86b"},"geometry":{"type":"Polygon","coordinates":[[[136.36869071279776,35.9673687009073],[136.36861872731973,35.96678428079945],[136.36831039120557,35.96680937881942],[136.36838148143462,35.9673865461831],[136.36869071279776,35.9673687009073]]]}},{"type":"Feature","properties":{"pid":"a87d5a6a-5302-45b7-a044-563338efc34f"},"geometry":{"type":"Polygon","coordinates":[[[136.36884684554965,35.96751347562688],[136.36890043422255,35.9680896133444],[136.36902740441877,35.96807371053478],[136.3690444107919,35.968060878685556],[136.36919763349204,35.96749308400406],[136.36884684554965,35.96751347562688]]]}},{"type":"Feature","properties":{"pid":"68b7e436-204c-4341-9cfe-33780f1e1203"},"geometry":{"type":"Polygon","coordinates":[[[136.36841596218454,35.9682622825142],[136.36852277291547,35.96850469229357],[136.36884046957866,35.96849633598373],[136.36884052189683,35.96842445711404],[136.36893172384526,35.968247797468564],[136.36841596218454,35.9682622825142]]]}},{"type":"Feature","properties":{"pid":"c32f922a-f1c7-4c85-a2de-960ebf968fbb"},"geometry":{"type":"Polygon","coordinates":[[[136.3681089351943,35.96756890566394],[136.3682050079854,35.96771471069806],[136.3683228847474,35.96797845123159],[136.3682749772181,35.967555158001744],[136.3681089351943,35.96756890566394]]]}},{"type":"Feature","properties":{"pid":"7d5b7fce-8e31-4ab5-93d4-ec5547d4f5bf"},"geometry":{"type":"Polygon","coordinates":[[[136.36871552256244,35.96752541167085],[136.36840291271736,35.96754730702112],[136.36847117361404,35.96810605484178],[136.36877004031382,35.96809460607808],[136.36871552256244,35.96752541167085]]]}},{"type":"Feature","properties":{"pid":"5fb4bf49-6012-4afe-94ae-1b41413d41a6"},"geometry":{"type":"Polygon","coordinates":[[[136.36769587554983,35.96688125303863],[136.36800897274114,35.967414033789886],[136.36824769564413,35.96739892615775],[136.36818056204336,35.966838475271246],[136.36769587554983,35.96688125303863]]]}},{"type":"Feature","properties":{"pid":"02aaf265-f3b5-4b19-b048-3d3e8be8e8f3"},"geometry":{"type":"Polygon","coordinates":[[[136.36885564998218,35.968612342971355],[136.36856323971978,35.96862506258594],[136.36868771333806,35.96886898656374],[136.36886375938695,35.968863423410184],[136.36885564998218,35.968612342971355]]]}},{"type":"Feature","properties":{"pid":"b1216eca-10b5-45c8-861b-33d308caef62"},"geometry":{"type":"Polygon","coordinates":[[[136.36817545789452,35.95988524453867],[136.368028304667,35.959691810705],[136.36766472052616,35.959871491371096],[136.3678340286343,35.96010802852911],[136.3681655967309,35.95995162841751],[136.36815588772836,35.95991293320762],[136.36817545789452,35.95988524453867]]]}},{"type":"Feature","properties":{"pid":"5b85a25b-7475-4369-bceb-61ae001cee1f"},"geometry":{"type":"Polygon","coordinates":[[[136.36806719834365,35.96041916437402],[136.36843519392718,35.960244034429444],[136.3682750849147,35.96002270989085],[136.36791419670283,35.960194443268975],[136.36806719834365,35.96041916437402]]]}},{"type":"Feature","properties":{"pid":"c29d320e-3a67-425e-bd97-a583c8c39501"},"geometry":{"type":"Polygon","coordinates":[[[136.36913700304925,35.959615172713896],[136.3684533367294,35.95994096743152],[136.36861040434428,35.96014566791089],[136.36924295674436,35.95983281145944],[136.36913700304925,35.959615172713896]]]}},{"type":"Feature","properties":{"pid":"9b3696eb-99a6-4e59-9528-c123e4c6a70e"},"geometry":{"type":"Polygon","coordinates":[[[136.36946265613162,35.96032371910851],[136.36930379956073,35.959967431399086],[136.36867759504293,35.960249969139426],[136.3689070721151,35.96058375000265],[136.36892824756242,35.96059228402341],[136.36946265613162,35.96032371910851]]]}},{"type":"Feature","properties":{"pid":"49a3ee97-c2f2-455b-80c6-32549335bf2d"},"geometry":{"type":"Polygon","coordinates":[[[136.36812270429692,35.960528937035804],[136.36824285413223,35.96071972092123],[136.368639238292,35.960523774749205],[136.36850414555104,35.96033561035231],[136.36812270429692,35.960528937035804]]]}},{"type":"Feature","properties":{"pid":"3c6de070-022c-406c-ae11-da513a70bd60"},"geometry":{"type":"Polygon","coordinates":[[[136.36845800855548,35.96106342340349],[136.36887848682127,35.96086547228783],[136.36871138181746,35.960619479820224],[136.36829872407003,35.9608170391722],[136.36845800855548,35.96106342340349]]]}},{"type":"Feature","properties":{"pid":"b3174be7-52cf-4dad-88d7-8dd636c0ec87"},"geometry":{"type":"Polygon","coordinates":[[[136.36866714013883,35.9613743878365],[136.36907132898688,35.96118512128587],[136.3689469699261,35.960952036950914],[136.36851539407522,35.96115653260628],[136.36866714013883,35.9613743878365]]]}},{"type":"Feature","properties":{"pid":"d3c8fa79-52ca-407d-9c55-953ca1f4ed1c"},"geometry":{"type":"Polygon","coordinates":[[[136.3687314292844,35.96147263448188],[136.36888716420168,35.96169213460085],[136.36924173309984,35.96152527025006],[136.36912585372522,35.9612832772678],[136.3687314292844,35.96147263448188]]]}},{"type":"Feature","properties":{"pid":"2663b890-29a3-4f44-bd96-3a1a4512f4e2"},"geometry":{"type":"Polygon","coordinates":[[[136.36895513963142,35.96179384214753],[136.36910381776792,35.96200442693607],[136.36941297672826,35.96184866681771],[136.36929830274852,35.9616273568712],[136.36895513963142,35.96179384214753]]]}},{"type":"Feature","properties":{"pid":"6e3b077f-40c2-40ac-a44f-6fdc308854df"},"geometry":{"type":"Polygon","coordinates":[[[136.3679390814493,35.962746897326085],[136.36790263291172,35.96258107740333],[136.36782451799237,35.962596784361715],[136.36786484769607,35.96275866264543],[136.3679390814493,35.962746897326085]]]}},{"type":"Feature","properties":{"pid":"92dd1c05-3cf6-47e7-b6f2-14bb7cfd053d"},"geometry":{"type":"Polygon","coordinates":[[[136.36764346053297,35.96232434954567],[136.3675735690777,35.96233309102472],[136.36760678684942,35.96247856773737],[136.3676718734396,35.962467661725434],[136.36764346053297,35.96232434954567]]]}},{"type":"Feature","properties":{"pid":"82e341e7-2cb8-41f3-9f52-17c98216a52a"},"geometry":{"type":"Polygon","coordinates":[[[136.36739775778892,35.962521670997035],[136.36748487794142,35.96250777323438],[136.36741679310035,35.96217773718011],[136.3673200100945,35.96219493178054],[136.36739775778892,35.962521670997035]]]}},{"type":"Feature","properties":{"pid":"e4b58732-e094-4d66-ae4b-a1b3e0dbfaee"},"geometry":{"type":"Polygon","coordinates":[[[136.36714655907178,35.96231313935523],[136.36711399258675,35.96232005823629],[136.36716945503863,35.9625596687421],[136.36719529052726,35.96255612330442],[136.36714655907178,35.96231313935523]]]}},{"type":"Feature","properties":{"pid":"c6907d41-2ed5-4a73-b3e4-6dfb590a42b5"},"geometry":{"type":"Polygon","coordinates":[[[136.3671500151192,35.96279681300713],[136.3670729958444,35.96278983372899],[136.3670497608034,35.962714299656476],[136.3669871922451,35.96272053742559],[136.366966490437,35.96281662248943],[136.36692976008254,35.96289293593922],[136.36715660208034,35.96285861424351],[136.3671500151192,35.96279681300713]]]}},{"type":"Feature","properties":{"pid":"9ac3b8a7-fd7b-4fb5-9f93-dd7b080e768a"},"geometry":{"type":"Polygon","coordinates":[[[136.36695160050252,35.96299785111163],[136.36691087924333,35.96300533840401],[136.36690693131882,35.963045460353534],[136.3669112085707,35.96309689123131],[136.36696384040908,35.96319430400041],[136.36699420322074,35.96318988850995],[136.36695160050252,35.96299785111163]]]}},{"type":"Feature","properties":{"pid":"c8d49793-e3fe-4857-95fb-255a150a095e"},"geometry":{"type":"Polygon","coordinates":[[[136.36762013170488,35.963075893079235],[136.36758009902738,35.9629036374354],[136.36748843836932,35.9629154772535],[136.36752666630576,35.963091098635246],[136.36762013170488,35.963075893079235]]]}},{"type":"Feature","properties":{"pid":"602e1efe-4372-486c-9843-ca1b9b55b967"},"geometry":{"type":"Polygon","coordinates":[[[136.36742802253488,35.962660866677005],[136.36746248665276,35.96281509802676],[136.36755384397944,35.96280307273764],[136.36751604878225,35.96264654096564],[136.36742802253488,35.962660866677005]]]}},{"type":"Feature","properties":{"pid":"dd64651d-e0f8-4528-9f3c-7c18ea862545"},"geometry":{"type":"Polygon","coordinates":[[[136.3677459481816,35.962782768463086],[136.3677036745696,35.962615756707606],[136.36763707089514,35.962625724120876],[136.36767573422972,35.96279313782589],[136.3677459481816,35.962782768463086]]]}},{"type":"Feature","properties":{"pid":"ea32be36-ee13-47f1-a114-f2f52c4e181f"},"geometry":{"type":"Polygon","coordinates":[[[136.36799550494553,35.963023500571325],[136.36795601604382,35.962855654799036],[136.36789495555988,35.9628645807654],[136.36793346126248,35.963031496001285],[136.36799550494553,35.963023500571325]]]}},{"type":"Feature","properties":{"pid":"ed06e78b-c2c9-4acb-b7f5-e2f03d693440"},"geometry":{"type":"Polygon","coordinates":[[[136.36781422203327,35.96304739093576],[136.36777622036996,35.96287848363962],[136.36770540839538,35.96288853595531],[136.36774382597812,35.963057657115904],[136.36781422203327,35.96304739093576]]]}},{"type":"Feature","properties":{"pid":"3a2a6d14-0ec2-42b3-9695-cecea6b6f261"},"geometry":{"type":"Polygon","coordinates":[[[136.36825064274473,35.962807855442406],[136.36807752379116,35.962838142716365],[136.3681172034923,35.963004722929],[136.3683576426786,35.96296890341536],[136.36833942230277,35.962928016846824],[136.3683016199918,35.96292680644362],[136.36827320888602,35.96290601013219],[136.36824195595622,35.962841591744805],[136.36825064274473,35.962807855442406]]]}},{"type":"Feature","properties":{"pid":"e998938e-aadf-4ca5-8867-74ab196efddb"},"geometry":{"type":"Polygon","coordinates":[[[136.36818390216922,35.962538947946676],[136.3680209682954,35.962561425213124],[136.3680594492384,35.96272917733652],[136.36823711821216,35.96270363080515],[136.36818390216922,35.962538947946676]]]}},{"type":"Feature","properties":{"pid":"c667b925-b0dd-4c0f-ba1d-218adcc0c514"},"geometry":{"type":"Polygon","coordinates":[[[136.36806978932853,35.962278724624724],[136.3681001412806,35.96240829399717],[136.36818857564617,35.96239676690501],[136.36816921259586,35.962268782758976],[136.36806978932853,35.962278724624724]]]}},{"type":"Feature","properties":{"pid":"ea86ed9c-9398-42ab-8e3a-67626c65865f"},"geometry":{"type":"Polygon","coordinates":[[[136.3696924909064,35.962396468308846],[136.36964651517297,35.96229356213347],[136.36963074354227,35.962293661505186],[136.36936862072372,35.96241597857336],[136.36964615545202,35.9627469272165],[136.36971934622275,35.96268288467144],[136.36966817229435,35.96247941701849],[136.3696924909064,35.962396468308846]]]}},{"type":"Feature","properties":{"pid":"bb7a02a0-dfe4-45e2-a0f3-3bc3aee57ff0"},"geometry":{"type":"Polygon","coordinates":[[[136.36947032592875,35.96195731566939],[136.3691724674722,35.96211495596198],[136.3693128491839,35.96232712480665],[136.3695997356675,35.962190060689224],[136.36947032592875,35.96195731566939]]]}},{"type":"Feature","properties":{"pid":"5764ff76-be58-4a80-8d72-8c67748af628"},"geometry":{"type":"Polygon","coordinates":[[[136.36973281518922,35.962026962330434],[136.36986074433315,35.96226522098351],[136.36995824903858,35.96210405465021],[136.36996271236364,35.9619546893897],[136.36973281518922,35.962026962330434]]]}},{"type":"Feature","properties":{"pid":"92c3c64f-baca-47bf-962e-92d935c89bba"},"geometry":{"type":"Polygon","coordinates":[[[136.36968280320718,35.96193431792568],[136.36994609600112,35.961847449337554],[136.369934472428,35.96172551782247],[136.3696513949644,35.9618659605422],[136.36968280320718,35.96193431792568]]]}},{"type":"Feature","properties":{"pid":"5e9d06d4-7584-4045-9442-794a45a2d2ca"},"geometry":{"type":"Polygon","coordinates":[[[136.369885144079,35.96132864273378],[136.3694811647444,35.961527586213485],[136.3695988439188,35.961763116241656],[136.36992521136526,35.961610569352295],[136.369885144079,35.96132864273378]]]}},{"type":"Feature","properties":{"pid":"d3cdd8a6-8e7d-490f-9358-17b1e296d064"},"geometry":{"type":"Polygon","coordinates":[[[136.36942651146703,35.961428520919526],[136.36986499114033,35.961217553259544],[136.36986500180032,35.96104249857132],[136.36963837069084,35.960620804541264],[136.36911602900872,35.96086423108131],[136.36942651146703,35.961428520919526]]]}},{"type":"Feature","properties":{"pid":"5b5962ba-bf46-4d1b-8eba-aac6a5d9f47a"},"geometry":{"type":"Polygon","coordinates":[[[136.3690180606398,35.96066845340676],[136.36900513472528,35.960691324697905],[136.36905882523064,35.960768057741575],[136.36958564255207,35.96050937777574],[136.36953324426014,35.96041736815485],[136.3690180606398,35.96066845340676]]]}},{"type":"Feature","properties":{"pid":"bba98423-076b-463a-9215-44f4874208cc"},"geometry":{"type":"Polygon","coordinates":[[[136.3690590705909,35.95950861078223],[136.36889035326863,35.959296386828996],[136.3682179725586,35.95963256660834],[136.36837893796059,35.95983600880473],[136.3690590705909,35.95950861078223]]]}},{"type":"Feature","properties":{"pid":"d4b8cb93-0699-4924-b82d-fe5439ed197d"},"geometry":{"type":"Polygon","coordinates":[[[136.36815940823982,35.959530953952196],[136.36883635674715,35.959207108177736],[136.36864013045727,35.95902012883455],[136.368006830552,35.95934120091307],[136.36815940823982,35.959530953952196]]]}},{"type":"Feature","properties":{"pid":"5e8ed537-2fc1-4fb0-a9b7-2e7406d00865"},"geometry":{"type":"Polygon","coordinates":[[[136.36769969316674,35.958930141693266],[136.3679153410756,35.959230464245486],[136.36795510625151,35.959237627787864],[136.36852862865348,35.95894696178627],[136.36816927836486,35.95890243892211],[136.36815186639635,35.958929349882574],[136.36811779210223,35.958941112421286],[136.3680422407641,35.95893547232699],[136.36801106647388,35.958901231889776],[136.36779258296895,35.95890990396209],[136.36769969316674,35.958930141693266]]]}},{"type":"Feature","properties":{"pid":"338cd94e-30d2-4f05-9461-aeefa368e3a5"},"geometry":{"type":"Polygon","coordinates":[[[136.36796208104624,35.959603224376245],[136.36751094430934,35.958991944212876],[136.36713833619365,35.95910372737057],[136.36742662999362,35.95955633321039],[136.36759906038645,35.959783243918956],[136.36796208104624,35.959603224376245]]]}},{"type":"Feature","properties":{"pid":"1d601e29-ed3c-4b30-82e3-a895a0224c02"},"geometry":{"type":"Polygon","coordinates":[[[136.36739582113776,35.9588148035721],[136.36728279121814,35.95868253522814],[136.36698476776826,35.95884194464323],[136.3670357633171,35.958923289404],[136.36739582113776,35.9588148035721]]]}},{"type":"Feature","properties":{"pid":"dd414e73-7fdb-478f-a637-5a4ec94366a2"},"geometry":{"type":"Polygon","coordinates":[[[136.36712473722642,35.95859697393777],[136.3671115572489,35.95857961870192],[136.36688876975316,35.95870021544027],[136.36690270173645,35.95871986971958],[136.36712473722642,35.95859697393777]]]}},{"type":"Feature","properties":{"pid":"f5837db9-575a-47e8-b9b1-1d1d6117c3b3"},"geometry":{"type":"Polygon","coordinates":[[[136.36757091880418,35.95875002322166],[136.36796113544085,35.958665464576924],[136.368184194682,35.95864484777946],[136.3682717504456,35.95860475478409],[136.36834486807106,35.95860378814809],[136.36829069325452,35.958517683557226],[136.3682072217474,35.95843217983666],[136.36755310634922,35.95872535732716],[136.36757091880418,35.95875002322166]]]}},{"type":"Feature","properties":{"pid":"9970c1fa-cbbf-4fde-ba68-266039876b73"},"geometry":{"type":"Polygon","coordinates":[[[136.36813236890063,35.95835553255635],[136.36809561721694,35.95831795453617],[136.36776308907886,35.95847856164215],[136.367548965329,35.9585422386553],[136.36745303943385,35.95859095948737],[136.36748873043553,35.95864084119758],[136.36813236890063,35.95835553255635]]]}},{"type":"Feature","properties":{"pid":"d279c384-f82a-40c8-9a02-acb88b91e2d3"},"geometry":{"type":"Polygon","coordinates":[[[136.36734637900673,35.958185901413],[136.36744826347632,35.958302234572365],[136.36754969162536,35.958242478066055],[136.36743531393356,35.95812894624384],[136.36734637900673,35.958185901413]]]}}]}