{"type":"FeatureCollection","features":[{"type":"Feature","properties":{"pid":"d47e4d8c-1aa0-402d-81f9-ecda1134da21"},"geometry":{"type":"Polygon","coordinates":[[[136.30033045478567,35.94906688391644],[136.30042661036154,35.949296380001236],[136.30049878495026,35.94926093227357],[136.30040622136707,35.94904449179219],[136.30033045478567,35.94906688391644]]]}},{"type":"Feature","properties":{"pid":"7bf62da5-8a72-44ad-84f1-0efd57ab087e"},"geometry":{"type":"Polygon","coordinates":[[[136.30163052217952,35.947604083182384],[136.30130892188717,35.94767186504151],[136.301325174365,35.94771665991461],[136.30164355947915,35.947641534154855],[136.30163052217952,35.947604083182384]]]}},{"type":"Feature","properties":{"pid":"7f2c832b-1192-4877-b00f-8db34df12243"},"geometry":{"type":"Polygon","coordinates":[[[136.30177736591912,35.94796659821325],[136.30148159570504,35.948027988341984],[136.30152215987113,35.94815183871534],[136.30181615347422,35.94808243945624],[136.30177736591912,35.94796659821325]]]}},{"type":"Feature","properties":{"pid":"b7b447ca-a056-4b78-b694-a823836ba8f6"},"geometry":{"type":"Polygon","coordinates":[[[136.30197325397882,35.9479615730888],[136.30228645713893,35.947905612067316],[136.30229118539532,35.94789514681075],[136.30210862354303,35.94779988741037],[136.3019572369485,35.94788229774291],[136.30197325397882,35.9479615730888]]]}},{"type":"Feature","properties":{"pid":"ded48b30-30bb-4fee-a11b-f7bf63ed6fe8"},"geometry":{"type":"Polygon","coordinates":[[[136.3015560768903,35.947873126410244],[136.30170137326297,35.94783983214323],[136.3016725097567,35.947756761368346],[136.30152402770483,35.94778945696444],[136.3015560768903,35.947873126410244]]]}}]}