{"type":"FeatureCollection","features":[{"type":"Feature","properties":{"pid":"b79747eb-4ad3-4f78-9802-cf4564999009"},"geometry":{"type":"Polygon","coordinates":[[[136.35046626542626,35.92460807190014],[136.35048296587004,35.92462876123684],[136.35115402129688,35.924711919061075],[136.35116976311735,35.92427695441406],[136.35131787855883,35.923518021248604],[136.35136350003617,35.92304213123565],[136.35134958936004,35.92296615142657],[136.3507082464756,35.922909278613005],[136.35063910367234,35.923265703895346],[136.35056097113304,35.92381391510563],[136.3504651440953,35.92450721673149],[136.35046626542626,35.92460807190014]]]}},{"type":"Feature","properties":{"pid":"e058f6f4-6fcf-4913-987b-221288c6f6d2"},"geometry":{"type":"Polygon","coordinates":[[[136.35131038747082,35.92628123441311],[136.3514065464282,35.92602036253186],[136.3514089911613,35.92589220183535],[136.35112674078178,35.926014529784275],[136.35131038747082,35.92628123441311]]]}},{"type":"Feature","properties":{"pid":"808726e7-5060-41c1-96fc-f968e8ad44e8"},"geometry":{"type":"Polygon","coordinates":[[[136.35026154386176,35.92477213123487],[136.35106821093171,35.925929421807375],[136.35139711143893,35.92578696468263],[136.35126421212382,35.925419952999526],[136.35121438667,35.92519718568948],[136.35116971683814,35.924860245556324],[136.35026154386176,35.92477213123487]]]}},{"type":"Feature","properties":{"pid":"4bb63555-2cd6-4872-b4ec-f2a738337559"},"geometry":{"type":"Polygon","coordinates":[[[136.35148643984965,35.926537660855146],[136.35164538407537,35.92647573453327],[136.351580610455,35.92628982914204],[136.35153949899095,35.92628856714708],[136.35152258556175,35.92630461304112],[136.35142646999455,35.926450312769035],[136.35148643984965,35.926537660855146]]]}},{"type":"Feature","properties":{"pid":"2e359b70-19f0-4ffd-88be-0ea5d6c495d9"},"geometry":{"type":"Polygon","coordinates":[[[136.3535760287659,35.92857431508365],[136.3537391021647,35.928716128321994],[136.35388340289245,35.928814435740435],[136.3540605852159,35.92855385317165],[136.35388090005324,35.928451923836555],[136.35374826573204,35.92859898602575],[136.3535760287659,35.92857431508365]]]}},{"type":"Feature","properties":{"pid":"4db94fac-8deb-4d18-8eb8-dd03ada5c358"},"geometry":{"type":"Polygon","coordinates":[[[136.37385145784594,35.94003645259587],[136.3739679300472,35.940186402305066],[136.37400282927166,35.940158609391595],[136.37385145784594,35.94003645259587]]]}},{"type":"Feature","properties":{"pid":"90adc055-85f5-4d8f-9fed-1005448a363d"},"geometry":{"type":"Polygon","coordinates":[[[136.36679578548475,35.93512934098516],[136.36683817384775,35.93516242708555],[136.3669554617273,35.93505322097718],[136.367099633135,35.934855359610005],[136.36702340726853,35.934852136686395],[136.3668695899764,35.93506372622839],[136.36679578548475,35.93512934098516]]]}},{"type":"Feature","properties":{"pid":"8e0772af-4d59-461b-8f3b-b9ac66534113"},"geometry":{"type":"Polygon","coordinates":[[[136.36600562317628,35.935052380986015],[136.36606277570093,35.93507886819076],[136.36613709953207,35.93506926367089],[136.36623165991253,35.93502193505012],[136.36626677356116,35.93498265918207],[136.36626180495327,35.93496136064839],[136.36617981059175,35.934890577697395],[136.36600562317628,35.935052380986015]]]}},{"type":"Feature","properties":{"pid":"2baf8b07-dfdb-4ff2-a7f9-4b86846217ec"},"geometry":{"type":"Polygon","coordinates":[[[136.36553644692228,35.93482528212171],[136.36579809890168,35.93497149790487],[136.3658789197915,35.9349835469773],[136.36605335319138,35.93481155047317],[136.36596584438348,35.93476741901881],[136.36586804782544,35.934772885835905],[136.36573966978898,35.93472446723208],[136.36567958091157,35.934777599652755],[136.36553644692228,35.93482528212171]]]}},{"type":"Feature","properties":{"pid":"cadf44e9-1eeb-4581-9df0-9e6e891c0014"},"geometry":{"type":"Polygon","coordinates":[[[136.36485276069402,35.9349756363245],[136.36487619072614,35.93500712732637],[136.36521361440788,35.9349024471132],[136.36517478782793,35.93488135286124],[136.36485276069402,35.9349756363245]]]}},{"type":"Feature","properties":{"pid":"2aebc97a-6c62-480d-ae2d-3978a144cf74"},"geometry":{"type":"Polygon","coordinates":[[[136.36484419710752,35.93519175353692],[136.3649572836377,35.93522372287236],[136.36503832881698,35.935209084526285],[136.3655663327188,35.93503987826154],[136.36545432397008,35.93500717360977],[136.36484419710752,35.93519175353692]]]}},{"type":"Feature","properties":{"pid":"4589eb55-12bd-40a5-9cca-372285b79eea"},"geometry":{"type":"Polygon","coordinates":[[[136.36445986525203,35.93498792695749],[136.36462169299983,35.93507602697991],[136.36474409861466,35.935032213447826],[136.36472874872157,35.93501048112693],[136.36460912209114,35.93504320746202],[136.36456664423457,35.935025200650976],[136.36453732559477,35.93497645139927],[136.36445986525203,35.93498792695749]]]}},{"type":"Feature","properties":{"pid":"b90d9f8d-8bac-4c2b-bd60-69b0f8a990e8"},"geometry":{"type":"Polygon","coordinates":[[[136.36298295738948,35.9349077257083],[136.36299258757043,35.93491531157379],[136.3631680795728,35.934792454546624],[136.36328965485276,35.93468401938097],[136.3632815953694,35.934676085468226],[136.36311036933154,35.93476967017676],[136.36298295738948,35.9349077257083]]]}},{"type":"Feature","properties":{"pid":"42e7e29d-a11d-443d-b04f-295edcba69e2"},"geometry":{"type":"Polygon","coordinates":[[[136.36302883608874,35.93456234212449],[136.3632329950338,35.934464016450484],[136.36329526798633,35.93445361690568],[136.3633317389061,35.93440663240276],[136.36302907696415,35.93454042026695],[136.36302883608874,35.93456234212449]]]}},{"type":"Feature","properties":{"pid":"795489bb-9239-4be9-bb77-49ef5eb95181"},"geometry":{"type":"Polygon","coordinates":[[[136.36382484047803,35.93456217835174],[136.3642299021161,35.93456120603875],[136.36426734390957,35.93446870526159],[136.36417513583143,35.93443682459705],[136.3640992514369,35.93448739028526],[136.36382484047803,35.93456217835174]]]}},{"type":"Feature","properties":{"pid":"3f93a57f-c329-41bd-99d7-b7edd4ec1258"},"geometry":{"type":"Polygon","coordinates":[[[136.36378248318488,35.934195180592184],[136.3639182456716,35.93438513730287],[136.36413023973134,35.934323429401566],[136.36386675742907,35.934145054163146],[136.36378248318488,35.934195180592184]]]}},{"type":"Feature","properties":{"pid":"874d3ca8-1ec3-4841-9a61-6ba4ceb5d96d"},"geometry":{"type":"Polygon","coordinates":[[[136.36335578682278,35.933388363640574],[136.36340452867918,35.9335030563751],[136.36389742472647,35.93333003840815],[136.36399721889194,35.933278355523555],[136.36395724133214,35.93321020872362],[136.36335578682278,35.933388363640574]]]}},{"type":"Feature","properties":{"pid":"795323b0-b347-459c-8c3d-63774cc9f39d"},"geometry":{"type":"Polygon","coordinates":[[[136.36334246876274,35.93313014840086],[136.3633891653461,35.93322310784836],[136.36390291835394,35.93307669663827],[136.36386233541404,35.93297627133818],[136.36334246876274,35.93313014840086]]]}},{"type":"Feature","properties":{"pid":"f459e3ba-3674-4e4a-8e83-b7272abba41e"},"geometry":{"type":"Polygon","coordinates":[[[136.36316303956198,35.932954519834276],[136.36319789643485,35.9330501118919],[136.36381233417288,35.93286925214954],[136.36377197301007,35.93277038999391],[136.36316303956198,35.932954519834276]]]}},{"type":"Feature","properties":{"pid":"3d6960f4-8749-459a-81c9-6958d49f0fa9"},"geometry":{"type":"Polygon","coordinates":[[[136.36341392999566,35.93219868657312],[136.3636060768645,35.932653107752245],[136.36374936961647,35.9326153687503],[136.36358142640452,35.93222775026264],[136.36341392999566,35.93219868657312]]]}},{"type":"Feature","properties":{"pid":"0deadd75-b074-4046-8e84-6f5ccf04f6e5"},"geometry":{"type":"Polygon","coordinates":[[[136.36376604397643,35.9322627196335],[136.36389036690133,35.93257260731363],[136.36399612653838,35.93254472891571],[136.36388775241403,35.932288949214914],[136.36376604397643,35.9322627196335]]]}},{"type":"Feature","properties":{"pid":"95f8f596-4f27-41c9-915b-7141fa2f7303"},"geometry":{"type":"Polygon","coordinates":[[[136.36275358356593,35.93227010647542],[136.36284452493496,35.93239440628231],[136.36285364931226,35.93244299351082],[136.3629875229507,35.93259310757165],[136.3630854247684,35.93279773292797],[136.36318695540274,35.932768640115754],[136.36292931274374,35.93215473576126],[136.3628749123564,35.93215819451842],[136.36275358356593,35.93227010647542]]]}},{"type":"Feature","properties":{"pid":"a73ac3de-abcc-424a-85c7-11bcc3b14c8b"},"geometry":{"type":"Polygon","coordinates":[[[136.36171393189727,35.932134083458685],[136.362197180665,35.93212720636069],[136.36240903310954,35.93215073724394],[136.36258267385736,35.93219403483334],[136.3626158931345,35.932166804879095],[136.36243600469408,35.93208293249602],[136.3621494608014,35.9319938987391],[136.3617118489463,35.931949308072205],[136.36171393189727,35.932134083458685]]]}},{"type":"Feature","properties":{"pid":"ea381ea0-97f6-4f9d-87de-effd92f56caa"},"geometry":{"type":"Polygon","coordinates":[[[136.36073120241898,35.93217960354465],[136.36090324031485,35.93214832321963],[136.3611655240994,35.9321389489863],[136.36116646888152,35.931940787817176],[136.3606847064977,35.931948848512675],[136.36073120241898,35.93217960354465]]]}},{"type":"Feature","properties":{"pid":"566cae46-8270-4dcd-9ea2-0215d4096d73"},"geometry":{"type":"Polygon","coordinates":[[[136.3612848252559,35.93193872695528],[136.36128208717008,35.93214308483685],[136.36158302691376,35.93213719943923],[136.36158023095976,35.93194394134882],[136.3612848252559,35.93193872695528]]]}},{"type":"Feature","properties":{"pid":"430a0395-443e-4730-af29-b1b608096f41"},"geometry":{"type":"Polygon","coordinates":[[[136.35405707931093,35.929185740244634],[136.35412639261062,35.92923435626329],[136.35432595018648,35.92930311393606],[136.3543675962491,35.92924333680603],[136.3543925290772,35.92916181371226],[136.35410502076076,35.9291020509551],[136.35405707931093,35.929185740244634]]]}},{"type":"Feature","properties":{"pid":"4e09230e-ef13-454f-92b2-8b6c3728654d"},"geometry":{"type":"Polygon","coordinates":[[[136.35492638064258,35.928967058730095],[136.35494017595116,35.92893652159855],[136.35501550343784,35.9288805591267],[136.3551780418334,35.92886470725616],[136.35521375053958,35.92887455510687],[136.35523293413266,35.928899086896934],[136.3553195949316,35.92888511565494],[136.35531905852963,35.92872746671042],[136.35494679735027,35.9287525587943],[136.35488351903123,35.92896312486163],[136.35492638064258,35.928967058730095]]]}},{"type":"Feature","properties":{"pid":"f279fcbc-84eb-4875-b1dc-b67a163308af"},"geometry":{"type":"Polygon","coordinates":[[[136.35545344916667,35.928720195226845],[136.35546198299033,35.92884815458149],[136.35575004216946,35.92870591194277],[136.35574859746268,35.92869725876054],[136.35545344916667,35.928720195226845]]]}},{"type":"Feature","properties":{"pid":"acb3e576-7d75-4b32-8bf2-d514ea82ccd6"},"geometry":{"type":"Polygon","coordinates":[[[136.36405592088175,35.932327580397335],[136.3641228075762,35.93250572788837],[136.3643777145544,35.932435250835866],[136.3642304340193,35.93235586381442],[136.36405592088175,35.932327580397335]]]}},{"type":"Feature","properties":{"pid":"273976f8-37ea-4ab3-9a66-467feb78702c"},"geometry":{"type":"Polygon","coordinates":[[[136.36397137792702,35.93271474979325],[136.36401395894856,35.932810445872256],[136.36462315173793,35.932638855389435],[136.36452820364465,35.932552799388425],[136.36449135148533,35.9325514586319],[136.36397137792702,35.93271474979325]]]}},{"type":"Feature","properties":{"pid":"5b0dfcdc-5d6a-4878-8136-b23f005c2025"},"geometry":{"type":"Polygon","coordinates":[[[136.364059270698,35.9329142888343],[136.3641020772264,35.93302245198028],[136.3646857349925,35.932864963485144],[136.3646761857544,35.9327440862467],[136.364059270698,35.9329142888343]]]}},{"type":"Feature","properties":{"pid":"48eb7989-bf30-4f0c-ba3b-dd6a19fb1e04"},"geometry":{"type":"Polygon","coordinates":[[[136.36436095025545,35.93469266462522],[136.36454738589217,35.93473975672998],[136.3646491180375,35.934721922460646],[136.36481355066047,35.934654375031435],[136.36445188939592,35.93453248244296],[136.36436095025545,35.93469266462522]]]}},{"type":"Feature","properties":{"pid":"ee64bb9e-71d6-475e-9f8f-bd56f7fa5505"},"geometry":{"type":"Polygon","coordinates":[[[136.36638973267148,35.93396331576158],[136.36691960146936,35.93404928546419],[136.3669329867243,35.934035822459386],[136.36653642956168,35.93389488423651],[136.36640128302574,35.933944615427066],[136.36638973267148,35.93396331576158]]]}},{"type":"Feature","properties":{"pid":"cff983d9-cfb3-4b37-8b6f-923d53c05458"},"geometry":{"type":"Polygon","coordinates":[[[136.36617873303626,35.934236007241026],[136.36676114271626,35.93432759759876],[136.36678261478093,35.93429956682539],[136.36620568542526,35.934202829301604],[136.36617873303626,35.934236007241026]]]}},{"type":"Feature","properties":{"pid":"7a1c8e98-b7ee-4e1c-98d7-a2e5da789806"},"geometry":{"type":"Polygon","coordinates":[[[136.36606810414506,35.93438676619752],[136.3667114681447,35.934487140473124],[136.3667179858944,35.93446710994547],[136.3660800916853,35.93436257743459],[136.36606810414506,35.93438676619752]]]}},{"type":"Feature","properties":{"pid":"efb52ed8-6f55-48ec-abe6-1d9fba07630b"},"geometry":{"type":"Polygon","coordinates":[[[136.3662457460761,35.93469104378129],[136.3663521239375,35.93474514062435],[136.36647510670826,35.934850632791466],[136.3665590676876,35.93472211454817],[136.36625870875392,35.934663682739654],[136.3662457460761,35.93469104378129]]]}},{"type":"Feature","properties":{"pid":"57bceb44-a177-4262-94c8-3ec23fef1a5a"},"geometry":{"type":"Polygon","coordinates":[[[136.36692111873208,35.93446756947167],[136.36700838528927,35.93454671887446],[136.36705130817654,35.93451454889753],[136.3669316411906,35.93443928631885],[136.36692111873208,35.93446756947167]]]}},{"type":"Feature","properties":{"pid":"af054c02-1d45-4355-a6c8-10d594130266"},"geometry":{"type":"Polygon","coordinates":[[[136.3674390380412,35.93474188496625],[136.36747149403243,35.93474207571191],[136.36744795347371,35.934533320717954],[136.3674323042287,35.93453628374135],[136.3674390380412,35.93474188496625]]]}},{"type":"Feature","properties":{"pid":"a253b1f4-2260-4b34-a0a7-2b2a3205a3fd"},"geometry":{"type":"Polygon","coordinates":[[[136.36713388607873,35.934087747591185],[136.36741282761542,35.934378856048994],[136.36746745537758,35.93435643328508],[136.36731447948105,35.9341711774538],[136.36717409463728,35.93403325323811],[136.36713388607873,35.934087747591185]]]}},{"type":"Feature","properties":{"pid":"46697c94-ff0f-49c3-9690-70f6e4d4b0fd"},"geometry":{"type":"Polygon","coordinates":[[[136.3670339151646,35.93422635665833],[136.36700448793783,35.93429036784743],[136.36718453175465,35.934431690950845],[136.36723386009172,35.93446151653512],[136.36726117273003,35.934450524241115],[136.3670339151646,35.93422635665833]]]}}]}