{"type":"FeatureCollection","features":[{"type":"Feature","properties":{"pid":"1ef987bd-99a4-4f49-95b6-479daf78e91f","full":14.6},"geometry":{"type":"Polygon","coordinates":[[[136.48965,35.94011],[136.48977,35.94012],[136.48979,35.94011],[136.48978,35.93925],[136.48973,35.93925],[136.48965,35.9393],[136.48957,35.93941],[136.48947,35.93946],[136.48941,35.93959],[136.48943,35.93994],[136.48944,35.93997],[136.48952,35.94003],[136.48956,35.94003],[136.48957,35.94006],[136.48965,35.94011]]]}},{"type":"Feature","properties":{"pid":"9f05aa9d-7a45-4e41-bb6c-db01cbdd8592","full":16.5},"geometry":{"type":"Polygon","coordinates":[[[136.48986,35.94011],[136.48989,35.94011],[136.49006,35.94012],[136.49017,35.9401],[136.49018,35.93994],[136.4902,35.93939],[136.49019,35.93928],[136.49015,35.93928],[136.49015,35.93926],[136.48987,35.9393],[136.48986,35.93931],[136.48986,35.94011]]]}},{"type":"Feature","properties":{"pid":"773bdc2d-63ea-4edb-bb2e-45d73f1cc1bc","full":4.8},"geometry":{"type":"Polygon","coordinates":[[[136.49065,35.93977],[136.49031,35.93977],[136.4903,35.93978],[136.49028,35.94002],[136.4903,35.94005],[136.49063,35.94003],[136.49066,35.94002],[136.49066,35.93978],[136.49065,35.93977]]]}},{"type":"Feature","properties":{"pid":"463458e8-1604-4bca-aaf6-2de9ffbd7a4d","full":13.3},"geometry":{"type":"Polygon","coordinates":[[[136.49082,35.93932],[136.49031,35.93933],[136.4903,35.93934],[136.4903,35.93972],[136.49032,35.93973],[136.49083,35.93973],[136.49084,35.93972],[136.49083,35.93933],[136.49082,35.93932]]]}},{"type":"Feature","properties":{"pid":"99c0b330-7bfc-417b-a907-c55150e8aae0","full":4.2},"geometry":{"type":"Polygon","coordinates":[[[136.48998,35.93916],[136.48999,35.93917],[136.49018,35.93917],[136.49019,35.93916],[136.4902,35.93872],[136.49015,35.93871],[136.48996,35.93875],[136.48998,35.93916]]]}},{"type":"Feature","properties":{"pid":"8bf5e083-3b88-4955-9549-0d2025db66a8","full":5.8},"geometry":{"type":"Polygon","coordinates":[[[136.49031,35.93897],[136.49033,35.93897],[136.49083,35.93896],[136.49083,35.93871],[136.49031,35.93874],[136.49031,35.9389],[136.49034,35.93891],[136.49034,35.93895],[136.49031,35.93895],[136.49031,35.93897]]]}},{"type":"Feature","properties":{"pid":"8d415aff-d278-49f9-9aa2-617e5a148dc2","full":8.2},"geometry":{"type":"Polygon","coordinates":[[[136.4908,35.93899],[136.49031,35.93901],[136.49029,35.93902],[136.4903,35.93929],[136.49031,35.9393],[136.4908,35.93928],[136.49082,35.93927],[136.49081,35.939],[136.4908,35.93899]]]}},{"type":"Feature","properties":{"pid":"cede154f-50ac-4d2f-abbd-781398bf37d7","full":0.5},"geometry":{"type":"Polygon","coordinates":[[[136.49089,35.93911],[136.49103,35.93911],[136.49103,35.93894],[136.49086,35.93895],[136.49084,35.93896],[136.49085,35.93906],[136.49089,35.93911]]]}},{"type":"Feature","properties":{"pid":"ea12780a-4c11-4bbb-bb3d-332afd65959d","full":0.6},"geometry":{"type":"Polygon","coordinates":[[[136.49156,35.93891],[136.49157,35.93892],[136.49175,35.93891],[136.49177,35.93891],[136.49176,35.93877],[136.49175,35.93876],[136.49158,35.93876],[136.49156,35.93877],[136.49156,35.93891]]]}},{"type":"Feature","properties":{"pid":"8a2650c2-2385-4c99-b172-1dbf8f02cffa","full":0.6},"geometry":{"type":"Polygon","coordinates":[[[136.49133,35.93891],[136.49134,35.93892],[136.49154,35.93892],[136.49154,35.93878],[136.49153,35.93877],[136.49134,35.93878],[136.49132,35.93878],[136.49133,35.93891]]]}},{"type":"Feature","properties":{"pid":"606d46c4-535e-4523-8d1a-d0d9f3f1ece2","full":1.5},"geometry":{"type":"Polygon","coordinates":[[[136.49139,35.94002],[136.4914,35.94003],[136.49171,35.94003],[136.49172,35.94],[136.49174,35.93982],[136.49173,35.93981],[136.49153,35.93982],[136.49152,35.93983],[136.49151,35.93992],[136.4915,35.93993],[136.4914,35.93993],[136.49139,35.94002]]]}},{"type":"Feature","properties":{"pid":"00af7d81-40f3-4ffe-b1a1-acf4a13963d3","full":3.1},"geometry":{"type":"Polygon","coordinates":[[[136.49137,35.94047],[136.49138,35.94048],[136.49169,35.94052],[136.4917,35.94051],[136.49174,35.94044],[136.49176,35.9403],[136.49175,35.94028],[136.49147,35.9403],[136.49121,35.9403],[136.49119,35.94031],[136.49121,35.94034],[136.49126,35.94036],[136.49136,35.9404],[136.49138,35.94045],[136.49137,35.94047]]]}},{"type":"Feature","properties":{"pid":"c2edfebc-1e06-4421-a0d9-c0ca62483f94","full":8.6},"geometry":{"type":"Polygon","coordinates":[[[136.49024,35.94036],[136.49026,35.94038],[136.49099,35.94047],[136.49101,35.94046],[136.49103,35.94033],[136.49102,35.94033],[136.4908,35.9403],[136.49061,35.94011],[136.49033,35.94012],[136.4903,35.94014],[136.49024,35.94036]]]}},{"type":"Feature","properties":{"pid":"cab5bf76-24c7-4b8b-b98f-fe3b4d557724","full":28.9},"geometry":{"type":"Polygon","coordinates":[[[136.49246,35.94069],[136.49249,35.9407],[136.49255,35.94033],[136.49252,35.94032],[136.49249,35.94027],[136.49249,35.94003],[136.49192,35.94009],[136.4919,35.94023],[136.4919,35.94034],[136.49185,35.94056],[136.4918,35.94066],[136.49245,35.94073],[136.49246,35.94069]]]}},{"type":"Feature","properties":{"pid":"d1d10b7a-63bf-4443-80e9-05a800a5a2a2","full":0.9},"geometry":{"type":"Polygon","coordinates":[[[136.49267,35.94013],[136.49266,35.94014],[136.49264,35.9403],[136.49265,35.94031],[136.49285,35.94031],[136.49286,35.9403],[136.49285,35.94012],[136.49284,35.94011],[136.49267,35.94013]]]}},{"type":"Feature","properties":{"pid":"97d24f6e-16c4-4f8b-a434-d161b1d86e8d","full":9.3},"geometry":{"type":"Polygon","coordinates":[[[136.49419,35.9401],[136.4937,35.94012],[136.49369,35.94014],[136.49344,35.94016],[136.49345,35.94037],[136.49347,35.94038],[136.49421,35.94033],[136.49422,35.94032],[136.49421,35.94011],[136.49419,35.9401]]]}},{"type":"Feature","properties":{"pid":"fceda497-e431-4489-a989-20cd2fa25f2b","full":15.6},"geometry":{"type":"Polygon","coordinates":[[[136.49452,35.94034],[136.49348,35.9404],[136.49347,35.94041],[136.49348,35.9405],[136.49352,35.9405],[136.49352,35.94055],[136.49348,35.94055],[136.49349,35.94065],[136.4935,35.94066],[136.49453,35.94059],[136.49455,35.94058],[136.49454,35.94034],[136.49452,35.94034]]]}},{"type":"Feature","properties":{"pid":"b76ec8fd-23d3-4437-845a-3f77d2a36c74","full":2.4},"geometry":{"type":"Polygon","coordinates":[[[136.49425,35.94031],[136.49426,35.94032],[136.49451,35.94031],[136.49453,35.94029],[136.49452,35.94009],[136.4945,35.94008],[136.49424,35.94009],[136.49423,35.9401],[136.49425,35.94031]]]}},{"type":"Feature","properties":{"pid":"59c420cf-6945-4d84-a4a6-7783a66f5622","full":12.1},"geometry":{"type":"Polygon","coordinates":[[[136.49557,35.94026],[136.49467,35.94032],[136.49466,35.94034],[136.49467,35.94052],[136.49469,35.94054],[136.49564,35.94049],[136.49563,35.94038],[136.49571,35.94038],[136.49557,35.94026]]]}},{"type":"Feature","properties":{"pid":"45f311ea-0269-426e-b794-997a65d15cbb","full":4.6},"geometry":{"type":"Polygon","coordinates":[[[136.49539,35.94009],[136.49464,35.94014],[136.49464,35.94028],[136.49468,35.9403],[136.49552,35.94025],[136.49554,35.94023],[136.49548,35.9402],[136.49544,35.94018],[136.49539,35.94009]]]}},{"type":"Feature","properties":{"pid":"79921deb-c5d4-4126-9edb-390380b59618","full":8.4},"geometry":{"type":"Polygon","coordinates":[[[136.49521,35.93976],[136.49498,35.93977],[136.49462,35.9398],[136.49463,35.94002],[136.49466,35.94002],[136.49467,35.94003],[136.49531,35.93999],[136.49533,35.93998],[136.49524,35.93977],[136.49521,35.93976]]]}},{"type":"Feature","properties":{"pid":"696549e6-b16a-4cf6-a302-ef33c547cb93","full":6.8},"geometry":{"type":"Polygon","coordinates":[[[136.49461,35.93974],[136.49462,35.93974],[136.49463,35.93976],[136.4952,35.93973],[136.49521,35.93972],[136.49512,35.93951],[136.49495,35.9395],[136.4946,35.93952],[136.49459,35.93953],[136.49461,35.93974]]]}},{"type":"Feature","properties":{"pid":"a1b626e2-3692-49d0-aa65-8cdfd2fb69cd","full":13.0},"geometry":{"type":"Polygon","coordinates":[[[136.49461,35.93897],[136.49458,35.93924],[136.49456,35.93933],[136.49458,35.93946],[136.49459,35.93947],[136.49468,35.93945],[136.49509,35.93944],[136.49504,35.93929],[136.495,35.93915],[136.49496,35.93896],[136.49495,35.93895],[136.49464,35.93894],[136.49463,35.93896],[136.49461,35.93897]]]}},{"type":"Feature","properties":{"pid":"3304c838-e2f7-48e8-92b6-359eb69c9a78","full":10.7},"geometry":{"type":"Polygon","coordinates":[[[136.49496,35.93891],[136.49497,35.93867],[136.49501,35.93851],[136.495,35.9385],[136.49463,35.93847],[136.49463,35.93844],[136.49441,35.93844],[136.4944,35.93846],[136.49441,35.93849],[136.49447,35.93857],[136.49458,35.93866],[136.49459,35.93869],[136.49461,35.93891],[136.49462,35.93892],[136.49494,35.93892],[136.49496,35.93891]]]}},{"type":"Feature","properties":{"pid":"80dab02f-3b9b-4688-8c5d-cadc273edc96","full":1.7},"geometry":{"type":"Polygon","coordinates":[[[136.49312,35.93882],[136.4931,35.93883],[136.49314,35.93894],[136.49316,35.93894],[136.49358,35.93893],[136.49364,35.93888],[136.49366,35.9388],[136.49365,35.93879],[136.49312,35.93882]]]}},{"type":"Feature","properties":{"pid":"6823b636-f90f-4082-a9b3-8111ecceb422","full":3.4},"geometry":{"type":"Polygon","coordinates":[[[136.49451,35.93884],[136.49444,35.93882],[136.49438,35.93883],[136.49436,35.93885],[136.49431,35.9389],[136.49419,35.93892],[136.49417,35.93893],[136.49418,35.93897],[136.4942,35.93901],[136.4942,35.93909],[136.49422,35.93912],[136.49424,35.93912],[136.4945,35.93911],[136.49452,35.9391],[136.49452,35.93886],[136.49451,35.93884]]]}},{"type":"Feature","properties":{"pid":"77475824-1207-4812-bf28-b36d0b35ae17","full":2.4},"geometry":{"type":"Polygon","coordinates":[[[136.49425,35.9394],[136.49447,35.93939],[136.49448,35.93937],[136.49452,35.9392],[136.49452,35.93917],[136.4945,35.93916],[136.49423,35.93917],[136.49421,35.93918],[136.49422,35.93938],[136.49425,35.9394]]]}},{"type":"Feature","properties":{"pid":"567223df-c8a5-4676-a4a4-18e3a449af40","full":18.9},"geometry":{"type":"Polygon","coordinates":[[[136.49449,35.93975],[136.49451,35.93974],[136.4945,35.93944],[136.49449,35.93942],[136.49397,35.93945],[136.49392,35.93952],[136.4938,35.93952],[136.49377,35.93947],[136.49354,35.9395],[136.49348,35.93959],[136.49366,35.9398],[136.49368,35.93981],[136.49449,35.93975]]]}},{"type":"Feature","properties":{"pid":"aabd2e94-e2b0-48d7-b77a-17cae07635d4","full":13.0},"geometry":{"type":"Polygon","coordinates":[[[136.49371,35.9401],[136.49447,35.94006],[136.49448,35.94004],[136.49451,35.94004],[136.49449,35.93979],[136.49448,35.93978],[136.49374,35.93982],[136.49373,35.93993],[136.49369,35.93993],[136.49371,35.9401]]]}},{"type":"Feature","properties":{"pid":"908ce5ff-14f5-4d98-8d77-30ae396d746a","full":3.8},"geometry":{"type":"Polygon","coordinates":[[[136.49301,35.93946],[136.49297,35.93928],[136.49295,35.93927],[136.4925,35.93933],[136.49248,35.93934],[136.49254,35.9395],[136.49255,35.93951],[136.49299,35.93946],[136.49301,35.93946]]]}},{"type":"Feature","properties":{"pid":"34e815f6-6298-4284-a848-accab738a5b2","full":0.7},"geometry":{"type":"Polygon","coordinates":[[[136.49268,35.94012],[136.493,35.94009],[136.49302,35.9401],[136.49305,35.94009],[136.49307,35.94006],[136.49309,35.94006],[136.49307,35.93996],[136.49279,35.93998],[136.49278,35.93999],[136.49278,35.94006],[136.49267,35.94007],[136.49268,35.94012]]]}},{"type":"Feature","properties":{"pid":"83680ede-c611-4807-86d4-bdd389716bdf","full":11.9},"geometry":{"type":"Polygon","coordinates":[[[136.49257,35.93958],[136.49267,35.93989],[136.49271,35.93991],[136.49316,35.93984],[136.49312,35.93949],[136.49311,35.93949],[136.49262,35.93953],[136.4926,35.93954],[136.49261,35.93957],[136.4926,35.93958],[136.49257,35.93958]]]}},{"type":"Feature","properties":{"pid":"76d073f2-8909-4dad-b44d-5522a6d211f8","full":20.0},"geometry":{"type":"Polygon","coordinates":[[[136.4919,35.93998],[136.49192,35.93999],[136.49253,35.93993],[136.49253,35.93988],[136.49257,35.93988],[136.49243,35.93945],[136.49242,35.93944],[136.49191,35.9395],[136.4919,35.9395],[136.4919,35.93998]]]}},{"type":"Feature","properties":{"pid":"eb78257d-5adf-40e7-a3db-61f08b721cd2","full":5.7},"geometry":{"type":"Polygon","coordinates":[[[136.49192,35.93922],[136.49193,35.93929],[136.49191,35.93931],[136.49191,35.93945],[136.49193,35.93946],[136.49241,35.93942],[136.49242,35.9394],[136.49233,35.93917],[136.49232,35.93917],[136.49193,35.93921],[136.49192,35.93922]]]}},{"type":"Feature","properties":{"pid":"78ff4969-4564-4b99-8e76-109abcfd91d0","full":6.7},"geometry":{"type":"Polygon","coordinates":[[[136.4922,35.93879],[136.49194,35.93881],[136.49192,35.93882],[136.49192,35.93918],[136.49193,35.93919],[136.4923,35.93915],[136.4923,35.93912],[136.49232,35.93911],[136.49221,35.9388],[136.4922,35.93879]]]}},{"type":"Feature","properties":{"pid":"2c6295b9-38e3-4b9e-9184-85cde9cafe14","full":4.1},"geometry":{"type":"Polygon","coordinates":[[[136.49247,35.9393],[136.49248,35.93931],[136.49296,35.93923],[136.49292,35.93905],[136.49291,35.93904],[136.49244,35.93912],[136.49242,35.93913],[136.49247,35.9393]]]}},{"type":"Feature","properties":{"pid":"0fa40919-eeed-45e1-bb0c-66dac8b9759f","full":7.2},"geometry":{"type":"Polygon","coordinates":[[[136.49349,35.93902],[136.49346,35.939],[136.49316,35.93901],[136.49315,35.93901],[136.49324,35.93942],[136.49326,35.93942],[136.49348,35.93942],[136.49355,35.93937],[136.49355,35.93933],[136.49349,35.93902]]]}},{"type":"Feature","properties":{"pid":"9a83cc3e-bc24-43cb-88cf-80fae24ca22b","full":1.3},"geometry":{"type":"Polygon","coordinates":[[[136.49306,35.93875],[136.49339,35.93869],[136.49336,35.93855],[136.49302,35.9386],[136.49306,35.93875]]]}},{"type":"Feature","properties":{"pid":"278f52ec-e46a-4f2f-9a26-a9ce70a36b4d","full":5.1},"geometry":{"type":"Polygon","coordinates":[[[136.49321,35.93855],[136.49335,35.93854],[136.49335,35.93849],[136.49349,35.93847],[136.49347,35.93836],[136.49369,35.93831],[136.49367,35.93822],[136.49366,35.93821],[136.49294,35.93833],[136.49294,35.93835],[136.49293,35.93835],[136.49297,35.93849],[136.49318,35.93846],[136.49321,35.93855]]]}},{"type":"Feature","properties":{"pid":"ed7608ab-8750-469d-8e92-017b05ca1e13","full":1.3},"geometry":{"type":"Polygon","coordinates":[[[136.49214,35.9382],[136.49219,35.93819],[136.49269,35.9381],[136.4927,35.93807],[136.49272,35.93807],[136.49271,35.93799],[136.49269,35.93798],[136.49212,35.93809],[136.49211,35.9381],[136.49214,35.9382]]]}},{"type":"Feature","properties":{"pid":"630a40df-f654-4dc4-a6d5-2ec1f7e57789","full":13.1},"geometry":{"type":"Polygon","coordinates":[[[136.49322,35.93778],[136.49277,35.93785],[136.49276,35.93787],[136.49285,35.93814],[136.49287,35.93814],[136.49289,35.93818],[136.49291,35.93818],[136.49362,35.93808],[136.49363,35.93807],[136.4936,35.9379],[136.49356,35.93789],[136.49331,35.93793],[136.4933,35.93793],[136.49323,35.93779],[136.49322,35.93778]]]}},{"type":"Feature","properties":{"pid":"5f6a9e9e-f2c0-4d37-ba0d-30f776e5e208","full":9.8},"geometry":{"type":"Polygon","coordinates":[[[136.49274,35.93782],[136.49276,35.93783],[136.49348,35.93771],[136.49349,35.9377],[136.49348,35.93749],[136.49347,35.93747],[136.49268,35.9376],[136.49267,35.93761],[136.49274,35.93782]]]}},{"type":"Feature","properties":{"pid":"83f5ae0d-e7a1-4f44-9fde-5a7c7fcf7e2e","full":12.4},"geometry":{"type":"Polygon","coordinates":[[[136.49211,35.93806],[136.49213,35.93806],[136.49267,35.93796],[136.49269,35.93794],[136.49255,35.93763],[136.49254,35.93762],[136.49201,35.93772],[136.492,35.93773],[136.49211,35.93806]]]}},{"type":"Feature","properties":{"pid":"11e977c4-b0c9-442a-b9a7-8a6a20d1377d","full":14.2},"geometry":{"type":"Polygon","coordinates":[[[136.49251,35.93713],[136.49205,35.93722],[136.49204,35.93723],[136.49196,35.9376],[136.49198,35.93763],[136.49205,35.93764],[136.49251,35.93756],[136.4925,35.93754],[136.49253,35.93752],[136.49255,35.93727],[136.49253,35.93714],[136.49251,35.93713]]]}},{"type":"Feature","properties":{"pid":"aabcef9d-88a3-49ad-a604-bb4e711ae74e","full":18.4},"geometry":{"type":"Polygon","coordinates":[[[136.49206,35.93716],[136.49208,35.93717],[136.4925,35.93709],[136.49251,35.93707],[136.49251,35.93696],[136.49247,35.93661],[136.49242,35.93641],[136.4924,35.93636],[136.49236,35.93635],[136.49235,35.93632],[136.49211,35.93639],[136.4921,35.9364],[136.4921,35.93649],[136.49212,35.93669],[136.49211,35.93681],[136.49206,35.93716]]]}},{"type":"Feature","properties":{"pid":"5a9dc887-f232-45ef-b6e6-97bf07d19389","full":12.1},"geometry":{"type":"Polygon","coordinates":[[[136.49258,35.9369],[136.49257,35.93691],[136.4926,35.93704],[136.49262,35.93718],[136.49264,35.93719],[136.49329,35.93709],[136.49331,35.93708],[136.49325,35.9368],[136.49324,35.93679],[136.49258,35.9369]]]}},{"type":"Feature","properties":{"pid":"622017f4-1b03-4ed8-ae2a-89ee6e540096","full":6.2},"geometry":{"type":"Polygon","coordinates":[[[136.49299,35.93655],[136.49257,35.93662],[136.49255,35.93663],[136.49254,35.93684],[136.49256,35.93684],[136.49257,35.93687],[136.49306,35.93679],[136.49307,35.93678],[136.49301,35.93657],[136.49299,35.93655]]]}},{"type":"Feature","properties":{"pid":"914e26f6-f180-428c-b074-1919b5a924b4","full":16.5},"geometry":{"type":"Polygon","coordinates":[[[136.49333,35.9371],[136.49263,35.93721],[136.49264,35.93723],[136.49266,35.93747],[136.49268,35.93748],[136.49272,35.93752],[136.49273,35.93753],[136.49343,35.93741],[136.49345,35.93741],[136.49343,35.93733],[136.49347,35.93731],[136.49348,35.9373],[136.49345,35.93712],[136.49333,35.9371]]]}},{"type":"Feature","properties":{"pid":"dfd71a79-73f6-4308-ab15-d93ff1170606","full":1.1},"geometry":{"type":"Polygon","coordinates":[[[136.49421,35.93672],[136.4944,35.93668],[136.49441,35.93666],[136.49435,35.93652],[136.49431,35.93652],[136.49429,35.9365],[136.49412,35.93654],[136.49415,35.93657],[136.49419,35.93672],[136.49421,35.93672]]]}},{"type":"Feature","properties":{"pid":"a57a95e1-8742-478a-b4f8-8881196da7fd","full":2.6},"geometry":{"type":"Polygon","coordinates":[[[136.49418,35.93682],[136.4942,35.93693],[136.49417,35.93694],[136.49417,35.93701],[136.49449,35.93695],[136.4945,35.93694],[136.49443,35.93674],[136.49441,35.93674],[136.4944,35.93671],[136.49422,35.93674],[136.4942,35.93675],[136.4942,35.93683],[136.49418,35.93682]]]}},{"type":"Feature","properties":{"pid":"ac9784ee-9e3b-4c0a-a242-189177b26954","full":5.1},"geometry":{"type":"Polygon","coordinates":[[[136.49483,35.93748],[136.49479,35.93733],[136.49475,35.93732],[136.49474,35.93729],[136.49427,35.93736],[136.49426,35.93738],[136.49429,35.93756],[136.49431,35.93757],[136.49481,35.93749],[136.49483,35.93748]]]}},{"type":"Feature","properties":{"pid":"1338cf3f-8e6f-46f3-a345-d0dcf6376e1a","full":9.1},"geometry":{"type":"Polygon","coordinates":[[[136.49428,35.93781],[136.4943,35.93787],[136.49431,35.93787],[136.49473,35.93782],[136.49477,35.93767],[136.49482,35.93762],[136.49484,35.93757],[136.49484,35.93754],[136.49482,35.93752],[136.49413,35.93762],[136.49413,35.93764],[136.49411,35.93764],[136.49414,35.93781],[136.49416,35.93782],[136.49428,35.93781]]]}},{"type":"Feature","properties":{"pid":"07dbb66c-032d-4cd7-b9ff-55b9e22c6197","full":0.9},"geometry":{"type":"Polygon","coordinates":[[[136.4941,35.9376],[136.49412,35.93761],[136.49426,35.93758],[136.49427,35.93757],[136.49423,35.93738],[136.49422,35.93737],[136.49407,35.9374],[136.49405,35.93743],[136.4941,35.9376]]]}},{"type":"Feature","properties":{"pid":"2eed3f3e-b319-4354-997a-d0cc54133efa","full":5.4},"geometry":{"type":"Polygon","coordinates":[[[136.49471,35.93784],[136.49419,35.93791],[136.49417,35.93793],[136.4942,35.93812],[136.49423,35.93813],[136.49467,35.93807],[136.49469,35.93805],[136.49472,35.93785],[136.49471,35.93784]]]}},{"type":"Feature","properties":{"pid":"80c013b0-898d-4a80-be5d-a91d6c48ff9a","full":4.0},"geometry":{"type":"Polygon","coordinates":[[[136.49421,35.93816],[136.49421,35.93819],[136.49432,35.93836],[136.49437,35.93835],[136.49438,35.93838],[136.49458,35.93837],[136.4946,35.93837],[136.49468,35.93811],[136.49467,35.93809],[136.49421,35.93816]]]}},{"type":"Feature","properties":{"pid":"7cdd8d3a-4e0e-4f7f-ac9d-5ea3e1c9a6da","full":3.0},"geometry":{"type":"Polygon","coordinates":[[[136.49502,35.93813],[136.49504,35.93811],[136.49506,35.93797],[136.49503,35.93771],[136.49502,35.9377],[136.4949,35.93773],[136.49484,35.9379],[136.49481,35.93811],[136.49482,35.93812],[136.49502,35.93813]]]}},{"type":"Feature","properties":{"pid":"1752f476-782e-4d91-92b4-7cbf640c8ef2","full":1.8},"geometry":{"type":"Polygon","coordinates":[[[136.49498,35.93747],[136.49499,35.93748],[136.49509,35.93747],[136.49511,35.93737],[136.49527,35.93736],[136.49529,35.93735],[136.49528,35.93721],[136.49526,35.9372],[136.49493,35.93726],[136.49493,35.93727],[136.49498,35.93747]]]}},{"type":"Feature","properties":{"pid":"018db090-7546-48c7-9080-776c02eef6cc","full":0.8},"geometry":{"type":"Polygon","coordinates":[[[136.49401,35.93638],[136.49401,35.9364],[136.49399,35.9364],[136.49407,35.9365],[136.49409,35.93651],[136.49433,35.93646],[136.49428,35.93633],[136.49401,35.93638]]]}},{"type":"Feature","properties":{"pid":"aaa4628d-3f0e-4ec9-bce2-3df9b257ed15","full":1.3},"geometry":{"type":"Polygon","coordinates":[[[136.49409,35.93633],[136.49411,35.93634],[136.49426,35.93633],[136.49426,35.9363],[136.49418,35.93609],[136.49416,35.93609],[136.49415,35.93608],[136.49398,35.93611],[136.49397,35.93612],[136.49409,35.93633]]]}},{"type":"Feature","properties":{"pid":"9ddd853a-5557-4a9d-8283-36822e97fb1b","full":8.3},"geometry":{"type":"Polygon","coordinates":[[[136.49253,35.93654],[136.49256,35.93654],[136.49257,35.93659],[136.49258,35.93659],[136.49306,35.93652],[136.49307,35.93651],[136.49303,35.93626],[136.49302,35.93625],[136.49274,35.93628],[136.49252,35.93628],[136.4925,35.93629],[136.49253,35.93654]]]}},{"type":"Feature","properties":{"pid":"ee919ae9-d23a-474d-a916-5e960fccf971","full":8.4},"geometry":{"type":"Polygon","coordinates":[[[136.49182,35.93607],[136.49203,35.93632],[136.49239,35.93623],[136.49239,35.93618],[136.49225,35.93589],[136.49222,35.9359],[136.4922,35.93589],[136.49183,35.93605],[136.49182,35.93607]]]}},{"type":"Feature","properties":{"pid":"b1056675-727b-458f-8730-901c80573751","full":3.4},"geometry":{"type":"Polygon","coordinates":[[[136.49275,35.936],[136.49278,35.93593],[136.49276,35.93587],[136.49266,35.93587],[136.49264,35.93581],[136.49236,35.93586],[136.49233,35.93589],[136.49243,35.93608],[136.49253,35.93607],[136.49272,35.93603],[136.49275,35.936]]]}},{"type":"Feature","properties":{"pid":"754161fe-15fd-42e1-88a2-1fec6e39d708","full":4.4},"geometry":{"type":"Polygon","coordinates":[[[136.49159,35.93538],[136.49187,35.9352],[136.49188,35.93518],[136.49176,35.93502],[136.49174,35.93503],[136.49122,35.93533],[136.49122,35.93535],[136.49124,35.93538],[136.49126,35.93538],[136.49132,35.93535],[136.49159,35.93538]]]}},{"type":"Feature","properties":{"pid":"915efcff-b631-4da7-95c2-6c98b5574187","full":3.9},"geometry":{"type":"Polygon","coordinates":[[[136.49181,35.93558],[136.49186,35.93558],[136.49196,35.93556],[136.49197,35.93554],[136.49199,35.93539],[136.49199,35.93533],[136.49194,35.93525],[136.49188,35.93522],[136.49163,35.93538],[136.49162,35.9354],[136.49179,35.93557],[136.49181,35.93558]]]}},{"type":"Feature","properties":{"pid":"64e54704-96e2-4703-bf5f-2ed3c6a53150","full":11.3},"geometry":{"type":"Polygon","coordinates":[[[136.49158,35.93474],[136.49108,35.93505],[136.49108,35.93506],[136.49114,35.93519],[136.49121,35.9353],[136.49123,35.9353],[136.49173,35.935],[136.49174,35.93498],[136.49175,35.93491],[136.49172,35.93482],[136.49165,35.93476],[136.49158,35.93474]]]}},{"type":"Feature","properties":{"pid":"b406a5b1-8481-4a1f-a7c0-02ac2202bede","full":18.5},"geometry":{"type":"Polygon","coordinates":[[[136.48961,35.93517],[136.48974,35.93534],[136.48978,35.93535],[136.4898,35.93536],[136.48982,35.93536],[136.49076,35.93486],[136.49077,35.93484],[136.49063,35.93473],[136.49058,35.9347],[136.49051,35.93467],[136.49049,35.93468],[136.48962,35.93515],[136.48961,35.93517]]]}},{"type":"Feature","properties":{"pid":"94a84dca-bc1b-4738-86df-8e206ac29db4","full":28.4},"geometry":{"type":"Polygon","coordinates":[[[136.48955,35.9351],[136.48958,35.9351],[136.4896,35.93512],[136.49045,35.93467],[136.49045,35.93466],[136.49044,35.93464],[136.49024,35.9346],[136.49004,35.93458],[136.48969,35.93451],[136.48959,35.93446],[136.48956,35.93446],[136.48924,35.93463],[136.48924,35.93465],[136.48933,35.9348],[136.48955,35.9351]]]}},{"type":"Feature","properties":{"pid":"4acc16e5-cfb6-42a9-9569-69a28d876f13","full":22.4},"geometry":{"type":"Polygon","coordinates":[[[136.48998,35.93563],[136.49001,35.93563],[136.49003,35.93564],[136.49094,35.93516],[136.49095,35.93515],[136.49089,35.935],[136.49085,35.93493],[136.49081,35.93488],[136.49079,35.93489],[136.48982,35.9354],[136.48981,35.93541],[136.48998,35.93563]]]}},{"type":"Feature","properties":{"pid":"52ad0300-ab95-4659-b421-3dde71ba55de","full":45.8},"geometry":{"type":"Polygon","coordinates":[[[136.49003,35.93569],[136.49021,35.93594],[136.49024,35.93593],[136.49027,35.93597],[136.49038,35.93596],[136.49072,35.93606],[136.49074,35.93605],[136.49101,35.93592],[136.49103,35.93591],[136.49105,35.93586],[136.49128,35.93575],[136.49128,35.93573],[136.49106,35.93539],[136.49097,35.9352],[136.49095,35.93519],[136.49004,35.93568],[136.49003,35.93569]]]}},{"type":"Feature","properties":{"pid":"a41e972e-d072-41d7-be1e-d0abb39e03fb","full":19.0},"geometry":{"type":"Polygon","coordinates":[[[136.48917,35.93572],[136.4892,35.93581],[136.48927,35.93592],[136.48938,35.936],[136.4895,35.936],[136.48986,35.9359],[136.48997,35.9359],[136.49003,35.93589],[136.49002,35.93587],[136.48973,35.93548],[136.48965,35.93544],[136.48917,35.93571],[136.48917,35.93572]]]}},{"type":"Feature","properties":{"pid":"5b69fe3a-420e-45b5-8339-a774bd626ce5","full":2.7},"geometry":{"type":"Polygon","coordinates":[[[136.49178,35.93603],[136.4918,35.93603],[136.492,35.93595],[136.49201,35.93594],[136.49191,35.93576],[136.49189,35.93575],[136.49163,35.93581],[136.4916,35.93586],[136.49178,35.93603]]]}},{"type":"Feature","properties":{"pid":"ced27555-8df7-4057-a5eb-27b64b66b90e","full":6.2},"geometry":{"type":"Polygon","coordinates":[[[136.49146,35.93639],[136.49149,35.9364],[136.49184,35.93638],[136.49185,35.93637],[136.49185,35.93635],[136.49168,35.93614],[136.49164,35.93611],[136.49142,35.93587],[136.49137,35.93588],[136.49134,35.93584],[136.49133,35.93584],[136.49115,35.93593],[136.49115,35.93595],[136.49124,35.93601],[136.49134,35.93607],[136.49148,35.93617],[136.49149,35.93619],[136.49146,35.93636],[136.49146,35.93639]]]}},{"type":"Feature","properties":{"pid":"f5e3aa1d-6dcf-4b77-a445-faca6f279b3a","full":28.9},"geometry":{"type":"Polygon","coordinates":[[[136.49146,35.93731],[136.49183,35.9373],[136.49195,35.93683],[136.49195,35.9367],[136.49195,35.93658],[136.49189,35.93645],[136.49188,35.93645],[136.49146,35.93648],[136.49145,35.9365],[136.49143,35.93654],[136.49141,35.93726],[136.49143,35.93727],[136.49146,35.93731]]]}},{"type":"Feature","properties":{"pid":"52a491d3-1b99-4dee-8db9-49a14c566992","full":3.6},"geometry":{"type":"Polygon","coordinates":[[[136.49102,35.93678],[136.49097,35.93701],[136.491,35.93702],[136.49129,35.93701],[136.4913,35.93697],[136.49133,35.93696],[136.49133,35.93667],[136.49131,35.93665],[136.49123,35.93672],[136.49115,35.93677],[136.49112,35.93678],[136.49102,35.93678]]]}},{"type":"Feature","properties":{"pid":"f4f81c3d-48fd-4ddb-b76d-0d61363230a3","full":0.8},"geometry":{"type":"Polygon","coordinates":[[[136.49114,35.93724],[136.49116,35.93725],[136.49133,35.93724],[136.49134,35.93723],[136.49134,35.93706],[136.49133,35.93704],[136.49121,35.93704],[136.49117,35.93707],[136.49114,35.93724]]]}},{"type":"Feature","properties":{"pid":"6d33e626-c108-4e6b-a851-07e161efbf00","full":0.8},"geometry":{"type":"Polygon","coordinates":[[[136.49164,35.93748],[136.49164,35.93734],[136.49163,35.93733],[136.49142,35.93733],[136.4914,35.93735],[136.4914,35.93748],[136.49142,35.93748],[136.49163,35.93749],[136.49164,35.93748]]]}},{"type":"Feature","properties":{"pid":"1ded5fc1-94ae-4fd2-a253-623c01dbdb64","full":4.1},"geometry":{"type":"Polygon","coordinates":[[[136.49127,35.93792],[136.49128,35.93794],[136.49152,35.93795],[136.49155,35.93793],[136.49166,35.93783],[136.49173,35.9377],[136.49172,35.93769],[136.49141,35.93769],[136.49129,35.93773],[136.49126,35.93777],[136.49128,35.93787],[136.49127,35.93792]]]}},{"type":"Feature","properties":{"pid":"2a3fd37e-25fe-407a-9da4-a7d3ba263711","full":0.7},"geometry":{"type":"Polygon","coordinates":[[[136.49151,35.93797],[136.49127,35.93796],[136.49126,35.93797],[136.49121,35.93804],[136.49121,35.93809],[136.49148,35.93809],[136.49149,35.93804],[136.49152,35.93798],[136.49151,35.93797]]]}},{"type":"Feature","properties":{"pid":"0844fc48-037b-4cc1-b216-167184d0d3f9","full":2.1},"geometry":{"type":"Polygon","coordinates":[[[136.49019,35.93813],[136.49018,35.93809],[136.49022,35.938],[136.49028,35.93796],[136.49035,35.93784],[136.49035,35.93772],[136.49034,35.93771],[136.49023,35.93771],[136.49016,35.93777],[136.49001,35.93817],[136.49004,35.93818],[136.49019,35.93815],[136.49019,35.93813]]]}},{"type":"Feature","properties":{"pid":"1e843030-9731-48db-8514-94ee284345f5","full":30.8},"geometry":{"type":"Polygon","coordinates":[[[136.48913,35.93567],[136.48915,35.93567],[136.48963,35.93542],[136.48961,35.93539],[136.48963,35.93538],[136.4892,35.93484],[136.48918,35.93484],[136.48872,35.93511],[136.48872,35.93513],[136.48874,35.93521],[136.48885,35.93539],[136.48894,35.9355],[136.48908,35.93561],[136.48913,35.93567]]]}},{"type":"Feature","properties":{"pid":"2eb61d6f-a062-4a11-806f-eb06c84e07ab","full":1.6},"geometry":{"type":"Polygon","coordinates":[[[136.48863,35.93501],[136.48865,35.93501],[136.48911,35.93476],[136.48913,35.93473],[136.48909,35.93464],[136.48907,35.93464],[136.48865,35.93485],[136.48866,35.93488],[136.48862,35.93496],[136.48863,35.93501]]]}},{"type":"Feature","properties":{"pid":"06da5b7b-1e67-4d9e-b4c6-2fd049811a6c","full":18.8},"geometry":{"type":"Polygon","coordinates":[[[136.48867,35.93388],[136.48869,35.93388],[136.48906,35.93374],[136.48907,35.93371],[136.48901,35.93361],[136.4889,35.93349],[136.48864,35.93331],[136.4885,35.93321],[136.48834,35.93306],[136.48832,35.93306],[136.48817,35.93315],[136.48817,35.93317],[136.48867,35.93388]]]}},{"type":"Feature","properties":{"pid":"eb3d05fc-4c4a-46aa-b693-804e14dde82a","full":8.9},"geometry":{"type":"Polygon","coordinates":[[[136.48797,35.93379],[136.48804,35.93379],[136.48836,35.93363],[136.48837,35.93362],[136.48808,35.93322],[136.48806,35.93322],[136.48804,35.93323],[136.48793,35.93341],[136.48788,35.93363],[136.48791,35.9337],[136.48797,35.93379]]]}},{"type":"Feature","properties":{"pid":"a7d1e4cd-8cb0-471a-a4d5-3b6938c36c88","full":15.5},"geometry":{"type":"Polygon","coordinates":[[[136.48863,35.9348],[136.48901,35.9346],[136.48902,35.93459],[136.48875,35.93419],[136.48874,35.93418],[136.48872,35.93414],[136.4887,35.93414],[136.48835,35.9343],[136.48834,35.93431],[136.48861,35.93479],[136.48863,35.9348]]]}},{"type":"Feature","properties":{"pid":"c86af9bb-b2b3-4493-9f53-4741858a8b0d","full":10.6},"geometry":{"type":"Polygon","coordinates":[[[136.48829,35.93425],[136.48831,35.93425],[136.48868,35.93408],[136.48868,35.93407],[136.48848,35.93374],[136.48845,35.93375],[136.48841,35.93373],[136.48828,35.93378],[136.48808,35.93389],[136.48808,35.9339],[136.48821,35.93408],[136.48829,35.93425]]]}},{"type":"Feature","properties":{"pid":"d9f553e1-6166-43e9-8137-d5ff3b6ac09b","full":9.9},"geometry":{"type":"Polygon","coordinates":[[[136.48914,35.93455],[136.48918,35.93454],[136.4892,35.93457],[136.48921,35.93457],[136.48948,35.93442],[136.48938,35.9343],[136.48927,35.93403],[136.48925,35.93403],[136.4889,35.93417],[136.48889,35.93418],[136.48914,35.93455]]]}},{"type":"Feature","properties":{"pid":"1d6aff8d-15af-48eb-bdeb-827a23b8959a","full":2.6},"geometry":{"type":"Polygon","coordinates":[[[136.48883,35.93407],[136.48884,35.93408],[136.48917,35.93394],[136.48911,35.93378],[136.48909,35.93378],[136.48872,35.93394],[136.48872,35.93397],[136.48883,35.93407]]]}},{"type":"Feature","properties":{"pid":"69113f5c-8bcd-4c40-8c44-f50c7071cce0","full":7.4},"geometry":{"type":"Polygon","coordinates":[[[136.49078,35.93463],[136.491,35.93433],[136.49099,35.93431],[136.4909,35.93432],[136.4908,35.93431],[136.49075,35.93427],[136.49068,35.93419],[136.49059,35.93415],[136.49057,35.93415],[136.49044,35.93449],[136.49045,35.9345],[136.49055,35.93453],[136.49069,35.93459],[136.49077,35.93463],[136.49078,35.93463]]]}},{"type":"Feature","properties":{"pid":"585853ac-dc3f-4498-a710-8ffa9fdb7fb9","full":13.3},"geometry":{"type":"Polygon","coordinates":[[[136.49041,35.93446],[136.49054,35.93413],[136.49053,35.93411],[136.49032,35.93403],[136.49024,35.93407],[136.49,35.93409],[136.48998,35.9341],[136.48987,35.93441],[136.48988,35.93443],[136.48995,35.93444],[136.4904,35.93447],[136.49041,35.93446]]]}},{"type":"Feature","properties":{"pid":"a172db97-be05-40ab-b62b-48b511ec8e43","full":6.9},"geometry":{"type":"Polygon","coordinates":[[[136.48981,35.9344],[136.48982,35.9344],[136.48994,35.93409],[136.48993,35.93408],[136.48973,35.93398],[136.48946,35.93399],[136.48944,35.934],[136.4895,35.93416],[136.48958,35.93427],[136.4897,35.93435],[136.48981,35.9344]]]}},{"type":"Feature","properties":{"pid":"6b5dad4f-65de-4464-8837-ce8d4038ccbc","full":2.8},"geometry":{"type":"Polygon","coordinates":[[[136.49089,35.93474],[136.4909,35.93474],[136.49127,35.93451],[136.49125,35.93445],[136.4911,35.93434],[136.49107,35.93434],[136.49083,35.93467],[136.49083,35.9347],[136.49089,35.93474]]]}},{"type":"Feature","properties":{"pid":"24cae8a3-9200-4d27-814d-1db3a8ad1ff3","full":8.0},"geometry":{"type":"Polygon","coordinates":[[[136.49105,35.93501],[136.49108,35.93501],[136.49155,35.93472],[136.49155,35.9347],[136.49138,35.93458],[136.49133,35.93452],[136.4913,35.93452],[136.49092,35.93477],[136.49092,35.93479],[136.491,35.93488],[136.49105,35.93501]]]}}],"precision":5}