{"type":"FeatureCollection","features":[{"type":"Feature","properties":{"pid":"cd78a818-3c01-4121-9350-9c6d7b4f8a09"},"geometry":{"type":"Polygon","coordinates":[[[136.44322996116162,36.040880165155905],[136.44327666955718,36.04097871151378],[136.44339379062586,36.04106237371875],[136.44347536598582,36.04109970727376],[136.4434720610658,36.04105111862069],[136.4433650578247,36.04098963872584],[136.4433453329683,36.040910404727974],[136.44322996116162,36.040880165155905]]]}},{"type":"Feature","properties":{"pid":"aa02809e-93c6-4dcb-8f44-f1b3d80cd75c"},"geometry":{"type":"Polygon","coordinates":[[[136.44451185152337,36.04093868363623],[136.44466220732804,36.04084038623078],[136.4445886587271,36.04079770119839],[136.44448978546697,36.040916948740445],[136.44451185152337,36.04093868363623]]]}},{"type":"Feature","properties":{"pid":"ca7109c7-a941-448b-9375-3746ec4ca21f"},"geometry":{"type":"Polygon","coordinates":[[[136.4449327413958,36.041038874069],[136.44486419432857,36.04095151776476],[136.44463161739543,36.04110066532111],[136.44463724002068,36.04113816421948],[136.4446760515836,36.041177199198515],[136.44472001059927,36.041188999293965],[136.4449327413958,36.041038874069]]]}},{"type":"Feature","properties":{"pid":"f656380f-7f52-40fb-a3cb-a57d17124cd0"},"geometry":{"type":"Polygon","coordinates":[[[136.4454134639934,36.04093610463294],[136.44548154606812,36.040932676948984],[136.4455698313704,36.04090138138568],[136.445547732622,36.040875921020906],[136.44551382335382,36.040869991302635],[136.44544621554877,36.04090178747116],[136.4454134639934,36.04093610463294]]]}},{"type":"Feature","properties":{"pid":"d0a41943-9b75-4ca5-91d2-c5703745d70c"},"geometry":{"type":"Polygon","coordinates":[[[136.44563135450218,36.04104224584632],[136.4456861216937,36.04109257935548],[136.4458205727189,36.041050407663846],[136.4458002153138,36.04102168025945],[136.44571534408348,36.04101545390333],[136.44563135450218,36.04104224584632]]]}},{"type":"Feature","properties":{"pid":"b7722e90-5291-41d2-b8be-a9eba4bab048"},"geometry":{"type":"Polygon","coordinates":[[[136.4453348661384,36.04118803515536],[136.44545832507862,36.04115358094644],[136.44547940975085,36.04114999547492],[136.44543363876065,36.041123129261535],[136.44532515921165,36.04113066505058],[136.4453348661384,36.04118803515536]]]}},{"type":"Feature","properties":{"pid":"0268a803-1701-4bb2-bd82-229387487cd0"},"geometry":{"type":"Polygon","coordinates":[[[136.44567638085786,36.041832471467366],[136.44570018124213,36.0417767605445],[136.44528395378563,36.04143029385228],[136.44520565261107,36.041432041186944],[136.44567638085786,36.041832471467366]]]}},{"type":"Feature","properties":{"pid":"e804de22-22c4-4de1-915f-4f35ccb95967"},"geometry":{"type":"Polygon","coordinates":[[[136.44578498389035,36.041657604685625],[136.44581891941723,36.04160263210599],[136.44569917095185,36.04140949288876],[136.4454926829482,36.0413994344626],[136.44578498389035,36.041657604685625]]]}},{"type":"Feature","properties":{"pid":"1332deab-1161-4cd5-9610-17f2c8667b35"},"geometry":{"type":"Polygon","coordinates":[[[136.4443971447812,36.04149644352554],[136.44461662668118,36.041648670075524],[136.44468120710948,36.04170890532143],[136.44472312140968,36.041788188110665],[136.44518790868895,36.04219484801731],[136.44524975120578,36.04214416111913],[136.44525837823474,36.04212629096928],[136.44449134698056,36.041475241116984],[136.4443971447812,36.04149644352554]]]}},{"type":"Feature","properties":{"pid":"c8473bfa-cc11-4fe8-bb5b-68d6573903eb"},"geometry":{"type":"Polygon","coordinates":[[[136.4446636784471,36.04141988803322],[136.44538086011005,36.042022479566796],[136.44540733571375,36.04200208150143],[136.44476087410118,36.041443285001115],[136.4446636784471,36.04141988803322]]]}},{"type":"Feature","properties":{"pid":"456b52fe-14a2-42fa-9dc3-50a548d55a4b"},"geometry":{"type":"Polygon","coordinates":[[[136.4450014401148,36.0412081802469],[136.44517796863252,36.041198672932076],[136.44516944079567,36.0411429336767],[136.4450592700134,36.04117358795361],[136.4450014401148,36.0412081802469]]]}},{"type":"Feature","properties":{"pid":"b5208a7c-f531-4db9-b4d8-9c0faa31928d"},"geometry":{"type":"Polygon","coordinates":[[[136.44425113125186,36.041338835459776],[136.44428400064015,36.04134030708499],[136.4444548867955,36.041254964900894],[136.44441639565116,36.04121310620373],[136.44425113125186,36.041338835459776]]]}},{"type":"Feature","properties":{"pid":"552bc110-cb3d-42db-9645-553f659c3538"},"geometry":{"type":"Polygon","coordinates":[[[136.44398864623037,36.04125133105977],[136.44412512805118,36.041165946383316],[136.4441070220863,36.04112745500781],[136.44403543944733,36.04112504814311],[136.44398864623037,36.04125133105977]]]}},{"type":"Feature","properties":{"pid":"398db239-2205-4231-a1e4-9b142873c241"},"geometry":{"type":"Polygon","coordinates":[[[136.44391853114797,36.04106952108755],[136.4438465001587,36.04107269151204],[136.44377726880376,36.041126896153834],[136.4437741246129,36.041192294935456],[136.44382679414153,36.0412428078954],[136.44384231332538,36.04124652660845],[136.44391853114797,36.04106952108755]]]}},{"type":"Feature","properties":{"pid":"9a4f9bc4-f507-41a9-a3ff-37b8c244ed84"},"geometry":{"type":"Polygon","coordinates":[[[136.4444171920315,36.04284555215303],[136.44445810196777,36.04280158548018],[136.44432403727419,36.04269369563175],[136.4442939719147,36.042748625469706],[136.4444171920315,36.04284555215303]]]}},{"type":"Feature","properties":{"pid":"121b6e74-6562-400b-947c-13fa7c5ca548"},"geometry":{"type":"Polygon","coordinates":[[[136.44458028546134,36.04270924900536],[136.44460871167698,36.042682031497726],[136.44444190341721,36.042542349596744],[136.44442133079667,36.042578642557956],[136.44458028546134,36.04270924900536]]]}},{"type":"Feature","properties":{"pid":"389f1000-8760-4b53-b962-93a7bd5f70e1"},"geometry":{"type":"Polygon","coordinates":[[[136.4447283058762,36.04257088767525],[136.44474877784296,36.04254960288744],[136.4445342254508,36.04236396764658],[136.44451969017484,36.04238790729749],[136.4447283058762,36.04257088767525]]]}},{"type":"Feature","properties":{"pid":"9cb0143a-f8bf-415a-a783-96dcdfe83a59"},"geometry":{"type":"Polygon","coordinates":[[[136.4448671255613,36.04244435182778],[136.44489843233308,36.04241012644829],[136.44462517365025,36.04216854635959],[136.4446079101593,36.04221865768127],[136.4448671255613,36.04244435182778]]]}},{"type":"Feature","properties":{"pid":"ace73b9b-831f-4c33-b96f-332976396cd3"},"geometry":{"type":"Polygon","coordinates":[[[136.44501025116725,36.04230315147441],[136.4450433819902,36.04227347779546],[136.44469178838378,36.0419703244133],[136.4446801812957,36.04202952024402],[136.44501025116725,36.04230315147441]]]}},{"type":"Feature","properties":{"pid":"fab0133f-c46b-4074-8263-573fb3ecd468"},"geometry":{"type":"Polygon","coordinates":[[[136.44574879668684,36.04214004125697],[136.4458140557065,36.04217218729286],[136.4458452027044,36.04223121629758],[136.44586286663855,36.04222007010338],[136.44588348020653,36.042123484053306],[136.44587166742403,36.042109440687106],[136.44584013022586,36.04209640766542],[136.44574879668684,36.04214004125697]]]}},{"type":"Feature","properties":{"pid":"4a61a189-6859-437f-ad08-4f8ee367c72d"},"geometry":{"type":"Polygon","coordinates":[[[136.4441894381992,36.04297537943982],[136.44422386062377,36.043008697113606],[136.44430404624103,36.04295350292415],[136.44421942309637,36.04288627454956],[136.4441894381992,36.04297537943982]]]}},{"type":"Feature","properties":{"pid":"6b093cec-a7ea-47ec-8d61-63a87a0390a5"},"geometry":{"type":"Polygon","coordinates":[[[136.4459109557624,36.04141232848477],[136.4459842699809,36.04151641459289],[136.44619117133166,36.04150799306405],[136.44607615415657,36.04144369676664],[136.4459109557624,36.04141232848477]]]}},{"type":"Feature","properties":{"pid":"28dff87c-8a95-4f92-bc22-548b38ea890b"},"geometry":{"type":"Polygon","coordinates":[[[136.4461083463639,36.04119701735064],[136.44610246446817,36.041273370892704],[136.44619760762947,36.04129389887042],[136.44623449461335,36.041236113532534],[136.4461083463639,36.04119701735064]]]}},{"type":"Feature","properties":{"pid":"4d588bb9-5cbd-4b6b-9087-b8affb86c3a7"},"geometry":{"type":"Polygon","coordinates":[[[136.4467100285044,36.04116681341903],[136.44716656554488,36.04112189654826],[136.4470354524125,36.041068768978434],[136.44682041157722,36.041077840314586],[136.4467100285044,36.04116681341903]]]}},{"type":"Feature","properties":{"pid":"805013a4-be68-4ece-a75d-201f88c15fba"},"geometry":{"type":"Polygon","coordinates":[[[136.44733106848904,36.04121218453112],[136.44659999044728,36.041285166403895],[136.44661252540482,36.041305522775275],[136.4473312542143,36.04123450823362],[136.44733106848904,36.04121218453112]]]}},{"type":"Feature","properties":{"pid":"94cf6eff-d50c-4a68-abe2-2ae10583f0eb"},"geometry":{"type":"Polygon","coordinates":[[[136.44672087074443,36.04140844896076],[136.44675806891547,36.04143838401056],[136.44730934886076,36.04138149423115],[136.44730246046205,36.04134788790318],[136.44672087074443,36.04140844896076]]]}},{"type":"Feature","properties":{"pid":"ae267863-aec1-4750-9e50-826fcb3faf75"},"geometry":{"type":"Polygon","coordinates":[[[136.44702712481634,36.04166834788827],[136.44723922576924,36.04167602311325],[136.44728984856997,36.04165255372537],[136.44733891491626,36.04165381059366],[136.44735989183377,36.04162816931287],[136.44702712481634,36.04166834788827]]]}},{"type":"Feature","properties":{"pid":"8869d231-70a9-4b2a-b180-bd0c30fac12e"},"geometry":{"type":"Polygon","coordinates":[[[136.4477861189134,36.04186456402375],[136.4478728900836,36.04188724913289],[136.44795840094443,36.041847492942715],[136.4478615349009,36.04182897006259],[136.4477861189134,36.04186456402375]]]}},{"type":"Feature","properties":{"pid":"7aa06312-7dcb-4e7f-98ce-7b5fcd5f52c5"},"geometry":{"type":"Polygon","coordinates":[[[136.44750908219905,36.041687426651364],[136.44748709621848,36.04171167165921],[136.44765835594058,36.04178071610854],[136.44773023556303,36.04174532374818],[136.44766252622364,36.04170991211951],[136.44750908219905,36.041687426651364]]]}},{"type":"Feature","properties":{"pid":"9a18614f-ce56-4bc3-a8d1-e2eb136f996d"},"geometry":{"type":"Polygon","coordinates":[[[136.44796172742448,36.04138891640037],[136.4479739062412,36.04154945214048],[136.4479959228366,36.04159712143295],[136.44819176199357,36.04150985522274],[136.44817625164083,36.041436363014064],[136.44796172742448,36.04138891640037]]]}},{"type":"Feature","properties":{"pid":"51697b6f-76ba-4edb-a0ff-c52face5c941"},"geometry":{"type":"Polygon","coordinates":[[[136.44826913632983,36.04177606577588],[136.4483432305333,36.04177149924084],[136.44859625450292,36.041838826199985],[136.44866355536013,36.04175070505522],[136.4484750164047,36.041713721071645],[136.44838103024676,36.041725824976716],[136.44826913632983,36.04177606577588]]]}},{"type":"Feature","properties":{"pid":"653fa304-7962-4c62-9e41-3108cee4957e"},"geometry":{"type":"Polygon","coordinates":[[[136.4482287262328,36.04197114289919],[136.44877997864916,36.04224535383354],[136.44882028443612,36.04217659373484],[136.44838131297303,36.04198005705519],[136.4482287262328,36.04197114289919]]]}},{"type":"Feature","properties":{"pid":"ac18098d-731c-408e-99e8-30a354a20ad8"},"geometry":{"type":"Polygon","coordinates":[[[136.44798291290817,36.04205303197955],[136.44866593892155,36.0424022724222],[136.4486674021081,36.04240131275831],[136.44868471659552,36.04236488313518],[136.44805443481823,36.042045222588165],[136.44798291290817,36.04205303197955]]]}},{"type":"Feature","properties":{"pid":"0002e6d7-95c6-4063-8301-6422e1656058"},"geometry":{"type":"Polygon","coordinates":[[[136.44781279461137,36.042174871822084],[136.44854704189166,36.04255269792626],[136.4485839764978,36.04250327191928],[136.4478497018529,36.04213080000798],[136.44781279461137,36.042174871822084]]]}},{"type":"Feature","properties":{"pid":"4b2c36db-95b1-4aa8-b5ab-a122deb42394"},"geometry":{"type":"Polygon","coordinates":[[[136.44710671639447,36.04188239056733],[136.44722826570182,36.04204908224438],[136.4473060809156,36.04219380739168],[136.44749145244572,36.04231453857773],[136.44766244315628,36.04206256989282],[136.44747776936572,36.04195975285156],[136.44735667901853,36.04191275862649],[136.44710671639447,36.04188239056733]]]}},{"type":"Feature","properties":{"pid":"cc8783d8-3579-46b1-a06a-c21fba491d1f"},"geometry":{"type":"Polygon","coordinates":[[[136.4476999106265,36.042272986742745],[136.44760988348781,36.042399976172135],[136.44802355853548,36.042518529046184],[136.44824119617846,36.04262136705814],[136.44828013528175,36.042565930966674],[136.4476999106265,36.042272986742745]]]}},{"type":"Feature","properties":{"pid":"ca0665fb-ac7a-49cf-8605-a5cd9e6e1c5f"},"geometry":{"type":"Polygon","coordinates":[[[136.44911535703972,36.04221012315082],[136.44939719202316,36.042346554600115],[136.4497460650704,36.04240028999941],[136.44978976190654,36.04239166694168],[136.44929917890605,36.04220226826154],[136.44911535703972,36.04221012315082]]]}},{"type":"Feature","properties":{"pid":"f1427093-0aca-4cb5-a3fe-b2b2ab6c8e01"},"geometry":{"type":"Polygon","coordinates":[[[136.44951130100853,36.042151219405845],[136.44991062869653,36.0422992652807],[136.44993942615451,36.04205972846839],[136.44978720107736,36.04206277101175],[136.44951130100853,36.042151219405845]]]}},{"type":"Feature","properties":{"pid":"82edd977-4956-4003-95db-04839e8a8900"},"geometry":{"type":"Polygon","coordinates":[[[136.44889955674267,36.04243468582052],[136.4491421068644,36.04240023245952],[136.44918250710342,36.04238719060948],[136.44898326450158,36.04228928744201],[136.44889955674267,36.04243468582052]]]}},{"type":"Feature","properties":{"pid":"f60bcf83-13b8-4b13-ba23-393a30378bbc"},"geometry":{"type":"Polygon","coordinates":[[[136.44895299636977,36.04196765422531],[136.449055305614,36.041818868842626],[136.44891222764122,36.04175020737156],[136.44882739233378,36.041755171939194],[136.44872583637817,36.04189028862796],[136.44895299636977,36.04196765422531]]]}},{"type":"Feature","properties":{"pid":"abe7aa15-8c9c-4e8d-bbb7-ca96b3129f12"},"geometry":{"type":"Polygon","coordinates":[[[136.44933344558646,36.04149637747219],[136.4495590931244,36.041560874858014],[136.44961241819468,36.04146533967618],[136.44952153158965,36.04145495236332],[136.44933344558646,36.04149637747219]]]}},{"type":"Feature","properties":{"pid":"02a2372d-abeb-4bc9-889b-7585cb9cca1c"},"geometry":{"type":"Polygon","coordinates":[[[136.4492034658798,36.04169001872511],[136.44963230504578,36.0417959576737],[136.44965223133744,36.04179000980007],[136.44950036704228,36.04173344718264],[136.4492034658798,36.04169001872511]]]}},{"type":"Feature","properties":{"pid":"13302dcd-4193-49c0-befc-938743138152"},"geometry":{"type":"Polygon","coordinates":[[[136.44919176588448,36.04185962350274],[136.4490891337343,36.042013613885274],[136.44914768520076,36.0420261624477],[136.44927249353884,36.042015239668665],[136.44946299622788,36.04195179526944],[136.44919176588448,36.04185962350274]]]}},{"type":"Feature","properties":{"pid":"9cf68fb6-ea23-4e6b-b7c9-01c9e25845c9"},"geometry":{"type":"Polygon","coordinates":[[[136.4489464244784,36.04326057273806],[136.4489969695595,36.043306484993835],[136.44903559487264,36.04331995276811],[136.44913397323975,36.04330174131315],[136.4492721464381,36.0433009440557],[136.44928356942432,36.04328931869836],[136.4489464244784,36.04326057273806]]]}}]}