{"type":"FeatureCollection","features":[{"type":"Feature","properties":{"pid":"aa770487-1ad5-496c-bd41-2b4048892497"},"geometry":{"type":"Polygon","coordinates":[[[135.52631015573644,35.44015548870192],[135.52630996257164,35.43983584724292],[135.5260155614782,35.43984689522349],[135.52577710810615,35.43993968330126],[135.52582581784878,35.44015685606175],[135.52631015573644,35.44015548870192]]]}},{"type":"Feature","properties":{"pid":"f2d88718-b2c5-456d-9473-bbc8f7af30b5"},"geometry":{"type":"Polygon","coordinates":[[[135.52643003015532,35.43984891486055],[135.52643070339,35.439928769137104],[135.52673562340266,35.43992921938571],[135.52673483808644,35.43984507308349],[135.52643003015532,35.43984891486055]]]}},{"type":"Feature","properties":{"pid":"14e3a391-cb3c-477b-96e0-09d04fe5c3f4"},"geometry":{"type":"Polygon","coordinates":[[[135.52816613066454,35.44016316083135],[135.52819926860906,35.44029914972423],[135.52832406182247,35.440304234662314],[135.5283722456414,35.44016501837219],[135.52816613066454,35.44016316083135]]]}},{"type":"Feature","properties":{"pid":"dd4ea96f-9db8-4ad1-a7bc-004597e112c5"},"geometry":{"type":"Polygon","coordinates":[[[135.52804690994338,35.44016818907427],[135.52793879680158,35.440166947311575],[135.52792880014496,35.44019598458687],[135.5279517514019,35.4406144841415],[135.52815949386647,35.44063290076186],[135.52804690994338,35.44016818907427]]]}},{"type":"Feature","properties":{"pid":"03e62b1d-733a-44ea-8b63-341f9e49bf41"},"geometry":{"type":"Polygon","coordinates":[[[135.52855168291836,35.439795334154724],[135.5285840566097,35.43987632188869],[135.5285855123864,35.439983469910885],[135.5288248041902,35.43999246218164],[135.52884427357623,35.43973002013096],[135.52855168291836,35.439795334154724]]]}},{"type":"Feature","properties":{"pid":"3bda0590-cef0-454f-934a-75b5a7b6b35b"},"geometry":{"type":"Polygon","coordinates":[[[135.53000635948277,35.440003196807744],[135.530358870288,35.4399899029368],[135.53035356582032,35.43967358815424],[135.53000847854221,35.43969484721088],[135.53000635948277,35.440003196807744]]]}},{"type":"Feature","properties":{"pid":"f9fb41a4-cd69-42e5-a072-1b4f65c1340e"},"geometry":{"type":"Polygon","coordinates":[[[135.52944133130413,35.440008316638725],[135.52987401388768,35.44000871478037],[135.52987102570947,35.43967968688752],[135.52982861963173,35.43966986906812],[135.52957210321551,35.439686579358145],[135.5294311000926,35.43973305708375],[135.52944133130413,35.440008316638725]]]}},{"type":"Feature","properties":{"pid":"ae8f9b2e-ebbd-4469-a8e2-83460d40ba74"},"geometry":{"type":"Polygon","coordinates":[[[135.52897017322027,35.43999956333886],[135.52928933220807,35.43999104515701],[135.52927695696584,35.439750806845424],[135.52911030566048,35.439763475436514],[135.52898638129233,35.43974408508492],[135.52897017322027,35.43999956333886]]]}},{"type":"Feature","properties":{"pid":"e6369898-6145-4477-991c-790cfadfd44f"},"geometry":{"type":"Polygon","coordinates":[[[135.5290046610551,35.4401501533632],[135.5290223792047,35.4403850578963],[135.52909354216587,35.44038168874421],[135.5290905792422,35.44016432626058],[135.52907340571358,35.44015038946567],[135.5290046610551,35.4401501533632]]]}},{"type":"Feature","properties":{"pid":"287b1f80-1ed1-441f-9c06-78b3f2667379"},"geometry":{"type":"Polygon","coordinates":[[[135.52922021551296,35.44016869651339],[135.52922145857588,35.44064836979798],[135.52948499878602,35.44063397070628],[135.5294749300174,35.440163661624126],[135.52922021551296,35.44016869651339]]]}},{"type":"Feature","properties":{"pid":"85a3ac53-ae49-45bf-91f9-e33b46260a52"},"geometry":{"type":"Polygon","coordinates":[[[135.5298807873107,35.44016743406937],[135.5296059319265,35.44016953189998],[135.52961826925852,35.44062601000018],[135.52989632070546,35.44060804973884],[135.5298807873107,35.44016743406937]]]}},{"type":"Feature","properties":{"pid":"b9f48ead-287e-4536-8c82-9226ffaef01a"},"geometry":{"type":"Polygon","coordinates":[[[135.53036025963502,35.440146830707256],[135.53001059848376,35.44016692440077],[135.5300245552154,35.44060097671677],[135.53036732736018,35.44058116998417],[135.53036025963502,35.440146830707256]]]}},{"type":"Feature","properties":{"pid":"5d283223-17f0-410b-abd7-04050d56c40c"},"geometry":{"type":"Polygon","coordinates":[[[135.53054115765707,35.439730194116024],[135.53055244131986,35.44058208237213],[135.53067928786442,35.44057126595839],[135.5306581465238,35.43973222990932],[135.53054115765707,35.439730194116024]]]}},{"type":"Feature","properties":{"pid":"f2fa84e7-d8c8-4780-9c8c-f731d8c38d48"},"geometry":{"type":"Polygon","coordinates":[[[135.5311933747744,35.439888977786566],[135.53120659096646,35.44053455969092],[135.53137311570933,35.44052363170554],[135.5313651475318,35.43997477906556],[135.5311933747744,35.439888977786566]]]}},{"type":"Feature","properties":{"pid":"a7d042f7-42bd-49d8-aaf1-4d9a66a2ac50"},"geometry":{"type":"Polygon","coordinates":[[[135.53078275588317,35.4397629117068],[135.53080379574902,35.440557099135724],[135.53107995349464,35.440541438931945],[135.53106410736717,35.43984369182332],[135.53078275588317,35.4397629117068]]]}},{"type":"Feature","properties":{"pid":"5d42fb03-81f3-4dc6-87df-dbb4b13252c3"},"geometry":{"type":"Polygon","coordinates":[[[135.5319909790274,35.44050002030232],[135.5321421320801,35.440498966393356],[135.53218807776142,35.440278480762935],[135.53215245847224,35.440239515702395],[135.5321780322,35.44006488500051],[135.53198113671462,35.44003306634241],[135.5319909790274,35.44050002030232]]]}},{"type":"Feature","properties":{"pid":"0d1e03b6-11c8-4881-83c3-9d6982c7d67f"},"geometry":{"type":"Polygon","coordinates":[[[135.5314938692641,35.43999711777567],[135.53150745018814,35.440519161590785],[135.53186877013056,35.44050331850018],[135.5318583177345,35.44002365038444],[135.5314938692641,35.43999711777567]]]}},{"type":"Feature","properties":{"pid":"4b1e0f73-9e29-4dec-a35b-39d93e988f2a"},"geometry":{"type":"Polygon","coordinates":[[[135.54524874205663,35.44057529463749],[135.5452003676315,35.44051146608807],[135.54508258243274,35.44025762638744],[135.54502243286956,35.440202958154885],[135.54478369927497,35.4400887227518],[135.5447135769895,35.4400840969738],[135.544420053283,35.44028800709539],[135.54453430559357,35.44034023908813],[135.54524874205663,35.44057529463749]]]}}]}