{"type":"FeatureCollection","features":[{"type":"Feature","properties":{"pid":"aa770487-1ad5-496c-bd41-2b4048892497","full":15.4},"geometry":{"type":"Polygon","coordinates":[[[135.52637,35.4402],[135.52636,35.4398],[135.52634,35.43979],[135.526,35.4398],[135.52574,35.43989],[135.52572,35.43993],[135.52573,35.44001],[135.52576,35.44016],[135.52577,35.44018],[135.52581,35.4402],[135.52637,35.4402]]]}},{"type":"Feature","properties":{"pid":"f2d88718-b2c5-456d-9473-bbc8f7af30b5","full":2.5},"geometry":{"type":"Polygon","coordinates":[[[135.52679,35.43997],[135.52679,35.43981],[135.5268,35.43978],[135.52669,35.43981],[135.52668,35.4398],[135.52637,35.4398],[135.52638,35.43997],[135.52679,35.43997]]]}},{"type":"Feature","properties":{"pid":"14e3a391-cb3c-477b-96e0-09d04fe5c3f4","full":2.3},"geometry":{"type":"Polygon","coordinates":[[[135.52815,35.44034],[135.52837,35.44035],[135.52839,35.44028],[135.52844,35.44012],[135.52811,35.44012],[135.5281,35.44013],[135.52815,35.44034]]]}},{"type":"Feature","properties":{"pid":"dd4ea96f-9db8-4ad1-a7bc-004597e112c5","full":7.4},"geometry":{"type":"Polygon","coordinates":[[[135.52809,35.44012],[135.5279,35.44012],[135.52787,35.44019],[135.5279,35.44064],[135.52793,35.44066],[135.52821,35.44068],[135.52822,35.44067],[135.52809,35.44012]]]}},{"type":"Feature","properties":{"pid":"03e62b1d-733a-44ea-8b63-341f9e49bf41","full":5.9},"geometry":{"type":"Polygon","coordinates":[[[135.5289,35.43968],[135.52849,35.43976],[135.52848,35.43977],[135.52851,35.43983],[135.52853,35.43988],[135.52853,35.44003],[135.52888,35.44004],[135.5289,35.43968]]]}},{"type":"Feature","properties":{"pid":"3bda0590-cef0-454f-934a-75b5a7b6b35b","full":11.0},"geometry":{"type":"Polygon","coordinates":[[[135.53041,35.44002],[135.53041,35.43963],[135.53,35.43965],[135.52995,35.43966],[135.52995,35.44003],[135.52997,35.44005],[135.5304,35.44003],[135.53041,35.44002]]]}},{"type":"Feature","properties":{"pid":"f9fb41a4-cd69-42e5-a072-1b4f65c1340e","full":14.1},"geometry":{"type":"Polygon","coordinates":[[[135.52993,35.43966],[135.52991,35.43964],[135.52983,35.43962],[135.52959,35.43964],[135.52952,35.43965],[135.52937,35.4397],[135.52939,35.44004],[135.5294,35.44005],[135.5299,35.44005],[135.52993,35.44004],[135.52993,35.43966]]]}},{"type":"Feature","properties":{"pid":"ae8f9b2e-ebbd-4469-a8e2-83460d40ba74","full":7.4},"geometry":{"type":"Polygon","coordinates":[[[135.52917,35.43971],[135.52911,35.43972],[135.52896,35.43969],[135.52895,35.4397],[135.52893,35.43971],[135.52891,35.44004],[135.52893,35.44005],[135.52932,35.44004],[135.52935,35.44002],[135.52933,35.4397],[135.52917,35.43971]]]}},{"type":"Feature","properties":{"pid":"e6369898-6145-4477-991c-790cfadfd44f","full":1.8},"geometry":{"type":"Polygon","coordinates":[[[135.52895,35.4401],[135.52897,35.44043],[135.52915,35.44042],[135.52915,35.44012],[135.52912,35.44013],[135.52912,35.44011],[135.52895,35.4401]]]}},{"type":"Feature","properties":{"pid":"287b1f80-1ed1-441f-9c06-78b3f2667379","full":12.4},"geometry":{"type":"Polygon","coordinates":[[[135.52916,35.44012],[135.52917,35.4407],[135.52954,35.44068],[135.52953,35.44015],[135.5295,35.44012],[135.52916,35.44012]]]}},{"type":"Feature","properties":{"pid":"85a3ac53-ae49-45bf-91f9-e33b46260a52","full":12.5},"geometry":{"type":"Polygon","coordinates":[[[135.52993,35.44012],[135.52955,35.44012],[135.52956,35.44067],[135.52995,35.44065],[135.52993,35.44012]]]}},{"type":"Feature","properties":{"pid":"b9f48ead-287e-4536-8c82-9226ffaef01a","full":15.3},"geometry":{"type":"Polygon","coordinates":[[[135.53042,35.4406],[135.53041,35.44011],[135.53039,35.4401],[135.52995,35.44012],[135.52997,35.44065],[135.53038,35.44063],[135.53042,35.4406]]]}},{"type":"Feature","properties":{"pid":"5d283223-17f0-410b-abd7-04050d56c40c","full":10.4},"geometry":{"type":"Polygon","coordinates":[[[135.53048,35.43968],[135.5305,35.44008],[135.53049,35.4401],[135.5305,35.44063],[135.53074,35.44061],[135.53071,35.43969],[135.53048,35.43968]]]}},{"type":"Feature","properties":{"pid":"f2fa84e7-d8c8-4780-9c8c-f731d8c38d48","full":10.1},"geometry":{"type":"Polygon","coordinates":[[[135.53114,35.43981],[135.53115,35.44058],[135.53143,35.44057],[135.53142,35.43995],[135.53133,35.4399],[135.53114,35.43981]]]}},{"type":"Feature","properties":{"pid":"a7d042f7-42bd-49d8-aaf1-4d9a66a2ac50","full":20.9},"geometry":{"type":"Polygon","coordinates":[[[135.53073,35.4397],[135.53075,35.44061],[135.53114,35.44058],[135.53112,35.43982],[135.53107,35.43979],[135.53073,35.4397]]]}},{"type":"Feature","properties":{"pid":"5d42fb03-81f3-4dc6-87df-dbb4b13252c3","full":8.2},"geometry":{"type":"Polygon","coordinates":[[[135.53224,35.44003],[135.53209,35.44],[135.53193,35.43998],[135.53194,35.44055],[135.53219,35.44054],[135.53225,35.44024],[135.53221,35.44024],[135.53224,35.44003]]]}},{"type":"Feature","properties":{"pid":"0d1e03b6-11c8-4881-83c3-9d6982c7d67f","full":18.3},"geometry":{"type":"Polygon","coordinates":[[[135.53144,35.43994],[135.53145,35.44057],[135.53192,35.44055],[135.53191,35.43998],[135.53144,35.43994]]]}},{"type":"Feature","properties":{"pid":"4b1e0f73-9e29-4dec-a35b-39d93e988f2a","full":18.3},"geometry":{"type":"Polygon","coordinates":[[[135.54533,35.44065],[135.54536,35.44063],[135.54525,35.4405],[135.54513,35.44023],[135.54506,35.44017],[135.5448,35.44005],[135.54469,35.44004],[135.54433,35.44029],[135.54445,35.44036],[135.54451,35.44038],[135.54533,35.44065]]]}}],"precision":5}