{"type":"FeatureCollection","features":[{"type":"Feature","properties":{"pid":"b9e4f54f-f1a3-43d3-9fb1-7cd1bc9a276a"},"geometry":{"type":"Polygon","coordinates":[[[136.12426133752842,36.10082662522513],[136.12455154711955,36.100811479795006],[136.12471103689558,36.100877456694334],[136.12477899227991,36.10084227245839],[136.1246732137955,36.100691390919586],[136.12426815195172,36.10080141817689],[136.12426133752842,36.10082662522513]]]}},{"type":"Feature","properties":{"pid":"6aacfcd6-ad84-4838-9706-1c7a8bfccea2"},"geometry":{"type":"Polygon","coordinates":[[[136.12515230758203,36.100485499040815],[136.1250681876225,36.10038311087999],[136.12492318788347,36.10044407705831],[136.1248180410823,36.100467573013546],[136.1248563989257,36.10058192987536],[136.12515230758203,36.100485499040815]]]}},{"type":"Feature","properties":{"pid":"37bf7361-8772-4e9a-b6c5-a2ff62e91367"},"geometry":{"type":"Polygon","coordinates":[[[136.12416998044657,36.1005852489123],[136.12421248642403,36.100668020479894],[136.1246266160614,36.10054388023095],[136.12458916625621,36.10052675905081],[136.12416998044657,36.1005852489123]]]}},{"type":"Feature","properties":{"pid":"5a6419ae-4eeb-4653-b79e-d966944fcc7d"},"geometry":{"type":"Polygon","coordinates":[[[136.12348632128987,36.100854273427615],[136.1236723510224,36.100879468448255],[136.12409353791202,36.10086530036211],[136.12396893274288,36.10068651059347],[136.1236976119038,36.10072642151373],[136.1235393906906,36.100699244689565],[136.12348632128987,36.100854273427615]]]}},{"type":"Feature","properties":{"pid":"28e9df8b-b4b5-4dc5-a58b-e18591514962"},"geometry":{"type":"Polygon","coordinates":[[[136.12391805594476,36.10047708630571],[136.12403234399557,36.100451163967165],[136.1240190953273,36.10038257867746],[136.12396068564368,36.10037686499522],[136.12391805594476,36.10047708630571]]]}},{"type":"Feature","properties":{"pid":"17cbf847-c73d-4319-bd4a-bead6d8c2464"},"geometry":{"type":"Polygon","coordinates":[[[136.12434582193677,36.099993468360424],[136.1241782259778,36.09988212142079],[136.12396366276752,36.09996122523244],[136.12405474069018,36.10012672017053],[136.1240313839093,36.10019858350265],[136.12410204981484,36.10020571979773],[136.12422234559585,36.100204394916574],[136.1243043080606,36.10018055256603],[136.12441731665385,36.100075037856804],[136.12434582193677,36.099993468360424]]]}},{"type":"Feature","properties":{"pid":"12cbecae-8808-4349-b9af-435d8535fab9"},"geometry":{"type":"Polygon","coordinates":[[[136.12383122239467,36.100128846900894],[136.12378449681205,36.10002823398297],[136.12368266832422,36.100071617886876],[136.12369326016474,36.100161832918666],[136.12381899574984,36.10017627756296],[136.12383122239467,36.100128846900894]]]}},{"type":"Feature","properties":{"pid":"228c6771-1192-4cae-939b-501e3cdcbd77"},"geometry":{"type":"Polygon","coordinates":[[[136.1239838354709,36.09966470066468],[136.12382538373376,36.09972557389882],[136.12390586653504,36.09986188666806],[136.124113200644,36.0997876051926],[136.1239838354709,36.09966470066468]]]}},{"type":"Feature","properties":{"pid":"ada6bb8f-2ac7-470e-851c-8fcb97f69a95"},"geometry":{"type":"Polygon","coordinates":[[[136.12434307720898,36.099791320189496],[136.12456260450838,36.09999661119905],[136.1246020428575,36.09994723275163],[136.12456020192587,36.0999035615932],[136.1244849386466,36.09985993296637],[136.12443290990387,36.099857264970936],[136.12434307720898,36.099791320189496]]]}},{"type":"Feature","properties":{"pid":"dbffa7eb-d5ca-43c3-865f-ab1aee30ca8e"},"geometry":{"type":"Polygon","coordinates":[[[136.12474054917445,36.100262565356175],[136.12474289111313,36.10022554546898],[136.1245364418004,36.100287514989816],[136.12452379952595,36.100312548845146],[136.12474054917445,36.100262565356175]]]}},{"type":"Feature","properties":{"pid":"08e72438-210a-4b09-b9d8-dc89bb9a9fed"},"geometry":{"type":"Polygon","coordinates":[[[136.12378764773914,36.09927763696208],[136.12362910620547,36.09934653231895],[136.12371108724867,36.09950828329281],[136.12386555220095,36.09943870771569],[136.12378764773914,36.09927763696208]]]}},{"type":"Feature","properties":{"pid":"6297facd-32b7-4495-a421-d14c9633d43a"},"geometry":{"type":"Polygon","coordinates":[[[136.12409371711828,36.09820265229624],[136.12406520360076,36.09815097721517],[136.12380638566248,36.09823464990098],[136.12389283991826,36.098328674157095],[136.1239865725916,36.09823813367812],[136.12409371711828,36.09820265229624]]]}},{"type":"Feature","properties":{"pid":"5c16e3f9-8035-4b29-ae11-1db9f8b7ac55"},"geometry":{"type":"Polygon","coordinates":[[[136.12396237246722,36.097973834395354],[136.12391522501437,36.097805203912934],[136.12360396519782,36.09790088194541],[136.1236670805672,36.09798942436068],[136.12373536203046,36.098144852661825],[136.12394746126847,36.09807513491396],[136.1239267395125,36.09802348284022],[136.1239367461772,36.09799222431777],[136.12396237246722,36.097973834395354]]]}},{"type":"Feature","properties":{"pid":"032c9872-a649-4590-adfe-77e4acf3bcf9"},"geometry":{"type":"Polygon","coordinates":[[[136.12310206355832,36.09759313466212],[136.12315376820763,36.09785116445672],[136.1231593088915,36.09795954767454],[136.12330423915392,36.097898447263],[136.12319170988766,36.097618199977184],[136.12315468179952,36.09761075890898],[136.12313091080713,36.09758359957897],[136.12310206355832,36.09759313466212]]]}},{"type":"Feature","properties":{"pid":"94431ea9-42da-413e-8b1d-679900171dd0"},"geometry":{"type":"Polygon","coordinates":[[[136.1234656949553,36.09814300096786],[136.12338845898284,36.098007614292825],[136.12319579804853,36.098088567780756],[136.1231877389142,36.09824360079697],[136.1234656949553,36.09814300096786]]]}},{"type":"Feature","properties":{"pid":"4e4249cf-d9b1-45bb-8849-53cc0fc77f26"},"geometry":{"type":"Polygon","coordinates":[[[136.1232039858469,36.09836406223061],[136.1232703144232,36.09842019544785],[136.1235591739731,36.09831720289101],[136.12352272852533,36.09825555965615],[136.1232039858469,36.09836406223061]]]}},{"type":"Feature","properties":{"pid":"74d7edb5-945c-48e3-82c6-c077014c9374"},"geometry":{"type":"Polygon","coordinates":[[[136.12302816778356,36.0991203423345],[136.12317028477028,36.09901360737069],[136.123155976847,36.098930916305775],[136.1231180136953,36.098875432259554],[136.12296069302295,36.09896665489097],[136.12296228451544,36.099052570384316],[136.12302816778356,36.0991203423345]]]}},{"type":"Feature","properties":{"pid":"eb263e12-dec9-49d0-9bd2-6266e21e8560"},"geometry":{"type":"Polygon","coordinates":[[[136.12356473699586,36.09907878692226],[136.12353621628293,36.09913187591254],[136.12353875186815,36.099174942002286],[136.12358525486732,36.099262309928825],[136.1237430409821,36.099193741396704],[136.12363616575624,36.09911066748153],[136.12356473699586,36.09907878692226]]]}},{"type":"Feature","properties":{"pid":"95fdbd2f-7e5a-414a-8838-25d0f7dc0532"},"geometry":{"type":"Polygon","coordinates":[[[136.1233564247437,36.09922068030395],[136.1232977320438,36.09920841571965],[136.12320540610173,36.099245164671025],[136.12329701502728,36.09940703978172],[136.12342730384702,36.09935988540304],[136.1233564247437,36.09922068030395]]]}},{"type":"Feature","properties":{"pid":"47c803e2-934b-439d-8be0-5b453ce61e3d"},"geometry":{"type":"Polygon","coordinates":[[[136.12353981559417,36.099582137679995],[136.1234764502829,36.09945610138302],[136.12333187659078,36.099511699304784],[136.12337087404092,36.09963894776119],[136.12353981559417,36.099582137679995]]]}},{"type":"Feature","properties":{"pid":"ef4cd5df-da28-49b1-bec7-81b9fd957fd0"},"geometry":{"type":"Polygon","coordinates":[[[136.12371818521217,36.0999201575163],[136.12365549269745,36.09978991991593],[136.1235005508543,36.099853650504315],[136.12361459924605,36.099966324725216],[136.12371818521217,36.0999201575163]]]}},{"type":"Feature","properties":{"pid":"39f3018d-2bff-468d-af27-2aba0d1e9a82"},"geometry":{"type":"Polygon","coordinates":[[[136.12262216036294,36.10024978187014],[136.1227561560416,36.10032397307429],[136.12296952365713,36.10045689173747],[136.12298605406147,36.10039725671052],[136.12279509253023,36.1003134486495],[136.12273885491558,36.1002453824945],[136.12262216036294,36.10024978187014]]]}},{"type":"Feature","properties":{"pid":"a463234e-bf8c-4f5b-9822-520b3af93281"},"geometry":{"type":"Polygon","coordinates":[[[136.12359179642286,36.10053205668997],[136.12361148806843,36.10053203644523],[136.12364568119523,36.10044572389139],[136.12370934392345,36.100431229158886],[136.12372714662627,36.10038215331393],[136.1236361401644,36.10036592583545],[136.12359179642286,36.10053205668997]]]}},{"type":"Feature","properties":{"pid":"453477b8-e4c5-44af-a678-9e27f54680d6"},"geometry":{"type":"Polygon","coordinates":[[[136.1236954979496,36.10099881469547],[136.1235596681052,36.100993462957724],[136.12354691658706,36.101050659898455],[136.12370241857192,36.10102653798439],[136.1236954979496,36.10099881469547]]]}},{"type":"Feature","properties":{"pid":"5c4c6b27-2463-41c8-a416-ba20a7821d9a"},"geometry":{"type":"Polygon","coordinates":[[[136.12356592820547,36.10126247408049],[136.123710916067,36.10137472058953],[136.12379406744154,36.10137292471249],[136.12382958770786,36.10131646076839],[136.12383399876816,36.101167802629476],[136.1237953169847,36.10114843347208],[136.1236568518482,36.101176355193765],[136.12362521266385,36.10123649146512],[136.12356592820547,36.10126247408049]]]}},{"type":"Feature","properties":{"pid":"9ea9f152-5d09-4694-b58c-867812968e17"},"geometry":{"type":"Polygon","coordinates":[[[136.12117250359861,36.095589174649035],[136.12130241697483,36.09577857898838],[136.1214448092331,36.09584535832553],[136.12137874715765,36.09557513130614],[136.12117250359861,36.095589174649035]]]}},{"type":"Feature","properties":{"pid":"a1c1f146-e967-4251-b5ce-5c0b9036d6cc"},"geometry":{"type":"Polygon","coordinates":[[[136.12168870987756,36.09557493024892],[136.12152769564574,36.095565760567276],[136.12160419102386,36.09588357511291],[136.12177594326414,36.095864432300026],[136.12168870987756,36.09557493024892]]]}},{"type":"Feature","properties":{"pid":"4aefb724-81e6-4f45-9e3b-7c208374b406"},"geometry":{"type":"Polygon","coordinates":[[[136.12205244264788,36.09576640790298],[136.12200860946004,36.095494192542795],[136.1218499227913,36.09552486605101],[136.12193179016273,36.095874929752675],[136.1219775601074,36.09586642167981],[136.12205244264788,36.09576640790298]]]}},{"type":"Feature","properties":{"pid":"d56e4dae-0d02-486b-907e-300723f79954"},"geometry":{"type":"Polygon","coordinates":[[[136.12233087778128,36.09556743290953],[136.1223870094676,36.095558001655355],[136.12241851661113,36.095416677693635],[136.1223825390848,36.09525135828846],[136.12236049535906,36.09523216583437],[136.1222813478619,36.09522706627958],[136.12226310177616,36.09527246708636],[136.12225913149896,36.095412748866785],[136.12233087778128,36.09556743290953]]]}},{"type":"Feature","properties":{"pid":"36a31138-0a93-4ff9-ac42-9960635f3497"},"geometry":{"type":"Polygon","coordinates":[[[136.12192869606332,36.09504571391102],[136.12177833507397,36.095157836101194],[136.1218307139953,36.095366592695164],[136.12190048182003,36.095355061559616],[136.12197048627976,36.095319987680526],[136.12199564641287,36.09512232395585],[136.121944350123,36.09508797420342],[136.12192869606332,36.09504571391102]]]}},{"type":"Feature","properties":{"pid":"27ce0212-f50b-4496-9dd2-4d9ade9807b4"},"geometry":{"type":"Polygon","coordinates":[[[136.12130609442025,36.09540742080604],[136.12127171752473,36.09529878626844],[136.12102387090525,36.09538468002661],[136.1210828376427,36.09546276038197],[136.12118463054517,36.095448110606064],[136.12130609442025,36.09540742080604]]]}},{"type":"Feature","properties":{"pid":"21d12e7a-7d62-4ecf-9747-7c9e9eb0b59a"},"geometry":{"type":"Polygon","coordinates":[[[136.12225471886256,36.09503304325642],[136.12227261724144,36.09505043074099],[136.12237475201883,36.09507070417116],[136.12233894011192,36.09492932764899],[136.1223157764695,36.09492765586716],[136.12225471886256,36.09503304325642]]]}},{"type":"Feature","properties":{"pid":"e1c28378-b640-43c4-a414-86e4e825af31"},"geometry":{"type":"Polygon","coordinates":[[[136.12298934468785,36.09495543449695],[136.12272522420736,36.09501598469945],[136.12273406023058,36.095054319400894],[136.1229952847553,36.09499059187161],[136.12298934468785,36.09495543449695]]]}},{"type":"Feature","properties":{"pid":"68d6e207-b3e5-44bd-9993-32b6a3786362"},"geometry":{"type":"Polygon","coordinates":[[[136.12307713722635,36.09467859950046],[136.1230557915298,36.094597895649905],[136.12269399495915,36.09467456134155],[136.12270639377613,36.09481126569988],[136.123055941068,36.09473316703583],[136.12307713722635,36.09467859950046]]]}},{"type":"Feature","properties":{"pid":"336f8e42-3a6f-43d9-a9c1-f6cb7df41348"},"geometry":{"type":"Polygon","coordinates":[[[136.12265824220208,36.09456845403528],[136.1229963955296,36.094491713746955],[136.12289695162025,36.09431654483479],[136.12285235916198,36.094288174767854],[136.12259708739919,36.094333926628394],[136.12265824220208,36.09456845403528]]]}},{"type":"Feature","properties":{"pid":"9ca3d1d1-4506-4d0c-9270-33a3d30ff408"},"geometry":{"type":"Polygon","coordinates":[[[136.12302423284532,36.095095774049135],[136.12276576093979,36.0951566063456],[136.1227958842073,36.0952320494522],[136.12306272372885,36.09516978430221],[136.12302423284532,36.095095774049135]]]}},{"type":"Feature","properties":{"pid":"d5246818-17a8-47e9-bbd4-294b6ba73e8a"},"geometry":{"type":"Polygon","coordinates":[[[136.12310359834413,36.0952827888498],[136.12284173071828,36.09534702333479],[136.12291705766646,36.09549896592421],[136.12319294110196,36.09543153729504],[136.12310359834413,36.0952827888498]]]}},{"type":"Feature","properties":{"pid":"50afa9ae-11e4-42d8-bbf9-ed14061635db"},"geometry":{"type":"Polygon","coordinates":[[[136.12318461145483,36.09600535080402],[136.12319696438755,36.09595549726502],[136.1232804785153,36.09584466214026],[136.12309944481936,36.09589069270609],[136.12318461145483,36.09600535080402]]]}},{"type":"Feature","properties":{"pid":"37f36c4a-4523-493b-9928-2ba2427c2f67"},"geometry":{"type":"Polygon","coordinates":[[[136.12321998182813,36.0955357366188],[136.12296111456044,36.09559777256827],[136.1230335240174,36.09577690618551],[136.1232798519329,36.09571409991867],[136.12323562971935,36.09564006106549],[136.12321998182813,36.0955357366188]]]}},{"type":"Feature","properties":{"pid":"3e862213-bc33-4d4b-95cf-9f5ac00722d9"},"geometry":{"type":"Polygon","coordinates":[[[136.12257235482355,36.096524672773626],[136.12296607042072,36.09639439160693],[136.1229432429881,36.09633617205405],[136.122551617985,36.09646285366251],[136.12254919926235,36.09648806057007],[136.12257235482355,36.096524672773626]]]}},{"type":"Feature","properties":{"pid":"07e36ab9-c3d1-4dab-8eae-067102b7faa9"},"geometry":{"type":"Polygon","coordinates":[[[136.12307175577553,36.096598114124525],[136.12276453900205,36.09669180697391],[136.12271927861852,36.096724110142134],[136.12272677013536,36.09675472711444],[136.12274114406233,36.09677895155929],[136.12288216637697,36.09686349704823],[136.12312461597148,36.09678410928895],[136.123099535535,36.096734248172005],[136.12312897691118,36.096695319572916],[136.12307175577553,36.096598114124525]]]}},{"type":"Feature","properties":{"pid":"0f55cf8c-1c52-4fbd-8102-59e6b366f004"},"geometry":{"type":"Polygon","coordinates":[[[136.1225103359211,36.09634014293968],[136.12254273465393,36.096353544262264],[136.12288630261497,36.096234667535775],[136.12284817264054,36.096157929239524],[136.12252506572227,36.09626367266868],[136.1225103359211,36.09634014293968]]]}},{"type":"Feature","properties":{"pid":"9dbd12d3-e987-4324-96d7-bf2a1db50c95"},"geometry":{"type":"Polygon","coordinates":[[[136.12261672235329,36.09612352943366],[136.12280387494064,36.09606018225338],[136.12274853039187,36.09594786225277],[136.12269063020435,36.09602792998847],[136.12263266756764,36.09606978284679],[136.12261672235329,36.09612352943366]]]}},{"type":"Feature","properties":{"pid":"19817ba5-bc0d-49c4-8d58-29bb3d59257e"},"geometry":{"type":"Polygon","coordinates":[[[136.12192825515268,36.09649049174036],[136.12192723527528,36.09639559375922],[136.1218912245484,36.09619966269205],[136.12194601674372,36.0960143085903],[136.12172831545908,36.09604735098776],[136.12173365135808,36.09616205661303],[136.1217936979289,36.09630866758936],[136.12192825515268,36.09649049174036]]]}},{"type":"Feature","properties":{"pid":"8ccd4d5c-ab6f-4043-b6df-b5983561a4f9"},"geometry":{"type":"Polygon","coordinates":[[[136.12350488916348,36.097169576206014],[136.12349608395877,36.09715195288472],[136.12328336170802,36.09723148452131],[136.1233732607273,36.09735355453591],[136.1235190186781,36.09732007333203],[136.1234801524181,36.09721154723755],[136.12350488916348,36.097169576206014]]]}},{"type":"Feature","properties":{"pid":"20687758-f09a-4f8e-bf9d-23cc9266c1f4"},"geometry":{"type":"Polygon","coordinates":[[[136.12343583663542,36.09706049984455],[136.12333374293183,36.09696201552388],[136.12309498587493,36.09705080585167],[136.1231997231707,36.09714897613893],[136.12343583663542,36.09706049984455]]]}},{"type":"Feature","properties":{"pid":"ddccf936-bff1-4c41-9b20-89a539cfd0c3"},"geometry":{"type":"Polygon","coordinates":[[[136.12310627006434,36.09737126023151],[136.1230376397966,36.09732775386219],[136.12307579968365,36.097459386389914],[136.12314630739436,36.097431761407215],[136.12310627006434,36.09737126023151]]]}},{"type":"Feature","properties":{"pid":"c9dafa52-6046-4482-bd0c-16dac054d357"},"geometry":{"type":"Polygon","coordinates":[[[136.1238816606217,36.09761608892664],[136.12384836676858,36.09755465246504],[136.12379281265396,36.097566899929774],[136.12348854126213,36.09766583751856],[136.12349345422467,36.097716219911234],[136.12354287384713,36.097805122585264],[136.12389692770577,36.09769363494619],[136.1238816606217,36.09761608892664]]]}},{"type":"Feature","properties":{"pid":"12445ad6-d92b-4339-923c-d8b590f64e13"},"geometry":{"type":"Polygon","coordinates":[[[136.12132258603611,36.09153556206742],[136.12147182398564,36.09136758098129],[136.121510095187,36.091228597313986],[136.1214914030497,36.09121405593178],[136.12144920297848,36.09124012947729],[136.1214027544433,36.09130228502337],[136.12128328987936,36.09138500530815],[136.12132258603611,36.09153556206742]]]}},{"type":"Feature","properties":{"pid":"9cebba06-cc34-47a6-8678-2866d2961796"},"geometry":{"type":"Polygon","coordinates":[[[136.12162626900124,36.091459944369554],[136.1215684906907,36.09153876744732],[136.12160533864983,36.091560073201066],[136.1216876657826,36.091514508889816],[136.12162626900124,36.091459944369554]]]}},{"type":"Feature","properties":{"pid":"4b02107c-2332-4259-9510-a8440592c6e1"},"geometry":{"type":"Polygon","coordinates":[[[136.1217133396652,36.09096880588872],[136.12169812386583,36.09134359419808],[136.12177091734466,36.09139958670162],[136.12184499005653,36.09135348057257],[136.12196029896344,36.09120956710631],[136.12197304470197,36.09116234806119],[136.1217133396652,36.09096880588872]]]}},{"type":"Feature","properties":{"pid":"deecd3b4-419f-4251-9810-e154dfc48df1"},"geometry":{"type":"Polygon","coordinates":[[[136.1213233423584,36.09214671594472],[136.12124960326426,36.09202451184223],[136.12101286471082,36.09213596353537],[136.1211133935911,36.09225069651104],[136.1213233423584,36.09214671594472]]]}},{"type":"Feature","properties":{"pid":"fa83811c-1536-42d1-89ec-36d7570192fc"},"geometry":{"type":"Polygon","coordinates":[[[136.12139658793402,36.092262680777374],[136.12137744151013,36.09223590473701],[136.1211740764152,36.092335013728146],[136.12119580691868,36.09236243704665],[136.12139658793402,36.092262680777374]]]}},{"type":"Feature","properties":{"pid":"29e52891-9109-4b84-a739-0399987eaf17"},"geometry":{"type":"Polygon","coordinates":[[[136.12263685239927,36.09391423083708],[136.1227272236973,36.09417054706888],[136.1228170430662,36.09415278329074],[136.12277040661428,36.09407819721806],[136.12263685239927,36.09391423083708]]]}},{"type":"Feature","properties":{"pid":"5936fe4c-597e-459c-8d3f-7bc759c3ca8a"},"geometry":{"type":"Polygon","coordinates":[[[136.12187612315358,36.09351241023523],[136.12199105868174,36.093473404708895],[136.1219714438735,36.093373875117635],[136.12184337447604,36.0933904995291],[136.12187612315358,36.09351241023523]]]}},{"type":"Feature","properties":{"pid":"dbcf9de4-a183-47ff-ba1a-fb0fe9341d0f"},"geometry":{"type":"Polygon","coordinates":[[[136.12170741741267,36.09340708825501],[136.12167780288058,36.09341572472523],[136.12170877555084,36.09360831646827],[136.12176012623922,36.09357469303787],[136.12170741741267,36.09340708825501]]]}},{"type":"Feature","properties":{"pid":"5241de76-3d6a-414d-999a-6ecaa1d384c3"},"geometry":{"type":"Polygon","coordinates":[[[136.12177401738825,36.092809201385606],[136.12171339636086,36.09282676461879],[136.12178792948237,36.09297007623262],[136.12183976420332,36.09295570735182],[136.12177401738825,36.092809201385606]]]}},{"type":"Feature","properties":{"pid":"76eed7bd-5e12-44f8-a2a9-47b48af86994"},"geometry":{"type":"Polygon","coordinates":[[[136.1216922473807,36.09326327134077],[136.1217588600459,36.093242334073054],[136.12157370017684,36.09286766720077],[136.1215285741613,36.09288582217665],[136.1216449432667,36.09305156820719],[136.12170022388761,36.09318800214505],[136.1216922473807,36.09326327134077]]]}},{"type":"Feature","properties":{"pid":"5c053dc4-11ff-4e5e-ad53-245feeeaaab8"},"geometry":{"type":"Polygon","coordinates":[[[136.12184058925484,36.09306160363182],[136.12191729967915,36.09321857029462],[136.12193722172105,36.0932128015504],[136.12187808964367,36.093052493155135],[136.12184058925484,36.09306160363182]]]}},{"type":"Feature","properties":{"pid":"afd8fbb8-4a2c-430f-9edf-4195b04a6646"},"geometry":{"type":"Polygon","coordinates":[[[136.12165283811763,36.09267863373277],[136.12145060050977,36.09235456073915],[136.1212531230417,36.092451139619534],[136.1212754257246,36.092541874885605],[136.12143543217934,36.09276371442264],[136.12165283811763,36.09267863373277]]]}},{"type":"Feature","properties":{"pid":"b3b654ae-ac00-4bac-b675-21836a3783c1"},"geometry":{"type":"Polygon","coordinates":[[[136.12118314186287,36.09372584795781],[136.12154930361535,36.09362022344573],[136.1214998531984,36.09346601856327],[136.12131878235394,36.09347734577734],[136.12113431541832,36.09343357960079],[136.12101170297646,36.09344037100084],[136.12040286242316,36.09362125880423],[136.1204155618238,36.093738399924476],[136.12060325631867,36.09372315196133],[136.1211008329372,36.09378376896257],[136.12118314186287,36.09372584795781]]]}},{"type":"Feature","properties":{"pid":"d028b25f-22e3-4372-8640-5c07694b8ae1"},"geometry":{"type":"Polygon","coordinates":[[[136.11101601451713,36.092900420323566],[136.1109305368604,36.09283307474764],[136.1106245902309,36.09290588610018],[136.11055043133618,36.092957384848155],[136.1105762026624,36.092988830976225],[136.1105651497795,36.09302603636401],[136.1104582823317,36.09308813503806],[136.1102538409316,36.0932680024437],[136.11029189600433,36.093322423510166],[136.11054851699066,36.09348035552511],[136.11069793921823,36.09322898506053],[136.11088091268792,36.09301681932842],[136.11091670473476,36.093001236906204],[136.11102710766176,36.092998853059264],[136.11104756215462,36.09297286012352],[136.11101601451713,36.092900420323566]]]}},{"type":"Feature","properties":{"pid":"22434bdf-e7c1-4e6e-9a12-6d8b8edef853"},"geometry":{"type":"Polygon","coordinates":[[[136.1216606466372,36.09037315393538],[136.12147963666982,36.09051666034537],[136.12207661018695,36.090866280566914],[136.12208212723843,36.090798727717626],[136.12190164661334,36.090558040535264],[136.12175431760485,36.09046965003963],[136.1216606466372,36.09037315393538]]]}},{"type":"Feature","properties":{"pid":"4a87e2e3-b221-4a00-a63c-49b5401541a8"},"geometry":{"type":"Polygon","coordinates":[[[136.10430626910417,36.09051872496266],[136.1043110791015,36.09058853553507],[136.10447635010286,36.09067588017549],[136.1046333411952,36.0908052609753],[136.10465704040055,36.09079758645289],[136.10456691183524,36.090722574687405],[136.10454654900772,36.0905748155364],[136.10445959724575,36.0905738153802],[136.10440082284845,36.09053527648334],[136.10430626910417,36.09051872496266]]]}},{"type":"Feature","properties":{"pid":"0a637b31-6845-47aa-b095-e7aeca716b15"},"geometry":{"type":"Polygon","coordinates":[[[136.10698182776432,36.09166821379346],[136.10708995110306,36.091691439867446],[136.10715214766813,36.091576789682826],[136.10720922984243,36.09153753788984],[136.10720522401937,36.09150856753649],[136.1069869601146,36.091568388363314],[136.10699577619317,36.091630805535765],[136.10698182776432,36.09166821379346]]]}},{"type":"Feature","properties":{"pid":"9aaf4df4-735c-4300-b711-7c86eb06a388"},"geometry":{"type":"Polygon","coordinates":[[[136.10620729654968,36.09101497256938],[136.10619695125538,36.09097738601732],[136.10605497507325,36.09101442177786],[136.1060977197253,36.091069167987634],[136.10620729654968,36.09101497256938]]]}},{"type":"Feature","properties":{"pid":"08b8238d-0366-4192-b9ed-60563b1705a5"},"geometry":{"type":"Polygon","coordinates":[[[136.1052788541839,36.09087924610197],[136.10537642949345,36.09086916175837],[136.1054599869579,36.09088390353659],[136.10549255738667,36.09077563871246],[136.1052788541839,36.09087924610197]]]}},{"type":"Feature","properties":{"pid":"5435672f-8ea6-40c4-91bb-d6f17c962a2a"},"geometry":{"type":"Polygon","coordinates":[[[136.10317904664626,36.090966216527114],[136.1033124873644,36.09115767746923],[136.10334866941946,36.09124130221636],[136.1033726363129,36.091147803162876],[136.10331540385826,36.09105250764999],[136.1032360303567,36.0909900327551],[136.10317904664626,36.090966216527114]]]}},{"type":"Feature","properties":{"pid":"3c99a7bf-df3e-4a64-9d7a-810410a454f3"},"geometry":{"type":"Polygon","coordinates":[[[136.10363129390933,36.091172040192454],[136.10374723834053,36.09117738859648],[136.10390084950507,36.09123246903269],[136.103924480617,36.09121386933989],[136.10371040461376,36.09110945681289],[136.10363129390933,36.091172040192454]]]}},{"type":"Feature","properties":{"pid":"8bb09e32-8e45-4007-8071-83b306672bdd"},"geometry":{"type":"Polygon","coordinates":[[[136.1057598796457,36.09161135153296],[136.10577383172424,36.09159864104145],[136.1057726669017,36.0915235351916],[136.1057101407124,36.091524595597036],[136.10567723543772,36.09156161000243],[136.1057598796457,36.09161135153296]]]}},{"type":"Feature","properties":{"pid":"15468a73-b3af-4f30-ad16-0454521d0391"},"geometry":{"type":"Polygon","coordinates":[[[136.10503800166538,36.10097382795597],[136.10513540545065,36.10105599031521],[136.10551738259798,36.100968594761866],[136.10562679214686,36.10100308817915],[136.105665315242,36.1009876932902],[136.1054016137284,36.100921558753186],[136.10517756513568,36.10090505002096],[136.10512425421194,36.10090813279132],[136.10506804432856,36.10093811557162],[136.10503800166538,36.10097382795597]]]}},{"type":"Feature","properties":{"pid":"fb2eae33-9a7b-48cb-8ed6-1171d4dfb660"},"geometry":{"type":"Polygon","coordinates":[[[136.10617723976443,36.10239508626482],[136.1062159363187,36.10242598426507],[136.1062177193289,36.10247677959639],[136.10629107770504,36.10249800771057],[136.10637111750765,36.102547381251576],[136.10678327801705,36.102048592765335],[136.10673569067944,36.10202269107559],[136.1065871377001,36.101987745029426],[136.10648236512085,36.10208825719945],[136.10633793341668,36.10226783962861],[136.10630001044217,36.102351141154735],[136.10622588879997,36.102393749419484],[136.10617723976443,36.10239508626482]]]}},{"type":"Feature","properties":{"pid":"4bbaac94-6b0f-446e-afe5-ab1f9d841886"},"geometry":{"type":"Polygon","coordinates":[[[136.10722633034268,36.10223126735091],[136.10716474981598,36.10213352015459],[136.10711795694337,36.102136555174326],[136.10707791573577,36.102118316329374],[136.1064535177705,36.1028082143523],[136.10648025814382,36.10283094893208],[136.10674380355283,36.10289783219117],[136.10722633034268,36.10223126735091]]]}},{"type":"Feature","properties":{"pid":"362bbeb8-7a76-4653-9887-d4df67b8e481"},"geometry":{"type":"Polygon","coordinates":[[[136.1058721161359,36.10274387058031],[136.10602834231955,36.10290430429906],[136.10604340891962,36.10300278390003],[136.1059927583229,36.10311351646012],[136.1061032136049,36.10319859928546],[136.10630164700908,36.10297757989833],[136.10624696188813,36.10293135847273],[136.10617486264053,36.10283347007145],[136.10601384097603,36.102767962499804],[136.1058721161359,36.10274387058031]]]}},{"type":"Feature","properties":{"pid":"bf189b05-da08-4465-a4ff-ed7808bf913f"},"geometry":{"type":"Polygon","coordinates":[[[136.10592400806624,36.10220494817538],[136.10609092198874,36.10224803385775],[136.1061755357328,36.102243754307835],[136.10624920757917,36.102130955827064],[136.10605705113272,36.10209176105107],[136.10592400806624,36.10220494817538]]]}},{"type":"Feature","properties":{"pid":"64d7b77f-73dd-4988-8c0e-eaaa22417bfd"},"geometry":{"type":"Polygon","coordinates":[[[136.10627042018345,36.10186132804613],[136.1062296011678,36.10185061271889],[136.10614179326376,36.101909902740346],[136.10614929788233,36.101984786193036],[136.10617262548894,36.101989843139535],[136.10627042018345,36.10186132804613]]]}},{"type":"Feature","properties":{"pid":"b5ab4a05-16a6-49bd-bfd1-3d677a4cc2a4"},"geometry":{"type":"Polygon","coordinates":[[[136.1060557451339,36.10160438326859],[136.10587737461924,36.101651297474355],[136.1057822565948,36.101762124130325],[136.105745378805,36.10185716514699],[136.10587837883568,36.10179390107141],[136.10592470156496,36.101689317801124],[136.1060557451339,36.10160438326859]]]}},{"type":"Feature","properties":{"pid":"82a9ab3d-02cd-49d6-9f24-ac5233c83ae7"},"geometry":{"type":"Polygon","coordinates":[[[136.1057397494825,36.10158203978254],[136.10567869017976,36.10155603147117],[136.10545392413107,36.101733480028386],[136.10553048418578,36.10181826849407],[136.10559743697453,36.10177221524736],[136.1057397494825,36.10158203978254]]]}},{"type":"Feature","properties":{"pid":"99e23a6d-f1fb-4c34-9d88-f0a8fc0efebd"},"geometry":{"type":"Polygon","coordinates":[[[136.10467389772558,36.101945767788685],[136.10485867052827,36.10195119857888],[136.10497359101348,36.10207762710926],[136.10502828123566,36.102066968169254],[136.10515674910658,36.10197368848783],[136.10541828830222,36.10190128600632],[136.1053168570482,36.101775642150045],[136.10507663154183,36.10192097618323],[136.10493912607123,36.10191946119325],[136.10479715914556,36.10183637001799],[136.1047586292397,36.10184694702679],[136.10467389772558,36.101945767788685]]]}},{"type":"Feature","properties":{"pid":"8ed4658a-626b-414f-9c1d-9df42fb235f3"},"geometry":{"type":"Polygon","coordinates":[[[136.10474204433132,36.101431598535044],[136.10493568867727,36.10144722713757],[136.10498321084333,36.10147939081589],[136.10503790583303,36.10141748137348],[136.10500900903386,36.10139291199156],[136.10486418609187,36.10134706923573],[136.10466728512907,36.10135174197765],[136.1045725845903,36.10139281009907],[136.10456315353355,36.10146665348466],[136.1045065908166,36.101582327362365],[136.10452933980085,36.10159178234893],[136.10465531130964,36.10145945872646],[136.10474204433132,36.101431598535044]]]}},{"type":"Feature","properties":{"pid":"3c3dbb52-351f-4de7-addd-ba1164b70644"},"geometry":{"type":"Polygon","coordinates":[[[136.10563632187427,36.10238607186846],[136.1056247421595,36.10226982190844],[136.1055282949572,36.1023225670379],[136.10552154443212,36.10239569063324],[136.10554504325327,36.10242008210177],[136.10559276720366,36.10242280584167],[136.10563632187427,36.10238607186846]]]}},{"type":"Feature","properties":{"pid":"7fcff3d6-f7b3-4185-a478-f48b1e684eee"},"geometry":{"type":"Polygon","coordinates":[[[136.10543809249037,36.1026301515268],[136.10546271441427,36.10265843822509],[136.10547943984793,36.10272193824278],[136.10552356314275,36.10271207322208],[136.1055212062599,36.1026150862915],[136.10543809249037,36.1026301515268]]]}},{"type":"Feature","properties":{"pid":"5603e879-0a70-40fd-883b-d47af9bc3f1e"},"geometry":{"type":"MultiPolygon","coordinates":[[[[136.10530451054868,36.10286094044408],[136.10543536315166,36.102870869526164],[136.1053325051718,36.102805408399796],[136.10531606077114,36.10273444621029],[136.10529583902849,36.102720390612],[136.10505857031313,36.10274086768285],[136.1049700232777,36.10279859136341],[136.10497525126442,36.10281942377643],[136.10513474317383,36.10282113789364],[136.10530451054868,36.10286094044408]]],[[[136.10547041063225,36.10287182859988],[136.10546882758032,36.102873408780184],[136.1054821630509,36.102868987594455],[136.10547041063225,36.10287182859988]]]]}},{"type":"Feature","properties":{"pid":"251f2ebd-4421-4ac5-b250-ea16cff74044"},"geometry":{"type":"Polygon","coordinates":[[[136.10497652514772,36.10297196821663],[136.10498509159385,36.10304413472982],[136.1052085611329,36.10303265813858],[136.10526660120343,36.10300020607857],[136.10497652514772,36.10297196821663]]]}},{"type":"Feature","properties":{"pid":"3af386d7-1b65-4b48-a718-ae1f13d51c29"},"geometry":{"type":"Polygon","coordinates":[[[136.1058587112664,36.102953448837646],[136.10583995727225,36.103041784407914],[136.10562090671576,36.103147324727395],[136.10576709571905,36.10321920723564],[136.10583126568417,36.10314930629124],[136.1058338107756,36.103064036779166],[136.10587037031598,36.10301089986357],[136.1058587112664,36.102953448837646]]]}},{"type":"Feature","properties":{"pid":"51f35de8-532d-40c3-b2a5-8f0ab7721c79"},"geometry":{"type":"Polygon","coordinates":[[[136.10527824255172,36.10393217477097],[136.1051679781302,36.10391329596777],[136.105006016086,36.10392989583162],[136.10496560500283,36.10395399929241],[136.10486639050112,36.10410884090681],[136.10536033764868,36.10408111869458],[136.10527824255172,36.10393217477097]]]}},{"type":"Feature","properties":{"pid":"26f98840-bcc6-4200-9b49-4c89af42d1de"},"geometry":{"type":"Polygon","coordinates":[[[136.10493405010692,36.10420062123348],[136.1051356233528,36.104258238590845],[136.10534414600818,36.10424387287397],[136.10538087648064,36.10421399356892],[136.10539729474988,36.10417548159993],[136.10493405010692,36.10420062123348]]]}},{"type":"Feature","properties":{"pid":"c51bf3da-7ce2-433f-97ab-abc57a758f84"},"geometry":{"type":"Polygon","coordinates":[[[136.1061289656696,36.10481045736233],[136.1062006001496,36.104721843417465],[136.1062293254422,36.10457632961381],[136.1062687566596,36.10448003898032],[136.10623527477884,36.10442415526178],[136.10615028926122,36.10434922371436],[136.10614463701393,36.10453211175939],[136.10611431797932,36.10457982538049],[136.1060042097745,36.10463425286822],[136.1061289656696,36.10481045736233]]]}},{"type":"Feature","properties":{"pid":"ec8ecda3-050c-4be2-baaa-423962677114"},"geometry":{"type":"Polygon","coordinates":[[[136.10663153761914,36.10307931971202],[136.1064484385869,36.103028615777546],[136.1063947222677,36.10303482384999],[136.106196680956,36.10325936732882],[136.10625916747932,36.10329155857648],[136.10661463659034,36.10313297527319],[136.10663153761914,36.10307931971202]]]}},{"type":"Feature","properties":{"pid":"9d8b0254-2d8e-4e5c-b776-073de144e3ef"},"geometry":{"type":"Polygon","coordinates":[[[136.10634792414805,36.10354452532573],[136.10644429185894,36.10338776286177],[136.10628525922283,36.103431034250455],[136.10590024358083,36.103226571939345],[136.10585092583307,36.10328029432676],[136.10589148175478,36.10333050771451],[136.1059174706856,36.10345367264559],[136.10622960113318,36.10348697809297],[136.10634792414805,36.10354452532573]]]}},{"type":"Feature","properties":{"pid":"403adf5e-cf5c-4a5d-a6c5-3f396cc78c31"},"geometry":{"type":"Polygon","coordinates":[[[136.10799253385693,36.10521482005823],[136.1080384780255,36.10542908265175],[136.10808022463345,36.105543226465144],[136.10814569904903,36.10538938861736],[136.10807570130328,36.10534310868398],[136.10799253385693,36.10521482005823]]]}},{"type":"Feature","properties":{"pid":"f1113893-d5b3-406a-8f78-b367cf1bffde"},"geometry":{"type":"Polygon","coordinates":[[[136.10613180674136,36.10520546608027],[136.10613177938797,36.105184983471126],[136.10590645769344,36.104854638503376],[136.1057816584815,36.10504387142798],[136.10587927222412,36.10513148151213],[136.10597601753514,36.105134688153946],[136.10613180674136,36.10520546608027]]]}},{"type":"Feature","properties":{"pid":"e965bd6e-5da7-4466-800e-a60a471f3910"},"geometry":{"type":"MultiPolygon","coordinates":[[[[136.10688128714986,36.105670449713905],[136.1068562777722,36.10566897970163],[136.10683231039417,36.10568847213148],[136.10684410197976,36.105709342938034],[136.10702792328797,36.105843268594214],[136.10688128714986,36.105670449713905]]],[[[136.10718717159315,36.10602543477874],[136.10723858762458,36.106087882413604],[136.10742177435046,36.10618520417664],[136.10753025667788,36.1062226358271],[136.10761392615387,36.10618147941325],[136.1074115838369,36.10612911712174],[136.10718717159315,36.10602543477874]]]]}},{"type":"Feature","properties":{"pid":"bc21bf55-03ac-40b8-a240-7f0e89718c03"},"geometry":{"type":"Polygon","coordinates":[[[136.10550886676097,36.104892143709066],[136.10556024787513,36.10488519008641],[136.10568820889983,36.104932148550475],[136.10580177363488,36.104756147197385],[136.1057224519533,36.10474079787318],[136.10557849629774,36.10477595212729],[136.10552898977818,36.104829992705625],[136.10550886676097,36.104892143709066]]]}}]}