{"type":"FeatureCollection","features":[{"type":"Feature","properties":{"pid":"ee0bbe1f-9421-4272-aeae-e02b4cebf545"},"geometry":{"type":"Polygon","coordinates":[[[135.62406910191373,35.39936139920732],[135.62394353351746,35.399441038183625],[135.6240748905148,35.39956407144922],[135.62415867824487,35.39949727254675],[135.62415194443088,35.39941782118858],[135.62406910191373,35.39936139920732]]]}},{"type":"Feature","properties":{"pid":"e6ea4024-554d-4e50-85d3-4f322b9122be"},"geometry":{"type":"Polygon","coordinates":[[[135.62334481376226,35.399564269978],[135.6236635667107,35.3998619256198],[135.62397760832206,35.399637146720245],[135.62382317676733,35.39949289695094],[135.62372952776727,35.399511919755994],[135.62360660152038,35.39946092468085],[135.62351339096364,35.39945887388089],[135.62334481376226,35.399564269978]]]}},{"type":"Feature","properties":{"pid":"b5825f41-58cb-42c4-bbd3-06b755194429"},"geometry":{"type":"Polygon","coordinates":[[[135.6230808036916,35.399703842960534],[135.6234287307032,35.40003129175915],[135.6235645251329,35.399933135864586],[135.62324294240634,35.399624527148084],[135.6230808036916,35.399703842960534]]]}},{"type":"Feature","properties":{"pid":"04a47f9f-94ed-4861-8ec8-88c44d0d652b"},"geometry":{"type":"Polygon","coordinates":[[[135.62186284266443,35.40052069436483],[135.6222455819662,35.40088303401261],[135.62240457719662,35.40077231751898],[135.62197347709736,35.400370934898824],[135.62186284266443,35.40052069436483]]]}},{"type":"Feature","properties":{"pid":"c54bd278-0ad7-4316-b6b4-39ac1a6f5387"},"geometry":{"type":"Polygon","coordinates":[[[135.621639512607,35.40071939296478],[135.62199626262384,35.401058081400535],[135.62215126482047,35.400951804346576],[135.62178292943668,35.40060346720925],[135.621639512607,35.40071939296478]]]}},{"type":"Feature","properties":{"pid":"2cfa690f-cb01-42df-b194-010125e70ef5"},"geometry":{"type":"Polygon","coordinates":[[[135.6214978979207,35.40149938456328],[135.62162473150553,35.40141096217559],[135.62162436424683,35.40138030915934],[135.6214978752025,35.401377520804864],[135.6214978979207,35.40149938456328]]]}},{"type":"Feature","properties":{"pid":"9499a296-9ce4-430b-96ca-a7bfbf3b0a9c"},"geometry":{"type":"Polygon","coordinates":[[[135.62118480902936,35.40167271878783],[135.6213677120683,35.40157459034573],[135.62137359721416,35.40137463044665],[135.62119183409473,35.401370339036035],[135.62118480902936,35.40167271878783]]]}},{"type":"Feature","properties":{"pid":"7d7c1984-b6c1-4265-a27e-a479acd2d642"},"geometry":{"type":"Polygon","coordinates":[[[135.62087990534303,35.40120263955572],[135.6213375089019,35.40121561313871],[135.62135270947834,35.40080122230664],[135.62089257698955,35.40083485033843],[135.62087990534303,35.40120263955572]]]}},{"type":"Feature","properties":{"pid":"b137e42c-f74f-4c7e-8702-26f618365a5a"},"geometry":{"type":"Polygon","coordinates":[[[135.62147146228753,35.401223347309994],[135.62175462377732,35.401231982024086],[135.62190434065684,35.401128137885685],[135.62153675832081,35.40078455440077],[135.62148476996467,35.40079741406182],[135.62147146228753,35.401223347309994]]]}},{"type":"Feature","properties":{"pid":"44a5f7f7-4170-4133-85f5-5c44c15c7113"},"geometry":{"type":"Polygon","coordinates":[[[135.62036288996592,35.4011922951236],[135.6207542258795,35.40120837145743],[135.6207632312271,35.40085862743244],[135.62052378173905,35.40087733152589],[135.62036997755348,35.40082793915503],[135.62036288996592,35.4011922951236]]]}},{"type":"Feature","properties":{"pid":"dcc3bc65-54f0-4120-bbd9-0a28adff095d"},"geometry":{"type":"Polygon","coordinates":[[[135.62087481420377,35.4017815579808],[135.62106103887604,35.40172556179274],[135.6210725439971,35.401363749378596],[135.62088343591734,35.401359179126004],[135.62087481420377,35.4017815579808]]]}},{"type":"Feature","properties":{"pid":"00962377-490f-4db7-a365-cd3e0506969f"},"geometry":{"type":"Polygon","coordinates":[[[135.6203562169345,35.401813855673645],[135.6205665402332,35.401829745308454],[135.62073990871917,35.40181270194551],[135.62075390014468,35.40135169447148],[135.62035467029546,35.4013468556963],[135.6203562169345,35.401813855673645]]]}},{"type":"Feature","properties":{"pid":"8d624eee-901e-4e06-adf9-631f85177cfd"},"geometry":{"type":"Polygon","coordinates":[[[135.61985667115368,35.40175275568625],[135.62021700614696,35.40179435204656],[135.62022728468045,35.401340725844676],[135.61986556908573,35.401339078593736],[135.61985667115368,35.40175275568625]]]}},{"type":"Feature","properties":{"pid":"2f3b12b6-3c2b-4324-8c2e-df1b53c325c5"},"geometry":{"type":"Polygon","coordinates":[[[135.61986267192125,35.40119379885203],[135.6202352760617,35.40120195203521],[135.62024457588376,35.40080843040124],[135.61987420564407,35.40076221583447],[135.61986267192125,35.40119379885203]]]}},{"type":"Feature","properties":{"pid":"3e1c7283-011e-4561-b38b-68befebb6de1"},"geometry":{"type":"Polygon","coordinates":[[[135.61732246279587,35.40022077505139],[135.61753289567235,35.400642801741405],[135.6178230595036,35.400559007056586],[135.61751112643083,35.39993336880557],[135.61746963521227,35.399978880011716],[135.61739755715942,35.400137040084935],[135.61732246279587,35.40022077505139]]]}},{"type":"Feature","properties":{"pid":"0adf6317-5b35-447b-8cd1-c2188f5429fd"},"geometry":{"type":"Polygon","coordinates":[[[135.6175830956454,35.40074435914257],[135.61764735707908,35.400875328704494],[135.6176835926814,35.400863002833766],[135.61768192639937,35.4008283199128],[135.61770448354537,35.40080476803949],[135.6179103454734,35.40073770234265],[135.61786882798106,35.40065134396106],[135.6175830956454,35.40074435914257]]]}},{"type":"Feature","properties":{"pid":"68ed0f3a-4e65-4ae0-82ea-e11c45f0c4fa"},"geometry":{"type":"Polygon","coordinates":[[[135.61710546283157,35.40090043593757],[135.617203682313,35.40108715523705],[135.6172350455336,35.40104676748401],[135.61730620759099,35.40100422172888],[135.61734491666147,35.40095050702016],[135.61747154653767,35.40089851271525],[135.617418819286,35.40079653145428],[135.61710546283157,35.40090043593757]]]}},{"type":"Feature","properties":{"pid":"b06fee9d-d66a-4301-be4f-f0e410c542d7"},"geometry":{"type":"Polygon","coordinates":[[[135.6190345491165,35.40081204188278],[135.61906264922004,35.40090436489993],[135.61919923504712,35.40117806168849],[135.619245097876,35.40118136991588],[135.61925282704814,35.4007541229879],[135.6190345491165,35.40081204188278]]]}},{"type":"Feature","properties":{"pid":"02bac4e4-3640-4e31-bcf2-39c8cabde61e"},"geometry":{"type":"Polygon","coordinates":[[[135.6194958669949,35.40073589322742],[135.61937750330816,35.40074365101132],[135.61936702919337,35.40118700056386],[135.61948815128537,35.401190317180024],[135.6194958669949,35.40073589322742]]]}},{"type":"Feature","properties":{"pid":"49e74bb8-d4ca-4900-bcb8-87af56583f9c"},"geometry":{"type":"Polygon","coordinates":[[[135.61961962137232,35.400739094204],[135.61961277440494,35.401192682084826],[135.6197397999873,35.40119372069551],[135.6197442536737,35.4007477581838],[135.61961962137232,35.400739094204]]]}},{"type":"Feature","properties":{"pid":"4ac61819-5faf-4489-9399-e1ea8c3624fb"},"geometry":{"type":"Polygon","coordinates":[[[135.61925012448688,35.401326415871125],[135.61930700659192,35.401549363308284],[135.61946068901568,35.40166467478604],[135.61947037179723,35.401329566209014],[135.61925012448688,35.401326415871125]]]}},{"type":"Feature","properties":{"pid":"b4e4fedb-bf4f-4737-8da9-8ab385ec2eed"},"geometry":{"type":"Polygon","coordinates":[[[135.61957951849723,35.40172927704274],[135.6197252618049,35.4017498963617],[135.61973642013953,35.40134069734745],[135.61958887376676,35.401338392007666],[135.61957951849723,35.40172927704274]]]}},{"type":"Feature","properties":{"pid":"9f590165-0d88-4d5e-81c6-13a1ee7700b0"},"geometry":{"type":"Polygon","coordinates":[[[135.62244293942587,35.400052092754635],[135.6223263530275,35.40013973901483],[135.62274784859977,35.400533942881],[135.62287043376298,35.400445643895125],[135.62244293942587,35.400052092754635]]]}},{"type":"Feature","properties":{"pid":"6939f599-4ba9-45ed-9e35-8935b9357e0f"},"geometry":{"type":"Polygon","coordinates":[[[135.62206198078647,35.400303217116324],[135.6224943026625,35.40070389787746],[135.62263769636616,35.400599255304],[135.62221960683405,35.40020331736836],[135.62206198078647,35.400303217116324]]]}},{"type":"Feature","properties":{"pid":"44fc4054-b20e-49be-b49e-7cd3141a2a0e"},"geometry":{"type":"Polygon","coordinates":[[[135.62296002837363,35.40038110422206],[135.62308489520814,35.400291148444246],[135.6226751508659,35.39990556369133],[135.62253753619513,35.39998670946439],[135.62296002837363,35.40038110422206]]]}},{"type":"Feature","properties":{"pid":"441978e2-b7a3-41e7-98e5-e318e8edd2b3"},"geometry":{"type":"Polygon","coordinates":[[[135.62278350636063,35.39985013830042],[135.62317984191841,35.40022037398972],[135.6233406260291,35.40010397863465],[135.6229703427657,35.39975807225043],[135.62278350636063,35.39985013830042]]]}},{"type":"Feature","properties":{"pid":"b90a670d-2757-4640-8e63-76655d619724"},"geometry":{"type":"Polygon","coordinates":[[[135.6006824092865,35.405782527956866],[135.60074769895482,35.405871688233226],[135.60098727355344,35.40577233248673],[135.6006824092865,35.405782527956866]]]}},{"type":"Feature","properties":{"pid":"7a795b59-85b5-4f9d-b577-8e4d1b66af41"},"geometry":{"type":"Polygon","coordinates":[[[135.60005629566427,35.40598443594701],[135.6001851483204,35.40614809305235],[135.60035441145797,35.406062002636524],[135.60021628074244,35.40587743815857],[135.60013222114168,35.40591982270275],[135.60005629566427,35.40598443594701]]]}},{"type":"Feature","properties":{"pid":"054bf509-0c26-4bf8-b1e4-cb9e8811f9e0"},"geometry":{"type":"Polygon","coordinates":[[[135.6003530805137,35.40583952328788],[135.60047084321477,35.406001005366235],[135.60063630773982,35.405922291677044],[135.6005457654734,35.40579238387578],[135.6003530805137,35.40583952328788]]]}},{"type":"Feature","properties":{"pid":"4863cef6-fd0e-493b-9527-ebcdc6c10c78"},"geometry":{"type":"Polygon","coordinates":[[[135.6008223110952,35.40663129964523],[135.60082002864132,35.40659642966247],[135.60084413940427,35.40656889949769],[135.60100610340837,35.40652958742148],[135.60095357497048,35.40635635395142],[135.60057093830545,35.406539790386674],[135.60070268255316,35.40664593882537],[135.6008223110952,35.40663129964523]]]}},{"type":"Feature","properties":{"pid":"11a010da-6e9b-470f-bb38-f42f9c4d893f"},"geometry":{"type":"Polygon","coordinates":[[[135.60036765451017,35.40635936335359],[135.60045061087573,35.40640464636138],[135.60095312292597,35.406175781136064],[135.6010458454702,35.40616612660307],[135.60101842691498,35.4060424694464],[135.60036765451017,35.40635936335359]]]}},{"type":"Feature","properties":{"pid":"863af603-32d7-44d2-9846-ad00362f8d13"},"geometry":{"type":"Polygon","coordinates":[[[135.60258700308665,35.4055455463158],[135.6026363963603,35.40582512846556],[135.60269720516885,35.40584918270771],[135.60279911251718,35.40567745014742],[135.60282459527062,35.40557966651734],[135.60283012855052,35.405471372400264],[135.60258700308665,35.4055455463158]]]}},{"type":"Feature","properties":{"pid":"19d804ab-acb4-4fcf-b772-153c703c2e9e"},"geometry":{"type":"Polygon","coordinates":[[[135.6022325401629,35.406013083949595],[135.60232789354617,35.4059681150568],[135.60226288170827,35.40559960427038],[135.60215875579405,35.405606233713925],[135.6022325401629,35.406013083949595]]]}},{"type":"Feature","properties":{"pid":"eeb801f6-42df-4d53-9758-a1c613db788a"},"geometry":{"type":"Polygon","coordinates":[[[135.60193032813783,35.40563175545583],[135.6019973363197,35.405965096194045],[135.60211688728904,35.4060329008841],[135.60204148260442,35.40561650984077],[135.60193032813783,35.40563175545583]]]}},{"type":"Feature","properties":{"pid":"baf71869-b398-4e76-b858-4280bd03884e"},"geometry":{"type":"Polygon","coordinates":[[[135.60227231950492,35.40494163322324],[135.6026036562499,35.40512493489847],[135.60274676635916,35.405089323882514],[135.60234651876434,35.404877853985305],[135.60227231950492,35.40494163322324]]]}},{"type":"Feature","properties":{"pid":"eeb72da4-7859-40a5-8f55-72bd0874eea7"},"geometry":{"type":"Polygon","coordinates":[[[135.60199321715243,35.40517432578261],[135.60216951925446,35.405182882468736],[135.60245051476988,35.405159990506036],[135.60218004980516,35.40501247450159],[135.60199321715243,35.40517432578261]]]}},{"type":"Feature","properties":{"pid":"359cda23-3269-45eb-9273-eb358afa7203"},"geometry":{"type":"Polygon","coordinates":[[[135.60253643034702,35.4046534799887],[135.60299777940395,35.404890678306195],[135.6030495366551,35.404807575258815],[135.60258855767844,35.40457373233836],[135.60253643034702,35.4046534799887]]]}},{"type":"Feature","properties":{"pid":"62df276f-8ef0-44c0-bcab-597d2aa28029"},"geometry":{"type":"Polygon","coordinates":[[[135.60242212651454,35.404798295913565],[135.60286814311092,35.40503253633664],[135.60293353196911,35.404971177033445],[135.60246823219865,35.40474261712652],[135.60242212651454,35.404798295913565]]]}},{"type":"Feature","properties":{"pid":"e2bc9e53-f046-4dbc-9926-2b01f0d2a69e"},"geometry":{"type":"Polygon","coordinates":[[[135.6026611412593,35.40444526112652],[135.60310248050305,35.40467007832785],[135.60310776230088,35.404574640993886],[135.60268145246542,35.40435199498456],[135.6026611412593,35.40444526112652]]]}},{"type":"Feature","properties":{"pid":"1b9cab06-a1da-4a3c-9e29-10e1d5e5d119"},"geometry":{"type":"Polygon","coordinates":[[[135.6026948617718,35.40423846873614],[135.60310534066224,35.40444969708558],[135.6030618099315,35.4043364967863],[135.60269717265624,35.40415112013909],[135.6026948617718,35.40423846873614]]]}},{"type":"Feature","properties":{"pid":"ab5f0166-b8c4-4291-b6a4-b84c3d764336"},"geometry":{"type":"Polygon","coordinates":[[[135.60298989424814,35.40418222305484],[135.60283899286281,35.40399734142959],[135.60278203970552,35.403953098789884],[135.60268148380834,35.40391110216306],[135.602689009706,35.40403249392883],[135.60298989424814,35.40418222305484]]]}},{"type":"Feature","properties":{"pid":"cdf805f8-c65e-4272-867c-9df549981c03"},"geometry":{"type":"Polygon","coordinates":[[[135.60824188708068,35.401900705171144],[135.6082882491412,35.401855480631795],[135.60838696419202,35.40179048875282],[135.6082292476135,35.40182066735003],[135.60824188708068,35.401900705171144]]]}},{"type":"Feature","properties":{"pid":"9e7c161e-3994-4185-a474-c534dbbb8226"},"geometry":{"type":"Polygon","coordinates":[[[135.60756412785747,35.40195371779257],[135.60767197507707,35.40203588807068],[135.60797627209,35.40196561978652],[135.6079610901797,35.40187533157521],[135.60756412785747,35.40195371779257]]]}},{"type":"Feature","properties":{"pid":"15df7572-ad42-4002-ae2d-5d621da779ff"},"geometry":{"type":"Polygon","coordinates":[[[135.6078241185843,35.40210246647259],[135.60790703732602,35.40215812741497],[135.6079957366191,35.402063219668875],[135.6079956314673,35.402062812668945],[135.6078241185843,35.40210246647259]]]}},{"type":"Feature","properties":{"pid":"a7e2b9ef-7c2d-46b4-98e6-8d0ef31af69b"},"geometry":{"type":"Polygon","coordinates":[[[135.607077950791,35.40241561361966],[135.6071626247499,35.402462230776614],[135.6072745910128,35.40241086683358],[135.60733111678448,35.40236410641478],[135.607077950791,35.40241561361966]]]}},{"type":"Feature","properties":{"pid":"78500155-3ce3-4aa3-a5ae-0bf5c4e54b58"},"geometry":{"type":"Polygon","coordinates":[[[135.60720402779526,35.402262843961225],[135.60741289105144,35.40222566139486],[135.60734084110268,35.40200495814235],[135.60715696383664,35.4020404512272],[135.60720402779526,35.402262843961225]]]}},{"type":"Feature","properties":{"pid":"8352edd0-399d-4c55-bbf8-bf79c8359c25"},"geometry":{"type":"Polygon","coordinates":[[[135.60683880897966,35.401339327669376],[135.6068916129883,35.4015708347346],[135.60722801486548,35.40150454508134],[135.60715915689113,35.401270386848864],[135.60683880897966,35.401339327669376]]]}},{"type":"Feature","properties":{"pid":"15787962-c1d1-4a67-9535-7a7d25315505"},"geometry":{"type":"Polygon","coordinates":[[[135.60727907206686,35.40124481762282],[135.60734495947858,35.40148197033818],[135.60783438458014,35.401382244096084],[135.60777228849042,35.40114564523102],[135.60727907206686,35.40124481762282]]]}},{"type":"Feature","properties":{"pid":"137da309-7f22-427a-88b1-120e73a2a766"},"geometry":{"type":"Polygon","coordinates":[[[135.6079459670977,35.40135607042468],[135.60811706738727,35.40132211559868],[135.60804539440338,35.40109063177793],[135.6078870309529,35.401123654619155],[135.6079459670977,35.40135607042468]]]}},{"type":"Feature","properties":{"pid":"181e6049-bb5d-4ef0-be46-9b65c050611f"},"geometry":{"type":"Polygon","coordinates":[[[135.60799400532497,35.40096553627866],[135.60802029263692,35.40096037294516],[135.6079501046803,35.40072828643949],[135.60792684915825,35.4007329960077],[135.60799400532497,35.40096553627866]]]}},{"type":"Feature","properties":{"pid":"baaa165f-47ed-4564-b23b-deb58170e6bd"},"geometry":{"type":"Polygon","coordinates":[[[135.60813745446242,35.400936641175754],[135.60818206977936,35.400927373073316],[135.60811323172805,35.40069538699785],[135.60806800574568,35.40070448951992],[135.60813745446242,35.400936641175754]]]}},{"type":"Feature","properties":{"pid":"b3c65268-e967-4eb2-bf96-6a120fb9d903"},"geometry":{"type":"Polygon","coordinates":[[[135.60743232853235,35.40108300086765],[135.60787520977945,35.40098945201814],[135.60781102623494,35.40076095960268],[135.60735906061728,35.40084629289341],[135.60743232853235,35.40108300086765]]]}},{"type":"Feature","properties":{"pid":"d3019fe2-4a8f-41b7-bb44-4362d67f4ef9"},"geometry":{"type":"Polygon","coordinates":[[[135.60784718482046,35.39985683563439],[135.60792998702382,35.40002090342528],[135.60796743522565,35.40000742137979],[135.6078851258329,35.399843373001396],[135.60784718482046,35.39985683563439]]]}},{"type":"Feature","properties":{"pid":"44c96f63-db4a-404c-8f18-08555ed7d1f5"},"geometry":{"type":"Polygon","coordinates":[[[135.6083947849568,35.40065222441224],[135.60841947566243,35.400723083347984],[135.60874203414622,35.40066146375999],[135.60872287771815,35.400589782247444],[135.6083947849568,35.40065222441224]]]}},{"type":"Feature","properties":{"pid":"849177d5-7a57-463d-8ce8-f6286c44c3b3"},"geometry":{"type":"Polygon","coordinates":[[[135.60832767570173,35.400431676836654],[135.60836221421022,35.400554479910966],[135.60869690666712,35.40049357387113],[135.608662856526,35.4003685159827],[135.60832767570173,35.400431676836654]]]}},{"type":"Feature","properties":{"pid":"81341ab7-0e3f-41c4-a604-f0788527ceec"},"geometry":{"type":"Polygon","coordinates":[[[135.6082954372887,35.40026701967032],[135.60830804158746,35.40033135447359],[135.60863590781372,35.40027065427538],[135.60861804136152,35.40020637320744],[135.6082954372887,35.40026701967032]]]}},{"type":"Feature","properties":{"pid":"1b853808-f137-456e-8b1f-ff997b7fe5d3"},"geometry":{"type":"Polygon","coordinates":[[[135.60832164462093,35.40015766809861],[135.60858891622044,35.40010159773993],[135.608558240661,35.39999125989207],[135.60847141816552,35.400012799962475],[135.60832164462093,35.40015766809861]]]}},{"type":"Feature","properties":{"pid":"cf51c576-9e16-43f1-897b-33cafa77dfd7"},"geometry":{"type":"Polygon","coordinates":[[[135.60909073136764,35.400186591773135],[135.60904983511273,35.40003667810705],[135.60874227515532,35.40011614328432],[135.6087753348918,35.4002475263165],[135.60909073136764,35.400186591773135]]]}},{"type":"Feature","properties":{"pid":"c4be5145-eea1-435c-a2be-515f624b99d0"},"geometry":{"type":"Polygon","coordinates":[[[135.60918824218135,35.39998323774888],[135.60922951005793,35.40012983673852],[135.60955475854277,35.400071972480376],[135.60951297702212,35.39991549724242],[135.60918824218135,35.39998323774888]]]}},{"type":"Feature","properties":{"pid":"7ec1ad7d-861f-4491-a1ba-9f5c8c23ca65"},"geometry":{"type":"Polygon","coordinates":[[[135.60960338111695,35.40030102479419],[135.60956605755499,35.40017086262259],[135.60925658303915,35.40022723800697],[135.60929271103717,35.40035925051997],[135.60960338111695,35.40030102479419]]]}},{"type":"Feature","properties":{"pid":"c6e2623e-52c8-4cf1-b205-37326d8b52e8"},"geometry":{"type":"Polygon","coordinates":[[[135.60931871264995,35.40045394476534],[135.60935033652504,35.40056877294097],[135.60965943724688,35.400510623037654],[135.6096293321434,35.40039587829624],[135.60931871264995,35.40045394476534]]]}},{"type":"Feature","properties":{"pid":"1a82bbe9-3c14-495b-b173-daf932a18c19"},"geometry":{"type":"Polygon","coordinates":[[[135.6088005545156,35.400341829321555],[135.60883412276877,35.400460946770366],[135.6091509829508,35.400401520130984],[135.60911703392608,35.400281241309074],[135.6088005545156,35.400341829321555]]]}},{"type":"Feature","properties":{"pid":"d894e847-7fa2-4561-8ec7-f0afd6770f75"},"geometry":{"type":"Polygon","coordinates":[[[135.60886117893386,35.40055693726389],[135.60886809508264,35.400581467774956],[135.60918346308569,35.400521788243125],[135.60917678150594,35.40049622460545],[135.60886117893386,35.40055693726389]]]}},{"type":"Feature","properties":{"pid":"53548780-3e34-43ba-8bc1-7f05be62da25"},"geometry":{"type":"Polygon","coordinates":[[[135.6092972115712,35.40093139907842],[135.60898166931406,35.40098887431759],[135.6090182899834,35.401115081754035],[135.60932617798744,35.40103477116592],[135.6092972115712,35.40093139907842]]]}},{"type":"Feature","properties":{"pid":"210fb471-eb72-42a7-81fe-ad9a4fd919f7"},"geometry":{"type":"Polygon","coordinates":[[[135.60889567435015,35.40068012464904],[135.60895464361093,35.400893334547455],[135.60927046259755,35.40083593915498],[135.6092101626709,35.40062074194075],[135.60889567435015,35.40068012464904]]]}},{"type":"Feature","properties":{"pid":"8228878a-b000-4aaf-b07f-1d9968d40bfc"},"geometry":{"type":"Polygon","coordinates":[[[135.60845530411103,35.40082367489517],[135.6085062035372,35.40089480579802],[135.60853170010733,35.40097818557943],[135.60881633026673,35.40092762801479],[135.6087697796068,35.40076277265657],[135.60845530411103,35.40082367489517]]]}},{"type":"Feature","properties":{"pid":"e17b0290-04fa-4626-b2f5-450b62117a86"},"geometry":{"type":"Polygon","coordinates":[[[135.60817530302052,35.4010642341306],[135.60824391588014,35.40129625336922],[135.60842449013336,35.40125938151352],[135.60835730485707,35.401027681444575],[135.60817530302052,35.4010642341306]]]}},{"type":"Feature","properties":{"pid":"35b98f52-7355-4081-9a6a-51cd049cb778"},"geometry":{"type":"Polygon","coordinates":[[[135.60856055129761,35.40107594975752],[135.6086005916592,35.40120924854862],[135.60887923102285,35.40114927287288],[135.60884303767114,35.40102334072153],[135.60856055129761,35.40107594975752]]]}},{"type":"Feature","properties":{"pid":"2b04a9a0-b549-4de2-8ebf-ba0a9bec4e15"},"geometry":{"type":"Polygon","coordinates":[[[135.60943842103967,35.40084415731972],[135.60946304699843,35.40095128856658],[135.6094740223242,35.40095255005224],[135.60967837139833,35.40080140863213],[135.60943842103967,35.40084415731972]]]}},{"type":"Feature","properties":{"pid":"c5e6b31d-dee1-49db-a24a-f03cee3eb510"},"geometry":{"type":"Polygon","coordinates":[[[135.6098681713478,35.40057686766884],[135.6097402240876,35.400601185289545],[135.60938014600092,35.40066841133181],[135.60940766599697,35.40075210933636],[135.60979866886495,35.40068032217907],[135.6098681713478,35.40057686766884]]]}},{"type":"Feature","properties":{"pid":"3bfa8ce3-323f-471b-9b68-fa6c2aea91ec"},"geometry":{"type":"Polygon","coordinates":[[[135.60965269635213,35.3999197926155],[135.6097066236368,35.40011704731762],[135.6099024897949,35.40007967403078],[135.6098599752279,35.39994132345588],[135.60965269635213,35.3999197926155]]]}},{"type":"Feature","properties":{"pid":"f62ea359-8517-405a-91f2-47409fbde96a"},"geometry":{"type":"Polygon","coordinates":[[[135.60998937616537,35.39994722006065],[135.61001954340446,35.400056974634275],[135.6101722434803,35.40002568682461],[135.610196275837,35.39998853981868],[135.61019126547978,35.3999614638246],[135.60998937616537,35.39994722006065]]]}},{"type":"Feature","properties":{"pid":"d7b808f6-a256-405f-8bb1-5379428549ea"},"geometry":{"type":"Polygon","coordinates":[[[135.60973341950208,35.40021224589855],[135.60976664505878,35.40033480596689],[135.61000663382535,35.40028860067016],[135.6100546236665,35.40021850172597],[135.61003386020255,35.40015664008565],[135.60973341950208,35.40021224589855]]]}},{"type":"Feature","properties":{"pid":"f0b2f9f9-2cd8-4543-9525-59730ab0823d"},"geometry":{"type":"Polygon","coordinates":[[[135.61615319328277,35.401351241475595],[135.61654169755883,35.40122212858771],[135.6164801189367,35.40109530858805],[135.61608934979668,35.40122626456289],[135.61615319328277,35.401351241475595]]]}},{"type":"Feature","properties":{"pid":"3df83ce1-ff46-4e9e-a2af-3bf54384ca92"},"geometry":{"type":"Polygon","coordinates":[[[135.6161997189574,35.40144264447092],[135.61623817942245,35.40149697581178],[135.61630701508068,35.40150437833009],[135.6166605225815,35.401464588588254],[135.6165874034181,35.401315406095286],[135.6161997189574,35.40144264447092]]]}},{"type":"Feature","properties":{"pid":"82ce977e-cbca-40ef-83ff-17f9647e3983"},"geometry":{"type":"Polygon","coordinates":[[[135.61694078826557,35.401507957153285],[135.6171773386964,35.40155931900108],[135.61719677430327,35.401423932658524],[135.61694078826557,35.401507957153285]]]}},{"type":"Feature","properties":{"pid":"271fdcd3-68a1-47ea-b9ec-5b4df791bfa7"},"geometry":{"type":"Polygon","coordinates":[[[135.61676071219213,35.40129056394242],[135.61682334122705,35.40141695292913],[135.6171391557419,35.40131419241839],[135.61707803835222,35.40118667085582],[135.61676071219213,35.40129056394242]]]}},{"type":"Feature","properties":{"pid":"42d24411-d85d-4ea0-a2a4-4ba83d26db67"},"geometry":{"type":"Polygon","coordinates":[[[135.61665109385078,35.40104953200193],[135.61671533834203,35.40119970060357],[135.61703368021918,35.40109557601174],[135.61695880191593,35.400944616585605],[135.61665109385078,35.40104953200193]]]}},{"type":"Feature","properties":{"pid":"a8adb53e-406d-42c4-a3ac-74a01fd8d072"},"geometry":{"type":"Polygon","coordinates":[[[135.6167819787297,35.400588599733176],[135.61671860480217,35.40062797410813],[135.61647744398573,35.400713222224354],[135.61659750563308,35.400960543960856],[135.61691506155975,35.400856496898726],[135.6167819787297,35.400588599733176]]]}},{"type":"Feature","properties":{"pid":"02549882-8528-43ef-ab60-8d09c708ec83"},"geometry":{"type":"Polygon","coordinates":[[[135.6159888885619,35.40102019308205],[135.61604246432458,35.40113143283712],[135.61643486978343,35.401003094876536],[135.61632238072565,35.40077585119509],[135.61604889895983,35.400942668575865],[135.6159888885619,35.40102019308205]]]}},{"type":"Feature","properties":{"pid":"e9fdba53-4d57-4984-a239-bba9db58524c"},"geometry":{"type":"Polygon","coordinates":[[[135.61690557588253,35.400500123291344],[135.61701631278345,35.400724621014156],[135.6173307557695,35.400620230087654],[135.61722159549956,35.40039763898316],[135.61690557588253,35.400500123291344]]]}},{"type":"Feature","properties":{"pid":"58c724be-ef2e-43dc-a130-8c8ab73a34e8"},"geometry":{"type":"Polygon","coordinates":[[[135.61214351376802,35.39867243065915],[135.6125579323741,35.398602765236106],[135.61301694859262,35.39836389861146],[135.61312760442993,35.39828893823851],[135.61304787950903,35.398160946340965],[135.613074280565,35.39804898667606],[135.6129131245529,35.39783596419581],[135.61265863784072,35.398016062050225],[135.61214351376802,35.39867243065915]]]}},{"type":"Feature","properties":{"pid":"456824ed-97b1-42e1-9101-b4befcca0eaf"},"geometry":{"type":"Polygon","coordinates":[[[135.61449751171295,35.3985071082183],[135.61453195136977,35.39868154262262],[135.61457023608136,35.39867679845897],[135.61453176869824,35.39848961561433],[135.61449751171295,35.3985071082183]]]}},{"type":"Feature","properties":{"pid":"5ecbcc8b-94b4-469f-9075-f159f8cb70f3"},"geometry":{"type":"Polygon","coordinates":[[[135.61636680810702,35.398452615457],[135.61639859784506,35.398475659216786],[135.6164125162616,35.39853847658233],[135.6165639847035,35.398574513325535],[135.61654181993043,35.39847910735274],[135.6163568027637,35.39840821295798],[135.61636680810702,35.398452615457]]]}},{"type":"Feature","properties":{"pid":"dc668936-aa40-416a-9c40-3429fb0f3dcf"},"geometry":{"type":"Polygon","coordinates":[[[135.61602437784495,35.398278444849794],[135.61605392720338,35.39842400764605],[135.61610668401406,35.39849935083844],[135.61606153427266,35.39829339378869],[135.61602437784495,35.398278444849794]]]}},{"type":"Feature","properties":{"pid":"42617592-3a94-4849-b620-a9878a3db986"},"geometry":{"type":"Polygon","coordinates":[[[135.61561452269976,35.39852987814],[135.61563952336277,35.39852614834443],[135.61556623373264,35.398221762995185],[135.61554296546794,35.39822128627869],[135.61561452269976,35.39852987814]]]}},{"type":"Feature","properties":{"pid":"e5d8b387-4cea-4206-b715-641882747ac3"},"geometry":{"type":"Polygon","coordinates":[[[135.61539243486126,35.39822261786775],[135.61545401076418,35.39855420297086],[135.6154969205984,35.39854736825582],[135.61542396975426,35.3982209469735],[135.61539243486126,35.39822261786775]]]}},{"type":"Feature","properties":{"pid":"426fb4c4-70a6-45a7-98ca-04e1020be3f6"},"geometry":{"type":"Polygon","coordinates":[[[135.61584123219893,35.39823996199971],[135.61589390218379,35.39849343433219],[135.61594387702863,35.398492772065715],[135.61589131354313,35.3982492280394],[135.61584123219893,35.39823996199971]]]}},{"type":"Feature","properties":{"pid":"e060986b-a383-485f-947f-64e51fdcf6fc"},"geometry":{"type":"Polygon","coordinates":[[[135.61467760511349,35.39842355495904],[135.6146438104194,35.39844015649628],[135.6146890152139,35.39865819879999],[135.614725559434,35.39865357841421],[135.61467760511349,35.39842355495904]]]}},{"type":"Feature","properties":{"pid":"16aae25d-c5f9-4455-8d4a-db717e9b535a"},"geometry":{"type":"Polygon","coordinates":[[[135.61500417256022,35.39862018756384],[135.61503232271727,35.39858538225356],[135.61497127762522,35.39830031201191],[135.6149407854358,35.398310511854774],[135.61500417256022,35.39862018756384]]]}},{"type":"Feature","properties":{"pid":"dfdce0c1-bfc4-476c-a1f0-80ee7d6819e6"},"geometry":{"type":"Polygon","coordinates":[[[135.6148517679462,35.398640280593796],[135.61488811581071,35.39863608252987],[135.61482695600358,35.39835553906722],[135.61478912631725,35.3983716451488],[135.6148380919307,35.39862651799474],[135.6148517679462,35.398640280593796]]]}},{"type":"Feature","properties":{"pid":"c48c3cb8-f467-4c46-90f4-48bf62305f9c"},"geometry":{"type":"Polygon","coordinates":[[[135.61515729910698,35.398599324150986],[135.61519431829186,35.39859336007345],[135.61512479120344,35.398262545063005],[135.61508916243133,35.398270360791365],[135.61515729910698,35.398599324150986]]]}},{"type":"Feature","properties":{"pid":"14166349-3af0-480e-9a24-e3c23bcf4204"},"geometry":{"type":"Polygon","coordinates":[[[135.6153111603311,35.39857474094085],[135.61533190958696,35.398533079607326],[135.61527147141567,35.39823654116791],[135.61524073187016,35.39824090911899],[135.6153111603311,35.39857474094085]]]}},{"type":"Feature","properties":{"pid":"194dcf72-7e03-4259-a3dc-b5f7021683bf"},"geometry":{"type":"Polygon","coordinates":[[[135.60916853020905,35.39834704117465],[135.60911755001595,35.39840976568437],[135.60943385716558,35.398577346603034],[135.60947326228333,35.39856753186901],[135.6095051572299,35.398435663458464],[135.60916853020905,35.39834704117465]]]}},{"type":"Feature","properties":{"pid":"7d9a90dd-4b44-4f03-a6cb-abf09dd9b84d"},"geometry":{"type":"Polygon","coordinates":[[[135.60909375634407,35.39898303038424],[135.60880391438343,35.398813268721085],[135.60870962089348,35.398946766248905],[135.60890307539293,35.39906678646286],[135.60894505228677,35.39907317657341],[135.60909375634407,35.39898303038424]]]}},{"type":"Feature","properties":{"pid":"73167958-0db0-4c5d-b81b-8c9bd917bdde"},"geometry":{"type":"Polygon","coordinates":[[[135.60891342961548,35.39865822013018],[135.6088659375089,35.39872545870475],[135.60917260929315,35.39890425431147],[135.6092416994425,35.39882637089034],[135.60891342961548,35.39865822013018]]]}},{"type":"Feature","properties":{"pid":"f65b8c78-842f-40da-b2ec-9505db6a358c"},"geometry":{"type":"Polygon","coordinates":[[[135.60942599470073,35.39880043327168],[135.6094444574005,35.39869937053704],[135.60903199101105,35.39849317012342],[135.6089654958231,35.3985687373614],[135.60942599470073,35.39880043327168]]]}},{"type":"Feature","properties":{"pid":"7acf8616-9210-4e84-8806-a63e4b39137d"},"geometry":{"type":"Polygon","coordinates":[[[135.6084083713861,35.39988059208586],[135.60843437267556,35.39990332457221],[135.6087313452466,35.399829741290134],[135.60868074302218,35.39967233150876],[135.6084083713861,35.39988059208586]]]}},{"type":"Feature","properties":{"pid":"5c7f79f5-8842-4c87-ba17-eaf8231c7dbd"},"geometry":{"type":"Polygon","coordinates":[[[135.60836288644856,35.399411460858026],[135.6083198671076,35.399426497346134],[135.6083756426771,35.399535848725485],[135.60841611231308,35.39952171639972],[135.60836288644856,35.399411460858026]]]}},{"type":"Feature","properties":{"pid":"0fa434a7-edb1-4587-9ce3-0a8421ccbb33"},"geometry":{"type":"Polygon","coordinates":[[[135.608570338593,35.39920040974563],[135.608665011126,35.399175686954266],[135.6087139705127,35.399113427977774],[135.6086263585225,35.39905889463469],[135.60856794174222,35.39915425409999],[135.608570338593,35.39920040974563]]]}},{"type":"Feature","properties":{"pid":"681f11f2-3b46-430d-bf8e-133d05326750"},"geometry":{"type":"Polygon","coordinates":[[[135.6077829383848,35.39973439787495],[135.60782701747303,35.39971948350325],[135.60775125254068,35.39957060998258],[135.607711538982,35.39958891479739],[135.6077829383848,35.39973439787495]]]}},{"type":"Feature","properties":{"pid":"7bbb3483-3ada-4de0-9082-52bf6d405a18"},"geometry":{"type":"Polygon","coordinates":[[[135.6079371943443,35.39968222028344],[135.6079654322967,35.3996726731692],[135.60788961999904,35.399516777772824],[135.6078571969623,35.399528018823055],[135.6079371943443,35.39968222028344]]]}},{"type":"Feature","properties":{"pid":"afbac34a-b4ed-432f-8f63-44dafc05c673"},"geometry":{"type":"Polygon","coordinates":[[[135.60760841258167,35.39963693990154],[135.60757028536617,35.399654859289946],[135.60763552448253,35.399784784027155],[135.6076756269568,35.39977099070519],[135.60760841258167,35.39963693990154]]]}},{"type":"Feature","properties":{"pid":"de44f808-58e4-44e6-9106-c3eccfb00683"},"geometry":{"type":"Polygon","coordinates":[[[135.6083733519608,35.39676881311486],[135.60841308538224,35.39677541750036],[135.60848605454981,35.39659317673551],[135.60845528747825,35.396568479191686],[135.6083733519608,35.39676881311486]]]}},{"type":"Feature","properties":{"pid":"a734ddc2-1ad6-4991-b483-07a645ad353f"},"geometry":{"type":"Polygon","coordinates":[[[135.60822510418473,35.39674632444878],[135.60825631615856,35.39675231454467],[135.60835900637966,35.39649177996256],[135.6083321936156,35.396468069544795],[135.60822510418473,35.39674632444878]]]}},{"type":"Feature","properties":{"pid":"0ca24b86-e873-49f8-9183-926ae925fd8b"},"geometry":{"type":"Polygon","coordinates":[[[135.6080522226163,35.39634011515766],[135.60791224175952,35.39669295874768],[135.6079494997812,35.39669915286124],[135.60807227058413,35.39634549345511],[135.6080522226163,35.39634011515766]]]}},{"type":"Feature","properties":{"pid":"ea17c182-37cb-485a-a67f-8408d6d2488a"},"geometry":{"type":"Polygon","coordinates":[[[135.60775465989016,35.396382563525925],[135.60770041909367,35.39639833351114],[135.60762571283675,35.39662979298955],[135.60765404868044,35.39662841332414],[135.60775465989016,35.396382563525925]]]}},{"type":"Feature","properties":{"pid":"4883fb3e-fa6e-4c2b-b795-7a386fb88001"},"geometry":{"type":"Polygon","coordinates":[[[135.6077612454259,35.396662450380994],[135.60779813962145,35.396670041091156],[135.60792952972142,35.39634253889351],[135.60789039212872,35.39634886340866],[135.6077612454259,35.396662450380994]]]}},{"type":"Feature","properties":{"pid":"26433372-7dc4-4931-a3a0-89a4d7c6e3ea"},"geometry":{"type":"Polygon","coordinates":[[[135.6080649597165,35.39671923843431],[135.6081089230892,35.39672606929657],[135.60823370548178,35.39639951129123],[135.60818681943144,35.39638488922834],[135.6080649597165,35.39671923843431]]]}},{"type":"Feature","properties":{"pid":"3ecd3312-5ced-4a69-883f-4ab7fba4adfb"},"geometry":{"type":"Polygon","coordinates":[[[135.6043238587536,35.3981027747913],[135.60444355400162,35.397936298438935],[135.60409844779414,35.397901299860315],[135.6038876183191,35.397899793292396],[135.60387245321985,35.398052369862555],[135.60397661757762,35.398043712818136],[135.60417745315283,35.39806327941614],[135.6043238587536,35.3981027747913]]]}},{"type":"Feature","properties":{"pid":"74fa7dd8-ff92-4050-8897-835e649ff2bb"},"geometry":{"type":"Polygon","coordinates":[[[135.60673842348925,35.40143397903359],[135.60656150220888,35.40161709188014],[135.60656630203505,35.40164229751312],[135.6067759369284,35.40159663545153],[135.60673842348925,35.40143397903359]]]}},{"type":"Feature","properties":{"pid":"ead5b151-7e99-42ef-8470-91ae1a18cc48"},"geometry":{"type":"Polygon","coordinates":[[[135.60621403060966,35.4022353299279],[135.60591115661845,35.40229922045286],[135.6059650933111,35.402510346382805],[135.60626912188476,35.40244744975719],[135.60621403060966,35.4022353299279]]]}},{"type":"Feature","properties":{"pid":"3e1ccb94-6531-4e40-8eee-76dbfd905677"},"geometry":{"type":"Polygon","coordinates":[[[135.6063846252212,35.40242612585614],[135.60658076222592,35.4023886069137],[135.60654030282652,35.402165493929154],[135.60633019338988,35.40221017092165],[135.6063846252212,35.40242612585614]]]}},{"type":"Feature","properties":{"pid":"4063d57d-92df-4182-b156-b1ac9794b5c5"},"geometry":{"type":"Polygon","coordinates":[[[135.60703994249664,35.40206301499623],[135.60685705243674,35.40209853898784],[135.6068887638315,35.40232289909818],[135.60708678022795,35.402284651740715],[135.60703994249664,35.40206301499623]]]}},{"type":"Feature","properties":{"pid":"480cd473-2600-4b5e-955b-cf37cae62d5f"},"geometry":{"type":"Polygon","coordinates":[[[135.60608654715222,35.402612279724046],[135.6064058907776,35.40260915874436],[135.6064052654446,35.40254496317559],[135.60608654715222,35.402612279724046]]]}},{"type":"Feature","properties":{"pid":"bc2be148-04cd-4361-ab59-3bcdcdc13f0d"},"geometry":{"type":"Polygon","coordinates":[[[135.60462269305094,35.402257039470086],[135.60521799317414,35.40267249012102],[135.60545900038184,35.40280133001722],[135.60556120995727,35.40256972203436],[135.6055970150315,35.40255182859227],[135.6056613448648,35.4025529809212],[135.605622568597,35.40237363899669],[135.60544131926906,35.40239205809005],[135.60522570411297,35.40238388538948],[135.60497230636787,35.40234377032732],[135.604642958183,35.4022220359695],[135.60462269305094,35.402257039470086]]]}},{"type":"Feature","properties":{"pid":"4022e6ec-5dc1-4b0b-ac79-ad097b949bd6"},"geometry":{"type":"Polygon","coordinates":[[[135.60096372913796,35.398036373724466],[135.60099662671973,35.39803886814674],[135.60104110029062,35.3976209410839],[135.60099945395945,35.397604132387606],[135.60096372913796,35.398036373724466]]]}},{"type":"Feature","properties":{"pid":"d430f827-4bb3-4660-853e-759ce1afb714"},"geometry":{"type":"Polygon","coordinates":[[[135.60112312242177,35.398037853400375],[135.60114156888943,35.39803774684643],[135.60119303844053,35.39767402645087],[135.6011596691595,35.397662564504756],[135.60112312242177,35.398037853400375]]]}},{"type":"Feature","properties":{"pid":"11206e1e-c0bc-45a9-a8c5-91fe5ef957ad"},"geometry":{"type":"Polygon","coordinates":[[[135.60126791199426,35.39802468093935],[135.60129803600927,35.39802147316766],[135.601330917094,35.397741556977465],[135.60130685507886,35.39773548619182],[135.60126791199426,35.39802468093935]]]}},{"type":"Feature","properties":{"pid":"d9f40d2f-1283-47cc-a9ba-527223a2aa03"},"geometry":{"type":"Polygon","coordinates":[[[135.6014226968957,35.39801013540745],[135.6014570872238,35.39799835359868],[135.60148510512406,35.397777924805325],[135.60144901087378,35.39776840986945],[135.6014226968957,35.39801013540745]]]}},{"type":"Feature","properties":{"pid":"c6c948e4-d540-4267-a9e5-2a1cb9b4f9ca"},"geometry":{"type":"Polygon","coordinates":[[[135.6015842400208,35.39795120857661],[135.6017109809351,35.397894059127445],[135.60172226773818,35.39780739590552],[135.6016030925708,35.39779725083809],[135.6015842400208,35.39795120857661]]]}}]}