{"type":"FeatureCollection","features":[{"type":"Feature","properties":{"pid":"0a4ae267-e387-4a8a-8625-1ca190ef1221"},"geometry":{"type":"Polygon","coordinates":[[[136.01557021708155,35.95701882254357],[136.01567406444454,35.95705942877866],[136.01570983226432,35.95696009725983],[136.01584393490947,35.95674637639179],[136.01579341732463,35.95671599761237],[136.01570645197043,35.95692187228273],[136.0156321434778,35.956995678655716],[136.01557021708155,35.95701882254357]]]}},{"type":"Feature","properties":{"pid":"149e3366-287b-47c3-96bf-b838073ef163"},"geometry":{"type":"Polygon","coordinates":[[[136.01832684618597,35.954989917979816],[136.01850422259562,35.95494266100614],[136.01851898349443,35.95486003807522],[136.01840084375428,35.95492474906739],[136.01832946992172,35.954945467716755],[136.01831208241745,35.95496527941246],[136.01832684618597,35.954989917979816]]]}},{"type":"Feature","properties":{"pid":"14fac3bc-b2de-46f7-8140-6bcb2eb4ac42"},"geometry":{"type":"Polygon","coordinates":[[[136.01873129421804,35.954980407066394],[136.01885632545637,35.95502885164668],[136.01892941111754,35.95493222962678],[136.0187638393492,35.954921447754124],[136.0187235437889,35.95494358949031],[136.01873129421804,35.954980407066394]]]}},{"type":"Feature","properties":{"pid":"c1b18ea2-7070-40be-9999-823a212793f4"},"geometry":{"type":"Polygon","coordinates":[[[136.02128365272984,35.95456739175119],[136.02139802666952,35.95459100427186],[136.02146494350424,35.95440864790153],[136.0213493967963,35.9543409465083],[136.02128365272984,35.95456739175119]]]}},{"type":"Feature","properties":{"pid":"2c200292-5c01-462f-9bb1-a945e81da506"},"geometry":{"type":"Polygon","coordinates":[[[136.02106843657467,35.954525752350754],[136.02113817314245,35.9545333296317],[136.02121559573519,35.954273309461364],[136.02115974466307,35.95424533938155],[136.02106843657467,35.954525752350754]]]}},{"type":"Feature","properties":{"pid":"11851a08-f6b5-4f14-b174-378c50328af8"},"geometry":{"type":"Polygon","coordinates":[[[136.02091939119998,35.95448782608071],[136.0209376917369,35.95449063787923],[136.0210385421768,35.95417946048388],[136.02101952140666,35.95416778778483],[136.02091939119998,35.95448782608071]]]}},{"type":"Feature","properties":{"pid":"f0f7b6e4-6b4e-46ed-87d3-15145a70d170"},"geometry":{"type":"Polygon","coordinates":[[[136.0206794263374,35.95427499288582],[136.02064639269597,35.95441926535167],[136.02072714345607,35.95445047212656],[136.02077581593383,35.954288315492285],[136.0206794263374,35.95427499288582]]]}},{"type":"Feature","properties":{"pid":"0ccfb827-a505-43e8-91b2-d9ce6ec56268"},"geometry":{"type":"Polygon","coordinates":[[[136.020038215363,35.95444228886431],[136.02006575241782,35.954456841978775],[136.02026340410183,35.95440594219728],[136.0203021332075,35.95417729462021],[136.02028938257982,35.954152001434785],[136.02018292355598,35.954150867532896],[136.020038215363,35.95444228886431]]]}},{"type":"Feature","properties":{"pid":"bca548f9-beaa-4662-92ea-5f6cd5331271"},"geometry":{"type":"Polygon","coordinates":[[[136.02003977493487,35.95409839472437],[136.01982810584286,35.95446477414164],[136.0198822812034,35.954476123422005],[136.02005450128723,35.95410238318095],[136.02003977493487,35.95409839472437]]]}},{"type":"Feature","properties":{"pid":"d002906c-e711-4eae-b4f4-bee5bd63684b"},"geometry":{"type":"Polygon","coordinates":[[[136.01963898193227,35.95454248090623],[136.01989039450288,35.9540951546635],[136.0198961635821,35.95408426929669],[136.01980120139498,35.95411039404558],[136.0196241495988,35.95452123575658],[136.01963898193227,35.95454248090623]]]}},{"type":"Feature","properties":{"pid":"34327048-238d-433e-b017-5c8556c76f7c"},"geometry":{"type":"Polygon","coordinates":[[[136.01935150416546,35.95482651737971],[136.01937598285215,35.95489200939777],[136.0194365118327,35.95486122025654],[136.0194938179994,35.95479441723642],[136.01943072465664,35.95475603852956],[136.01935150416546,35.95482651737971]]]}},{"type":"Feature","properties":{"pid":"77fe20ca-4f29-4fe1-8154-4ba56488e465"},"geometry":{"type":"Polygon","coordinates":[[[136.01921896125174,35.95508086519578],[136.01907939706584,35.955028193097355],[136.0190165297948,35.95511597990418],[136.01910990740973,35.95516910258732],[136.01919184656094,35.95517037336553],[136.0192065305771,35.95516269509784],[136.01921896125174,35.95508086519578]]]}},{"type":"Feature","properties":{"pid":"1489f0cc-6de5-4067-8eed-1a171c2436ad"},"geometry":{"type":"Polygon","coordinates":[[[136.01911128915933,35.954180580704616],[136.01918915321926,35.95421075862631],[136.019250470384,35.953979964035476],[136.01918469750248,35.953992132361606],[136.01911128915933,35.954180580704616]]]}},{"type":"Feature","properties":{"pid":"d007d8f9-fbd3-44f7-ac7d-c2c8bee6e77a"},"geometry":{"type":"Polygon","coordinates":[[[136.01931854146568,35.95427070602669],[136.01952463086184,35.95439838986798],[136.01967524277413,35.954040009757996],[136.0195735400315,35.95401136341927],[136.01939709270195,35.95399511913018],[136.01931854146568,35.95427070602669]]]}},{"type":"Feature","properties":{"pid":"9aa9c62c-f182-4f76-99aa-36575c711bb4"},"geometry":{"type":"Polygon","coordinates":[[[136.02043127121433,35.9543836295445],[136.02047003784534,35.954373304948874],[136.0205185873305,35.95416823527494],[136.02048424259127,35.95416462606736],[136.02043127121433,35.9543836295445]]]}},{"type":"Feature","properties":{"pid":"306f2a57-2ba5-438a-ba65-8044abe9434e"},"geometry":{"type":"Polygon","coordinates":[[[136.02080783121596,35.95418889645898],[136.0208291883364,35.954117106451456],[136.02071438431503,35.95412932012985],[136.0207042858647,35.95417153661417],[136.02080783121596,35.95418889645898]]]}},{"type":"Feature","properties":{"pid":"eb290cdf-5e8a-446f-8555-13dab190bb0c"},"geometry":{"type":"Polygon","coordinates":[[[136.02020783610953,35.95319653027383],[136.02026460288766,35.95320539413256],[136.0203120768308,35.95298548769809],[136.02026756081426,35.952970303598335],[136.02020783610953,35.95319653027383]]]}},{"type":"Feature","properties":{"pid":"c0884369-757f-4c76-a557-0e4e40282642"},"geometry":{"type":"Polygon","coordinates":[[[136.02042191933708,35.95323664231613],[136.02070839148817,35.95328478260951],[136.02073359892046,35.95309311110673],[136.0204733291177,35.95302057436185],[136.02042191933708,35.95323664231613]]]}},{"type":"Feature","properties":{"pid":"56b63a43-1a42-4d98-a0ef-22b83363f159"},"geometry":{"type":"Polygon","coordinates":[[[136.02085428286284,35.9533281690001],[136.0208988318958,35.95333668371469],[136.02097861667573,35.95311888356186],[136.0208900340301,35.9531129272343],[136.02085428286284,35.9533281690001]]]}},{"type":"Feature","properties":{"pid":"126c7dcf-b6bd-4333-ac0d-a808aa7cd85b"},"geometry":{"type":"Polygon","coordinates":[[[136.02102749969163,35.95335687104594],[136.02114130175215,35.95336559652637],[136.02120001855508,35.953188406607346],[136.0210934819143,35.953156736706354],[136.02102749969163,35.95335687104594]]]}},{"type":"Feature","properties":{"pid":"3bdc3c8a-1957-4b55-bb35-6cc01b84ecd9"},"geometry":{"type":"Polygon","coordinates":[[[136.01964260698463,35.95261539160875],[136.01976214456084,35.952502852848376],[136.01973097275615,35.95247287359512],[136.01960302527155,35.95258974306321],[136.01964260698463,35.95261539160875]]]}},{"type":"Feature","properties":{"pid":"d7cc30de-018a-4aa0-93a6-616211a07091"},"geometry":{"type":"Polygon","coordinates":[[[136.01959866427794,35.952831550879964],[136.01972147832038,35.95299616427556],[136.019947013751,35.95279414534902],[136.01987793537708,35.95268431223748],[136.01986404704962,35.952582987047286],[136.01959866427794,35.952831550879964]]]}},{"type":"Feature","properties":{"pid":"39537522-6b0a-477c-b74f-0dd8b112931b"},"geometry":{"type":"Polygon","coordinates":[[[136.0198830161334,35.9530909839304],[136.02004409196573,35.953142118430726],[136.02009174434957,35.952892215336654],[136.0198830161334,35.9530909839304]]]}},{"type":"Feature","properties":{"pid":"a32a5e50-0cdf-4042-aa92-1a1e66c16286"},"geometry":{"type":"Polygon","coordinates":[[[136.0191514203443,35.952945927412294],[136.0191570636093,35.95300441695115],[136.01933477280306,35.9530486999513],[136.0194098622449,35.95304862977341],[136.0193462979972,35.952949619429276],[136.0191514203443,35.952945927412294]]]}},{"type":"Feature","properties":{"pid":"e0f2f299-525f-4f5a-b6cb-a2458f09884b"},"geometry":{"type":"Polygon","coordinates":[[[136.01874952464593,35.954084602073365],[136.01881795036815,35.954096359500056],[136.01885245170382,35.95392059332245],[136.01878853925015,35.953916487643376],[136.01874952464593,35.954084602073365]]]}},{"type":"Feature","properties":{"pid":"4cec4cd0-ccd2-4ae1-874d-93864eeae803"},"geometry":{"type":"Polygon","coordinates":[[[136.01810982500277,35.95428209551678],[136.01823755835312,35.95429870192998],[136.01831091373467,35.95426785047579],[136.01835454738443,35.954224808899674],[136.0182407955633,35.954132115353765],[136.01810982500277,35.95428209551678]]]}},{"type":"Feature","properties":{"pid":"56daeea8-fca0-48b5-b9bd-819c53e6d7ce"},"geometry":{"type":"Polygon","coordinates":[[[136.01840537826658,35.95396644795906],[136.0184484306346,35.95398678069344],[136.01851396769396,35.95381712121992],[136.01843417828445,35.95379672265503],[136.01840537826658,35.95396644795906]]]}},{"type":"Feature","properties":{"pid":"3748bc3f-9c48-43d9-83de-9eccff46a543"},"geometry":{"type":"Polygon","coordinates":[[[136.01785429081065,35.95414831728987],[136.01791971002586,35.95417526364645],[136.01801050888741,35.95409037606379],[136.01790254915346,35.95410006692582],[136.01785429081065,35.95414831728987]]]}},{"type":"Feature","properties":{"pid":"8c2cd5cf-a64a-4653-a0fa-8f9031426170"},"geometry":{"type":"Polygon","coordinates":[[[136.01699282208335,35.95360688635129],[136.01706706387048,35.953836921301544],[136.01711229684295,35.953842926166146],[136.01707465619276,35.953704683382604],[136.01707431017826,35.95364805335173],[136.01704604108102,35.95362130165714],[136.01699282208335,35.95360688635129]]]}},{"type":"Feature","properties":{"pid":"0b52505b-73e4-4175-9722-902615badf59"},"geometry":{"type":"Polygon","coordinates":[[[136.01727740391192,35.953664182943484],[136.0172227952744,35.953670817728586],[136.01726453226556,35.95385281702356],[136.01729600328878,35.953854684690555],[136.01727740391192,35.953664182943484]]]}},{"type":"Feature","properties":{"pid":"db49747b-664a-4580-bc01-ed6300d22e0a"},"geometry":{"type":"Polygon","coordinates":[[[136.01742514548616,35.953665663320095],[136.01743686318122,35.95384795432816],[136.0175154906466,35.95385461855555],[136.01747379943993,35.95379288196817],[136.0174703140201,35.9536835947213],[136.01742514548616,35.953665663320095]]]}},{"type":"Feature","properties":{"pid":"46e10e4b-8997-49d2-bf8e-1a489bdfb7c2"},"geometry":{"type":"Polygon","coordinates":[[[136.01758328165866,35.9541807747611],[136.0174385731405,35.95412259156114],[136.01738211544884,35.95413846867916],[136.01742680038006,35.95419077560302],[136.0175371700793,35.95419506843425],[136.01758328165866,35.9541807747611]]]}},{"type":"Feature","properties":{"pid":"3b4a84e2-4246-49ed-85e2-128582754c9f"},"geometry":{"type":"Polygon","coordinates":[[[136.01852489278866,35.95177128817107],[136.01830737076907,35.95198716802424],[136.0183864957584,35.952070284906014],[136.01843362929125,35.95208755604417],[136.01870558516427,35.95183178466402],[136.01852489278866,35.95177128817107]]]}},{"type":"Feature","properties":{"pid":"bc27c26f-bf24-4cc6-9c3e-50115c23e844"},"geometry":{"type":"Polygon","coordinates":[[[136.01854166812012,35.95216153518798],[136.01861864813677,35.95220571945967],[136.0188988768828,35.95195182928562],[136.0188043978195,35.95191006961246],[136.01854166812012,35.95216153518798]]]}},{"type":"Feature","properties":{"pid":"7f5c833c-fdaf-4fc9-9483-3d0fe54744ec"},"geometry":{"type":"Polygon","coordinates":[[[136.01832508881412,35.95170084471276],[136.0181959799332,35.951617400264524],[136.0181446153588,35.95166353440483],[136.0182806471192,35.951745209080165],[136.01832508881412,35.95170084471276]]]}},{"type":"Feature","properties":{"pid":"ac833327-80d2-4351-8e3b-718f362957d8"},"geometry":{"type":"Polygon","coordinates":[[[136.0177420346131,35.95130451044163],[136.01785115604508,35.95119921872824],[136.01779694040016,35.9511682374747],[136.01768161363765,35.95128251595683],[136.0177420346131,35.95130451044163]]]}},{"type":"Feature","properties":{"pid":"a99ae370-db78-48c4-a734-877ae967f24c"},"geometry":{"type":"Polygon","coordinates":[[[136.0178848259028,35.951381577487616],[136.0179173296196,35.95139845549415],[136.018032084643,35.95129290123354],[136.01799411122306,35.95126668778247],[136.0178848259028,35.951381577487616]]]}},{"type":"Feature","properties":{"pid":"29b0ab3d-6363-47fc-b457-e9c6afed3420"},"geometry":{"type":"Polygon","coordinates":[[[136.01806247480732,35.951544915496626],[136.0182061932361,35.951412767800996],[136.01814091852685,35.95137701468398],[136.01801285827256,35.951494198535094],[136.01806247480732,35.951544915496626]]]}},{"type":"Feature","properties":{"pid":"203799ef-e344-43a2-add7-4d11915359e3"},"geometry":{"type":"Polygon","coordinates":[[[136.01749841032756,35.951192371345385],[136.01755064010408,35.951209063204885],[136.01767258469314,35.951083305482165],[136.0176042149689,35.95105537231968],[136.01749841032756,35.951192371345385]]]}},{"type":"Feature","properties":{"pid":"f8e47d98-828c-47ef-86b7-b937c6c642bd"},"geometry":{"type":"Polygon","coordinates":[[[136.01693614577374,35.95086657336293],[136.01699897458693,35.95090756111764],[136.01710668923104,35.95078051920632],[136.0170464603259,35.950743315460784],[136.01693614577374,35.95086657336293]]]}},{"type":"Feature","properties":{"pid":"79b29b42-0312-4dde-818d-1ed107f53655"},"geometry":{"type":"Polygon","coordinates":[[[136.0171746394681,35.95101156408093],[136.01728242774877,35.95088273485753],[136.01723030289446,35.950855547733056],[136.01711681303422,35.95098336446111],[136.0171746394681,35.95101156408093]]]}},{"type":"Feature","properties":{"pid":"490a6524-d32d-4d66-9ab9-3ace8fbf26fa"},"geometry":{"type":"Polygon","coordinates":[[[136.01736827753894,35.95111608229668],[136.01745624405152,35.95099240763644],[136.01741163433456,35.95096803725932],[136.01731747415988,35.95109543761618],[136.01736827753894,35.95111608229668]]]}},{"type":"Feature","properties":{"pid":"259104a5-5347-41e8-a910-a32b0afeadb7"},"geometry":{"type":"Polygon","coordinates":[[[136.01656657969184,35.9505013686153],[136.0166799033536,35.95063408712711],[136.01680519737693,35.950738018315676],[136.0169029641913,35.95063231688996],[136.0167783625679,35.95052525275399],[136.01670860268825,35.95048922088024],[136.0166456715537,35.950477151271436],[136.01656657969184,35.9505013686153]]]}},{"type":"Feature","properties":{"pid":"eb7f3669-e94d-40e7-8aba-247661775a0d"},"geometry":{"type":"Polygon","coordinates":[[[136.02004140486898,35.95002436936698],[136.01984606764393,35.94994107985524],[136.01982864113083,35.94996479426189],[136.01991166201793,35.950008938339224],[136.01995367291732,35.95009747820145],[136.02004140486898,35.95002436936698]]]}},{"type":"Feature","properties":{"pid":"436d2966-d59c-4278-8434-f42df8176822"},"geometry":{"type":"Polygon","coordinates":[[[136.02004612731048,35.950222437749666],[136.02013876831128,35.95030878989984],[136.02024326519273,35.95023527447115],[136.02024679926183,35.95006341021881],[136.02004612731048,35.950222437749666]]]}},{"type":"Feature","properties":{"pid":"369a745c-4697-4c3e-833a-fe59b2ffcd99"},"geometry":{"type":"Polygon","coordinates":[[[136.02028855205302,35.950439443866095],[136.0203990875915,35.95052225932187],[136.0204948663368,35.950453437652484],[136.02036904195714,35.95037333038501],[136.02028855205302,35.950439443866095]]]}},{"type":"Feature","properties":{"pid":"201c8b36-5564-409e-a56d-4a9046fdb8bb"},"geometry":{"type":"Polygon","coordinates":[[[136.0205701902407,35.95063770568758],[136.02071022497117,35.95076239334876],[136.02081781000845,35.95068362992513],[136.0206484725083,35.950568933304396],[136.0205701902407,35.95063770568758]]]}},{"type":"Feature","properties":{"pid":"44a45057-4465-4c6a-b57e-a13c0e1697a6"},"geometry":{"type":"Polygon","coordinates":[[[136.02082641949292,35.9508886137274],[136.0208812277702,35.95095684534462],[136.02094532647448,35.951005943693986],[136.02109176748755,35.950905607987366],[136.02098222068022,35.950774330343855],[136.02082641949292,35.9508886137274]]]}},{"type":"Feature","properties":{"pid":"a77f7420-cb43-4004-ab38-fec77d53eb9f"},"geometry":{"type":"Polygon","coordinates":[[[136.0211326213281,35.95110044797612],[136.021238686465,35.951201012039434],[136.02127778427922,35.9511628469419],[136.02126843699423,35.95111044600517],[136.02121238248824,35.95103968298624],[136.0211326213281,35.95110044797612]]]}},{"type":"Feature","properties":{"pid":"bc169133-deaa-4e6d-9d73-8502a5de5fbb"},"geometry":{"type":"Polygon","coordinates":[[[136.0188270039175,35.95226523301901],[136.01907905286748,35.95204588741828],[136.0190247358978,35.95201062423786],[136.01875255778015,35.95226079368628],[136.01877123851315,35.952272210432305],[136.0188270039175,35.95226523301901]]]}},{"type":"Feature","properties":{"pid":"0cd49db8-efd7-4228-a933-3eaff39a16b1"},"geometry":{"type":"Polygon","coordinates":[[[136.01894889382163,35.95235310993684],[136.01900562015078,35.95238246656171],[136.01924285918903,35.95216288019157],[136.0192067462838,35.952121607808174],[136.01894889382163,35.95235310993684]]]}},{"type":"Feature","properties":{"pid":"afb6d1cf-00de-4921-9b18-49af47a43aa7"},"geometry":{"type":"Polygon","coordinates":[[[136.0191148009913,35.95243851922482],[136.01921747592075,35.95245455279258],[136.01935517099147,35.95252711576824],[136.01952933158705,35.95236184130144],[136.0193365884208,35.95223731411904],[136.0191148009913,35.95243851922482]]]}},{"type":"Feature","properties":{"pid":"77e70bed-8e4f-4ee9-be09-de7e0520f11a"},"geometry":{"type":"Polygon","coordinates":[[[136.02335459850326,35.952401441608565],[136.02414212636205,35.952478824629914],[136.02413509373443,35.95238647875308],[136.02345416195237,35.95231473252046],[136.02335459850326,35.952401441608565]]]}},{"type":"Feature","properties":{"pid":"9de45ae9-ad01-4113-ac49-508e007422c5"},"geometry":{"type":"Polygon","coordinates":[[[136.02342935343015,35.95210792881436],[136.02347411822788,35.95218451972132],[136.0241420809058,35.95226126304513],[136.02415662994838,35.95217583936903],[136.02342935343015,35.95210792881436]]]}},{"type":"Feature","properties":{"pid":"c8595f4d-a686-494d-8645-acea5eeb8ac9"},"geometry":{"type":"Polygon","coordinates":[[[136.02343514152818,35.951882033748525],[136.02343621624877,35.95197715443569],[136.02382381222642,35.952007788202174],[136.0237244812331,35.95193445535102],[136.02367962754903,35.95188145299329],[136.02343514152818,35.951882033748525]]]}},{"type":"Feature","properties":{"pid":"85448e0f-f9ad-41f8-9b35-4ecf9bd56bde"},"geometry":{"type":"Polygon","coordinates":[[[136.02337293364158,35.951748659959534],[136.02338858756437,35.951774589152684],[136.02360704348237,35.95177248079732],[136.0235093884615,35.95168542765088],[136.02337293364158,35.951748659959534]]]}},{"type":"Feature","properties":{"pid":"9f899ae1-092d-49bb-8dc2-e03d2821f696"},"geometry":{"type":"Polygon","coordinates":[[[136.02293071584927,35.95147132934886],[136.02279891285295,35.95144538608488],[136.02276321550607,35.951575675552455],[136.02288575664127,35.95163860959059],[136.02293071584927,35.95147132934886]]]}},{"type":"Feature","properties":{"pid":"be544028-20b4-47e2-b40a-d327ddf924f9"},"geometry":{"type":"Polygon","coordinates":[[[136.02307237183842,35.95163185090347],[136.02325511095063,35.95163720509548],[136.02336409192978,35.951576815916255],[136.02334947420155,35.95155949185904],[136.02309765369262,35.95155141428526],[136.02307237183842,35.95163185090347]]]}},{"type":"Feature","properties":{"pid":"379a99c6-9d5e-4c09-a300-938fe5f7949c"},"geometry":{"type":"Polygon","coordinates":[[[136.02235811682255,35.9514387699216],[136.02259542859122,35.951470135905176],[136.0226061437002,35.951420698973486],[136.0224574404484,35.95141060584019],[136.02235605223854,35.951425668232794],[136.02235811682255,35.9514387699216]]]}},{"type":"Feature","properties":{"pid":"5862affc-156b-4fe6-a39c-9ec3dd91f6cc"},"geometry":{"type":"Polygon","coordinates":[[[136.02449013952435,35.95425699947268],[136.0248961776994,35.9542979050123],[136.0249027766648,35.95425048442159],[136.02449753239358,35.9542073030872],[136.02449013952435,35.95425699947268]]]}},{"type":"Feature","properties":{"pid":"0d5005b7-1f73-4064-95e2-a9d71ca54f93"},"geometry":{"type":"Polygon","coordinates":[[[136.0245137871113,35.954093105896234],[136.02491846609658,35.95413875034926],[136.0249205121148,35.954092958782404],[136.0245208437124,35.954060546104124],[136.0245137871113,35.954093105896234]]]}},{"type":"Feature","properties":{"pid":"fee922d9-8c58-4725-976f-366e07883c53"},"geometry":{"type":"Polygon","coordinates":[[[136.02488679518783,35.95392387229496],[136.024881132468,35.953885030927744],[136.02454867592402,35.95385817679836],[136.02454671792808,35.95389379806394],[136.02488679518783,35.95392387229496]]]}},{"type":"Feature","properties":{"pid":"1812adac-e6a7-41ad-825f-8af212b05ef6"},"geometry":{"type":"Polygon","coordinates":[[[136.02398610022124,35.953997031654175],[136.02418586765592,35.954025653459695],[136.02419242101593,35.95399991992772],[136.0239894707911,35.95397231139366],[136.02398610022124,35.953997031654175]]]}},{"type":"Feature","properties":{"pid":"34651ead-19ac-4c3c-80f1-c363b3d92c35"},"geometry":{"type":"Polygon","coordinates":[[[136.02438182607315,35.953880946986885],[136.02438696660684,35.95383624716673],[136.02403976413277,35.953800064818424],[136.02402535533406,35.95384717120663],[136.02438182607315,35.953880946986885]]]}},{"type":"Feature","properties":{"pid":"465f1643-f8af-47c9-9378-089d50d78966"},"geometry":{"type":"Polygon","coordinates":[[[136.02439253767568,35.95369701363231],[136.02439632340733,35.95367002157613],[136.02406546645844,35.95362651309069],[136.0240577684076,35.95365847522101],[136.02439253767568,35.95369701363231]]]}},{"type":"Feature","properties":{"pid":"59bd4673-0606-4571-a242-e27c3b41842f"},"geometry":{"type":"Polygon","coordinates":[[[136.02413156853692,35.95339873317674],[136.0241136489995,35.953494523695575],[136.02455882441205,35.953539348468],[136.02446803035332,35.95339245057697],[136.02413156853692,35.95339873317674]]]}},{"type":"Feature","properties":{"pid":"3219392a-032e-4529-adaa-4875e79509e6"},"geometry":{"type":"Polygon","coordinates":[[[136.02420374797575,35.95322422685342],[136.02422687979313,35.953234120121756],[136.02456134697843,35.95322735600387],[136.02449874031157,35.953200912291344],[136.02440945081653,35.95311285374794],[136.0242296731088,35.95307539636954],[136.02420370590647,35.953087541386886],[136.02420374797575,35.95322422685342]]]}},{"type":"Feature","properties":{"pid":"ac236371-d6e7-4cc8-8671-af4923163949"},"geometry":{"type":"Polygon","coordinates":[[[136.0241397621721,35.952615541069264],[136.0232568699791,35.95252760708798],[136.02317731931691,35.95260464507553],[136.02413706580805,35.95269851720469],[136.0241397621721,35.952615541069264]]]}},{"type":"Feature","properties":{"pid":"936a6e8a-eecd-40ca-8b22-8da6e9323887"},"geometry":{"type":"Polygon","coordinates":[[[136.0231033458933,35.95274027320118],[136.0231215154959,35.952814545870105],[136.02343492051318,35.95283069294388],[136.0240513118912,35.95293643738993],[136.02415170319637,35.95290612644991],[136.02412223081225,35.95284820966813],[136.02356177920527,35.952787091380245],[136.02351617386998,35.952794150936285],[136.02343110947498,35.95276588091265],[136.0231033458933,35.95274027320118]]]}},{"type":"Feature","properties":{"pid":"9ee1de71-b3d1-4b53-ac14-ff5207259665"},"geometry":{"type":"Polygon","coordinates":[[[136.02360976494649,35.95304796944395],[136.02399403680565,35.953096585032824],[136.02399757544015,35.9530627840788],[136.0236180725379,35.953007804239114],[136.02360976494649,35.95304796944395]]]}},{"type":"Feature","properties":{"pid":"fdeca671-8de2-4ec1-8082-1e1ae70de8bf"},"geometry":{"type":"Polygon","coordinates":[[[136.0235640925144,35.95322170397141],[136.0239404955431,35.953276231268845],[136.02395540908734,35.95323736839819],[136.02357179868537,35.95318308780789],[136.0235640925144,35.95322170397141]]]}},{"type":"Feature","properties":{"pid":"c547e173-fc27-49db-b56c-20f0e26de1f4"},"geometry":{"type":"Polygon","coordinates":[[[136.02310528819555,35.95298614482752],[136.02334904486176,35.953014450903154],[136.0233541005317,35.95298222676352],[136.0231131261038,35.952962571215416],[136.02310528819555,35.95298614482752]]]}},{"type":"Feature","properties":{"pid":"8ccbab27-3fc0-4275-a422-411e1cbc93c9"},"geometry":{"type":"Polygon","coordinates":[[[136.02295474055865,35.95313588308213],[136.02332716422114,35.9531828759988],[136.02333018222015,35.95315251014541],[136.02298497382276,35.95311374504258],[136.02295474055865,35.95313588308213]]]}},{"type":"Feature","properties":{"pid":"a670962b-d9c8-4daa-8530-2b1208ca60e1"},"geometry":{"type":"Polygon","coordinates":[[[136.02276050538256,35.95328652732191],[136.02327356322414,35.9533667499597],[136.0232876870231,35.953365867654384],[136.02329319989164,35.95332143694742],[136.02276530349997,35.95325212607918],[136.02276050538256,35.95328652732191]]]}},{"type":"Feature","properties":{"pid":"aad3d754-de4d-4ad3-aa60-e65e5be3b13f"},"geometry":{"type":"Polygon","coordinates":[[[136.0215884818011,35.95276322749337],[136.02160466996878,35.95286445868133],[136.021848149827,35.952922543308084],[136.0217837841933,35.952750199034206],[136.0215884818011,35.95276322749337]]]}},{"type":"Feature","properties":{"pid":"4210a75a-63df-4c61-b77c-d76affbbe276"},"geometry":{"type":"Polygon","coordinates":[[[136.02159882540386,35.95300621530226],[136.0216022072435,35.95304336395172],[136.02186943611474,35.95308993467332],[136.02186759061755,35.95307534155311],[136.02159882540386,35.95300621530226]]]}},{"type":"Feature","properties":{"pid":"02be67c0-3499-45e9-83b4-cbacde503bf8"},"geometry":{"type":"Polygon","coordinates":[[[136.02190817037922,35.953830992983356],[136.02227170208562,35.95387022259075],[136.02193867038716,35.95370992615251],[136.02190817037922,35.953830992983356]]]}},{"type":"Feature","properties":{"pid":"78b79aab-6cb8-46e9-8999-5e434a8d148d"},"geometry":{"type":"Polygon","coordinates":[[[136.0221107790354,35.95333290011649],[136.02211323589742,35.95350815071707],[136.02247075417586,35.95367872989475],[136.02251357122222,35.953568859260734],[136.0224947942053,35.95333089598982],[136.0223026894257,35.95334307286443],[136.0221107790354,35.95333290011649]]]}},{"type":"Feature","properties":{"pid":"9d3d5087-f9d6-4c9d-b66d-9ba9897e119b"},"geometry":{"type":"Polygon","coordinates":[[[136.02168246639394,35.953823053576606],[136.02174944542747,35.95384251817199],[136.02179119019755,35.95365790388388],[136.02167764356065,35.95364995421749],[136.02168246639394,35.953823053576606]]]}},{"type":"Feature","properties":{"pid":"43abc60e-7b01-457d-b87e-c1d47f779cf0"},"geometry":{"type":"Polygon","coordinates":[[[136.0219127946141,35.953973973732374],[136.021926562464,35.954035461486946],[136.02202090418493,35.95413073276004],[136.02239242999826,35.95414699274243],[136.0224167793518,35.954021422016666],[136.0219127946141,35.953973973732374]]]}},{"type":"Feature","properties":{"pid":"e40acdc0-7d14-4de3-900e-d9bdcba3ab28"},"geometry":{"type":"Polygon","coordinates":[[[136.0233248663733,35.95430374712395],[136.02333234838144,35.954251423913355],[136.02262700762742,35.954180923580715],[136.0226270160765,35.95421033074874],[136.0233248663733,35.95430374712395]]]}},{"type":"Feature","properties":{"pid":"3a1c7e4b-898c-414e-9e58-9445ef6bf144"},"geometry":{"type":"Polygon","coordinates":[[[136.02264593633208,35.954048527206716],[136.02335693937746,35.95413307612354],[136.02336053735124,35.95411229637594],[136.02264410985524,35.954010866601834],[136.02264593633208,35.954048527206716]]]}},{"type":"Feature","properties":{"pid":"0d01dd5a-1af4-4907-9303-f4fb3246fb77"},"geometry":{"type":"Polygon","coordinates":[[[136.02272422273617,35.953622377080514],[136.02272178738002,35.953667852215226],[136.02275312852868,35.95370868173607],[136.02274436933342,35.95379190997762],[136.0231547737198,35.953843805464736],[136.0232003488927,35.95368268846549],[136.02272422273617,35.953622377080514]]]}},{"type":"Feature","properties":{"pid":"0fd3b968-96ae-4b9c-9bad-a40433c956d7"},"geometry":{"type":"Polygon","coordinates":[[[136.02306020956442,35.953521157768],[136.02324977659828,35.95354173094624],[136.02325512638993,35.95351652918111],[136.02306352982285,35.95349206236396],[136.02306020956442,35.953521157768]]]}},{"type":"Feature","properties":{"pid":"8bc696c5-1da9-458f-be05-3fbed1937c10"},"geometry":{"type":"Polygon","coordinates":[[[136.02349700349038,35.953572941642605],[136.02387070172213,35.95362278253775],[136.02387573653166,35.95360139043501],[136.0235033218134,35.95353731531797],[136.02349700349038,35.953572941642605]]]}},{"type":"Feature","properties":{"pid":"ab16d3c8-f6c3-4800-9999-9762962edcc7"},"geometry":{"type":"Polygon","coordinates":[[[136.0235255315496,35.95340049560551],[136.02391014523732,35.95345687994104],[136.023917981802,35.953406124182436],[136.02353248228889,35.953358598755486],[136.0235255315496,35.95340049560551]]]}},{"type":"Feature","properties":{"pid":"e5864c86-ca9a-4309-aca5-348590320ee9"},"geometry":{"type":"Polygon","coordinates":[[[136.02346748952633,35.95377235665945],[136.02382138734927,35.953817379034255],[136.02383904805512,35.95375642980737],[136.02348149844457,35.95370451431155],[136.02346748952633,35.95377235665945]]]}},{"type":"Feature","properties":{"pid":"d963ca86-9eae-49d9-9e4a-46002988623c"},"geometry":{"type":"Polygon","coordinates":[[[136.02357632292558,35.95416361185662],[136.02416181068034,35.95425732587983],[136.02413996543908,35.95423969469294],[136.02387126146223,35.9541793795357],[136.02358114551885,35.954136445383206],[136.02357632292558,35.95416361185662]]]}},{"type":"Feature","properties":{"pid":"432e2733-ef9a-4bad-ae40-b2c5140782d0"},"geometry":{"type":"Polygon","coordinates":[[[136.02353021498348,35.954337956362586],[136.02366010953145,35.954360399814455],[136.02367086252337,35.95430183234722],[136.02354475234367,35.9542836294817],[136.02353021498348,35.954337956362586]]]}},{"type":"Feature","properties":{"pid":"77fc9311-e24c-4556-926d-8502c981cc9e"},"geometry":{"type":"Polygon","coordinates":[[[136.0234840048298,35.95452876258474],[136.02414537422032,35.95462337610435],[136.02415824091923,35.95457333160746],[136.02349883476276,35.95448006282614],[136.0234840048298,35.95452876258474]]]}},{"type":"Feature","properties":{"pid":"a3981700-5513-4981-be49-89da66b35684"},"geometry":{"type":"Polygon","coordinates":[[[136.02344767819145,35.954704377558166],[136.02411043495684,35.954789889214084],[136.02411807409905,35.95475256573166],[136.023462032027,35.9546599871676],[136.02344767819145,35.954704377558166]]]}},{"type":"Feature","properties":{"pid":"8b0e7b33-6817-41ed-b26d-e9736119478f"},"geometry":{"type":"Polygon","coordinates":[[[136.0238963564604,35.95494441564342],[136.02390843308018,35.954887602796084],[136.02341923933525,35.954815489275],[136.02340249174776,35.95487626576988],[136.0238963564604,35.95494441564342]]]}},{"type":"Feature","properties":{"pid":"5498aadb-be18-4a7b-b64f-5170df56b27a"},"geometry":{"type":"Polygon","coordinates":[[[136.0233603526632,35.955112522322004],[136.02403195465862,35.9551950124735],[136.02404396728437,35.95513904198689],[136.0233745775556,35.95505517256765],[136.0233603526632,35.955112522322004]]]}},{"type":"Feature","properties":{"pid":"2ad53e01-232f-4da5-958f-7b78c0aa5cde"},"geometry":{"type":"Polygon","coordinates":[[[136.02287481347466,35.9548070128823],[136.02322626243006,35.9548463948435],[136.02323188694683,35.95480193200955],[136.02287832636802,35.95477017811371],[136.02287481347466,35.9548070128823]]]}},{"type":"Feature","properties":{"pid":"977837c4-dedc-489c-a924-c376be656404"},"geometry":{"type":"Polygon","coordinates":[[[136.0225168769155,35.95499924436212],[136.0231675739756,35.95508608446931],[136.02318613181828,35.9550178068859],[136.02252085742697,35.95494563441304],[136.0225168769155,35.95499924436212]]]}},{"type":"Feature","properties":{"pid":"4e4274d2-1b6e-451a-a518-8f208ed2fc26"},"geometry":{"type":"Polygon","coordinates":[[[136.02265778202178,35.954550396332905],[136.02267835556262,35.95460971890518],[136.02324567165383,35.95467118973756],[136.02325241323476,35.95464045316528],[136.02265778202178,35.954550396332905]]]}},{"type":"Feature","properties":{"pid":"04f5a115-3c19-44ab-8ea6-14f6ad249f63"},"geometry":{"type":"Polygon","coordinates":[[[136.02260577444372,35.95440846818329],[136.02328843768208,35.95450989803436],[136.02330432492425,35.95443292805298],[136.02261126409573,35.95433256780668],[136.02260577444372,35.95440846818329]]]}},{"type":"Feature","properties":{"pid":"4afe664a-0f8a-4851-924a-e47469283416"},"geometry":{"type":"Polygon","coordinates":[[[136.02222854926256,35.954287064060296],[136.02231501864358,35.95436909075381],[136.02238779589953,35.95442983352483],[136.0223914101405,35.95429096086799],[136.02222854926256,35.954287064060296]]]}},{"type":"Feature","properties":{"pid":"3dd01e3b-4f8e-4578-b95c-eccb49b040bf"},"geometry":{"type":"Polygon","coordinates":[[[136.0215331684845,35.954630696985035],[136.02157071880518,35.9546663884954],[136.02167954813268,35.954569743393364],[136.0215905413196,35.95447813957201],[136.0215331684845,35.954630696985035]]]}},{"type":"Feature","properties":{"pid":"39ee384a-7aa9-44cf-af1e-c868ebf3aaad"},"geometry":{"type":"Polygon","coordinates":[[[136.02166859390607,35.95473967205036],[136.02171502928744,35.95478430449961],[136.02183845082044,35.95481220316243],[136.0218623746595,35.95472819402531],[136.02176333012608,35.9546570732035],[136.02166859390607,35.95473967205036]]]}},{"type":"Feature","properties":{"pid":"0c0544ca-84da-4453-bd78-25410799435d"},"geometry":{"type":"Polygon","coordinates":[[[136.02190530340027,35.955171855841556],[136.02200816485802,35.955219929182476],[136.02208154947283,35.95484924773395],[136.02198831783906,35.95479409447495],[136.0219063049412,35.9550797532395],[136.02190530340027,35.955171855841556]]]}},{"type":"Feature","properties":{"pid":"b27de0a4-d53b-4863-805d-bd6af26d47ca"},"geometry":{"type":"Polygon","coordinates":[[[136.0221481446244,35.95530737504072],[136.02216375431766,35.955348597055064],[136.02224439873586,35.955489923431784],[136.0222643565768,35.95531482090216],[136.0221481446244,35.95530737504072]]]}},{"type":"Feature","properties":{"pid":"60046620-86f8-43f5-a5ec-ec9031102c7e"},"geometry":{"type":"Polygon","coordinates":[[[136.02246390680207,35.955411074316096],[136.02308038882268,35.95549556915038],[136.0230986485607,35.955404234759676],[136.02247378101313,35.95532874029132],[136.02246390680207,35.955411074316096]]]}},{"type":"Feature","properties":{"pid":"5a935d74-e684-4e7c-8b59-6349729c0d18"},"geometry":{"type":"Polygon","coordinates":[[[136.02249053990303,35.955197164712935],[136.0231187788392,35.9552759935083],[136.02313422457036,35.955203681788376],[136.02249860361636,35.95511629477149],[136.02249053990303,35.955197164712935]]]}},{"type":"Feature","properties":{"pid":"20bb1e0a-335c-41fc-8f8f-03d9ca0fdea7"},"geometry":{"type":"Polygon","coordinates":[[[136.02328633575294,35.95543222549011],[136.0232721622851,35.955535439984914],[136.02394583054945,35.955609940501034],[136.02396337341506,35.955505402051735],[136.02328633575294,35.95543222549011]]]}},{"type":"Feature","properties":{"pid":"48f9020c-f3c8-4d1c-a4cd-94715ed58378"},"geometry":{"type":"Polygon","coordinates":[[[136.02331673731823,35.955303512729934],[136.02399400666985,35.955388762290674],[136.0240061960027,35.955316779495014],[136.02333699245852,35.955240517409734],[136.02331673731823,35.955303512729934]]]}},{"type":"Feature","properties":{"pid":"dd546305-6d53-46b8-86bf-bdde643a6c40"},"geometry":{"type":"Polygon","coordinates":[[[136.0241571284553,35.95577174688229],[136.02432743377824,35.95579558941211],[136.0247389310565,35.955854640563835],[136.02472469502897,35.95573305044563],[136.02419367177504,35.95567349015287],[136.02416719781382,35.955688176172416],[136.0241571284553,35.95577174688229]]]}},{"type":"Feature","properties":{"pid":"466e1b92-4805-4c81-aa72-76dc7e334e7d"},"geometry":{"type":"Polygon","coordinates":[[[136.02455665209055,35.956049076851905],[136.0247015425734,35.95600811805571],[136.0249373315693,35.95598612818721],[136.0245658095095,35.95593397052884],[136.02455665209055,35.956049076851905]]]}},{"type":"Feature","properties":{"pid":"b2b67fa3-f1e4-476a-a154-08021e2dc1c4"},"geometry":{"type":"Polygon","coordinates":[[[136.02423652294024,35.95532902346962],[136.02468338285445,35.95531607141011],[136.02452002380738,35.9551947801802],[136.02426040880337,35.95517753187433],[136.02423652294024,35.95532902346962]]]}},{"type":"Feature","properties":{"pid":"d7d4ca31-cd0b-4b61-ab6b-8f230ca69e33"},"geometry":{"type":"Polygon","coordinates":[[[136.02420014959216,35.95555531596879],[136.02472809609017,35.95561745441488],[136.02474066712742,35.95545325248076],[136.02421582412092,35.955452358822065],[136.02420014959216,35.95555531596879]]]}},{"type":"Feature","properties":{"pid":"64a7642c-1346-489d-bef2-86edebc5682b"},"geometry":{"type":"Polygon","coordinates":[[[136.0243219840134,35.95499873181428],[136.02442896863286,35.95488733442989],[136.02444926799436,35.95473534575813],[136.02437722407907,35.95472569287745],[136.0243219840134,35.95499873181428]]]}},{"type":"Feature","properties":{"pid":"b56dbf44-cac8-41b5-aa01-dda61e95e762"},"geometry":{"type":"Polygon","coordinates":[[[136.02377865615614,35.95438219054335],[136.02416970707293,35.95444138849746],[136.02417268587456,35.95437002780618],[136.0237894105068,35.95431853411899],[136.02377865615614,35.95438219054335]]]}},{"type":"Feature","properties":{"pid":"a01918f8-f35b-44e2-8800-ad0581e47c87"},"geometry":{"type":"Polygon","coordinates":[[[136.02444169304542,35.95453839619123],[136.0248527158928,35.95456615948642],[136.02487840719118,35.95442423034878],[136.0244633229175,35.95438681812321],[136.02444169304542,35.95453839619123]]]}},{"type":"Feature","properties":{"pid":"d41b5cc1-e7d2-4482-89ff-bb53fb00731f"},"geometry":{"type":"Polygon","coordinates":[[[136.02476034112354,35.95510970294916],[136.02482549365865,35.955151416527656],[136.02488629595322,35.95479896866841],[136.02481826106649,35.95478867958374],[136.02476034112354,35.95510970294916]]]}},{"type":"Feature","properties":{"pid":"fbcaaa3d-0ca3-48e5-b8d4-7553beb0502a"},"geometry":{"type":"Polygon","coordinates":[[[136.02208107050262,35.95724273780152],[136.02217761320432,35.95719265950713],[136.02238957837773,35.95706180345707],[136.02218460373743,35.95698907737437],[136.02207500185037,35.9571006023166],[136.02200435833723,35.95714143861658],[136.02208107050262,35.95724273780152]]]}},{"type":"Feature","properties":{"pid":"6a59c373-7ddd-4229-b338-91dc7816c217"},"geometry":{"type":"Polygon","coordinates":[[[136.0224092807699,35.95690916821599],[136.02257685841238,35.95695486048551],[136.02294981884123,35.95673762609887],[136.02295890695856,35.95663962319475],[136.02259858685298,35.95663117258929],[136.0224092807699,35.95690916821599]]]}},{"type":"Feature","properties":{"pid":"986b283a-b85e-40a6-a72b-b49ff67e1b9d"},"geometry":{"type":"Polygon","coordinates":[[[136.0226793008177,35.95652449783679],[136.02299139871172,35.956531600401505],[136.02303439148085,35.95629166291411],[136.0227263473586,35.95626063112144],[136.02271830766477,35.95643972199077],[136.0226793008177,35.95652449783679]]]}},{"type":"Feature","properties":{"pid":"4a2a770e-0cd0-4a20-bac0-df0716a04512"},"geometry":{"type":"Polygon","coordinates":[[[136.01930461023306,35.957251674758126],[136.01935861104351,35.95725918517082],[136.0194259085304,35.95708123563992],[136.01940038332336,35.95706404777599],[136.01935782607617,35.957057874479815],[136.01934550115408,35.95707033919994],[136.01930461023306,35.957251674758126]]]}},{"type":"Feature","properties":{"pid":"1fe545e3-3433-49e1-8de3-97da059b9764"},"geometry":{"type":"Polygon","coordinates":[[[136.0190168558457,35.95715241378212],[136.01904099648266,35.95708839954635],[136.0189670346669,35.95705397682527],[136.01893227234464,35.95712295576555],[136.0190168558457,35.95715241378212]]]}},{"type":"Feature","properties":{"pid":"c08d6030-063a-4814-99f1-45f27ec4c117"},"geometry":{"type":"Polygon","coordinates":[[[136.01848289796322,35.95686341125453],[136.01844568119188,35.956922601216995],[136.01854238162147,35.956962281098],[136.0185698891449,35.95690082578677],[136.01851204649657,35.95688851551934],[136.01848289796322,35.95686341125453]]]}},{"type":"Feature","properties":{"pid":"48e66c96-c2af-4b67-aacd-a3e2062a64fb"},"geometry":{"type":"Polygon","coordinates":[[[136.01820467144833,35.95667206131096],[136.0181358000542,35.95679424209509],[136.01831717998698,35.95686548277228],[136.0183757983173,35.95677072426306],[136.0182788727512,35.95668566295065],[136.01820467144833,35.95667206131096]]]}},{"type":"Feature","properties":{"pid":"5427ede3-d733-42cc-81a0-d422226fbfc9"},"geometry":{"type":"Polygon","coordinates":[[[136.0178615581609,35.956684062001216],[136.01800479134863,35.956734337541405],[136.0180741689922,35.95661067962064],[136.01790279440706,35.956570832925685],[136.0178615581609,35.956684062001216]]]}},{"type":"Feature","properties":{"pid":"467e5582-d4da-459a-b94d-f4834093dd61"},"geometry":{"type":"Polygon","coordinates":[[[136.0166543104185,35.95641162215955],[136.01666607439935,35.956429965653584],[136.0168682295844,35.95644657338121],[136.01684858681136,35.95641250326767],[136.0166543104185,35.95641162215955]]]}},{"type":"Feature","properties":{"pid":"627c14c1-0def-4f1c-8c7e-63e0bfacac71"},"geometry":{"type":"Polygon","coordinates":[[[136.01705456134763,35.956437028444356],[136.0170840553649,35.95647251608899],[136.01736381307015,35.95651466950208],[136.01771471757468,35.95663323419338],[136.01773793873994,35.95653739359392],[136.0176263334253,35.95653188910558],[136.01749652748714,35.9564694830796],[136.017374639191,35.95646103595975],[136.0172555140376,35.956430879468904],[136.01705456134763,35.956437028444356]]]}},{"type":"Feature","properties":{"pid":"205f965f-a3ad-40a2-a114-7ce54f2a33f5"},"geometry":{"type":"Polygon","coordinates":[[[136.01883322611278,35.957011599590516],[136.01868506361947,35.956969330249805],[136.01866565890535,35.957015263684305],[136.01880482047386,35.95706786120616],[136.01883322611278,35.957011599590516]]]}}]}