{"type":"FeatureCollection","features":[{"type":"Feature","properties":{"pid":"d0da58d8-a3dc-4004-b053-3e8f3ae27262"},"geometry":{"type":"Polygon","coordinates":[[[136.29647336905649,36.07353370236235],[136.29646756262076,36.07371868888007],[136.29658255938045,36.073720013888064],[136.2965613742692,36.073594472536634],[136.29658234779976,36.07353810941521],[136.29647336905649,36.07353370236235]]]}},{"type":"Feature","properties":{"pid":"d1801a64-b538-42f4-9dc7-5f1f6ad90b6e"},"geometry":{"type":"Polygon","coordinates":[[[136.29647928055005,36.073429643945715],[136.2966555531152,36.07343613143646],[136.2967478206596,36.073376537956094],[136.29677230746955,36.07331374679843],[136.29678178051196,36.07319922859207],[136.2967640418083,36.07300713029306],[136.29650019307232,36.072976506472074],[136.29647928055005,36.073429643945715]]]}},{"type":"Feature","properties":{"pid":"396f4059-78b2-4800-b249-9b1e127d88a9"},"geometry":{"type":"Polygon","coordinates":[[[136.2955051200773,36.073798085532346],[136.29621121423887,36.07382657795149],[136.29621033668138,36.07378283279862],[136.29550642971833,36.07376534017391],[136.2955051200773,36.073798085532346]]]}},{"type":"Feature","properties":{"pid":"3aaa2b2c-8a60-4795-a86b-8b95ff02baa6"},"geometry":{"type":"Polygon","coordinates":[[[136.2962016871531,36.073670973775826],[136.29622370104218,36.073656999234636],[136.2962258749583,36.073630218256774],[136.29551901853253,36.073602914542676],[136.2955184254576,36.07365020240792],[136.2962016871531,36.073670973775826]]]}},{"type":"Feature","properties":{"pid":"10a6f55d-f15c-49d5-a7db-da57dad954b5"},"geometry":{"type":"Polygon","coordinates":[[[136.2955238112694,36.07349537271111],[136.2962317436233,36.0735265777643],[136.29623724585247,36.0734219333381],[136.29552786542186,36.073383746736646],[136.2955238112694,36.07349537271111]]]}},{"type":"Feature","properties":{"pid":"e28f022e-7630-45eb-a951-5b9b22bcdcef"},"geometry":{"type":"Polygon","coordinates":[[[136.29533477754248,36.07365011519445],[136.29533847038988,36.07358285982635],[136.29469100286994,36.07355108661474],[136.29465198122202,36.07361572652089],[136.29533477754248,36.07365011519445]]]}},{"type":"Feature","properties":{"pid":"309c3899-fc1c-414f-9d09-08e213cfc966"},"geometry":{"type":"Polygon","coordinates":[[[136.29534739747342,36.07347729749719],[136.29535515771278,36.073392019899956],[136.29479460448616,36.073359491906594],[136.2947496855267,36.073446192859315],[136.29534739747342,36.07347729749719]]]}},{"type":"Feature","properties":{"pid":"9ce657ce-aea9-4085-94a7-83d32d806aea"},"geometry":{"type":"Polygon","coordinates":[[[136.29439345420948,36.07334818978626],[136.29263105641513,36.07320171697074],[136.29256264758158,36.073518942529255],[136.2931881089178,36.07351677292919],[136.29405565208728,36.073559457540384],[136.29410088761003,36.07352261379972],[136.29430081078533,36.073525860157886],[136.29439418726164,36.07337492331729],[136.29439345420948,36.07334818978626]]]}},{"type":"Feature","properties":{"pid":"d1552218-e996-428f-bb4b-c009688c7a81"},"geometry":{"type":"Polygon","coordinates":[[[136.2940194077657,36.07395666480662],[136.29403981795247,36.07368575567318],[136.29330328668865,36.073656044299995],[136.2932839892845,36.07392326983222],[136.2940194077657,36.07395666480662]]]}},{"type":"Feature","properties":{"pid":"1f982ada-6e81-4570-9a56-f26982c72de6"},"geometry":{"type":"Polygon","coordinates":[[[136.29242084837804,36.073859858294284],[136.29309971442896,36.073887955593186],[136.29311555325557,36.07364902930937],[136.29243670086458,36.07365382112501],[136.29242084837804,36.073859858294284]]]}},{"type":"Feature","properties":{"pid":"aaf23314-0b4e-4ec4-b64e-dd52e1b2e187"},"geometry":{"type":"Polygon","coordinates":[[[136.29249526262566,36.07304406243482],[136.29439060434547,36.07319402606275],[136.29434589878133,36.072803113919704],[136.2941483542029,36.07258923880488],[136.29411183965618,36.07251963948502],[136.2940983812492,36.072447337097486],[136.2926707313833,36.07224805591954],[136.29249526262566,36.07304406243482]]]}},{"type":"Feature","properties":{"pid":"314908ab-59e9-41e6-bf95-39bd9b1043e0"},"geometry":{"type":"Polygon","coordinates":[[[136.29269846216528,36.07209414904261],[136.2940870196272,36.0722957182501],[136.2940692780668,36.07204921372355],[136.2938724242254,36.071576801724085],[136.2938695269365,36.07147406933257],[136.29286655604957,36.07132491389698],[136.29269846216528,36.07209414904261]]]}},{"type":"Feature","properties":{"pid":"3dde08ae-8f67-4afc-9430-2288404bf6c6"},"geometry":{"type":"Polygon","coordinates":[[[136.2944150230929,36.07192649745712],[136.2946089493286,36.07195027927532],[136.29465070112585,36.07198000009643],[136.29510918280562,36.07204771806726],[136.29516301051402,36.07176699106711],[136.295176187789,36.07159892168746],[136.29423718532053,36.0714662397143],[136.29422573126917,36.07153463059521],[136.2943838369125,36.07181581134928],[136.2944150230929,36.07192649745712]]]}},{"type":"Feature","properties":{"pid":"0b1659fa-8eed-42e6-a268-a2f7c0f78e19"},"geometry":{"type":"Polygon","coordinates":[[[136.2953360439941,36.07210495255304],[136.29575616807205,36.07216212731504],[136.2958247952381,36.071887006954206],[136.29539156402893,36.071834135587814],[136.2953360439941,36.07210495255304]]]}},{"type":"Feature","properties":{"pid":"2d25d116-3596-4a92-924d-c5ccc81d5ed9"},"geometry":{"type":"Polygon","coordinates":[[[136.29615922487469,36.071182144365906],[136.29621696841693,36.07105806213262],[136.29622434298338,36.070688191555874],[136.29567880012638,36.07060816206585],[136.29561522594574,36.07081070709502],[136.29546872170863,36.07144936541563],[136.29612242316574,36.07154281077764],[136.29615922487469,36.071182144365906]]]}},{"type":"Feature","properties":{"pid":"458b0fe0-d119-4d50-9202-588473fa5165"},"geometry":{"type":"Polygon","coordinates":[[[136.29660431217027,36.07035170035855],[136.29674746674385,36.0703725563548],[136.29682042867697,36.07021025269833],[136.296691893706,36.06999117306885],[136.29663378079215,36.06985513700226],[136.29652260007038,36.069728944156054],[136.2963658687512,36.0697086307492],[136.29642210324442,36.06991005440402],[136.29660431217027,36.07035170035855]]]}},{"type":"Feature","properties":{"pid":"38e757eb-6a9f-40b6-b263-69f5b3c39b92"},"geometry":{"type":"Polygon","coordinates":[[[136.29567468153135,36.07048239223634],[136.2962621724134,36.070567957083185],[136.2963437211833,36.07037118842869],[136.29611476318752,36.0698247885548],[136.29607210444618,36.06956896858612],[136.29588300738226,36.06953810033593],[136.29567468153135,36.07048239223634]]]}},{"type":"Feature","properties":{"pid":"4339e7aa-7ea9-4472-a9a5-3578be307c83"},"geometry":{"type":"Polygon","coordinates":[[[136.29510691291463,36.07041300593523],[136.29549194200456,36.070467048013086],[136.29568956176854,36.06950488409026],[136.29551822880637,36.06946530794704],[136.29534225831978,36.06965406538389],[136.29510691291463,36.07041300593523]]]}},{"type":"Feature","properties":{"pid":"180c2453-fe5b-4eeb-a8df-e2d7c3f9a346"},"geometry":{"type":"Polygon","coordinates":[[[136.2940471429821,36.06936804419555],[136.29417699984197,36.069365474409906],[136.2942128999967,36.069383411761],[136.29423229881928,36.06956480473171],[136.29419632817124,36.069609060406734],[136.29406279684952,36.06961838132655],[136.29408558302495,36.070230241053025],[136.29480785375452,36.07022033926611],[136.2950158411231,36.06953307383145],[136.2950047378807,36.069325532649266],[136.2946889002812,36.069227951854224],[136.29404150069053,36.069256008034294],[136.2940471429821,36.06936804419555]]]}},{"type":"Feature","properties":{"pid":"44d351cc-3a09-41c1-bb46-1c8df67b332b"},"geometry":{"type":"Polygon","coordinates":[[[136.29527730333993,36.071425346984825],[136.29544266672124,36.07057534168877],[136.29507039004125,36.07052461872659],[136.29486063393367,36.07086778781392],[136.29472404581634,36.0710350367824],[136.29440734325985,36.07130728189408],[136.29527730333993,36.071425346984825]]]}},{"type":"Feature","properties":{"pid":"304c55bc-0e3b-4a2a-99c3-d45ba26d7095"},"geometry":{"type":"Polygon","coordinates":[[[136.29412597207804,36.07112209703216],[136.29448325612756,36.070836216409134],[136.2946277372029,36.07065000350532],[136.29473499148767,36.07034023645299],[136.29410059711137,36.07035764305628],[136.29412597207804,36.07112209703216]]]}},{"type":"Feature","properties":{"pid":"11b432e1-fe1d-4653-92c2-843c309ae70a"},"geometry":{"type":"Polygon","coordinates":[[[136.2924114209748,36.07096499380862],[136.29368655410994,36.07114845277714],[136.29389824279653,36.071168901526285],[136.29387701944216,36.0706494842677],[136.2923880506353,36.07070750531764],[136.2924114209748,36.07096499380862]]]}},{"type":"Feature","properties":{"pid":"047c06c1-767c-463e-8dc0-c8939bce72b5"},"geometry":{"type":"Polygon","coordinates":[[[136.29239259974338,36.070551209959795],[136.2938728262454,36.07048074342802],[136.2938484907533,36.06995458250929],[136.29235608038394,36.07001925398804],[136.29239259974338,36.070551209959795]]]}},{"type":"Feature","properties":{"pid":"91841e23-f38d-4c51-8aeb-d5c828b22407"},"geometry":{"type":"Polygon","coordinates":[[[136.2923318206532,36.069868005880124],[136.29387433456066,36.069795646358195],[136.29384294072912,36.06897576390344],[136.29227209495298,36.069051131883306],[136.2923318206532,36.069868005880124]]]}},{"type":"Feature","properties":{"pid":"dcae7767-bc11-4d7f-8739-e87ff8685cc3"},"geometry":{"type":"Polygon","coordinates":[[[136.29445577624827,36.06844095243286],[136.29422796264524,36.068880181677116],[136.29526292579192,36.06923166988856],[136.2953843735701,36.06909888396736],[136.29542809359998,36.06894512110418],[136.29543173821963,36.06886160298811],[136.2954071627237,36.06875510364719],[136.29445577624827,36.06844095243286]]]}},{"type":"Feature","properties":{"pid":"9208afcb-cd59-4993-9cdf-27bae5314695"},"geometry":{"type":"Polygon","coordinates":[[[136.29483298843962,36.06780152666978],[136.29451871059806,36.068339136822225],[136.2954089458804,36.06864054449756],[136.29564799421465,36.06809639624431],[136.29483298843962,36.06780152666978]]]}},{"type":"Feature","properties":{"pid":"233929d7-cebe-4564-9a69-cfc8f2ee5a43"},"geometry":{"type":"Polygon","coordinates":[[[136.29362418639343,36.068128640403664],[136.29371937324433,36.068111492221895],[136.29370452695653,36.06804113519908],[136.29362735562603,36.068003945403085],[136.29360669119814,36.06801289527867],[136.29362418639343,36.068128640403664]]]}},{"type":"Feature","properties":{"pid":"c5ed0684-de1a-4b62-8a1f-3cd80dfb1db6"},"geometry":{"type":"Polygon","coordinates":[[[136.2926518639111,36.06721197040673],[136.29266734734557,36.0672123060399],[136.29269068701953,36.06701179877947],[136.29263476624098,36.067013734126235],[136.2926518639111,36.06721197040673]]]}},{"type":"Feature","properties":{"pid":"3e739f60-0113-4715-ae96-f5f5133d6a92"},"geometry":{"type":"Polygon","coordinates":[[[136.2926050497888,36.066869332988844],[136.29310436196508,36.06684968413732],[136.2930886132932,36.0665151991557],[136.2925896486004,36.06655041712595],[136.2926050497888,36.066869332988844]]]}},{"type":"Feature","properties":{"pid":"b5c5141d-3604-4f2e-a1b0-e86689ba7d1b"},"geometry":{"type":"Polygon","coordinates":[[[136.29254606461737,36.06611009957303],[136.29256219091687,36.06637708736545],[136.29258868678605,36.06639149213283],[136.2930532512594,36.0663590738249],[136.29303174495024,36.06607866648843],[136.29254606461737,36.06611009957303]]]}},{"type":"Feature","properties":{"pid":"0b655268-2afb-47f3-94ef-3cfd6cc3f584"},"geometry":{"type":"Polygon","coordinates":[[[136.29321284776984,36.0663581891663],[136.2936492806719,36.066330008537285],[136.29362741772633,36.066049452942195],[136.2931916965433,36.06606945246461],[136.29321284776984,36.0663581891663]]]}},{"type":"Feature","properties":{"pid":"f8b6f9ef-6a9a-4fa0-99ee-e40d4f443b81"},"geometry":{"type":"Polygon","coordinates":[[[136.2932131635575,36.0665189077378],[136.29323152737405,36.06684458423267],[136.29332525241406,36.066843963778425],[136.29347068617975,36.06688538587444],[136.29345600931765,36.06653663909811],[136.29350145223503,36.0665105034343],[136.29368858902635,36.066511000163686],[136.29368711376884,36.06649603102142],[136.2932131635575,36.0665189077378]]]}},{"type":"Feature","properties":{"pid":"f00898ec-c71c-4052-ac2b-4335131f603c"},"geometry":{"type":"Polygon","coordinates":[[[136.29391151309983,36.06648439996963],[136.29387484494245,36.066513483262],[136.293901085703,36.066925118119805],[136.29415397116097,36.06692611636118],[136.29444879305763,36.066885760226526],[136.29442522545781,36.06645744878574],[136.29391151309983,36.06648439996963]]]}},{"type":"Feature","properties":{"pid":"b5dc4ff5-5f40-4f89-9ab0-187c46654c47"},"geometry":{"type":"Polygon","coordinates":[[[136.29384800596424,36.0663255745188],[136.2944077666299,36.06630374034789],[136.29439830388426,36.066013429366166],[136.29383542308125,36.066038345281676],[136.29384800596424,36.0663255745188]]]}},{"type":"Feature","properties":{"pid":"726eebd3-e216-431f-b22d-51cf616fe6a8"},"geometry":{"type":"Polygon","coordinates":[[[136.2945412103657,36.06629526704769],[136.29456295025855,36.066308709872],[136.29504041836555,36.06628002450565],[136.2950274386179,36.06598660794092],[136.29452806913287,36.06600847607858],[136.2945412103657,36.06629526704769]]]}},{"type":"Feature","properties":{"pid":"b1a18fd7-d1dd-4208-ab63-8eea896f443e"},"geometry":{"type":"Polygon","coordinates":[[[136.29458756014392,36.06688978181857],[136.29504757616277,36.06684814416645],[136.2950439836409,36.0664588285327],[136.29501400133722,36.066435805562826],[136.29455646955805,36.06645376396745],[136.29458756014392,36.06688978181857]]]}},{"type":"Feature","properties":{"pid":"28a1fa0c-aebc-4710-9bb8-1daf447968a4"},"geometry":{"type":"Polygon","coordinates":[[[136.29472832140468,36.06730481856081],[136.29484177667555,36.067346391572464],[136.29502550215113,36.06699443205715],[136.29488125769794,36.067000911511265],[136.29472832140468,36.06730481856081]]]}},{"type":"Feature","properties":{"pid":"dffba55b-0058-4f81-9253-49f7994387c0"},"geometry":{"type":"Polygon","coordinates":[[[136.29474427899333,36.06700966358964],[136.29445585406305,36.06703867589116],[136.29449506579655,36.067286656885386],[136.29460813946736,36.067282326092204],[136.29474427899333,36.06700966358964]]]}},{"type":"Feature","properties":{"pid":"cc747225-8af3-46ba-999b-57a7ed8ffd2e"},"geometry":{"type":"Polygon","coordinates":[[[136.2951014925984,36.06724017117486],[136.29556886776413,36.06740575828858],[136.29565920358277,36.06722348862517],[136.2951932209454,36.06706818175244],[136.2951014925984,36.06724017117486]]]}},{"type":"Feature","properties":{"pid":"e771c78c-68f0-4082-823f-4dae19c091c4"},"geometry":{"type":"Polygon","coordinates":[[[136.29523544272266,36.06688949878463],[136.29577907077785,36.06707742612147],[136.29590937066217,36.06686587497614],[136.2959570823802,36.06686206326153],[136.29610997488015,36.06692141579467],[136.2961792670261,36.06654142748619],[136.29521258945118,36.06643102405601],[136.29523544272266,36.06688949878463]]]}},{"type":"Feature","properties":{"pid":"6f4ef670-4ab6-4901-bd0d-91c3ee29bb14"},"geometry":{"type":"Polygon","coordinates":[[[136.29521586172953,36.06626744844758],[136.2952468189048,36.06629897173968],[136.29617755345984,36.06641093022973],[136.29619565522208,36.06633878988773],[136.2961814185272,36.06605785147892],[136.29558279311033,36.06598842316767],[136.29520935906592,36.065984492959444],[136.29521586172953,36.06626744844758]]]}},{"type":"Feature","properties":{"pid":"c2caa8a5-6b2d-47d1-bd51-b55cc986a6a2"},"geometry":{"type":"Polygon","coordinates":[[[136.29675652298752,36.066859689086144],[136.2977875650814,36.06694897854834],[136.29789841500627,36.06626859067005],[136.29748773500657,36.066229099219086],[136.29744726788783,36.06619988294498],[136.29695607114346,36.0661355755639],[136.29683959713026,36.066216818813885],[136.29675652298752,36.066859689086144]]]}},{"type":"Feature","properties":{"pid":"e702ecfa-8ae9-4ebf-97ea-d7302f92dc86"},"geometry":{"type":"Polygon","coordinates":[[[136.29711186132693,36.06764642250829],[136.29714345779587,36.067479125914666],[136.29718349003454,36.06744654195737],[136.29770311050942,36.0675020828872],[136.2977670163727,36.06706430675308],[136.2967564680605,36.06697317100552],[136.29668853553844,36.06726602728379],[136.29664724743296,36.06759246596458],[136.29711186132693,36.06764642250829]]]}},{"type":"Feature","properties":{"pid":"fcfafa66-981e-411f-98af-1bb309e3c97d"},"geometry":{"type":"Polygon","coordinates":[[[136.2975315784851,36.06793270241848],[136.2976837129452,36.06795132214352],[136.29769397148706,36.06787815670937],[136.2975432849872,36.06785986688501],[136.2975315784851,36.06793270241848]]]}},{"type":"Feature","properties":{"pid":"027c4c67-a823-4ee3-a25d-236c28810a9a"},"geometry":{"type":"Polygon","coordinates":[[[136.29649719463896,36.06857564104267],[136.29709936393056,36.068629360733176],[136.29714449224184,36.06853386553316],[136.29717236205383,36.06851259626541],[136.29753489717191,36.06848062774103],[136.29756639098625,36.06827236834118],[136.29655883730283,36.068177828552564],[136.29649719463896,36.06857564104267]]]}},{"type":"Feature","properties":{"pid":"50415789-6299-4762-ab60-a7aa4add7015"},"geometry":{"type":"Polygon","coordinates":[[[136.29656564306313,36.068065980895256],[136.297322558313,36.06813622292424],[136.29736019155445,36.067883129274996],[136.29715835669828,36.067855389286485],[136.29711839307996,36.06782055733307],[136.2966103248809,36.06775413797608],[136.29656564306313,36.068065980895256]]]}},{"type":"Feature","properties":{"pid":"7ad0b2d0-d99a-4119-8025-5b1ebdced4d3"},"geometry":{"type":"Polygon","coordinates":[[[136.2961561812115,36.06833187743481],[136.2961685431193,36.06820233697166],[136.2962760600691,36.06731305528881],[136.29603488568512,36.06752567887768],[136.29602941583,36.06757979720006],[136.29611343699466,36.06784017368571],[136.29609429877826,36.06803803542219],[136.29592715117397,36.06831514062695],[136.2961561812115,36.06833187743481]]]}},{"type":"Feature","properties":{"pid":"37c65b2f-30ba-4f87-87c5-2844de8b5be9"},"geometry":{"type":"Polygon","coordinates":[[[136.29573790858458,36.06796895147272],[136.2957648879277,36.06790813999761],[136.29573328667976,36.06778808308815],[136.2956421186533,36.0675855875142],[136.295055204409,36.067390879331626],[136.2948617694751,36.06766348378787],[136.29573790858458,36.06796895147272]]]}},{"type":"Feature","properties":{"pid":"2901c2dc-f278-4f23-822d-076ac9ddc939"},"geometry":{"type":"Polygon","coordinates":[[[136.29583434835615,36.068431800991455],[136.29572546222923,36.06862129373776],[136.29574138983463,36.06895685886946],[136.2956872804302,36.06921235037268],[136.29561686764887,36.06930718149751],[136.29599675257953,36.06937882596958],[136.29611332471455,36.0684530722179],[136.29583434835615,36.068431800991455]]]}},{"type":"Feature","properties":{"pid":"ecdadf41-9de2-4ba1-a85d-6af0787096c4"},"geometry":{"type":"Polygon","coordinates":[[[136.29646190916915,36.069154114747434],[136.29677783400865,36.06918314934401],[136.29682952510004,36.06911331683411],[136.29647709924646,36.069071442421595],[136.29646190916915,36.069154114747434]]]}},{"type":"Feature","properties":{"pid":"b9a5eb0a-c400-4378-831c-b8c96bb7525c"},"geometry":{"type":"Polygon","coordinates":[[[136.29647733468735,36.06867463566402],[136.29643441152805,36.068944865481306],[136.29688166624265,36.068993823566146],[136.2969950696018,36.06888774976668],[136.2970563292869,36.06872656248826],[136.29647733468735,36.06867463566402]]]}},{"type":"Feature","properties":{"pid":"1066d057-a40d-49b5-ae87-7f0ddbddcd4d"},"geometry":{"type":"Polygon","coordinates":[[[136.29799250544872,36.067698214465345],[136.29802101305177,36.067698715836826],[136.298090264407,36.06757330553785],[136.2979951110984,36.06757193511853],[136.2979822671435,36.06764696751924],[136.29799250544872,36.067698214465345]]]}},{"type":"Feature","properties":{"pid":"6533eb62-a282-4ff8-89ee-3f76924473d3"},"geometry":{"type":"Polygon","coordinates":[[[136.2982499173645,36.06611873752105],[136.2984048863838,36.066140032469775],[136.2984123955113,36.06610139156419],[136.2982564856613,36.06608246606215],[136.2982499173645,36.06611873752105]]]}},{"type":"Feature","properties":{"pid":"69385f95-b747-4b83-8f70-b1790685d860"},"geometry":{"type":"Polygon","coordinates":[[[136.29853160367722,36.066296222049424],[136.2987277425226,36.066370922011686],[136.2987341648361,36.0663474144561],[136.2987032160815,36.06626746741241],[136.29868754658997,36.06613376645355],[136.29856280855122,36.06612068350976],[136.29853160367722,36.066296222049424]]]}},{"type":"Feature","properties":{"pid":"04a4c7fb-a139-46ec-a76c-ed0ac59cf2a1"},"geometry":{"type":"Polygon","coordinates":[[[136.2982886447807,36.06590352824362],[136.29827552891933,36.06597450906565],[136.29867545798882,36.066022285135844],[136.29867805565732,36.065953090033695],[136.2982886447807,36.06590352824362]]]}},{"type":"Feature","properties":{"pid":"7a9d4637-443a-4d2f-95b8-85e6246f1b3f"},"geometry":{"type":"Polygon","coordinates":[[[136.29770473477703,36.065609370683994],[136.2980745685077,36.06565195037155],[136.298131782304,36.06529035373333],[136.2979526484717,36.065144599803425],[136.29795060728537,36.06508286345595],[136.2978771974241,36.06504767080928],[136.2977884858957,36.06507192467451],[136.29770473477703,36.065609370683994]]]}},{"type":"Feature","properties":{"pid":"b167b4ce-2bf3-4615-b34b-b9447becf0a7"},"geometry":{"type":"Polygon","coordinates":[[[136.29881860819614,36.0649780922101],[136.29887730710283,36.06498677508683],[136.29890030805578,36.06489682166179],[136.29884529922222,36.06489210296991],[136.29881860819614,36.0649780922101]]]}},{"type":"Feature","properties":{"pid":"1b251c9c-1b67-4c55-b79f-12c3fbe488a4"},"geometry":{"type":"Polygon","coordinates":[[[136.29894832002654,36.06465454697356],[136.29899889279565,36.06446705321841],[136.2989156718956,36.064478337108596],[136.29890264489683,36.0645065431967],[136.29889583999255,36.0646457664757],[136.29894832002654,36.06465454697356]]]}},{"type":"Feature","properties":{"pid":"46154bff-ee6c-4b68-a0c2-076d10698c65"},"geometry":{"type":"Polygon","coordinates":[[[136.29970371451225,36.06508536678811],[136.29981060718836,36.06509346352816],[136.2998575009471,36.064978488495],[136.29974724389817,36.064965984195396],[136.29970371451225,36.06508536678811]]]}},{"type":"Feature","properties":{"pid":"88284fdb-80c3-4d7a-b1e8-d0beafd139cb"},"geometry":{"type":"Polygon","coordinates":[[[136.29947646399503,36.0650590310172],[136.29956550848718,36.065056155469755],[136.29961250221055,36.06493225276232],[136.29952631176116,36.06491882456462],[136.29947646399503,36.0650590310172]]]}},{"type":"Feature","properties":{"pid":"ab47c893-f852-441f-81f6-00f1fef1bcdd"},"geometry":{"type":"Polygon","coordinates":[[[136.2978012857173,36.063212345014996],[136.29800774229918,36.06327905676087],[136.29810866420183,36.063246673989084],[136.29827868663432,36.06324151808323],[136.29828835899062,36.063098563603354],[136.2983205952278,36.063071236173535],[136.29838162739293,36.06307240461428],[136.29846043830935,36.062921823769756],[136.2984943794008,36.06278179967886],[136.2983552553753,36.06274410891302],[136.29786326003915,36.06299652505923],[136.29781219447293,36.063103999858455],[136.2978012857173,36.063212345014996]]]}},{"type":"Feature","properties":{"pid":"027f3941-0990-4564-b140-e6fa69a054ef"},"geometry":{"type":"Polygon","coordinates":[[[136.2983847352089,36.06224980115966],[136.29747700146714,36.06219053824898],[136.29741345497936,36.062445082155385],[136.29737839318219,36.062765682855485],[136.29762576959976,36.06284856955782],[136.29834718933213,36.062312644084365],[136.2983847352089,36.06224980115966]]]}},{"type":"Feature","properties":{"pid":"cf3d1e8d-ebd8-4381-82ce-7322d6e7f339"},"geometry":{"type":"Polygon","coordinates":[[[136.29730585403308,36.06305566298333],[136.29729866083937,36.063349557482304],[136.2974916430622,36.06341134158549],[136.29745244436228,36.0631652222994],[136.29753205728252,36.062954172619854],[136.29733476378212,36.06290644718712],[136.29730585403308,36.06305566298333]]]}},{"type":"Feature","properties":{"pid":"18b788cb-f6cf-40dd-8074-55224c90ad5f"},"geometry":{"type":"Polygon","coordinates":[[[136.29714050551055,36.06430341385444],[136.29771344940653,36.064354242641734],[136.29777358293887,36.064273018804535],[136.2977990404985,36.06421037181982],[136.2977607912367,36.063975087975564],[136.29776358048449,36.06384178986837],[136.29767030743074,36.063637258647404],[136.29732270404224,36.063567853465074],[136.29724567948844,36.063962260772136],[136.29714050551055,36.06430341385444]]]}},{"type":"Feature","properties":{"pid":"5f1dd9ee-364c-4b08-8944-2b6c5a58b277"},"geometry":{"type":"Polygon","coordinates":[[[136.29702649019,36.06502144675129],[136.29720243989792,36.06499303774363],[136.29748538008616,36.06491050875217],[136.2975187339521,36.06485803997097],[136.2976557581531,36.06446888992524],[136.29714863696915,36.06443183385012],[136.29706006720906,36.06474723403536],[136.29702649019,36.06502144675129]]]}},{"type":"Feature","properties":{"pid":"5b896c14-8756-49ca-a7bc-ca350aebf425"},"geometry":{"type":"Polygon","coordinates":[[[136.2969823152097,36.065886173148314],[136.29745418327929,36.065930615940296],[136.29759823102168,36.065121736616504],[136.29758522702642,36.065114467530414],[136.29732411243907,36.06522518853593],[136.29700650819524,36.06529336975069],[136.29691309211339,36.06581237453195],[136.2969823152097,36.065886173148314]]]}},{"type":"Feature","properties":{"pid":"c5f66b40-5abc-4d2b-99b3-b2b32dece877"},"geometry":{"type":"Polygon","coordinates":[[[136.2955092320198,36.065686384105035],[136.29550957159069,36.06572632081463],[136.29584383901982,36.06574245254465],[136.29623914009787,36.065785726307574],[136.29632349841876,36.06557888739522],[136.29634223618743,36.065456093750285],[136.2955411929455,36.06545560728116],[136.29553121666805,36.06565627341069],[136.2955092320198,36.065686384105035]]]}},{"type":"Feature","properties":{"pid":"ca249f54-be8d-40b0-9b0a-7d00d112fcb0"},"geometry":{"type":"Polygon","coordinates":[[[136.29568776574368,36.0652673575258],[136.2962760325531,36.06525354320058],[136.29629565245486,36.06522457807617],[136.2963384063518,36.06521413296598],[136.29642327169066,36.06510605709531],[136.29662184764373,36.06502098302984],[136.2966619995245,36.06494498572799],[136.29672778398051,36.0645983066936],[136.29656232312786,36.06475201124438],[136.29629936756857,36.06486348200084],[136.29617500749194,36.06494974049191],[136.29595347412717,36.065209549220356],[136.29570140923752,36.06523529006122],[136.29568776574368,36.0652673575258]]]}},{"type":"Feature","properties":{"pid":"63066d6b-0d9c-439e-b430-1f4b33620f37"},"geometry":{"type":"Polygon","coordinates":[[[136.29524337164435,36.06572344707909],[136.2951857874081,36.065703482207354],[136.29517247571158,36.065663591118295],[136.29482867916116,36.06557281395991],[136.2945057626388,36.06545910884446],[136.29452623368255,36.06574256523261],[136.29524337164435,36.06572344707909]]]}},{"type":"Feature","properties":{"pid":"9c2cae92-aa58-4540-9cc1-1bd2c9fe5b85"},"geometry":{"type":"Polygon","coordinates":[[[136.29381445969508,36.06578526372461],[136.29437278816738,36.06575591454294],[136.2943580071956,36.06541304273678],[136.29378266848082,36.065228526140984],[136.29381445969508,36.06578526372461]]]}},{"type":"Feature","properties":{"pid":"ebbcd14c-11f7-4731-9486-4f254c0c84bd"},"geometry":{"type":"Polygon","coordinates":[[[136.29307531262907,36.06581472716901],[136.29365006786986,36.06579462912186],[136.29359607733832,36.06514851955227],[136.29300998750486,36.064967287400435],[136.29307531262907,36.06581472716901]]]}},{"type":"Feature","properties":{"pid":"932af470-fe4f-4435-af72-0f554eb0dd12"},"geometry":{"type":"Polygon","coordinates":[[[136.29256846039516,36.06583383036949],[136.29294771219807,36.06582180251092],[136.29287410390208,36.064928218851435],[136.29245485161636,36.06477679484517],[136.29252017956543,36.06579805110563],[136.29256846039516,36.06583383036949]]]}},{"type":"Feature","properties":{"pid":"c87a4d97-ae45-4f22-8aa8-fb46ddf130b7"},"geometry":{"type":"Polygon","coordinates":[[[136.28944625256088,36.06460283327776],[136.28987754174946,36.06456960235067],[136.2897125415585,36.06395555888758],[136.2896207555967,36.064114602309935],[136.2894803584927,36.06424728715076],[136.28936514675476,36.06430742351001],[136.28944625256088,36.06460283327776]]]}},{"type":"Feature","properties":{"pid":"92b255d2-7a63-4024-9023-cb9b80e58e77"},"geometry":{"type":"Polygon","coordinates":[[[136.28885283222658,36.065341772554206],[136.290515353666,36.065262429804484],[136.29047971628498,36.06473872064865],[136.28903849629597,36.06482255203266],[136.28881156944894,36.06491909373271],[136.28885283222658,36.065341772554206]]]}},{"type":"Feature","properties":{"pid":"f0a65590-6c27-4e44-bbd7-0e3f285afbd3"},"geometry":{"type":"Polygon","coordinates":[[[136.28889577060528,36.065997422370316],[136.2905615400132,36.065919686450364],[136.29052382392075,36.065414570410475],[136.28885588234803,36.065503705249604],[136.28889577060528,36.065997422370316]]]}},{"type":"Feature","properties":{"pid":"2d971716-78ff-476f-af35-acf27653e345"},"geometry":{"type":"Polygon","coordinates":[[[136.29011212922757,36.06455838470878],[136.29097038890313,36.064496379613814],[136.29094737159295,36.064231000867785],[136.29083028261246,36.06386169592546],[136.28993705259705,36.06402408236966],[136.29011212922757,36.06455838470878]]]}},{"type":"Feature","properties":{"pid":"0a691c56-9858-48d5-a4fa-431f64f000c2"},"geometry":{"type":"Polygon","coordinates":[[[136.29124229725826,36.06471257223474],[136.29072969957164,36.06474773393221],[136.29076875536526,36.0652596822125],[136.29228639909385,36.06518917992943],[136.2922455388808,36.06470026409022],[136.29215563243147,36.06466326120248],[136.29200345483042,36.0646559714396],[136.2912833457879,36.06468841496557],[136.29124229725826,36.06471257223474]]]}},{"type":"Feature","properties":{"pid":"8b716371-b69b-4f1f-965b-fd9fecc5a15e"},"geometry":{"type":"Polygon","coordinates":[[[136.29228466775277,36.06534135940705],[136.29078274214217,36.06540750845573],[136.29081437230874,36.065907528581164],[136.29229425108818,36.06583444089491],[136.29228466775277,36.06534135940705]]]}},{"type":"Feature","properties":{"pid":"d5a4952c-28cd-466a-847c-f79a62249150"},"geometry":{"type":"Polygon","coordinates":[[[136.29085647110261,36.066464886373716],[136.29135947603157,36.06644801901762],[136.2923187156318,36.06637731799473],[136.2923033420015,36.06611508444775],[136.2908335892949,36.066161333192404],[136.29085647110261,36.066464886373716]]]}},{"type":"Feature","properties":{"pid":"5064a103-9dbc-4bfb-ab50-2eb19d8b09ce"},"geometry":{"type":"Polygon","coordinates":[[[136.29090581541578,36.06758408828591],[136.29205497158162,36.06753729626191],[136.2920098973636,36.06658082179701],[136.29084385257832,36.06662773581816],[136.29090581541578,36.06758408828591]]]}},{"type":"Feature","properties":{"pid":"14588f22-1c07-4a9d-9564-1268f204c33d"},"geometry":{"type":"Polygon","coordinates":[[[136.2922128019788,36.06750696726163],[136.29244410784491,36.06751023763733],[136.29238895572664,36.06655089330443],[136.2921540823996,36.06655435885594],[136.2922128019788,36.06750696726163]]]}},{"type":"Feature","properties":{"pid":"b58e0a3a-c5d1-44d6-a1a8-ad47d749cd57"},"geometry":{"type":"Polygon","coordinates":[[[136.29237999313924,36.06804210242197],[136.29238042032242,36.06807622667524],[136.2926119593516,36.068082468384866],[136.29259935439552,36.06796776174846],[136.29253131050044,36.067993025721215],[136.29241599263108,36.06797306858086],[136.2924094343302,36.06801918376223],[136.29237999313924,36.06804210242197]]]}},{"type":"Feature","properties":{"pid":"4b3feaa1-8ffe-419d-97f2-c51432cebb9c"},"geometry":{"type":"Polygon","coordinates":[[[136.29096239871726,36.06817452968876],[136.29203184129116,36.06812589698757],[136.29199732783908,36.06768473029513],[136.29091710464195,36.0677306115639],[136.29096239871726,36.06817452968876]]]}},{"type":"Feature","properties":{"pid":"8a6388a5-aae2-4adc-b930-557c3671cb2f"},"geometry":{"type":"Polygon","coordinates":[[[136.29202794073586,36.06826536220445],[136.29098368370512,36.068315918066844],[136.2910275614091,36.0689555290656],[136.2914485259177,36.068936877615464],[136.29144451344285,36.0688209574587],[136.29149533350562,36.068787020970866],[136.29178221058166,36.06877634072478],[136.29182273578866,36.06880838568485],[136.29183225775145,36.068907098734556],[136.29208589312776,36.06889478053611],[136.29202794073586,36.06826536220445]]]}},{"type":"Feature","properties":{"pid":"1f647f64-202c-4a33-abec-96d35ed1aa41"},"geometry":{"type":"Polygon","coordinates":[[[136.2906865301633,36.06896272624272],[136.29066277303093,36.06861833277094],[136.29063595630473,36.06861969691923],[136.29063996554135,36.06871008377942],[136.29067485433714,36.06882486033453],[136.2906466165624,36.068964917001836],[136.2906865301633,36.06896272624272]]]}},{"type":"Feature","properties":{"pid":"8b9071bb-0875-4033-9ed1-03766c7eaf90"},"geometry":{"type":"Polygon","coordinates":[[[136.2906294101211,36.06849955545934],[136.2906966238955,36.06849614942108],[136.2906774757448,36.06821432295826],[136.29062091828325,36.06844107611646],[136.2906294101211,36.06849955545934]]]}},{"type":"Feature","properties":{"pid":"e06c8945-9806-4b9e-9923-90d79a39dc44"},"geometry":{"type":"Polygon","coordinates":[[[136.2904830632118,36.06835708439738],[136.2906372583928,36.06782378378622],[136.2906243017937,36.06763470581228],[136.2904664398456,36.06765902761581],[136.2903004275852,36.06820439450327],[136.29038535313018,36.068250852175936],[136.2904830632118,36.06835708439738]]]}},{"type":"Feature","properties":{"pid":"88c98c4a-17c4-476b-8338-26ba567a2000"},"geometry":{"type":"Polygon","coordinates":[[[136.29018620221626,36.06814941417825],[136.29033822222542,36.06766376886612],[136.29028137780628,36.06766318758292],[136.29015044782642,36.06813291786541],[136.29018620221626,36.06814941417825]]]}},{"type":"Feature","properties":{"pid":"bfaef3ab-8c87-4804-bd2c-2d98c21181ae"},"geometry":{"type":"Polygon","coordinates":[[[136.2900223959045,36.06810930545777],[136.29014739236266,36.06766228960764],[136.2900292070473,36.0676582632297],[136.28991425332597,36.068112665896685],[136.2900223959045,36.06810930545777]]]}},{"type":"Feature","properties":{"pid":"cba9cf61-9a29-4ff4-9c23-33f8522dfb7c"},"geometry":{"type":"Polygon","coordinates":[[[136.2894128457688,36.06795804967355],[136.28954239832726,36.06800466955198],[136.28965977710024,36.067595803626055],[136.28953180100544,36.06755179699513],[136.2894128457688,36.06795804967355]]]}},{"type":"Feature","properties":{"pid":"3b50cfdb-e0d9-4835-803a-d52a875308f5"},"geometry":{"type":"Polygon","coordinates":[[[136.28927992448217,36.067911660604],[136.289396699034,36.067510423789],[136.28929643119451,36.06748920801681],[136.2891853165919,36.067881010649195],[136.28927992448217,36.067911660604]]]}},{"type":"Feature","properties":{"pid":"31f7e93b-abd4-4bcd-a0a7-e35a8d54656c"},"geometry":{"type":"Polygon","coordinates":[[[136.28881964227176,36.06759163822432],[136.28886199180872,36.067637521374486],[136.2889300735203,36.06740514492592],[136.28887352643721,36.06739197714043],[136.28881964227176,36.06759163822432]]]}},{"type":"Feature","properties":{"pid":"81ec55c6-6052-488b-8d6c-eeed297d57d5"},"geometry":{"type":"Polygon","coordinates":[[[136.28905449780095,36.06783207308404],[136.2891643323596,36.06745278522109],[136.28907112949838,36.067433733224156],[136.28897727594256,36.067772850350096],[136.28905449780095,36.06783207308404]]]}},{"type":"Feature","properties":{"pid":"bd688e3c-1f85-441e-aa4c-d5c17d353fea"},"geometry":{"type":"Polygon","coordinates":[[[136.28009003454875,36.064386777531496],[136.28027565023078,36.06438450590803],[136.28022648216222,36.06426552932799],[136.28009171025232,36.064177970451695],[136.28009003454875,36.064386777531496]]]}},{"type":"Feature","properties":{"pid":"264be26a-fc55-46b1-9aa0-7c76604d6e15"},"geometry":{"type":"Polygon","coordinates":[[[136.2798517887717,36.064379468071905],[136.27994065264485,36.064385847188426],[136.27995884684105,36.06409137080358],[136.27993158795653,36.064046148271586],[136.2798556526248,36.064046874808895],[136.2798517887717,36.064379468071905]]]}},{"type":"Feature","properties":{"pid":"a9d06aef-3534-4a7b-81b1-9329433d137e"},"geometry":{"type":"Polygon","coordinates":[[[136.27943240945604,36.064390677879146],[136.27949442211101,36.06438790041509],[136.2794979813928,36.06404195439757],[136.2794180111206,36.0640455017647],[136.27940644424837,36.06437215683902],[136.27943240945604,36.064390677879146]]]}},{"type":"Feature","properties":{"pid":"e7351a9e-81bc-4cb3-8f8d-2a2832827f7e"},"geometry":{"type":"Polygon","coordinates":[[[136.27963975946494,36.0643874315443],[136.27971981292012,36.06438463739245],[136.27972043494634,36.06404457107591],[136.2796439043398,36.06404668284733],[136.27963975946494,36.0643874315443]]]}},{"type":"Feature","properties":{"pid":"aace4c06-adbf-4ecd-96a9-0c65ae01fa23"},"geometry":{"type":"Polygon","coordinates":[[[136.27921631502593,36.06439559220929],[136.27927760558606,36.06439364738942],[136.27928758528122,36.06404435624575],[136.27919801935428,36.064041904155005],[136.27919329338704,36.064372031133274],[136.27921631502593,36.06439559220929]]]}},{"type":"Feature","properties":{"pid":"c719bbe4-c4cf-4bb7-b213-f049eed947a5"},"geometry":{"type":"Polygon","coordinates":[[[136.2790566092243,36.06439783502336],[136.2790710377882,36.064037688052565],[136.27885503547915,36.06404236606664],[136.27874304039887,36.06425275954908],[136.2787381374672,36.06440596441041],[136.2790566092243,36.06439783502336]]]}},{"type":"Feature","properties":{"pid":"38f7c212-0160-4936-a220-26d68dad53ba"},"geometry":{"type":"Polygon","coordinates":[[[136.27838198144468,36.064030366199894],[136.2783095037471,36.064028180995436],[136.27830244627904,36.06433929951654],[136.27837304639831,36.06428241803398],[136.27838198144468,36.064030366199894]]]}},{"type":"Feature","properties":{"pid":"99c72baa-e7a1-48b9-a4f2-518d5e8e581d"},"geometry":{"type":"Polygon","coordinates":[[[136.27754021378396,36.06460440284147],[136.27764319241535,36.06459365879685],[136.27765495294454,36.06402078417439],[136.27752801357374,36.064018609237614],[136.27752373834994,36.06459205499624],[136.27754021378396,36.06460440284147]]]}},{"type":"Feature","properties":{"pid":"aee663c9-eba6-4768-ad90-b7a6deec4466"},"geometry":{"type":"Polygon","coordinates":[[[136.27722374745971,36.064592243059906],[136.27724131376624,36.06460378328599],[136.277382110373,36.064604826888896],[136.27739096771973,36.06401995446103],[136.2772360166456,36.06401789861217],[136.27722374745971,36.064592243059906]]]}},{"type":"Feature","properties":{"pid":"982babff-31e5-4c1a-bc86-1141da8a5f81"},"geometry":{"type":"Polygon","coordinates":[[[136.27741353495074,36.06329109294264],[136.27723050136547,36.063290278475144],[136.2772240842339,36.063883798219905],[136.27740280902017,36.06387969533014],[136.27741353495074,36.06329109294264]]]}},{"type":"Feature","properties":{"pid":"74fb3469-2e8d-47a7-8f87-16b0a645cd38"},"geometry":{"type":"Polygon","coordinates":[[[136.27766144927492,36.063885335408365],[136.277666666291,36.06329347036237],[136.27754171550862,36.063290589701],[136.27753101663052,36.06388187778955],[136.27766144927492,36.063885335408365]]]}},{"type":"Feature","properties":{"pid":"2bdbce09-66db-4f12-804a-f4350550766b"},"geometry":{"type":"Polygon","coordinates":[[[136.2779611204132,36.06329701137117],[136.27785802364798,36.063295084992596],[136.27785241976576,36.063887526165786],[136.2779566643179,36.06388750196416],[136.2779611204132,36.06329701137117]]]}},{"type":"Feature","properties":{"pid":"7a7fb923-fed0-49ee-9f4b-4ef8c15935a3"},"geometry":{"type":"Polygon","coordinates":[[[136.27818172185312,36.06388681807459],[136.2781840896262,36.06329831004436],[136.27808915670917,36.063298115697],[136.27808271055812,36.06388572131056],[136.27818172185312,36.06388681807459]]]}},{"type":"Feature","properties":{"pid":"7626bb63-2371-4121-9c14-d39828c3dfb6"},"geometry":{"type":"Polygon","coordinates":[[[136.27839526506435,36.06388771308943],[136.2784024848377,36.0632965883129],[136.27831501026773,36.06329591481642],[136.27831071586047,36.06388822247635],[136.27839526506435,36.06388771308943]]]}},{"type":"Feature","properties":{"pid":"7fa5479d-af1b-4dfd-b317-c454c532ba1e"},"geometry":{"type":"Polygon","coordinates":[[[136.2792918458661,36.063297912517335],[136.27920667865294,36.0632963820666],[136.27918534503533,36.063887733554],[136.27926913714083,36.06388952323396],[136.2792918458661,36.063297912517335]]]}},{"type":"Feature","properties":{"pid":"a5cc25c6-76f8-4f29-8127-c41d31626651"},"geometry":{"type":"Polygon","coordinates":[[[136.27947113736565,36.06330850575856],[136.27942822109486,36.06330440391314],[136.27941767357305,36.063894210355194],[136.27950919041422,36.06389144230052],[136.27950611894553,36.063675886855144],[136.2794641095562,36.063577346511494],[136.27947113736565,36.06330850575856]]]}},{"type":"Feature","properties":{"pid":"e47dc913-f960-4753-a33d-83ac2e36084b"},"geometry":{"type":"Polygon","coordinates":[[[136.27905887818744,36.06389537255956],[136.27907346737464,36.06330493363423],[136.27902431473433,36.06330456631612],[136.27898378814896,36.06361253487531],[136.27897220632653,36.063895144152696],[136.27905887818744,36.06389537255956]]]}},{"type":"Feature","properties":{"pid":"6fabfe11-0621-43c1-802f-4bbd8c872fa0"},"geometry":{"type":"Polygon","coordinates":[[[136.278628269828,36.06330174804916],[136.2785330278512,36.0632999887667],[136.27852450497417,36.063890651444765],[136.2786154621302,36.06388842516351],[136.27862056824569,36.06386845341548],[136.278628269828,36.06330174804916]]]}},{"type":"Feature","properties":{"pid":"84540ed1-ecaf-4a75-98b6-ddd8220ce71c"},"geometry":{"type":"Polygon","coordinates":[[[136.2786171163015,36.06255066914477],[136.27854080804278,36.06255051491924],[136.27853233239236,36.06312939708133],[136.27864157991417,36.06313014103368],[136.27864245937633,36.06256789640859],[136.2786171163015,36.06255066914477]]]}},{"type":"Feature","properties":{"pid":"06a4d087-7c8a-4106-93cb-8174b030f1d1"},"geometry":{"type":"Polygon","coordinates":[[[136.27876489579333,36.06279636153509],[136.27876278854805,36.063131572594656],[136.27880464538984,36.06313093897005],[136.27886431695188,36.06286013855289],[136.27876489579333,36.06279636153509]]]}},{"type":"Feature","properties":{"pid":"a5f58b57-0f6b-4359-bb00-33d13155a58c"},"geometry":{"type":"Polygon","coordinates":[[[136.27919378429215,36.063133408387266],[136.2790747868804,36.063046527475606],[136.27905507907383,36.06313258222289],[136.27919378429215,36.063133408387266]]]}},{"type":"Feature","properties":{"pid":"057acbec-891e-4f64-9548-1d60e9da06fb"},"geometry":{"type":"Polygon","coordinates":[[[136.2784149089686,36.062547401502556],[136.278314861562,36.06254840699002],[136.27830637521677,36.06312790210659],[136.2784133523481,36.063128540429496],[136.2784149089686,36.062547401502556]]]}},{"type":"Feature","properties":{"pid":"7404b8f1-136f-4442-971a-b8ff9b2d04c2"},"geometry":{"type":"Polygon","coordinates":[[[136.27819114035887,36.062544739594514],[136.27808937042957,36.062543978002125],[136.27808721328685,36.06312638285185],[136.27818451001318,36.06312687314242],[136.27819114035887,36.062544739594514]]]}},{"type":"Feature","properties":{"pid":"6be6da8f-ce18-440c-8fca-ca598d360819"},"geometry":{"type":"Polygon","coordinates":[[[136.27796377743692,36.06312561829305],[136.2779619586386,36.062542560454176],[136.27785902506017,36.06254484653157],[136.27786282256403,36.063125825610946],[136.27796377743692,36.06312561829305]]]}},{"type":"Feature","properties":{"pid":"af21ea53-0685-4cf2-85ec-fa93676fb113"},"geometry":{"type":"Polygon","coordinates":[[[136.27753360752305,36.06310409698509],[136.27766280292,36.063115546168014],[136.2776743664647,36.06253812030109],[136.27754441320107,36.062535902460645],[136.27753360752305,36.06310409698509]]]}},{"type":"Feature","properties":{"pid":"1b68b297-711a-4550-b529-7dcb5dab053b"},"geometry":{"type":"Polygon","coordinates":[[[136.27709414568685,36.06310767382851],[136.27741133914753,36.06311176746582],[136.27741635345782,36.062530278612364],[136.27709425142032,36.062530846277056],[136.27709414568685,36.06310767382851]]]}},{"type":"Feature","properties":{"pid":"d7e5c60b-e190-4205-bfc7-67bc22b922b8"},"geometry":{"type":"Polygon","coordinates":[[[136.2763953957296,36.062401172893],[136.27641639060968,36.06237276736021],[136.27569183293892,36.06236402395606],[136.2756899199883,36.06239623237284],[136.2763953957296,36.062401172893]]]}},{"type":"Feature","properties":{"pid":"2d66cbbd-d169-4e4b-95af-12ce36455d91"},"geometry":{"type":"Polygon","coordinates":[[[136.27639585691423,36.06249597607258],[136.27568665378433,36.06249124557634],[136.2756863851521,36.06275157307457],[136.27640330495632,36.062755104133295],[136.2764101618173,36.062507155349046],[136.27639585691423,36.06249597607258]]]}},{"type":"Feature","properties":{"pid":"98ec3aec-7774-409d-ba13-d6491edcf63c"},"geometry":{"type":"Polygon","coordinates":[[[136.27640179175845,36.062853316995174],[136.2756843908164,36.0628498145893],[136.2756863946695,36.063117161640136],[136.27639600536955,36.063114267116305],[136.27640179175845,36.062853316995174]]]}},{"type":"Feature","properties":{"pid":"4a02675b-97ab-4b7e-ba5b-51290853595c"},"geometry":{"type":"Polygon","coordinates":[[[136.27659882806958,36.06252902784818],[136.276591319248,36.06310813390441],[136.27696708412168,36.0631088494892],[136.2769679185532,36.062531587631504],[136.27659882806958,36.06252902784818]]]}},{"type":"Feature","properties":{"pid":"3da5c018-4acb-4009-8dbd-12e2aff7d768"},"geometry":{"type":"Polygon","coordinates":[[[136.276974074778,36.06328564769957],[136.27659438394423,36.06328089855948],[136.2765858542738,36.06387776593164],[136.27697053140722,36.06388272184394],[136.276974074778,36.06328564769957]]]}},{"type":"Feature","properties":{"pid":"a97d99ab-cb9d-4a0c-ab15-03298f5a3c01"},"geometry":{"type":"Polygon","coordinates":[[[136.27639542872578,36.06326724813379],[136.27568941061145,36.063260267950966],[136.27567765657648,36.063893368666946],[136.276384790537,36.06389964465295],[136.27639542872578,36.06326724813379]]]}},{"type":"Feature","properties":{"pid":"b8670b15-1a95-4f83-838d-6acaa12448b3"},"geometry":{"type":"Polygon","coordinates":[[[136.274778769578,36.06387163115681],[136.27479942384244,36.06388826639197],[136.2755029722701,36.063891963532065],[136.27550843734815,36.06362990247994],[136.2747832500642,36.06362389085776],[136.274778769578,36.06387163115681]]]}},{"type":"Feature","properties":{"pid":"c1ba4ad9-5209-4dee-835b-ef05996174e3"},"geometry":{"type":"Polygon","coordinates":[[[136.27551492044574,36.06326420740423],[136.2747908036724,36.06326196513676],[136.27478481301983,36.063522766244],[136.2755108921374,36.06352974050319],[136.27551492044574,36.06326420740423]]]}},{"type":"Feature","properties":{"pid":"baadd1e0-1d19-4e54-a133-9cdbaa2895a8"},"geometry":{"type":"Polygon","coordinates":[[[136.27552431825478,36.062489874886715],[136.2747983457561,36.062482930205135],[136.2747911000258,36.06310471675211],[136.27551503143414,36.06312027779806],[136.27552431825478,36.062489874886715]]]}},{"type":"Feature","properties":{"pid":"9520d8b7-bfdc-45ce-a32a-48cd268eaabf"},"geometry":{"type":"Polygon","coordinates":[[[136.27576865219228,36.065502969732],[136.27579487069178,36.065525308041494],[136.27604568509756,36.06552975617179],[136.27606034970603,36.064879982976194],[136.27577929749552,36.06487808602929],[136.27576865219228,36.065502969732]]]}},{"type":"Feature","properties":{"pid":"f2614777-8c6e-4880-a70c-7c7372911f4b"},"geometry":{"type":"Polygon","coordinates":[[[136.27548937781145,36.06546635649951],[136.27552536774732,36.06542515737117],[136.27564621122946,36.06542532869547],[136.27565534782326,36.06487402258117],[136.2754466082272,36.06487286710516],[136.27543821975615,36.065527896837494],[136.27548770492595,36.065527711754875],[136.27548937781145,36.06546635649951]]]}},{"type":"Feature","properties":{"pid":"d7a49d96-33bf-4bb7-8a70-1d0eda82503c"},"geometry":{"type":"Polygon","coordinates":[[[136.27523143719372,36.06486931151258],[136.27523867442957,36.06491080781488],[136.2752202944071,36.064937256939785],[136.27510910402222,36.06496308155416],[136.27509808708749,36.065511878476435],[136.27511640092936,36.065529334250414],[136.27531179328005,36.065528214031254],[136.2753202461595,36.06486927316528],[136.27523143719372,36.06486931151258]]]}},{"type":"Feature","properties":{"pid":"e0a4eb14-0d70-4a8d-a26e-2fb11b98dac5"},"geometry":{"type":"Polygon","coordinates":[[[136.27478097634065,36.06423710237184],[136.27549472050256,36.06425229827264],[136.27550617491033,36.06399261007039],[136.27478237973475,36.063989101738215],[136.27478097634065,36.06423710237184]]]}},{"type":"Feature","properties":{"pid":"4c878f20-2d5b-43e8-9ac2-fd99d356e06b"},"geometry":{"type":"Polygon","coordinates":[[[136.27549127906127,36.064353170043915],[136.27477897898834,36.064349641879666],[136.2747789571434,36.064598000979885],[136.27538629748673,36.064602481889914],[136.27541383049538,36.06456506796596],[136.27548678268494,36.06455802731609],[136.27549127906127,36.064353170043915]]]}},{"type":"Feature","properties":{"pid":"8d143538-e139-4d38-a356-cfe315750bab"},"geometry":{"type":"Polygon","coordinates":[[[136.27638757839276,36.06436422421784],[136.27567174462772,36.064349832000296],[136.27566784058175,36.06460685926921],[136.27638662385576,36.06460220978552],[136.27638757839276,36.06436422421784]]]}},{"type":"Feature","properties":{"pid":"baedd720-1c5d-424d-8733-84fa27756a30"},"geometry":{"type":"Polygon","coordinates":[[[136.27638571616419,36.06399841736891],[136.27567774903326,36.06399316340951],[136.27567580768624,36.06425156369258],[136.27638145563753,36.06425144266893],[136.27638571616419,36.06399841736891]]]}},{"type":"Feature","properties":{"pid":"30156ea9-c56b-419d-ab2d-5ca91f2cf2fb"},"geometry":{"type":"Polygon","coordinates":[[[136.27662462846416,36.064592181694344],[136.2766444845504,36.06460542959916],[136.27676018549292,36.0646064724488],[136.27677089198258,36.06401922241255],[136.27662731077123,36.06401760156318],[136.27662462846416,36.064592181694344]]]}},{"type":"Feature","properties":{"pid":"8d6814c6-6452-4db3-b865-661338895723"},"geometry":{"type":"Polygon","coordinates":[[[136.27688076791551,36.06459474526471],[136.27694880915777,36.06460506290989],[136.27695440947252,36.06401530275017],[136.27689081147764,36.06401556110826],[136.27688076791551,36.06459474526471]]]}},{"type":"Feature","properties":{"pid":"004a7186-17f7-424d-b47b-83d13b256258"},"geometry":{"type":"Polygon","coordinates":[[[136.27707749510841,36.064593861906985],[136.27710072784322,36.06460597155131],[136.2771093461301,36.06401319437248],[136.27708258935414,36.06401266358764],[136.27707749510841,36.064593861906985]]]}},{"type":"Feature","properties":{"pid":"1196d208-d5b3-47ea-a572-19dcd28fe998"},"geometry":{"type":"Polygon","coordinates":[[[136.27679853708145,36.06485477901538],[136.2767971408465,36.06521704799542],[136.27689933212253,36.06521598831327],[136.2769015704186,36.06485035328659],[136.27679853708145,36.06485477901538]]]}},{"type":"Feature","properties":{"pid":"4867debc-c2db-4c79-b3b4-8cf75544cba5"},"geometry":{"type":"Polygon","coordinates":[[[136.2756097707192,36.06746100075342],[136.27562432528862,36.067446045832114],[136.27562923940985,36.06664124202606],[136.27542399482198,36.06664191418003],[136.27542027588382,36.067459751899264],[136.2756097707192,36.06746100075342]]]}},{"type":"Feature","properties":{"pid":"673734fc-7b31-4283-ba84-0418396809bd"},"geometry":{"type":"Polygon","coordinates":[[[136.27574590546678,36.067447831023884],[136.2757572270277,36.06746075394037],[136.27604823657558,36.06746224360195],[136.27604637456102,36.06664315044021],[136.27575418993106,36.06664494425462],[136.27574590546678,36.067447831023884]]]}},{"type":"Feature","properties":{"pid":"44e4f0ad-0e5f-4f49-b35e-b2da2dd50417"},"geometry":{"type":"Polygon","coordinates":[[[136.27512706192715,36.06745917632586],[136.27520540756896,36.06743881804029],[136.27529611117225,36.06745920296769],[136.2753022395494,36.06663940888285],[136.27513181845944,36.06663896248901],[136.27512706192715,36.06745917632586]]]}},{"type":"Feature","properties":{"pid":"0259a8fd-b37a-4cd9-8f40-3a06eb41c846"},"geometry":{"type":"Polygon","coordinates":[[[136.27563633564242,36.06568639655393],[136.275432582602,36.065688668208715],[136.27542446263328,36.066501558974295],[136.2756330559237,36.06650493538243],[136.27563633564242,36.06568639655393]]]}},{"type":"Feature","properties":{"pid":"439b9ccc-a211-4218-8fcd-86c1ec21f4b7"},"geometry":{"type":"Polygon","coordinates":[[[136.2757662212668,36.065682960885574],[136.27575954593263,36.066505933477224],[136.27604553745022,36.06650657222085],[136.27605480921247,36.06568862746168],[136.2757662212668,36.065682960885574]]]}},{"type":"Feature","properties":{"pid":"30b59627-a66c-4578-b350-840f17c56441"},"geometry":{"type":"Polygon","coordinates":[[[136.27530719356994,36.06568514092709],[136.2751064475709,36.065684328273036],[136.27508863064529,36.06649855714045],[136.27530333911406,36.06650011431161],[136.27530719356994,36.06568514092709]]]}},{"type":"Feature","properties":{"pid":"1b89d2a9-cbb1-404c-9a84-57d7c616919f"},"geometry":{"type":"Polygon","coordinates":[[[136.27537569624738,36.06858356942825],[136.27573320350055,36.06937868780158],[136.27576811590802,36.06940198967042],[136.2759034819737,36.06940684514372],[136.27591083235876,36.0685963254194],[136.27537569624738,36.06858356942825]]]}},{"type":"Feature","properties":{"pid":"71dff249-c751-40c9-90f2-4a373bce2770"},"geometry":{"type":"Polygon","coordinates":[[[136.2752842271168,36.06763494849335],[136.2749675147498,36.06763157881162],[136.27494735383422,36.06766002527549],[136.27510902954415,36.068007954350364],[136.27527896072303,36.06796125647312],[136.2752842271168,36.06763494849335]]]}},{"type":"Feature","properties":{"pid":"a07bd346-ca0e-4b7d-a1b8-8b4f1df766aa"},"geometry":{"type":"Polygon","coordinates":[[[136.27540108329387,36.06812520338402],[136.27543140310888,36.06814660123689],[136.2754622340051,36.068216752360016],[136.27544479669376,36.06824896709507],[136.2753985269425,36.06826959607602],[136.27539518851913,36.06845813397387],[136.27562374491495,36.06846025977028],[136.27562743186036,36.0676330831974],[136.27540983355183,36.06763096642839],[136.27540108329387,36.06812520338402]]]}},{"type":"Feature","properties":{"pid":"e36185f4-e41e-44a4-ae7a-a3c25b69b264"},"geometry":{"type":"Polygon","coordinates":[[[136.27604120356554,36.06764787261447],[136.27603672207127,36.06768686639721],[136.27601204054127,36.06771079434562],[136.27588254101033,36.06771779599366],[136.275836773884,36.06769206354156],[136.27583316069445,36.067635910271676],[136.2757489240074,36.06763666349145],[136.27574221295473,36.06845750870189],[136.27604518886326,36.06846130325258],[136.276053227273,36.067655585061104],[136.27604120356554,36.06764787261447]]]}},{"type":"Feature","properties":{"pid":"4edfb82f-1696-49a3-8044-1ba46aa53c30"},"geometry":{"type":"Polygon","coordinates":[[[136.2765062018717,36.06765236401273],[136.2763124270538,36.06765346878886],[136.2763082333602,36.068461791114494],[136.27649855501411,36.068463031662255],[136.2765062018717,36.06765236401273]]]}},{"type":"Feature","properties":{"pid":"f6b78b40-ad5c-4be9-80cc-f49f689183bb"},"geometry":{"type":"Polygon","coordinates":[[[136.27650995007969,36.06860341213696],[136.27630495974472,36.06859961784962],[136.2762974896094,36.06941100093659],[136.2764981954412,36.069412213511896],[136.27650995007969,36.06860341213696]]]}},{"type":"Feature","properties":{"pid":"e53332d0-decc-4c0e-9835-b29c58528e65"},"geometry":{"type":"Polygon","coordinates":[[[136.27603094058074,36.06859360049265],[136.27602719282996,36.069403381296624],[136.27604224966225,36.06859367703548],[136.27603094058074,36.06859360049265]]]}},{"type":"Feature","properties":{"pid":"54dfbb08-23b0-4e84-bd5a-af0a3865798a"},"geometry":{"type":"Polygon","coordinates":[[[136.27690326099278,36.06860733968052],[136.2766322984278,36.06860381854098],[136.2766205573655,36.06941182495926],[136.27690102290438,36.06941494067483],[136.27690326099278,36.06860733968052]]]}},{"type":"Feature","properties":{"pid":"aee7b504-cf74-4a50-9dc3-d1b391a02f6a"},"geometry":{"type":"Polygon","coordinates":[[[136.2770198782513,36.06938945573634],[136.27704956463953,36.069416956934354],[136.27710049160206,36.06941670045852],[136.2770495150834,36.068606776261404],[136.27701908123626,36.06860656155789],[136.2770198782513,36.06938945573634]]]}},{"type":"Feature","properties":{"pid":"c0d42dfb-6a97-443d-8144-ab89ae44fb08"},"geometry":{"type":"Polygon","coordinates":[[[136.27877589308343,36.070062619233816],[136.2788179529312,36.07006907161506],[136.27884111306915,36.06969638784212],[136.27879507457595,36.06969691302635],[136.27877589308343,36.070062619233816]]]}},{"type":"Feature","properties":{"pid":"bb901e02-bb17-4548-8ea6-d144518720e3"},"geometry":{"type":"Polygon","coordinates":[[[136.27915891847698,36.069937081770505],[136.27914458920088,36.06970764164098],[136.279073012328,36.069706751917586],[136.27906239568946,36.06998573518783],[136.27915891847698,36.069937081770505]]]}},{"type":"Feature","properties":{"pid":"5d3a19be-8eac-4730-8b74-50f8ce44afe8"},"geometry":{"type":"Polygon","coordinates":[[[136.27906549002506,36.069323850911175],[136.27899211969387,36.069309272024924],[136.27898364981647,36.069576805186784],[136.27906148427232,36.06957878408593],[136.27906549002506,36.069323850911175]]]}},{"type":"Feature","properties":{"pid":"c5370fa2-6ea9-4f3e-a64f-63cc0a962c9b"},"geometry":{"type":"Polygon","coordinates":[[[136.278852082177,36.06927702636719],[136.27880032386182,36.06926380163299],[136.2787778675149,36.06942068022028],[136.27880354235515,36.0695786586609],[136.27883764943266,36.06957791990634],[136.278852082177,36.06927702636719]]]}},{"type":"Feature","properties":{"pid":"ecfdfa42-9717-4744-9248-2fc4814f8de3"},"geometry":{"type":"Polygon","coordinates":[[[136.27853793018448,36.07001900818063],[136.2786554571706,36.07001284359991],[136.27866709385228,36.06965308443671],[136.27863435719826,36.06949714931757],[136.2784966978895,36.06947820593085],[136.27853793018448,36.07001900818063]]]}},{"type":"Feature","properties":{"pid":"41c78570-8be6-4eb4-921f-ec39716ecec7"},"geometry":{"type":"Polygon","coordinates":[[[136.27814768645703,36.0694402321636],[136.2780585466544,36.069431688226935],[136.2780920987193,36.06990578534616],[136.27818378092047,36.069917454980455],[136.27814768645703,36.0694402321636]]]}},{"type":"Feature","properties":{"pid":"849639a1-3ca7-4bb7-8a82-ff7eaad5ea36"},"geometry":{"type":"Polygon","coordinates":[[[136.27795104371936,36.069861103173196],[136.27792657878678,36.06943019791574],[136.27783099765762,36.06943597211313],[136.27785944315966,36.06985834121065],[136.27795104371936,36.069861103173196]]]}},{"type":"Feature","properties":{"pid":"d698a7a3-2a57-4e5b-9408-d14dd651ee24"},"geometry":{"type":"Polygon","coordinates":[[[136.2783704605968,36.069464169184684],[136.27828272352306,36.06945377838381],[136.27833035256754,36.07005705378306],[136.27841500773886,36.07004538638368],[136.2783704605968,36.069464169184684]]]}},{"type":"Feature","properties":{"pid":"72767489-1660-4232-959c-11fc32275691"},"geometry":{"type":"Polygon","coordinates":[[[136.277513239798,36.06983392881442],[136.27749008684245,36.06945761802611],[136.2773709275933,36.06946743456548],[136.27739458492783,36.069826742602785],[136.277513239798,36.06983392881442]]]}},{"type":"Feature","properties":{"pid":"633981bf-6c32-4416-b97e-ee6e0acc94bb"},"geometry":{"type":"Polygon","coordinates":[[[136.27773623862677,36.0698630681479],[136.27770380440708,36.06944215624379],[136.27761723633904,36.06944633491993],[136.27764430483512,36.06985066639554],[136.27773623862677,36.0698630681479]]]}},{"type":"Feature","properties":{"pid":"46ad7ce8-7147-4492-b85a-871ac57d5f40"},"geometry":{"type":"Polygon","coordinates":[[[136.276622019219,36.06958491417787],[136.27661519952346,36.06997265580507],[136.27695185748942,36.06997328162946],[136.27695048845385,36.06958263132471],[136.276622019219,36.06958491417787]]]}},{"type":"Feature","properties":{"pid":"ab4b82a2-421c-426a-80dd-d7783b00ae40"},"geometry":{"type":"Polygon","coordinates":[[[136.27649775729955,36.0695844410016],[136.27626801965764,36.069581481117915],[136.27626428755354,36.06996314851065],[136.2764876949255,36.06996351338491],[136.27649775729955,36.0695844410016]]]}},{"type":"Feature","properties":{"pid":"99fdb1b4-8848-4f60-8d19-47b8b43752ab"},"geometry":{"type":"Polygon","coordinates":[[[136.2760138132279,36.069581486084395],[136.2758209140795,36.06958754906265],[136.27603260218925,36.07008090885662],[136.27603413526947,36.06959866687445],[136.2760138132279,36.069581486084395]]]}},{"type":"Feature","properties":{"pid":"62ca06ba-d2e3-440a-9f39-39b2bbebc75f"},"geometry":{"type":"Polygon","coordinates":[[[136.2767196169161,36.07049881694905],[136.27670954962016,36.070463000012886],[136.27672748474268,36.070436349747304],[136.2768380836233,36.07039652705381],[136.2768817748522,36.07041160222694],[136.27692214353021,36.07047794379168],[136.27692652337845,36.0701223044887],[136.27660979744851,36.07011989001776],[136.27660196531104,36.07049794478542],[136.2767196169161,36.07049881694905]]]}},{"type":"Feature","properties":{"pid":"10b57a29-8564-4639-967b-ce2708317b37"},"geometry":{"type":"Polygon","coordinates":[[[136.2767336640948,36.07067784091032],[136.2767227583304,36.07122493017279],[136.27680946827374,36.071223575665385],[136.27682253353905,36.0706797896127],[136.2767336640948,36.07067784091032]]]}},{"type":"Feature","properties":{"pid":"77cd1bd9-467c-4194-b16f-90bef1c3d20d"},"geometry":{"type":"Polygon","coordinates":[[[136.27629591493863,36.07067663454401],[136.2763729971927,36.07085583308909],[136.2763782841923,36.07067824116321],[136.27629591493863,36.07067663454401]]]}},{"type":"Feature","properties":{"pid":"0d532606-c236-42df-acea-009743390f26"},"geometry":{"type":"Polygon","coordinates":[[[136.27650958169139,36.0706757241268],[136.27648924530087,36.071119263995655],[136.2765391869916,36.07122479784877],[136.2765938003513,36.071224671517314],[136.27660392645257,36.07067662434607],[136.27650958169139,36.0706757241268]]]}},{"type":"Feature","properties":{"pid":"d6754a23-cced-4d39-be55-bbba6cd9139f"},"geometry":{"type":"Polygon","coordinates":[[[136.27648717568636,36.070121815435826],[136.27639608147786,36.07011915459487],[136.27638236915993,36.07022441028715],[136.2763506941444,36.070239884790965],[136.27626757597162,36.070241292441835],[136.2762644500041,36.07049493846314],[136.27647696222573,36.07049666490096],[136.27648717568636,36.070121815435826]]]}},{"type":"Feature","properties":{"pid":"3207ae83-e146-45d4-a949-5385b52cb193"},"geometry":{"type":"Polygon","coordinates":[[[136.27546147638006,36.07061153060136],[136.27469422960294,36.070599942750114],[136.27469394953275,36.07092321785663],[136.27557207695747,36.07092669588614],[136.27546147638006,36.07061153060136]]]}},{"type":"Feature","properties":{"pid":"cb079411-2858-4afd-9e5d-4fe43299a872"},"geometry":{"type":"Polygon","coordinates":[[[136.27569595320222,36.071227763670976],[136.2756097033758,36.071026416806085],[136.27469129205616,36.07102207525917],[136.27469031182173,36.07122310959636],[136.27569595320222,36.071227763670976]]]}},{"type":"Feature","properties":{"pid":"0da1b730-eace-432b-b13a-e5b3fd3ead99"},"geometry":{"type":"Polygon","coordinates":[[[136.27538008744023,36.0704009568856],[136.27469576273634,36.07039194859668],[136.27469609552176,36.070502945956726],[136.275425417516,36.070512339190806],[136.27538008744023,36.0704009568856]]]}},{"type":"Feature","properties":{"pid":"6293283d-2adc-41b7-b318-f3147042654f"},"geometry":{"type":"Polygon","coordinates":[[[136.27568239600362,36.07278007007418],[136.27569296739674,36.072692448786526],[136.27547891222463,36.07273780046054],[136.2755795881756,36.072814845126786],[136.27568239600362,36.07278007007418]]]}},{"type":"Feature","properties":{"pid":"dedd738e-db8b-4f3c-b46f-7059910786b2"},"geometry":{"type":"Polygon","coordinates":[[[136.2756564692348,36.072549346683815],[136.2753035999282,36.07256910840676],[136.27532481390043,36.072615669985495],[136.2756564692348,36.072549346683815]]]}},{"type":"Feature","properties":{"pid":"f8b6b59f-8742-46a5-8ac3-e08a67681092"},"geometry":{"type":"Polygon","coordinates":[[[136.27528566404817,36.071366925597765],[136.27506361726896,36.07136728383444],[136.27504885765853,36.072130897683614],[136.27527496734297,36.07213677238183],[136.27528566404817,36.071366925597765]]]}},{"type":"Feature","properties":{"pid":"362c09f8-b524-40cd-85db-3c28eec489b8"},"geometry":{"type":"Polygon","coordinates":[[[136.2757534014042,36.07137712028523],[136.27571951702998,36.07137584813479],[136.27570224623997,36.07214793849507],[136.2759991140261,36.072152114445046],[136.27603261076248,36.07206409221092],[136.2757534014042,36.07137712028523]]]}},{"type":"Feature","properties":{"pid":"7b43bc99-79a3-4426-8946-5249aaabe03e"},"geometry":{"type":"Polygon","coordinates":[[[136.2754006349277,36.072133069133656],[136.27557946595337,36.0721398294817],[136.27559617958931,36.07137060550497],[136.27541133099948,36.07137053874042],[136.2754006349277,36.072133069133656]]]}},{"type":"Feature","properties":{"pid":"38139e42-6048-4882-9d90-05a96d65f1aa"},"geometry":{"type":"Polygon","coordinates":[[[136.27578586980587,36.07303262548408],[136.2757102893572,36.073032214477095],[136.27575365672038,36.07314360343709],[136.27582482012843,36.07312966674282],[136.27578586980587,36.07303262548408]]]}},{"type":"Feature","properties":{"pid":"3eaaee02-b320-46fb-ac8a-e972bd9eb22f"},"geometry":{"type":"Polygon","coordinates":[[[136.2867619197174,36.07102411072089],[136.2873384421279,36.07098350466794],[136.28741132873182,36.070865478199416],[136.2872737087493,36.070866687141496],[136.28708727669857,36.07083229008593],[136.28672671673834,36.07093630197418],[136.2867619197174,36.07102411072089]]]}},{"type":"Feature","properties":{"pid":"87f81985-6ba0-4659-9394-d8ca4735e7de"},"geometry":{"type":"Polygon","coordinates":[[[136.28738588729692,36.07292700334102],[136.28721069785888,36.07275719627375],[136.28715468945126,36.07280432715211],[136.28731432513845,36.07296005156347],[136.28738588729692,36.07292700334102]]]}},{"type":"Feature","properties":{"pid":"2d11d36e-93a8-4622-848e-e8223988c095"},"geometry":{"type":"Polygon","coordinates":[[[136.28763263510422,36.07281516789077],[136.28731844105826,36.072672866051455],[136.2873141047641,36.072676026111175],[136.28751240280587,36.07285876373776],[136.28763263510422,36.07281516789077]]]}},{"type":"Feature","properties":{"pid":"c0ac5f06-e293-4f14-a807-409875716881"},"geometry":{"type":"Polygon","coordinates":[[[136.2874739109742,36.07260504094015],[136.28777496656244,36.072738471838484],[136.28790312376836,36.07262921905014],[136.2874739109742,36.07260504094015]]]}},{"type":"Feature","properties":{"pid":"c9406378-1fa0-4613-a525-dff4d1127664"},"geometry":{"type":"Polygon","coordinates":[[[136.28796419186685,36.072444278352044],[136.2876361389506,36.072431092098455],[136.2876303275096,36.072469897597166],[136.28760436168335,36.07249482254885],[136.2879569661393,36.072513192897816],[136.28796419186685,36.072444278352044]]]}},{"type":"Feature","properties":{"pid":"41497f9d-5ecc-4dc8-a3c9-a68cd8c203f3"},"geometry":{"type":"Polygon","coordinates":[[[136.28948474140154,36.072144280004196],[136.2898009450428,36.072270860398795],[136.28997276272307,36.07252739139352],[136.2901253177661,36.071901234452454],[136.28955013201343,36.07181401132744],[136.28948474140154,36.072144280004196]]]}},{"type":"Feature","properties":{"pid":"10c02bce-fa58-4b19-b075-402454ce4913"},"geometry":{"type":"Polygon","coordinates":[[[136.28882039438764,36.07196697185412],[136.28929038864572,36.07210732312766],[136.2893696591289,36.071783264524626],[136.2888706306597,36.07170642836379],[136.28882039438764,36.07196697185412]]]}},{"type":"Feature","properties":{"pid":"b04beff2-4549-4b60-9a93-d839ecec7608"},"geometry":{"type":"Polygon","coordinates":[[[136.28890370371477,36.07156781049052],[136.290174872055,36.07173341255332],[136.29032748285516,36.07097282180319],[136.29028320091405,36.07093907194418],[136.28958738217824,36.07085178131953],[136.28933368180503,36.07084896078355],[136.28905016952544,36.07086994300478],[136.28890370371477,36.07156781049052]]]}},{"type":"Feature","properties":{"pid":"a5b784a9-ae8d-453d-8641-b5bca7584771"},"geometry":{"type":"Polygon","coordinates":[[[136.28742695682848,36.071481211207896],[136.2874552654629,36.07183818901854],[136.2886085979698,36.071902408511754],[136.2886507405789,36.0716675411474],[136.2881078658353,36.07157434401185],[136.28742695682848,36.071481211207896]]]}},{"type":"Feature","properties":{"pid":"c1e4c438-9a11-4ef0-b880-252c114972ee"},"geometry":{"type":"Polygon","coordinates":[[[136.2874924780642,36.071344016194914],[136.28802098781134,36.071410151808074],[136.28815333273167,36.070789097714176],[136.2880165199238,36.07073325973186],[136.28773462934294,36.07072095208367],[136.28772490596046,36.07075242979993],[136.28769288730993,36.070778132485906],[136.28768813316572,36.070823315029564],[136.28749535484576,36.07109122217649],[136.2874924780642,36.071344016194914]]]}},{"type":"Feature","properties":{"pid":"a5a0659b-2718-486c-8db4-c5a13566b698"},"geometry":{"type":"Polygon","coordinates":[[[136.2881738055682,36.07143527298898],[136.28867819619484,36.071522381450244],[136.28870547683374,36.07150688992321],[136.28884388526734,36.07086970386029],[136.28830482342963,36.070838679301474],[136.2881738055682,36.07143527298898]]]}},{"type":"Feature","properties":{"pid":"431c405a-86ac-425b-9323-6db1a6765576"},"geometry":{"type":"Polygon","coordinates":[[[136.29213500168726,36.06987844483821],[136.29208485908225,36.069070118886316],[136.29103125646432,36.06911794809856],[136.29107532150016,36.069612797593095],[136.2910715324983,36.06978732370915],[136.29103051144634,36.06991894735172],[136.29213500168726,36.06987844483821]]]}},{"type":"Feature","properties":{"pid":"252c70e7-1511-40bf-ae24-17f1f01bc7f9"},"geometry":{"type":"Polygon","coordinates":[[[136.29219120855728,36.07093652179865],[136.292143524859,36.07003848656556],[136.2909348893399,36.07008042062633],[136.2907714255093,36.07033529286633],[136.2907071265875,36.07048833012097],[136.2906591104669,36.07071969286068],[136.29219120855728,36.07093652179865]]]}},{"type":"Feature","properties":{"pid":"69924e2d-6aba-41fc-9f58-a1d26056d618"},"geometry":{"type":"Polygon","coordinates":[[[136.29044743796777,36.071763679928026],[136.29252328429618,36.072069158347645],[136.29268149399962,36.071300850838455],[136.29059691701048,36.07100119292718],[136.29044743796777,36.071763679928026]]]}},{"type":"Feature","properties":{"pid":"98cb625b-aead-4cc9-af23-117a4a1ae8bf"},"geometry":{"type":"Polygon","coordinates":[[[136.29060273619586,36.07277304955796],[136.29231154385388,36.07301835585132],[136.29248534105326,36.07222141600563],[136.2904210826604,36.071928401530755],[136.29026095172117,36.07270309615783],[136.29060273619586,36.07277304955796]]]}},{"type":"Feature","properties":{"pid":"8b4f39ce-2f53-469d-b362-9f31f91d4c00"},"geometry":{"type":"Polygon","coordinates":[[[136.2922022343638,36.073486491134695],[136.29227385990595,36.07316675127489],[136.29022979952668,36.072881780602636],[136.29022468271327,36.07289847513754],[136.29041848671596,36.0731753076596],[136.29048756258598,36.0732153213351],[136.2906312628489,36.07323739695318],[136.2908531468485,36.073231957848975],[136.29099388480418,36.07328922687208],[136.2922022343638,36.073486491134695]]]}},{"type":"Feature","properties":{"pid":"a197afb8-245c-4ab7-8907-cdb11aaa962b"},"geometry":{"type":"Polygon","coordinates":[[[136.27471736958748,36.060374859747014],[136.27556844689246,36.060354885698686],[136.2755652453961,36.06015390153517],[136.27471274662815,36.06017611428594],[136.27471736958748,36.060374859747014]]]}},{"type":"Feature","properties":{"pid":"03f1f572-4a2a-4629-8361-f716f5f000c4"},"geometry":{"type":"Polygon","coordinates":[[[136.2747323787856,36.06063439830412],[136.27557312671667,36.06061037840582],[136.2755666069892,36.06046594287508],[136.27472602065745,36.06047766990322],[136.2747323787856,36.06063439830412]]]}},{"type":"Feature","properties":{"pid":"8adffb51-157b-409b-ae5b-851e0ab0b59f"},"geometry":{"type":"Polygon","coordinates":[[[136.27557553274252,36.05982426126551],[136.27557566943884,36.05980303060236],[136.27550190042874,36.05980235354336],[136.27546999711717,36.05978713757827],[136.27545589595297,36.059716718339374],[136.27537208964608,36.05971924615593],[136.27537342619715,36.05982531558054],[136.27557553274252,36.05982426126551]]]}},{"type":"Feature","properties":{"pid":"33d92e49-1792-402c-9dd7-19faa9d89ff6"},"geometry":{"type":"Polygon","coordinates":[[[136.27470958862713,36.060075104176654],[136.27555957226306,36.06004653172347],[136.27555802322863,36.05999242003957],[136.27470879453304,36.060019716161925],[136.27470958862713,36.060075104176654]]]}},{"type":"Feature","properties":{"pid":"833da91b-65da-464d-a877-c82fde1276b9"},"geometry":{"type":"Polygon","coordinates":[[[136.27533465324834,36.059032554558286],[136.2753355736754,36.05894368673939],[136.27486480522236,36.058941541785565],[136.27486282076185,36.059045442010365],[136.27533465324834,36.059032554558286]]]}},{"type":"Feature","properties":{"pid":"956ebf9e-b972-4e62-b371-8aa157e77b42"},"geometry":{"type":"Polygon","coordinates":[[[136.276345366722,36.06062410927603],[136.2767223245243,36.06061423722467],[136.2767046841604,36.05994615049736],[136.2763229382,36.05995628504041],[136.276345366722,36.06062410927603]]]}},{"type":"Feature","properties":{"pid":"40df4249-9606-4849-b9d8-010f46bece8d"},"geometry":{"type":"Polygon","coordinates":[[[136.27621943847828,36.06062819360947],[136.27620413143455,36.059962455788046],[136.27580017728297,36.059967472846836],[136.27582422368823,36.060640243553785],[136.27621943847828,36.06062819360947]]]}},{"type":"Feature","properties":{"pid":"116e1fe9-ed2b-45a2-afa7-da86b293c0de"},"geometry":{"type":"Polygon","coordinates":[[[136.27736198351403,36.06059944450225],[136.27735230692792,36.06032010478006],[136.27696844947354,36.060328548146856],[136.2769803071066,36.0606094876552],[136.27736198351403,36.06059944450225]]]}},{"type":"Feature","properties":{"pid":"4459cabf-e6bf-4cd1-8613-f1b36976f465"},"geometry":{"type":"Polygon","coordinates":[[[136.2766715415034,36.06090639331517],[136.27665365046678,36.06163908616124],[136.276890064312,36.06164048171758],[136.27690740969194,36.061576183190965],[136.27698705163456,36.061562639078694],[136.27699089663133,36.060893433132144],[136.27668663634898,36.06089558487306],[136.2766715415034,36.06090639331517]]]}},{"type":"Feature","properties":{"pid":"bef41ab3-aea3-4bdd-b705-a204632fd925"},"geometry":{"type":"Polygon","coordinates":[[[136.276426591749,36.061320691542385],[136.2764343696579,36.06089410269143],[136.2757176716825,36.060904435773026],[136.2757087178779,36.06131215984874],[136.276426591749,36.061320691542385]]]}},{"type":"Feature","properties":{"pid":"124cbede-2bed-4609-bf05-4700c5ad7fea"},"geometry":{"type":"Polygon","coordinates":[[[136.27553146695658,36.06167355812915],[136.2755441912806,36.060911089899],[136.27481681002982,36.06093006526143],[136.27482196722173,36.061666589140934],[136.27553146695658,36.06167355812915]]]}},{"type":"Feature","properties":{"pid":"475547b8-ba88-4329-9b44-5360bbd57db9"},"geometry":{"type":"Polygon","coordinates":[[[136.27553460121317,36.06177150760845],[136.2748153422013,36.0617662476155],[136.27480797892207,36.06202709811079],[136.27553349254634,36.06203730334919],[136.27553460121317,36.06177150760845]]]}},{"type":"Feature","properties":{"pid":"0702211d-9f41-47f1-99c3-b98019f9684c"},"geometry":{"type":"Polygon","coordinates":[[[136.27553258921105,36.06213376265543],[136.27480474528866,36.06212506615016],[136.27479984365624,36.06238800575772],[136.27552669676786,36.06239537152839],[136.27553258921105,36.06213376265543]]]}},{"type":"Feature","properties":{"pid":"08b69d60-3eae-48c3-b3af-1f8a9d152d11"},"geometry":{"type":"Polygon","coordinates":[[[136.27641192611074,36.06213623887095],[136.27570019567128,36.062132592110174],[136.27569773678513,36.062264078183404],[136.27641796927736,36.06227445775127],[136.27641192611074,36.06213623887095]]]}},{"type":"Feature","properties":{"pid":"91d6e208-e565-46ea-b6be-092f81406f4d"},"geometry":{"type":"Polygon","coordinates":[[[136.27641857559246,36.061772314284745],[136.27569603958113,36.06177091212104],[136.2757023711263,36.0620306101716],[136.27641699559655,36.06203587170618],[136.27641857559246,36.061772314284745]]]}},{"type":"Feature","properties":{"pid":"aae69fa9-5884-4539-a843-5bf2608bba8f"},"geometry":{"type":"Polygon","coordinates":[[[136.27641065342934,36.06167642896163],[136.2764215548857,36.06166518267107],[136.2764278249456,36.06142060370735],[136.27570466555403,36.06141190792376],[136.27569756344332,36.0616760466654],[136.27641065342934,36.06167642896163]]]}},{"type":"Feature","properties":{"pid":"80972146-e1d1-4c7c-afc1-fda02f28cc4b"},"geometry":{"type":"Polygon","coordinates":[[[136.27697842968553,36.061810746213446],[136.27664964421845,36.06179855118246],[136.27664394913302,36.062389320812244],[136.27697166255996,36.062387928234315],[136.27697842968553,36.061810746213446]]]}},{"type":"Feature","properties":{"pid":"0e068955-84e2-4461-958e-ca5220593cbe"},"geometry":{"type":"Polygon","coordinates":[[[136.27741300821802,36.0623937037147],[136.27742339593038,36.061811319660265],[136.27710283237315,36.061813595754835],[136.27710066087621,36.062394427053725],[136.27741300821802,36.0623937037147]]]}},{"type":"Feature","properties":{"pid":"3c1445ff-cc62-492d-897a-5ad198030c93"},"geometry":{"type":"Polygon","coordinates":[[[136.27768736630878,36.06238767445741],[136.27769363468303,36.06181358795427],[136.2775537466292,36.061811706437474],[136.2775390617075,36.06239611947469],[136.27768736630878,36.06238767445741]]]}},{"type":"Feature","properties":{"pid":"84746928-1054-4938-ab9d-f2bbffe87689"},"geometry":{"type":"Polygon","coordinates":[[[136.27793961915933,36.06240079120468],[136.27794176878638,36.061817296450954],[136.27787266468596,36.0618192044869],[136.2778676962856,36.062401503864116],[136.27793961915933,36.06240079120468]]]}},{"type":"Feature","properties":{"pid":"5ca72a54-97db-43f7-9de1-0e0795cef899"},"geometry":{"type":"Polygon","coordinates":[[[136.27818048265868,36.06240541336837],[136.2781867978674,36.06181155999985],[136.27807030245006,36.061816256924416],[136.27807044384735,36.06240502873111],[136.27818048265868,36.06240541336837]]]}},{"type":"Feature","properties":{"pid":"1cab504a-3bb8-4fa4-b3d7-d4e686a8a65e"},"geometry":{"type":"Polygon","coordinates":[[[136.2784031729694,36.06181714003385],[136.27830999597379,36.0618146547318],[136.27830366534377,36.06240987471994],[136.2783978066669,36.062410466449954],[136.2784031729694,36.06181714003385]]]}},{"type":"Feature","properties":{"pid":"9fad4d4b-d56a-49e5-bd69-4093a66e4539"},"geometry":{"type":"Polygon","coordinates":[[[136.27746648932455,36.061639165390005],[136.27747611571672,36.060881542102194],[136.27711732963084,36.0608846161048],[136.27711498288804,36.06163731084803],[136.27746648932455,36.061639165390005]]]}},{"type":"Feature","properties":{"pid":"c0281e17-7593-4bac-a433-6ddaab38daff"},"geometry":{"type":"Polygon","coordinates":[[[136.27819840689503,36.061647176269524],[136.27820331417482,36.06086301921],[136.27789065333118,36.06086172827076],[136.27788067232882,36.06119727889921],[136.2780070803543,36.06119638808769],[136.27804565867274,36.061218757186936],[136.2780624324455,36.06164930191608],[136.27819840689503,36.061647176269524]]]}},{"type":"Feature","properties":{"pid":"04569113-7ca0-40ac-92ff-370383fcaa0f"},"geometry":{"type":"Polygon","coordinates":[[[136.278742119774,36.06135351011768],[136.27905987674984,36.06115967040725],[136.27908000587942,36.060820252586694],[136.2787441431127,36.060821647701594],[136.278742119774,36.06135351011768]]]}},{"type":"Feature","properties":{"pid":"2e507b68-128a-497a-849e-7328399c88ba"},"geometry":{"type":"Polygon","coordinates":[[[136.2785794814261,36.06182126637033],[136.27852400241295,36.06182190203415],[136.27851974642093,36.06241173898157],[136.2785672439568,36.06241237789376],[136.2785794814261,36.06182126637033]]]}},{"type":"Feature","properties":{"pid":"fe9695be-9daa-427a-a4fc-158df7ff0434"},"geometry":{"type":"Polygon","coordinates":[[[136.27924033421644,36.05988137637015],[136.27914377905975,36.059880713087374],[136.2791672094666,36.060149270271765],[136.27926171073838,36.06014420309535],[136.27924033421644,36.05988137637015]]]}},{"type":"Feature","properties":{"pid":"d124aa3d-bebd-4dd9-a165-65d6e119f386"},"geometry":{"type":"Polygon","coordinates":[[[136.2793516070165,36.06056214225972],[136.2793445588799,36.060273415191375],[136.2791650930228,36.06027630317062],[136.2791810040035,36.060562822181716],[136.2793516070165,36.06056214225972]]]}},{"type":"Feature","properties":{"pid":"e88e9d69-c67f-48ad-98e8-8ef576488aa3"},"geometry":{"type":"Polygon","coordinates":[[[136.27892184745158,36.06056475320846],[136.2789092465574,36.06029027309357],[136.27807731611543,36.06030137010529],[136.27808820527034,36.06058997979645],[136.27892184745158,36.06056475320846]]]}},{"type":"Feature","properties":{"pid":"50f6ec09-1cb9-4d11-8bbf-4c40bb9a759f"},"geometry":{"type":"Polygon","coordinates":[[[136.27892867977278,36.060135263271185],[136.27891521012558,36.05988439333696],[136.27805558444982,36.05991584551787],[136.27806912570742,36.0601682432173],[136.27892867977278,36.060135263271185]]]}},{"type":"Feature","properties":{"pid":"09c0891c-6c37-4050-bb69-cd247a249b49"},"geometry":{"type":"Polygon","coordinates":[[[136.2778570506242,36.06058716270715],[136.27784192788954,36.06030681560351],[136.2774767112375,36.06031966226404],[136.2774831181639,36.060596703750015],[136.2778570506242,36.06058716270715]]]}},{"type":"Feature","properties":{"pid":"8c54238f-ef84-41f7-9065-14a791b18e95"},"geometry":{"type":"Polygon","coordinates":[[[136.2749131236112,36.057725192941696],[136.2759136355893,36.05773477401971],[136.2759137577659,36.05768705933021],[136.2749129769346,36.05768298537875],[136.2749131236112,36.057725192941696]]]}},{"type":"Feature","properties":{"pid":"c65eea85-d0d8-45aa-ab70-85dd2f9c1f30"},"geometry":{"type":"Polygon","coordinates":[[[136.27491442715112,36.057366974041635],[136.2749142754982,36.05758463458739],[136.27591052931163,36.0575897867027],[136.2759155529286,36.05737308682639],[136.27491442715112,36.057366974041635]]]}},{"type":"Feature","properties":{"pid":"e5bf940d-be17-49cb-acba-cb6c1e52e5f8"},"geometry":{"type":"Polygon","coordinates":[[[136.29658095051758,36.059456483105286],[136.2965761910464,36.05949185388555],[136.29732974084928,36.060159095622566],[136.29736475506974,36.059712064133976],[136.29684424197347,36.05926303132906],[136.29658095051758,36.059456483105286]]]}},{"type":"Feature","properties":{"pid":"c5c2261f-9853-4adc-ba19-8cb946e4615f"},"geometry":{"type":"Polygon","coordinates":[[[136.29730565133667,36.060388798516435],[136.29731592312396,36.06035110747906],[136.29648049974625,36.05960176029669],[136.29605820046396,36.05983329043708],[136.2960118615214,36.0599837344518],[136.29603428709203,36.060025867704645],[136.2960813233769,36.06005274548246],[136.29664523387916,36.06009803701979],[136.29730565133667,36.060388798516435]]]}},{"type":"Feature","properties":{"pid":"1357982e-f10a-4067-9836-06e92209847f"},"geometry":{"type":"Polygon","coordinates":[[[136.29724751707369,36.059010433204215],[136.29695115022741,36.05920086664022],[136.29737338556308,36.05956228692918],[136.29734431684912,36.059309329836275],[136.29728842114534,36.059090588664745],[136.29724751707369,36.059010433204215]]]}},{"type":"Feature","properties":{"pid":"6476cbcf-ab18-4e27-9227-3a905dc60da0"},"geometry":{"type":"Polygon","coordinates":[[[136.29576435363262,36.05872151690022],[136.2957605436912,36.05874798952836],[136.29644245720337,36.05935822187059],[136.29673134810554,36.059151444069414],[136.29604101041056,36.05853412318514],[136.29576435363262,36.05872151690022]]]}},{"type":"Feature","properties":{"pid":"287e5eec-f71d-445d-aeef-bba075d66c3a"},"geometry":{"type":"Polygon","coordinates":[[[136.29599527883153,36.0596627557145],[136.296247835056,36.059431133478206],[136.29564602702536,36.05886925141527],[136.29521315182492,36.05914346094261],[136.29592365340434,36.05959583921359],[136.29599527883153,36.0596627557145]]]}},{"type":"Feature","properties":{"pid":"0b245242-0a37-4cf7-bd01-90b797a1d942"},"geometry":{"type":"Polygon","coordinates":[[[136.29506284655835,36.05904418980106],[136.29549732930468,36.05870646201848],[136.29481205876,36.058111876915405],[136.29452151819362,36.058302189146964],[136.29447080183533,36.05847965517295],[136.29450778396395,36.05872923663186],[136.29466233096102,36.05881712818145],[136.2947759885477,36.05884628767435],[136.29506284655835,36.05904418980106]]]}},{"type":"Feature","properties":{"pid":"6635e7a4-110e-48e6-855b-f27fe531ec1a"},"geometry":{"type":"Polygon","coordinates":[[[136.29446753740615,36.05812434444359],[136.29496091180496,36.057763574889314],[136.29428847067854,36.0571638570353],[136.2938717827265,36.05749421487767],[136.2940174837401,36.057602553542935],[136.29412158065165,36.05773323950896],[136.2943324553936,36.057842851633126],[136.29446753740615,36.05812434444359]]]}},{"type":"Feature","properties":{"pid":"8afbbffc-094a-4ae2-92e2-bf586a6092b1"},"geometry":{"type":"Polygon","coordinates":[[[136.29442154719933,36.05707685024696],[136.2944128763697,36.05710436119212],[136.29505415825852,36.05768739634049],[136.29531164135113,36.05745505375125],[136.29454133822583,36.057008017396676],[136.29442154719933,36.05707685024696]]]}},{"type":"Feature","properties":{"pid":"dd8c6d69-cf3f-4eac-97e7-3a2ef4930553"},"geometry":{"type":"Polygon","coordinates":[[[136.29698893524736,36.057640825861704],[136.29662418768083,36.05757293718604],[136.2965439814566,36.05779531723149],[136.2965892944236,36.057806765040816],[136.2970722739038,36.0577855236902],[136.29707370170976,36.05769328967249],[136.29698893524736,36.057640825861704]]]}},{"type":"Feature","properties":{"pid":"85a0a4a6-1524-421c-9d90-d4ee15f793c2"},"geometry":{"type":"Polygon","coordinates":[[[136.2958834086498,36.057489278693076],[136.29612782092306,36.05762740835026],[136.29617854872703,36.05756557239354],[136.29610188238442,36.057497936445536],[136.29593944125764,36.05750392975775],[136.2958834086498,36.057489278693076]]]}},{"type":"Feature","properties":{"pid":"e4195ee0-dcb1-4772-894e-6c5b7948fc9a"},"geometry":{"type":"Polygon","coordinates":[[[136.29642096203835,36.0577610725527],[136.2964620502572,36.05765488967659],[136.296344272186,36.05768504259219],[136.29632167708584,36.057710631192435],[136.29642096203835,36.0577610725527]]]}},{"type":"Feature","properties":{"pid":"96970fca-6f56-45f1-99b8-6df4af0c9399"},"geometry":{"type":"Polygon","coordinates":[[[136.2960102457571,36.0583201412981],[136.29634136648212,36.05803281788199],[136.2956842818796,36.05762750901292],[136.29563927000873,36.05762856495271],[136.29555065002432,36.05759106713186],[136.29533044670382,36.057738267653946],[136.2960102457571,36.0583201412981]]]}},{"type":"Feature","properties":{"pid":"98547a0a-10b9-44b2-8090-36b08a574a30"},"geometry":{"type":"Polygon","coordinates":[[[136.29559657875424,36.05862743761929],[136.29589611542767,36.05840376251954],[136.29523152219633,36.05781289919655],[136.29491301342622,36.05802146943686],[136.29559657875424,36.05862743761929]]]}},{"type":"Feature","properties":{"pid":"e5ce360e-d769-417c-a102-8d42d0ef75cf"},"geometry":{"type":"Polygon","coordinates":[[[136.2961835518424,36.05844322727298],[136.29616918852025,36.05848652693479],[136.29682577815188,36.059078011847234],[136.29715693643266,36.05877778023871],[136.29686333628348,36.05842364300818],[136.29658101692647,36.05820218663495],[136.2961835518424,36.05844322727298]]]}},{"type":"Feature","properties":{"pid":"e2d3593c-66b8-42df-ba71-87f680021eda"},"geometry":{"type":"Polygon","coordinates":[[[136.29729988639465,36.05847020208905],[136.29841659740265,36.05862622198085],[136.29845536922602,36.05841991576814],[136.2970817802102,36.05824204415579],[136.29729988639465,36.05847020208905]]]}},{"type":"Feature","properties":{"pid":"912719ad-adea-4092-a2e9-758f067670ea"},"geometry":{"type":"Polygon","coordinates":[[[136.29699403434725,36.058125561597514],[136.29847689632876,36.058320388145845],[136.29853320197714,36.05801173105551],[136.29798617688482,36.05792610890546],[136.29701431896225,36.05801266143641],[136.29699403434725,36.058125561597514]]]}},{"type":"Feature","properties":{"pid":"41b2509f-0458-4df1-b56e-3c01c9725f30"},"geometry":{"type":"Polygon","coordinates":[[[136.29867744884416,36.0586150768221],[136.29957179801724,36.05873897784206],[136.2996146200188,36.058653031940025],[136.2996198549036,36.05860331982301],[136.29866872127525,36.05846356525292],[136.29864118548127,36.05857860946931],[136.29867744884416,36.0586150768221]]]}},{"type":"Feature","properties":{"pid":"daf8bee2-3346-4ac3-851a-47111752e675"},"geometry":{"type":"Polygon","coordinates":[[[136.29982562229483,36.05877292835465],[136.29999871065405,36.05879525391249],[136.3000614499227,36.05852191049142],[136.29987872871735,36.058541942899645],[136.29982562229483,36.05877292835465]]]}},{"type":"Feature","properties":{"pid":"c0b951e6-794d-4b87-b428-f665a9dba0e8"},"geometry":{"type":"Polygon","coordinates":[[[136.29961861705428,36.05805951871616],[136.29950480545986,36.05781625523452],[136.29896540125637,36.057815257944995],[136.29892835577914,36.057942421939515],[136.29888778555866,36.05795364336135],[136.29877658246573,36.05793863343082],[136.29867936260047,36.05834579299862],[136.2996370731491,36.05848293155127],[136.2996428636966,36.05840804155643],[136.2996264125256,36.058317230130484],[136.29968396630258,36.058133009859816],[136.29961861705428,36.05805951871616]]]}},{"type":"Feature","properties":{"pid":"75491428-a6ef-40fa-be0a-64fafec20a94"},"geometry":{"type":"Polygon","coordinates":[[[136.2987609100116,36.05762664870262],[136.29903675188825,36.057586340163866],[136.2988610889537,36.05750920047628],[136.2988230762134,36.057526041804216],[136.2987609100116,36.05762664870262]]]}},{"type":"Feature","properties":{"pid":"9964665b-9dde-4923-862e-e89e589db29e"},"geometry":{"type":"Polygon","coordinates":[[[136.29975678984303,36.05781771668322],[136.2997759183896,36.05789137818037],[136.30019266082783,36.057941960303445],[136.3002063607783,36.05787852131989],[136.29975678984303,36.05781771668322]]]}},{"type":"Feature","properties":{"pid":"4ec371fe-0da4-41f0-be89-9b9e9239e7d5"},"geometry":{"type":"Polygon","coordinates":[[[136.29973687075787,36.05921367000037],[136.29992129768812,36.05923279454619],[136.29996848632354,36.058916171216204],[136.29976608660382,36.058891088256196],[136.29973775898796,36.05898231802377],[136.299749026981,36.059121537692256],[136.29973687075787,36.05921367000037]]]}},{"type":"Feature","properties":{"pid":"9bfcdbf2-07e0-46d2-9393-46692e9342e9"},"geometry":{"type":"Polygon","coordinates":[[[136.29984723070942,36.0597857406379],[136.29998045114024,36.059803080713564],[136.3000525035569,36.059451181362114],[136.2999505677311,36.05943509965743],[136.2999199188635,36.05940314075829],[136.2997322975236,36.059373532722695],[136.299584845961,36.05954179616987],[136.29958386665518,36.05956617250406],[136.29971234051598,36.05964672868308],[136.2997943637991,36.05974892939128],[136.29984723070942,36.0597857406379]]]}},{"type":"Feature","properties":{"pid":"b3d796ed-4ad8-4a48-bdc3-93a82c6e1ce5"},"geometry":{"type":"Polygon","coordinates":[[[136.29858174394866,36.05902672402453],[136.2994524797252,36.059167382536714],[136.29950337532603,36.05913881140392],[136.29951494879344,36.05898117570823],[136.29954343896665,36.05889293266339],[136.29867027268716,36.05876942530157],[136.29858174394866,36.05902672402453]]]}},{"type":"Feature","properties":{"pid":"09beb723-e4e1-41f5-9304-99e0bbaf99ea"},"geometry":{"type":"Polygon","coordinates":[[[136.297441364739,36.05862338513028],[136.29755295566045,36.05882133622249],[136.29756376857745,36.05890300584031],[136.29832692009776,36.05902201832073],[136.2983698531071,36.05875088638259],[136.297441364739,36.05862338513028]]]}},{"type":"Feature","properties":{"pid":"9e42ef0d-7e65-4f0b-941d-9ca7ec4b36ca"},"geometry":{"type":"Polygon","coordinates":[[[136.29769686567164,36.059380108063486],[136.2982415871972,36.05945268980485],[136.29829916304,36.059187556645384],[136.2976618146881,36.05911333190066],[136.29769686567164,36.059380108063486]]]}},{"type":"Feature","properties":{"pid":"396c7989-0bb0-470f-9a0b-882faf3fd15b"},"geometry":{"type":"Polygon","coordinates":[[[136.29847702757584,36.05948871876062],[136.29926893174294,36.059588337147936],[136.29926316322943,36.059501994493665],[136.2993654318931,36.05932071824954],[136.29890435576763,36.059263937196185],[136.2985443690098,36.05924247827379],[136.29847702757584,36.05948871876062]]]}},{"type":"Feature","properties":{"pid":"db21060f-e269-4e8b-829d-26435d308561"},"geometry":{"type":"Polygon","coordinates":[[[136.2983695748014,36.0599982141927],[136.29893843423648,36.06008473792376],[136.29908808720398,36.06004471682842],[136.2992118060252,36.06005125796008],[136.29924383686213,36.06004493600648],[136.29942203790912,36.05991020458654],[136.29948847505202,36.05982441583148],[136.29931495481688,36.059708178860575],[136.29844872281674,36.059602418678196],[136.2983695748014,36.0599982141927]]]}},{"type":"Feature","properties":{"pid":"05202984-36e5-4efc-8f5d-6d44a217588a"},"geometry":{"type":"Polygon","coordinates":[[[136.29770309904646,36.05988944822058],[136.29811761794207,36.05994333903684],[136.29820185833202,36.05957227283873],[136.29770164993118,36.059504637322625],[136.29770309904646,36.05988944822058]]]}},{"type":"Feature","properties":{"pid":"bef3f839-be46-403b-831d-065b6aa1f7bf"},"geometry":{"type":"Polygon","coordinates":[[[136.29766425440312,36.06023793310672],[136.29805912687513,36.06029244111648],[136.2980999456765,36.06005277839233],[136.29769097551113,36.060003175526354],[136.29766425440312,36.06023793310672]]]}},{"type":"Feature","properties":{"pid":"3a5f6c45-218f-4e4f-a806-f326ac35943e"},"geometry":{"type":"Polygon","coordinates":[[[136.29829856901466,36.06041681606006],[136.2987072081839,36.060474233394544],[136.29882213599308,36.06018429617035],[136.29834927905563,36.06010501824064],[136.29829856901466,36.06041681606006]]]}},{"type":"Feature","properties":{"pid":"6d19636d-4646-4a73-ab19-a2f46ddd8a1f"},"geometry":{"type":"Polygon","coordinates":[[[136.29953446574459,36.060184910123866],[136.2999221791875,36.06023083742275],[136.30011950489032,36.059945577426475],[136.2998334627959,36.05990540213959],[136.29978767623712,36.059977890122695],[136.29953446574459,36.060184910123866]]]}},{"type":"Feature","properties":{"pid":"3ee25071-e89b-4f6c-8274-6728b4e540aa"},"geometry":{"type":"Polygon","coordinates":[[[136.29892917176713,36.060960075249284],[136.29936722497965,36.06098031922145],[136.29978833638486,36.06039835648022],[136.29940243150872,36.06034393729106],[136.2992448520014,36.06037714295981],[136.2991537008895,36.06037616748798],[136.29912043345243,36.06039316530964],[136.299038220248,36.06052146215931],[136.29900380403828,36.060632005018356],[136.29897135555962,36.060882825022915],[136.29892917176713,36.060960075249284]]]}},{"type":"Feature","properties":{"pid":"db60e171-17a5-4331-a303-49be18196838"},"geometry":{"type":"Polygon","coordinates":[[[136.29824931719602,36.06110505294298],[136.2983554255608,36.06134093030745],[136.29836829315855,36.06142079055602],[136.2983327926422,36.0615773816125],[136.29898231921743,36.06163185346682],[136.29918899528647,36.06119902141428],[136.29925413833885,36.06111928758441],[136.29876916855582,36.06108985156167],[136.29870523999764,36.06111430913045],[136.29857359713154,36.0611271505349],[136.29824931719602,36.06110505294298]]]}},{"type":"Feature","properties":{"pid":"53d140ea-634e-4539-b7ae-64ae45210608"},"geometry":{"type":"Polygon","coordinates":[[[136.2983202566524,36.061800425602215],[136.2983451548011,36.06183099941342],[136.2985684836648,36.061904186936985],[136.2986689392602,36.06198282300769],[136.29872806763757,36.06208564827527],[136.2987098356509,36.06228586151509],[136.29851545709008,36.0625777027693],[136.29861088190054,36.062612149567364],[136.2986602276835,36.06259872441674],[136.29876598408413,36.06262996825444],[136.29878798538203,36.06241889377653],[136.29890227558198,36.06185613622269],[136.2983202566524,36.061800425602215]]]}}]}