{"type":"FeatureCollection","features":[{"type":"Feature","properties":{"pid":"292c2c62-814c-4f9c-8934-a602293626b2","full":9.2},"geometry":{"type":"Polygon","coordinates":[[[136.08788,36.1428],[136.08698,36.1427],[136.08697,36.14272],[136.08723,36.14287],[136.0875,36.14301],[136.08787,36.14311],[136.08791,36.14283],[136.08787,36.14281],[136.08788,36.1428]]]}},{"type":"Feature","properties":{"pid":"3a028f7b-d899-47c9-8a49-d98d021b3132","full":5.6},"geometry":{"type":"Polygon","coordinates":[[[136.08798,36.14244],[136.08726,36.14236],[136.08707,36.14251],[136.08795,36.14261],[136.08798,36.14244]]]}},{"type":"Feature","properties":{"pid":"97843f27-951c-499d-a999-682e3f8d275d","full":7.1},"geometry":{"type":"Polygon","coordinates":[[[136.08795,36.14263],[136.08707,36.14252],[136.0869,36.14266],[136.08695,36.14268],[136.08789,36.14279],[136.0879,36.14278],[136.08793,36.14277],[136.08795,36.14263]]]}},{"type":"Feature","properties":{"pid":"45ef0a1f-9dc1-4e41-a481-cbb123726e6f","full":10.8},"geometry":{"type":"Polygon","coordinates":[[[136.08798,36.14243],[136.08806,36.14201],[136.08792,36.14202],[136.08751,36.14217],[136.08728,36.1423],[136.08727,36.14235],[136.08798,36.14243]]]}},{"type":"Feature","properties":{"pid":"def46f59-60fe-4aa0-a02b-360e78eb0a03","full":5.5},"geometry":{"type":"Polygon","coordinates":[[[136.08804,36.14166],[136.08762,36.14155],[136.08758,36.14155],[136.08737,36.14189],[136.08742,36.14192],[136.08772,36.14181],[136.08802,36.14174],[136.08805,36.14172],[136.08804,36.14166]]]}},{"type":"Feature","properties":{"pid":"a9ae1b9f-e4f8-4159-bf1e-e36659a1528b","full":8.8},"geometry":{"type":"Polygon","coordinates":[[[136.08804,36.14109],[136.08789,36.14109],[136.0876,36.14149],[136.08761,36.14152],[136.08808,36.14164],[136.08804,36.14109]]]}},{"type":"Feature","properties":{"pid":"b77395eb-0056-4e56-945c-a2fd75c2ce36","full":5.0},"geometry":{"type":"Polygon","coordinates":[[[136.09819,36.14053],[136.09793,36.14049],[136.09783,36.14092],[136.09786,36.14092],[136.09787,36.14095],[136.09796,36.14094],[136.09806,36.14092],[136.0981,36.14088],[136.09819,36.14053]]]}},{"type":"Feature","properties":{"pid":"91b41762-63ae-4407-af27-22daf8939e2b","full":4.4},"geometry":{"type":"Polygon","coordinates":[[[136.09792,36.14048],[136.09771,36.14046],[136.09758,36.14102],[136.09762,36.14104],[136.09782,36.14094],[136.09792,36.14048]]]}},{"type":"Feature","properties":{"pid":"2c0f1cd2-d818-4c55-a647-584039471057","full":35.1},"geometry":{"type":"Polygon","coordinates":[[[136.0977,36.14046],[136.09711,36.14036],[136.0969,36.14126],[136.09712,36.1413],[136.09716,36.1413],[136.09719,36.14124],[136.0973,36.14116],[136.09756,36.14106],[136.0977,36.14046]]]}},{"type":"Feature","properties":{"pid":"7dd22848-32a7-49c2-9dd4-6d3033aca145","full":7.1},"geometry":{"type":"Polygon","coordinates":[[[136.0971,36.14036],[136.0969,36.14034],[136.09669,36.14123],[136.09689,36.14126],[136.0971,36.14036]]]}},{"type":"Feature","properties":{"pid":"7b245a10-9ba1-4494-bc5d-f97f17cf1d38","full":8.0},"geometry":{"type":"Polygon","coordinates":[[[136.09661,36.14029],[136.09641,36.14025],[136.09619,36.14115],[136.0964,36.14118],[136.09661,36.14029]]]}},{"type":"Feature","properties":{"pid":"e095629b-b175-432c-8bf7-0eb7610cf56b","full":7.3},"geometry":{"type":"Polygon","coordinates":[[[136.0969,36.14034],[136.09671,36.14031],[136.09649,36.1412],[136.09669,36.14123],[136.0969,36.14034]]]}},{"type":"Feature","properties":{"pid":"f8a1b3d0-9c77-48c6-ace4-f5610ecda42b","full":17.7},"geometry":{"type":"Polygon","coordinates":[[[136.09684,36.14177],[136.09691,36.14178],[136.09702,36.14135],[136.09651,36.14126],[136.09651,36.14128],[136.09648,36.14127],[136.09634,36.14183],[136.09659,36.14179],[136.09684,36.14177]]]}},{"type":"Feature","properties":{"pid":"b3eee668-087a-4573-ab12-09d9cbbd6889","full":9.8},"geometry":{"type":"Polygon","coordinates":[[[136.09645,36.14125],[136.09619,36.14121],[136.09602,36.14191],[136.09606,36.14192],[136.09617,36.14186],[136.09633,36.14183],[136.09647,36.14127],[136.09644,36.14127],[136.09645,36.14125]]]}},{"type":"Feature","properties":{"pid":"03d1492a-f4ea-457f-83c4-7bb7784457cc","full":7.0},"geometry":{"type":"Polygon","coordinates":[[[136.09575,36.14147],[136.0955,36.14146],[136.09548,36.14147],[136.09543,36.14193],[136.09566,36.14192],[136.09569,36.14188],[136.09577,36.14172],[136.09581,36.1415],[136.09575,36.14147]]]}},{"type":"Feature","properties":{"pid":"6a32eb9a-47a1-429f-88fd-9123bd2a9bdc","full":2.9},"geometry":{"type":"Polygon","coordinates":[[[136.0971,36.14135],[136.09702,36.14135],[136.09692,36.14179],[136.09702,36.14182],[136.09713,36.14192],[136.09722,36.14193],[136.0972,36.14175],[136.0971,36.14149],[136.09711,36.14138],[136.0971,36.14135]]]}},{"type":"Feature","properties":{"pid":"a893b412-22a6-4c01-8392-18fb7b3a63b1","full":1.0},"geometry":{"type":"Polygon","coordinates":[[[136.09742,36.14253],[136.0975,36.14263],[136.09772,36.14251],[136.09773,36.14246],[136.09776,36.14241],[136.09787,36.14234],[136.09788,36.14231],[136.09783,36.14227],[136.0978,36.14226],[136.09742,36.14253]]]}},{"type":"Feature","properties":{"pid":"8f28da67-e339-40a1-b599-050e50a916d0","full":2.4},"geometry":{"type":"Polygon","coordinates":[[[136.09732,36.14237],[136.09741,36.14253],[136.09779,36.14226],[136.09761,36.14217],[136.09732,36.14237]]]}},{"type":"Feature","properties":{"pid":"f5f90fd9-5ca3-4842-8436-5890fb48ce8c","full":2.2},"geometry":{"type":"Polygon","coordinates":[[[136.09734,36.14205],[136.09721,36.14204],[136.09717,36.14208],[136.09731,36.14234],[136.09757,36.14216],[136.09756,36.14214],[136.09734,36.14205]]]}},{"type":"Feature","properties":{"pid":"a8fe46c4-1398-4ebd-ba46-412f8f5f6f5f","full":2.2},"geometry":{"type":"Polygon","coordinates":[[[136.09748,36.14268],[136.09735,36.14253],[136.09732,36.14252],[136.09731,36.14256],[136.09733,36.14274],[136.09742,36.14303],[136.09762,36.1429],[136.09755,36.14277],[136.09748,36.14268]]]}},{"type":"Feature","properties":{"pid":"de0fe4de-5fe0-4e07-b19f-2c61469c46a9","full":1.4},"geometry":{"type":"Polygon","coordinates":[[[136.09324,36.14197],[136.09376,36.14202],[136.09378,36.1419],[136.09325,36.14185],[136.09324,36.14197]]]}},{"type":"Feature","properties":{"pid":"2fbdec2f-f468-4d25-8fb2-ff47fa469df3","full":5.3},"geometry":{"type":"Polygon","coordinates":[[[136.09377,36.14187],[136.09378,36.14188],[136.0938,36.14167],[136.09327,36.14162],[136.09324,36.14183],[136.09374,36.14188],[136.09377,36.14187]]]}},{"type":"Feature","properties":{"pid":"9e275fa0-0399-49fd-a293-fc4b72e1b611","full":10.6},"geometry":{"type":"Polygon","coordinates":[[[136.09384,36.14132],[136.09332,36.14127],[136.09328,36.14161],[136.0938,36.14166],[136.09382,36.14165],[136.09385,36.14133],[136.09384,36.14132]]]}},{"type":"Feature","properties":{"pid":"9bd575ec-9b21-4047-9e77-98ac0c58c8c8","full":8.8},"geometry":{"type":"Polygon","coordinates":[[[136.09408,36.14135],[136.09395,36.14135],[136.09386,36.14218],[136.09397,36.14219],[136.09405,36.14205],[136.09411,36.14201],[136.09421,36.14136],[136.09408,36.14135]]]}},{"type":"Feature","properties":{"pid":"a08abeac-5cc4-4b19-963f-e1c531d98a04","full":16.3},"geometry":{"type":"Polygon","coordinates":[[[136.09467,36.14139],[136.09421,36.14137],[136.09412,36.14201],[136.09421,36.14196],[136.09432,36.14193],[136.09449,36.14192],[136.0946,36.14192],[136.09467,36.14139]]]}},{"type":"Feature","properties":{"pid":"476e0516-4e9d-4618-be36-568bfeda9809","full":18.1},"geometry":{"type":"Polygon","coordinates":[[[136.09516,36.14142],[136.09485,36.14141],[136.0948,36.14192],[136.09482,36.14193],[136.09535,36.14192],[136.0954,36.14145],[136.09521,36.14143],[136.09521,36.14144],[136.09516,36.14143],[136.09516,36.14142]]]}},{"type":"Feature","properties":{"pid":"236fc4ce-0fd1-4f84-9c06-ecdfe59a81c8","full":4.9},"geometry":{"type":"Polygon","coordinates":[[[136.09477,36.14118],[136.09397,36.14113],[136.09395,36.14127],[136.09408,36.14129],[136.09472,36.14135],[136.09472,36.14133],[136.09476,36.14133],[136.09477,36.14118]]]}},{"type":"Feature","properties":{"pid":"2c5ae433-d6a4-4626-8545-7da50086902e","full":5.9},"geometry":{"type":"Polygon","coordinates":[[[136.0948,36.14087],[136.09401,36.1408],[136.09399,36.14098],[136.09478,36.14105],[136.0948,36.14087]]]}},{"type":"Feature","properties":{"pid":"79b90063-e01f-4466-a179-a0dadfa64192","full":1.9},"geometry":{"type":"Polygon","coordinates":[[[136.09481,36.14074],[136.09403,36.14068],[136.09402,36.1408],[136.0948,36.14086],[136.09482,36.14077],[136.09481,36.14077],[136.09481,36.14074]]]}},{"type":"Feature","properties":{"pid":"070fc35b-b648-4506-be68-18e2550d5ba7","full":6.1},"geometry":{"type":"Polygon","coordinates":[[[136.09596,36.14094],[136.09493,36.14086],[136.0949,36.14102],[136.09593,36.1411],[136.09596,36.14094]]]}},{"type":"Feature","properties":{"pid":"2f1de742-bb78-425a-8d2c-93e7b961c92b","full":7.6},"geometry":{"type":"Polygon","coordinates":[[[136.096,36.14076],[136.09495,36.14069],[136.09494,36.1407],[136.09492,36.14085],[136.09596,36.14093],[136.096,36.14076]]]}},{"type":"Feature","properties":{"pid":"3d8fb386-bf1a-4723-877b-31018b4b116f","full":4.0},"geometry":{"type":"Polygon","coordinates":[[[136.09603,36.14063],[136.09493,36.14054],[136.09491,36.14065],[136.09493,36.14066],[136.09492,36.14068],[136.09601,36.14075],[136.09603,36.14063]]]}},{"type":"Feature","properties":{"pid":"cf90d569-6d4a-4fc4-8d85-bf350ec1f39b","full":11.0},"geometry":{"type":"Polygon","coordinates":[[[136.09397,36.14041],[136.09342,36.14037],[136.09338,36.14071],[136.09392,36.14075],[136.09393,36.14073],[136.09397,36.14041]]]}},{"type":"Feature","properties":{"pid":"ca29bf10-d584-40d9-bcb0-f4bfdda66d99","full":2.7},"geometry":{"type":"Polygon","coordinates":[[[136.09393,36.14078],[136.09392,36.14078],[136.09392,36.14076],[136.09338,36.14072],[136.09336,36.14087],[136.0939,36.14091],[136.0939,36.1409],[136.09392,36.1409],[136.09393,36.14078]]]}},{"type":"Feature","properties":{"pid":"37211cf0-9b59-4a46-bedf-81d621f417e0","full":11.1},"geometry":{"type":"Polygon","coordinates":[[[136.09391,36.14093],[136.09336,36.14088],[136.09332,36.14122],[136.09386,36.14127],[136.09391,36.14093]]]}},{"type":"Feature","properties":{"pid":"39994a34-2f28-4edf-bfe0-67a4249d0d3a","full":2.6},"geometry":{"type":"Polygon","coordinates":[[[136.09289,36.14073],[136.09289,36.14081],[136.09286,36.1409],[136.09332,36.14094],[136.09333,36.14077],[136.09289,36.14073]]]}},{"type":"Feature","properties":{"pid":"d34de085-9e54-4054-b623-046e7f39e212","full":3.9},"geometry":{"type":"Polygon","coordinates":[[[136.09335,36.14058],[136.09275,36.14053],[136.09287,36.14068],[136.09289,36.14073],[136.09334,36.14077],[136.09335,36.14058]]]}},{"type":"Feature","properties":{"pid":"e8e4790c-ea88-4b28-aca1-2481701665ff","full":4.5},"geometry":{"type":"Polygon","coordinates":[[[136.09271,36.14058],[136.09223,36.14053],[136.09219,36.14072],[136.09282,36.14079],[136.0928,36.14069],[136.09271,36.14058]]]}},{"type":"Feature","properties":{"pid":"4c138e48-6425-4a78-9566-660ef501a4f5","full":6.0},"geometry":{"type":"Polygon","coordinates":[[[136.09275,36.14094],[136.09216,36.14088],[136.09213,36.14112],[136.0926,36.14116],[136.09264,36.14111],[136.09266,36.14104],[136.09275,36.14094]]]}},{"type":"Feature","properties":{"pid":"7dae27c6-56f0-4cf1-a075-c1c36ae2a048","full":8.3},"geometry":{"type":"Polygon","coordinates":[[[136.09332,36.14094],[136.09286,36.1409],[136.09279,36.141],[136.09273,36.14106],[136.09268,36.14117],[136.09328,36.14122],[136.09332,36.14094]]]}},{"type":"Feature","properties":{"pid":"5fa69176-8d4d-4a7b-b00d-634472c058dd","full":11.8},"geometry":{"type":"Polygon","coordinates":[[[136.09259,36.14123],[136.09214,36.1412],[136.0921,36.14155],[136.09262,36.14159],[136.09265,36.14157],[136.09269,36.14123],[136.09262,36.14122],[136.09259,36.14123]]]}},{"type":"Feature","properties":{"pid":"a3618d78-cf4a-48c2-9b10-ca72a28dd67c","full":10.5},"geometry":{"type":"Polygon","coordinates":[[[136.09328,36.14127],[136.09276,36.14122],[136.09272,36.14124],[136.09268,36.14154],[136.09324,36.14159],[136.09328,36.14127]]]}},{"type":"Feature","properties":{"pid":"48ca4c4d-7a12-433b-b947-f4839f21448b","full":3.7},"geometry":{"type":"Polygon","coordinates":[[[136.09324,36.1416],[136.09268,36.14155],[136.09266,36.14172],[136.09322,36.14177],[136.09324,36.1416]]]}},{"type":"Feature","properties":{"pid":"aca88922-17d8-4e4a-8ac5-b906a8e70262","full":0.7},"geometry":{"type":"Polygon","coordinates":[[[136.09322,36.14183],[136.09265,36.14179],[136.09264,36.14187],[136.09267,36.1419],[136.0932,36.14194],[136.09322,36.14183]]]}},{"type":"Feature","properties":{"pid":"c66ac814-d78e-4420-ae39-f73bdf0c6f94","full":9.2},"geometry":{"type":"Polygon","coordinates":[[[136.09261,36.14161],[136.09209,36.14157],[136.09207,36.14188],[136.09259,36.14192],[136.09261,36.14161]]]}},{"type":"Feature","properties":{"pid":"6f0bc06c-87e7-4488-ae50-1b78ea1fac96","full":19.8},"geometry":{"type":"Polygon","coordinates":[[[136.09113,36.14119],[136.09109,36.14148],[136.092,36.14158],[136.09202,36.14143],[136.09196,36.14141],[136.09196,36.14139],[136.09202,36.14139],[136.09204,36.14123],[136.09115,36.14114],[136.09113,36.14119]]]}},{"type":"Feature","properties":{"pid":"3e03cfd4-df9d-4f0a-858e-602c7d539c00","full":20.8},"geometry":{"type":"Polygon","coordinates":[[[136.09201,36.1416],[136.09109,36.14149],[136.09103,36.14183],[136.09198,36.14194],[136.09201,36.1416]]]}},{"type":"Feature","properties":{"pid":"74c9bcd8-8470-4193-be37-2ed43480ef06","full":18.5},"geometry":{"type":"Polygon","coordinates":[[[136.09029,36.1418],[136.09013,36.14177],[136.09006,36.14218],[136.09008,36.14219],[136.09008,36.14221],[136.0909,36.1423],[136.09092,36.14217],[136.09082,36.14207],[136.09065,36.14195],[136.09048,36.14185],[136.09029,36.1418]]]}},{"type":"Feature","properties":{"pid":"994deb8f-290c-4c87-bff7-6c195bb45474","full":13.1},"geometry":{"type":"Polygon","coordinates":[[[136.09103,36.14148],[136.09025,36.1414],[136.09024,36.14142],[136.09019,36.14142],[136.09017,36.14157],[136.09021,36.14159],[136.09032,36.14162],[136.09058,36.1417],[136.0908,36.14181],[136.09092,36.14189],[136.09097,36.14183],[136.09103,36.14148]]]}},{"type":"Feature","properties":{"pid":"f029a793-e89a-401f-a058-3cd21364c107","full":6.3},"geometry":{"type":"Polygon","coordinates":[[[136.09107,36.1413],[136.09022,36.1412],[136.09019,36.14138],[136.09104,36.14147],[136.09107,36.1413]]]}},{"type":"Feature","properties":{"pid":"fe6d1877-b05b-4e51-b019-4ed5a7d72cda","full":8.4},"geometry":{"type":"Polygon","coordinates":[[[136.09113,36.14091],[136.09033,36.14082],[136.09032,36.14083],[136.09029,36.14083],[136.09025,36.14101],[136.09026,36.14102],[136.0911,36.14111],[136.09113,36.14091]]]}},{"type":"Feature","properties":{"pid":"80dcac6e-0159-4080-85e8-c4dc03c99602","full":3.1},"geometry":{"type":"Polygon","coordinates":[[[136.09115,36.14078],[136.09031,36.14067],[136.09029,36.14078],[136.09032,36.1408],[136.09031,36.14081],[136.09114,36.1409],[136.09115,36.14078]]]}},{"type":"Feature","properties":{"pid":"9753eae2-4930-4ebb-85df-93dd15a5a115","full":3.1},"geometry":{"type":"Polygon","coordinates":[[[136.09118,36.141],[136.09116,36.14113],[136.09203,36.14121],[136.09203,36.1412],[136.09205,36.14121],[136.09206,36.14109],[136.09118,36.141]]]}},{"type":"Feature","properties":{"pid":"d3a2d0fa-30c3-4a2a-b6d4-835752d76f18","full":8.6},"geometry":{"type":"Polygon","coordinates":[[[136.09209,36.14088],[136.09122,36.14079],[136.0912,36.14083],[136.09119,36.14099],[136.09203,36.14108],[136.09204,36.14106],[136.09206,36.14106],[136.09209,36.14088]]]}},{"type":"Feature","properties":{"pid":"61dc46d5-ffc8-4a86-ada1-10b39efadeac","full":13.9},"geometry":{"type":"Polygon","coordinates":[[[136.09215,36.14052],[136.09127,36.14043],[136.09122,36.14069],[136.09211,36.14078],[136.09215,36.14052]]]}},{"type":"Feature","properties":{"pid":"6e55aa8d-348c-4446-9719-7e6ac5bd7070","full":8.2},"geometry":{"type":"Polygon","coordinates":[[[136.09119,36.14055],[136.09035,36.14046],[136.09032,36.14064],[136.09035,36.14064],[136.09035,36.14066],[136.09116,36.14075],[136.09119,36.14055]]]}},{"type":"Feature","properties":{"pid":"fca943fa-660b-4b8f-b242-952f7fee18ba","full":2.2},"geometry":{"type":"Polygon","coordinates":[[[136.08981,36.14046],[136.0897,36.14056],[136.08984,36.14062],[136.09024,36.14065],[136.09026,36.14053],[136.09023,36.14052],[136.09023,36.14051],[136.08981,36.14046]]]}},{"type":"Feature","properties":{"pid":"c1af8bc4-cc63-45db-9b36-4755a9337405","full":2.9},"geometry":{"type":"Polygon","coordinates":[[[136.09017,36.14102],[136.08991,36.141],[136.08983,36.14112],[136.08975,36.14122],[136.0901,36.14125],[136.0901,36.14124],[136.09013,36.14124],[136.09017,36.14102]]]}},{"type":"Feature","properties":{"pid":"58f431b5-eead-4461-a415-52cdd0fe1e92","full":4.3},"geometry":{"type":"Polygon","coordinates":[[[136.09022,36.14067],[136.08988,36.14064],[136.08993,36.14075],[136.08989,36.14098],[136.09016,36.14101],[136.09018,36.14098],[136.09022,36.14067]]]}},{"type":"Feature","properties":{"pid":"ab069b39-5152-4cfc-8613-d3fcd4dc803a","full":9.2},"geometry":{"type":"Polygon","coordinates":[[[136.08858,36.14097],[136.08854,36.14058],[136.08835,36.14059],[136.08829,36.14063],[136.08813,36.14079],[136.08797,36.14102],[136.08801,36.14103],[136.08801,36.14101],[136.08858,36.14097]]]}},{"type":"Feature","properties":{"pid":"9dee5c5e-0c8f-47b0-a672-48d9e058401a","full":0.8},"geometry":{"type":"Polygon","coordinates":[[[136.08869,36.14058],[136.08855,36.14057],[136.08859,36.14097],[136.08873,36.14096],[136.08869,36.14058]]]}},{"type":"Feature","properties":{"pid":"2a468751-daf0-4eae-a5ca-9f6b3c5c15d3","full":5.7},"geometry":{"type":"Polygon","coordinates":[[[136.0891,36.14061],[136.08883,36.14058],[136.08886,36.14095],[136.08923,36.14094],[136.08916,36.14072],[136.08914,36.14063],[136.0891,36.14061]]]}},{"type":"Feature","properties":{"pid":"50bd8a8c-b511-4276-879c-36688e828e3b","full":21.5},"geometry":{"type":"Polygon","coordinates":[[[136.08914,36.14154],[136.08908,36.141],[136.08853,36.14105],[136.08853,36.14107],[136.08852,36.14108],[136.08858,36.14162],[136.08914,36.14154]]]}},{"type":"Feature","properties":{"pid":"cc0a63f5-fd1a-4488-81ee-927b96699cfb","full":5.9},"geometry":{"type":"Polygon","coordinates":[[[136.08834,36.14166],[136.08856,36.14163],[136.0885,36.14107],[136.08849,36.14106],[136.08849,36.14104],[136.08837,36.14106],[136.08829,36.14105],[136.08826,36.14106],[136.08834,36.14166]]]}},{"type":"Feature","properties":{"pid":"2ec68818-2362-457e-bef1-6144321fa04c","full":5.0},"geometry":{"type":"Polygon","coordinates":[[[136.08833,36.14166],[136.08826,36.14105],[136.08806,36.14108],[136.08812,36.14169],[136.08833,36.14166]]]}},{"type":"Feature","properties":{"pid":"b5a3202c-2d0c-4454-8999-6dcf4d2a12e6","full":22.9},"geometry":{"type":"Polygon","coordinates":[[[136.09004,36.14175],[136.08984,36.14175],[136.08937,36.14181],[136.08918,36.14184],[136.08914,36.14214],[136.08995,36.14223],[136.08996,36.14221],[136.08998,36.14221],[136.09004,36.14175]]]}},{"type":"Feature","properties":{"pid":"554e9f5c-56cd-465e-8696-bad900f6b1da","full":1.2},"geometry":{"type":"Polygon","coordinates":[[[136.08925,36.14101],[136.08918,36.141],[136.08923,36.14154],[136.0894,36.14153],[136.08943,36.14149],[136.08925,36.14101]]]}},{"type":"Feature","properties":{"pid":"3f93bb95-e05f-4fd3-983a-c8d61521edef","full":9.0},"geometry":{"type":"Polygon","coordinates":[[[136.09013,36.14127],[136.08972,36.14123],[136.08957,36.14127],[136.08949,36.14134],[136.08948,36.14136],[136.08955,36.14151],[136.09009,36.14154],[136.09013,36.14127]]]}},{"type":"Feature","properties":{"pid":"7d6786fc-2dee-4ab7-a448-72c281775a56","full":25.4},"geometry":{"type":"Polygon","coordinates":[[[136.0909,36.14231],[136.09005,36.14222],[136.08998,36.14263],[136.09,36.14265],[136.09082,36.14274],[136.0909,36.14231]]]}},{"type":"Feature","properties":{"pid":"3ea904eb-8fb9-4973-9289-16466a3bd2c0","full":18.5},"geometry":{"type":"Polygon","coordinates":[[[136.09081,36.14276],[136.08998,36.14267],[136.08993,36.14301],[136.09076,36.1431],[136.09081,36.14276]]]}},{"type":"Feature","properties":{"pid":"37720f4a-4865-4a6c-8b5d-4050da395db9","full":6.6},"geometry":{"type":"Polygon","coordinates":[[[136.08988,36.14277],[136.08905,36.14268],[136.08901,36.14285],[136.08983,36.14295],[136.08983,36.14293],[136.08986,36.14294],[136.08988,36.14277]]]}},{"type":"Feature","properties":{"pid":"0ac99d26-6401-4935-8e92-936f95383ad7","full":2.6},"geometry":{"type":"Polygon","coordinates":[[[136.08992,36.14257],[136.08908,36.14248],[136.08906,36.14261],[136.08988,36.1427],[136.08988,36.14268],[136.0899,36.14268],[136.08992,36.14257]]]}},{"type":"Feature","properties":{"pid":"b07f812b-a5e0-4d52-84ee-b4c4f8998c9f","full":5.1},"geometry":{"type":"Polygon","coordinates":[[[136.08998,36.14224],[136.08914,36.14215],[136.08911,36.1423],[136.08992,36.1424],[136.08993,36.14238],[136.08995,36.14238],[136.08998,36.14224]]]}},{"type":"Feature","properties":{"pid":"dd369919-cb79-48dc-bd7f-08532153880b","full":18.4},"geometry":{"type":"Polygon","coordinates":[[[136.08906,36.14231],[136.0881,36.14221],[136.08806,36.14251],[136.08901,36.14262],[136.08906,36.14231]]]}},{"type":"Feature","properties":{"pid":"20f57299-a0fc-4b0c-90d6-269b85d0025b","full":20.7},"geometry":{"type":"Polygon","coordinates":[[[136.08906,36.1423],[136.08913,36.14185],[136.08817,36.14199],[136.08813,36.14201],[136.0881,36.14218],[136.08813,36.14219],[136.08812,36.1422],[136.08906,36.1423]]]}},{"type":"Feature","properties":{"pid":"db5c7097-33b6-471d-abef-dbe1431834e9","full":18.1},"geometry":{"type":"Polygon","coordinates":[[[136.08901,36.14262],[136.08805,36.14252],[136.088,36.14282],[136.08895,36.14292],[136.08901,36.14262]]]}},{"type":"Feature","properties":{"pid":"f2bdc3f0-bcc2-4ea4-a818-6eaf4a12aeb9","full":4.6},"geometry":{"type":"Polygon","coordinates":[[[136.08895,36.14292],[136.088,36.14282],[136.08798,36.14296],[136.08892,36.14307],[136.08895,36.14292]]]}},{"type":"Feature","properties":{"pid":"cf16425a-1869-4bb9-a24a-8eed03c6e28b","full":5.8},"geometry":{"type":"Polygon","coordinates":[[[136.08797,36.14297],[136.08795,36.14313],[136.0889,36.14323],[136.08892,36.14308],[136.08797,36.14297]]]}},{"type":"Feature","properties":{"pid":"b867e726-4d69-4e01-baa1-8c639dc9c618","full":2.1},"geometry":{"type":"Polygon","coordinates":[[[136.08839,36.14384],[136.08842,36.14386],[136.08851,36.14377],[136.08836,36.14363],[136.08833,36.14356],[136.08824,36.14353],[136.08822,36.1436],[136.08818,36.14369],[136.08817,36.14374],[136.0882,36.14378],[136.08837,36.14387],[136.08839,36.14384]]]}},{"type":"Feature","properties":{"pid":"d35ee072-0537-4003-b6a9-4c41918d74c0","full":0.8},"geometry":{"type":"Polygon","coordinates":[[[136.08909,36.14336],[136.08881,36.14334],[136.08893,36.14347],[136.08901,36.14353],[136.0891,36.14354],[136.08916,36.14352],[136.08909,36.14336]]]}},{"type":"Feature","properties":{"pid":"1e5302df-5836-4004-99e9-15f37a2a6753","full":0.9},"geometry":{"type":"Polygon","coordinates":[[[136.08916,36.14386],[136.08918,36.14384],[136.08908,36.14355],[136.08902,36.14355],[136.08891,36.14375],[136.08916,36.14386]]]}},{"type":"Feature","properties":{"pid":"fd3a784d-a306-4ba2-a8cd-642de6bd075d","full":1.1},"geometry":{"type":"Polygon","coordinates":[[[136.08944,36.1439],[136.08915,36.14354],[136.08909,36.14355],[136.0892,36.14388],[136.08937,36.14396],[136.08944,36.1439]]]}},{"type":"Feature","properties":{"pid":"7396bca7-ce32-41d0-9394-0bb3ad584852","full":2.8},"geometry":{"type":"Polygon","coordinates":[[[136.08959,36.14373],[136.08933,36.14351],[136.08924,36.14353],[136.08919,36.14353],[136.08922,36.14361],[136.08936,36.14379],[136.08948,36.14392],[136.08952,36.14391],[136.08958,36.14383],[136.0896,36.14376],[136.08959,36.14373]]]}},{"type":"Feature","properties":{"pid":"51fda50a-a225-4296-b7ea-b584ae4d7e79","full":0.6},"geometry":{"type":"Polygon","coordinates":[[[136.08979,36.14362],[136.08977,36.14357],[136.08964,36.14359],[136.0896,36.14372],[136.08961,36.14376],[136.0898,36.14375],[136.08979,36.14362]]]}},{"type":"Feature","properties":{"pid":"8c5a3a79-b726-4fd0-b629-7e2a4c4896f6","full":1.0},"geometry":{"type":"Polygon","coordinates":[[[136.08959,36.14343],[136.08953,36.14341],[136.08934,36.14351],[136.0896,36.14372],[136.08961,36.14365],[136.08961,36.14354],[136.08959,36.14343]]]}},{"type":"Feature","properties":{"pid":"6ed8208d-0094-4165-975f-3e9e9f2d1b6a","full":0.5},"geometry":{"type":"Polygon","coordinates":[[[136.0895,36.1434],[136.08912,36.14337],[136.08911,36.14338],[136.08917,36.1435],[136.08918,36.14351],[136.08924,36.14352],[136.08931,36.1435],[136.08941,36.14347],[136.08949,36.14342],[136.0895,36.1434]]]}},{"type":"Feature","properties":{"pid":"3bd666de-84d7-417c-9955-6ae2da5ecbf8","full":4.2},"geometry":{"type":"Polygon","coordinates":[[[136.08981,36.14321],[136.08897,36.14312],[136.08894,36.14326],[136.08897,36.14326],[136.08896,36.14327],[136.08977,36.14335],[136.08979,36.14333],[136.08981,36.14321]]]}},{"type":"Feature","properties":{"pid":"d65c3c55-d719-4bd6-8464-f7934c1c4d97","full":4.6},"geometry":{"type":"Polygon","coordinates":[[[136.08985,36.14297],[136.08984,36.14295],[136.08902,36.14286],[136.08898,36.14302],[136.0898,36.1431],[136.08981,36.14308],[136.08983,36.14308],[136.08985,36.14297]]]}},{"type":"Feature","properties":{"pid":"7fa8ebf1-22cc-440e-ab1f-685b0f7230db","full":1.0},"geometry":{"type":"Polygon","coordinates":[[[136.09074,36.14311],[136.08992,36.14303],[136.0899,36.14313],[136.09073,36.14322],[136.09074,36.14311]]]}},{"type":"Feature","properties":{"pid":"ba63e0f8-2e15-46ea-9082-a422254279a6","full":2.0},"geometry":{"type":"Polygon","coordinates":[[[136.09022,36.1434],[136.09028,36.14341],[136.09038,36.14337],[136.09047,36.14336],[136.09057,36.14336],[136.09069,36.14339],[136.09072,36.14332],[136.08989,36.14323],[136.08986,36.14337],[136.09018,36.14342],[136.09022,36.1434]]]}},{"type":"Feature","properties":{"pid":"a8ec09e6-a0d9-4074-9403-2b2f1fd57690","full":7.0},"geometry":{"type":"Polygon","coordinates":[[[136.09136,36.14282],[136.09085,36.14276],[136.0908,36.1431],[136.09112,36.14314],[136.09113,36.14308],[136.09119,36.14299],[136.09136,36.14282]]]}},{"type":"Feature","properties":{"pid":"9fa991f7-57ca-451d-8917-ade86cbcb7b1","full":8.1},"geometry":{"type":"Polygon","coordinates":[[[136.09112,36.14318],[136.09078,36.14314],[136.09074,36.14339],[136.0911,36.14358],[136.09125,36.14348],[136.09127,36.14346],[136.09125,36.14341],[136.09114,36.14328],[136.09112,36.14318]]]}},{"type":"Feature","properties":{"pid":"a12a163a-3b63-4f06-b85a-7901bb4efd5b","full":4.9},"geometry":{"type":"Polygon","coordinates":[[[136.09104,36.14228],[136.09096,36.14221],[136.0909,36.14254],[136.0915,36.1426],[136.09151,36.14258],[136.09154,36.14258],[136.09169,36.14253],[136.0914,36.14246],[136.09122,36.14239],[136.09104,36.14228]]]}},{"type":"Feature","properties":{"pid":"c3148911-1021-4a8d-a9c5-87be58bf7499","full":22.2},"geometry":{"type":"Polygon","coordinates":[[[136.09198,36.14196],[136.09104,36.14184],[136.09098,36.14192],[136.091,36.14194],[136.09098,36.14195],[136.0911,36.14206],[136.09112,36.14207],[136.09113,36.14209],[136.09123,36.14218],[136.09135,36.14225],[136.09153,36.14231],[136.09164,36.14234],[136.09177,36.14235],[136.09192,36.14233],[136.09194,36.1423],[136.09198,36.14196]]]}},{"type":"Feature","properties":{"pid":"2e644356-71ed-46b7-bc75-23dc8cf4d268","full":4.9},"geometry":{"type":"Polygon","coordinates":[[[136.09155,36.14262],[136.0909,36.14255],[136.09087,36.14275],[136.09139,36.1428],[136.09155,36.14262]]]}},{"type":"Feature","properties":{"pid":"6f540d67-56a5-4dc1-9080-6d97ba837f55","full":10.7},"geometry":{"type":"Polygon","coordinates":[[[136.09221,36.14226],[136.09253,36.14223],[136.09256,36.14219],[136.09259,36.14193],[136.09207,36.14188],[136.09203,36.1423],[136.09221,36.14226]]]}},{"type":"Feature","properties":{"pid":"37abf98e-4120-4b94-9c08-e3c1b10282be","full":8.5},"geometry":{"type":"Polygon","coordinates":[[[136.0932,36.14196],[136.09264,36.14191],[136.0926,36.1422],[136.09261,36.14222],[136.09318,36.14219],[136.0932,36.14196]]]}},{"type":"Feature","properties":{"pid":"9f99f466-1370-4335-83a9-1d1d8f587442","full":1.8},"geometry":{"type":"Polygon","coordinates":[[[136.0914,36.14498],[136.09115,36.14488],[136.09091,36.14494],[136.09093,36.1451],[136.0914,36.14498]]]}},{"type":"Feature","properties":{"pid":"660a68da-0d41-4a8e-ae75-7c702e4ca8c8","full":0.7},"geometry":{"type":"Polygon","coordinates":[[[136.09151,36.1454],[136.09152,36.14545],[136.09155,36.14545],[136.09169,36.14542],[136.09166,36.14529],[136.09159,36.14528],[136.09157,36.14527],[136.09141,36.14529],[136.09144,36.14539],[136.09151,36.1454]]]}},{"type":"Feature","properties":{"pid":"ce41c488-bed6-458b-a44f-11301d9b4a6f","full":3.9},"geometry":{"type":"Polygon","coordinates":[[[136.09152,36.14554],[136.09147,36.14542],[136.09106,36.14548],[136.09112,36.14563],[136.09134,36.14569],[136.09149,36.14564],[136.09152,36.14554]]]}},{"type":"Feature","properties":{"pid":"d44da62f-5521-4a78-a238-e92dfb9e2ede","full":0.5},"geometry":{"type":"Polygon","coordinates":[[[136.09143,36.14541],[136.0914,36.14529],[136.09101,36.14536],[136.09105,36.14546],[136.09143,36.14541]]]}},{"type":"Feature","properties":{"pid":"ff611221-ab25-429e-9391-42c0364076e9","full":4.4},"geometry":{"type":"Polygon","coordinates":[[[136.09152,36.14506],[136.09148,36.14504],[136.09097,36.14517],[136.091,36.14534],[136.09156,36.14523],[136.09152,36.14506]]]}},{"type":"Feature","properties":{"pid":"07b56f7e-5bd0-49ae-9b96-9a5c9a984f62","full":11.8},"geometry":{"type":"Polygon","coordinates":[[[136.0914,36.14429],[136.09131,36.14421],[136.09067,36.14441],[136.09072,36.14456],[136.0909,36.14465],[136.09147,36.14446],[136.0914,36.14429]]]}},{"type":"Feature","properties":{"pid":"a90c128b-c965-4f5f-be6c-20cfd89ebcc3","full":1.9},"geometry":{"type":"Polygon","coordinates":[[[136.08812,36.14424],[136.08804,36.14424],[136.08795,36.14456],[136.08812,36.14462],[136.08822,36.14428],[136.08812,36.14424]]]}},{"type":"Feature","properties":{"pid":"a8c0f3c4-ceed-4b1f-b8c8-ab540ee3f2d0","full":0.5},"geometry":{"type":"Polygon","coordinates":[[[136.09973,36.14394],[136.09964,36.14389],[136.09952,36.14389],[136.09948,36.14392],[136.09943,36.14389],[136.0994,36.14395],[136.0996,36.14404],[136.09965,36.14406],[136.09973,36.14394]]]}},{"type":"Feature","properties":{"pid":"3ca5688c-98ae-4880-825a-357b3b450373","full":0.7},"geometry":{"type":"Polygon","coordinates":[[[136.10014,36.14408],[136.0999,36.14401],[136.09984,36.14403],[136.0998,36.14408],[136.09983,36.14412],[136.10009,36.1442],[136.10014,36.14408]]]}},{"type":"Feature","properties":{"pid":"50cecda4-c223-44e6-9ec6-2d17ce71129f","full":0.6},"geometry":{"type":"Polygon","coordinates":[[[136.09884,36.14355],[136.09873,36.1435],[136.09869,36.14352],[136.09861,36.1437],[136.09865,36.14372],[136.09875,36.14375],[136.09884,36.14355]]]}},{"type":"Feature","properties":{"pid":"aabb89d1-ad08-445b-be02-a030e6cb8d68","full":0.8},"geometry":{"type":"Polygon","coordinates":[[[136.09848,36.14343],[136.09842,36.1434],[136.09834,36.14355],[136.09851,36.14366],[136.0986,36.14347],[136.09848,36.14343]]]}},{"type":"Feature","properties":{"pid":"6518126f-9700-4708-a55c-ed4fd6fcf51f","full":0.6},"geometry":{"type":"Polygon","coordinates":[[[136.09835,36.14334],[136.09827,36.14331],[136.09818,36.14346],[136.09832,36.14354],[136.09842,36.14339],[136.09835,36.14334]]]}},{"type":"Feature","properties":{"pid":"7dfb3ac1-be3e-48a4-b27c-dcef81aea594","full":1.5},"geometry":{"type":"Polygon","coordinates":[[[136.09886,36.14331],[136.09889,36.14329],[136.09904,36.14334],[136.09908,36.14332],[136.09913,36.14322],[136.09851,36.14309],[136.09847,36.14313],[136.09857,36.14321],[136.09886,36.14331]]]}},{"type":"Feature","properties":{"pid":"2209c564-82cf-4df7-bb84-c0775400be89","full":17.0},"geometry":{"type":"Polygon","coordinates":[[[136.09924,36.14278],[136.09864,36.14266],[136.09862,36.14268],[136.09862,36.1427],[136.09851,36.14308],[136.09905,36.14319],[136.09924,36.14282],[136.09924,36.14278]]]}},{"type":"Feature","properties":{"pid":"987c04a8-b1bf-4c09-91ac-e3ddba3bd562","full":0.6},"geometry":{"type":"Polygon","coordinates":[[[136.09894,36.14357],[136.09889,36.14355],[136.09884,36.14356],[136.09876,36.14375],[136.0989,36.14379],[136.099,36.14361],[136.09894,36.14357]]]}},{"type":"Feature","properties":{"pid":"d0135c7d-bfd4-4b8f-8dff-47fa97eb89bd","full":19.1},"geometry":{"type":"Polygon","coordinates":[[[136.10035,36.14342],[136.09978,36.14323],[136.09957,36.14362],[136.10003,36.14382],[136.10016,36.1438],[136.10021,36.14376],[136.10035,36.14348],[136.10035,36.14342]]]}},{"type":"Feature","properties":{"pid":"7ad56079-a74f-417d-b1cd-71bcd1b67ff0","full":10.1},"geometry":{"type":"Polygon","coordinates":[[[136.09973,36.14321],[136.09929,36.14308],[136.09912,36.14336],[136.09951,36.14361],[136.09973,36.14321]]]}},{"type":"Feature","properties":{"pid":"9e4f4e4b-8634-41f2-a924-f6f7cfe45ba7","full":11.2},"geometry":{"type":"Polygon","coordinates":[[[136.10007,36.14243],[136.0998,36.14233],[136.09966,36.14248],[136.09958,36.1426],[136.0995,36.14276],[136.09986,36.14289],[136.0999,36.14285],[136.09997,36.14273],[136.10007,36.14245],[136.10007,36.14243]]]}},{"type":"Feature","properties":{"pid":"b10f1038-4c96-4320-8b31-58fa6334fd47","full":10.8},"geometry":{"type":"Polygon","coordinates":[[[136.0992,36.14236],[136.09911,36.14234],[136.09895,36.14235],[136.09886,36.14264],[136.09891,36.14266],[136.09892,36.14267],[136.09933,36.14275],[136.09937,36.14274],[136.09939,36.14272],[136.09941,36.14271],[136.09947,36.14254],[136.09947,36.1425],[136.09941,36.14246],[136.09932,36.14242],[136.0992,36.14236]]]}},{"type":"Feature","properties":{"pid":"d47baa51-db87-4cd2-ae4d-cdc3bfc7dbca","full":1.2},"geometry":{"type":"Polygon","coordinates":[[[136.09885,36.14264],[136.09894,36.14236],[136.09882,36.14238],[136.09867,36.1425],[136.09863,36.14261],[136.09885,36.14264]]]}},{"type":"Feature","properties":{"pid":"3ce78f7e-7611-4aea-a8ee-707173c52553","full":8.4},"geometry":{"type":"Polygon","coordinates":[[[136.09845,36.14263],[136.09821,36.14265],[136.09817,36.14268],[136.09809,36.14293],[136.09811,36.14295],[136.09827,36.14303],[136.09836,36.14306],[136.09845,36.14307],[136.09857,36.14267],[136.09856,36.14264],[136.09845,36.14263]]]}},{"type":"Feature","properties":{"pid":"e4def0b6-8eef-46df-9db2-47cbf9bc7761","full":4.1},"geometry":{"type":"Polygon","coordinates":[[[136.09993,36.14041],[136.09983,36.14043],[136.09962,36.14056],[136.09962,36.14059],[136.09977,36.14073],[136.09986,36.14072],[136.09998,36.14064],[136.10007,36.14052],[136.10004,36.14046],[136.09993,36.14041]]]}}],"precision":5}