{"type":"FeatureCollection","features":[{"type":"Feature","properties":{"pid":"b43c2b16-42f5-47eb-8b4b-c3f993ac11a7"},"geometry":{"type":"Polygon","coordinates":[[[136.07480454279542,35.62291381906062],[136.0749682636499,35.623455461771826],[136.07518610850178,35.62346085667229],[136.07521820461696,35.623483916290574],[136.0752323785802,35.62354574397218],[136.07530996419135,35.62355600621122],[136.0751405274924,35.623020972856416],[136.07496019141183,35.62292844670717],[136.07485376302634,35.62290207310009],[136.07480454279542,35.62291381906062]]]}},{"type":"Feature","properties":{"pid":"76fe01c0-4520-471b-bf5f-d89adcc5a67e"},"geometry":{"type":"Polygon","coordinates":[[[136.0754800966592,35.62281815540087],[136.0753454164918,35.62287573754093],[136.07533206769304,35.62292998177767],[136.07554358994156,35.623572836892336],[136.07571274023837,35.62357023504344],[136.0755732383076,35.62311926134225],[136.07552430290204,35.62313711163845],[136.07548387907968,35.623127456311614],[136.07543904359272,35.62303649877326],[136.0754534994063,35.622995663156566],[136.0755259868133,35.622966508224394],[136.0754800966592,35.62281815540087]]]}},{"type":"Feature","properties":{"pid":"d1d86573-859c-4084-9350-e56c911b4a9f"},"geometry":{"type":"Polygon","coordinates":[[[136.07599546494546,35.6235457386826],[136.07574423702408,35.62276031715841],[136.07563554995178,35.62275131124444],[136.07559293422617,35.62277479921887],[136.07584318986486,35.62357143609681],[136.07599546494546,35.6235457386826]]]}},{"type":"Feature","properties":{"pid":"6ce4ce6c-5b02-4087-907d-2c6e04d4a88d"},"geometry":{"type":"Polygon","coordinates":[[[136.07610583767791,35.623129455163024],[136.07622586074314,35.62350460838012],[136.07628037629854,35.62349072080052],[136.07617656341134,35.62315956448557],[136.07610583767791,35.623129455163024]]]}},{"type":"Feature","properties":{"pid":"52d427c8-58a1-4eb3-bae8-27d792dc3633"},"geometry":{"type":"Polygon","coordinates":[[[136.076394345827,35.62344930262795],[136.07654388586369,35.623385264892214],[136.076457974123,35.62318266794372],[136.07630669977144,35.623179826143875],[136.076394345827,35.62344930262795]]]}},{"type":"Feature","properties":{"pid":"1f293efa-6561-441a-8e62-eacc8c85cb46"},"geometry":{"type":"Polygon","coordinates":[[[136.0767355805534,35.623337453959955],[136.0768353329371,35.623298018165904],[136.07713209338397,35.62306140362597],[136.0767972095044,35.6231744820934],[136.07684081529862,35.62327432903159],[136.0768188308027,35.623299786901086],[136.0767355805534,35.623337453959955]]]}},{"type":"Feature","properties":{"pid":"54ed1a4b-b843-406d-9155-276afc0c7821"},"geometry":{"type":"Polygon","coordinates":[[[136.08925186699398,35.616060432679944],[136.0895746196737,35.616112893007774],[136.08974429729813,35.61611978109171],[136.0895671409155,35.61605936302418],[136.08942343490568,35.61597681620077],[136.08927249316733,35.61600114804463],[136.08923622170957,35.61601956909473],[136.08925186699398,35.616060432679944]]]}},{"type":"Feature","properties":{"pid":"48939254-46c7-4ba7-8721-82b0c240f0fa"},"geometry":{"type":"Polygon","coordinates":[[[136.09059532232934,35.61617256348781],[136.09091676957664,35.61620797982695],[136.0909502448966,35.61617953849921],[136.09080579934889,35.61615389389429],[136.09059532232934,35.61617256348781]]]}},{"type":"Feature","properties":{"pid":"3d418ec4-fa68-4bee-9b79-133a4f4d4e0f"},"geometry":{"type":"Polygon","coordinates":[[[136.09187993160253,35.61639332561881],[136.09208860151602,35.616436936723126],[136.0921613830571,35.61643608834737],[136.09216134207463,35.616400218198706],[136.09211916613742,35.61638646016108],[136.09201683490085,35.616305474449284],[136.0919019052964,35.61630977167313],[136.09187993160253,35.61639332561881]]]}},{"type":"Feature","properties":{"pid":"95f1900d-9379-4fa5-91c3-bccfa0dc6776"},"geometry":{"type":"Polygon","coordinates":[[[136.09262150467947,35.61705260356647],[136.0926334357315,35.61715569691937],[136.09271111424857,35.617279396454215],[136.09284239508196,35.61737015129377],[136.09302423569133,35.61721414796191],[136.09287127469233,35.61716247337318],[136.09282328494345,35.61713180355105],[136.0927338542223,35.6171296036221],[136.09264649720328,35.617053094798784],[136.09262150467947,35.61705260356647]]]}},{"type":"Feature","properties":{"pid":"e4f9505e-67ae-4178-bbfc-2ac7706116e7"},"geometry":{"type":"Polygon","coordinates":[[[136.09378001628775,35.61857290223185],[136.09399334841513,35.618804176403145],[136.09408759937165,35.61888198743106],[136.09417851971054,35.61879802905814],[136.09409468174294,35.6186544111046],[136.09403230818924,35.618618015434336],[136.0939522149946,35.61858793529478],[136.09378001628775,35.61857290223185]]]}},{"type":"Feature","properties":{"pid":"7cbd18dc-316a-4606-8aad-390a31bafe9d"},"geometry":{"type":"Polygon","coordinates":[[[136.0949352898625,35.61884093107421],[136.09503391506732,35.6189114877562],[136.0952309973817,35.61899667624433],[136.0953800474606,35.61899506109618],[136.0955903457449,35.6190325310357],[136.095732219402,35.61903589354569],[136.09569429118145,35.61891549930561],[136.09557217762818,35.61890950043826],[136.09518002355648,35.618799615832046],[136.0950123576233,35.61871665745249],[136.0949352898625,35.61884093107421]]]}},{"type":"Feature","properties":{"pid":"1f33c5fd-9c55-4b45-a0f1-ab61af3c3eaf"},"geometry":{"type":"Polygon","coordinates":[[[136.0944749787475,35.618682314736894],[136.09458554438245,35.61865608790624],[136.09476518887243,35.61872769363939],[136.09481621663735,35.61876359648573],[136.0949151503589,35.61863891048989],[136.09475271158362,35.6185219438669],[136.09464260857712,35.618524700033255],[136.09454309158207,35.6184834827174],[136.0945192080169,35.61849106610374],[136.09452347005816,35.618522556176885],[136.0944749787475,35.618682314736894]]]}},{"type":"Feature","properties":{"pid":"e7363903-019e-4bc6-90dd-f107fe9d46c6"},"geometry":{"type":"Polygon","coordinates":[[[136.09436915804116,35.61852319153625],[136.09436078097167,35.61845355097187],[136.09437311138538,35.61842516679084],[136.09430554541584,35.61837425011492],[136.09426092432463,35.61841369869381],[136.09436915804116,35.61852319153625]]]}},{"type":"Feature","properties":{"pid":"984524e8-ce14-4dd1-9b97-1bf4f6f1a82d"},"geometry":{"type":"Polygon","coordinates":[[[136.09532323017,35.61850548190697],[136.0955466016434,35.618608099219024],[136.09573542113446,35.61860837575198],[136.0955787125668,35.61848637326242],[136.0955229164685,35.61837375466568],[136.09549374962984,35.61834458782992],[136.09532323017,35.61850548190697]]]}},{"type":"Feature","properties":{"pid":"7b900067-b18f-4612-9e74-b0421e5e3e42"},"geometry":{"type":"Polygon","coordinates":[[[136.0950730664739,35.61809342299994],[136.0950697163069,35.618122236989976],[136.0951872164285,35.618342237306216],[136.09523492638,35.61840088068995],[136.09541069957828,35.61824028233662],[136.09525921411208,35.618152726321014],[136.0950730664739,35.61809342299994]]]}},{"type":"Feature","properties":{"pid":"2d469dcc-d7ab-48d9-8766-ae70de856070"},"geometry":{"type":"Polygon","coordinates":[[[136.09395660348255,35.618137636438426],[136.09412441939847,35.618326921502906],[136.09425032177973,35.61820331639818],[136.09429513219226,35.61813650249424],[136.09395660348255,35.618137636438426]]]}},{"type":"Feature","properties":{"pid":"4c425fe4-33ee-47eb-b541-b921e1c7a738"},"geometry":{"type":"Polygon","coordinates":[[[136.09333524898057,35.617920603767864],[136.0934227572027,35.617944767795585],[136.09355625277135,35.617952449312405],[136.09355623838465,35.61794002940611],[136.09335317861974,35.61788417450372],[136.09333524898057,35.617920603767864]]]}},{"type":"Feature","properties":{"pid":"c7b31f52-44d7-47b7-9ccb-3069feee4598"},"geometry":{"type":"Polygon","coordinates":[[[136.09297217736147,35.617437239896255],[136.09321642438434,35.617565808019215],[136.09329287022737,35.61746262561698],[136.09331262911576,35.61739499140729],[136.09336414970497,35.617316302306094],[136.0932279942366,35.61723103635556],[136.09319254551576,35.617224529155905],[136.0931340814804,35.61729962682522],[136.09297217736147,35.617437239896255]]]}},{"type":"Feature","properties":{"pid":"4af5e3f4-c590-4f5b-a74a-d201e25bca7c"},"geometry":{"type":"Polygon","coordinates":[[[136.09337389995895,35.61762206688772],[136.0935705032397,35.61770104660784],[136.09371034501302,35.61772811858283],[136.09396267016137,35.61774852383446],[136.09423098819235,35.61774305353612],[136.09414207145073,35.6177129382044],[136.09364758397768,35.6176309693764],[136.09362427762227,35.617606572857824],[136.09361576648433,35.617560122059075],[136.09367648944433,35.61745387633844],[136.09349886037393,35.617380252877595],[136.09337389995895,35.61762206688772]]]}},{"type":"Feature","properties":{"pid":"764a57ab-a7c1-439b-bd85-87a10b4d8ded"},"geometry":{"type":"Polygon","coordinates":[[[136.09713184765099,35.6182818196272],[136.09715505626244,35.61845762574661],[136.09718739601027,35.61848557729401],[136.09722314142286,35.61841387613453],[136.09723615644302,35.6183447916632],[136.09718793497962,35.618335063944095],[136.09713184765099,35.6182818196272]]]}},{"type":"Feature","properties":{"pid":"b4f240f3-82f0-424a-ba02-cd2e91da51d8"},"geometry":{"type":"Polygon","coordinates":[[[136.09668327218532,35.61809246625474],[136.09684521452743,35.618132505104995],[136.09688407614357,35.61817437109193],[136.0968880014244,35.61828528348793],[136.0969122591725,35.6183041529341],[136.09697706791655,35.618314993756286],[136.0969537131028,35.61811922724882],[136.09672471182148,35.61790996971706],[136.09668327218532,35.61809246625474]]]}},{"type":"Feature","properties":{"pid":"100c02e4-0267-401e-8d78-e99980ba3baf"},"geometry":{"type":"Polygon","coordinates":[[[136.0962101414876,35.617857378824795],[136.09629293953722,35.617933856521624],[136.09646343102773,35.61802225563679],[136.09657238458504,35.61805701967788],[136.09662439615832,35.61783071290366],[136.09649810411753,35.61776030461495],[136.0962101414876,35.617857378824795]]]}},{"type":"Feature","properties":{"pid":"73d1eb5e-3f12-41d4-bd20-2970989f7cff"},"geometry":{"type":"Polygon","coordinates":[[[136.0960663190976,35.6182696557866],[136.0961577648029,35.61819884744995],[136.09622359874712,35.61804277965383],[136.0961176844554,35.61795308070562],[136.09584244263422,35.617997914515485],[136.09566299525306,35.61805302420824],[136.0960663190976,35.6182696557866]]]}},{"type":"Feature","properties":{"pid":"3bae367f-ac71-4411-ac1e-c0258261fe16"},"geometry":{"type":"Polygon","coordinates":[[[136.0959080737414,35.61857611767291],[136.0960725747273,35.618587925418986],[136.09608968336266,35.618558087633765],[136.09564320171248,35.618339227359755],[136.09567826328126,35.61842076979251],[136.09583454469006,35.61854459232492],[136.0959080737414,35.61857611767291]]]}},{"type":"Feature","properties":{"pid":"526a034d-83cb-42d6-81a4-bac9d69b7ff1"},"geometry":{"type":"Polygon","coordinates":[[[136.09624824817467,35.618357693616936],[136.09639924867705,35.618127765213046],[136.0963302701983,35.61809779686847],[136.0962612173454,35.618248901914015],[136.09617017279615,35.61832090886237],[136.09624824817467,35.618357693616936]]]}},{"type":"Feature","properties":{"pid":"874c9264-6655-423a-b528-4c95f0324f8f"},"geometry":{"type":"Polygon","coordinates":[[[136.0966192327694,35.618268402193586],[136.09660869489707,35.61819164715028],[136.09650742918762,35.61816523426571],[136.09634849321534,35.618407711593164],[136.09645672428445,35.61846477132117],[136.0966192327694,35.618268402193586]]]}},{"type":"Feature","properties":{"pid":"1d53e9a2-6b87-43f4-8164-634cb2b368c9"},"geometry":{"type":"Polygon","coordinates":[[[136.09656097890334,35.61851431126055],[136.09664694659975,35.61855195307784],[136.09669045577797,35.61850872153342],[136.09675702122325,35.618485117810955],[136.0967569236295,35.61840407574938],[136.09667896640883,35.61836892503336],[136.09656097890334,35.61851431126055]]]}},{"type":"Feature","properties":{"pid":"55ec90fc-ee38-4bd9-af3f-c8e53ce775d6"},"geometry":{"type":"Polygon","coordinates":[[[136.09677962811017,35.61863325454709],[136.0968439820133,35.618664712281536],[136.09689012432108,35.61864042472765],[136.09695709281414,35.61866341772639],[136.09698082410412,35.61863789824533],[136.09691172949297,35.618584719852805],[136.09680123252966,35.6186121572437],[136.09677962811017,35.61863325454709]]]}},{"type":"Feature","properties":{"pid":"6553f71f-a707-4f79-afb5-83858ecc8fc6"},"geometry":{"type":"Polygon","coordinates":[[[136.09743201879104,35.61877742933423],[136.0972503678947,35.61868784089157],[136.09722525137315,35.61864130644893],[136.09718288762818,35.61864113022235],[136.0970649740567,35.618796670615765],[136.09710593881215,35.61882668231947],[136.09722921203073,35.61898887131529],[136.0973493102085,35.61907594043939],[136.09745776934028,35.61881614931174],[136.09743201879104,35.61877742933423]]]}},{"type":"Feature","properties":{"pid":"3f69040d-f3b6-47aa-91a9-ca29d29c921b"},"geometry":{"type":"Polygon","coordinates":[[[136.0975076024255,35.619128184538624],[136.09758247342015,35.61914169917896],[136.09761026349352,35.61916322385877],[136.09781591706633,35.61916132601206],[136.0978273559421,35.618968197500685],[136.0977279016332,35.618967754241766],[136.0976357511786,35.61893075108289],[136.09759062755558,35.61889021997737],[136.0975076024255,35.619128184538624]]]}},{"type":"Feature","properties":{"pid":"b7bd1cd4-0fcb-46f6-bc72-835729e8bcb2"},"geometry":{"type":"Polygon","coordinates":[[[136.09773185044233,35.61885369948314],[136.0977872576147,35.61885610907415],[136.09781045169456,35.618761468719164],[136.0978706671581,35.61864040055001],[136.09783663822716,35.61862448599277],[136.09781276458142,35.61870905437834],[136.09773185044233,35.61885369948314]]]}},{"type":"Feature","properties":{"pid":"b8dfc575-681a-4ba9-a46b-2ba86d75ef2f"},"geometry":{"type":"Polygon","coordinates":[[[136.09796482929644,35.61915828396727],[136.09798789245787,35.61915826533583],[136.0980114892805,35.61906501096652],[136.098182959541,35.6189326805385],[136.09803184244566,35.61885427230769],[136.09796120470386,35.61892355188512],[136.09796482929644,35.61915828396727]]]}},{"type":"Feature","properties":{"pid":"93c66c43-174a-41cc-a386-24473a844188"},"geometry":{"type":"Polygon","coordinates":[[[136.09826988890717,35.61963330794281],[136.09841604305765,35.61976107068749],[136.098522883377,35.61966786631844],[136.0986303375594,35.61962561639538],[136.09864340792447,35.6195997487693],[136.09849364200454,35.61963824646473],[136.09826988890717,35.61963330794281]]]}},{"type":"Feature","properties":{"pid":"2ae40979-0938-4f74-89ac-4f3212a7dcc1"},"geometry":{"type":"Polygon","coordinates":[[[136.09884421340416,35.61962957549973],[136.0989369034233,35.61967548419047],[136.09898381495947,35.61973240409707],[136.0991140174722,35.61965450062769],[136.09902982942143,35.61961397665842],[136.09884421340416,35.61962957549973]]]}},{"type":"Feature","properties":{"pid":"b550e742-9a48-405b-aab6-86fb2c6bc960"},"geometry":{"type":"Polygon","coordinates":[[[136.09851745679555,35.61865750822501],[136.09847649718154,35.618841525517176],[136.09853309367412,35.61884808017376],[136.0985545452821,35.61866242587339],[136.09851745679555,35.61865750822501]]]}},{"type":"Feature","properties":{"pid":"6d535283-cd61-42a2-bf2d-155e98831cff"},"geometry":{"type":"Polygon","coordinates":[[[136.0856547707109,35.610673168374866],[136.08582074976067,35.610512040034656],[136.08601749662907,35.61038966293525],[136.0860011699652,35.61033790972788],[136.08594057103156,35.61035913000402],[136.08589533226896,35.6103485824773],[136.08574537320627,35.61052902033151],[136.0856547707109,35.610673168374866]]]}},{"type":"Feature","properties":{"pid":"e5b5ef28-f981-4158-8e31-0e6ab4c77a11"},"geometry":{"type":"Polygon","coordinates":[[[136.08463151649198,35.61082104172341],[136.08465445482008,35.61084181786005],[136.0850299621557,35.610954703918765],[136.08514618089575,35.61073775017628],[136.08520119987963,35.610674772628606],[136.08511049887136,35.610643917870696],[136.08463151649198,35.61082104172341]]]}},{"type":"Feature","properties":{"pid":"48b48c17-f501-4c4e-b440-7ce47f5401ff"},"geometry":{"type":"Polygon","coordinates":[[[136.08439148984448,35.61228687968984],[136.0844613100138,35.61229402119126],[136.08453037248916,35.61211229382034],[136.0844169695852,35.61208627607049],[136.0843693757222,35.61218973765212],[136.08440399156254,35.61222347993665],[136.08439148984448,35.61228687968984]]]}},{"type":"Feature","properties":{"pid":"6bc1f456-5540-4748-918f-00e0d15c0a9f"},"geometry":{"type":"Polygon","coordinates":[[[136.0845191373352,35.61187387898104],[136.08461661032973,35.611893434696974],[136.08465127374333,35.61179507753442],[136.0845680575289,35.611754834289904],[136.0845191373352,35.61187387898104]]]}},{"type":"Feature","properties":{"pid":"e3439d2f-e352-4864-bee3-728ce3e3d5c6"},"geometry":{"type":"Polygon","coordinates":[[[136.08475771649057,35.610631615468805],[136.08496205117794,35.610559194447404],[136.0849050105591,35.610515601299625],[136.08475771649057,35.610631615468805]]]}},{"type":"Feature","properties":{"pid":"343edba3-2434-4997-9530-50aaa026b47f"},"geometry":{"type":"Polygon","coordinates":[[[136.08502142184955,35.61042825483234],[136.0851093997897,35.61049172960279],[136.08528518258575,35.610400318416666],[136.0853866756909,35.61037060665419],[136.08553610821508,35.610140409444135],[136.08548748557948,35.610117443954366],[136.08536507595898,35.610211317462905],[136.08516903287546,35.61031097350366],[136.08502142184955,35.61042825483234]]]}},{"type":"Feature","properties":{"pid":"db7689f4-c70f-4c48-be1b-d1375a89e3e8"},"geometry":{"type":"Polygon","coordinates":[[[136.0841166834143,35.60984422549417],[136.08417144508462,35.6100258168565],[136.08434066494502,35.60989244292196],[136.0844710539128,35.609688682754076],[136.08436023570678,35.60957481900569],[136.0841624937932,35.609729028147534],[136.08417205100878,35.60980700681619],[136.0841166834143,35.60984422549417]]]}},{"type":"Feature","properties":{"pid":"7953c4eb-bf75-4407-86a6-fc115703d6ba"},"geometry":{"type":"Polygon","coordinates":[[[136.08398257949426,35.60952806008153],[136.08457017463834,35.60912586966806],[136.0845568965484,35.609114221384196],[136.08440743663851,35.609193345341694],[136.08434651969765,35.60926963015914],[136.0842651484984,35.609325885528335],[136.08400141225482,35.609393871626395],[136.0839652771254,35.60943131550967],[136.08396426915158,35.60948988799849],[136.08398257949426,35.60952806008153]]]}},{"type":"Feature","properties":{"pid":"8210ce26-195e-46ac-96e2-8495796e6082"},"geometry":{"type":"Polygon","coordinates":[[[136.0845353626028,35.60959465515475],[136.0846765891122,35.609405387831316],[136.08463031361558,35.60936648400931],[136.08445129295984,35.60950332218169],[136.0845353626028,35.60959465515475]]]}},{"type":"Feature","properties":{"pid":"ad07fe07-22ca-4e1c-8507-900e44a9adc2"},"geometry":{"type":"Polygon","coordinates":[[[136.08387913803656,35.60910673721297],[136.0839330849017,35.609095151836705],[136.08394199599206,35.6090784867459],[136.08393797021895,35.608939886562936],[136.08386704881906,35.60896051753785],[136.08376968354227,35.60901520031224],[136.08387913803656,35.60910673721297]]]}},{"type":"Feature","properties":{"pid":"73c0692e-6d02-40b0-9ca9-6827787bca04"},"geometry":{"type":"Polygon","coordinates":[[[136.08389680636253,35.60926569655546],[136.08415118194338,35.609192057715006],[136.08412767541958,35.60915836653661],[136.08397208857278,35.60923048304965],[136.0838915239502,35.60923447498277],[136.08389680636253,35.60926569655546]]]}},{"type":"Feature","properties":{"pid":"8795f6ba-4297-4b11-8a98-721093a8e6e9"},"geometry":{"type":"Polygon","coordinates":[[[136.0850228779203,35.61511454979756],[136.08514149739122,35.615135453617995],[136.0852684101012,35.6151078706883],[136.0854215632882,35.615170106796405],[136.0854488292239,35.61511642104474],[136.08508463644364,35.61499361815052],[136.0850228779203,35.61511454979756]]]}},{"type":"Feature","properties":{"pid":"c596e1fa-9fce-4580-8faf-a89f2ac5fdd9"},"geometry":{"type":"Polygon","coordinates":[[[136.08469351180278,35.61504967082923],[136.0848760274945,35.615072815070214],[136.0849471060924,35.61493964313139],[136.08468019257373,35.61492767982773],[136.0846755765996,35.6149823559709],[136.08469351180278,35.61504967082923]]]}},{"type":"Feature","properties":{"pid":"ddca4986-6777-4bca-a19f-95848935420d"},"geometry":{"type":"Polygon","coordinates":[[[136.08274296032263,35.614522163549665],[136.0829526912616,35.614576776033104],[136.08297919561218,35.61456761822888],[136.08298966910763,35.61448001901602],[136.08276295066813,35.6144533513728],[136.08274296032263,35.614522163549665]]]}},{"type":"Feature","properties":{"pid":"19f198ba-38fe-4b0c-9504-ef5f0dcc2f0a"},"geometry":{"type":"Polygon","coordinates":[[[136.0827944172815,35.61435331232314],[136.08299936741057,35.61438200243391],[136.08301051177958,35.61433145766597],[136.08280963268322,35.61431708105405],[136.0827944172815,35.61435331232314]]]}},{"type":"Feature","properties":{"pid":"5bf962f9-c9f9-4191-bbda-81113ecfd678"},"geometry":{"type":"Polygon","coordinates":[[[136.0839453583859,35.612376389690944],[136.08401762218264,35.61257126749981],[136.08411744606104,35.61269365868459],[136.08423680744352,35.61248113709848],[136.08410767429476,35.61245358918065],[136.08404381702135,35.612397392312296],[136.0839453583859,35.612376389690944]]]}},{"type":"Feature","properties":{"pid":"6ca1eede-c3c7-48d9-b457-c7bd4a1fdc17"},"geometry":{"type":"Polygon","coordinates":[[[136.0850851104651,35.613319887262534],[136.08516159901063,35.61341124415845],[136.08520036295,35.613547861101516],[136.08523641595082,35.61345245185081],[136.08514652824067,35.61316942805718],[136.08513189479288,35.613255723363594],[136.0850851104651,35.613319887262534]]]}},{"type":"Feature","properties":{"pid":"bf12fa1c-d3fa-4da8-86b8-41405e29ec68"},"geometry":{"type":"Polygon","coordinates":[[[136.0846800705004,35.61361203501027],[136.08466101943907,35.61371898095189],[136.0847305691709,35.61376100956276],[136.08477696393226,35.61375339897069],[136.08482308194758,35.61363011856158],[136.0846800705004,35.61361203501027]]]}},{"type":"Feature","properties":{"pid":"e7b5ddb0-efd4-4f5c-8ee8-43a352b640a5"},"geometry":{"type":"Polygon","coordinates":[[[136.08457487832027,35.614119779884746],[136.08467313897845,35.614177149622996],[136.08466420716968,35.61405771213461],[136.08467723227704,35.61389304287327],[136.0846380600084,35.61384577689761],[136.08457487832027,35.614119779884746]]]}},{"type":"Feature","properties":{"pid":"a3d7818a-4018-4e6e-adda-1b2a6c43e8f6"},"geometry":{"type":"Polygon","coordinates":[[[136.08604444002145,35.61526091506033],[136.0860358552707,35.615276836904066],[136.08623658757602,35.61533831542961],[136.08638626604204,35.615438262994786],[136.0863871470866,35.61540653415755],[136.08631159584803,35.61529747487566],[136.08623059831052,35.61522987823547],[136.08604444002145,35.61526091506033]]]}},{"type":"Feature","properties":{"pid":"3f9a46d6-8768-4639-96e0-540496714c14"},"geometry":{"type":"Polygon","coordinates":[[[136.08195274843723,35.61972873162072],[136.08197995258575,35.61961671289709],[136.08182677512607,35.61957762570198],[136.08179099282324,35.61968909247976],[136.08195274843723,35.61972873162072]]]}},{"type":"Feature","properties":{"pid":"2b3b617d-71db-4376-bd41-cad9a47eccd4"},"geometry":{"type":"Polygon","coordinates":[[[136.08148876807522,35.61966664956648],[136.08166866152766,35.61969814717663],[136.08175009457895,35.61946034426006],[136.08158785071484,35.619427159800146],[136.08155843794347,35.61946712172318],[136.08154050447288,35.61957074459057],[136.08148876807522,35.61966664956648]]]}},{"type":"Feature","properties":{"pid":"f3073abb-31f1-4477-8e07-c26a4a7df3d5"},"geometry":{"type":"Polygon","coordinates":[[[136.08110152156084,35.61961525368232],[136.08119666249146,35.61964370594804],[136.0812801848499,35.619645772475614],[136.0812952854349,35.61945230064961],[136.08123045593658,35.619443000328346],[136.0811667549662,35.61940414233392],[136.0811170235543,35.61952642080361],[136.08110152156084,35.61961525368232]]]}},{"type":"Feature","properties":{"pid":"57a15cdc-77fa-4011-b793-7754e18d697c"},"geometry":{"type":"Polygon","coordinates":[[[136.08094330603296,35.62033670667613],[136.08098194282042,35.62034628945121],[136.08101774568735,35.620225388827],[136.08096826937998,35.62021199296734],[136.08094330603296,35.62033670667613]]]}},{"type":"Feature","properties":{"pid":"46b429bd-7729-40c2-9904-86918db03cd9"},"geometry":{"type":"Polygon","coordinates":[[[136.08074892727137,35.62102010837574],[136.08085302872698,35.62097175021796],[136.081063092673,35.62072913341283],[136.0810380627367,35.62072121889623],[136.08093195551373,35.620858078937744],[136.0808962410811,35.62086480195254],[136.08082903433913,35.620845047451546],[136.08078595979975,35.620868715187356],[136.08073502580854,35.6209826641345],[136.08074892727137,35.62102010837574]]]}},{"type":"Feature","properties":{"pid":"caaaa15e-cc41-42d4-9241-bd746034883d"},"geometry":{"type":"MultiPolygon","coordinates":[[[[136.08203952148241,35.62068364060417],[136.08200408427237,35.620694796950566],[136.08197497667283,35.62073931870605],[136.08200550081241,35.620746979330825],[136.08203952148241,35.62068364060417]]],[[[136.0821368842509,35.62060793334391],[136.082221913108,35.62054710461954],[136.08216623605531,35.62050044093002],[136.08215006031477,35.62053146952906],[136.08216216241385,35.62057199261584],[136.0821368842509,35.62060793334391]]]]}},{"type":"Feature","properties":{"pid":"8a3da584-0f5b-4c6d-86e3-c0825ca7750d"},"geometry":{"type":"Polygon","coordinates":[[[136.08238912112841,35.620630070168595],[136.0823410398845,35.62060783989662],[136.08228121530436,35.62069045412927],[136.08235304019715,35.620695178585606],[136.08238912112841,35.620630070168595]]]}},{"type":"Feature","properties":{"pid":"31022c72-d4cb-4623-b549-ff4846f47d11"},"geometry":{"type":"Polygon","coordinates":[[[136.08152709552863,35.61833483615573],[136.08164984538195,35.61835813522175],[136.08168246945482,35.61824480866194],[136.08159214151945,35.61821920356134],[136.08152709552863,35.61833483615573]]]}},{"type":"Feature","properties":{"pid":"8dff8f57-2886-4351-a1c3-64332045ecb7"},"geometry":{"type":"Polygon","coordinates":[[[136.08180921218892,35.61786474434596],[136.08186544985227,35.61787213366993],[136.08193655776324,35.61783387112753],[136.08193170016528,35.61770898247259],[136.0819168959075,35.61767763241339],[136.08189491105213,35.61764009681295],[136.08181207430195,35.61759589734778],[136.08180921218892,35.61786474434596]]]}},{"type":"Feature","properties":{"pid":"c1c7b6b8-cdd2-4b64-9dde-388921efe828"},"geometry":{"type":"Polygon","coordinates":[[[136.0772367072001,35.6226710376955],[136.07731527552102,35.622869660532736],[136.0773836997046,35.622850517073076],[136.0773042729872,35.62270503125199],[136.0772367072001,35.6226710376955]]]}},{"type":"Feature","properties":{"pid":"9383cf61-45fd-4935-8874-50aaf52b63d8"},"geometry":{"type":"Polygon","coordinates":[[[136.08362692294355,35.60884443237629],[136.08365247686615,35.608921911865984],[136.083669722544,35.60893421363483],[136.0837551349455,35.60887039674117],[136.0838925564626,35.60883299301468],[136.0839443538887,35.608766160247704],[136.0839481989338,35.60873226983402],[136.08362692294355,35.60884443237629]]]}}]}