{"type":"FeatureCollection","features":[{"type":"Feature","properties":{"pid":"b43c2b16-42f5-47eb-8b4b-c3f993ac11a7","full":16.5},"geometry":{"type":"Polygon","coordinates":[[[136.07538,35.62361],[136.07519,35.62299],[136.07505,35.62293],[136.07499,35.62289],[136.07485,35.62286],[136.07475,35.62288],[136.07475,35.62291],[136.07492,35.6235],[136.07511,35.62351],[136.07517,35.6235],[136.07518,35.62359],[136.07538,35.62361]]]}},{"type":"Feature","properties":{"pid":"76fe01c0-4520-471b-bf5f-d89adcc5a67e","full":11.2},"geometry":{"type":"Polygon","coordinates":[[[136.0755,35.62362],[136.07578,35.62361],[136.07552,35.62278],[136.07548,35.62277],[136.0753,35.62285],[136.07528,35.62293],[136.0755,35.62362]],[[136.07559,35.62306],[136.07552,35.62309],[136.07549,35.62303],[136.07556,35.623],[136.07559,35.62306]]]}},{"type":"Feature","properties":{"pid":"d1d86573-859c-4084-9350-e56c911b4a9f","full":12.7},"geometry":{"type":"Polygon","coordinates":[[[136.07606,35.62358],[136.07579,35.62272],[136.07571,35.62271],[136.07562,35.62271],[136.07553,35.62276],[136.0758,35.62362],[136.07606,35.62358]]]}},{"type":"Feature","properties":{"pid":"6ce4ce6c-5b02-4087-907d-2c6e04d4a88d","full":2.1},"geometry":{"type":"Polygon","coordinates":[[[136.07635,35.62352],[136.07622,35.62313],[136.07606,35.62306],[136.07603,35.62307],[136.07619,35.62356],[136.07635,35.62352]]]}},{"type":"Feature","properties":{"pid":"52d427c8-58a1-4eb3-bae8-27d792dc3633","full":3.8},"geometry":{"type":"Polygon","coordinates":[[[136.07636,35.62352],[136.07661,35.62341],[136.0765,35.62314],[136.07623,35.62313],[136.07636,35.62352]]]}},{"type":"Feature","properties":{"pid":"1f293efa-6561-441a-8e62-eacc8c85cb46","full":2.2},"geometry":{"type":"Polygon","coordinates":[[[136.07667,35.62332],[136.07671,35.62341],[136.07687,35.62333],[136.07734,35.62296],[136.07733,35.62295],[136.07672,35.62315],[136.07679,35.62326],[136.07667,35.62332]]]}},{"type":"Feature","properties":{"pid":"54ed1a4b-b843-406d-9155-276afc0c7821","full":3.2},"geometry":{"type":"Polygon","coordinates":[[[136.08922,35.6161],[136.08957,35.61616],[136.08994,35.61617],[136.08994,35.61611],[136.08979,35.61609],[136.08959,35.61602],[136.08944,35.61593],[136.08934,35.61594],[136.08925,35.61596],[136.08918,35.61599],[136.08918,35.61606],[136.08922,35.6161]]]}},{"type":"Feature","properties":{"pid":"48939254-46c7-4ba7-8721-82b0c240f0fa","full":0.9},"geometry":{"type":"Polygon","coordinates":[[[136.0905,35.61621],[136.09094,35.61626],[136.09099,35.61621],[136.09106,35.61622],[136.09108,35.61617],[136.09102,35.61615],[136.09081,35.61611],[136.0905,35.61614],[136.0905,35.61621]]]}},{"type":"Feature","properties":{"pid":"3d418ec4-fa68-4bee-9b79-133a4f4d4e0f","full":2.4},"geometry":{"type":"Polygon","coordinates":[[[136.09182,35.61643],[136.09208,35.61648],[136.09222,35.61648],[136.09222,35.61637],[136.09215,35.61635],[136.09208,35.61628],[136.09203,35.61626],[136.09193,35.61626],[136.09188,35.61627],[136.09185,35.61629],[136.09182,35.6164],[136.09182,35.61643]]]}},{"type":"Feature","properties":{"pid":"95f1900d-9379-4fa5-91c3-bccfa0dc6776","full":5.7},"geometry":{"type":"Polygon","coordinates":[[[136.09285,35.61742],[136.09306,35.61726],[136.09309,35.6172],[136.09307,35.61718],[136.0929,35.61712],[136.09283,35.61708],[136.09281,35.61709],[136.09276,35.61709],[136.09268,35.61701],[136.09258,35.61701],[136.09257,35.61703],[136.09258,35.61717],[136.09263,35.61725],[136.09267,35.61731],[136.09274,35.61735],[136.09277,35.61739],[136.09285,35.61742]]]}},{"type":"Feature","properties":{"pid":"e4f9505e-67ae-4178-bbfc-2ac7706116e7","full":5.3},"geometry":{"type":"Polygon","coordinates":[[[136.09423,35.61878],[136.09415,35.61866],[136.09415,35.61863],[136.09401,35.61856],[136.09396,35.61854],[136.09376,35.61853],[136.09371,35.61854],[136.09371,35.61856],[136.09373,35.6186],[136.09395,35.61883],[136.09402,35.6189],[136.09407,35.61893],[136.0941,35.61893],[136.09413,35.61892],[136.09415,35.61889],[136.09422,35.61883],[136.09424,35.61881],[136.09423,35.61878]]]}},{"type":"Feature","properties":{"pid":"7cbd18dc-316a-4606-8aad-390a31bafe9d","full":11.3},"geometry":{"type":"Polygon","coordinates":[[[136.09487,35.61885],[136.095,35.61895],[136.09522,35.61904],[136.09538,35.61904],[136.09558,35.61908],[136.0958,35.61908],[136.09574,35.61887],[136.09565,35.61887],[136.09559,35.61887],[136.0952,35.61876],[136.09499,35.61865],[136.09487,35.61885]]]}},{"type":"Feature","properties":{"pid":"1f33c5fd-9c55-4b45-a0f1-ab61af3c3eaf","full":6.4},"geometry":{"type":"Polygon","coordinates":[[[136.0944,35.61876],[136.09457,35.6187],[136.09474,35.61877],[136.09483,35.61883],[136.09499,35.61863],[136.09482,35.61852],[136.09478,35.61848],[136.09466,35.61848],[136.09455,35.61843],[136.09446,35.61846],[136.09447,35.61852],[136.0944,35.61876]]]}},{"type":"Feature","properties":{"pid":"e7363903-019e-4bc6-90dd-f107fe9d46c6","full":0.8},"geometry":{"type":"Polygon","coordinates":[[[136.09435,35.61858],[136.0944,35.61858],[136.09443,35.61851],[136.09442,35.61846],[136.09444,35.61841],[136.0943,35.61831],[136.09419,35.61841],[136.09435,35.61858]]]}},{"type":"Feature","properties":{"pid":"984524e8-ce14-4dd1-9b97-1bf4f6f1a82d","full":4.8},"geometry":{"type":"Polygon","coordinates":[[[136.09526,35.6185],[136.09528,35.61854],[136.0954,35.6186],[136.09553,35.61865],[136.09586,35.61866],[136.09587,35.61863],[136.09577,35.61858],[136.09562,35.61846],[136.09557,35.61835],[136.09549,35.61827],[136.09526,35.6185]]]}},{"type":"Feature","properties":{"pid":"7b900067-b18f-4612-9e74-b0421e5e3e42","full":4.8},"geometry":{"type":"Polygon","coordinates":[[[136.09523,35.61847],[136.09549,35.61823],[136.09529,35.61811],[136.09507,35.61804],[136.09502,35.61805],[136.09501,35.61813],[136.09514,35.61836],[136.09523,35.61847]]]}},{"type":"Feature","properties":{"pid":"2d469dcc-d7ab-48d9-8766-ae70de856070","full":3.5},"geometry":{"type":"Polygon","coordinates":[[[136.09413,35.61839],[136.0943,35.61823],[136.09437,35.61811],[136.09436,35.6181],[136.09417,35.61809],[136.09407,35.61808],[136.09387,35.6181],[136.09386,35.61812],[136.09403,35.61829],[136.09406,35.61835],[136.09408,35.61836],[136.09411,35.61838],[136.09413,35.61839]]]}},{"type":"Feature","properties":{"pid":"4c425fe4-33ee-47eb-b541-b921e1c7a738","full":0.7},"geometry":{"type":"Polygon","coordinates":[[[136.09326,35.61795],[136.09341,35.61799],[136.09361,35.618],[136.09361,35.61791],[136.09332,35.61783],[136.09326,35.61795]]]}},{"type":"Feature","properties":{"pid":"c7b31f52-44d7-47b7-9ccb-3069feee4598","full":6.8},"geometry":{"type":"Polygon","coordinates":[[[136.09323,35.61763],[136.09325,35.61762],[136.09334,35.61748],[136.09336,35.61741],[136.09343,35.61731],[136.09342,35.61729],[136.09325,35.61719],[136.09318,35.61718],[136.09315,35.6172],[136.09309,35.61727],[136.09291,35.61742],[136.09291,35.61744],[136.09296,35.61749],[136.09305,35.61753],[136.09323,35.61763]]]}},{"type":"Feature","properties":{"pid":"4af5e3f4-c590-4f5b-a74a-d201e25bca7c","full":9.2},"geometry":{"type":"Polygon","coordinates":[[[136.0933,35.61764],[136.09339,35.61768],[136.09355,35.61774],[136.0937,35.61777],[136.09396,35.61779],[136.09432,35.61779],[136.09428,35.61771],[136.09416,35.61767],[136.09371,35.6176],[136.09368,35.61759],[136.09367,35.61757],[136.09375,35.61743],[136.0935,35.61733],[136.09346,35.61734],[136.0933,35.61764]]]}},{"type":"Feature","properties":{"pid":"764a57ab-a7c1-439b-bd85-87a10b4d8ded","full":1.1},"geometry":{"type":"Polygon","coordinates":[[[136.0971,35.61848],[136.09718,35.61855],[136.09723,35.61854],[136.09725,35.61848],[136.09728,35.61843],[136.0973,35.61833],[136.09729,35.61831],[136.09722,35.6183],[136.09717,35.61824],[136.09705,35.61821],[136.09704,35.61823],[136.09708,35.61828],[136.0971,35.61848]]]}},{"type":"Feature","properties":{"pid":"b4f240f3-82f0-424a-ba02-cd2e91da51d8","full":4.3},"geometry":{"type":"Polygon","coordinates":[[[136.09681,35.61816],[136.09683,35.61818],[136.09683,35.6183],[136.09689,35.61835],[136.09705,35.61837],[136.09702,35.61824],[136.09701,35.6181],[136.09697,35.61806],[136.09669,35.61781],[136.09662,35.61812],[136.09669,35.61814],[136.09677,35.61815],[136.09681,35.61816]]]}},{"type":"Feature","properties":{"pid":"100c02e4-0267-401e-8d78-e99980ba3baf","full":7.0},"geometry":{"type":"Polygon","coordinates":[[[136.09661,35.61812],[136.09669,35.61781],[136.0965,35.61771],[136.09616,35.61783],[136.09612,35.61787],[136.09619,35.6179],[136.09626,35.61797],[136.09644,35.61806],[136.09661,35.61812]]]}},{"type":"Feature","properties":{"pid":"73d1eb5e-3f12-41d4-bd20-2970989f7cff","full":9.7},"geometry":{"type":"Polygon","coordinates":[[[136.09607,35.61833],[136.09621,35.61822],[136.09629,35.61803],[136.09622,35.61798],[136.09614,35.6179],[136.09583,35.61795],[136.09554,35.61804],[136.09607,35.61833]]]}},{"type":"Feature","properties":{"pid":"3bae367f-ac71-4411-ac1e-c0258261fe16","full":3.6},"geometry":{"type":"Polygon","coordinates":[[[136.09589,35.61862],[136.09611,35.61864],[136.09616,35.61854],[136.09563,35.61828],[136.09558,35.61833],[136.09563,35.61845],[136.0958,35.61858],[136.09589,35.61862]]]}},{"type":"Feature","properties":{"pid":"526a034d-83cb-42d6-81a4-bac9d69b7ff1","full":1.7},"geometry":{"type":"Polygon","coordinates":[[[136.09627,35.61842],[136.09647,35.61811],[136.0963,35.61803],[136.09621,35.61823],[136.09608,35.61833],[136.09627,35.61842]]]}},{"type":"Feature","properties":{"pid":"874c9264-6655-423a-b528-4c95f0324f8f","full":4.1},"geometry":{"type":"Polygon","coordinates":[[[136.09668,35.61828],[136.09666,35.61816],[136.09648,35.61811],[136.09628,35.61842],[136.09647,35.61853],[136.09668,35.61828]]]}},{"type":"Feature","properties":{"pid":"1d53e9a2-6b87-43f4-8164-634cb2b368c9","full":2.0},"geometry":{"type":"Polygon","coordinates":[[[136.09648,35.61853],[136.09666,35.61861],[136.09672,35.61855],[136.09681,35.61852],[136.09681,35.61838],[136.09666,35.61831],[136.09648,35.61853]]]}},{"type":"Feature","properties":{"pid":"55ec90fc-ee38-4bd9-af3f-c8e53ce775d6","full":0.9},"geometry":{"type":"Polygon","coordinates":[[[136.0967,35.61864],[136.09686,35.61873],[136.09689,35.61869],[136.09697,35.61872],[136.09705,35.61863],[136.09693,35.61853],[136.09677,35.61857],[136.0967,35.61864]]]}},{"type":"Feature","properties":{"pid":"6553f71f-a707-4f79-afb5-83858ecc8fc6","full":9.0},"geometry":{"type":"Polygon","coordinates":[[[136.09747,35.61875],[136.09728,35.61865],[136.09727,35.6186],[136.09715,35.6186],[136.09699,35.61881],[136.09706,35.61885],[136.09719,35.61902],[136.0973,35.6191],[136.09738,35.61915],[136.09752,35.61881],[136.09747,35.61875]]]}},{"type":"Feature","properties":{"pid":"3f69040d-f3b6-47aa-91a9-ca29d29c921b","full":6.1},"geometry":{"type":"Polygon","coordinates":[[[136.09744,35.61916],[136.09756,35.61918],[136.09755,35.61921],[136.09786,35.61921],[136.09788,35.61913],[136.09788,35.61892],[136.09775,35.61893],[136.09767,35.61889],[136.09763,35.61885],[136.09755,35.61884],[136.09744,35.61916]]]}},{"type":"Feature","properties":{"pid":"b7bd1cd4-0fcb-46f6-bc72-835729e8bcb2","full":0.7},"geometry":{"type":"Polygon","coordinates":[[[136.09767,35.61886],[136.09767,35.61887],[136.09769,35.61889],[136.09773,35.6189],[136.09782,35.6189],[136.09784,35.61889],[136.09786,35.61878],[136.0979,35.61869],[136.09794,35.61863],[136.09794,35.61862],[136.09785,35.61858],[136.0978,35.61857],[136.09778,35.61857],[136.09778,35.61862],[136.09776,35.61869],[136.09772,35.61878],[136.09767,35.61886]]]}},{"type":"Feature","properties":{"pid":"b8dfc575-681a-4ba9-a46b-2ba86d75ef2f","full":2.9},"geometry":{"type":"Polygon","coordinates":[[[136.0979,35.6192],[136.09805,35.6192],[136.09804,35.61914],[136.09806,35.61909],[136.09815,35.61901],[136.09821,35.61897],[136.09824,35.61896],[136.09828,35.61892],[136.09822,35.6189],[136.09809,35.61882],[136.09803,35.6188],[136.098,35.61882],[136.09791,35.6189],[136.09791,35.61915],[136.0979,35.61917],[136.0979,35.6192]]]}},{"type":"Feature","properties":{"pid":"93c66c43-174a-41cc-a386-24473a844188","full":2.2},"geometry":{"type":"Polygon","coordinates":[[[136.09841,35.61982],[136.09849,35.61977],[136.09856,35.6197],[136.0987,35.61965],[136.09869,35.61963],[136.0987,35.61962],[136.09869,35.61953],[136.09849,35.61959],[136.09837,35.61958],[136.09827,35.61959],[136.09821,35.6196],[136.09818,35.61961],[136.09841,35.61982]]]}},{"type":"Feature","properties":{"pid":"2ae40979-0938-4f74-89ac-4f3212a7dcc1","full":1.5},"geometry":{"type":"Polygon","coordinates":[[[136.0988,35.61966],[136.09885,35.61968],[136.0989,35.61971],[136.09897,35.6198],[136.09924,35.61963],[136.09921,35.61961],[136.09915,35.61962],[136.09904,35.61957],[136.09891,35.61957],[136.09885,35.61958],[136.09881,35.61957],[136.09875,35.61956],[136.09875,35.61963],[136.0988,35.61966]]]}},{"type":"Feature","properties":{"pid":"b550e742-9a48-405b-aab6-86fb2c6bc960","full":0.8},"geometry":{"type":"Polygon","coordinates":[[[136.09842,35.61887],[136.09843,35.61888],[136.09855,35.6189],[136.09858,35.61889],[136.09859,35.61881],[136.09861,35.6187],[136.09861,35.61864],[136.0986,35.61863],[136.09851,35.61861],[136.09843,35.61858],[136.09836,35.6186],[136.09836,35.61863],[136.09844,35.61864],[136.09846,35.61865],[136.09846,35.61868],[136.09843,35.61879],[136.09842,35.61887]]]}},{"type":"Feature","properties":{"pid":"6d535283-cd61-42a2-bf2d-155e98831cff","full":2.4},"geometry":{"type":"Polygon","coordinates":[[[136.08588,35.61029],[136.0858,35.61037],[136.0857,35.61051],[136.08551,35.6108],[136.08556,35.61083],[136.08586,35.61054],[136.08608,35.61041],[136.08604,35.61027],[136.08593,35.61031],[136.08588,35.61029]]]}},{"type":"Feature","properties":{"pid":"e5b5ef28-f981-4158-8e31-0e6ab4c77a11","full":8.4},"geometry":{"type":"Polygon","coordinates":[[[136.08462,35.61088],[136.08482,35.61093],[136.08505,35.61101],[136.08507,35.611],[136.08509,35.61095],[136.0852,35.61076],[136.08521,35.61076],[136.08527,35.61066],[136.08525,35.61064],[136.08511,35.61059],[136.08465,35.61076],[136.08461,35.61078],[136.08454,35.6108],[136.08452,35.61081],[136.08453,35.61082],[136.08459,35.61085],[136.08462,35.61088]]]}},{"type":"Feature","properties":{"pid":"48b48c17-f501-4c4e-b440-7ce47f5401ff","full":2.1},"geometry":{"type":"Polygon","coordinates":[[[136.08431,35.61233],[136.08449,35.61234],[136.08453,35.61229],[136.0846,35.61208],[136.0844,35.61204],[136.08438,35.61205],[136.0843,35.61222],[136.08435,35.61223],[136.08433,35.6123],[136.08431,35.61229],[136.08431,35.61233]]]}},{"type":"Feature","properties":{"pid":"6bc1f456-5540-4748-918f-00e0d15c0a9f","full":1.1},"geometry":{"type":"Polygon","coordinates":[[[136.08445,35.61189],[136.08447,35.61191],[136.08454,35.61193],[136.08465,35.61194],[136.08467,35.61192],[136.08467,35.61191],[136.08468,35.61187],[136.08468,35.61186],[136.08468,35.61185],[136.08472,35.61178],[136.08454,35.61169],[136.08445,35.61189]]]}},{"type":"Feature","properties":{"pid":"e3439d2f-e352-4864-bee3-728ce3e3d5c6","full":0.7},"geometry":{"type":"Polygon","coordinates":[[[136.08462,35.61069],[136.08461,35.61071],[136.08462,35.61072],[136.08464,35.61072],[136.08504,35.61058],[136.08504,35.61057],[136.08503,35.61055],[136.08491,35.61046],[136.0848,35.61052],[136.08462,35.61069]]]}},{"type":"Feature","properties":{"pid":"343edba3-2434-4997-9530-50aaa026b47f","full":6.5},"geometry":{"type":"Polygon","coordinates":[[[136.08495,35.61044],[136.08511,35.61055],[136.08531,35.61044],[136.08542,35.61041],[136.08561,35.61013],[136.0855,35.61007],[136.08547,35.61007],[136.0854,35.61012],[136.08533,35.61017],[136.08514,35.61028],[136.08497,35.61041],[136.08495,35.61043],[136.08495,35.61044]]]}},{"type":"Feature","properties":{"pid":"db7689f4-c70f-4c48-be1b-d1375a89e3e8","full":7.9},"geometry":{"type":"Polygon","coordinates":[[[136.08405,35.60982],[136.08409,35.60993],[136.08414,35.61011],[136.08439,35.60992],[136.08454,35.60968],[136.08437,35.60951],[136.0841,35.60972],[136.08412,35.60977],[136.08412,35.60979],[136.08405,35.60982]]]}},{"type":"Feature","properties":{"pid":"7953c4eb-bf75-4407-86a6-fc115703d6ba","full":2.8},"geometry":{"type":"Polygon","coordinates":[[[136.08396,35.6096],[136.08465,35.60913],[136.08457,35.60906],[136.08437,35.60916],[136.08431,35.60924],[136.08424,35.60929],[136.08397,35.60935],[136.08391,35.60942],[136.08391,35.6095],[136.08396,35.6096]]]}},{"type":"Feature","properties":{"pid":"8210ce26-195e-46ac-96e2-8495796e6082","full":2.1},"geometry":{"type":"Polygon","coordinates":[[[136.08454,35.60967],[136.08475,35.6094],[136.08463,35.6093],[136.08438,35.6095],[136.08454,35.60967]]]}},{"type":"Feature","properties":{"pid":"ad07fe07-22ca-4e1c-8507-900e44a9adc2","full":1.8},"geometry":{"type":"Polygon","coordinates":[[[136.08387,35.60916],[136.08397,35.60913],[136.08399,35.60911],[136.084,35.60908],[136.08399,35.6089],[136.08398,35.60888],[136.08384,35.60892],[136.08375,35.60897],[136.0837,35.60901],[136.08376,35.60907],[136.08387,35.60916]]]}},{"type":"Feature","properties":{"pid":"73c0692e-6d02-40b0-9ca9-6827787bca04","full":0.6},"geometry":{"type":"Polygon","coordinates":[[[136.08423,35.60922],[136.08415,35.6091],[136.08395,35.60919],[136.08383,35.60919],[136.08385,35.60931],[136.08387,35.60932],[136.08423,35.60922]]]}},{"type":"Feature","properties":{"pid":"8795f6ba-4297-4b11-8a98-721093a8e6e9","full":3.3},"geometry":{"type":"Polygon","coordinates":[[[136.08495,35.61515],[136.08507,35.61518],[136.08515,35.61518],[136.08526,35.61515],[136.08545,35.61523],[136.08551,35.61511],[136.08551,35.61509],[136.08546,35.61507],[136.08506,35.61494],[136.08504,35.61494],[136.08504,35.61497],[136.08495,35.61515]]]}},{"type":"Feature","properties":{"pid":"c596e1fa-9fce-4580-8faf-a89f2ac5fdd9","full":3.1},"geometry":{"type":"Polygon","coordinates":[[[136.08464,35.61508],[136.08469,35.6151],[136.08491,35.61512],[136.08502,35.61492],[136.085,35.6149],[136.08498,35.6149],[136.08465,35.61488],[136.08462,35.61492],[136.08462,35.61494],[136.08462,35.61499],[136.08464,35.61508]]]}},{"type":"Feature","properties":{"pid":"ddca4986-6777-4bca-a19f-95848935420d","full":2.1},"geometry":{"type":"Polygon","coordinates":[[[136.0827,35.61448],[136.08269,35.61455],[136.08274,35.61457],[136.08297,35.61462],[136.08303,35.61459],[136.08305,35.61447],[136.08302,35.61444],[136.08273,35.61441],[136.0827,35.61448]]]}},{"type":"Feature","properties":{"pid":"19f198ba-38fe-4b0c-9504-ef5f0dcc2f0a","full":1.0},"geometry":{"type":"Polygon","coordinates":[[[136.08273,35.61437],[136.08273,35.61439],[136.08275,35.61439],[136.08301,35.61443],[136.08306,35.6144],[136.08307,35.61432],[136.08306,35.6143],[136.08303,35.61429],[136.08279,35.61427],[136.08277,35.61428],[136.08275,35.61431],[136.08273,35.61437]]]}},{"type":"Feature","properties":{"pid":"5bf962f9-c9f9-4191-bbda-81113ecfd678","full":4.2},"geometry":{"type":"Polygon","coordinates":[[[136.08397,35.61259],[136.0841,35.61274],[136.08414,35.61277],[136.08431,35.61245],[136.08431,35.61244],[136.08413,35.61241],[136.08407,35.61236],[136.08388,35.61232],[136.08388,35.61235],[136.08397,35.61259]]]}},{"type":"Feature","properties":{"pid":"6ca1eede-c3c7-48d9-b457-c7bd4a1fdc17","full":2.1},"geometry":{"type":"Polygon","coordinates":[[[136.08503,35.61335],[136.08505,35.61335],[136.08511,35.61343],[136.08515,35.61356],[136.08514,35.61367],[136.08517,35.61367],[136.08519,35.61366],[136.08527,35.61353],[136.08529,35.61345],[136.0852,35.61316],[136.08517,35.6131],[136.08515,35.61309],[136.08513,35.61309],[136.0851,35.61312],[136.08508,35.61321],[136.08508,35.61324],[136.08504,35.6133],[136.08503,35.61332],[136.08503,35.61335]]]}},{"type":"Feature","properties":{"pid":"bf12fa1c-d3fa-4da8-86b8-41405e29ec68","full":1.7},"geometry":{"type":"Polygon","coordinates":[[[136.08471,35.61381],[136.0848,35.6138],[136.08484,35.61377],[136.08485,35.61372],[136.08486,35.61369],[136.08488,35.61361],[136.08488,35.61359],[136.08463,35.61357],[136.0846,35.61375],[136.08464,35.61376],[136.08466,35.61378],[136.08469,35.61379],[136.08471,35.61381]]]}},{"type":"Feature","properties":{"pid":"e7b5ddb0-efd4-4f5c-8ee8-43a352b640a5","full":2.0},"geometry":{"type":"Polygon","coordinates":[[[136.08452,35.61416],[136.08457,35.61417],[136.0847,35.61425],[136.08473,35.61424],[136.08473,35.61421],[136.08472,35.61406],[136.08473,35.61388],[136.08471,35.61384],[136.08466,35.6138],[136.08461,35.61378],[136.0846,35.61379],[136.08452,35.61407],[136.08452,35.61416]]]}},{"type":"Feature","properties":{"pid":"a3d7818a-4018-4e6e-adda-1b2a6c43e8f6","full":2.4},"geometry":{"type":"Polygon","coordinates":[[[136.08636,35.61527],[136.08625,35.61518],[136.08618,35.61519],[136.08604,35.61522],[136.08601,35.61521],[136.08596,35.6153],[136.08621,35.61538],[136.08642,35.61553],[136.08644,35.61553],[136.08644,35.6154],[136.08636,35.61527]]]}},{"type":"Feature","properties":{"pid":"3f9a46d6-8768-4639-96e0-540496714c14","full":1.9},"geometry":{"type":"Polygon","coordinates":[[[136.082,35.61979],[136.08204,35.61959],[136.08179,35.61952],[136.08172,35.61972],[136.082,35.61979]]]}},{"type":"Feature","properties":{"pid":"2b3b617d-71db-4376-bd41-cad9a47eccd4","full":4.3},"geometry":{"type":"Polygon","coordinates":[[[136.08172,35.61972],[136.08179,35.61952],[136.08182,35.61943],[136.08156,35.61938],[136.08151,35.61945],[136.08149,35.61956],[136.0814,35.61972],[136.08144,35.61974],[136.08149,35.61971],[136.0817,35.61975],[136.08172,35.61972]]]}},{"type":"Feature","properties":{"pid":"f3073abb-31f1-4477-8e07-c26a4a7df3d5","full":3.5},"geometry":{"type":"Polygon","coordinates":[[[136.08106,35.61952],[136.08104,35.61963],[136.08107,35.61965],[136.08112,35.61967],[136.08126,35.6197],[136.08132,35.61968],[136.08133,35.61967],[136.08135,35.61943],[136.08134,35.61941],[136.08125,35.6194],[136.08124,35.61939],[136.08125,35.61937],[136.08107,35.61934],[136.08107,35.61935],[136.08108,35.61936],[136.08112,35.61937],[136.08106,35.61952]]]}},{"type":"Feature","properties":{"pid":"57a15cdc-77fa-4011-b793-7754e18d697c","full":0.6},"geometry":{"type":"Polygon","coordinates":[[[136.08089,35.62038],[136.08097,35.62039],[136.08102,35.62039],[136.08108,35.6202],[136.08095,35.62016],[136.08092,35.62017],[136.08089,35.62032],[136.08089,35.62038]]]}},{"type":"Feature","properties":{"pid":"46b429bd-7729-40c2-9904-86918db03cd9","full":2.1},"geometry":{"type":"Polygon","coordinates":[[[136.08102,35.62067],[136.0809,35.62082],[136.08081,35.62079],[136.08077,35.62082],[136.08075,35.62083],[136.08068,35.62097],[136.08068,35.62099],[136.0807,35.62105],[136.08073,35.62107],[136.08078,35.62106],[136.08084,35.62104],[136.08089,35.621],[136.08092,35.62098],[136.081,35.62087],[136.08114,35.62072],[136.08113,35.6207],[136.08104,35.62067],[136.08102,35.62067]]]}},{"type":"Feature","properties":{"pid":"caaaa15e-cc41-42d4-9241-bd746034883d","full":0.5},"geometry":{"type":"Polygon","coordinates":[[[136.08215,35.62042],[136.08209,35.62053],[136.08211,35.62056],[136.08205,35.62063],[136.08197,35.62066],[136.08189,35.62077],[136.08204,35.6208],[136.0821,35.62069],[136.08221,35.62062],[136.0823,35.62055],[136.08215,35.62042]]]}},{"type":"Feature","properties":{"pid":"8a3da584-0f5b-4c6d-86e3-c0825ca7750d","full":0.5},"geometry":{"type":"Polygon","coordinates":[[[136.08247,35.62059],[136.08241,35.62059],[136.08232,35.62055],[136.08224,35.62066],[136.0822,35.62073],[136.08239,35.62074],[136.08247,35.62059]]]}},{"type":"Feature","properties":{"pid":"31022c72-d4cb-4623-b549-ff4846f47d11","full":1.3},"geometry":{"type":"Polygon","coordinates":[[[136.08145,35.61837],[136.08169,35.61841],[136.08175,35.61822],[136.08156,35.61816],[136.08145,35.61837]]]}},{"type":"Feature","properties":{"pid":"8dff8f57-2886-4351-a1c3-64332045ecb7","full":2.8},"geometry":{"type":"Polygon","coordinates":[[[136.08175,35.61788],[136.08177,35.6179],[136.0819,35.61792],[136.08191,35.6179],[136.08199,35.61785],[136.08199,35.6177],[136.08195,35.61763],[136.08195,35.61761],[136.08187,35.61758],[136.08182,35.61754],[136.08178,35.61753],[136.08176,35.61755],[136.08175,35.61788]]]}},{"type":"Feature","properties":{"pid":"c1c7b6b8-cdd2-4b64-9dde-388921efe828","full":1.2},"geometry":{"type":"Polygon","coordinates":[[[136.07721,35.62277],[136.07728,35.62293],[136.07745,35.62288],[136.07743,35.62282],[136.07735,35.62267],[136.07721,35.62261],[136.07717,35.62263],[136.07721,35.62277]]]}},{"type":"Feature","properties":{"pid":"9383cf61-45fd-4935-8874-50aaf52b63d8","full":2.5},"geometry":{"type":"Polygon","coordinates":[[[136.08361,35.60895],[136.08367,35.60899],[136.0837,35.60897],[136.08373,35.60894],[136.08378,35.60891],[136.08393,35.60887],[136.084,35.60878],[136.084,35.60875],[136.084,35.60868],[136.08398,35.60867],[136.08356,35.60882],[136.08357,35.60888],[136.08361,35.60895]]]}}],"precision":5}