{"type":"FeatureCollection","features":[{"type":"Feature","properties":{"pid":"ff8fb109-9f77-413f-a05b-ae1eee1940da","full":0.5},"geometry":{"type":"Polygon","coordinates":[[[136.2507,35.97028],[136.25071,35.97036],[136.25129,35.97032],[136.25129,35.97022],[136.25072,35.97026],[136.2507,35.97028]]]}},{"type":"Feature","properties":{"pid":"27f5cc35-8438-4436-ad2f-5d2206f96838","full":0.5},"geometry":{"type":"Polygon","coordinates":[[[136.25019,35.97058],[136.25023,35.97065],[136.25067,35.97064],[136.25066,35.97055],[136.25063,35.97053],[136.25021,35.97055],[136.25019,35.97058]]]}},{"type":"Feature","properties":{"pid":"9d1f203b-6fdc-4b97-84a6-3520b1d36a9f","full":0.5},"geometry":{"type":"Polygon","coordinates":[[[136.25012,35.97041],[136.25064,35.97038],[136.25063,35.9703],[136.25059,35.9703],[136.25058,35.97028],[136.25008,35.97031],[136.25012,35.97041]]]}},{"type":"Feature","properties":{"pid":"6c146f00-fb28-485b-b735-26178e9446e4","full":12.1},"geometry":{"type":"Polygon","coordinates":[[[136.24994,35.96927],[136.24999,35.9696],[136.2506,35.96955],[136.25056,35.96922],[136.24994,35.96927]]]}},{"type":"Feature","properties":{"pid":"2d2a382c-5fc6-4bf7-8597-7c0f9d8888a1","full":11.5},"geometry":{"type":"Polygon","coordinates":[[[136.25,35.96963],[136.25005,35.96995],[136.25064,35.9699],[136.2506,35.96958],[136.25,35.96963]]]}},{"type":"Feature","properties":{"pid":"4d0f92cc-9db6-4b78-95bd-b27ec7fe92c1","full":1.5},"geometry":{"type":"Polygon","coordinates":[[[136.25002,35.97004],[136.25004,35.97014],[136.25033,35.97014],[136.25059,35.97011],[136.25058,35.96999],[136.25002,35.97004]]]}},{"type":"Feature","properties":{"pid":"4ddfa321-87c5-457d-a968-1af7f804b0aa","full":0.9},"geometry":{"type":"Polygon","coordinates":[[[136.25006,35.97017],[136.25008,35.97028],[136.25057,35.97025],[136.25061,35.97024],[136.25063,35.97022],[136.25062,35.97016],[136.25055,35.97016],[136.25055,35.97014],[136.25006,35.97017]]]}},{"type":"Feature","properties":{"pid":"954be047-1c77-4319-ab2b-5fa743ed0241","full":0.6},"geometry":{"type":"Polygon","coordinates":[[[136.25069,35.97014],[136.25069,35.97023],[136.25129,35.97019],[136.25128,35.97008],[136.25071,35.97013],[136.25069,35.97014]]]}},{"type":"Feature","properties":{"pid":"e6a62fcd-f62e-4822-bbf9-09a95b314d32","full":1.3},"geometry":{"type":"Polygon","coordinates":[[[136.25067,35.96999],[136.25069,35.9701],[136.25141,35.97004],[136.25143,35.97003],[136.25142,35.96996],[136.25141,35.96993],[136.25067,35.96999]]]}},{"type":"Feature","properties":{"pid":"66b63576-6b73-4c57-bcc2-2656c3eb64c5","full":10.1},"geometry":{"type":"Polygon","coordinates":[[[136.25068,35.96965],[136.2507,35.96991],[136.25143,35.96984],[136.2514,35.96959],[136.25068,35.96965]]]}},{"type":"Feature","properties":{"pid":"c47f2baa-3885-4fec-8c16-b5f5aedce9a2","full":14.5},"geometry":{"type":"Polygon","coordinates":[[[136.25064,35.96923],[136.25067,35.96955],[136.25137,35.96949],[136.25139,35.96946],[136.25136,35.96917],[136.2513,35.96918],[136.25128,35.96917],[136.25064,35.96923]]]}},{"type":"Feature","properties":{"pid":"4526ad1e-d3ee-4cfe-a3dd-aabc6a83f49f","full":16.4},"geometry":{"type":"Polygon","coordinates":[[[136.25059,35.96884],[136.25063,35.9692],[136.25136,35.96913],[136.25132,35.96879],[136.25059,35.96884]]]}},{"type":"Feature","properties":{"pid":"eb02816a-c052-4ef5-a992-92a64db21746","full":15.8},"geometry":{"type":"Polygon","coordinates":[[[136.25053,35.96844],[136.25057,35.96874],[136.25059,35.96877],[136.25131,35.96872],[136.25128,35.96838],[136.25053,35.96844]]]}},{"type":"Feature","properties":{"pid":"1063e74f-3112-4f95-bdd8-bc6f0425a694","full":11.3},"geometry":{"type":"Polygon","coordinates":[[[136.24985,35.9685],[136.24987,35.9687],[136.25001,35.96881],[136.2505,35.96877],[136.25046,35.96845],[136.24985,35.9685]]]}},{"type":"Feature","properties":{"pid":"293106b4-fa9c-455a-b2c1-55ea12c4ce51","full":11.7},"geometry":{"type":"Polygon","coordinates":[[[136.24993,35.96924],[136.25055,35.96919],[136.25051,35.96886],[136.25001,35.9689],[136.24991,35.96903],[136.24993,35.96924]]]}},{"type":"Feature","properties":{"pid":"5be91da3-b175-48f8-8c04-ed0bad4a2d46","full":12.1},"geometry":{"type":"Polygon","coordinates":[[[136.24979,35.96778],[136.2498,35.96812],[136.25041,35.96807],[136.25037,35.96773],[136.24979,35.96778]]]}},{"type":"Feature","properties":{"pid":"f691f69e-0d7b-4ff5-bbb0-4aeae0348447","full":13.0},"geometry":{"type":"Polygon","coordinates":[[[136.2498,35.96814],[136.24983,35.96846],[136.24984,35.96848],[136.25046,35.96843],[136.25041,35.96809],[136.2498,35.96814]]]}},{"type":"Feature","properties":{"pid":"977d6537-3602-4925-8adf-9fe469115ea1","full":1.2},"geometry":{"type":"Polygon","coordinates":[[[136.2509,35.9681],[136.25078,35.968],[136.25074,35.96798],[136.25047,35.968],[136.25049,35.96814],[136.2509,35.9681]]]}},{"type":"Feature","properties":{"pid":"9691a2b7-18d1-4acc-8f16-d40c594a974f","full":11.2},"geometry":{"type":"Polygon","coordinates":[[[136.25124,35.96836],[136.25127,35.96833],[136.25125,35.96814],[136.25102,35.96813],[136.25091,35.96811],[136.25049,35.96815],[136.25053,35.96842],[136.25124,35.96836]]]}},{"type":"Feature","properties":{"pid":"83ad784b-6ec2-4cf8-b103-11344014d840","full":2.4},"geometry":{"type":"Polygon","coordinates":[[[136.25138,35.96856],[136.2518,35.96853],[136.25134,35.96819],[136.25138,35.96856]]]}},{"type":"Feature","properties":{"pid":"857814ab-819e-43ca-b2f0-5e8a29210fd4","full":15.1},"geometry":{"type":"Polygon","coordinates":[[[136.27046,35.95674],[136.27036,35.95671],[136.27014,35.95685],[136.27016,35.95761],[136.2704,35.9576],[136.27041,35.95759],[136.27047,35.95759],[136.27045,35.95684],[136.27046,35.95674]]]}},{"type":"Feature","properties":{"pid":"6d816230-39e1-4206-a1f0-770adb5c6904","full":14.2},"geometry":{"type":"Polygon","coordinates":[[[136.26935,35.95711],[136.26935,35.95762],[136.26977,35.95762],[136.26983,35.95714],[136.26979,35.95714],[136.26978,35.95713],[136.26935,35.95711]]]}},{"type":"Feature","properties":{"pid":"71081551-8a75-4964-8d73-ef700d6b22fd","full":6.2},"geometry":{"type":"Polygon","coordinates":[[[136.27014,35.95761],[136.27013,35.95713],[136.2699,35.95713],[136.26984,35.95762],[136.27014,35.95761]]]}},{"type":"Feature","properties":{"pid":"aabf5d06-6ca2-4f74-a842-9a8b9c90878b","full":59.7},"geometry":{"type":"Polygon","coordinates":[[[136.27116,35.95817],[136.27208,35.9582],[136.27211,35.95741],[136.2721,35.9574],[136.27122,35.95737],[136.27114,35.95746],[136.27113,35.95754],[136.27113,35.95776],[136.27114,35.95777],[136.27118,35.95806],[136.27116,35.95817]]]}},{"type":"Feature","properties":{"pid":"d48c8c44-7672-450e-8126-9b77bfe25828","full":4.4},"geometry":{"type":"Polygon","coordinates":[[[136.2717,35.95843],[136.27177,35.95844],[136.27207,35.95844],[136.27208,35.95821],[136.27168,35.9582],[136.27166,35.95833],[136.27168,35.95838],[136.27169,35.9584],[136.2717,35.95843]]]}},{"type":"Feature","properties":{"pid":"614c3e08-8640-41fa-b322-492260080158","full":1.4},"geometry":{"type":"Polygon","coordinates":[[[136.27157,35.95901],[136.27201,35.95906],[136.27202,35.95895],[136.27184,35.95893],[136.27159,35.95879],[136.27157,35.95879],[136.27157,35.95901]]]}},{"type":"Feature","properties":{"pid":"878f0772-d77b-477c-8a93-c284e6e3e1c5","full":3.7},"geometry":{"type":"Polygon","coordinates":[[[136.27201,35.95907],[136.27155,35.95903],[136.27146,35.95903],[136.27148,35.95918],[136.2715,35.9592],[136.27163,35.95927],[136.27171,35.95922],[136.272,35.9592],[136.27201,35.95907]]]}},{"type":"Feature","properties":{"pid":"ba6d6a0c-b133-4e27-ae7a-8f7812211189","full":18.8},"geometry":{"type":"Polygon","coordinates":[[[136.27016,35.95826],[136.27019,35.95826],[136.2702,35.95831],[136.27043,35.95829],[136.27065,35.95826],[136.27067,35.95792],[136.27072,35.95792],[136.27071,35.95771],[136.27066,35.95773],[136.27058,35.95773],[136.27055,35.95773],[136.27016,35.95774],[136.27016,35.95826]]]}},{"type":"Feature","properties":{"pid":"ca839e01-320c-4fd6-b793-fa16223b720c","full":10.1},"geometry":{"type":"Polygon","coordinates":[[[136.27013,35.95832],[136.27012,35.95828],[136.27015,35.95827],[136.27014,35.95773],[136.26988,35.95773],[136.26985,35.95775],[136.26981,35.95823],[136.26981,35.95831],[136.27013,35.95832]]]}},{"type":"Feature","properties":{"pid":"5cbd6504-5d8e-4ac8-a11a-7fcf6f379feb","full":8.5},"geometry":{"type":"Polygon","coordinates":[[[136.26956,35.95818],[136.26956,35.95796],[136.26975,35.95796],[136.26976,35.95776],[136.26927,35.95775],[136.26926,35.95819],[136.26956,35.95818]]]}},{"type":"Feature","properties":{"pid":"a12c03eb-d2ca-4e32-9612-ae9b3204ba00","full":25.7},"geometry":{"type":"Polygon","coordinates":[[[136.26922,35.95832],[136.26922,35.95775],[136.26858,35.95776],[136.26856,35.95777],[136.26857,35.95825],[136.26868,35.95825],[136.26869,35.95834],[136.26922,35.95832]]]}},{"type":"Feature","properties":{"pid":"df06e75f-9bf5-4c27-abb4-9ed273b3f4a7","full":12.6},"geometry":{"type":"Polygon","coordinates":[[[136.26801,35.9582],[136.26831,35.95818],[136.26833,35.95836],[136.26847,35.95833],[136.26847,35.95825],[136.26848,35.95824],[136.26847,35.95777],[136.26801,35.95776],[136.26801,35.9582]]]}},{"type":"Feature","properties":{"pid":"66ee9f51-fdcc-40c4-945b-997c66299622","full":0.8},"geometry":{"type":"Polygon","coordinates":[[[136.26914,35.95871],[136.26913,35.9584],[136.26901,35.9584],[136.26901,35.95842],[136.26898,35.95842],[136.26899,35.95871],[136.26914,35.95871]]]}},{"type":"Feature","properties":{"pid":"35fd957f-0cbe-4e2e-aeaa-567753e0f17c","full":4.2},"geometry":{"type":"Polygon","coordinates":[[[136.26915,35.95866],[136.26946,35.95869],[136.2695,35.95849],[136.2695,35.9584],[136.26915,35.95841],[136.26915,35.95866]]]}},{"type":"Feature","properties":{"pid":"68e5fa4f-c7dd-4f26-89d9-48c3071f17b1","full":6.0},"geometry":{"type":"Polygon","coordinates":[[[136.26795,35.95837],[136.26797,35.95834],[136.26799,35.95833],[136.26799,35.95776],[136.26773,35.95777],[136.26773,35.95816],[136.2678,35.95816],[136.26785,35.95838],[136.26795,35.95837]]]}},{"type":"Feature","properties":{"pid":"13bc351a-19f8-4c18-a97d-3ee0a88d3571","full":8.8},"geometry":{"type":"Polygon","coordinates":[[[136.26737,35.95822],[136.26767,35.95823],[136.26773,35.9582],[136.26771,35.95816],[136.26771,35.95777],[136.26736,35.95776],[136.26737,35.95822]]]}},{"type":"Feature","properties":{"pid":"ef3c69d9-12be-4be6-959d-fac225d2e1d6","full":13.6},"geometry":{"type":"Polygon","coordinates":[[[136.26735,35.95828],[136.26733,35.95778],[136.26691,35.95778],[136.26691,35.95825],[136.26694,35.95828],[136.26698,35.95831],[136.26735,35.95828]]]}},{"type":"Feature","properties":{"pid":"5c0d61b9-0591-4678-ac8d-82ac614f84ca","full":6.8},"geometry":{"type":"Polygon","coordinates":[[[136.26772,35.95762],[136.26772,35.95725],[136.26757,35.95725],[136.26749,35.95728],[136.26737,35.95727],[136.26737,35.95764],[136.26766,35.95764],[136.26768,35.95763],[136.26772,35.95762]]]}},{"type":"Feature","properties":{"pid":"9716dd14-16d5-4fee-b508-1e7ef454009f","full":7.8},"geometry":{"type":"Polygon","coordinates":[[[136.26703,35.95737],[136.26686,35.9575],[136.26676,35.95763],[136.26678,35.95765],[136.26729,35.95765],[136.2673,35.95763],[136.26734,35.95763],[136.26733,35.95726],[136.26731,35.95725],[136.26728,35.95725],[136.26703,35.95737]]]}},{"type":"Feature","properties":{"pid":"ecf84ef7-e01c-4902-a631-fa75e39694d5","full":16.3},"geometry":{"type":"Polygon","coordinates":[[[136.26773,35.95764],[136.26814,35.95764],[136.26819,35.95763],[136.26843,35.95763],[136.26844,35.95731],[136.26837,35.9573],[136.26827,35.9573],[136.26803,35.95725],[136.26773,35.95725],[136.26773,35.95764]]]}},{"type":"Feature","properties":{"pid":"68c30383-f6dd-4b02-9ec2-5e1e6eac3f29","full":26.2},"geometry":{"type":"Polygon","coordinates":[[[136.26889,35.95763],[136.2693,35.95763],[136.26933,35.95763],[136.26932,35.95692],[136.26903,35.95694],[136.26892,35.95705],[136.26891,35.95718],[136.26875,35.95737],[136.26873,35.95738],[136.2687,35.95737],[136.26856,35.95735],[136.26855,35.95764],[136.26886,35.95764],[136.26889,35.95763]]]}},{"type":"Feature","properties":{"pid":"dd046070-f8be-4831-b64e-0ef8a9002cb8","full":3.4},"geometry":{"type":"Polygon","coordinates":[[[136.26417,35.95857],[136.26423,35.95878],[136.26449,35.9588],[136.26465,35.95855],[136.26464,35.95854],[136.26434,35.95857],[136.26417,35.95857]]]}},{"type":"Feature","properties":{"pid":"981c7b39-b755-40bd-8d27-69fecbf13ca1","full":1.6},"geometry":{"type":"Polygon","coordinates":[[[136.26469,35.95852],[136.26492,35.9585],[136.26492,35.95845],[136.26488,35.95845],[136.26487,35.95826],[136.26484,35.95819],[136.26467,35.95826],[136.26469,35.95852]]]}},{"type":"Feature","properties":{"pid":"6fe75648-0bfd-4f83-b692-b517a11bddba","full":3.9},"geometry":{"type":"Polygon","coordinates":[[[136.26507,35.95848],[136.26529,35.95844],[136.26528,35.95793],[136.26507,35.95807],[136.26507,35.95848]]]}},{"type":"Feature","properties":{"pid":"670ee629-00aa-4573-8114-b4be6f1ed045","full":26.3},"geometry":{"type":"Polygon","coordinates":[[[136.26565,35.95785],[136.26554,35.95785],[136.26547,35.95786],[136.26539,35.95789],[136.26534,35.95792],[136.26534,35.95796],[136.26529,35.95796],[136.26531,35.95847],[136.2656,35.95845],[136.26568,35.95844],[136.26575,35.95844],[136.2659,35.95847],[136.26593,35.95839],[136.26592,35.95778],[136.26585,35.95778],[136.26572,35.95784],[136.26565,35.95785]]]}},{"type":"Feature","properties":{"pid":"aaebc98b-f698-48e8-b8f0-d6b4dd992e58","full":10.9},"geometry":{"type":"Polygon","coordinates":[[[136.26637,35.9582],[136.26636,35.95817],[136.2664,35.95816],[136.2664,35.95777],[136.26605,35.95778],[136.26601,35.9578],[136.26602,35.95834],[136.26605,35.95834],[136.26637,35.9582]]]}},{"type":"Feature","properties":{"pid":"878b2ad1-8ba6-4172-9654-df22d5392050","full":8.5},"geometry":{"type":"Polygon","coordinates":[[[136.26646,35.95818],[136.26647,35.95819],[136.26688,35.95805],[136.26687,35.95778],[136.26666,35.95778],[136.26643,35.95779],[136.26643,35.95817],[136.26646,35.95818]]]}},{"type":"Feature","properties":{"pid":"9b1e5533-2696-45c5-b6e2-8adc4e29be6b","full":4.2},"geometry":{"type":"Polygon","coordinates":[[[136.25466,35.96845],[136.25496,35.96848],[136.25516,35.96843],[136.25524,35.96838],[136.25527,35.96834],[136.25512,35.96827],[136.25507,35.96828],[136.25463,35.96828],[136.25466,35.96845]]]}},{"type":"Feature","properties":{"pid":"b795799d-61a2-42ee-8729-748bef99b254","full":0.7},"geometry":{"type":"Polygon","coordinates":[[[136.25397,35.96899],[136.25431,35.96904],[136.25433,35.96897],[136.25431,35.96896],[136.25431,35.96894],[136.25416,35.96892],[136.25416,35.96883],[136.25402,35.96881],[136.25397,35.96899]]]}},{"type":"Feature","properties":{"pid":"6c3d496a-b9e0-473f-90ea-dc7f1fdf881f","full":1.3},"geometry":{"type":"Polygon","coordinates":[[[136.25376,35.96929],[136.25384,35.96928],[136.25384,35.96915],[136.25388,35.96915],[136.25389,35.96903],[136.25379,35.96902],[136.25368,35.96902],[136.25366,35.96925],[136.25369,35.96933],[136.25377,35.96931],[136.25376,35.96929]]]}},{"type":"Feature","properties":{"pid":"cc9a7e36-bb90-4967-ad16-91cabeeb995f","full":1.9},"geometry":{"type":"Polygon","coordinates":[[[136.25271,35.969],[136.25278,35.96872],[136.25268,35.96871],[136.25257,35.96872],[136.25251,35.96871],[136.25242,35.96866],[136.25234,35.96868],[136.2524,35.96873],[136.25252,35.96885],[136.25259,35.96894],[136.25271,35.969]]]}},{"type":"Feature","properties":{"pid":"07fd64d9-6b19-4e74-b0ce-3774a87e30ec","full":2.2},"geometry":{"type":"Polygon","coordinates":[[[136.25138,35.96856],[136.2514,35.96871],[136.2519,35.96867],[136.25191,35.9686],[136.25181,35.96854],[136.25138,35.96856]]]}},{"type":"Feature","properties":{"pid":"e27baf54-7f4e-4e80-8588-728f4f41ccd7","full":4.0},"geometry":{"type":"Polygon","coordinates":[[[136.25143,35.96895],[136.25203,35.96891],[136.25196,35.96884],[136.25192,35.96873],[136.25141,35.96878],[136.25143,35.96895]]]}},{"type":"Feature","properties":{"pid":"d0691aac-eda3-406e-a30f-96e12bf072e2","full":4.6},"geometry":{"type":"Polygon","coordinates":[[[136.25144,35.96896],[136.25146,35.96913],[136.25213,35.96909],[136.25214,35.96896],[136.25209,35.96895],[136.25204,35.96892],[136.25144,35.96896]]]}},{"type":"Feature","properties":{"pid":"11e6ab58-5207-478f-880e-8a8c46b42c14","full":3.5},"geometry":{"type":"Polygon","coordinates":[[[136.25146,35.96915],[136.25148,35.9693],[136.2521,35.96927],[136.25212,35.9691],[136.25146,35.96915]]]}},{"type":"Feature","properties":{"pid":"751b499c-71ec-4a22-b62a-83dae0d868f2","full":6.3},"geometry":{"type":"Polygon","coordinates":[[[136.25214,35.96938],[136.25255,35.96933],[136.2525,35.96914],[136.2524,35.96896],[136.2522,35.96896],[136.25214,35.96938]]]}},{"type":"Feature","properties":{"pid":"6be5586a-1c89-4830-87cc-e461ed23f730","full":9.0},"geometry":{"type":"Polygon","coordinates":[[[136.25212,35.96963],[136.25231,35.96975],[136.25265,35.9697],[136.25256,35.96936],[136.25214,35.9694],[136.25212,35.96963]]]}},{"type":"Feature","properties":{"pid":"a244e011-408f-496a-900d-15dea059058e","full":3.5},"geometry":{"type":"Polygon","coordinates":[[[136.25148,35.96932],[136.25149,35.96949],[136.25209,35.96945],[136.2521,35.96929],[136.25148,35.96932]]]}},{"type":"Feature","properties":{"pid":"ea245cb5-9461-424d-a0a9-85e67ac355c3","full":3.2},"geometry":{"type":"Polygon","coordinates":[[[136.25247,35.97006],[136.25276,35.97006],[136.25268,35.96977],[136.25239,35.96982],[136.25247,35.97006]]]}},{"type":"Feature","properties":{"pid":"34409139-7e59-45f6-af95-2a3ac9459e45","full":2.4},"geometry":{"type":"Polygon","coordinates":[[[136.25297,35.96968],[136.2531,35.96928],[136.2528,35.9692],[136.25279,35.96924],[136.25279,35.96934],[136.25286,35.96944],[136.25292,35.96956],[136.25295,35.96963],[136.25297,35.96968]]]}},{"type":"Feature","properties":{"pid":"1d01eb71-e6c7-4ce5-bcf1-64683ed8f41a","full":3.9},"geometry":{"type":"Polygon","coordinates":[[[136.25298,35.96969],[136.253,35.96974],[136.25318,35.96978],[136.25332,35.96934],[136.25311,35.96929],[136.25298,35.96969]]]}},{"type":"Feature","properties":{"pid":"12633680-0b03-402e-a1d2-0cad5578e56b","full":3.5},"geometry":{"type":"Polygon","coordinates":[[[136.2532,35.96976],[136.25323,35.96977],[136.25323,35.96979],[136.25339,35.96982],[136.25354,35.9694],[136.25333,35.96935],[136.2532,35.96976]]]}},{"type":"Feature","properties":{"pid":"351905c0-4caa-45fd-803f-ae48af533d4f","full":0.8},"geometry":{"type":"Polygon","coordinates":[[[136.25363,35.96988],[136.25381,35.96992],[136.25382,35.96991],[136.25383,35.96976],[136.25379,35.9697],[136.25373,35.96956],[136.25363,35.96988]]]}},{"type":"Feature","properties":{"pid":"b7ec0ad4-ef9e-4441-897f-eecd9b6019a1","full":3.1},"geometry":{"type":"Polygon","coordinates":[[[136.25341,35.96983],[136.25361,35.96988],[136.25372,35.96955],[136.25369,35.96949],[136.25361,35.96943],[136.25355,35.96941],[136.25341,35.96983]]]}},{"type":"Feature","properties":{"pid":"b671bf52-f57c-472e-9916-67432e5f7028","full":9.4},"geometry":{"type":"Polygon","coordinates":[[[136.25331,35.97006],[136.25333,35.9702],[136.25341,35.97025],[136.25397,35.97022],[136.25395,35.97006],[136.25391,35.97006],[136.25391,35.97002],[136.25334,35.9699],[136.25331,35.97006]]]}},{"type":"Feature","properties":{"pid":"23c0089c-fa57-4015-bdcc-826e4f7fbedd","full":7.5},"geometry":{"type":"Polygon","coordinates":[[[136.25444,35.97004],[136.25441,35.96972],[136.2544,35.9697],[136.25428,35.96965],[136.25422,35.96965],[136.25399,35.96974],[136.25399,35.96996],[136.25444,35.97004]]]}},{"type":"Feature","properties":{"pid":"3de477fa-ac2d-4e80-a8f2-8f5bce65d90a","full":7.3},"geometry":{"type":"Polygon","coordinates":[[[136.25449,35.97006],[136.25476,35.97009],[136.25479,35.97009],[136.25486,35.96971],[136.25486,35.96968],[136.25484,35.96965],[136.25477,35.96968],[136.25467,35.9697],[136.25458,35.96971],[136.25444,35.96971],[136.25447,35.97003],[136.25448,35.97003],[136.25449,35.97006]]]}},{"type":"Feature","properties":{"pid":"e391dbb8-d870-406f-bb37-3bf0f1ba1f73","full":5.0},"geometry":{"type":"Polygon","coordinates":[[[136.25513,35.97019],[136.25539,35.97025],[136.25543,35.96975],[136.25523,35.96971],[136.25513,35.97019]]]}},{"type":"Feature","properties":{"pid":"da47e028-3f72-4e94-9536-0de8dfb268ff","full":6.2},"geometry":{"type":"Polygon","coordinates":[[[136.25522,35.96971],[136.25505,35.96968],[136.25495,35.96971],[136.25486,35.97008],[136.25488,35.97009],[136.25488,35.97013],[136.25512,35.97018],[136.25522,35.96971]]]}},{"type":"Feature","properties":{"pid":"f8d57439-7a2c-4933-9793-51a564c69ba3","full":6.5},"geometry":{"type":"Polygon","coordinates":[[[136.25557,35.96936],[136.25505,35.96959],[136.25504,35.96965],[136.25566,35.96977],[136.25557,35.96936]]]}},{"type":"Feature","properties":{"pid":"a513bf1f-eb81-4f66-bbae-5104854493ee","full":0.7},"geometry":{"type":"Polygon","coordinates":[[[136.25453,35.9696],[136.25461,35.96961],[136.25468,35.96959],[136.25471,35.96957],[136.25472,35.96952],[136.25472,35.96947],[136.25455,35.96937],[136.25452,35.96955],[136.25453,35.9696]]]}},{"type":"Feature","properties":{"pid":"5d1cd4f8-076e-43aa-9f4c-e69bc8dac248","full":5.9},"geometry":{"type":"Polygon","coordinates":[[[136.25458,35.96917],[136.25428,35.96909],[136.25424,35.9695],[136.25439,35.96959],[136.25451,35.9696],[136.25452,35.96938],[136.25458,35.96917]]]}},{"type":"Feature","properties":{"pid":"49728b86-4b5b-4f9a-928c-3395f9639737","full":1.3},"geometry":{"type":"Polygon","coordinates":[[[136.25456,35.96936],[136.25473,35.96946],[136.25485,35.96926],[136.25477,35.96925],[136.2546,35.96917],[136.25456,35.96936]]]}},{"type":"Feature","properties":{"pid":"0d3b1552-ae15-4d58-93c8-df08c8e3fe4f","full":22.4},"geometry":{"type":"Polygon","coordinates":[[[136.25587,35.96926],[136.25596,35.96967],[136.25599,35.96987],[136.25606,35.96986],[136.2562,35.9698],[136.2564,35.96967],[136.25659,35.96964],[136.25658,35.96938],[136.25644,35.96916],[136.25634,35.96921],[136.25622,35.96925],[136.25587,35.96926]]]}},{"type":"Feature","properties":{"pid":"1ab56868-0c9a-4a89-978e-c59917feb35f","full":6.3},"geometry":{"type":"Polygon","coordinates":[[[136.25567,35.96978],[136.25591,35.96989],[136.25593,35.96981],[136.25591,35.96967],[136.25582,35.9693],[136.25572,35.9693],[136.25558,35.96936],[136.25567,35.96978]]]}},{"type":"Feature","properties":{"pid":"80771e04-7755-4518-b9eb-e2e5590780f6","full":1.2},"geometry":{"type":"Polygon","coordinates":[[[136.25828,35.96851],[136.25824,35.96854],[136.25819,35.96863],[136.25819,35.96864],[136.25836,35.96877],[136.25847,35.96877],[136.25857,35.96875],[136.25828,35.96851]]]}},{"type":"Feature","properties":{"pid":"5d5a72f5-fbf7-46dd-a89c-d4e28744d564","full":1.6},"geometry":{"type":"Polygon","coordinates":[[[136.25837,35.96835],[136.25829,35.96847],[136.25864,35.96875],[136.25875,35.96877],[136.25873,35.96869],[136.2586,35.96853],[136.25837,35.96835]]]}},{"type":"Feature","properties":{"pid":"0b1a7e69-54e7-43a5-91a2-03b458feaffb","full":2.0},"geometry":{"type":"Polygon","coordinates":[[[136.25818,35.96849],[136.25816,35.96847],[136.25768,35.96842],[136.25762,35.96854],[136.25763,35.96856],[136.25807,35.9686],[136.25811,35.96859],[136.25818,35.96849]]]}},{"type":"Feature","properties":{"pid":"2f9fc855-77a4-4840-ac29-113052878402","full":4.3},"geometry":{"type":"Polygon","coordinates":[[[136.25671,35.96911],[136.25676,35.96935],[136.25714,35.96933],[136.25714,35.96927],[136.25715,35.96926],[136.25718,35.96925],[136.25718,35.96918],[136.25703,35.96912],[136.25686,35.9691],[136.25671,35.96911]]]}},{"type":"Feature","properties":{"pid":"6e591e5d-d7eb-48bf-a4e9-fb118e697188","full":0.8},"geometry":{"type":"Polygon","coordinates":[[[136.25707,35.96881],[136.257,35.96894],[136.25702,35.96895],[136.25743,35.96894],[136.25743,35.96884],[136.25707,35.96881]]]}},{"type":"Feature","properties":{"pid":"51e58038-975e-4c78-a425-4011fc12fe4e","full":0.8},"geometry":{"type":"Polygon","coordinates":[[[136.25821,35.96845],[136.25824,35.96843],[136.25829,35.96833],[136.25827,35.96832],[136.25771,35.9683],[136.25769,35.96839],[136.25821,35.96845]]]}},{"type":"Feature","properties":{"pid":"cd118415-daf8-4104-9df0-7de0df840be1","full":2.3},"geometry":{"type":"Polygon","coordinates":[[[136.25758,35.96829],[136.25768,35.96826],[136.25776,35.9682],[136.25783,35.96812],[136.25767,35.96802],[136.25758,35.96803],[136.25744,35.96818],[136.25758,35.96829]]]}},{"type":"Feature","properties":{"pid":"9ce10c5b-7712-4e0c-9212-2c7f84e27d9e","full":3.3},"geometry":{"type":"Polygon","coordinates":[[[136.25831,35.96829],[136.25832,35.96826],[136.25834,35.96826],[136.25838,35.96816],[136.25838,35.96814],[136.25833,35.96812],[136.25808,35.96811],[136.25791,35.96813],[136.25785,35.96815],[136.25777,35.96822],[136.25773,35.96824],[136.25771,35.96827],[136.25772,35.96828],[136.25831,35.96829]]]}},{"type":"Feature","properties":{"pid":"698690cf-9f88-4cbb-b6ec-1c28a2e3e1ed","full":0.8},"geometry":{"type":"Polygon","coordinates":[[[136.25863,35.96851],[136.25869,35.96846],[136.2587,35.96844],[136.25853,35.96819],[136.25848,35.96818],[136.25846,35.9682],[136.2584,35.9683],[136.25863,35.96851]]]}},{"type":"Feature","properties":{"pid":"56363f1d-6c9a-4b36-89b8-d29cf14a1059","full":0.6},"geometry":{"type":"Polygon","coordinates":[[[136.25575,35.97197],[136.256,35.97201],[136.25603,35.97197],[136.256,35.97192],[136.25596,35.97189],[136.25591,35.97185],[136.25578,35.97182],[136.25575,35.97197]]]}},{"type":"Feature","properties":{"pid":"3cb0f10b-e879-4c61-aab7-e71ea0e7294a","full":0.5},"geometry":{"type":"Polygon","coordinates":[[[136.25568,35.9711],[136.25557,35.97105],[136.2555,35.97104],[136.25546,35.97109],[136.25547,35.9711],[136.25535,35.97121],[136.25539,35.97124],[136.25545,35.9712],[136.25556,35.97121],[136.25561,35.97119],[136.25567,35.97112],[136.25568,35.9711]]]}},{"type":"Feature","properties":{"pid":"e0e96c56-2f69-4cc6-a37a-8689574c8dd8","full":3.0},"geometry":{"type":"Polygon","coordinates":[[[136.25505,35.9716],[136.25547,35.97157],[136.25548,35.97145],[136.25546,35.97143],[136.25542,35.97139],[136.25506,35.97141],[136.25505,35.9716]]]}},{"type":"Feature","properties":{"pid":"b6b72d2e-b682-450b-9fc7-e0e05bc28e6d","full":1.2},"geometry":{"type":"Polygon","coordinates":[[[136.25549,35.97171],[136.25547,35.97158],[136.25506,35.9716],[136.25505,35.97173],[136.25549,35.97171]]]}},{"type":"Feature","properties":{"pid":"ef9e5404-a7f5-4e97-8279-45bfe86a2fdb","full":3.5},"geometry":{"type":"Polygon","coordinates":[[[136.25549,35.97171],[136.25505,35.97173],[136.25505,35.97192],[136.2554,35.97195],[136.25551,35.97175],[136.25549,35.97171]]]}},{"type":"Feature","properties":{"pid":"dca5f8b7-1d7f-4dee-adbf-c963ea30e4d9","full":6.6},"geometry":{"type":"Polygon","coordinates":[[[136.25427,35.97168],[136.25429,35.97184],[136.25432,35.97185],[136.25478,35.97187],[136.25494,35.97178],[136.25492,35.97162],[136.25427,35.97168]]]}},{"type":"Feature","properties":{"pid":"8643d51b-f7b6-4727-89e0-ddbe5b200c49","full":3.4},"geometry":{"type":"Polygon","coordinates":[[[136.25423,35.9715],[136.25426,35.97164],[136.25428,35.97165],[136.2549,35.97159],[136.25491,35.97158],[136.25492,35.97144],[136.25423,35.9715]]]}},{"type":"Feature","properties":{"pid":"60f3b139-bd95-461f-9094-3effaec9a15f","full":4.9},"geometry":{"type":"Polygon","coordinates":[[[136.25419,35.97131],[136.2542,35.97147],[136.25492,35.97142],[136.25493,35.97124],[136.25419,35.97131]]]}},{"type":"Feature","properties":{"pid":"981e86fa-4300-4278-9c4e-23e8daf4f381","full":3.2},"geometry":{"type":"Polygon","coordinates":[[[136.25417,35.97114],[136.25419,35.97128],[136.25493,35.97122],[136.25493,35.97107],[136.25417,35.97114]]]}},{"type":"Feature","properties":{"pid":"ddaf9651-b410-4519-8513-48df3f365406","full":4.5},"geometry":{"type":"Polygon","coordinates":[[[136.25413,35.97077],[136.25414,35.97093],[136.25489,35.97087],[136.25487,35.97071],[136.25413,35.97077]]]}},{"type":"Feature","properties":{"pid":"7ac9b63b-37e0-4065-b565-2e47090301a6","full":4.7},"geometry":{"type":"Polygon","coordinates":[[[136.25415,35.97095],[136.25416,35.97111],[136.25492,35.97105],[136.25492,35.97096],[136.2549,35.97089],[136.25415,35.97095]]]}},{"type":"Feature","properties":{"pid":"8ff2cb97-ad57-45d7-b315-91cbdc3aceee","full":0.6},"geometry":{"type":"Polygon","coordinates":[[[136.25495,35.9707],[136.25498,35.97094],[136.25527,35.97069],[136.25495,35.9707]]]}},{"type":"Feature","properties":{"pid":"b32b0494-0a63-424e-9f81-a068f7f8aeba","full":1.7},"geometry":{"type":"Polygon","coordinates":[[[136.25493,35.97052],[136.25495,35.97067],[136.25526,35.97064],[136.25529,35.97063],[136.25543,35.97051],[136.25539,35.97051],[136.25539,35.97049],[136.25493,35.97052]]]}},{"type":"Feature","properties":{"pid":"f110fc17-5cf1-4bad-b24a-12d3ef982756","full":3.5},"geometry":{"type":"Polygon","coordinates":[[[136.2549,35.97025],[136.25492,35.97049],[136.25542,35.97045],[136.25544,35.97043],[136.25544,35.97038],[136.25542,35.97036],[136.25521,35.9703],[136.25494,35.97024],[136.2549,35.97025]]]}},{"type":"Feature","properties":{"pid":"58412189-6142-4e36-9ff5-b8eb67c0c1ea","full":4.4},"geometry":{"type":"Polygon","coordinates":[[[136.25408,35.97041],[136.25409,35.97057],[136.25485,35.9705],[136.25484,35.97035],[136.25408,35.97041]]]}},{"type":"Feature","properties":{"pid":"e45be092-1bee-4465-b96d-41ba2b957dbb","full":4.4},"geometry":{"type":"Polygon","coordinates":[[[136.25411,35.97059],[136.2541,35.9706],[136.25412,35.97075],[136.25487,35.97069],[136.25485,35.97053],[136.25411,35.97059]]]}},{"type":"Feature","properties":{"pid":"856d1ad1-5ba9-4ec7-a56b-4730620a031c","full":4.2},"geometry":{"type":"Polygon","coordinates":[[[136.25405,35.97023],[136.25406,35.97038],[136.25409,35.97039],[136.25481,35.97033],[136.25483,35.97032],[136.25483,35.97023],[136.2546,35.97019],[136.25405,35.97023]]]}},{"type":"Feature","properties":{"pid":"b0b08ba4-f015-4d33-9e94-3585b2aad3a8","full":3.2},"geometry":{"type":"Polygon","coordinates":[[[136.25342,35.97026],[136.25343,35.9703],[136.25352,35.97043],[136.25399,35.9704],[136.25397,35.97023],[136.25342,35.97026]]]}},{"type":"Feature","properties":{"pid":"b79515d1-fef5-4af6-a561-cf4d7b79be18","full":2.0},"geometry":{"type":"Polygon","coordinates":[[[136.25354,35.97045],[136.25357,35.97051],[136.2536,35.9706],[136.25402,35.97057],[136.254,35.97042],[136.25354,35.97045]]]}},{"type":"Feature","properties":{"pid":"9049141a-10c5-478e-be7f-52da153d4de4","full":0.9},"geometry":{"type":"Polygon","coordinates":[[[136.25365,35.97101],[136.25366,35.97106],[136.25408,35.97103],[136.25406,35.97091],[136.25372,35.97093],[136.25365,35.97101]]]}},{"type":"Feature","properties":{"pid":"cc0adaa9-d24a-4ea2-84d6-f934804b8950","full":1.7},"geometry":{"type":"Polygon","coordinates":[[[136.25368,35.97077],[136.25403,35.97074],[136.25402,35.9706],[136.25401,35.9706],[136.25361,35.97063],[136.2536,35.97064],[136.25366,35.97075],[136.25368,35.97077]]]}},{"type":"Feature","properties":{"pid":"dc208baf-bcf0-454b-8eb0-75a2b533ed2f","full":1.7},"geometry":{"type":"Polygon","coordinates":[[[136.25317,35.97034],[136.2531,35.97037],[136.25312,35.97042],[136.2532,35.9704],[136.25325,35.97051],[136.25349,35.97042],[136.25338,35.97026],[136.25334,35.97024],[136.25316,35.9703],[136.25317,35.97034]]]}},{"type":"Feature","properties":{"pid":"fe9e6b9d-cc38-495d-9cc9-3965a0f86e9e","full":1.8},"geometry":{"type":"Polygon","coordinates":[[[136.25366,35.97108],[136.25367,35.97124],[136.25409,35.97119],[136.25408,35.97105],[136.25366,35.97108]]]}},{"type":"Feature","properties":{"pid":"b5020cf4-ef37-4d5b-bbd3-53a7cbc1cd84","full":1.1},"geometry":{"type":"Polygon","coordinates":[[[136.25388,35.97123],[136.25393,35.97146],[136.25412,35.97141],[136.25409,35.9712],[136.25388,35.97123]]]}},{"type":"Feature","properties":{"pid":"bc100960-cc54-4424-ae62-f1f688cc47ca","full":8.7},"geometry":{"type":"Polygon","coordinates":[[[136.27507,35.96005],[136.27514,35.9598],[136.27446,35.95978],[136.27443,35.9598],[136.27444,35.96003],[136.27507,35.96005]]]}},{"type":"Feature","properties":{"pid":"cd265f28-7c1b-4c96-bd92-3423041589f6","full":7.3},"geometry":{"type":"Polygon","coordinates":[[[136.27499,35.96031],[136.27507,35.96007],[136.27447,35.96005],[136.27447,35.96007],[136.27444,35.96007],[136.27444,35.96029],[136.27499,35.96031]]]}},{"type":"Feature","properties":{"pid":"ac7ba39a-ddbb-43df-8c70-9383395a9db2","full":7.2},"geometry":{"type":"Polygon","coordinates":[[[136.27502,35.96059],[136.27504,35.96052],[136.27498,35.96034],[136.27444,35.96032],[136.27442,35.96056],[136.27477,35.96057],[136.27481,35.96058],[136.27502,35.96059]]]}},{"type":"Feature","properties":{"pid":"59910c28-619e-46e5-be00-c1c5bc756f97","full":2.7},"geometry":{"type":"Polygon","coordinates":[[[136.27442,35.96061],[136.27442,35.9608],[136.27476,35.96082],[136.27478,35.9606],[136.27445,35.9606],[136.27442,35.96061]]]}},{"type":"Feature","properties":{"pid":"14291a0d-4be9-4e59-b094-0cc2ab29813d","full":1.3},"geometry":{"type":"Polygon","coordinates":[[[136.27435,35.96047],[136.27406,35.96045],[136.27406,35.96061],[136.27432,35.96064],[136.27435,35.96047]]]}},{"type":"Feature","properties":{"pid":"ed6836c1-be94-4462-bd00-0612a5421a61","full":2.1},"geometry":{"type":"Polygon","coordinates":[[[136.27369,35.9599],[136.27367,35.95977],[136.27302,35.95976],[136.27303,35.95979],[136.27304,35.95981],[136.27319,35.9599],[136.27369,35.9599]]]}},{"type":"Feature","properties":{"pid":"861d2139-b6c6-4e5e-955d-9871a57862a0","full":10.6},"geometry":{"type":"Polygon","coordinates":[[[136.27209,35.95906],[136.27207,35.95917],[136.27209,35.9593],[136.27296,35.95932],[136.27296,35.9591],[136.27209,35.95906]]]}},{"type":"Feature","properties":{"pid":"69068934-7219-465a-ab05-6105544d915e","full":12.1},"geometry":{"type":"Polygon","coordinates":[[[136.27207,35.9588],[136.27208,35.95905],[136.27295,35.95908],[136.27297,35.95884],[136.27293,35.95884],[136.27293,35.95883],[136.27207,35.9588]]]}},{"type":"Feature","properties":{"pid":"6dd8790b-837b-481a-a628-148a081f16be","full":14.0},"geometry":{"type":"Polygon","coordinates":[[[136.27207,35.95879],[136.27297,35.95881],[136.27299,35.95856],[136.27296,35.95854],[136.27214,35.95852],[136.27213,35.95853],[136.2721,35.95853],[136.27207,35.95879]]]}},{"type":"Feature","properties":{"pid":"1652ee7d-fe57-4e6a-942f-c23f5a4abf79","full":8.4},"geometry":{"type":"Polygon","coordinates":[[[136.27214,35.95845],[136.2728,35.95846],[136.27281,35.95831],[136.27301,35.95831],[136.27301,35.95824],[136.27297,35.95824],[136.27297,35.95822],[136.27215,35.95821],[136.27214,35.95845]]]}},{"type":"Feature","properties":{"pid":"1ba5ea5e-4683-44f0-b714-99142e75630d","full":32.2},"geometry":{"type":"Polygon","coordinates":[[[136.27301,35.95821],[136.27303,35.95792],[136.27302,35.95789],[136.27303,35.95772],[136.27301,35.95772],[136.273,35.95769],[136.27217,35.95766],[136.27215,35.95819],[136.27301,35.95821]]]}},{"type":"Feature","properties":{"pid":"e6656548-cd1a-43e9-9671-f9a7a54beb2c","full":25.3},"geometry":{"type":"Polygon","coordinates":[[[136.27403,35.95773],[136.27314,35.9577],[136.27312,35.95799],[136.27314,35.95799],[136.27313,35.95802],[136.2731,35.95802],[136.2731,35.95821],[136.27345,35.95822],[136.27347,35.9582],[136.27351,35.95819],[136.27375,35.95818],[136.27377,35.95817],[136.27378,35.95799],[136.27379,35.95795],[136.27382,35.95793],[136.27402,35.9579],[136.27405,35.95789],[136.27408,35.95787],[136.27403,35.95773]]]}},{"type":"Feature","properties":{"pid":"4ac590d3-e67e-4ebc-9fda-f9bfb8f3b9a3","full":4.4},"geometry":{"type":"Polygon","coordinates":[[[136.27399,35.95925],[136.27428,35.95926],[136.27433,35.95893],[136.27404,35.95894],[136.274,35.9591],[136.27397,35.95913],[136.27399,35.95925]]]}},{"type":"Feature","properties":{"pid":"c744625e-cee0-4035-80fa-47ae55b14abd","full":7.6},"geometry":{"type":"Polygon","coordinates":[[[136.2736,35.95884],[136.27308,35.95883],[136.27308,35.95885],[136.27306,35.95885],[136.27304,35.95907],[136.27378,35.9591],[136.27376,35.95897],[136.27364,35.95897],[136.27361,35.95893],[136.2736,35.95884]]]}},{"type":"Feature","properties":{"pid":"b48bc16f-a653-4d89-a368-1098d2f0f049","full":10.5},"geometry":{"type":"Polygon","coordinates":[[[136.27392,35.95915],[136.27382,35.95912],[136.27307,35.9591],[136.27306,35.95912],[136.27304,35.95912],[136.27303,35.95936],[136.27356,35.95936],[136.27355,35.95931],[136.27393,35.95932],[136.27392,35.95915]]]}},{"type":"Feature","properties":{"pid":"bd303208-182e-4e75-b8d6-c432aca2e1da","full":7.8},"geometry":{"type":"Polygon","coordinates":[[[136.27375,35.9594],[136.27306,35.95938],[136.27305,35.95941],[136.27303,35.9594],[136.27303,35.95958],[136.27303,35.9596],[136.27306,35.95961],[136.27365,35.95964],[136.27366,35.95957],[136.27369,35.95949],[136.27376,35.95942],[136.27375,35.9594]]]}},{"type":"Feature","properties":{"pid":"aaa5f3c9-d2db-4485-b91c-e0810e514e61","full":17.0},"geometry":{"type":"Polygon","coordinates":[[[136.27508,35.95858],[136.27511,35.95818],[136.2744,35.95815],[136.27439,35.95817],[136.27438,35.95817],[136.27448,35.95854],[136.27508,35.95858]]]}},{"type":"Feature","properties":{"pid":"7aff8742-cb34-4c9a-aed5-280e77064dfb","full":33.2},"geometry":{"type":"Polygon","coordinates":[[[136.27423,35.95762],[136.2743,35.95787],[136.27513,35.9579],[136.27514,35.95765],[136.27513,35.95762],[136.27514,35.9574],[136.27426,35.95735],[136.27425,35.95737],[136.27422,35.95737],[136.27421,35.95753],[136.27423,35.95762]]]}},{"type":"Feature","properties":{"pid":"7e4ccbd4-266d-48b5-bd32-53a61ddcd364","full":12.9},"geometry":{"type":"Polygon","coordinates":[[[136.27401,35.95744],[136.27315,35.95742],[136.27315,35.95744],[136.27312,35.95744],[136.27312,35.95767],[136.27403,35.9577],[136.27401,35.9576],[136.27401,35.95744]]]}},{"type":"Feature","properties":{"pid":"89e465d5-6f61-4284-a70c-9e34c083d042","full":13.2},"geometry":{"type":"Polygon","coordinates":[[[136.27313,35.9574],[136.274,35.95742],[136.27404,35.95717],[136.27318,35.95714],[136.27314,35.95717],[136.27313,35.9574]]]}},{"type":"Feature","properties":{"pid":"8ee229b3-e7bb-4945-8e81-7c356ca55aa2","full":31.8},"geometry":{"type":"Polygon","coordinates":[[[136.27303,35.95767],[136.27305,35.95734],[136.27304,35.95717],[136.27301,35.95715],[136.2722,35.95713],[136.27218,35.95763],[136.27219,35.95764],[136.27303,35.95767]]]}}],"precision":5}