{"type":"FeatureCollection","features":[{"type":"Feature","properties":{"pid":"6a00f3be-b6d2-4ecd-8906-c47c09c5a5c3"},"geometry":{"type":"Polygon","coordinates":[[[136.50015810066782,35.9229630903811],[136.50018593107134,35.922989099032186],[136.5001987799382,35.92309329240028],[136.5002210237376,35.92311000637664],[136.5004064678617,35.92312530511279],[136.50052671985415,35.92315418845849],[136.50074368755884,35.92325452481],[136.5008072199499,35.92323102399243],[136.50070725890671,35.923117941672345],[136.5005421232847,35.92301892711718],[136.5003824359172,35.92297033039205],[136.50015810066782,35.9229630903811]]]}},{"type":"Feature","properties":{"pid":"a680b332-deeb-4b63-9457-276b0d341e91"},"geometry":{"type":"Polygon","coordinates":[[[136.50083811820767,35.92334483972607],[136.50086375073005,35.923379128744536],[136.5009978559676,35.923504355221816],[136.50088598511604,35.92332532436827],[136.50083811820767,35.92334483972607]]]}},{"type":"Feature","properties":{"pid":"709a252a-d8f2-4688-b03a-f459c56ce34b"},"geometry":{"type":"Polygon","coordinates":[[[136.50079394945885,35.92361458596754],[136.5008770836028,35.92366879685224],[136.50090383454219,35.92360829059172],[136.5008789049127,35.923550961723066],[136.50084710772242,35.92352880366487],[136.50079394945885,35.92361458596754]]]}},{"type":"Feature","properties":{"pid":"3d2d4233-1415-4887-b585-7c4730ee2e4f"},"geometry":{"type":"Polygon","coordinates":[[[136.50047360806084,35.923697743410976],[136.5005485260776,35.92374269093347],[136.50073359268296,35.92345227436095],[136.50069720265864,35.92338957112015],[136.50067327578034,35.92337392061397],[136.50047360806084,35.923697743410976]]]}},{"type":"Feature","properties":{"pid":"551e0d2c-aaa7-4696-9387-b0e9de41beab"},"geometry":{"type":"Polygon","coordinates":[[[136.5004386487418,35.92329072837081],[136.5002390349361,35.9236119563469],[136.50032021435945,35.92367180039398],[136.50033560779985,35.923669456347156],[136.50053729828042,35.92332730212057],[136.5004386487418,35.92329072837081]]]}},{"type":"Feature","properties":{"pid":"27305050-3858-47e9-b26b-7912e6484191"},"geometry":{"type":"Polygon","coordinates":[[[136.49999279506426,35.923415944865674],[136.50013128920838,35.92353718406558],[136.50029050125823,35.92324679911889],[136.50019400117324,35.923242368075435],[136.50012930561743,35.92321415821731],[136.50010345396876,35.92328753132564],[136.5001014534833,35.92334823593294],[136.49999279506426,35.923415944865674]]]}},{"type":"Feature","properties":{"pid":"a8c438e3-da09-4e73-b74a-dcabb0ca32a3"},"geometry":{"type":"Polygon","coordinates":[[[136.50073180609908,35.923715216132166],[136.50066828548344,35.92380921631413],[136.50072284236822,35.92384356850831],[136.5008048934366,35.92376459194568],[136.50073180609908,35.923715216132166]]]}},{"type":"Feature","properties":{"pid":"0c4f2d6c-c5a4-4742-8d36-a113e4a05bac"},"geometry":{"type":"Polygon","coordinates":[[[136.50108860310434,35.923807809519666],[136.5011400030179,35.923828918407814],[136.5012368687132,35.92374793224506],[136.50115082368276,35.923690215380184],[136.50108860310434,35.923807809519666]]]}}]}