{"type":"FeatureCollection","features":[{"type":"Feature","properties":{"pid":"2752bbc6-042b-4625-9a45-62a82120161c"},"geometry":{"type":"Polygon","coordinates":[[[136.09977058216512,35.94070989246229],[136.09982205228602,35.94070779060534],[136.09981467780543,35.94058930051598],[136.09975513427233,35.940595028173576],[136.09977058216512,35.94070989246229]]]}},{"type":"Feature","properties":{"pid":"e0332c7f-d287-468a-bf09-02defe9e0820"},"geometry":{"type":"Polygon","coordinates":[[[136.09952780126682,35.940600948578584],[136.09955139605114,35.9407380706532],[136.09962650289472,35.94075828452281],[136.0996391614056,35.940743407769745],[136.09962200899653,35.94060648309125],[136.09952780126682,35.940600948578584]]]}},{"type":"Feature","properties":{"pid":"bf41eacf-b4c3-46ea-b989-927a7db0525f"},"geometry":{"type":"Polygon","coordinates":[[[136.09913729234316,35.940670751447406],[136.0991871133198,35.94075368021008],[136.09935855009374,35.94068081209723],[136.0993438049485,35.94058332163268],[136.09913729234316,35.940670751447406]]]}},{"type":"Feature","properties":{"pid":"503dc668-d010-4190-bc56-d548c16d5432"},"geometry":{"type":"Polygon","coordinates":[[[136.0992550562598,35.94084721274031],[136.09933711255565,35.940938900898836],[136.09955155852901,35.940852040877154],[136.09939975589793,35.940785620230564],[136.0992550562598,35.94084721274031]]]}},{"type":"Feature","properties":{"pid":"3e0c9072-1946-47b6-a527-9b5eaf6b838e"},"geometry":{"type":"Polygon","coordinates":[[[136.0992745681652,35.94182158915593],[136.0993356420186,35.941861400431364],[136.09944697779397,35.94184454088976],[136.09935421205716,35.94173618226553],[136.0992745681652,35.94182158915593]]]}},{"type":"Feature","properties":{"pid":"9aa62ea5-4001-46d1-b26b-eeb2cd4e8d48"},"geometry":{"type":"Polygon","coordinates":[[[136.09957291758772,35.941780170320875],[136.0996811928093,35.94194458733216],[136.09984334513234,35.94191091415488],[136.09979873428347,35.94176608539803],[136.09957291758772,35.941780170320875]]]}},{"type":"Feature","properties":{"pid":"1afa02e6-a514-4b2f-9e77-c4649939fd02"},"geometry":{"type":"Polygon","coordinates":[[[136.09946053403945,35.941631947025385],[136.09949061494905,35.94165800217642],[136.0997956678351,35.94163973113734],[136.09981075522853,35.94159811234496],[136.0997695645196,35.94148878560139],[136.09946053403945,35.941631947025385]]]}},{"type":"Feature","properties":{"pid":"ea87fb07-2187-4455-abd4-ec3960213417"},"geometry":{"type":"Polygon","coordinates":[[[136.09944370281616,35.94150433821769],[136.0997152715313,35.9413822412865],[136.099709243142,35.94131316421104],[136.09944609025476,35.941429454318005],[136.09944370281616,35.94150433821769]]]}},{"type":"Feature","properties":{"pid":"5c20c44c-8f0f-4fc6-ba52-269475a4bf6f"},"geometry":{"type":"Polygon","coordinates":[[[136.09939038338212,35.9410447618478],[136.09940507335446,35.94112924712878],[136.0996922567309,35.94100750605358],[136.0996412991124,35.940947585772605],[136.09939038338212,35.9410447618478]]]}},{"type":"Feature","properties":{"pid":"3802c08c-3953-4932-9905-349ba1a845af"},"geometry":{"type":"Polygon","coordinates":[[[136.0994309718763,35.94130469271287],[136.09973113908708,35.941175297487604],[136.0997575818399,35.94110911019047],[136.09942198623654,35.94124235178042],[136.0994309718763,35.94130469271287]]]}},{"type":"Feature","properties":{"pid":"945e609a-87bf-4751-83a5-c5c1136b5451"},"geometry":{"type":"Polygon","coordinates":[[[136.09808073630145,35.946384963829644],[136.0980957488628,35.94661969435347],[136.09852676308745,35.946611190951316],[136.098514573823,35.94640357774425],[136.09832122223096,35.94638355240283],[136.09808073630145,35.946384963829644]]]}},{"type":"Feature","properties":{"pid":"5e5fa896-2f63-4052-8bdf-850272a25c1b"},"geometry":{"type":"Polygon","coordinates":[[[136.09866919575973,35.94637769816042],[136.09868078734507,35.94660252454505],[136.09878545159427,35.9465891535485],[136.09910595637513,35.946409772600425],[136.0990747690898,35.946332270025295],[136.09866919575973,35.94637769816042]]]}},{"type":"Feature","properties":{"pid":"df7bebbe-b400-40ee-8ef3-61c468c02986"},"geometry":{"type":"Polygon","coordinates":[[[136.0993306107311,35.94634421306884],[136.09960175366015,35.94630038736293],[136.10018245065848,35.94632539805355],[136.1001843033806,35.946004942931445],[136.10008379590138,35.94603082138113],[136.09988051486667,35.9460252770017],[136.09930170510228,35.94622794873115],[136.0993306107311,35.94634421306884]]]}},{"type":"Feature","properties":{"pid":"74ea9dc5-768a-4b52-8aab-aa1010fd7927"},"geometry":{"type":"Polygon","coordinates":[[[136.09606963810532,35.946672946161605],[136.0967097001584,35.946671899648095],[136.0967088273957,35.94661151246503],[136.09652637458606,35.94663331329223],[136.09623729326086,35.946579158406365],[136.09607125032056,35.946601072340215],[136.09606963810532,35.946672946161605]]]}},{"type":"Feature","properties":{"pid":"406e9b75-071f-4cb1-90f8-a3402aa742be"},"geometry":{"type":"Polygon","coordinates":[[[136.09606906284435,35.94723579998716],[136.09667765273176,35.947072002586744],[136.09668124145,35.9470305698848],[136.0960676160947,35.94705933013376],[136.09606906284435,35.94723579998716]]]}},{"type":"Feature","properties":{"pid":"6fe8b472-16fa-4dfa-b01d-5e98faa72a48"},"geometry":{"type":"Polygon","coordinates":[[[136.0960574486203,35.946941941892334],[136.09668306585647,35.94691910416326],[136.09668246022133,35.9468784064237],[136.0960570530692,35.946918932311455],[136.0960574486203,35.946941941892334]]]}},{"type":"Feature","properties":{"pid":"6e6f9574-3d37-417a-be23-e4203b79d502"},"geometry":{"type":"Polygon","coordinates":[[[136.09735836486797,35.94724762371752],[136.0974202451151,35.94722704082962],[136.09729294889326,35.947066904670706],[136.09723294086064,35.94710406545008],[136.09724791066816,35.94717201161648],[136.0973245401154,35.94718084109487],[136.09735836486797,35.94724762371752]]]}},{"type":"Feature","properties":{"pid":"a37e95f0-c5f0-40cc-b278-8e0f915497f1"},"geometry":{"type":"Polygon","coordinates":[[[136.09687475907157,35.94689093286111],[136.0968786506055,35.94694072925717],[136.09708131710303,35.946956200582456],[136.0972186212203,35.94686719096418],[136.09687475907157,35.94689093286111]]]}},{"type":"Feature","properties":{"pid":"54a67f28-f73b-4f24-8add-99d5a44e2b18"},"geometry":{"type":"Polygon","coordinates":[[[136.09732831516604,35.94664960859201],[136.09732973320146,35.9464829438344],[136.0968951295642,35.946569837112555],[136.0969033095745,35.94663960139094],[136.09696348265143,35.94665361292878],[136.09732831516604,35.94664960859201]]]}},{"type":"Feature","properties":{"pid":"d2866dbf-0136-4ba4-9d2a-6dd1da43c1fb"},"geometry":{"type":"Polygon","coordinates":[[[136.09749917280448,35.946632712334235],[136.0979491771387,35.94663117695749],[136.09792905862093,35.94638203697104],[136.0975573393154,35.94637988307777],[136.09748740800669,35.94642212228811],[136.09749917280448,35.946632712334235]]]}},{"type":"Feature","properties":{"pid":"d06d6773-67ec-47b9-96d3-bbba2a7f02a5"},"geometry":{"type":"Polygon","coordinates":[[[136.09518317811253,35.947329707951475],[136.0958072240265,35.947221473012455],[136.0958061014163,35.94711839358489],[136.09516512967681,35.94712887848908],[136.0951624031301,35.94731942438422],[136.09518317811253,35.947329707951475]]]}},{"type":"Feature","properties":{"pid":"95734de4-0941-4938-b527-9be1cf43e65e"},"geometry":{"type":"Polygon","coordinates":[[[136.09298520210072,35.948735993095625],[136.09314209801062,35.948889815880406],[136.09320097186108,35.948997272664386],[136.0931923977042,35.94893421323925],[136.09301214787212,35.948727872300154],[136.09298520210072,35.948735993095625]]]}},{"type":"Feature","properties":{"pid":"013c9d88-da6a-4f15-bea2-e4d52e2ff711"},"geometry":{"type":"Polygon","coordinates":[[[136.09332665397366,35.947213383127725],[136.09369938680726,35.94717568609303],[136.0938557344075,35.94713243793569],[136.09390737922317,35.94714853407576],[136.09407231590228,35.94712447715753],[136.09415369932188,35.9471304179967],[136.09415473884204,35.94693132446616],[136.09333626192938,35.94693441478357],[136.09332665397366,35.947213383127725]]]}},{"type":"Feature","properties":{"pid":"b513dc92-3b65-4829-9b16-bd6a77a5f61e"},"geometry":{"type":"Polygon","coordinates":[[[136.09491742403085,35.94693444279286],[136.09441077945647,35.94695827885116],[136.09441903131224,35.94707338453496],[136.09460103121154,35.947010077300895],[136.09493933714458,35.94700228412885],[136.09493646687045,35.94694698893244],[136.09491742403085,35.94693444279286]]]}},{"type":"Feature","properties":{"pid":"0e81b63f-d9ff-4377-a830-45a76befc1fe"},"geometry":{"type":"Polygon","coordinates":[[[136.09514354896442,35.946938820549406],[136.0951428449493,35.94700792303675],[136.09577413870608,35.946996260431085],[136.0957721583504,35.946897888476556],[136.09517654371857,35.946922968072926],[136.09514354896442,35.946938820549406]]]}},{"type":"Feature","properties":{"pid":"4555530c-f1d0-4389-bfa4-98b70cac1065"},"geometry":{"type":"Polygon","coordinates":[[[136.0957781733535,35.94666243422774],[136.095105222694,35.94671530732435],[136.09510673813335,35.946737996830166],[136.0957855947769,35.94672744307514],[136.0957781733535,35.94666243422774]]]}},{"type":"Feature","properties":{"pid":"4465397c-1280-457d-8f62-cccd100d5cac"},"geometry":{"type":"Polygon","coordinates":[[[136.09441253522456,35.94676522841174],[136.09494595544533,35.94676120275655],[136.09494344574583,35.94671773817046],[136.09457843747091,35.94667208414762],[136.09441297388057,35.946751018412414],[136.09441253522456,35.94676522841174]]]}},{"type":"Feature","properties":{"pid":"d9ddbf5e-e70d-4b0d-aa3e-e3909b1670f3"},"geometry":{"type":"Polygon","coordinates":[[[136.0914725358394,35.946671628126815],[136.09186533401814,35.946692232574264],[136.09187867087886,35.946500731356196],[136.09147597423905,35.9464917820605],[136.0914725358394,35.946671628126815]]]}},{"type":"Feature","properties":{"pid":"67f3a568-600a-44ab-b5c5-acc910e9a072"},"geometry":{"type":"Polygon","coordinates":[[[136.09083410249426,35.94662413428644],[136.09086311197052,35.946655464089055],[136.09133178396607,35.94666341880834],[136.0913315773564,35.94648404594695],[136.09103799829975,35.94648065101137],[136.0908239506333,35.94654884518593],[136.09083410249426,35.94662413428644]]]}},{"type":"Feature","properties":{"pid":"c3128c3d-c620-450f-a13a-ae76fd0cbb99"},"geometry":{"type":"Polygon","coordinates":[[[136.0908214239427,35.946927814643885],[136.09129158403593,35.946887436598324],[136.09129257519223,35.94685220021898],[136.090823310588,35.946854940066025],[136.0908214239427,35.946927814643885]]]}},{"type":"Feature","properties":{"pid":"b4f4ed96-2b5a-4356-a796-fff283340be5"},"geometry":{"type":"Polygon","coordinates":[[[136.09243986395737,35.94687383414992],[136.092204297009,35.94687150546996],[136.0922047784081,35.94693631431397],[136.09224070213668,35.94693769646225],[136.09235037674102,35.94688473810219],[136.09243986395737,35.94687383414992]]]}},{"type":"Feature","properties":{"pid":"1382fe97-78ff-4b6c-930c-68ca987f7cf5"},"geometry":{"type":"Polygon","coordinates":[[[136.0920650608645,35.946560583057476],[136.0920583094749,35.94669457202641],[136.09250214980955,35.946720597440404],[136.0925057717691,35.94666116365964],[136.0920650608645,35.946560583057476]]]}},{"type":"Feature","properties":{"pid":"c1ab7d7a-3755-495c-aa70-a792e0554894"},"geometry":{"type":"Polygon","coordinates":[[[136.09282865625104,35.94721866959078],[136.09315256295173,35.94721293130446],[136.09317740710748,35.94691703433799],[136.0928548344588,35.94690740731283],[136.09282865625104,35.94721866959078]]]}},{"type":"Feature","properties":{"pid":"538d4818-7fc9-4f50-a4de-91366c3f8a53"},"geometry":{"type":"Polygon","coordinates":[[[136.09243481156224,35.94745282759977],[136.092583533314,35.947452132070715],[136.09257310056813,35.94739184791387],[136.0924357327228,35.94739535607578],[136.09243481156224,35.94745282759977]]]}},{"type":"Feature","properties":{"pid":"a62011b0-d722-4f10-af6b-937fecabd2d9"},"geometry":{"type":"Polygon","coordinates":[[[136.09261895601975,35.94779834233273],[136.0923321779039,35.947863354384566],[136.09243030185206,35.948056914850774],[136.09263119410352,35.948001401213475],[136.09261895601975,35.94779834233273]]]}},{"type":"Feature","properties":{"pid":"f016f2f7-63a0-43c8-af84-f092f52691dc"},"geometry":{"type":"Polygon","coordinates":[[[136.09255948067315,35.948137004414335],[136.09258696471494,35.948193078236464],[136.09266506830372,35.94826872836239],[136.09279525978803,35.9482361644039],[136.09267030651574,35.94810775509511],[136.09255948067315,35.948137004414335]]]}},{"type":"Feature","properties":{"pid":"1ac6b2ae-1eba-44f3-9e24-b24dc01711ad"},"geometry":{"type":"Polygon","coordinates":[[[136.0928674561873,35.94833148061681],[136.09273738430605,35.948364015232904],[136.09280603100532,35.948431051666276],[136.0928602289078,35.94842917383946],[136.09287717507937,35.948387170467846],[136.0928674561873,35.94833148061681]]]}},{"type":"Feature","properties":{"pid":"83077423-4d98-4149-a9c8-75c6cb41ae43"},"geometry":{"type":"Polygon","coordinates":[[[136.08780062168094,35.94667217462591],[136.08781716921513,35.94703597738007],[136.08821914302902,35.94703935475842],[136.08821895476694,35.946870086866674],[136.0881186580838,35.946817411908384],[136.0880685942209,35.94670318041783],[136.0880134918541,35.94667785003425],[136.08780062168094,35.94667217462591]]]}},{"type":"Feature","properties":{"pid":"924de646-0e2c-4c78-8190-6d44728be7b9"},"geometry":{"type":"Polygon","coordinates":[[[136.0884113008832,35.94702449033959],[136.08908980166484,35.94702783306369],[136.0889782054097,35.94690268328607],[136.08841135994118,35.94687803219203],[136.0884113008832,35.94702449033959]]]}},{"type":"Feature","properties":{"pid":"74ee194f-78f4-402a-9a0b-809395888aeb"},"geometry":{"type":"Polygon","coordinates":[[[136.09023545229064,35.94698532348307],[136.09063305743544,35.9469509216987],[136.09062823394797,35.9468281152819],[136.09018941154284,35.94682263469875],[136.09021638534125,35.9469742226391],[136.09023545229064,35.94698532348307]]]}},{"type":"Feature","properties":{"pid":"b8e3c7bb-2c84-4c81-b4da-6d2fcb4bee64"},"geometry":{"type":"Polygon","coordinates":[[[136.0892932496441,35.94196982830611],[136.08931239685086,35.9419154007613],[136.08915959477375,35.94191840449399],[136.08924735141002,35.942177778041504],[136.08931675102855,35.94216272130318],[136.0892932496441,35.94196982830611]]]}},{"type":"Feature","properties":{"pid":"93bc6957-9497-4187-a628-b5fcd06ac35f"},"geometry":{"type":"Polygon","coordinates":[[[136.08938222288506,35.94230513842091],[136.08924339587887,35.94233989617008],[136.0893108549589,35.9424865020448],[136.08948264025602,35.942428326274154],[136.08938222288506,35.94230513842091]]]}},{"type":"Feature","properties":{"pid":"6eb3503f-44dd-4cb9-8f36-51f94f3d83f4"},"geometry":{"type":"Polygon","coordinates":[[[136.0895415487911,35.94253548883304],[136.0893751758034,35.942599223430506],[136.08943603140887,35.942710786781404],[136.08957787898288,35.94265139215077],[136.0895415487911,35.94253548883304]]]}},{"type":"Feature","properties":{"pid":"bbe86352-9265-44d1-bee8-40c99edd8085"},"geometry":{"type":"Polygon","coordinates":[[[136.0887187159866,35.94101220112366],[136.08882424520604,35.94114766297127],[136.0889154928662,35.94112024866173],[136.0888813571854,35.94094028743734],[136.0887187159866,35.94101220112366]]]}},{"type":"Feature","properties":{"pid":"cfe0780c-4f93-4fa4-a4bb-115c04f5e4ec"},"geometry":{"type":"Polygon","coordinates":[[[136.08908517901907,35.940511617928735],[136.08916179292746,35.94066806877035],[136.08954627837065,35.940544476514546],[136.08950133101268,35.94040397349759],[136.08908517901907,35.940511617928735]]]}},{"type":"Feature","properties":{"pid":"7dd261fb-8bab-4638-b580-1614a736c495"},"geometry":{"type":"Polygon","coordinates":[[[136.08868880938203,35.940852542878986],[136.0890058136228,35.94071709201126],[136.08893206147735,35.940545035940545],[136.08866848355626,35.9406250668445],[136.08868880938203,35.940852542878986]]]}},{"type":"Feature","properties":{"pid":"13512c31-9eb9-49a9-a955-faec1fc96eac"},"geometry":{"type":"Polygon","coordinates":[[[136.08837877686676,35.94079374147423],[136.08842198004066,35.940973200365256],[136.088490137574,35.94094412863059],[136.08847312934256,35.940763289823835],[136.08837877686676,35.94079374147423]]]}},{"type":"Feature","properties":{"pid":"21997cd2-ff71-4acf-9688-3a581e2c4c35"},"geometry":{"type":"Polygon","coordinates":[[[136.09517362991042,35.94061957676632],[136.09518648827665,35.94067555012467],[136.09530161001362,35.94066034512261],[136.0953809768746,35.94066944149497],[136.09537402958858,35.94063555162986],[136.09517362991042,35.94061957676632]]]}},{"type":"Feature","properties":{"pid":"4d6abb9d-bac3-498c-be04-68c066b1ed85"},"geometry":{"type":"Polygon","coordinates":[[[136.09525067264505,35.94079892041205],[136.09527365200702,35.94084550520219],[136.0953838956913,35.94083164932432],[136.09538273938873,35.94079284860923],[136.09525067264505,35.94079892041205]]]}},{"type":"Feature","properties":{"pid":"fd62af22-aef3-4484-bc94-f293f892c030"},"geometry":{"type":"Polygon","coordinates":[[[136.09532367845318,35.9409940603352],[136.09534630575135,35.94108408132931],[136.0954109728591,35.9411081995482],[136.09541731475235,35.94107864936711],[136.09538806881085,35.94099065609606],[136.09532367845318,35.9409940603352]]]}},{"type":"Feature","properties":{"pid":"6d4abe42-5f81-46be-a650-3fab61612b5d"},"geometry":{"type":"Polygon","coordinates":[[[136.0778241048531,35.94121072545957],[136.07784532139192,35.9415124071111],[136.07798237785227,35.9415092218766],[136.07796159244364,35.94120711372923],[136.077846869155,35.94119934433181],[136.0778241048531,35.94121072545957]]]}},{"type":"Feature","properties":{"pid":"64c6249f-ec78-4f81-99d2-a9d8c04cf8f7"},"geometry":{"type":"Polygon","coordinates":[[[136.08065420555877,35.94078293650102],[136.08082602860958,35.94102490575749],[136.0808487314921,35.94101642551122],[136.080678051338,35.940773000131244],[136.08065420555877,35.94078293650102]]]}},{"type":"Feature","properties":{"pid":"b72fecfb-67e2-43c6-9c1d-9abe267650f0"},"geometry":{"type":"Polygon","coordinates":[[[136.08123919567504,35.94056152765142],[136.08137663548646,35.940770020219354],[136.08152498543802,35.94070224780457],[136.08145500243478,35.94051787164265],[136.08123919567504,35.94056152765142]]]}},{"type":"Feature","properties":{"pid":"fc551c76-a8ce-4ffc-9662-b60eec62c240"},"geometry":{"type":"Polygon","coordinates":[[[136.08097775629855,35.94070030989675],[136.08111293088524,35.94088738009697],[136.08126196484193,35.94082205613427],[136.08112699358244,35.94062073652979],[136.08097775629855,35.94070030989675]]]}},{"type":"Feature","properties":{"pid":"86ea099a-1657-4da6-a09d-b7e78a2173ec"},"geometry":{"type":"Polygon","coordinates":[[[136.08082111072838,35.94073925365805],[136.08097367081447,35.94096043365602],[136.08099544511174,35.940950937919055],[136.0808452107007,35.94073432606606],[136.08082111072838,35.94073925365805]]]}},{"type":"Feature","properties":{"pid":"ec1c195f-09b6-45db-8115-e27a144c241b"},"geometry":{"type":"Polygon","coordinates":[[[136.08254051763873,35.940607794892586],[136.0825674816199,35.940676664109354],[136.0827693193624,35.94065375938913],[136.0828179380401,35.94063049796945],[136.0828268682182,35.94058628223912],[136.08280240135218,35.94052868045802],[136.082735145719,35.94053849569294],[136.08254051763873,35.940607794892586]]]}},{"type":"Feature","properties":{"pid":"5b3353dd-b4cc-44b6-97c8-ebbc233d8c68"},"geometry":{"type":"Polygon","coordinates":[[[136.08187776506392,35.94086501461172],[136.08189504301646,35.94088679761403],[136.08243648407463,35.94069840333671],[136.0824147723849,35.940646889316106],[136.08187776506392,35.94086501461172]]]}},{"type":"Feature","properties":{"pid":"81477b3a-2c2a-4cba-a019-7beb7b8dcc6e"},"geometry":{"type":"Polygon","coordinates":[[[136.08179344353147,35.94094421237628],[136.08176474098653,35.94090926477578],[136.0812583931544,35.94110770814603],[136.0812839600943,35.94115740532782],[136.0816040211625,35.94108529369478],[136.08179344353147,35.94094421237628]]]}},{"type":"Feature","properties":{"pid":"db7467a9-5f4b-44ce-b5b0-662f600b49f6"},"geometry":{"type":"Polygon","coordinates":[[[136.0876286212807,35.94094747370079],[136.08777521753996,35.94112863501008],[136.08781125345638,35.94120762380158],[136.08813905065597,35.94109135185028],[136.08801696871373,35.94082167238717],[136.0876286212807,35.94094747370079]]]}},{"type":"Feature","properties":{"pid":"3dcbca22-e78b-4bf6-85c5-31a57d6db60a"},"geometry":{"type":"Polygon","coordinates":[[[136.08749861382086,35.941633095497046],[136.08782522200235,35.94156904103794],[136.087827036676,35.94152923731205],[136.08749752835985,35.94160898813852],[136.08749861382086,35.941633095497046]]]}},{"type":"Feature","properties":{"pid":"9b33d4f0-af56-4b86-ba43-c26387e9997b"},"geometry":{"type":"Polygon","coordinates":[[[136.0876633440866,35.94171601383501],[136.08766552945627,35.94176637634697],[136.087954211306,35.941750269285706],[136.08793416176002,35.941674515881466],[136.0876633440866,35.94171601383501]]]}},{"type":"Feature","properties":{"pid":"36f46596-9157-4d2f-9a20-21c7f88977bc"},"geometry":{"type":"Polygon","coordinates":[[[136.08709877361207,35.947002687309016],[136.08716215305296,35.94694069858651],[136.08717355708774,35.946837975282726],[136.0870771035786,35.946831361685014],[136.0870460570008,35.946779680331],[136.08688318624203,35.946808007951304],[136.08686221780454,35.94683429080005],[136.08684660729475,35.94691348324697],[136.0868710978221,35.9470071423452],[136.08699541155218,35.94699431312293],[136.08709877361207,35.947002687309016]]]}},{"type":"Feature","properties":{"pid":"83570616-1219-4744-bba4-6f0d36f2d7d0"},"geometry":{"type":"Polygon","coordinates":[[[136.08749784263878,35.94670216023378],[136.08750735480325,35.94699723369374],[136.08766078751339,35.947021305730026],[136.0876409250345,35.94670195946719],[136.08761457717625,35.9466761400999],[136.08757957763657,35.94667487214061],[136.08749784263878,35.94670216023378]]]}},{"type":"Feature","properties":{"pid":"9006a1e0-8def-4657-95f0-45985ef4265e"},"geometry":{"type":"Polygon","coordinates":[[[136.08723152666005,35.947537972553306],[136.08725071080872,35.947595909079986],[136.08729059985708,35.94764322327011],[136.08739365736548,35.94758801980575],[136.08752222169775,35.94755138226374],[136.08758089508152,35.947511724641245],[136.08769028189883,35.94748220532505],[136.08768015766861,35.947284073325605],[136.08765863460175,35.94728267010143],[136.08744840471212,35.94750444478037],[136.08723152666005,35.947537972553306]]]}},{"type":"Feature","properties":{"pid":"bb1b933b-631a-4dec-8dfc-3e877a4ef5e5"},"geometry":{"type":"Polygon","coordinates":[[[136.08662697509678,35.947272704213894],[136.08667297193466,35.947431003525395],[136.08695677494686,35.947384854994915],[136.08694903072433,35.94721264641516],[136.08662697509678,35.947272704213894]]]}},{"type":"Feature","properties":{"pid":"89f5d59c-b18f-41e7-b238-5fb83f7140ee"},"geometry":{"type":"Polygon","coordinates":[[[136.08671595518257,35.94762052711931],[136.08672591831623,35.94768886814892],[136.08695992861576,35.94761079891119],[136.0869687323377,35.947574318757816],[136.08671595518257,35.94762052711931]]]}},{"type":"Feature","properties":{"pid":"8c8eeefd-aa47-4314-a3b4-7cc55b1c071a"},"geometry":{"type":"Polygon","coordinates":[[[136.08645941938806,35.94740731364287],[136.0864513624047,35.947366367716164],[136.08611629471005,35.94742199547188],[136.08612692483143,35.947464540809385],[136.08645941938806,35.94740731364287]]]}},{"type":"Feature","properties":{"pid":"9eff5b7b-2d6b-46ac-98aa-efed237ca049"},"geometry":{"type":"Polygon","coordinates":[[[136.0859532444121,35.94745003495862],[136.08593672489485,35.9473936065264],[136.08569404701777,35.94743161595291],[136.08572313179096,35.94749130767784],[136.0859532444121,35.94745003495862]]]}},{"type":"Feature","properties":{"pid":"b970e034-a317-41bf-92a4-8f0c7bfdd50e"},"geometry":{"type":"Polygon","coordinates":[[[136.08451763642537,35.94756048093622],[136.08472807054108,35.947513164658226],[136.08493317295702,35.94734223422909],[136.0850240347125,35.947295080984524],[136.08440765850958,35.94743857545753],[136.08444173272497,35.94754991512375],[136.08451763642537,35.94756048093622]]]}},{"type":"Feature","properties":{"pid":"1f965580-be6f-44ab-9491-604f4c00e873"},"geometry":{"type":"Polygon","coordinates":[[[136.0840844486832,35.94825050362512],[136.08411737087025,35.94829848294894],[136.0842298995961,35.94825009063461],[136.08422289926395,35.94820792033114],[136.0840844486832,35.94825050362512]]]}},{"type":"Feature","properties":{"pid":"f92822b1-3c57-4c8a-8fe7-70b6d34e07db"},"geometry":{"type":"Polygon","coordinates":[[[136.0836854091918,35.9479592486611],[136.08332461029482,35.94815286405389],[136.08338640671604,35.94823071448567],[136.0837423327946,35.948043303911085],[136.0836854091918,35.9479592486611]]]}},{"type":"Feature","properties":{"pid":"8f2ddd74-3941-449b-a84d-929dba8d63ad"},"geometry":{"type":"Polygon","coordinates":[[[136.0834520511696,35.94831547295681],[136.0835067520148,35.94838453166536],[136.08385083449448,35.94820933507924],[136.08379958342977,35.94813404496524],[136.0834520511696,35.94831547295681]]]}},{"type":"Feature","properties":{"pid":"82f531ff-2fa5-4009-8ade-3004d578229e"},"geometry":{"type":"Polygon","coordinates":[[[136.08369968837675,35.94851501899439],[136.08385634029295,35.948519160251784],[136.0839395563067,35.948498669542644],[136.08401447167697,35.94845980006392],[136.08395872359878,35.948383358709705],[136.08369968837675,35.94851501899439]]]}},{"type":"Feature","properties":{"pid":"0f5ce6a0-2d4d-41d7-b3ff-eb4322515233"},"geometry":{"type":"Polygon","coordinates":[[[136.08325631608596,35.948341089022755],[136.0829174495062,35.94851440119654],[136.08285434584508,35.94866245659898],[136.08301009668915,35.948669708301885],[136.0834167373907,35.948567959446805],[136.08325631608596,35.948341089022755]]]}},{"type":"Feature","properties":{"pid":"4bb25dcc-4ba8-4072-ac41-d8f9402c2e41"},"geometry":{"type":"Polygon","coordinates":[[[136.0829896817435,35.94793914749217],[136.08327924195711,35.94780051498017],[136.08305388099674,35.94748783265911],[136.08302967958247,35.94749958683719],[136.08296331947673,35.94782504905535],[136.0829896817435,35.94793914749217]]]}},{"type":"Feature","properties":{"pid":"48a432c8-4d92-4d3e-a474-21b29474954c"},"geometry":{"type":"Polygon","coordinates":[[[136.08362165967407,35.94787489481827],[136.08355930120285,35.94780132350842],[136.0832085795237,35.94798744985552],[136.08326465445967,35.948064518096814],[136.08362165967407,35.94787489481827]]]}},{"type":"Feature","properties":{"pid":"771fc954-2e85-43be-911e-f9485ce8745b"},"geometry":{"type":"Polygon","coordinates":[[[136.08297570936747,35.94704930606545],[136.0830210497162,35.947242067339126],[136.08302389406234,35.94736001894548],[136.08316455123986,35.947283371665094],[136.08299674063124,35.94704505066044],[136.08297570936747,35.94704930606545]]]}},{"type":"Feature","properties":{"pid":"d577fdda-5631-4acd-9183-b31cd5e3a001"},"geometry":{"type":"Polygon","coordinates":[[[136.081675970928,35.946228483381226],[136.0816737362138,35.94629400671711],[136.08209013121177,35.94629946175867],[136.08208836129927,35.94621986628391],[136.08170169071803,35.94621203815597],[136.081675970928,35.946228483381226]]]}},{"type":"Feature","properties":{"pid":"64586953-ca96-46e1-b007-93e0230a7db1"},"geometry":{"type":"Polygon","coordinates":[[[136.08048519076954,35.94548641781561],[136.08064475004767,35.945447393826925],[136.08061240094648,35.94537079038732],[136.08045639564202,35.945397598230926],[136.08048519076954,35.94548641781561]]]}},{"type":"Feature","properties":{"pid":"9b0bbac0-ca12-4c01-be48-cacdad5d61e6"},"geometry":{"type":"Polygon","coordinates":[[[136.081186745635,35.9462786246304],[136.0814996169754,35.94628738198676],[136.0815020519929,35.94618909976361],[136.081186745635,35.9462786246304]]]}},{"type":"Feature","properties":{"pid":"226e1b19-1dcf-4b0a-8ae7-96acbb317c40"},"geometry":{"type":"Polygon","coordinates":[[[136.08104238442772,35.94647065463273],[136.08148965331443,35.9464726983482],[136.08149311907715,35.94638524567812],[136.08104320225056,35.9463762001908],[136.08104238442772,35.94647065463273]]]}},{"type":"Feature","properties":{"pid":"5cc57395-3327-4e76-ad5c-fee8861f3b24"},"geometry":{"type":"Polygon","coordinates":[[[136.08103454937202,35.946653213086215],[136.08148084334832,35.94665524498516],[136.0814807668155,35.94658068268856],[136.0810370444242,35.94656926834284],[136.08103454937202,35.946653213086215]]]}},{"type":"Feature","properties":{"pid":"10b1cc18-daab-4bcb-90c7-232289dd1c0b"},"geometry":{"type":"Polygon","coordinates":[[[136.08044046734437,35.94664122633297],[136.08086122166867,35.946649034020126],[136.08086113593654,35.94656527440046],[136.08044038103517,35.94655631040718],[136.08044046734437,35.94664122633297]]]}},{"type":"Feature","properties":{"pid":"faa8be7a-ef70-4ca6-bc54-191d3f971c13"},"geometry":{"type":"Polygon","coordinates":[[[136.08043672423824,35.94682218857168],[136.0808592434121,35.9468288461684],[136.08086168866,35.9467487138442],[136.08043911247876,35.94674668418984],[136.08043672423824,35.94682218857168]]]}},{"type":"Feature","properties":{"pid":"91fe7169-6bb5-4aaa-bfde-dc84f412eb2f"},"geometry":{"type":"Polygon","coordinates":[[[136.08042257774446,35.94720510921003],[136.08085032531443,35.9472140966529],[136.0808568418312,35.9469308148448],[136.0804304540728,35.94692530367056],[136.08042257774446,35.94720510921003]]]}},{"type":"Feature","properties":{"pid":"fac7a168-bf92-4e9c-bb78-8fb2d06282b1"},"geometry":{"type":"Polygon","coordinates":[[[136.0810209987347,35.947026636531874],[136.0814711310472,35.947025162370124],[136.08147488238882,35.94676247905982],[136.08103146694017,35.94675692565861],[136.0810209987347,35.947026636531874]]]}},{"type":"Feature","properties":{"pid":"226de24d-05c9-4175-bdad-ecf7abfcc6b6"},"geometry":{"type":"Polygon","coordinates":[[[136.08101362587777,35.947217231984055],[136.0814620733766,35.94722161882322],[136.08146651238874,35.94712946005101],[136.08102944871374,35.947127346556364],[136.08101619547082,35.947134492769045],[136.08101362587777,35.947217231984055]]]}},{"type":"Feature","properties":{"pid":"d8c94cd6-ad5f-423e-886a-70ddfddbcb5d"},"geometry":{"type":"Polygon","coordinates":[[[136.08165683111267,35.9469653865254],[136.0816462438623,35.94722351228618],[136.0820737117686,35.94723427542349],[136.08206753389086,35.94694732323381],[136.081680850521,35.94694072646207],[136.08165683111267,35.9469653865254]]]}},{"type":"Feature","properties":{"pid":"5170bf80-cf8f-43f5-9f4e-0f9d44abd11a"},"geometry":{"type":"Polygon","coordinates":[[[136.08166074095186,35.946838751712825],[136.08206442959855,35.9468442153161],[136.08206676898334,35.94677088451815],[136.0816843807557,35.94676648754447],[136.0816613987832,35.946785440948396],[136.08166074095186,35.946838751712825]]]}},{"type":"Feature","properties":{"pid":"b328bce5-8ed3-4540-bb4b-8f78e7781a53"},"geometry":{"type":"Polygon","coordinates":[[[136.0816654473831,35.94646966146865],[136.0820850615699,35.946482562705086],[136.0820866961371,35.946400780246925],[136.08168663601225,35.94639169245607],[136.08166857492733,35.94640339800397],[136.0816654473831,35.94646966146865]]]}},{"type":"Feature","properties":{"pid":"02179e0b-59c4-4d78-b438-b6dc2fa56111"},"geometry":{"type":"Polygon","coordinates":[[[136.08166519479607,35.946587279521594],[136.0816607473117,35.946667578900104],[136.0820731223903,35.94667074228107],[136.0820756869327,35.94658443049078],[136.081687849596,35.94657310078795],[136.08166519479607,35.946587279521594]]]}},{"type":"Feature","properties":{"pid":"4ae59b5a-4006-4a7d-b546-b563b23ba781"},"geometry":{"type":"Polygon","coordinates":[[[136.082248578197,35.946592939853794],[136.08223662474563,35.94698093867403],[136.08254290254737,35.946983235148444],[136.0824112837418,35.9466620273226],[136.08236127838722,35.94658552537695],[136.082248578197,35.946592939853794]]]}},{"type":"Feature","properties":{"pid":"5c21067e-1bc9-4a5d-9413-a78eab880830"},"geometry":{"type":"Polygon","coordinates":[[[136.08223657500523,35.947154247022965],[136.08262973455018,35.94716267559892],[136.0825981949947,35.94709105863917],[136.0822613461587,35.94709128948737],[136.0822365229642,35.94710398670292],[136.08223657500523,35.947154247022965]]]}},{"type":"Feature","properties":{"pid":"11e1b4e0-db3e-4975-9f05-98f360ec4927"},"geometry":{"type":"Polygon","coordinates":[[[136.08221855226864,35.94747177317724],[136.08264698065963,35.94747419459053],[136.08265856817178,35.947383584351336],[136.08222108214446,35.94738734971678],[136.08221855226864,35.94747177317724]]]}},{"type":"Feature","properties":{"pid":"e7623221-2eeb-4a1d-a4b2-e3c9f35e4f68"},"geometry":{"type":"Polygon","coordinates":[[[136.0816330497647,35.94763284502775],[136.0820365015699,35.9476391338886],[136.08204223488426,35.94756215469754],[136.08163024998996,35.94755901739533],[136.0816330497647,35.94763284502775]]]}},{"type":"Feature","properties":{"pid":"8f9011a3-77a8-4bda-9ad7-60ae12ce1b72"},"geometry":{"type":"Polygon","coordinates":[[[136.08164037833836,35.94744095310424],[136.08204847951984,35.94745705420525],[136.08205050272426,35.94736848459187],[136.08164289762112,35.947369980688606],[136.08164037833836,35.94744095310424]]]}},{"type":"Feature","properties":{"pid":"07c29285-a411-4f9c-8355-f755936847a9"},"geometry":{"type":"Polygon","coordinates":[[[136.08161847857403,35.94780791500101],[136.08164539720522,35.94782786855536],[136.08202858252403,35.947829968159425],[136.08203265973447,35.94775152192835],[136.08161915240717,35.94775524738624],[136.08161847857403,35.94780791500101]]]}},{"type":"Feature","properties":{"pid":"ef9f7562-d02c-49f0-9df0-1df09fd28e32"},"geometry":{"type":"Polygon","coordinates":[[[136.08160895629803,35.94800236089698],[136.08162527745287,35.94801688531342],[136.0820133927085,35.94802353218553],[136.08201240622603,35.94793412243931],[136.0816124201955,35.94792749956758],[136.08160895629803,35.94800236089698]]]}},{"type":"Feature","properties":{"pid":"4aee7880-09ff-4b1b-99df-702af4066bb9"},"geometry":{"type":"Polygon","coordinates":[[[136.08219808293634,35.94802975191761],[136.08261566078795,35.948032794216026],[136.0825859639407,35.94795232075814],[136.08220139094357,35.947949071238995],[136.08219808293634,35.94802975191761]]]}},{"type":"Feature","properties":{"pid":"36c14cc3-8202-4a17-9bb7-604632983132"},"geometry":{"type":"Polygon","coordinates":[[[136.08220668191362,35.947758359056],[136.08256815762775,35.947762564233344],[136.08256909102647,35.947675570692596],[136.08260314246039,35.9475813282293],[136.08221367330367,35.947579396114],[136.08220668191362,35.947758359056]]]}},{"type":"Feature","properties":{"pid":"bf6104e0-326b-497b-befa-276ce5133865"},"geometry":{"type":"Polygon","coordinates":[[[136.08219421709563,35.948149908880296],[136.08264756130862,35.948156488126514],[136.0826437580811,35.948138971757515],[136.082194759078,35.94813331424551],[136.08219421709563,35.948149908880296]]]}},{"type":"Feature","properties":{"pid":"7163d928-bbba-475f-b4d4-46f6e175fcd2"},"geometry":{"type":"Polygon","coordinates":[[[136.0821790257957,35.94840330823176],[136.08240631790187,35.94842255167076],[136.08243232610192,35.94834241462825],[136.08246625002775,35.948317328346775],[136.08217983785946,35.94831675848613],[136.0821790257957,35.94840330823176]]]}},{"type":"Feature","properties":{"pid":"6af610b8-506a-4e71-b36e-352ad3660437"},"geometry":{"type":"Polygon","coordinates":[[[136.081947236433,35.94871655149761],[136.08159294701403,35.94872101089023],[136.08159035691725,35.948826324204674],[136.08192234848934,35.94882498290516],[136.081947236433,35.94871655149761]]]}},{"type":"Feature","properties":{"pid":"a958a532-309b-4c27-b3b3-5d072e356ccd"},"geometry":{"type":"Polygon","coordinates":[[[136.0815817920248,35.94856989069251],[136.0817085266877,35.94857127130183],[136.08171000138216,35.94849043531067],[136.08161827516193,35.9484913144265],[136.08158329302307,35.94852134480493],[136.0815817920248,35.94856989069251]]]}},{"type":"Feature","properties":{"pid":"372eb032-3a7d-40a0-a1ae-2bb6d166ab7f"},"geometry":{"type":"Polygon","coordinates":[[[136.08159704516933,35.94836558596225],[136.08163062934952,35.94838843576177],[136.0820050510635,35.94838818046116],[136.08200165393012,35.94831196015273],[136.08159697928116,35.9483018818427],[136.08159704516933,35.94836558596225]]]}},{"type":"Feature","properties":{"pid":"e0b9f44f-b574-4726-bbbf-d8292f65b791"},"geometry":{"type":"Polygon","coordinates":[[[136.08160202876516,35.948177291504656],[136.08164134606142,35.94819905215673],[136.08200634368953,35.94820218860853],[136.0820054777405,35.94813128353502],[136.08160401840476,35.94812466048766],[136.08160202876516,35.948177291504656]]]}},{"type":"Feature","properties":{"pid":"d29ad7ea-5746-4a2e-aa18-7ff33b3f105a"},"geometry":{"type":"Polygon","coordinates":[[[136.08098951790527,35.94811162480022],[136.08098645637642,35.94818039299775],[136.08142934255156,35.948190548413685],[136.08142760749735,35.94811249938448],[136.08098951790527,35.94811162480022]]]}},{"type":"Feature","properties":{"pid":"8ec5aa28-c440-461b-b728-2655441b8c55"},"geometry":{"type":"Polygon","coordinates":[[[136.08096525937103,35.9485558755856],[136.0814265547622,35.94856789013602],[136.08142627899173,35.948299218999054],[136.08097505429183,35.94829070534688],[136.08096525937103,35.9485558755856]]]}},{"type":"Feature","properties":{"pid":"6cc2c4ae-6690-4762-bfd9-7029f0821b83"},"geometry":{"type":"Polygon","coordinates":[[[136.08136262874683,35.94877681098239],[136.08137998584934,35.94876487312831],[136.08137767229138,35.948711613080484],[136.08096251172677,35.94870609326789],[136.08096025933378,35.9487747034984],[136.08136262874683,35.94877681098239]]]}},{"type":"Feature","properties":{"pid":"606af336-dd0e-4bcc-917b-06f3fb5a708a"},"geometry":{"type":"Polygon","coordinates":[[[136.0809622649413,35.94895870460666],[136.08136704034376,35.94896093022194],[136.08137997171096,35.948953733067576],[136.0813807998496,35.94888662816572],[136.08095851293848,35.94887951923762],[136.0809622649413,35.94895870460666]]]}},{"type":"Feature","properties":{"pid":"880ccc52-738a-4026-9b6c-486a832b2450"},"geometry":{"type":"Polygon","coordinates":[[[136.0804429498035,35.94871152459453],[136.080455964432,35.94877178691639],[136.08078390378734,35.948771566302476],[136.0807824032735,35.94871129644349],[136.0804429498035,35.94871152459453]]]}},{"type":"Feature","properties":{"pid":"0c6846e1-7c1f-4987-b5eb-c26f55784646"},"geometry":{"type":"Polygon","coordinates":[[[136.08040287181555,35.948884894786524],[136.08040134765756,35.94895628148516],[136.08065307898144,35.94895812977388],[136.08065137449196,35.94888269766473],[136.08040287181555,35.948884894786524]]]}},{"type":"Feature","properties":{"pid":"65e7d9be-88c4-4f68-a755-85577c23e1a8"},"geometry":{"type":"Polygon","coordinates":[[[136.0805044454746,35.94854112214965],[136.08079861600214,35.948543760166125],[136.08080187603377,35.94846568945714],[136.0805731349867,35.94846265469008],[136.0805044454746,35.94854112214965]]]}},{"type":"Feature","properties":{"pid":"56930137-9333-4b74-bb08-3d39e4254697"},"geometry":{"type":"Polygon","coordinates":[[[136.08065537113254,35.948360366958305],[136.08079907812655,35.948360270234446],[136.08079741918522,35.948289943175396],[136.08070313256374,35.94828772948494],[136.08065537113254,35.948360366958305]]]}},{"type":"Feature","properties":{"pid":"ab156753-2981-4966-bac9-f892952ddf62"},"geometry":{"type":"Polygon","coordinates":[[[136.08040585156093,35.94778838027263],[136.08081800314238,35.947790399226214],[136.08081870548685,35.947723360049274],[136.08040679583638,35.94771442912534],[136.08040585156093,35.94778838027263]]]}},{"type":"Feature","properties":{"pid":"dc471d79-f107-42bd-aa1d-545f535dc8ce"},"geometry":{"type":"Polygon","coordinates":[[[136.08067467782286,35.94790346460024],[136.08068801955127,35.94796216981036],[136.08072198450242,35.94798987374909],[136.08080586861172,35.94799228270151],[136.08082126900567,35.9479787034853],[136.0808178231565,35.947908059987064],[136.08067467782286,35.94790346460024]]]}},{"type":"Feature","properties":{"pid":"65b9047f-d0ef-498c-8663-881e09b15b7b"},"geometry":{"type":"Polygon","coordinates":[[[136.08099190408797,35.94800556353363],[136.08142655523247,35.94800759432456],[136.08142649132165,35.9479455469784],[136.08140920863158,35.94793229205978],[136.08099266412478,35.94792549277869],[136.08099190408797,35.94800556353363]]]}},{"type":"Feature","properties":{"pid":"757f22a6-8198-4626-8ad2-7e3a4f6ed41c"},"geometry":{"type":"Polygon","coordinates":[[[136.08100021876834,35.94781644248582],[136.08143225998717,35.947824293053024],[136.08143299211932,35.94775074097404],[136.0810001422151,35.94774174123878],[136.08100021876834,35.94781644248582]]]}},{"type":"Feature","properties":{"pid":"47b29078-0f3c-4d8e-9125-5dc0d4953503"},"geometry":{"type":"Polygon","coordinates":[[[136.08100353398572,35.94754485307779],[136.08100362868166,35.9476379702825],[136.08144462488082,35.9476435310238],[136.08144897349263,35.94755619775417],[136.08100353398572,35.94754485307779]]]}},{"type":"Feature","properties":{"pid":"7e02009f-dcec-4c56-8c8e-69dcbc4b0665"},"geometry":{"type":"Polygon","coordinates":[[[136.08100836922145,35.947446367718214],[136.08145742483725,35.947449574813994],[136.08145911528442,35.94736125341543],[136.08101097420575,35.9473556982395],[136.08100836922145,35.947446367718214]]]}},{"type":"Feature","properties":{"pid":"9ff0d5c5-d9c7-47ff-8dfd-0dab49ab0a93"},"geometry":{"type":"Polygon","coordinates":[[[136.0804206900131,35.94741955650621],[136.08081864934186,35.94742629816241],[136.08083730630855,35.94741421295387],[136.08083804102878,35.94734764543726],[136.08042222914776,35.9473467707196],[136.0804206900131,35.94741955650621]]]}},{"type":"Feature","properties":{"pid":"82a6de69-ba5e-402d-afc6-b7d5c37569dd"},"geometry":{"type":"Polygon","coordinates":[[[136.0804145042353,35.947605163754176],[136.0808171744696,35.94761310790832],[136.080836582187,35.94760079022274],[136.08083895886807,35.94753249981369],[136.08041442507246,35.94752701184385],[136.0804145042353,35.947605163754176]]]}},{"type":"Feature","properties":{"pid":"63d24818-51bb-4808-9f7c-9d725fe7f984"},"geometry":{"type":"Polygon","coordinates":[[[136.07998677985793,35.94732285734696],[136.07998689417758,35.947360043696236],[136.0802465170136,35.947396726945385],[136.08024720024093,35.947326862710796],[136.07998677985793,35.94732285734696]]]}},{"type":"Feature","properties":{"pid":"6fa98ac4-1e95-4348-a859-073a6e66e9a8"},"geometry":{"type":"Polygon","coordinates":[[[136.07922094010792,35.94731850669117],[136.0792171413814,35.94738642474204],[136.0796314290574,35.94739074920989],[136.07963371351744,35.9473205403939],[136.07922094010792,35.94731850669117]]]}},{"type":"Feature","properties":{"pid":"bc02dc4c-6620-4516-99e7-c95325810d12"},"geometry":{"type":"Polygon","coordinates":[[[136.07889986513615,35.94735559707174],[136.07891944037456,35.94737121360042],[136.0790644548683,35.9473754857404],[136.07906746536358,35.94730792328468],[136.0789483910738,35.947304574372154],[136.07889986513615,35.94735559707174]]]}},{"type":"Feature","properties":{"pid":"7f616e82-e88e-42a8-bfae-321f9703991b"},"geometry":{"type":"Polygon","coordinates":[[[136.07893788779234,35.94747721827136],[136.07894848838657,35.947538217690635],[136.07905418431213,35.9476022450635],[136.0790615235627,35.94747937582904],[136.07893788779234,35.94747721827136]]]}},{"type":"Feature","properties":{"pid":"d59f94ba-8331-4ac5-893c-0060a2cfa2cd"},"geometry":{"type":"Polygon","coordinates":[[[136.0792044128397,35.94758012798854],[136.07962206390675,35.94759136389894],[136.07962376046282,35.94750202319002],[136.07920877151184,35.94749189705457],[136.0792044128397,35.94758012798854]]]}},{"type":"Feature","properties":{"pid":"23950450-c614-4e75-9ff7-d74641a3377a"},"geometry":{"type":"Polygon","coordinates":[[[136.0792026482679,35.947682802344545],[136.07960366036394,35.947922783549814],[136.07961532862402,35.947698400155296],[136.0792026482679,35.947682802344545]]]}},{"type":"Feature","properties":{"pid":"b1ff5f15-7350-4d95-a90c-214962797889"},"geometry":{"type":"Polygon","coordinates":[[[136.0797798739853,35.947794320725855],[136.08020225644424,35.94779403946377],[136.0802076041553,35.94770186262046],[136.07988350647724,35.94770312240636],[136.07978267515995,35.94765599471931],[136.0797798739853,35.947794320725855]]]}},{"type":"Feature","properties":{"pid":"626e9169-5391-493d-b5b2-71f35fa2ea0e"},"geometry":{"type":"Polygon","coordinates":[[[136.07977377499128,35.94798351445508],[136.08024029902765,35.94798976697816],[136.08019741511404,35.947939795517044],[136.08018794847996,35.947893093715535],[136.07979249217993,35.947887803117546],[136.07977732208008,35.94789556142008],[136.07977377499128,35.94798351445508]]]}},{"type":"Feature","properties":{"pid":"6984612f-bbc6-4917-b2a7-7bcdb6c6a58b"},"geometry":{"type":"Polygon","coordinates":[[[136.0799850781201,35.94813844199517],[136.0800584678806,35.948192798530116],[136.0802573095673,35.94819142764381],[136.08029461950224,35.948138235657375],[136.0799850781201,35.94813844199517]]]}},{"type":"Feature","properties":{"pid":"4ad2603e-4f95-473d-89f7-def523e1637a"},"geometry":{"type":"Polygon","coordinates":[[[136.07776348163975,35.94715787068109],[136.07781570642126,35.94720926415034],[136.07804977057108,35.9467955565571],[136.07798705368873,35.946775591648546],[136.07776348163975,35.94715787068109]]]}},{"type":"Feature","properties":{"pid":"c024e2bf-df15-4505-b2ff-93d6657107b6"},"geometry":{"type":"Polygon","coordinates":[[[136.0779457219786,35.94729473608338],[136.07798118831536,35.94730770586027],[136.07823132157046,35.94687377643157],[136.07820447442148,35.946866412139435],[136.0779457219786,35.94729473608338]]]}},{"type":"Feature","properties":{"pid":"fd8561cc-ce04-490d-9d43-7529c4c16d4b"},"geometry":{"type":"Polygon","coordinates":[[[136.07765774741574,35.94707679605782],[136.07787189120472,35.94672660518154],[136.07783751193534,35.946711833739194],[136.07762391592092,35.94704919914821],[136.07765774741574,35.94707679605782]]]}},{"type":"Feature","properties":{"pid":"0b661a5b-6df5-4504-9aec-fbc2bd303bc9"},"geometry":{"type":"Polygon","coordinates":[[[136.0776286975829,35.94645577179711],[136.0777220724381,35.946494318179354],[136.07792007246547,35.94616526772247],[136.077830281366,35.946121947083334],[136.0776286975829,35.94645577179711]]]}},{"type":"Feature","properties":{"pid":"02f54ae3-9c09-4696-bd1e-ccd5ed2d208c"},"geometry":{"type":"Polygon","coordinates":[[[136.07784528093995,35.94654576255831],[136.07787529409708,35.94655842817435],[136.07807226134142,35.94622685643534],[136.07804774100666,35.94621584749032],[136.07784528093995,35.94654576255831]]]}},{"type":"Feature","properties":{"pid":"fd6adead-4d58-4aa1-b90e-bf6717fb3839"},"geometry":{"type":"Polygon","coordinates":[[[136.07798296241273,35.94660676077738],[136.07802427905162,35.94662322042256],[136.078209114495,35.94630668870803],[136.07818020189382,35.946288634258536],[136.07798296241273,35.94660676077738]]]}},{"type":"Feature","properties":{"pid":"623e3d79-4b3e-4400-a446-8cb560f32172"},"geometry":{"type":"Polygon","coordinates":[[[136.07813810167784,35.94667169078461],[136.07816699801796,35.9466828227023],[136.07834561313246,35.946391761859665],[136.0783118383369,35.946370055308535],[136.07813810167784,35.94667169078461]]]}},{"type":"Feature","properties":{"pid":"c7203d35-0e67-4259-b173-0f508fe8c1a1"},"geometry":{"type":"Polygon","coordinates":[[[136.0782821791086,35.9467268271714],[136.07831767179295,35.94674150570657],[136.07849241786982,35.94645919175339],[136.07845625301448,35.946445626727666],[136.0782821791086,35.9467268271714]]]}},{"type":"Feature","properties":{"pid":"ff6071a6-aaba-41e3-b5af-d6fb152a2dbe"},"geometry":{"type":"Polygon","coordinates":[[[136.07884231914772,35.94658986909568],[136.07860801009588,35.94650064388582],[136.07844029083606,35.94678291012515],[136.07865155491623,35.94686264849975],[136.07884231914772,35.94658986909568]]]}},{"type":"Feature","properties":{"pid":"a9926f12-fe8e-4e52-8902-3cb77b0515ba"},"geometry":{"type":"Polygon","coordinates":[[[136.0781144591817,35.947333932704396],[136.07826892344315,35.947375341463555],[136.0785841788988,35.94700219854054],[136.07835624992728,35.946922944192174],[136.0781144591817,35.947333932704396]]]}},{"type":"Feature","properties":{"pid":"bc6143cb-10e4-43f5-a2cf-00a59c4dcb2f"},"geometry":{"type":"Polygon","coordinates":[[[136.07922394306178,35.94699064223685],[136.07964899119767,35.94699498526127],[136.07965166450632,35.946908424033666],[136.0792975848677,35.94690637608969],[136.07922394306178,35.94699064223685]]]}},{"type":"Feature","properties":{"pid":"8317270e-da1b-4eeb-b617-52d01d8a6e9d"},"geometry":{"type":"Polygon","coordinates":[[[136.07921647285508,35.947092148155086],[136.07921390924537,35.94717831677012],[136.07964138324758,35.94718846070853],[136.07964311457948,35.94709418600434],[136.07921647285508,35.947092148155086]]]}},{"type":"Feature","properties":{"pid":"b767d5eb-c781-4719-a0f6-f598a9cadff9"},"geometry":{"type":"Polygon","coordinates":[[[136.07981870444513,35.947187813118795],[136.08025564470324,35.94719567627834],[136.08025734129373,35.94710633326035],[136.07982039350512,35.947099635326374],[136.07981870444513,35.947187813118795]]]}},{"type":"Feature","properties":{"pid":"ae148109-e565-4c71-9406-4afd530949f0"},"geometry":{"type":"Polygon","coordinates":[[[136.07982486918115,35.94699767186597],[136.0802650038876,35.947003206897996],[136.08026738158173,35.946928732792124],[136.07982820240443,35.94691502180904],[136.07982486918115,35.94699767186597]]]}},{"type":"Feature","properties":{"pid":"2dd35138-c3da-40b5-a52a-74e66efedee6"},"geometry":{"type":"Polygon","coordinates":[[[136.0798335758123,35.94680534597585],[136.0802696448549,35.94681435570767],[136.08027132318227,35.94672748844803],[136.0798370540839,35.94671612420153],[136.0798335758123,35.94680534597585]]]}},{"type":"Feature","properties":{"pid":"f53715bd-a3f0-4071-ae26-16adfe9581a3"},"geometry":{"type":"Polygon","coordinates":[[[136.07984299009559,35.94661372430824],[136.0802732985478,35.94662041136707],[136.08027743422005,35.9464559969356],[136.0798436547254,35.94656180685586],[136.07984299009559,35.94661372430824]]]}},{"type":"Feature","properties":{"pid":"06b42fb2-94ed-448f-a4f5-aad8aea461e0"},"geometry":{"type":"Polygon","coordinates":[[[136.07949294265464,35.94669570798142],[136.07939177956854,35.946795406974616],[136.07964598589996,35.94679785548888],[136.07964791073132,35.94660489681724],[136.07949294265464,35.94669570798142]]]}},{"type":"Feature","properties":{"pid":"4df5cbbd-3f7f-40f3-bfdd-38473b7489d2"},"geometry":{"type":"Polygon","coordinates":[[[136.07909528332982,35.94607504082112],[136.07925296814372,35.94601239800745],[136.07929213374516,35.94600164514899],[136.07928294807408,35.945987952321374],[136.0790952129911,35.94600451601279],[136.07909528332982,35.94607504082112]]]}},{"type":"Feature","properties":{"pid":"20e5e6bc-ca54-4d28-b99d-f5a4978fe2e3"},"geometry":{"type":"Polygon","coordinates":[[[136.07965495047307,35.945686773582395],[136.07971667745298,35.94574124161427],[136.07984188502576,35.94564346234316],[136.07982118125165,35.94561918889388],[136.07965495047307,35.945686773582395]]]}},{"type":"Feature","properties":{"pid":"4db34144-4457-4286-9259-5a7847fbf2c1"},"geometry":{"type":"Polygon","coordinates":[[[136.0799044840156,35.94549818252129],[136.0799683898251,35.945569773215254],[136.08006887231642,35.94552546725873],[136.0801219763408,35.94551854807672],[136.08011262261584,35.94544966215968],[136.07995766695956,35.94544883658721],[136.0799044840156,35.94549818252129]]]}},{"type":"Feature","properties":{"pid":"b0fb3cf4-678d-45bc-9641-74ee56f98e2b"},"geometry":{"type":"Polygon","coordinates":[[[136.0794434832556,35.94593235026901],[136.07950458473243,35.94588239311954],[136.07960880984484,35.94581433262348],[136.07956412858536,35.94577343643403],[136.07948407582552,35.945873648980104],[136.07942615348267,35.94591210197434],[136.0794434832556,35.94593235026901]]]}},{"type":"Feature","properties":{"pid":"31c2fd5b-ca3d-4baf-8e48-e5180c0ea12f"},"geometry":{"type":"Polygon","coordinates":[[[136.07881584398433,35.946054052124126],[136.07884140551676,35.94607921464018],[136.07895559739603,35.94611434618926],[136.07895364785523,35.94598826149953],[136.078881874332,35.945981507461646],[136.07881584398433,35.946054052124126]]]}},{"type":"Feature","properties":{"pid":"e9daa810-01ad-4f8f-bd45-258f1a812029"},"geometry":{"type":"Polygon","coordinates":[[[136.07755036763788,35.94574162452025],[136.0775167811022,35.94578321937224],[136.07803918324845,35.94597781035707],[136.0780749578538,35.94594792011316],[136.07755036763788,35.94574162452025]]]}},{"type":"Feature","properties":{"pid":"96fa5dd5-1f97-4f26-abf6-c7f15675ba31"},"geometry":{"type":"Polygon","coordinates":[[[136.07833419065616,35.944590287348746],[136.07837733666318,35.94499366868284],[136.07852950503164,35.94500067116276],[136.07855205472433,35.944957351420015],[136.07854684077253,35.9447633498625],[136.07848505856535,35.94457377968694],[136.07833419065616,35.944590287348746]]]}},{"type":"Feature","properties":{"pid":"61448ae6-b233-4798-ade3-6b38cd7f908b"},"geometry":{"type":"Polygon","coordinates":[[[136.07819148187704,35.94494270161],[136.078254126414,35.944960567960365],[136.07821545857445,35.94460230109404],[136.0781655567498,35.944605444449785],[136.07819148187704,35.94494270161]]]}},{"type":"Feature","properties":{"pid":"385cb8f2-e84f-43d2-9f21-c0735e8f1b38"},"geometry":{"type":"Polygon","coordinates":[[[136.0780235790124,35.944894622425636],[136.07807272955742,35.94490897880755],[136.07804914815014,35.94461367774839],[136.07799157820455,35.94461792671238],[136.0780235790124,35.944894622425636]]]}},{"type":"Feature","properties":{"pid":"9a84bd09-dbb6-4d6a-ab73-7c593b6517fb"},"geometry":{"type":"Polygon","coordinates":[[[136.0778335803659,35.94495740518851],[136.07790830475423,35.94492721154154],[136.07787414124482,35.944627432834544],[136.0778002802197,35.94463556630705],[136.0778335803659,35.94495740518851]]]}},{"type":"Feature","properties":{"pid":"fd5aef01-3584-4918-909d-a3077537aa32"},"geometry":{"type":"Polygon","coordinates":[[[136.07775327369217,35.943779530603194],[136.07784494283428,35.94446638735475],[136.0784339968032,35.944431037772134],[136.07840323033793,35.944325980531545],[136.07826611538087,35.94416974520593],[136.07799715996822,35.94393191935395],[136.07785501932457,35.94386075560464],[136.07775327369217,35.943779530603194]]]}},{"type":"Feature","properties":{"pid":"ba50809b-3624-48f6-9cb4-120524ba807e"},"geometry":{"type":"Polygon","coordinates":[[[136.07992927700838,35.94516487759693],[136.07988821398604,35.94524390186886],[136.08005841020594,35.94525374426291],[136.08006565071094,35.94522793474589],[136.0800608244582,35.94521398719083],[136.07992927700838,35.94516487759693]]]}},{"type":"Feature","properties":{"pid":"44967ad7-8578-49f8-b6f4-e33d1ced0ff6"},"geometry":{"type":"Polygon","coordinates":[[[136.08075116224117,35.94533697442917],[136.0807803273095,35.945403443010086],[136.08095412637306,35.94534611726684],[136.0809006963603,35.94529632384106],[136.08075116224117,35.94533697442917]]]}},{"type":"Feature","properties":{"pid":"6c6ac389-7b23-483b-b7bf-f1a4a8e37316"},"geometry":{"type":"Polygon","coordinates":[[[136.07889956136313,35.941915418903875],[136.07890549250615,35.94194117361944],[136.0790575550745,35.941880483250394],[136.07904606164996,35.9418039154448],[136.07893452500448,35.94182134426894],[136.0789399979203,35.94188584384165],[136.07889956136313,35.941915418903875]]]}},{"type":"Feature","properties":{"pid":"8b524b62-db52-49ab-b39d-88f3df881269"},"geometry":{"type":"Polygon","coordinates":[[[136.0785038574177,35.94226687659489],[136.07855191149247,35.94234487330238],[136.0788669613175,35.94223498196952],[136.07881989361772,35.94216193328691],[136.0785038574177,35.94226687659489]]]}},{"type":"Feature","properties":{"pid":"b6fff237-4e47-497f-9b62-85be2514cf35"},"geometry":{"type":"Polygon","coordinates":[[[136.0765227600737,35.94331070834328],[136.0765324432982,35.9434269071959],[136.07658121001515,35.94342335497625],[136.07658400889238,35.94330655882879],[136.0765227600737,35.94331070834328]]]}},{"type":"Feature","properties":{"pid":"b6591900-e0ed-42f3-87d1-0acee4eb1eb7"},"geometry":{"type":"Polygon","coordinates":[[[136.07608491750793,35.943161789514846],[136.076157257427,35.943056281164814],[136.0760943127742,35.94299910466175],[136.07599408343205,35.943118300168194],[136.07608491750793,35.943161789514846]]]}},{"type":"Feature","properties":{"pid":"89ff8583-a67b-4e1e-bb7c-7d7b57f3a54f"},"geometry":{"type":"Polygon","coordinates":[[[136.07557028259262,35.943136349168356],[136.07561194399383,35.94314553585808],[136.07577828135015,35.94326195236136],[136.0759373924463,35.94329642868166],[136.07596642828042,35.943252567891335],[136.07566515273083,35.94312199271191],[136.07558463047314,35.94310076817003],[136.07557028259262,35.943136349168356]]]}},{"type":"Feature","properties":{"pid":"c4ff4d8c-97f5-4202-88d6-f52c1966a49f"},"geometry":{"type":"Polygon","coordinates":[[[136.07618438642106,35.94343018102473],[136.07619703251635,35.943319947155985],[136.07610312979378,35.94329860387084],[136.07605681683026,35.94337256164207],[136.07613021410378,35.943427834666664],[136.07618438642106,35.94343018102473]]]}},{"type":"Feature","properties":{"pid":"0ace3af0-226f-4302-bd22-8633b8555005"},"geometry":{"type":"Polygon","coordinates":[[[136.07640680143658,35.94343605872407],[136.07639843650776,35.94331913131922],[136.0763379327119,35.943323230169405],[136.0763273508183,35.94344184594628],[136.07640680143658,35.94343605872407]]]}},{"type":"Feature","properties":{"pid":"9c3f37f6-87bf-4c36-85aa-065784321d26"},"geometry":{"type":"Polygon","coordinates":[[[136.0752773421795,35.94301247793108],[136.07543422116763,35.94314067880899],[136.07549031985576,35.9428976170064],[136.0753298125857,35.94298728969248],[136.0752773421795,35.94301247793108]]]}},{"type":"Feature","properties":{"pid":"630d5151-7a63-482f-99bc-7153af54717b"},"geometry":{"type":"Polygon","coordinates":[[[136.07607068316915,35.94193715526966],[136.07623097439728,35.94190657694017],[136.07622833572097,35.94187099730214],[136.0760603583083,35.941876380265],[136.07607068316915,35.94193715526966]]]}},{"type":"Feature","properties":{"pid":"9ed198b6-3e1e-4afb-b70d-93d46d6ffd3f"},"geometry":{"type":"Polygon","coordinates":[[[136.07569377832291,35.94189957156895],[136.07572058317513,35.94203207731547],[136.07577767193874,35.94201623318438],[136.0757581023103,35.94188884641888],[136.07569377832291,35.94189957156895]]]}},{"type":"Feature","properties":{"pid":"66cf5351-82ca-4d1f-a446-b52360155d56"},"geometry":{"type":"Polygon","coordinates":[[[136.0754740072216,35.94191721028723],[136.07555447053645,35.94208132953323],[136.07560339592175,35.94206576786489],[136.07557927977362,35.94192832080685],[136.07554506121576,35.94190915194939],[136.0754740072216,35.94191721028723]]]}},{"type":"Feature","properties":{"pid":"5c20c35c-2604-49b3-81e6-617e24079d90"},"geometry":{"type":"Polygon","coordinates":[[[136.0775513758907,35.944038878759066],[136.07753039091142,35.943881976616034],[136.07715803167508,35.94389983477656],[136.07714280121303,35.94406071747795],[136.0775513758907,35.944038878759066]]]}},{"type":"Feature","properties":{"pid":"8269a02d-b8c4-413b-ab9d-1ccb11bbdaa4"},"geometry":{"type":"Polygon","coordinates":[[[136.0771767094695,35.943797924606706],[136.07751527545494,35.9437825234739],[136.077493714459,35.943720340341486],[136.07719383512895,35.94368802396251],[136.0771767094695,35.943797924606706]]]}},{"type":"Feature","properties":{"pid":"c24e485c-f375-492e-8816-c01e07e86416"},"geometry":{"type":"Polygon","coordinates":[[[136.07710888446604,35.94452275748305],[136.0776101386412,35.94448517171916],[136.0775620015232,35.94414534403456],[136.07713040434265,35.94416826607309],[136.07710888446604,35.94452275748305]]]}},{"type":"Feature","properties":{"pid":"8075f76a-2fb5-4b3b-9823-c85b3e8facd9"},"geometry":{"type":"Polygon","coordinates":[[[136.07709978419484,35.94495053814389],[136.07764644645263,35.94491670018307],[136.07763088344439,35.94469007570281],[136.0775858316276,35.94466449916613],[136.07711097229253,35.94469532273847],[136.07709978419484,35.94495053814389]]]}},{"type":"Feature","properties":{"pid":"865931d5-0a80-4f89-89fb-2526905bdcb4"},"geometry":{"type":"Polygon","coordinates":[[[136.07757917858822,35.94519107424102],[136.0770904688887,35.945217666054376],[136.07708889380905,35.94529862172226],[136.07704641120546,35.945449543482255],[136.0770464798177,35.945521046240735],[136.07719353599458,35.94555361067088],[136.07726116080735,35.94543127676107],[136.07757917858822,35.94519107424102]]]}},{"type":"Feature","properties":{"pid":"88d2ded6-1620-4b58-81eb-e965f747b94c"},"geometry":{"type":"Polygon","coordinates":[[[136.0775995329463,35.94501879634429],[136.07709706194797,35.94505326047722],[136.07709522454346,35.945109384817584],[136.07763529432785,35.9450858435561],[136.07760388035797,35.94506115488608],[136.0775995329463,35.94501879634429]]]}},{"type":"Feature","properties":{"pid":"becad09f-cef1-4fc7-aa54-11d04b148d94"},"geometry":{"type":"Polygon","coordinates":[[[136.0771370523087,35.945941146111714],[136.07719683991715,35.945942566023376],[136.0771906815495,35.945780987422744],[136.07715170768518,35.94576062361537],[136.0771370523087,35.945941146111714]]]}},{"type":"Feature","properties":{"pid":"8b39e031-4b95-4d11-bfbb-085650eaa7a9"},"geometry":{"type":"Polygon","coordinates":[[[136.07747082051003,35.94637375640058],[136.07751527388893,35.94639668799176],[136.0777201454348,35.94606114863786],[136.07767276542032,35.9460353904727],[136.07747082051003,35.94637375640058]]]}},{"type":"Feature","properties":{"pid":"9cc748c4-dfe1-4330-85a0-4c4e921f5af4"},"geometry":{"type":"Polygon","coordinates":[[[136.07743198902295,35.94619931829439],[136.07757191492792,35.94595883084193],[136.07745819755957,35.94591985250893],[136.07745788230827,35.94597341731471],[136.07743198902295,35.94619931829439]]]}},{"type":"Feature","properties":{"pid":"b9d60874-bcf3-40de-bdc1-2dfa06f6d21c"},"geometry":{"type":"Polygon","coordinates":[[[136.07709700234213,35.946267551832634],[136.07720462690037,35.94625792151148],[136.0772006806108,35.94621349250607],[136.07718809200776,35.94619561144166],[136.0771022684234,35.94619425667769],[136.07709700234213,35.946267551832634]]]}},{"type":"Feature","properties":{"pid":"6ac2fe7d-6b51-4b30-974c-785cc2d49b8d"},"geometry":{"type":"Polygon","coordinates":[[[136.07754049071576,35.94694037892981],[136.07771784304842,35.94666624738215],[136.07764789902888,35.946635925651],[136.07754892081974,35.94678381338902],[136.07746452009923,35.94680990646635],[136.07754049071576,35.94694037892981]]]}},{"type":"Feature","properties":{"pid":"a004e46a-81c9-4f37-9b58-435fe0d8bf5b"},"geometry":{"type":"Polygon","coordinates":[[[136.0754266121191,35.94129961239848],[136.07545632459502,35.94160518722806],[136.0755608267915,35.94159016270836],[136.0755234889563,35.941280349250384],[136.0754266121191,35.94129961239848]]]}},{"type":"Feature","properties":{"pid":"0c25385c-492a-4f5b-9484-ce7672bab610"},"geometry":{"type":"Polygon","coordinates":[[[136.07586818871783,35.941250759882074],[136.07591044699987,35.94160976768326],[136.07597412875316,35.941607676624045],[136.07593700012094,35.94123995377153],[136.07586818871783,35.941250759882074]]]}},{"type":"Feature","properties":{"pid":"e814ed23-f650-4673-b2c5-1ee68709bb97"},"geometry":{"type":"Polygon","coordinates":[[[136.07706494889047,35.94114481649911],[136.07712407987273,35.941543435983704],[136.0771898627429,35.94153972209199],[136.07714083343217,35.941155051409325],[136.07706494889047,35.94114481649911]]]}},{"type":"Feature","properties":{"pid":"c8b63efb-f05c-4d10-b155-031e5d969447"},"geometry":{"type":"Polygon","coordinates":[[[136.07732753438765,35.941533721345465],[136.07768453567087,35.94151514862681],[136.07765696401484,35.941218335615496],[136.07727570743725,35.941164785638584],[136.07732753438765,35.941533721345465]]]}},{"type":"Feature","properties":{"pid":"2b4531f1-dc13-461e-aadf-3208d6434d4b"},"geometry":{"type":"Polygon","coordinates":[[[136.07651284505957,35.94119596447577],[136.07655143327835,35.941584945619454],[136.07669806997907,35.941578492076985],[136.07665083250689,35.94117257931467],[136.07651284505957,35.94119596447577]]]}},{"type":"Feature","properties":{"pid":"1b661b8d-6dcd-4517-9df3-73305545ed81"},"geometry":{"type":"Polygon","coordinates":[[[136.08252097337868,35.95596584051588],[136.08299362820267,35.95592974554918],[136.08296001705187,35.95570813540618],[136.0824845366925,35.95574873885659],[136.08252097337868,35.95596584051588]]]}},{"type":"Feature","properties":{"pid":"f70730c4-6c69-494f-8e2d-4b9f1b2b5990"},"geometry":{"type":"Polygon","coordinates":[[[136.08226687562416,35.955614981549004],[136.0824160385458,35.955606303590834],[136.082396314859,35.95548779292711],[136.08231194782115,35.95549492357859],[136.08231221059228,35.955551941131304],[136.08226687562416,35.955614981549004]]]}},{"type":"Feature","properties":{"pid":"96cc58ea-a079-4409-895a-41edcf28b581"},"geometry":{"type":"Polygon","coordinates":[[[136.08247760483098,35.95518914376167],[136.08242843361137,35.95528116256967],[136.0823496560809,35.95536613729428],[136.0827427068978,35.95533000920065],[136.0827306681479,35.95517686551108],[136.08247760483098,35.95518914376167]]]}},{"type":"Feature","properties":{"pid":"55b4df0f-5400-4fba-bb18-39a28e15466f"},"geometry":{"type":"Polygon","coordinates":[[[136.08246042233418,35.95504294758838],[136.0826229828804,35.95503307932673],[136.0825907829715,35.954900201700575],[136.08252418283757,35.954948830119115],[136.08246042233418,35.95504294758838]]]}},{"type":"Feature","properties":{"pid":"378ec75a-e95d-44f6-ad36-f2b40d69620d"},"geometry":{"type":"Polygon","coordinates":[[[136.08281305433619,35.954315748439505],[136.0828021216155,35.95413590192779],[136.08263933240588,35.954145731395116],[136.08281305433619,35.954315748439505]]]}},{"type":"Feature","properties":{"pid":"9dc39679-7c1d-4ba8-aae3-8bebf1bdb3ba"},"geometry":{"type":"Polygon","coordinates":[[[136.08263253818032,35.95401975819474],[136.0826116980175,35.95385591725188],[136.08256569257736,35.95386046365276],[136.08258139030923,35.954024566066416],[136.08263253818032,35.95401975819474]]]}},{"type":"Feature","properties":{"pid":"efba7ad8-a6e9-47b4-8024-02a90f35354f"},"geometry":{"type":"Polygon","coordinates":[[[136.0821716975624,35.95368957465501],[136.08228909012158,35.95377500170033],[136.08264357561075,35.95374023346708],[136.08232325213086,35.95370898682837],[136.0821716975624,35.95368957465501]]]}},{"type":"Feature","properties":{"pid":"02f770b0-831b-4b40-b92b-ca124395567b"},"geometry":{"type":"Polygon","coordinates":[[[136.08181586405425,35.95307395630815],[136.08191233818187,35.95292713961084],[136.08175858429746,35.95286279120529],[136.0816401079418,35.953054412973145],[136.08181586405425,35.95307395630815]]]}},{"type":"Feature","properties":{"pid":"a541b8fe-5d03-46e3-8422-00ff3cbde82d"},"geometry":{"type":"Polygon","coordinates":[[[136.081984529703,35.95308602836708],[136.08206101089513,35.953097360475866],[136.0822666297557,35.953089169415485],[136.08204765326013,35.95299063986741],[136.081984529703,35.95308602836708]]]}},{"type":"Feature","properties":{"pid":"09405039-3b76-44ef-8f81-81a07d3cbe4c"},"geometry":{"type":"Polygon","coordinates":[[[136.08140028687689,35.9530118559317],[136.08150435737713,35.953033451032574],[136.08163401224678,35.95281743566147],[136.08156626521944,35.95277916407131],[136.08140028687689,35.9530118559317]]]}},{"type":"Feature","properties":{"pid":"7fc668c8-a3a7-45fd-b9a9-96cbb1932fe8"},"geometry":{"type":"Polygon","coordinates":[[[136.08139129613303,35.95276251710714],[136.08142221524614,35.95272206622329],[136.08102360891826,35.95253178312735],[136.080995577053,35.952578250120894],[136.08139129613303,35.95276251710714]]]}},{"type":"Feature","properties":{"pid":"9a70bf16-a6e9-4325-a49f-c7c0574ad5c1"},"geometry":{"type":"Polygon","coordinates":[[[136.08088708049436,35.95274048517145],[136.08126961615164,35.952911389593446],[136.08130400188753,35.95286674862069],[136.0813005310766,35.95284367709277],[136.08092789151758,35.95267398209245],[136.08088708049436,35.95274048517145]]]}},{"type":"Feature","properties":{"pid":"658592b2-b727-4310-8c13-d5901a4b8ff2"},"geometry":{"type":"Polygon","coordinates":[[[136.0803634466784,35.95249909877969],[136.08074191900366,35.9526612629477],[136.0807769361474,35.952605987109436],[136.0804051212081,35.9524387439185],[136.0803634466784,35.95249909877969]]]}},{"type":"Feature","properties":{"pid":"97e41fcf-ad0b-436d-8317-668057dd1d2f"},"geometry":{"type":"Polygon","coordinates":[[[136.07987984745986,35.95228305973533],[136.08006686818814,35.9524162791143],[136.0802097492788,35.952464353410214],[136.0802285535802,35.95243973606744],[136.07987984745986,35.95228305973533]]]}},{"type":"Feature","properties":{"pid":"892ff883-26a9-49a3-9fd3-e0a9a52f49de"},"geometry":{"type":"Polygon","coordinates":[[[136.07963111354746,35.95195085156832],[136.0796924895583,35.95210817991588],[136.07971643487014,35.952145183718095],[136.07981369637176,35.951996346196125],[136.07965188281025,35.95192109680248],[136.07963111354746,35.95195085156832]]]}},{"type":"Feature","properties":{"pid":"93dbb667-42f1-4650-8a31-1678c91a0e22"},"geometry":{"type":"Polygon","coordinates":[[[136.07984551919355,35.951848937903335],[136.07991617386435,35.95188711633996],[136.08009961434155,35.95160520027214],[136.0800223765598,35.951572913507725],[136.07984551919355,35.951848937903335]]]}},{"type":"Feature","properties":{"pid":"9ae7c5d0-64f4-47a2-a798-d1bf3ef72e75"},"geometry":{"type":"Polygon","coordinates":[[[136.0794120727841,35.95182088168915],[136.07945133143727,35.951975804115754],[136.07960024114072,35.95225846395967],[136.079606352404,35.95223061113845],[136.0794407056193,35.951915859201335],[136.0794120727841,35.95182088168915]]]}},{"type":"Feature","properties":{"pid":"6c436683-6a38-40b2-bad7-5297476c0af0"},"geometry":{"type":"Polygon","coordinates":[[[136.07995096412085,35.95133508065811],[136.0802102423749,35.951444988950996],[136.08039147230977,35.95116666075195],[136.0801399512587,35.951045754473164],[136.07995096412085,35.95133508065811]]]}},{"type":"Feature","properties":{"pid":"5f94f354-10e9-4fbc-a7af-ad3dc1eb32bb"},"geometry":{"type":"Polygon","coordinates":[[[136.07960348885985,35.95113044101409],[136.07964429639725,35.95116731376457],[136.07981401866795,35.95090052186789],[136.07965063481888,35.95081152162919],[136.0796230785948,35.950928149164696],[136.07960348885985,35.95113044101409]]]}},{"type":"Feature","properties":{"pid":"e130e336-61c6-4d3b-a2f0-010a08a8fd82"},"geometry":{"type":"Polygon","coordinates":[[[136.07976773892997,35.951237255052945],[136.07983464146508,35.95126929861399],[136.08001155971868,35.95098939674814],[136.07994439119682,35.95096126512441],[136.07976773892997,35.951237255052945]]]}},{"type":"Feature","properties":{"pid":"8fa251a3-c67d-4318-9873-3c2421615949"},"geometry":{"type":"Polygon","coordinates":[[[136.07971856677764,35.95003144517613],[136.08005699200808,35.95001994871449],[136.08005629707753,35.949970146695506],[136.07974469513755,35.94997380895871],[136.07972150450857,35.95000005554948],[136.07971856677764,35.95003144517613]]]}},{"type":"Feature","properties":{"pid":"d1bd0773-de18-4a4c-87c5-bb0481c2984f"},"geometry":{"type":"Polygon","coordinates":[[[136.07969878790536,35.95068604381309],[136.07985071355938,35.95075722804136],[136.08003542645807,35.950482723676835],[136.07989035163473,35.95042282222164],[136.07980628333408,35.950432236961575],[136.0797573302214,35.950491010683194],[136.07969878790536,35.95068604381309]]]}},{"type":"Feature","properties":{"pid":"b9923143-5c42-4a6d-bb00-0eb3d92f03fe"},"geometry":{"type":"Polygon","coordinates":[[[136.07996322243437,35.95081237816401],[136.0800933819356,35.95087050527102],[136.0802862735779,35.950592486764265],[136.08015511956035,35.95052576126752],[136.07996322243437,35.95081237816401]]]}},{"type":"Feature","properties":{"pid":"993289a3-af69-463d-b548-0d8b65859142"},"geometry":{"type":"Polygon","coordinates":[[[136.08031016305551,35.95038824678499],[136.08039438074616,35.95042730239297],[136.08049255750123,35.95029508856182],[136.08038140140036,35.9502997532719],[136.08031016305551,35.95038824678499]]]}},{"type":"Feature","properties":{"pid":"8975911f-3442-467d-9b3d-edcf7e0bb92c"},"geometry":{"type":"Polygon","coordinates":[[[136.08053556227404,35.95047455332394],[136.08062021129663,35.95050889635638],[136.08078525707188,35.95029029585297],[136.0806694091738,35.95029642971522],[136.08053556227404,35.95047455332394]]]}},{"type":"Feature","properties":{"pid":"aa1fd92a-93e4-4201-815e-83a953c63f17"},"geometry":{"type":"Polygon","coordinates":[[[136.0809496739618,35.95027978027734],[136.08075482545604,35.95056610356863],[136.08090866852382,35.950381435267545],[136.08101676561387,35.950281015751486],[136.0809496739618,35.95027978027734]]]}},{"type":"Feature","properties":{"pid":"91ea7053-e223-4dfd-a9fe-636488f4a273"},"geometry":{"type":"Polygon","coordinates":[[[136.08081895633126,35.94987092304771],[136.0808162776207,35.949969592803726],[136.08090197105383,35.94996761731879],[136.08090653918427,35.949872789213245],[136.08081895633126,35.94987092304771]]]}},{"type":"Feature","properties":{"pid":"b1e4c30c-c5e0-400d-9b6a-3f7a4661b026"},"geometry":{"type":"Polygon","coordinates":[[[136.0802309113947,35.95001382448312],[136.08064273823655,35.94998362797041],[136.0806413977387,35.949820398846086],[136.08022927379918,35.949822278989245],[136.0802309113947,35.95001382448312]]]}},{"type":"Feature","properties":{"pid":"e1a0c729-e578-42f9-895a-3b8109827261"},"geometry":{"type":"Polygon","coordinates":[[[136.0802458110699,35.949692328196804],[136.08064234162464,35.949692062318654],[136.08064653913183,35.94963380020592],[136.08028824917878,35.949628440371335],[136.08025085719538,35.94965132308993],[136.0802458110699,35.949692328196804]]]}},{"type":"Feature","properties":{"pid":"5081cfa5-3758-473d-84b6-b78ed0a61fbd"},"geometry":{"type":"Polygon","coordinates":[[[136.0803733817066,35.94947177245706],[136.08064306721022,35.9494772870762],[136.08064247695796,35.949442968794735],[136.08039374015192,35.94943899242209],[136.0803733817066,35.94947177245706]]]}},{"type":"Feature","properties":{"pid":"c366c6f5-2c16-41a1-b5c3-3f1e83296055"},"geometry":{"type":"Polygon","coordinates":[[[136.08042522038798,35.94933843716797],[136.08062803160394,35.949338301381545],[136.08064602763622,35.949324648220895],[136.08064772071072,35.94926179924043],[136.08044371431217,35.949261378725254],[136.08042522038798,35.94933843716797]]]}},{"type":"Feature","properties":{"pid":"4629526d-d434-4ea3-946b-131548ca1618"},"geometry":{"type":"Polygon","coordinates":[[[136.08041659887581,35.94905698445276],[136.08043291969156,35.949145962466034],[136.08065472039806,35.949147910378066],[136.0806555191949,35.949059738716414],[136.08041659887581,35.94905698445276]]]}},{"type":"Feature","properties":{"pid":"a22d9bb4-6b8b-4956-911a-cf3630897d67"},"geometry":{"type":"Polygon","coordinates":[[[136.08121899918493,35.949084957814186],[136.08121822018597,35.94917095792106],[136.0813015199411,35.949170217242106],[136.0813240110258,35.949143781997726],[136.0813732317507,35.94913158666024],[136.0813720145432,35.949089115375955],[136.08121899918493,35.949084957814186]]]}},{"type":"Feature","properties":{"pid":"71c168f6-379b-44cc-a4d4-e9972a954c0d"},"geometry":{"type":"Polygon","coordinates":[[[136.0808242333929,35.949449174905276],[136.0808255466243,35.94949202061459],[136.08135152614577,35.94950028520542],[136.08131202308854,35.94947963406922],[136.08128783923377,35.94944018147082],[136.0808242333929,35.949449174905276]]]}},{"type":"Feature","properties":{"pid":"7314bcb4-8a6b-49a1-88c1-b6cf97f45deb"},"geometry":{"type":"Polygon","coordinates":[[[136.08082694984535,35.94973216185232],[136.08091803780619,35.949733422933214],[136.08091881314635,35.94964789342841],[136.08082624249866,35.949650693050145],[136.08082694984535,35.94973216185232]]]}},{"type":"Feature","properties":{"pid":"535dd197-8213-4201-bde3-9fc87258b3af"},"geometry":{"type":"Polygon","coordinates":[[[136.0801364521335,35.95188499073928],[136.0802874757205,35.95195539785353],[136.08032829223606,35.951974655405714],[136.0801780284925,35.95181861116287],[136.0801364521335,35.95188499073928]]]}},{"type":"Feature","properties":{"pid":"e69d3311-0a27-4d2f-8329-57f6eb5af3fa"},"geometry":{"type":"Polygon","coordinates":[[[136.0829011177854,35.95374851392654],[136.08292350920024,35.95397044341934],[136.08299948551516,35.95395080407534],[136.08307820857618,35.95395416006259],[136.0830622578019,35.953798703999006],[136.0829011177854,35.95374851392654]]]}},{"type":"Feature","properties":{"pid":"6da8a50f-60b6-4eb5-a1c3-801d7de06b8f"},"geometry":{"type":"Polygon","coordinates":[[[136.0829386924138,35.95412162699324],[136.08295875402098,35.95437592222407],[136.08299486987497,35.95437269387543],[136.08297302044235,35.95411746776854],[136.0829386924138,35.95412162699324]]]}},{"type":"Feature","properties":{"pid":"89c8ff18-81c6-4743-94eb-45628ee26581"},"geometry":{"type":"Polygon","coordinates":[[[136.08313104575592,35.95410972528102],[136.0831052428396,35.95411138863363],[136.08312892002428,35.95434947668538],[136.08315630659598,35.95434902957727],[136.08313104575592,35.95410972528102]]]}},{"type":"Feature","properties":{"pid":"be78aa94-a7ba-4873-80cf-1fffc62e9fd0"},"geometry":{"type":"Polygon","coordinates":[[[136.08327614381938,35.95409490119656],[136.08330099339722,35.954341173094356],[136.08332786534316,35.954338002027995],[136.08330626545367,35.9540934941706],[136.08327614381938,35.95409490119656]]]}},{"type":"Feature","properties":{"pid":"331cc0e8-8b27-4ac1-b8b3-6a4de05e3fa5"},"geometry":{"type":"Polygon","coordinates":[[[136.0834876641829,35.95432173414816],[136.08352265654415,35.95432015786322],[136.08348551920264,35.954069294874664],[136.08345562349328,35.954073055544306],[136.0834876641829,35.95432173414816]]]}},{"type":"Feature","properties":{"pid":"09abfeea-dddf-4534-86f3-cc96e5f10f29"},"geometry":{"type":"Polygon","coordinates":[[[136.08431044821018,35.954669814687406],[136.08430098183257,35.95502477993358],[136.08444816044292,35.95504504159197],[136.08445763676423,35.95498854233673],[136.08441064514085,35.95481767751543],[136.08431044821018,35.954669814687406]]]}},{"type":"Feature","properties":{"pid":"44de27f0-989e-46d3-9069-43018a7f3979"},"geometry":{"type":"Polygon","coordinates":[[[136.08372532492353,35.95465119526154],[136.08380369941545,35.95464749887589],[136.08377538809634,35.954428097057885],[136.0836966380556,35.954433720047206],[136.08372532492353,35.95465119526154]]]}},{"type":"Feature","properties":{"pid":"e3dde0ce-4565-437e-a610-4ff83664a07a"},"geometry":{"type":"Polygon","coordinates":[[[136.08352520978713,35.954661296952594],[136.08359109221863,35.954660688384756],[136.08356672646144,35.95444631850968],[136.08350549156873,35.954451029244986],[136.08352520978713,35.954661296952594]]]}},{"type":"Feature","properties":{"pid":"0a7c16bf-8aeb-482b-b081-5baca17b249c"},"geometry":{"type":"Polygon","coordinates":[[[136.08294384049714,35.95449075440478],[136.08297509646198,35.95456062907228],[136.0830064543304,35.954724308580744],[136.08321434328838,35.954701436310216],[136.0831812559802,35.95446897971717],[136.08294384049714,35.95449075440478]]]}},{"type":"Feature","properties":{"pid":"88180bc5-d570-4c00-b258-0331ee812ca2"},"geometry":{"type":"Polygon","coordinates":[[[136.08307277753877,35.95509348028071],[136.08327695938135,35.95508067599565],[136.08323405972243,35.9548332967792],[136.08303153663462,35.95486018102974],[136.08307277753877,35.95509348028071]]]}},{"type":"Feature","properties":{"pid":"b0863d57-6e61-47cd-83ee-5fbb49e8dbb4"},"geometry":{"type":"Polygon","coordinates":[[[136.09512672081655,35.95098048911997],[136.09521143149922,35.95100796264721],[136.09549462434381,35.95104958198907],[136.09551187108434,35.95100156384999],[136.09515663571895,35.950890585692996],[136.09512672081655,35.95098048911997]]]}},{"type":"Feature","properties":{"pid":"e2c4e039-0454-4ac3-ba1a-f00deb7a6e8a"},"geometry":{"type":"Polygon","coordinates":[[[136.09390368826288,35.95051564154191],[136.09414793732805,35.95059865290598],[136.09415685577338,35.95057293619116],[136.09408940509329,35.95053048670046],[136.09406888963738,35.95048850760156],[136.09397134904515,35.950469714901196],[136.09390368826288,35.95051564154191]]]}},{"type":"Feature","properties":{"pid":"81dae67d-aba3-4f2a-aabe-be69088eb2f0"},"geometry":{"type":"Polygon","coordinates":[[[136.09366213425145,35.950361291510426],[136.0937045258272,35.95039262541403],[136.09382256729376,35.950301803073486],[136.09373495233982,35.95024917998587],[136.09363594822824,35.95031163672341],[136.09366213425145,35.950361291510426]]]}}]}