{"type":"FeatureCollection","features":[{"type":"Feature","properties":{"pid":"e39194cf-8f9b-480d-9c3e-d6e5d335586a","full":2.5},"geometry":{"type":"Polygon","coordinates":[[[136.10372,35.74043],[136.10376,35.74039],[136.10375,35.74021],[136.1037,35.74021],[136.1037,35.74007],[136.10355,35.74008],[136.10348,35.74018],[136.10348,35.74022],[136.10358,35.74037],[136.10367,35.74043],[136.10372,35.74043]]]}},{"type":"Feature","properties":{"pid":"1d6c8943-b0dd-4b4f-92a8-9c06c67c93aa","full":0.7},"geometry":{"type":"Polygon","coordinates":[[[136.10151,35.73573],[136.10154,35.73575],[136.10157,35.73579],[136.10164,35.73578],[136.10167,35.73574],[136.10167,35.73568],[136.10169,35.73565],[136.1017,35.73561],[136.10168,35.73557],[136.10156,35.73557],[136.1015,35.7356],[136.10151,35.73573]]]}},{"type":"Feature","properties":{"pid":"91d51c17-6737-4a47-b587-21e31e5b52d3","full":0.9},"geometry":{"type":"Polygon","coordinates":[[[136.10118,35.73594],[136.1012,35.73594],[136.10135,35.73593],[136.10136,35.73584],[136.10133,35.73569],[136.10117,35.73573],[136.10117,35.73575],[136.10118,35.73581],[136.10118,35.73594]]]}},{"type":"Feature","properties":{"pid":"dfd17b1e-3e52-4759-82d8-ac9923f8fecc","full":3.2},"geometry":{"type":"Polygon","coordinates":[[[136.10491,35.73565],[136.10495,35.73565],[136.10502,35.73561],[136.10504,35.73556],[136.10502,35.73546],[136.105,35.73528],[136.10486,35.73526],[136.10486,35.73532],[136.10478,35.73536],[136.10475,35.7354],[136.10475,35.73549],[136.10478,35.73554],[136.10481,35.73558],[136.10489,35.73561],[136.10491,35.73565]]]}},{"type":"Feature","properties":{"pid":"32b86d62-8672-4121-8736-39de7144ba97","full":0.5},"geometry":{"type":"Polygon","coordinates":[[[136.10505,35.73557],[136.10516,35.73556],[136.10518,35.73555],[136.10517,35.73542],[136.10515,35.73537],[136.10515,35.73532],[136.10512,35.73527],[136.10507,35.73528],[136.10501,35.73528],[136.10503,35.73546],[136.10505,35.73557]]]}},{"type":"Feature","properties":{"pid":"fa533982-348d-486b-8f4a-f967ae490a6b","full":0.8},"geometry":{"type":"Polygon","coordinates":[[[136.10498,35.73578],[136.10524,35.73572],[136.1052,35.73566],[136.10517,35.73562],[136.10501,35.73562],[136.10493,35.73567],[136.10492,35.73576],[136.10498,35.73578]]]}},{"type":"Feature","properties":{"pid":"17ee298d-bf12-4593-aa54-9c8464985682","full":0.7},"geometry":{"type":"Polygon","coordinates":[[[136.10268,35.72355],[136.10267,35.72355],[136.10261,35.72365],[136.10253,35.72369],[136.10252,35.72378],[136.10253,35.72384],[136.10253,35.72389],[136.10258,35.72393],[136.10262,35.72399],[136.10263,35.72405],[136.1027,35.72404],[136.1027,35.72395],[136.10267,35.72388],[136.10267,35.72379],[136.10269,35.72366],[136.10268,35.72355]]]}},{"type":"Feature","properties":{"pid":"6c12f58b-bf0b-43a9-b873-4b753bc79acf","full":1.1},"geometry":{"type":"Polygon","coordinates":[[[136.10289,35.72424],[136.10291,35.72432],[136.10308,35.7248],[136.10316,35.72481],[136.1032,35.72481],[136.10318,35.72464],[136.10313,35.72457],[136.10313,35.72453],[136.10307,35.72447],[136.10304,35.72434],[136.10305,35.72425],[136.10304,35.72419],[136.103,35.72415],[136.10294,35.72415],[136.10289,35.72424]]]}},{"type":"Feature","properties":{"pid":"f57391e4-6b56-4958-820a-94ea272534fa","full":0.6},"geometry":{"type":"Polygon","coordinates":[[[136.10153,35.72487],[136.10158,35.72488],[136.1016,35.72487],[136.10161,35.72486],[136.1017,35.72486],[136.10171,35.72485],[136.10173,35.7248],[136.10173,35.72475],[136.10177,35.72471],[136.10178,35.72469],[136.10178,35.72468],[136.10177,35.72465],[136.10168,35.72467],[136.10162,35.72466],[136.10157,35.72471],[136.10153,35.72487]]]}},{"type":"Feature","properties":{"pid":"f5815c03-ea10-437a-8191-f0bdd017624c","full":2.3},"geometry":{"type":"Polygon","coordinates":[[[136.10202,35.72441],[136.10205,35.72429],[136.10203,35.72423],[136.10203,35.72407],[136.10207,35.72388],[136.102,35.72383],[136.10186,35.72384],[136.10185,35.72388],[136.10185,35.72397],[136.10183,35.72403],[136.10187,35.72405],[136.10189,35.72412],[136.1019,35.72419],[136.1019,35.72431],[136.10191,35.72436],[136.10193,35.72439],[136.10198,35.72441],[136.10202,35.72441]]]}},{"type":"Feature","properties":{"pid":"77daa9b4-3341-493b-8cb6-2683e8c2c01b","full":0.9},"geometry":{"type":"Polygon","coordinates":[[[136.10107,35.72469],[136.10113,35.72462],[136.10123,35.72448],[136.10128,35.72439],[136.1013,35.72432],[136.10133,35.72427],[136.1014,35.72411],[136.10127,35.72409],[136.10104,35.72457],[136.10107,35.72469]]]}}],"precision":5}