{"type":"FeatureCollection","features":[{"type":"Feature","properties":{"pid":"e93a0608-18b1-46eb-9654-56edae31ce10"},"geometry":{"type":"Polygon","coordinates":[[[135.67403461130954,35.397651767305064],[135.67387290518755,35.39774902568637],[135.67394889661082,35.397834375660274],[135.67417197971926,35.39780562841579],[135.67403461130954,35.397651767305064]]]}},{"type":"Feature","properties":{"pid":"1bf35cd5-e1a8-4ddc-866e-1f61c4021121"},"geometry":{"type":"Polygon","coordinates":[[[135.67349406025437,35.397536708201535],[135.6733578103003,35.39761907016428],[135.67351729616786,35.39780769809514],[135.67360239653354,35.39775694683271],[135.6736386253196,35.39775116430254],[135.6736711736729,35.39776541718528],[135.67375248431304,35.39785443596195],[135.6737873403337,35.397848155593415],[135.67349406025437,35.397536708201535]]]}},{"type":"Feature","properties":{"pid":"2f1d4f4d-ce45-474e-8f5b-1df6f364a97f"},"geometry":{"type":"Polygon","coordinates":[[[135.6736646822716,35.3974652291192],[135.6736338788712,35.397483801512614],[135.67380373111052,35.3976718561171],[135.67383323267435,35.3976541791136],[135.6736646822716,35.3974652291192]]]}},{"type":"Feature","properties":{"pid":"977822e4-b970-482c-b605-e892d57da4f7"},"geometry":{"type":"Polygon","coordinates":[[[135.67376031662482,35.39740726751876],[135.67392866685353,35.39759667446547],[135.67396540572287,35.39757443045409],[135.67379232491731,35.39738151257311],[135.67376031662482,35.39740726751876]]]}},{"type":"Feature","properties":{"pid":"a9b8b921-aae7-4174-ba89-6301dfb7bc62"},"geometry":{"type":"Polygon","coordinates":[[[135.67395340899824,35.39739579923446],[135.6742910103844,35.39777514100386],[135.67432407526985,35.397757714357496],[135.6740094656546,35.3974097093645],[135.67395340899824,35.39739579923446]]]}},{"type":"Feature","properties":{"pid":"ab4ec1f1-f59d-4d5f-bd94-26df9c1a42a7"},"geometry":{"type":"Polygon","coordinates":[[[135.67426570753864,35.39751865421889],[135.6744354459957,35.39770097825285],[135.6746933144667,35.39750613601873],[135.67442626998718,35.39741871644712],[135.67426570753864,35.39751865421889]]]}},{"type":"Feature","properties":{"pid":"06921096-f1dd-45a2-9940-9eb59d56d517"},"geometry":{"type":"Polygon","coordinates":[[[135.67518967347885,35.396797184741985],[135.67519662898334,35.39675597005854],[135.67477435041457,35.3966263604951],[135.67475469999533,35.39666719548089],[135.67518967347885,35.396797184741985]]]}},{"type":"Feature","properties":{"pid":"70c0511c-c242-4eeb-a7c8-4be7ddd5a6bc"},"geometry":{"type":"Polygon","coordinates":[[[135.67426179785718,35.39648882455484],[135.67427513803588,35.39652760829885],[135.6745813364603,35.396616597268306],[135.6745956497661,35.396585728685736],[135.67426179785718,35.39648882455484]]]}},{"type":"Feature","properties":{"pid":"5643db7b-2740-4de4-8bf9-aa27fb06b903"},"geometry":{"type":"Polygon","coordinates":[[[135.67471311334694,35.396758829694285],[135.67468760397335,35.396818096238185],[135.67483049361746,35.39687404070967],[135.67485569814127,35.396798915449075],[135.67471311334694,35.396758829694285]]]}},{"type":"Feature","properties":{"pid":"3f79d17b-0a39-4756-bbb0-b856fbeb7aa3"},"geometry":{"type":"Polygon","coordinates":[[[135.67326187052717,35.397676341249486],[135.67323314632645,35.39769330916754],[135.67344739136112,35.39793509110399],[135.67347792668195,35.39792532173047],[135.67326187052717,35.397676341249486]]]}},{"type":"Feature","properties":{"pid":"5a2a1210-b760-4e36-94c4-830cab34c836"},"geometry":{"type":"Polygon","coordinates":[[[135.6731137171133,35.397764599398464],[135.67330948995485,35.39798801715591],[135.6733391868951,35.39797558498693],[135.67313722805216,35.397750453297526],[135.6731137171133,35.397764599398464]]]}},{"type":"Feature","properties":{"pid":"4eb7cd73-b880-4d45-9d85-e192a88332b1"},"geometry":{"type":"Polygon","coordinates":[[[135.67299415742747,35.39783655877308],[135.6728423679377,35.3979278957036],[135.67301080090206,35.398123415503804],[135.67319303234856,35.398037514763075],[135.6730178503339,35.39784354421954],[135.67299415742747,35.39783655877308]]]}},{"type":"Feature","properties":{"pid":"61ae9769-77e4-4171-9866-b85e36584685"},"geometry":{"type":"Polygon","coordinates":[[[135.67000114619233,35.39961409077256],[135.6699062005055,35.39967936114695],[135.66999369877624,35.3998165462682],[135.67010677183973,35.39978150399906],[135.67000114619233,35.39961409077256]]]}},{"type":"Feature","properties":{"pid":"3411e2d0-3922-4c2e-9d33-06aa9ac25413"},"geometry":{"type":"Polygon","coordinates":[[[135.67022166991876,35.399747729298284],[135.67048059469468,35.39966501051824],[135.6703111415272,35.39944606463673],[135.67010199226058,35.39955942898605],[135.67022166991876,35.399747729298284]]]}},{"type":"Feature","properties":{"pid":"de5579a5-c95d-4fa6-bb70-074b2a3e60fb"},"geometry":{"type":"Polygon","coordinates":[[[135.6707817510904,35.399140623046705],[135.67095905356342,35.399332464138155],[135.67099077958318,35.39931355913687],[135.67081815362087,35.3991185578856],[135.6707817510904,35.399140623046705]]]}},{"type":"Feature","properties":{"pid":"72a19eb6-f3e0-471e-872c-c19a0d85a9cc"},"geometry":{"type":"Polygon","coordinates":[[[135.6706521360352,35.39921898031498],[135.6708235763793,35.39940987592804],[135.6708611755292,35.39938882051468],[135.67068613372112,35.39919845637774],[135.6706521360352,35.39921898031498]]]}},{"type":"Feature","properties":{"pid":"980689f8-4567-4117-86b0-f8ca27c24d26"},"geometry":{"type":"Polygon","coordinates":[[[135.6705556019931,35.3992772096088],[135.67052765716613,35.39929405469739],[135.67080092596188,35.39959336082733],[135.67083803546797,35.399585087883416],[135.6705556019931,35.3992772096088]]]}},{"type":"Feature","properties":{"pid":"67114f2b-79fa-4ea0-9da2-70e1598a3b63"},"geometry":{"type":"Polygon","coordinates":[[[135.6708958337434,35.3994870143185],[135.67094191661917,35.39953462620612],[135.67111566201197,35.39945408100539],[135.67106043379582,35.399392019601855],[135.6708958337434,35.3994870143185]]]}},{"type":"Feature","properties":{"pid":"a993a5a8-fc2c-420a-9cf3-1cd673d731d5"},"geometry":{"type":"Polygon","coordinates":[[[135.6712946725886,35.39883119331161],[135.67161663499957,35.39920780224028],[135.6716379806429,35.399194510492826],[135.67132294855244,35.39881404895065],[135.6712946725886,35.39883119331161]]]}},{"type":"Feature","properties":{"pid":"d57270d7-5003-44e5-98f0-16044d9c8126"},"geometry":{"type":"Polygon","coordinates":[[[135.67120081581652,35.39888802314769],[135.67116163676513,35.398911706378776],[135.67133022760743,35.39910495447619],[135.6713875868594,35.39911403597161],[135.67151858489927,35.39926203215778],[135.67120081581652,35.39888802314769]]]}},{"type":"Feature","properties":{"pid":"5d190a61-0035-4d4b-8925-3d734663bbf6"},"geometry":{"type":"Polygon","coordinates":[[[135.6713371034103,35.39922076894233],[135.6712832278933,35.39925436003466],[135.67136182297946,35.39933800526999],[135.67141620782942,35.399312100851425],[135.6713371034103,35.39922076894233]]]}},{"type":"Feature","properties":{"pid":"bedaa784-0472-41c3-914b-1ff453256962"},"geometry":{"type":"Polygon","coordinates":[[[135.67121964703946,35.39940538348068],[135.67125829616737,35.399387118056325],[135.67094402715765,35.39904277335388],[135.67091436959123,35.399060563158265],[135.67121964703946,35.39940538348068]]]}},{"type":"Feature","properties":{"pid":"934cea10-42b8-4868-b2cb-bbd8ed98b4dc"},"geometry":{"type":"Polygon","coordinates":[[[135.67160715681476,35.398305186880094],[135.6717161741272,35.39841830873294],[135.67229914113466,35.39806825190125],[135.67206774743087,35.39804464817848],[135.67201994958492,35.398055430564064],[135.67177927462478,35.39821885672733],[135.67160715681476,35.398305186880094]]]}},{"type":"Feature","properties":{"pid":"cd8a5235-2e01-468f-b38f-0fe249c41fa4"},"geometry":{"type":"Polygon","coordinates":[[[135.67205215190646,35.39838667580655],[135.67225720580788,35.39861336847116],[135.67228993129902,35.39858367164445],[135.6720936542315,35.398363044392354],[135.67205215190646,35.39838667580655]]]}},{"type":"Feature","properties":{"pid":"6b4d1b01-744d-4a40-ac4d-b470ad17694e"},"geometry":{"type":"Polygon","coordinates":[[[135.67213016168787,35.39863591039323],[135.67195685381958,35.39844346850743],[135.67193591839128,35.398456455919884],[135.67210556702608,35.39864993766298],[135.67213016168787,35.39863591039323]]]}},{"type":"Feature","properties":{"pid":"146602c3-4f72-47ff-b0c0-1de99407cd06"},"geometry":{"type":"Polygon","coordinates":[[[135.67183879952674,35.398515924418305],[135.6716860626469,35.39860847656854],[135.67196038237822,35.398907330495824],[135.67207475714144,35.39878680681981],[135.67183879952674,35.398515924418305]]]}},{"type":"Feature","properties":{"pid":"52b0a267-926e-4c5f-ac6e-3e088ef38800"},"geometry":{"type":"Polygon","coordinates":[[[135.67174442152685,35.398852029962406],[135.67157110029987,35.39866690410707],[135.67153526720233,35.39869010217073],[135.671705598993,35.398875372197026],[135.67174442152685,35.398852029962406]]]}},{"type":"Feature","properties":{"pid":"5624b1e6-4519-4827-93ec-f05a5521cb1e"},"geometry":{"type":"Polygon","coordinates":[[[135.67143916212393,35.39874735474055],[135.67142086816094,35.39875746104698],[135.67172245119872,35.399124444050535],[135.6718187630642,35.399038558918285],[135.6717564682951,35.39896430529784],[135.67170357777485,35.39899138857827],[135.67165377993484,35.398981012097494],[135.67143916212393,35.39874735474055]]]}},{"type":"Feature","properties":{"pid":"3ea5e65d-ba88-49b7-aeef-468427bfd425"},"geometry":{"type":"Polygon","coordinates":[[[135.6723704160166,35.39850842815305],[135.6724843418438,35.39841292541326],[135.6726110742438,35.398338347091524],[135.67248876934013,35.39820053885903],[135.6722905950053,35.39832003205098],[135.6722473531853,35.3983212222927],[135.67221027493153,35.39829364415745],[135.6721907119221,35.398305601323194],[135.6723704160166,35.39850842815305]]]}},{"type":"Feature","properties":{"pid":"c17b105d-23b8-410c-9ea6-162d136cfccb"},"geometry":{"type":"Polygon","coordinates":[[[135.67272820250813,35.397996589418746],[135.67289530055382,35.39818038297298],[135.67291105560793,35.398172700939654],[135.672749132472,35.39798399278131],[135.67272820250813,35.397996589418746]]]}},{"type":"Feature","properties":{"pid":"fdf350c6-8f9f-4975-a841-95627dfaa1f4"},"geometry":{"type":"Polygon","coordinates":[[[135.67232418145502,35.400858754431134],[135.67239449613223,35.40091260908052],[135.67256321600567,35.40082370447216],[135.67246487154566,35.40073954917853],[135.67232418145502,35.400858754431134]]]}},{"type":"Feature","properties":{"pid":"d704f26c-6361-4212-a3b0-495b40f2dd90"},"geometry":{"type":"Polygon","coordinates":[[[135.67160954215703,35.40062479066705],[135.67163346141535,35.4006036927579],[135.671428104876,35.40043441516853],[135.67140098372766,35.400457656909545],[135.67160954215703,35.40062479066705]]]}},{"type":"Feature","properties":{"pid":"3e0cf7f6-5a5a-4a4e-ba2a-ea265bd627e9"},"geometry":{"type":"Polygon","coordinates":[[[135.67131816640352,35.40052824104655],[135.67138352618161,35.40062940801525],[135.67147867090654,35.40071544680287],[135.67152118936832,35.400689593805154],[135.67131816640352,35.40052824104655]]]}},{"type":"Feature","properties":{"pid":"69cd4e04-1d99-4b11-8535-f3910177204a"},"geometry":{"type":"Polygon","coordinates":[[[135.67150992553923,35.400364808442546],[135.67171193224982,35.40053196378207],[135.67172876517952,35.400516134282555],[135.6715848899368,35.400393451716255],[135.6715494973649,35.400390824466626],[135.67150992553923,35.400364808442546]]]}},{"type":"Feature","properties":{"pid":"683cdee5-e16c-4225-a281-8ca7cbdf276b"},"geometry":{"type":"Polygon","coordinates":[[[135.66883410836047,35.40014277318779],[135.66866746694168,35.400213501366224],[135.66870210182063,35.400267965299356],[135.66887284535952,35.400206276379706],[135.66883410836047,35.40014277318779]]]}},{"type":"Feature","properties":{"pid":"0303bc6f-75fe-457b-93f6-17248a5535b8"},"geometry":{"type":"Polygon","coordinates":[[[135.66922697154342,35.40181630565074],[135.66925675363896,35.401802874986416],[135.66893880760892,35.40133399442587],[135.6689148055843,35.40134539262703],[135.66922697154342,35.40181630565074]]]}},{"type":"Feature","properties":{"pid":"9a910447-a52e-4c28-afe0-f304e106a3bb"},"geometry":{"type":"Polygon","coordinates":[[[135.66936192386132,35.40175512564455],[135.6693910096614,35.401741844457156],[135.6690757846827,35.40126905021753],[135.66904588268886,35.40128321523844],[135.66936192386132,35.40175512564455]]]}},{"type":"Feature","properties":{"pid":"9f878b15-20ba-4d41-9e88-bb4c2423742e"},"geometry":{"type":"Polygon","coordinates":[[[135.6696331230319,35.401631609406785],[135.6696643656959,35.40161758725648],[135.6693476769411,35.40114396239631],[135.66932284227443,35.40115490166022],[135.6696331230319,35.401631609406785]]]}},{"type":"Feature","properties":{"pid":"658ca63e-76c2-45cb-8d80-200855e59cca"},"geometry":{"type":"Polygon","coordinates":[[[135.66977054624303,35.40156935954007],[135.66978543009589,35.40156253300031],[135.66947150437613,35.40109031907243],[135.6694558096946,35.40109704615709],[135.66977054624303,35.40156935954007]]]}},{"type":"Feature","properties":{"pid":"694df4aa-2490-4ab0-b440-4b432acaf46f"},"geometry":{"type":"Polygon","coordinates":[[[135.66949907292278,35.40169244176763],[135.66952765813826,35.40167936148063],[135.66921446209886,35.40120393756321],[135.66918458444317,35.40121789838203],[135.66949907292278,35.40169244176763]]]}},{"type":"Feature","properties":{"pid":"bcbde7d9-c067-43f7-9072-a97225c9b26e"},"geometry":{"type":"Polygon","coordinates":[[[135.6697193549356,35.40098269956349],[135.67003007314852,35.401451639689945],[135.67005622340344,35.401439745046815],[135.6697349070694,35.4009757578069],[135.6697193549356,35.40098269956349]]]}},{"type":"Feature","properties":{"pid":"99a6385c-d070-4ae8-822f-418ad72c3bde"},"geometry":{"type":"Polygon","coordinates":[[[135.66958454937034,35.40104167682458],[135.66989854669043,35.40151106838564],[135.6699223188139,35.40150036927027],[135.66960959377226,35.40103084605975],[135.66958454937034,35.40104167682458]]]}},{"type":"Feature","properties":{"pid":"f26b5f46-a7be-44d1-ba5a-4a85e374f7ff"},"geometry":{"type":"Polygon","coordinates":[[[135.67051236468302,35.401565252493455],[135.67066355497974,35.40143235959966],[135.67060850902845,35.4013538776807],[135.67042588080542,35.40143520777782],[135.67051236468302,35.401565252493455]]]}},{"type":"Feature","properties":{"pid":"2f2a9cce-d350-44b2-be7c-3b6e4220363b"},"geometry":{"type":"Polygon","coordinates":[[[135.6703236419965,35.401480696264606],[135.67028697249458,35.40149701242314],[135.67040946195817,35.4016553707892],[135.67042877473597,35.4016385327157],[135.6703236419965,35.401480696264606]]]}},{"type":"Feature","properties":{"pid":"b703e62c-4f89-4d31-a15a-b5186f613cb2"},"geometry":{"type":"Polygon","coordinates":[[[135.66961134591645,35.40181092672848],[135.66958146556203,35.401824573170195],[135.66973596639545,35.4020549306024],[135.66977042483845,35.40205440753316],[135.66961134591645,35.40181092672848]]]}},{"type":"Feature","properties":{"pid":"faddd2fb-3fd8-4b76-a079-c84ab0dd0734"},"geometry":{"type":"Polygon","coordinates":[[[135.66995244789496,35.401834833228904],[135.67004933207414,35.401979067881776],[135.67008559191564,35.40194810320421],[135.66999229874003,35.40181767156979],[135.66995244789496,35.401834833228904]]]}},{"type":"Feature","properties":{"pid":"bd941bfd-f9d4-4376-997c-fe4f2b808581"},"geometry":{"type":"Polygon","coordinates":[[[135.6698624161977,35.40169630431725],[135.66989749638222,35.40174648908609],[135.67015339489112,35.40164320878403],[135.670188580546,35.40166160384032],[135.6702714931788,35.401780702812324],[135.6702845762047,35.401767974347855],[135.67014517876052,35.4015664996337],[135.6698624161977,35.40169630431725]]]}},{"type":"Feature","properties":{"pid":"c0e109b5-c0ca-475a-87ab-b36d0ea3a611"},"geometry":{"type":"Polygon","coordinates":[[[135.66985032905464,35.401884399444846],[135.66975825954236,35.401744332146336],[135.6697168376123,35.40176301671983],[135.6698080670163,35.401900817731025],[135.66985032905464,35.401884399444846]]]}},{"type":"Feature","properties":{"pid":"4ff62e15-f73c-4013-9399-ff3609b75514"},"geometry":{"type":"Polygon","coordinates":[[[135.66947903287672,35.40187160091929],[135.6694464532102,35.40188662649599],[135.66956054230735,35.402058271045334],[135.66960190816042,35.40205612696309],[135.66947903287672,35.40187160091929]]]}},{"type":"Feature","properties":{"pid":"0663d6f5-2326-4e56-ab42-89d26c87b596"},"geometry":{"type":"Polygon","coordinates":[[[135.6692495843406,35.40211039053075],[135.66942593819724,35.402076300283646],[135.66933226314663,35.40193879756882],[135.6691833795564,35.402006653169266],[135.6692495843406,35.40211039053075]]]}},{"type":"Feature","properties":{"pid":"3b8835fa-e5b6-4461-b110-a47f39b42915"},"geometry":{"type":"Polygon","coordinates":[[[135.66880859696604,35.40139895318263],[135.66877345230276,35.40141790410125],[135.66908071397458,35.40188262482864],[135.66912041857623,35.40186455502726],[135.66880859696604,35.40139895318263]]]}},{"type":"Feature","properties":{"pid":"97a8c417-8a1d-4355-8feb-1a6e4d9f8708"},"geometry":{"type":"Polygon","coordinates":[[[135.66895276673227,35.40194157538109],[135.66897900308734,35.40192939602334],[135.66867353874466,35.40147758184482],[135.66865426500237,35.40149025855352],[135.66895276673227,35.40194157538109]]]}},{"type":"Feature","properties":{"pid":"100d4203-11b3-41d5-a467-3a1f419a612c"},"geometry":{"type":"Polygon","coordinates":[[[135.66841621792614,35.401644526376735],[135.66870334297653,35.40207585307141],[135.66874317873751,35.402057634078936],[135.6685731756413,35.40179874495189],[135.66858594506877,35.40175415789992],[135.6686623139357,35.401716422895895],[135.6685568737118,35.40156312050509],[135.66841621792614,35.401644526376735]]]}},{"type":"Feature","properties":{"pid":"ec0cb61b-1b57-46db-9706-1e3aa3138bd2"},"geometry":{"type":"Polygon","coordinates":[[[135.66831986280505,35.40170796947788],[135.66828971000965,35.401730015778725],[135.66856537723336,35.40213903384728],[135.66859487794568,35.402125514555756],[135.66831986280505,35.40170796947788]]]}},{"type":"Feature","properties":{"pid":"84a34116-50e4-48f2-a7bd-5a8acc47dffd"},"geometry":{"type":"Polygon","coordinates":[[[135.66437504581262,35.403732991212],[135.6642609169911,35.40349471378679],[135.6638429591377,35.40362196692575],[135.6639518125149,35.40387512479963],[135.66437504581262,35.403732991212]]]}},{"type":"Feature","properties":{"pid":"e02095af-dab0-4048-8995-bc6aeed9b44d"},"geometry":{"type":"Polygon","coordinates":[[[135.66324164506736,35.40380561980282],[135.66352380717532,35.40449124212153],[135.6640231390207,35.40441061436491],[135.66371586070835,35.403657713868576],[135.66324164506736,35.40380561980282]]]}},{"type":"Feature","properties":{"pid":"6a3e407c-69b3-4661-ab13-bb8e457536fb"},"geometry":{"type":"Polygon","coordinates":[[[135.6639915990051,35.40396783752209],[135.66400699104224,35.404003771328895],[135.6644431644939,35.403870022855244],[135.66442112890826,35.40382335142783],[135.6639915990051,35.40396783752209]]]}},{"type":"Feature","properties":{"pid":"fb785d32-67b5-44db-b7a3-c1515d69fbfc"},"geometry":{"type":"Polygon","coordinates":[[[135.6640464820291,35.40409640033983],[135.66407199221157,35.404156486616074],[135.66451560024117,35.40402223478921],[135.66448501152823,35.40395927334175],[135.6640464820291,35.40409640033983]]]}},{"type":"Feature","properties":{"pid":"edf93ab0-12c9-4c0d-aca1-cbd712bc26d7"},"geometry":{"type":"Polygon","coordinates":[[[135.6641112588301,35.404248993607546],[135.66416867353115,35.40438539819125],[135.66464090285675,35.40432062678613],[135.66455262506383,35.40411322422267],[135.6641112588301,35.404248993607546]]]}},{"type":"Feature","properties":{"pid":"b8d3ae6f-b975-4ca0-8327-c1cb06bb20e1"},"geometry":{"type":"Polygon","coordinates":[[[135.65839567440062,35.405259605070164],[135.65851652760557,35.405634813161655],[135.65860829796316,35.405613543233734],[135.65847732694726,35.40521979129799],[135.65839567440062,35.405259605070164]]]}},{"type":"Feature","properties":{"pid":"3c6a0a1c-72b2-42d0-a1a6-5ec21c1e8663"},"geometry":{"type":"Polygon","coordinates":[[[135.65877011469044,35.4050714421622],[135.65865460171145,35.40513373758799],[135.65880323907055,35.40555013243245],[135.65943571368706,35.40543168945168],[135.65926600978096,35.40496517862992],[135.65922461377045,35.404947713993984],[135.65877011469044,35.4050714421622]]]}},{"type":"Feature","properties":{"pid":"99977e99-fa53-4794-9dda-722e8c0740ee"},"geometry":{"type":"Polygon","coordinates":[[[135.6604594805582,35.404619676968295],[135.66067873583364,35.4051688295922],[135.6611561081571,35.40504180456263],[135.66111298792896,35.404563233120605],[135.6611419471244,35.404523962555196],[135.66111438933942,35.40445078931246],[135.6604594805582,35.404619676968295]]]}},{"type":"Feature","properties":{"pid":"af7ccfc5-48a3-4b8d-be75-c0ad7e5439ff"},"geometry":{"type":"Polygon","coordinates":[[[135.6622784622993,35.404100144801205],[135.66226484830275,35.404120312686025],[135.66229658347453,35.40423329594624],[135.6623622585251,35.40431939116102],[135.66264222453023,35.40423743512787],[135.66255990265643,35.404013150384685],[135.6622784622993,35.404100144801205]]]}},{"type":"Feature","properties":{"pid":"6ae3d52a-0bc8-4fda-b799-0a0356a16ae5"},"geometry":{"type":"Polygon","coordinates":[[[135.66267903316435,35.40397632628948],[135.66287236502333,35.40451139324149],[135.66315545041473,35.40444459306579],[135.6632042402244,35.40446694504863],[135.6632484148411,35.404568428837806],[135.66340193594084,35.40452022882632],[135.66313126393885,35.40385967688306],[135.6630957138306,35.40384752829634],[135.66267903316435,35.40397632628948]]]}},{"type":"Feature","properties":{"pid":"b377bace-177d-4d9f-a6d5-e984b5881c58"},"geometry":{"type":"Polygon","coordinates":[[[135.66183822831923,35.403387617075964],[135.66212650080178,35.403972835622795],[135.66303299289177,35.40368230199224],[135.66275159866515,35.40310058189789],[135.66183822831923,35.403387617075964]]]}},{"type":"Feature","properties":{"pid":"23bd2fe4-a72b-408f-85d8-264b5f14cc62"},"geometry":{"type":"Polygon","coordinates":[[[135.6609937391162,35.403630162801846],[135.6612600830752,35.40422091944044],[135.66199186307205,35.404008688405526],[135.6617134801825,35.40342444811728],[135.6609937391162,35.403630162801846]]]}},{"type":"Feature","properties":{"pid":"3defd7fc-b054-4c71-94e3-954ef08a2877"},"geometry":{"type":"Polygon","coordinates":[[[135.6599295053746,35.404581507594045],[135.66029124023905,35.40448001578306],[135.66006839625865,35.40394682099106],[135.65976757127228,35.40420251529829],[135.6599295053746,35.404581507594045]]]}},{"type":"Feature","properties":{"pid":"93d27a6d-40ca-4a8d-9e59-3e02162901d0"},"geometry":{"type":"Polygon","coordinates":[[[135.66016044357775,35.40386440912007],[135.66040492646405,35.40444783076313],[135.6610561271818,35.40427599629191],[135.66064623438743,35.403440534483785],[135.66043711134932,35.40359895056245],[135.66016044357775,35.40386440912007]]]}},{"type":"Feature","properties":{"pid":"08d983ff-06e0-48b6-839c-030a7b8b82a5"},"geometry":{"type":"Polygon","coordinates":[[[135.66013189140065,35.40529196346423],[135.66008941390373,35.405141785162975],[135.66011393020324,35.40511931815001],[135.6603784987371,35.40504992932425],[135.6603138450274,35.4048716123941],[135.66033343041508,35.404840913646716],[135.66039320574845,35.40481812813758],[135.66032856841562,35.40466884890128],[135.66028649268475,35.404666948312205],[135.6596863466972,35.40482733777787],[135.6598717840555,35.40534820483606],[135.66013189140065,35.40529196346423]]]}},{"type":"Feature","properties":{"pid":"f404b84d-e832-426f-8214-083c72035558"},"geometry":{"type":"Polygon","coordinates":[[[135.65953300517648,35.40485948735276],[135.65937150993943,35.40490201504338],[135.65955253297872,35.40540957580864],[135.65974652273064,35.405370451046274],[135.65956904032276,35.40487416621424],[135.65953300517648,35.40485948735276]]]}},{"type":"Feature","properties":{"pid":"4b40e396-97bb-4c19-8ec4-855ae207a995"},"geometry":{"type":"Polygon","coordinates":[[[135.65909283236604,35.4048058523054],[135.6598133911689,35.40461383793012],[135.6596709810215,35.404282937969526],[135.65908059556457,35.40477070936881],[135.65909283236604,35.4048058523054]]]}},{"type":"Feature","properties":{"pid":"02d6f785-b994-4276-a1df-e251ba4fe0d1"},"geometry":{"type":"Polygon","coordinates":[[[135.6607979507194,35.403321854995816],[135.6608973765888,35.40351361288285],[135.6620212350286,35.40315594229938],[135.6618178933101,35.402702607613335],[135.6611359630506,35.403083333882556],[135.66087455422343,35.40324823820005],[135.6607979507194,35.403321854995816]]]}},{"type":"Feature","properties":{"pid":"32bc8660-9a8e-40d7-a088-ea5cba278648"},"geometry":{"type":"Polygon","coordinates":[[[135.66194098811917,35.40264613148606],[135.6621649343793,35.403116471935675],[135.66265785984424,35.402973389210906],[135.66237959726962,35.40242861474086],[135.66194098811917,35.40264613148606]]]}},{"type":"Feature","properties":{"pid":"02041edc-b827-4377-b547-1f5625957155"},"geometry":{"type":"Polygon","coordinates":[[[135.6624994097059,35.40235909060482],[135.6627763928341,35.402939225474974],[135.66345197096635,35.40272996513307],[135.66317113907775,35.402118881754134],[135.66314387974683,35.40211185008732],[135.6624994097059,35.40235909060482]]]}},{"type":"Feature","properties":{"pid":"338558d5-a16b-4b4e-8d62-2babcf333056"},"geometry":{"type":"Polygon","coordinates":[[[135.6628682461925,35.40306282377592],[135.66314955050115,35.40364684939093],[135.66399418465608,35.403380485151814],[135.66400162092717,35.40335058118947],[135.66374624658692,35.40278972790155],[135.6628682461925,35.40306282377592]]]}},{"type":"Feature","properties":{"pid":"1b2c3f82-aa26-46d6-bb27-6f5359e216bb"},"geometry":{"type":"Polygon","coordinates":[[[135.6638604583455,35.40274966591397],[135.66413558107558,35.403333352436185],[135.66464436032282,35.40317875335235],[135.66442052548393,35.40258274088617],[135.6638604583455,35.40274966591397]]]}},{"type":"Feature","properties":{"pid":"5e86bc7d-2538-4785-b17b-ffa2e328b03e"},"geometry":{"type":"Polygon","coordinates":[[[135.663299200333,35.402092303913655],[135.66357246644984,35.40269517590521],[135.66435719988397,35.40245152434356],[135.664240902436,35.40212533435158],[135.66380326195994,35.40208789872306],[135.663299200333,35.402092303913655]]]}},{"type":"Feature","properties":{"pid":"579fbc05-36e9-4600-8636-1b6cc510ca2e"},"geometry":{"type":"Polygon","coordinates":[[[135.66488905788978,35.40262896970398],[135.66480616076538,35.402291603717416],[135.664687868253,35.40225638536678],[135.664827343414,35.40264070389947],[135.66488905788978,35.40262896970398]]]}},{"type":"Feature","properties":{"pid":"b74b9219-c316-4e9d-8474-37e0faaa0c35"},"geometry":{"type":"Polygon","coordinates":[[[135.6650027003013,35.402608162957065],[135.6650344103417,35.402602549202484],[135.66498275747804,35.402372717939585],[135.66494470111303,35.40237755010739],[135.6650027003013,35.402608162957065]]]}},{"type":"Feature","properties":{"pid":"b22a3d0e-a400-4a73-8ac7-40308d7a302e"},"geometry":{"type":"Polygon","coordinates":[[[135.66510662450554,35.40239389519412],[135.66514935378888,35.40258212967626],[135.66518348064568,35.40257604608082],[135.66514129034712,35.4024072203438],[135.66510662450554,35.40239389519412]]]}},{"type":"Feature","properties":{"pid":"cf203b21-3eed-42b4-8112-cd5cc8e7ef08"},"geometry":{"type":"Polygon","coordinates":[[[135.66545090011329,35.40252967972058],[135.66564167776488,35.402496757197035],[135.66543663842643,35.40246261577378],[135.66545090011329,35.40252967972058]]]}},{"type":"Feature","properties":{"pid":"ad46ce79-5e84-4edb-a4fa-df34848178b6"},"geometry":{"type":"Polygon","coordinates":[[[135.66547225777026,35.402625359216934],[135.6655295838012,35.40286822121301],[135.66572139606316,35.40282638215574],[135.66566427449663,35.40258890523702],[135.66547225777026,35.402625359216934]]]}},{"type":"Feature","properties":{"pid":"c164c15b-5bed-4112-adf0-2c5d6b238dc6"},"geometry":{"type":"Polygon","coordinates":[[[135.66527036647167,35.40291385156096],[135.66520852950282,35.40267598877721],[135.66516713216782,35.40268336993303],[135.66523551741264,35.40292167331641],[135.66527036647167,35.40291385156096]]]}},{"type":"Feature","properties":{"pid":"85e2452b-c73f-4ed1-a800-00c7beff2f03"},"geometry":{"type":"Polygon","coordinates":[[[135.66527377025957,35.40243617859501],[135.6653856828147,35.402893916866184],[135.66541273137224,35.40288883569208],[135.66531321796626,35.40244301219588],[135.66527377025957,35.40243617859501]]]}},{"type":"Feature","properties":{"pid":"3042e9f3-f363-4cdb-b5d2-323abb739fde"},"geometry":{"type":"Polygon","coordinates":[[[135.66486862505423,35.4027366054843],[135.6649644320134,35.402969912447546],[135.6649698393657,35.402968968027714],[135.664905613176,35.402729664861624],[135.66486862505423,35.4027366054843]]]}},{"type":"Feature","properties":{"pid":"a8c79221-41d0-44f8-a536-1ed8e6d1b9d1"},"geometry":{"type":"Polygon","coordinates":[[[135.6650214204973,35.40270913513577],[135.66508343221946,35.402948151338684],[135.66511952013204,35.40294271490231],[135.66505328358562,35.40270357450034],[135.6650214204973,35.40270913513577]]]}},{"type":"Feature","properties":{"pid":"a628c8d7-be71-46f4-95c6-c127d00014ac"},"geometry":{"type":"Polygon","coordinates":[[[135.66583675288393,35.40280428874206],[135.66602601232722,35.402771995690216],[135.6659513917186,35.40248136384491],[135.6657593174014,35.40249005869442],[135.66583675288393,35.40280428874206]]]}},{"type":"Feature","properties":{"pid":"710b868c-762a-46c2-85f2-ade7da5e892d"},"geometry":{"type":"Polygon","coordinates":[[[135.66614189633987,35.402751656279406],[135.66617521542125,35.40274566775509],[135.66609857480094,35.40246359193442],[135.66606961125348,35.402468476991025],[135.66614189633987,35.402751656279406]]]}},{"type":"Feature","properties":{"pid":"4c90b2c6-d9d1-4952-9c86-11f314045543"},"geometry":{"type":"Polygon","coordinates":[[[135.6662908858202,35.40272148686745],[135.66632076075166,35.40271580514023],[135.66625370642265,35.40247470709244],[135.66622501734471,35.40247839273943],[135.6662908858202,35.40272148686745]]]}},{"type":"Feature","properties":{"pid":"ba0e471a-16ae-4e75-a6a7-105ee3062f7c"},"geometry":{"type":"Polygon","coordinates":[[[135.6663993171191,35.40245158871728],[135.66637225131115,35.40245556002131],[135.6664351193497,35.40269328394933],[135.66646580883526,35.40268750271247],[135.6663993171191,35.40245158871728]]]}},{"type":"Feature","properties":{"pid":"e23d9ee6-758a-49ad-9767-40e4447edfb4"},"geometry":{"type":"Polygon","coordinates":[[[135.66656041242732,35.40242094574129],[135.66651609647448,35.402428812122345],[135.66658000283658,35.40266299725304],[135.66661862317935,35.40265572810593],[135.66656041242732,35.40242094574129]]]}},{"type":"Feature","properties":{"pid":"183ee59f-5b60-4929-b121-e0961bab7770"},"geometry":{"type":"Polygon","coordinates":[[[135.66720068461524,35.40254397070066],[135.6672371674199,35.402537313222666],[135.6671762869725,35.4022522966642],[135.6671389054468,35.40226312513391],[135.66720068461524,35.40254397070066]]]}},{"type":"Feature","properties":{"pid":"8830c351-891e-4b1a-a905-90795a110bdd"},"geometry":{"type":"Polygon","coordinates":[[[135.6673269223831,35.402207865088],[135.66728853952037,35.40221929780085],[135.66735270730922,35.40251615064635],[135.66739092236548,35.40250912401324],[135.6673269223831,35.402207865088]]]}},{"type":"Feature","properties":{"pid":"bc19f681-5543-48df-8bda-3515b411b2ce"},"geometry":{"type":"Polygon","coordinates":[[[135.66762154639898,35.40209700747047],[135.66758264121984,35.40211494117154],[135.6676584690107,35.4024621052802],[135.66769653517682,35.40245550675018],[135.66762154639898,35.40209700747047]]]}},{"type":"Feature","properties":{"pid":"3af13a2b-5286-4e14-b70e-eba220fd1aab"},"geometry":{"type":"Polygon","coordinates":[[[135.66747114464837,35.40215958276488],[135.66743948465293,35.40217133863677],[135.66750776174734,35.40248823052673],[135.66753897376003,35.402482819511654],[135.66747114464837,35.40215958276488]]]}},{"type":"Feature","properties":{"pid":"ae72ecc1-d8f1-4803-8392-1d6920229398"},"geometry":{"type":"Polygon","coordinates":[[[135.66776483466623,35.40220406098412],[135.6678143194443,35.402435087590995],[135.66785037562678,35.40242883594523],[135.66779908906545,35.40219782714662],[135.66776483466623,35.40220406098412]]]}},{"type":"Feature","properties":{"pid":"a51f979d-0fde-4423-9da5-15ba0ec5654f"},"geometry":{"type":"Polygon","coordinates":[[[135.66790027384897,35.40195505067081],[135.66815251468694,35.402332755389125],[135.66817984841137,35.40231755151652],[135.66792725480656,35.40193986644631],[135.66790027384897,35.40195505067081]]]}},{"type":"Feature","properties":{"pid":"deebd706-6886-44aa-806a-69ee8b3b9223"},"geometry":{"type":"MultiPolygon","coordinates":[[[[135.6677448868368,35.4021078239161],[135.66785403276268,35.40209045546846],[135.66780001750448,35.402010439960925],[135.66773152823941,35.40204492041666],[135.6677448868368,35.4021078239161]]],[[[135.66791472449563,35.40218036095073],[135.66796552373162,35.4024074088052],[135.6680554507707,35.40238882441388],[135.66791472449563,35.40218036095073]]]]}},{"type":"Feature","properties":{"pid":"8657d75f-435c-488f-adb9-bd502da6301f"},"geometry":{"type":"Polygon","coordinates":[[[135.66828251829148,35.402266870971445],[135.66844751943088,35.402193107362365],[135.66818170912603,35.401795165986954],[135.6680262562748,35.40188229222208],[135.66828251829148,35.402266870971445]]]}},{"type":"Feature","properties":{"pid":"32304b08-3714-4e59-840a-4be6adadb054"},"geometry":{"type":"Polygon","coordinates":[[[135.66702622197062,35.40229280688767],[135.6669824422699,35.40230375507202],[135.66704905794649,35.40257164442842],[135.66708541093774,35.4025650090403],[135.66702622197062,35.40229280688767]]]}},{"type":"Feature","properties":{"pid":"8e83d7a7-83d3-49b0-81f9-ab1cce29ac44"},"geometry":{"type":"Polygon","coordinates":[[[135.66689830230632,35.40260630901996],[135.66692533751302,35.402601374231125],[135.66685313849044,35.40233147068252],[135.66682592337767,35.40233631973392],[135.66689830230632,35.40260630901996]]]}},{"type":"Feature","properties":{"pid":"8553dae6-ddc5-4a9c-bc33-08fccc4cd9d7"},"geometry":{"type":"Polygon","coordinates":[[[135.66667034671755,35.40236962314683],[135.66673567255503,35.40263450437003],[135.66678156387252,35.402626738595174],[135.66671085337677,35.402361230839226],[135.66667034671755,35.40236962314683]]]}},{"type":"Feature","properties":{"pid":"35a110b5-c728-40fe-a35a-d11f6d855903"},"geometry":{"type":"Polygon","coordinates":[[[135.6742611686891,35.39602886283092],[135.67425279730728,35.39606807311653],[135.67477321380852,35.39621181925476],[135.67478920146337,35.39617617894835],[135.6742611686891,35.39602886283092]]]}},{"type":"Feature","properties":{"pid":"ab480738-70e3-446b-80fe-4f1c861057a6"},"geometry":{"type":"Polygon","coordinates":[[[135.67430309889812,35.39588936125985],[135.67428500913536,35.39592651811847],[135.67482973245032,35.39608266362181],[135.67484349669928,35.3960495174635],[135.67430309889812,35.39588936125985]]]}},{"type":"Feature","properties":{"pid":"bda61fe0-fc76-461d-8f6c-ed306c3ca7d7"},"geometry":{"type":"Polygon","coordinates":[[[135.65669626571665,35.40425400000869],[135.65680720068994,35.40444525162409],[135.65728688404968,35.404262280804886],[135.65718300456365,35.404075863307376],[135.6571585526089,35.40406796622711],[135.65669626571665,35.40425400000869]]]}},{"type":"Feature","properties":{"pid":"61c04697-3f81-4451-9389-4c7032ec63a4"},"geometry":{"type":"Polygon","coordinates":[[[135.65619624923028,35.403438308212266],[135.65638646415192,35.403726876687394],[135.65685452654208,35.40354779478076],[135.656707660167,35.40331680953694],[135.6563758748388,35.403429272084054],[135.65619624923028,35.403438308212266]]]}},{"type":"Feature","properties":{"pid":"957419d3-3569-41bf-bb90-f6e2ba9b86cc"},"geometry":{"type":"Polygon","coordinates":[[[135.65540616763369,35.40372691461873],[135.65558910675375,35.40401503580547],[135.65621124783223,35.40378295036519],[135.6560158527747,35.40347220617521],[135.65540616763369,35.40372691461873]]]}},{"type":"Feature","properties":{"pid":"049b534e-0fd8-438e-826b-9dcb914ba680"},"geometry":{"type":"Polygon","coordinates":[[[135.6556442075059,35.40410871498044],[135.65585782182293,35.404492620565655],[135.65650663586896,35.40426668146609],[135.65627218758905,35.40387313666153],[135.6556442075059,35.40410871498044]]]}},{"type":"Feature","properties":{"pid":"03fabcff-d4a2-497f-b6c7-814929748798"},"geometry":{"type":"Polygon","coordinates":[[[135.6564389632841,35.403815041422455],[135.65664399789765,35.40416467782476],[135.65711701500754,35.403969604596355],[135.65692860400563,35.40365685779965],[135.65688981050138,35.40364805915175],[135.6564389632841,35.403815041422455]]]}},{"type":"Feature","properties":{"pid":"d2dff5a4-1353-4916-8beb-8c87d1d12ced"},"geometry":{"type":"Polygon","coordinates":[[[135.65590734903398,35.404588145569285],[135.6560069402513,35.40477366911334],[135.65665889684033,35.40454708966134],[135.65655784941453,35.404361618297926],[135.65590734903398,35.404588145569285]]]}},{"type":"Feature","properties":{"pid":"00befa32-9589-44b8-8edb-db8b76c8394c"},"geometry":{"type":"Polygon","coordinates":[[[135.65606663107332,35.404894195171295],[135.65627634340663,35.40527308584508],[135.6568663664102,35.40497017913461],[135.6566941611576,35.40464457552475],[135.65609373752164,35.40485793298128],[135.65606663107332,35.404894195171295]]]}},{"type":"Feature","properties":{"pid":"302c146b-930c-4c13-93b8-40f2b54a4933"},"geometry":{"type":"Polygon","coordinates":[[[135.65685415398153,35.404536913536674],[135.65703399804923,35.40488298700985],[135.6574886339206,35.40463250144682],[135.65735545520312,35.404365067141114],[135.6573272742596,35.40435784842268],[135.65685415398153,35.404536913536674]]]}},{"type":"Feature","properties":{"pid":"2818c725-82a6-4839-b860-59b2a0404d9c"},"geometry":{"type":"Polygon","coordinates":[[[135.65521687638008,35.4052429452642],[135.65540462880074,35.405629595262155],[135.6556163565589,35.40555945428234],[135.6560775702703,35.40537051703581],[135.65589795952192,35.405026260046995],[135.65586865978975,35.40501974962032],[135.65521687638008,35.4052429452642]]]}},{"type":"Feature","properties":{"pid":"ab7046d9-eefb-4d71-8061-f2a9a7a9af18"},"geometry":{"type":"Polygon","coordinates":[[[135.65424073094863,35.4051966385354],[135.65423053004108,35.40521942526437],[135.65424920141587,35.405257385654956],[135.6542947677797,35.40524828016112],[135.65433241896093,35.40526325286265],[135.65442852387815,35.40542745687794],[135.65500274151128,35.405229750364114],[135.65487332207175,35.40496861659848],[135.65424073094863,35.4051966385354]]]}},{"type":"Feature","properties":{"pid":"881ebe0a-7727-4e27-a6b3-bbec313dd403"},"geometry":{"type":"Polygon","coordinates":[[[135.65447829318418,35.40552176520677],[135.65461439317923,35.40581357093752],[135.65468461296746,35.40584737702031],[135.65521725573814,35.405670754005996],[135.65504845282302,35.40532477657298],[135.65447829318418,35.40552176520677]]]}},{"type":"Feature","properties":{"pid":"be3f3a15-7d3b-4ef5-8255-4f28988a5060"},"geometry":{"type":"Polygon","coordinates":[[[135.65342103240923,35.405697859435534],[135.65354088751616,35.4059163511816],[135.65397865779937,35.40594267976295],[135.65422441883013,35.40591513579028],[135.6540273243771,35.40550510269166],[135.65399145886965,35.40549007351863],[135.65342103240923,35.405697859435534]]]}},{"type":"Feature","properties":{"pid":"147ab318-1350-4c58-ad1c-774297c64dd5"},"geometry":{"type":"Polygon","coordinates":[[[135.65404616463888,35.405357134127],[135.65396819674922,35.4051863554247],[135.65328441554865,35.405422092180146],[135.65336928133735,35.405599143014044],[135.65404616463888,35.405357134127]]]}},{"type":"Feature","properties":{"pid":"bb14a2ba-3680-4e72-88bc-f1254fce1e3b"},"geometry":{"type":"Polygon","coordinates":[[[135.6531062681568,35.40505389279056],[135.65323748002135,35.405328861718274],[135.65392580106413,35.405094590054645],[135.65378723175212,35.40481609314231],[135.6531062681568,35.40505389279056]]]}},{"type":"Feature","properties":{"pid":"3559c5c0-b3cf-486a-aba7-4ca0c169d07f"},"geometry":{"type":"Polygon","coordinates":[[[135.65293272016484,35.40469806409774],[135.65306120891063,35.404962313317405],[135.65374519954702,35.40472159280097],[135.6536049530759,35.40444892686054],[135.65293272016484,35.40469806409774]]]}},{"type":"Feature","properties":{"pid":"90144cc5-5759-48c6-a17c-78e7b67e91fe"},"geometry":{"type":"Polygon","coordinates":[[[135.65280513489506,35.4044542384134],[135.65288018428342,35.404605139081305],[135.65355705673693,35.40435799022712],[135.65347412195888,35.40420326815694],[135.65280513489506,35.4044542384134]]]}},{"type":"Feature","properties":{"pid":"088333ce-3840-4e24-89a3-17c558c17dbf"},"geometry":{"type":"Polygon","coordinates":[[[135.65381031812052,35.40439899354647],[135.6539524898391,35.40465755917268],[135.65458377724997,35.40442185882771],[135.65443520482344,35.40415029108644],[135.65381031812052,35.40439899354647]]]}},{"type":"Feature","properties":{"pid":"b75b156e-e66b-4b3f-ae78-df511fc8e1ff"},"geometry":{"type":"Polygon","coordinates":[[[135.65399815363781,35.404751332092964],[135.65418046758373,35.40510502898474],[135.6548177211571,35.40487568802491],[135.65463430441804,35.404513911590506],[135.65399815363781,35.404751332092964]]]}},{"type":"Feature","properties":{"pid":"2f2b90d7-49d8-4d85-a439-386377fc7c53"},"geometry":{"type":"Polygon","coordinates":[[[135.65565876195095,35.40462087997596],[135.65501224316037,35.404838995619684],[135.655168483948,35.40514784857825],[135.65584243179006,35.40491364564018],[135.65570895108905,35.404639113170475],[135.65565876195095,35.40462087997596]]]}},{"type":"Feature","properties":{"pid":"c42bb28a-921a-464e-a254-b7eb86bb8bf0"},"geometry":{"type":"Polygon","coordinates":[[[135.65480246870365,35.40445251104587],[135.65496007270428,35.40474857352673],[135.65564726258833,35.40451890711181],[135.65550034137,35.40423153107422],[135.6554608726995,35.40421390879295],[135.65480246870365,35.40445251104587]]]}},{"type":"Feature","properties":{"pid":"e98cb16b-1fff-4d42-9cb4-b70c668cca0e"},"geometry":{"type":"Polygon","coordinates":[[[135.65457343338895,35.40403104090382],[135.65475351539476,35.40436244333366],[135.65542939348447,35.40411754273571],[135.6552172946499,35.4037763729577],[135.65457343338895,35.40403104090382]]]}},{"type":"Feature","properties":{"pid":"03b1f995-02bd-44f9-9b44-3668e2d91226"},"geometry":{"type":"Polygon","coordinates":[[[135.65595091074672,35.40338157220409],[135.6559235191225,35.403347677426275],[135.65551989219148,35.40316866704782],[135.65524087126448,35.40314560934915],[135.65507449220286,35.40319662870546],[135.6553445128882,35.40364050542696],[135.65595091074672,35.40338157220409]]]}},{"type":"Feature","properties":{"pid":"55ac3b27-d90c-4c5b-86a7-350e686dca3c"},"geometry":{"type":"Polygon","coordinates":[[[135.65452060562237,35.40393975298073],[135.6551576905636,35.403688556140935],[135.65488554001612,35.40325982436305],[135.65447102984504,35.403414069203976],[135.65422056655754,35.403485145319316],[135.65452060562237,35.40393975298073]]]}},{"type":"Feature","properties":{"pid":"47c1a246-a6f6-47b8-9c49-6a2ca72997ca"},"geometry":{"type":"Polygon","coordinates":[[[135.65335181526837,35.40363408213976],[135.6535824636009,35.40397930995605],[135.65416720969054,35.403729897503126],[135.65403413864792,35.40350864193492],[135.65335181526837,35.40363408213976]]]}},{"type":"Feature","properties":{"pid":"a95012e9-1395-4bc0-990f-3cf1a04e4a0a"},"geometry":{"type":"Polygon","coordinates":[[[135.65365175921127,35.404105864238375],[135.6537604464451,35.40430182368075],[135.65438149627062,35.404056262091224],[135.65422280923082,35.4038196124313],[135.65366363456894,35.40406258274504],[135.65365175921127,35.404105864238375]]]}},{"type":"Feature","properties":{"pid":"c672da74-3ee4-4bab-b97d-60e7b0bf6527"},"geometry":{"type":"Polygon","coordinates":[[[135.6523000208717,35.403604261477604],[135.6524871986731,35.40391059746656],[135.6530820298597,35.40367458558481],[135.65287478443767,35.4036696071756],[135.6523000208717,35.403604261477604]]]}},{"type":"Feature","properties":{"pid":"f5383464-8ae9-45d9-ac74-80b0ba37f2e6"},"geometry":{"type":"Polygon","coordinates":[[[135.65150170392715,35.40382575623077],[135.65156018211272,35.403924966813776],[135.65212123666163,35.40369182445789],[135.65207645396814,35.403616914043184],[135.65151265666265,35.403809105313954],[135.65150170392715,35.40382575623077]]]}},{"type":"Feature","properties":{"pid":"54b75fa2-9a35-4df9-beab-fc5f23028531"},"geometry":{"type":"Polygon","coordinates":[[[135.65163116270983,35.404034979663074],[135.6517321507694,35.40421098709203],[135.65230935061487,35.40397197125734],[135.65218278889142,35.40377770722733],[135.6516397459838,35.40400208536431],[135.65163116270983,35.404034979663074]]]}},{"type":"Feature","properties":{"pid":"e45b285c-8697-4310-800f-efd8c6ecc095"},"geometry":{"type":"Polygon","coordinates":[[[135.65255261685377,35.4040104170894],[135.65275566256312,35.40436432520485],[135.6534196046079,35.404114874532475],[135.6532360269266,35.4037608029328],[135.65255261685377,35.4040104170894]]]}},{"type":"Feature","properties":{"pid":"9b81272c-6f4f-4e17-8f6b-e9573cf58397"},"geometry":{"type":"Polygon","coordinates":[[[135.6528401645873,35.404963995540726],[135.65223139034748,35.405177218852586],[135.65227099675013,35.405254843587734],[135.6528754770793,35.40503971928961],[135.6528401645873,35.404963995540726]]]}},{"type":"Feature","properties":{"pid":"2ce45e3d-f917-4b8b-a666-f71e1a5510a4"},"geometry":{"type":"Polygon","coordinates":[[[135.6520700657813,35.40486661460798],[135.65218105866626,35.405080384503236],[135.6527973972503,35.40486590946713],[135.652689037729,35.40463912900268],[135.6520700657813,35.40486661460798]]]}},{"type":"Feature","properties":{"pid":"fc3d2224-af47-400e-b191-241b35e53e65"},"geometry":{"type":"Polygon","coordinates":[[[135.65193003200207,35.404600190932804],[135.65202163517935,35.40476822469049],[135.65264045624042,35.40454149966675],[135.65254703193844,35.40437236630723],[135.65193003200207,35.404600190932804]]]}},{"type":"Feature","properties":{"pid":"c64a0095-fa40-47a2-b155-843c4691d403"},"geometry":{"type":"Polygon","coordinates":[[[135.65177679766282,35.40429943885666],[135.65188188498908,35.4045085578809],[135.65249688485588,35.40428317073145],[135.65236773287012,35.404058037246045],[135.65177679766282,35.40429943885666]]]}},{"type":"Feature","properties":{"pid":"569a860b-ca8d-4f03-be4b-1c9dba05ce8b"},"geometry":{"type":"Polygon","coordinates":[[[135.6508664802163,35.40450107529109],[135.65098438173337,35.40471655083518],[135.65164186523072,35.404491357414614],[135.65151745760153,35.404256487087785],[135.6508664802163,35.40450107529109]]]}},{"type":"Feature","properties":{"pid":"649393f5-e46d-4cba-ab04-a7f5a8b7ff68"},"geometry":{"type":"Polygon","coordinates":[[[135.651298985382,35.40507565564032],[135.65147452025798,35.40514125593978],[135.65164257501635,35.40523531408175],[135.65195883207954,35.40512794261246],[135.65183112266246,35.40488449408537],[135.651298985382,35.40507565564032]]]}},{"type":"Feature","properties":{"pid":"30294885-ee01-47d5-a716-ef5dd0a0330c"},"geometry":{"type":"Polygon","coordinates":[[[135.65103832860643,35.40480868028131],[135.65113320184037,35.40498557110176],[135.65116999064963,35.40500321976084],[135.65178500340403,35.40478750242587],[135.65168858722296,35.404589459288566],[135.65103832860643,35.40480868028131]]]}},{"type":"Feature","properties":{"pid":"817eabbf-d77e-48c1-886d-79f93f921eb8"},"geometry":{"type":"Polygon","coordinates":[[[135.65023491884904,35.40474698458407],[135.65081970225845,35.404928185026264],[135.65090113120021,35.40491312755898],[135.65065339708772,35.404455757053846],[135.65053436887368,35.40455178913594],[135.65024967380864,35.40471215986249],[135.65023491884904,35.40474698458407]]]}},{"type":"Feature","properties":{"pid":"53c51338-48bb-40f1-9129-83f6e5a30b40"},"geometry":{"type":"Polygon","coordinates":[[[135.65077243175105,35.404338905413766],[135.6508143095441,35.40440625989308],[135.651465013867,35.40415774896135],[135.6513133657996,35.40389935545431],[135.65107895665727,35.40405074015418],[135.65085130883932,35.40428897014224],[135.65077243175105,35.404338905413766]]]}},{"type":"Feature","properties":{"pid":"b5934b1f-20e3-4af2-8dab-1bd1b164f1c9"},"geometry":{"type":"Polygon","coordinates":[[[135.65113038398204,35.40675796165724],[135.65174083320844,35.40676312416401],[135.65179413707827,35.40675078203574],[135.65180172413196,35.40664497635688],[135.65151005262047,35.406475816946795],[135.651151654811,35.40635717170913],[135.65113038398204,35.40675796165724]]]}},{"type":"Feature","properties":{"pid":"c037ffea-3a55-41ce-b228-e10fba2e0b19"},"geometry":{"type":"Polygon","coordinates":[[[135.65003168562976,35.40680655303213],[135.6509290724972,35.40682624005109],[135.65096200054907,35.406287979116115],[135.65071728416794,35.406208902147576],[135.65056008782142,35.40613863903817],[135.65006078093307,35.40603422190548],[135.65003168562976,35.40680655303213]]]}},{"type":"Feature","properties":{"pid":"04506a42-c7e2-41a4-b3dd-cef9acbfa91b"},"geometry":{"type":"Polygon","coordinates":[[[135.65298880855943,35.405268661216674],[135.65292168340903,35.40513025057216],[135.65231919508088,35.405346813328684],[135.652385585789,35.40547903723094],[135.65298880855943,35.405268661216674]]]}},{"type":"Feature","properties":{"pid":"22891245-d9d2-48e9-bc91-94fc99cb091a"},"geometry":{"type":"Polygon","coordinates":[[[135.6524313912802,35.40556726799105],[135.65247942797023,35.405658600289655],[135.65262025821377,35.40570115645523],[135.65311711460376,35.40552819955655],[135.65303043198784,35.405359572546004],[135.6524313912802,35.40556726799105]]]}},{"type":"Feature","properties":{"pid":"2b3d943d-35ff-4b3f-8af6-90a05f9b9795"},"geometry":{"type":"Polygon","coordinates":[[[135.65271492887302,35.40577534706805],[135.65287639660158,35.40582589050714],[135.6531768580717,35.405886082257574],[135.65328726867799,35.40584872424534],[135.65316668914073,35.40561596184865],[135.65271492887302,35.40577534706805]]]}}]}