{"type":"FeatureCollection","features":[{"type":"Feature","properties":{"pid":"e93a0608-18b1-46eb-9654-56edae31ce10","full":2.9},"geometry":{"type":"Polygon","coordinates":[[[135.67405,35.39759],[135.6738,35.39774],[135.67393,35.39788],[135.67408,35.39786],[135.67427,35.39784],[135.67405,35.39759]]]}},{"type":"Feature","properties":{"pid":"1bf35cd5-e1a8-4ddc-866e-1f61c4021121","full":4.8},"geometry":{"type":"Polygon","coordinates":[[[135.6735,35.39748],[135.67328,35.39761],[135.6735,35.39787],[135.67363,35.3978],[135.67373,35.3979],[135.67388,35.39788],[135.67353,35.39748],[135.67351,35.39749],[135.6735,35.39748]]]}},{"type":"Feature","properties":{"pid":"2f1d4f4d-ce45-474e-8f5b-1df6f364a97f","full":0.9},"geometry":{"type":"Polygon","coordinates":[[[135.67368,35.3974],[135.67356,35.39747],[135.67379,35.39773],[135.67391,35.39766],[135.67368,35.3974]]]}},{"type":"Feature","properties":{"pid":"977822e4-b970-482c-b605-e892d57da4f7","full":1.1},"geometry":{"type":"Polygon","coordinates":[[[135.67369,35.3974],[135.67392,35.39766],[135.67404,35.39758],[135.6738,35.39732],[135.6737,35.39738],[135.67371,35.39739],[135.67369,35.3974]]]}},{"type":"Feature","properties":{"pid":"a9b8b921-aae7-4174-ba89-6301dfb7bc62","full":1.7},"geometry":{"type":"Polygon","coordinates":[[[135.67428,35.39784],[135.6744,35.39777],[135.67404,35.39737],[135.67396,35.39735],[135.67385,35.3973],[135.67382,35.39732],[135.67428,35.39784]]]}},{"type":"Feature","properties":{"pid":"ab4ec1f1-f59d-4d5f-bd94-26df9c1a42a7","full":6.1},"geometry":{"type":"Polygon","coordinates":[[[135.67419,35.39751],[135.67443,35.39777],[135.67479,35.39749],[135.67445,35.39738],[135.67441,35.39737],[135.67419,35.39751]]]}},{"type":"Feature","properties":{"pid":"06921096-f1dd-45a2-9940-9eb59d56d517","full":1.9},"geometry":{"type":"Polygon","coordinates":[[[135.67523,35.39686],[135.67526,35.39673],[135.67474,35.39657],[135.67468,35.39669],[135.67523,35.39686]]]}},{"type":"Feature","properties":{"pid":"70c0511c-c242-4eeb-a7c8-4be7ddd5a6bc","full":1.1},"geometry":{"type":"Polygon","coordinates":[[[135.67418,35.39642],[135.67423,35.39656],[135.67461,35.39667],[135.67467,35.39656],[135.67418,35.39642]]]}},{"type":"Feature","properties":{"pid":"5643db7b-2740-4de4-8bf9-aa27fb06b903","full":1.1},"geometry":{"type":"Polygon","coordinates":[[[135.67468,35.3967],[135.67462,35.39683],[135.67466,35.39686],[135.6748,35.39691],[135.67487,35.39693],[135.67492,35.39677],[135.67468,35.3967]]]}},{"type":"Feature","properties":{"pid":"3f79d17b-0a39-4756-bbb0-b856fbeb7aa3","full":1.0},"geometry":{"type":"Polygon","coordinates":[[[135.67327,35.39761],[135.67316,35.39768],[135.67343,35.39799],[135.67356,35.39795],[135.67327,35.39761]]]}},{"type":"Feature","properties":{"pid":"5a2a1210-b760-4e36-94c4-830cab34c836","full":0.9},"geometry":{"type":"Polygon","coordinates":[[[135.6733,35.39804],[135.67342,35.39799],[135.67315,35.39769],[135.67304,35.39776],[135.67329,35.39804],[135.6733,35.39804]]]}},{"type":"Feature","properties":{"pid":"4eb7cd73-b880-4d45-9d85-e192a88332b1","full":5.1},"geometry":{"type":"Polygon","coordinates":[[[135.673,35.39778],[135.67277,35.39792],[135.673,35.39818],[135.67327,35.39805],[135.67304,35.39779],[135.67302,35.3978],[135.673,35.39778]]]}},{"type":"Feature","properties":{"pid":"61ae9769-77e4-4171-9866-b85e36584685","full":2.1},"geometry":{"type":"Polygon","coordinates":[[[135.67002,35.39955],[135.66996,35.39958],[135.66984,35.39967],[135.66997,35.39987],[135.67018,35.39981],[135.67002,35.39955]]]}},{"type":"Feature","properties":{"pid":"3411e2d0-3922-4c2e-9d33-06aa9ac25413","full":6.4},"geometry":{"type":"Polygon","coordinates":[[[135.67019,35.3998],[135.67051,35.39971],[135.67054,35.39967],[135.6705,35.39959],[135.67033,35.39938],[135.67003,35.39954],[135.67019,35.3998]]]}},{"type":"Feature","properties":{"pid":"de5579a5-c95d-4fa6-bb70-074b2a3e60fb","full":1.0},"geometry":{"type":"Polygon","coordinates":[[[135.6707,35.39913],[135.67095,35.39939],[135.67107,35.39932],[135.67083,35.39906],[135.6707,35.39913]]]}},{"type":"Feature","properties":{"pid":"72a19eb6-f3e0-471e-872c-c19a0d85a9cc","full":1.1},"geometry":{"type":"Polygon","coordinates":[[[135.6707,35.39914],[135.67058,35.39921],[135.67081,35.39947],[135.67094,35.3994],[135.6707,35.39914]]]}},{"type":"Feature","properties":{"pid":"980689f8-4567-4117-86b0-f8ca27c24d26","full":1.3},"geometry":{"type":"Polygon","coordinates":[[[135.67057,35.39921],[135.67045,35.39928],[135.67078,35.39964],[135.67086,35.39963],[135.67092,35.3996],[135.67057,35.39921]]]}},{"type":"Feature","properties":{"pid":"67114f2b-79fa-4ea0-9da2-70e1598a3b63","full":1.4},"geometry":{"type":"Polygon","coordinates":[[[135.67082,35.39948],[135.67093,35.39959],[135.6712,35.39947],[135.67107,35.39933],[135.67082,35.39948]]]}},{"type":"Feature","properties":{"pid":"a993a5a8-fc2c-420a-9cf3-1cd673d731d5","full":1.3},"geometry":{"type":"Polygon","coordinates":[[[135.67122,35.39882],[135.6716,35.39927],[135.67171,35.3992],[135.67155,35.39902],[135.67134,35.39875],[135.67122,35.39882]]]}},{"type":"Feature","properties":{"pid":"d57270d7-5003-44e5-98f0-16044d9c8126","full":1.2},"geometry":{"type":"Polygon","coordinates":[[[135.67132,35.39917],[135.67135,35.39915],[135.6715,35.39932],[135.6716,35.39928],[135.67121,35.39882],[135.67109,35.3989],[135.67132,35.39917]]]}},{"type":"Feature","properties":{"pid":"5d190a61-0035-4d4b-8925-3d734663bbf6","full":0.7},"geometry":{"type":"Polygon","coordinates":[[[135.67135,35.39916],[135.67121,35.39925],[135.67135,35.3994],[135.67149,35.39932],[135.67135,35.39916]]]}},{"type":"Feature","properties":{"pid":"bedaa784-0472-41c3-914b-1ff453256962","full":1.8},"geometry":{"type":"Polygon","coordinates":[[[135.6712,35.39946],[135.67134,35.3994],[135.67096,35.39898],[135.67084,35.39905],[135.6712,35.39946]]]}},{"type":"Feature","properties":{"pid":"934cea10-42b8-4868-b2cb-bbd8ed98b4dc","full":9.0},"geometry":{"type":"Polygon","coordinates":[[[135.67153,35.3983],[135.67168,35.39846],[135.67173,35.39847],[135.67238,35.39807],[135.67235,35.39803],[135.67206,35.398],[135.672,35.39801],[135.67196,35.39803],[135.67175,35.39818],[135.67153,35.3983]]]}},{"type":"Feature","properties":{"pid":"cd8a5235-2e01-468f-b38f-0fe249c41fa4","full":1.4},"geometry":{"type":"Polygon","coordinates":[[[135.67197,35.39838],[135.67222,35.39865],[135.6721,35.39872],[135.67215,35.39878],[135.67236,35.39859],[135.67211,35.3983],[135.67197,35.39838]]]}},{"type":"Feature","properties":{"pid":"6b4d1b01-744d-4a40-ac4d-b470ad17694e","full":0.7},"geometry":{"type":"Polygon","coordinates":[[[135.67221,35.39865],[135.67197,35.39838],[135.67186,35.39845],[135.67209,35.39871],[135.67221,35.39865]]]}},{"type":"Feature","properties":{"pid":"146602c3-4f72-47ff-b0c0-1de99407cd06","full":6.6},"geometry":{"type":"Polygon","coordinates":[[[135.67185,35.39845],[135.67161,35.3986],[135.67196,35.39898],[135.67206,35.39888],[135.67214,35.39879],[135.67185,35.39845]]]}},{"type":"Feature","properties":{"pid":"52b0a267-926e-4c5f-ac6e-3e088ef38800","full":1.1},"geometry":{"type":"Polygon","coordinates":[[[135.67188,35.39902],[135.67192,35.39897],[135.67158,35.3986],[135.67146,35.39868],[135.67169,35.39894],[135.67177,35.39889],[135.67188,35.39902]]]}},{"type":"Feature","properties":{"pid":"5624b1e6-4519-4827-93ec-f05a5521cb1e","full":2.7},"geometry":{"type":"Polygon","coordinates":[[[135.67145,35.39869],[135.67135,35.39874],[135.67156,35.39902],[135.67172,35.39919],[135.67189,35.39904],[135.67177,35.3989],[135.67169,35.39895],[135.67145,35.39869]]]}},{"type":"Feature","properties":{"pid":"3ea5e65d-ba88-49b7-aeef-468427bfd425","full":5.8},"geometry":{"type":"Polygon","coordinates":[[[135.67236,35.39858],[135.67252,35.39845],[135.67269,35.39835],[135.6725,35.39814],[135.67227,35.39828],[135.67222,35.39823],[135.67211,35.3983],[135.67236,35.39858]]]}},{"type":"Feature","properties":{"pid":"c17b105d-23b8-410c-9ea6-162d136cfccb","full":0.5},"geometry":{"type":"Polygon","coordinates":[[[135.67265,35.39799],[135.67288,35.39824],[135.67299,35.39819],[135.67276,35.39792],[135.67265,35.39799]]]}},{"type":"Feature","properties":{"pid":"fdf350c6-8f9f-4975-a841-95627dfaa1f4","full":2.0},"geometry":{"type":"Polygon","coordinates":[[[135.67225,35.40086],[135.67238,35.40097],[135.67251,35.40091],[135.67264,35.40083],[135.67247,35.40067],[135.67225,35.40086]]]}},{"type":"Feature","properties":{"pid":"d704f26c-6361-4212-a3b0-495b40f2dd90","full":0.9},"geometry":{"type":"Polygon","coordinates":[[[135.67161,35.40069],[135.67171,35.4006],[135.67143,35.40037],[135.67132,35.40046],[135.67161,35.40069]]]}},{"type":"Feature","properties":{"pid":"3e0cf7f6-5a5a-4a4e-ba2a-ea265bd627e9","full":0.8},"geometry":{"type":"Polygon","coordinates":[[[135.67132,35.40046],[135.67125,35.40052],[135.67134,35.40066],[135.67147,35.40078],[135.67161,35.40069],[135.67132,35.40046]]]}},{"type":"Feature","properties":{"pid":"69cd4e04-1d99-4b11-8535-f3910177204a","full":0.5},"geometry":{"type":"Polygon","coordinates":[[[135.67171,35.4006],[135.6718,35.40051],[135.67159,35.40034],[135.67157,35.40035],[135.67151,35.4003],[135.67143,35.40037],[135.67171,35.4006]]]}},{"type":"Feature","properties":{"pid":"683cdee5-e16c-4225-a281-8ca7cbdf276b","full":1.2},"geometry":{"type":"Polygon","coordinates":[[[135.66886,35.40008],[135.66859,35.40019],[135.66868,35.40033],[135.66895,35.40023],[135.66886,35.40008]]]}},{"type":"Feature","properties":{"pid":"0303bc6f-75fe-457b-93f6-17248a5535b8","full":1.7},"geometry":{"type":"Polygon","coordinates":[[[135.66921,35.40188],[135.66933,35.40182],[135.66896,35.40127],[135.66884,35.40133],[135.66921,35.40188]]]}},{"type":"Feature","properties":{"pid":"9a910447-a52e-4c28-afe0-f304e106a3bb","full":1.8},"geometry":{"type":"Polygon","coordinates":[[[135.66934,35.40182],[135.66947,35.40176],[135.6691,35.40121],[135.66897,35.40127],[135.66934,35.40182]]]}},{"type":"Feature","properties":{"pid":"9f878b15-20ba-4d41-9e88-bb4c2423742e","full":1.7},"geometry":{"type":"Polygon","coordinates":[[[135.66961,35.40169],[135.66974,35.40164],[135.66937,35.40108],[135.66925,35.40114],[135.66961,35.40169]]]}},{"type":"Feature","properties":{"pid":"658ca63e-76c2-45cb-8d80-200855e59cca","full":0.9},"geometry":{"type":"Polygon","coordinates":[[[135.66975,35.40163],[135.66986,35.40158],[135.66949,35.40103],[135.66938,35.40108],[135.66975,35.40163]]]}},{"type":"Feature","properties":{"pid":"694df4aa-2490-4ab0-b440-4b432acaf46f","full":1.8},"geometry":{"type":"Polygon","coordinates":[[[135.66948,35.40175],[135.6696,35.4017],[135.66924,35.40114],[135.66911,35.4012],[135.66948,35.40175]]]}},{"type":"Feature","properties":{"pid":"bcbde7d9-c067-43f7-9072-a97225c9b26e","full":1.2},"geometry":{"type":"Polygon","coordinates":[[[135.66964,35.40096],[135.67001,35.40151],[135.67013,35.40146],[135.66976,35.40091],[135.66964,35.40096]]]}},{"type":"Feature","properties":{"pid":"99a6385c-d070-4ae8-822f-418ad72c3bde","full":1.5},"geometry":{"type":"Polygon","coordinates":[[[135.66951,35.40102],[135.66988,35.40157],[135.67,35.40152],[135.66963,35.40097],[135.66951,35.40102]]]}},{"type":"Feature","properties":{"pid":"f26b5f46-a7be-44d1-ba5a-4a85e374f7ff","full":2.5},"geometry":{"type":"Polygon","coordinates":[[[135.6705,35.40164],[135.67073,35.40144],[135.67063,35.40129],[135.67035,35.40142],[135.6705,35.40164]]]}},{"type":"Feature","properties":{"pid":"2f2a9cce-d350-44b2-be7c-3b6e4220363b","full":0.6},"geometry":{"type":"Polygon","coordinates":[[[135.67035,35.40142],[135.67021,35.40148],[135.6704,35.40173],[135.6705,35.40165],[135.67035,35.40142]]]}},{"type":"Feature","properties":{"pid":"b703e62c-4f89-4d31-a15a-b5186f613cb2","full":0.9},"geometry":{"type":"Polygon","coordinates":[[[135.66963,35.40175],[135.66951,35.40181],[135.6697,35.4021],[135.66986,35.4021],[135.66963,35.40175]]]}},{"type":"Feature","properties":{"pid":"faddd2fb-3fd8-4b76-a079-c84ab0dd0734","full":0.8},"geometry":{"type":"Polygon","coordinates":[[[135.66988,35.40182],[135.67004,35.40205],[135.67015,35.40195],[135.67001,35.40176],[135.66988,35.40182]]]}},{"type":"Feature","properties":{"pid":"bd941bfd-f9d4-4376-997c-fe4f2b808581","full":2.3},"geometry":{"type":"Polygon","coordinates":[[[135.66979,35.40168],[135.66988,35.40181],[135.67014,35.40169],[135.67026,35.40186],[135.67035,35.40177],[135.67017,35.40151],[135.66979,35.40168]]]}},{"type":"Feature","properties":{"pid":"c0e109b5-c0ca-475a-87ab-b36d0ea3a611","full":0.8},"geometry":{"type":"Polygon","coordinates":[[[135.66993,35.4019],[135.66978,35.40168],[135.66964,35.40175],[135.66979,35.40196],[135.66993,35.4019]]]}},{"type":"Feature","properties":{"pid":"4ff62e15-f73c-4013-9399-ff3609b75514","full":0.8},"geometry":{"type":"Polygon","coordinates":[[[135.6695,35.40181],[135.66937,35.40187],[135.66953,35.40211],[135.66969,35.4021],[135.6695,35.40181]]]}},{"type":"Feature","properties":{"pid":"0663d6f5-2326-4e56-ab42-89d26c87b596","full":2.3},"geometry":{"type":"Polygon","coordinates":[[[135.66922,35.40216],[135.66937,35.40213],[135.66952,35.40211],[135.66935,35.40188],[135.66911,35.40199],[135.66922,35.40216]]]}},{"type":"Feature","properties":{"pid":"3b8835fa-e5b6-4461-b110-a47f39b42915","full":2.3},"geometry":{"type":"Polygon","coordinates":[[[135.66883,35.40133],[135.6687,35.4014],[135.66906,35.40194],[135.6692,35.40188],[135.66883,35.40133]]]}},{"type":"Feature","properties":{"pid":"97a8c417-8a1d-4355-8feb-1a6e4d9f8708","full":1.4},"geometry":{"type":"Polygon","coordinates":[[[135.66893,35.402],[135.66905,35.40195],[135.66869,35.40141],[135.66858,35.40148],[135.66893,35.402]]]}},{"type":"Feature","properties":{"pid":"100d4203-11b3-41d5-a467-3a1f419a612c","full":4.5},"geometry":{"type":"Polygon","coordinates":[[[135.66834,35.40163],[135.66868,35.40214],[135.66882,35.40208],[135.66863,35.40179],[135.66874,35.40173],[135.66857,35.4015],[135.66834,35.40163]]]}},{"type":"Feature","properties":{"pid":"ec0cb61b-1b57-46db-9706-1e3aa3138bd2","full":1.7},"geometry":{"type":"Polygon","coordinates":[[[135.66834,35.40164],[135.66822,35.40172],[135.66854,35.4022],[135.66867,35.40214],[135.66834,35.40164]]]}},{"type":"Feature","properties":{"pid":"84a34116-50e4-48f2-a7bd-5a8acc47dffd","full":11.9},"geometry":{"type":"Polygon","coordinates":[[[135.66445,35.40376],[135.66429,35.40344],[135.66377,35.4036],[135.66392,35.40393],[135.66445,35.40376]]]}},{"type":"Feature","properties":{"pid":"e02095af-dab0-4048-8995-bc6aeed9b44d","full":38.7},"geometry":{"type":"Polygon","coordinates":[[[135.66317,35.40378],[135.66349,35.40454],[135.6641,35.40444],[135.66375,35.4036],[135.66317,35.40378]]]}},{"type":"Feature","properties":{"pid":"6a3e407c-69b3-4661-ab13-bb8e457536fb","full":2.1},"geometry":{"type":"Polygon","coordinates":[[[135.66392,35.40394],[135.66397,35.40406],[135.66451,35.4039],[135.66445,35.40376],[135.66392,35.40394]]]}},{"type":"Feature","properties":{"pid":"fb785d32-67b5-44db-b7a3-c1515d69fbfc","full":3.1},"geometry":{"type":"Polygon","coordinates":[[[135.66398,35.40407],[135.66404,35.40421],[135.66459,35.40405],[135.66452,35.4039],[135.66398,35.40407]]]}},{"type":"Feature","properties":{"pid":"edf93ab0-12c9-4c0d-aca1-cbd712bc26d7","full":8.7},"geometry":{"type":"Polygon","coordinates":[[[135.66404,35.40422],[135.66413,35.40444],[135.66429,35.40442],[135.66471,35.40436],[135.66459,35.40405],[135.66404,35.40422]]]}},{"type":"Feature","properties":{"pid":"b8d3ae6f-b975-4ca0-8327-c1cb06bb20e1","full":3.8},"geometry":{"type":"Polygon","coordinates":[[[135.65833,35.40524],[135.65848,35.40569],[135.65868,35.40564],[135.65852,35.40516],[135.65844,35.40518],[135.65833,35.40524]]]}},{"type":"Feature","properties":{"pid":"3c6a0a1c-72b2-42d0-a1a6-5ec21c1e8663","full":31.5},"geometry":{"type":"Polygon","coordinates":[[[135.65875,35.40503],[135.65859,35.40511],[135.65876,35.4056],[135.65951,35.40546],[135.6593,35.40491],[135.65927,35.40492],[135.65926,35.40489],[135.65875,35.40503]]]}},{"type":"Feature","properties":{"pid":"99977e99-fa53-4794-9dda-722e8c0740ee","full":34.4},"geometry":{"type":"Polygon","coordinates":[[[135.66039,35.40459],[135.66064,35.40523],[135.66121,35.40508],[135.6612,35.40488],[135.66117,35.40456],[135.66121,35.40456],[135.66115,35.40441],[135.66113,35.4044],[135.66039,35.40459]]]}},{"type":"Feature","properties":{"pid":"af7ccfc5-48a3-4b8d-be75-c0ad7e5439ff","full":7.4},"geometry":{"type":"Polygon","coordinates":[[[135.66271,35.40427],[135.6626,35.40395],[135.66223,35.40407],[135.66223,35.40409],[135.6622,35.40411],[135.66224,35.40425],[135.66234,35.40437],[135.66271,35.40427]]]}},{"type":"Feature","properties":{"pid":"6ae3d52a-0bc8-4fda-b799-0a0356a16ae5","full":30.2},"geometry":{"type":"Polygon","coordinates":[[[135.66261,35.40395],[135.66273,35.40426],[135.66283,35.40454],[135.66288,35.40456],[135.66316,35.40449],[135.66322,35.40463],[135.66347,35.40455],[135.66317,35.40381],[135.66313,35.40381],[135.66312,35.40379],[135.66261,35.40395]]]}},{"type":"Feature","properties":{"pid":"b377bace-177d-4d9f-a6d5-e984b5881c58","full":61.8},"geometry":{"type":"Polygon","coordinates":[[[135.66177,35.40336],[135.6621,35.40403],[135.6631,35.40371],[135.66278,35.40304],[135.66177,35.40336]]]}},{"type":"Feature","properties":{"pid":"23bd2fe4-a72b-408f-85d8-264b5f14cc62","full":48.7},"geometry":{"type":"Polygon","coordinates":[[[135.66092,35.4036],[135.66123,35.40428],[135.66206,35.40404],[135.66175,35.40337],[135.66092,35.4036]]]}},{"type":"Feature","properties":{"pid":"3defd7fc-b054-4c71-94e3-954ef08a2877","full":18.7},"geometry":{"type":"Polygon","coordinates":[[[135.6599,35.40464],[135.66036,35.40451],[135.66009,35.40386],[135.6597,35.40419],[135.6599,35.40464]]]}},{"type":"Feature","properties":{"pid":"93d27a6d-40ca-4a8d-9e59-3e02162901d0","full":51.0},"geometry":{"type":"Polygon","coordinates":[[[135.6601,35.40385],[135.66037,35.4045],[135.66111,35.40431],[135.66112,35.40429],[135.66067,35.40336],[135.6604,35.40357],[135.6601,35.40385]]]}},{"type":"Feature","properties":{"pid":"08d983ff-06e0-48b6-839c-030a7b8b82a5","full":28.8},"geometry":{"type":"Polygon","coordinates":[[[135.66014,35.40516],[135.66045,35.40508],[135.66037,35.40488],[135.66046,35.40484],[135.66037,35.40463],[135.66028,35.40462],[135.65962,35.4048],[135.65983,35.4054],[135.6602,35.40532],[135.66014,35.40516]]]}},{"type":"Feature","properties":{"pid":"f404b84d-e832-426f-8214-083c72035558","full":10.7},"geometry":{"type":"Polygon","coordinates":[[[135.65951,35.40546],[135.65982,35.4054],[135.65961,35.40482],[135.65957,35.40483],[135.65956,35.4048],[135.6593,35.40487],[135.65951,35.40546]]]}},{"type":"Feature","properties":{"pid":"4b40e396-97bb-4c19-8ec4-855ae207a995","full":14.7},"geometry":{"type":"Polygon","coordinates":[[[135.65906,35.40486],[135.65988,35.40464],[135.65969,35.4042],[135.65902,35.40476],[135.65906,35.40486]]]}},{"type":"Feature","properties":{"pid":"02d6f785-b994-4276-a1df-e251ba4fe0d1","full":44.3},"geometry":{"type":"Polygon","coordinates":[[[135.66073,35.40331],[135.66087,35.40357],[135.66209,35.40318],[135.66185,35.40263],[135.6611,35.40305],[135.66084,35.40322],[135.66073,35.40331]]]}},{"type":"Feature","properties":{"pid":"32bc8660-9a8e-40d7-a088-ea5cba278648","full":28.4},"geometry":{"type":"Polygon","coordinates":[[[135.66187,35.40263],[135.66213,35.40317],[135.66273,35.403],[135.66241,35.40236],[135.66187,35.40263]]]}},{"type":"Feature","properties":{"pid":"02041edc-b827-4377-b547-1f5625957155","full":47.6},"geometry":{"type":"Polygon","coordinates":[[[135.66243,35.40234],[135.66274,35.403],[135.66352,35.40276],[135.66321,35.40207],[135.66317,35.40207],[135.66316,35.40206],[135.66273,35.40221],[135.66243,35.40234]]]}},{"type":"Feature","properties":{"pid":"338558d5-a16b-4b4e-8d62-2babcf333056","full":58.7},"geometry":{"type":"Polygon","coordinates":[[[135.6628,35.40304],[135.66312,35.4037],[135.66407,35.40341],[135.66405,35.40337],[135.66407,35.40336],[135.66378,35.40273],[135.6628,35.40304]]]}},{"type":"Feature","properties":{"pid":"1b2c3f82-aa26-46d6-bb27-6f5359e216bb","full":35.8},"geometry":{"type":"Polygon","coordinates":[[[135.66379,35.40272],[135.6641,35.40339],[135.66471,35.40321],[135.66446,35.40252],[135.66379,35.40272]]]}},{"type":"Feature","properties":{"pid":"5e86bc7d-2538-4785-b17b-ffa2e328b03e","full":43.8},"geometry":{"type":"Polygon","coordinates":[[[135.66322,35.40205],[135.66354,35.40275],[135.66442,35.40248],[135.66428,35.40209],[135.6642,35.40207],[135.66381,35.40204],[135.66344,35.40204],[135.66322,35.40205]]]}},{"type":"Feature","properties":{"pid":"579fbc05-36e9-4600-8636-1b6cc510ca2e","full":3.1},"geometry":{"type":"Polygon","coordinates":[[[135.66495,35.40266],[135.66485,35.40226],[135.6646,35.40218],[135.66479,35.40269],[135.66495,35.40266]]]}},{"type":"Feature","properties":{"pid":"b74b9219-c316-4e9d-8474-37e0faaa0c35","full":0.8},"geometry":{"type":"Polygon","coordinates":[[[135.66496,35.40266],[135.6651,35.40264],[135.66503,35.40232],[135.66488,35.40234],[135.66496,35.40266]]]}},{"type":"Feature","properties":{"pid":"b22a3d0e-a400-4a73-8ac7-40308d7a302e","full":0.6},"geometry":{"type":"Polygon","coordinates":[[[135.66511,35.40264],[135.66525,35.40261],[135.66519,35.40238],[135.66507,35.40233],[135.66503,35.40232],[135.66511,35.40264]]]}},{"type":"Feature","properties":{"pid":"cf203b21-3eed-42b4-8112-cd5cc8e7ef08","full":0.7},"geometry":{"type":"Polygon","coordinates":[[[135.66541,35.40258],[135.66571,35.40253],[135.66568,35.40245],[135.66554,35.40243],[135.66537,35.40241],[135.66541,35.40258]]]}},{"type":"Feature","properties":{"pid":"ad46ce79-5e84-4edb-a4fa-df34848178b6","full":4.9},"geometry":{"type":"Polygon","coordinates":[[[135.66541,35.40259],[135.66549,35.40292],[135.66579,35.40286],[135.66571,35.40253],[135.66541,35.40259]]]}},{"type":"Feature","properties":{"pid":"c164c15b-5bed-4112-adf0-2c5d6b238dc6","full":1.0},"geometry":{"type":"Polygon","coordinates":[[[135.66534,35.40295],[135.66525,35.40262],[135.6651,35.40265],[135.66519,35.40298],[135.66534,35.40295]]]}},{"type":"Feature","properties":{"pid":"85e2452b-c73f-4ed1-a800-00c7beff2f03","full":1.5},"geometry":{"type":"Polygon","coordinates":[[[135.66534,35.40295],[135.66548,35.40292],[135.66536,35.40241],[135.6652,35.40237],[135.66534,35.40295]]]}},{"type":"Feature","properties":{"pid":"3042e9f3-f363-4cdb-b5d2-323abb739fde","full":0.5},"geometry":{"type":"Polygon","coordinates":[[[135.6648,35.4027],[135.66493,35.40302],[135.66504,35.403],[135.66495,35.40268],[135.6648,35.4027]]]}},{"type":"Feature","properties":{"pid":"a8c79221-41d0-44f8-a536-1ed8e6d1b9d1","full":0.9},"geometry":{"type":"Polygon","coordinates":[[[135.66496,35.40267],[135.66504,35.403],[135.66519,35.40298],[135.66509,35.40265],[135.66496,35.40267]]]}},{"type":"Feature","properties":{"pid":"a628c8d7-be71-46f4-95c6-c127d00014ac","full":5.9},"geometry":{"type":"Polygon","coordinates":[[[135.66579,35.40286],[135.66609,35.40281],[135.666,35.40243],[135.66569,35.40245],[135.66579,35.40286]]]}},{"type":"Feature","properties":{"pid":"710b868c-762a-46c2-85f2-ade7da5e892d","full":0.9},"geometry":{"type":"Polygon","coordinates":[[[135.6661,35.40281],[135.66624,35.40278],[135.66614,35.40241],[135.666,35.40243],[135.6661,35.40281]]]}},{"type":"Feature","properties":{"pid":"4c90b2c6-d9d1-4952-9c86-11f314045543","full":0.7},"geometry":{"type":"Polygon","coordinates":[[[135.66625,35.40278],[135.66639,35.40275],[135.6663,35.40242],[135.66616,35.40244],[135.66625,35.40278]]]}},{"type":"Feature","properties":{"pid":"ba0e471a-16ae-4e75-a6a7-105ee3062f7c","full":0.7},"geometry":{"type":"Polygon","coordinates":[[[135.66644,35.4024],[135.66631,35.40242],[135.66639,35.40275],[135.66653,35.40272],[135.66644,35.4024]]]}},{"type":"Feature","properties":{"pid":"e23d9ee6-758a-49ad-9767-40e4447edfb4","full":1.0},"geometry":{"type":"Polygon","coordinates":[[[135.6666,35.40237],[135.66645,35.40239],[135.66654,35.40272],[135.66668,35.40269],[135.6666,35.40237]]]}},{"type":"Feature","properties":{"pid":"183ee59f-5b60-4929-b121-e0961bab7770","full":1.1},"geometry":{"type":"Polygon","coordinates":[[[135.66716,35.4026],[135.6673,35.40257],[135.66722,35.40219],[135.66708,35.40223],[135.66716,35.4026]]]}},{"type":"Feature","properties":{"pid":"8830c351-891e-4b1a-a905-90795a110bdd","full":1.2},"geometry":{"type":"Polygon","coordinates":[[[135.66737,35.40215],[135.66723,35.40219],[135.66731,35.40257],[135.66745,35.40254],[135.66737,35.40215]]]}},{"type":"Feature","properties":{"pid":"bc19f681-5543-48df-8bda-3515b411b2ce","full":1.5},"geometry":{"type":"Polygon","coordinates":[[[135.66766,35.40203],[135.66752,35.40209],[135.66761,35.40252],[135.66776,35.40249],[135.66766,35.40203]]]}},{"type":"Feature","properties":{"pid":"3af13a2b-5286-4e14-b70e-eba220fd1aab","full":1.1},"geometry":{"type":"Polygon","coordinates":[[[135.66751,35.40209],[135.66738,35.40214],[135.66746,35.40254],[135.6676,35.40252],[135.66751,35.40209]]]}},{"type":"Feature","properties":{"pid":"ae72ecc1-d8f1-4803-8392-1d6920229398","full":0.8},"geometry":{"type":"Polygon","coordinates":[[[135.6677,35.40217],[135.66777,35.40249],[135.66791,35.40246],[135.66784,35.40214],[135.6677,35.40217]]]}},{"type":"Feature","properties":{"pid":"a51f979d-0fde-4423-9da5-15ba0ec5654f","full":1.4},"geometry":{"type":"Polygon","coordinates":[[[135.66783,35.40194],[135.66813,35.4024],[135.66825,35.40233],[135.66795,35.40187],[135.66783,35.40194]]]}},{"type":"Feature","properties":{"pid":"deebd706-6886-44aa-806a-69ee8b3b9223","full":1.8},"geometry":{"type":"Polygon","coordinates":[[[135.6677,35.40216],[135.66785,35.40214],[135.66792,35.40246],[135.66808,35.40243],[135.66813,35.4024],[135.66782,35.40195],[135.66767,35.40202],[135.6677,35.40216]]]}},{"type":"Feature","properties":{"pid":"8657d75f-435c-488f-adb9-bd502da6301f","full":8.4},"geometry":{"type":"Polygon","coordinates":[[[135.66826,35.40233],[135.66852,35.40221],[135.6682,35.40173],[135.66795,35.40187],[135.66826,35.40233]]]}},{"type":"Feature","properties":{"pid":"32304b08-3714-4e59-840a-4be6adadb054","full":1.1},"geometry":{"type":"Polygon","coordinates":[[[135.66707,35.40223],[135.66692,35.40227],[135.66701,35.40263],[135.66715,35.4026],[135.66707,35.40223]]]}},{"type":"Feature","properties":{"pid":"8e83d7a7-83d3-49b0-81f9-ab1cce29ac44","full":0.8},"geometry":{"type":"Polygon","coordinates":[[[135.66686,35.40266],[135.66699,35.40264],[135.6669,35.40228],[135.66676,35.4023],[135.66686,35.40266]]]}},{"type":"Feature","properties":{"pid":"8553dae6-ddc5-4a9c-bc33-08fccc4cd9d7","full":1.2},"geometry":{"type":"Polygon","coordinates":[[[135.66661,35.40234],[135.66669,35.40269],[135.66685,35.40266],[135.66675,35.40231],[135.66661,35.40234]]]}},{"type":"Feature","properties":{"pid":"35a110b5-c728-40fe-a35a-d11f6d855903","full":2.2},"geometry":{"type":"Polygon","coordinates":[[[135.67422,35.39597],[135.67419,35.3961],[135.67481,35.39627],[135.67486,35.39615],[135.67422,35.39597]]]}},{"type":"Feature","properties":{"pid":"ab480738-70e3-446b-80fe-4f1c861057a6","full":2.2},"geometry":{"type":"Polygon","coordinates":[[[135.67428,35.39583],[135.67424,35.39589],[135.67422,35.39596],[135.67486,35.39614],[135.67491,35.39602],[135.67428,35.39583]]]}},{"type":"Feature","properties":{"pid":"bda61fe0-fc76-461d-8f6c-ed306c3ca7d7","full":11.6},"geometry":{"type":"Polygon","coordinates":[[[135.65662,35.40423],[135.65678,35.40451],[135.65736,35.40428],[135.65721,35.40402],[135.65719,35.40403],[135.65718,35.40401],[135.65662,35.40423]]]}},{"type":"Feature","properties":{"pid":"61c04697-3f81-4451-9389-4c7032ec63a4","full":14.4},"geometry":{"type":"Polygon","coordinates":[[[135.6561,35.40338],[135.65636,35.40379],[135.65693,35.40357],[135.65674,35.40327],[135.6567,35.40327],[135.65636,35.40339],[135.65623,35.4034],[135.6561,35.40338]]]}},{"type":"Feature","properties":{"pid":"957419d3-3569-41bf-bb90-f6e2ba9b86cc","full":23.2},"geometry":{"type":"Polygon","coordinates":[[[135.65533,35.40371],[135.65556,35.40407],[135.65629,35.4038],[135.65604,35.40341],[135.65533,35.40371]]]}},{"type":"Feature","properties":{"pid":"049b534e-0fd8-438e-826b-9dcb914ba680","full":30.2},"geometry":{"type":"Polygon","coordinates":[[[135.65557,35.40409],[135.65583,35.40455],[135.65658,35.40429],[135.6563,35.40381],[135.65557,35.40409]]]}},{"type":"Feature","properties":{"pid":"03fabcff-d4a2-497f-b6c7-814929748798","full":20.1},"geometry":{"type":"Polygon","coordinates":[[[135.65636,35.40379],[135.65662,35.40423],[135.65719,35.40399],[135.65696,35.4036],[135.65692,35.40361],[135.6569,35.40359],[135.65636,35.40379]]]}},{"type":"Feature","properties":{"pid":"d2dff5a4-1353-4916-8beb-8c87d1d12ced","full":14.5},"geometry":{"type":"Polygon","coordinates":[[[135.65583,35.40456],[135.65598,35.40483],[135.65673,35.40457],[135.65659,35.4043],[135.65583,35.40456]]]}},{"type":"Feature","properties":{"pid":"00befa32-9589-44b8-8edb-db8b76c8394c","full":27.7},"geometry":{"type":"Polygon","coordinates":[[[135.65599,35.40487],[135.65625,35.40534],[135.65694,35.40499],[135.65672,35.40459],[135.65603,35.40483],[135.65604,35.40486],[135.65599,35.40487]]]}},{"type":"Feature","properties":{"pid":"302c146b-930c-4c13-93b8-40f2b54a4933","full":18.6},"geometry":{"type":"Polygon","coordinates":[[[135.65678,35.40451],[135.65701,35.40495],[135.65753,35.40467],[135.65754,35.40464],[135.65754,35.40462],[135.65739,35.40431],[135.65736,35.40432],[135.65735,35.4043],[135.65678,35.40451]]]}},{"type":"Feature","properties":{"pid":"2818c725-82a6-4839-b860-59b2a0404d9c","full":30.2},"geometry":{"type":"Polygon","coordinates":[[[135.65515,35.40522],[135.65537,35.40569],[135.65564,35.4056],[135.65613,35.4054],[135.65614,35.40537],[135.65593,35.40497],[135.6559,35.40498],[135.65589,35.40496],[135.65515,35.40522]]]}},{"type":"Feature","properties":{"pid":"ab7046d9-eefb-4d71-8061-f2a9a7a9af18","full":18.1},"geometry":{"type":"Polygon","coordinates":[[[135.65507,35.40525],[135.6549,35.40491],[135.65418,35.40517],[135.65419,35.40519],[135.65416,35.4052],[135.65422,35.40531],[135.65429,35.40529],[135.6544,35.40549],[135.65507,35.40525]]]}},{"type":"Feature","properties":{"pid":"881ebe0a-7727-4e27-a6b3-bbec313dd403","full":23.0},"geometry":{"type":"Polygon","coordinates":[[[135.65441,35.4055],[135.65457,35.40584],[135.65468,35.4059],[135.65529,35.4057],[135.65508,35.40527],[135.65441,35.4055]]]}},{"type":"Feature","properties":{"pid":"be3f3a15-7d3b-4ef5-8255-4f28988a5060","full":23.9},"geometry":{"type":"Polygon","coordinates":[[[135.65335,35.40568],[135.6535,35.40596],[135.65371,35.40598],[135.65398,35.40599],[135.65425,35.40597],[135.65429,35.40592],[135.65406,35.40545],[135.65403,35.40546],[135.65401,35.40544],[135.65335,35.40568]]]}},{"type":"Feature","properties":{"pid":"147ab318-1350-4c58-ad1c-774297c64dd5","full":13.9},"geometry":{"type":"Polygon","coordinates":[[[135.65412,35.40538],[135.654,35.40513],[135.65321,35.4054],[135.65334,35.40566],[135.65412,35.40538]]]}},{"type":"Feature","properties":{"pid":"bb14a2ba-3680-4e72-88bc-f1254fce1e3b","full":22.3},"geometry":{"type":"Polygon","coordinates":[[[135.65304,35.40503],[135.65321,35.40539],[135.654,35.40512],[135.65382,35.40476],[135.65304,35.40503]]]}},{"type":"Feature","properties":{"pid":"3559c5c0-b3cf-486a-aba7-4ca0c169d07f","full":21.6},"geometry":{"type":"Polygon","coordinates":[[[135.65286,35.40467],[135.65303,35.40502],[135.65382,35.40475],[135.65363,35.40439],[135.65286,35.40467]]]}},{"type":"Feature","properties":{"pid":"90144cc5-5759-48c6-a17c-78e7b67e91fe","full":12.3},"geometry":{"type":"Polygon","coordinates":[[[135.65273,35.40443],[135.65285,35.40467],[135.65363,35.40438],[135.6535,35.40414],[135.65273,35.40443]]]}},{"type":"Feature","properties":{"pid":"088333ce-3840-4e24-89a3-17c558c17dbf","full":20.3},"geometry":{"type":"Polygon","coordinates":[[[135.65374,35.40438],[135.65392,35.40472],[135.65466,35.40444],[135.65446,35.40409],[135.65374,35.40438]]]}},{"type":"Feature","properties":{"pid":"b75b156e-e66b-4b3f-ae78-df511fc8e1ff","full":27.2},"geometry":{"type":"Polygon","coordinates":[[[135.65393,35.40473],[135.65415,35.40516],[135.65489,35.4049],[135.65466,35.40445],[135.65393,35.40473]]]}},{"type":"Feature","properties":{"pid":"2f2b90d7-49d8-4d85-a439-386377fc7c53","full":24.4},"geometry":{"type":"Polygon","coordinates":[[[135.65591,35.40494],[135.65574,35.40458],[135.6557,35.40459],[135.65568,35.40456],[135.65494,35.40481],[135.65514,35.40521],[135.65591,35.40494]]]}},{"type":"Feature","properties":{"pid":"c42bb28a-921a-464e-a254-b7eb86bb8bf0","full":24.8},"geometry":{"type":"Polygon","coordinates":[[[135.65473,35.40443],[135.65493,35.40481],[135.65572,35.40454],[135.65553,35.40418],[135.6555,35.40419],[135.65549,35.40415],[135.65473,35.40443]]]}},{"type":"Feature","properties":{"pid":"e98cb16b-1fff-4d42-9cb4-b70c668cca0e","full":27.3},"geometry":{"type":"Polygon","coordinates":[[[135.6545,35.40401],[135.65473,35.40442],[135.6555,35.40414],[135.65524,35.40372],[135.6545,35.40401]]]}},{"type":"Feature","properties":{"pid":"03b1f995-02bd-44f9-9b44-3668e2d91226","full":24.0},"geometry":{"type":"Polygon","coordinates":[[[135.65603,35.4034],[135.65596,35.40331],[135.65554,35.40313],[135.65542,35.40311],[135.65523,35.4031],[135.655,35.40317],[135.65532,35.4037],[135.65603,35.4034]]]}},{"type":"Feature","properties":{"pid":"55ac3b27-d90c-4c5b-86a7-350e686dca3c","full":35.3},"geometry":{"type":"Polygon","coordinates":[[[135.6545,35.404],[135.65523,35.40371],[135.65491,35.4032],[135.65445,35.40337],[135.65414,35.40346],[135.6545,35.404]]]}},{"type":"Feature","properties":{"pid":"47c1a246-a6f6-47b8-9c49-6a2ca72997ca","full":21.5},"geometry":{"type":"Polygon","coordinates":[[[135.65356,35.40404],[135.65424,35.40375],[135.65406,35.40346],[135.6533,35.4036],[135.65328,35.40362],[135.65356,35.40404]]]}},{"type":"Feature","properties":{"pid":"a95012e9-1395-4bc0-990f-3cf1a04e4a0a","full":17.6},"geometry":{"type":"Polygon","coordinates":[[[135.65358,35.40409],[135.65373,35.40436],[135.65446,35.40408],[135.65424,35.40376],[135.65359,35.40404],[135.65361,35.40408],[135.65358,35.40409]]]}},{"type":"Feature","properties":{"pid":"c672da74-3ee4-4bab-b97d-60e7b0bf6527","full":11.0},"geometry":{"type":"Polygon","coordinates":[[[135.65222,35.40357],[135.65246,35.40397],[135.65319,35.40368],[135.65317,35.40363],[135.65288,35.40362],[135.65232,35.40356],[135.65222,35.40357]]]}},{"type":"Feature","properties":{"pid":"f5383464-8ae9-45d9-ac74-80b0ba37f2e6","full":6.5},"geometry":{"type":"Polygon","coordinates":[[[135.65143,35.40381],[135.65154,35.40399],[135.65219,35.40371],[135.6521,35.40356],[135.65145,35.40378],[135.65146,35.4038],[135.65143,35.40381]]]}},{"type":"Feature","properties":{"pid":"54b75fa2-9a35-4df9-beab-fc5f23028531","full":14.2},"geometry":{"type":"Polygon","coordinates":[[[135.65156,35.40402],[135.65171,35.40427],[135.65238,35.40399],[135.65221,35.40372],[135.65157,35.40398],[135.65159,35.40401],[135.65156,35.40402]]]}},{"type":"Feature","properties":{"pid":"e45b285c-8697-4310-800f-efd8c6ecc095","full":28.9},"geometry":{"type":"Polygon","coordinates":[[[135.65248,35.40399],[135.65273,35.40442],[135.65349,35.40414],[135.65326,35.4037],[135.65248,35.40399]]]}},{"type":"Feature","properties":{"pid":"9b81272c-6f4f-4e17-8f6b-e9573cf58397","full":5.5},"geometry":{"type":"Polygon","coordinates":[[[135.65287,35.4049],[135.65216,35.40515],[135.65224,35.40531],[135.65295,35.40506],[135.65287,35.4049]]]}},{"type":"Feature","properties":{"pid":"2ce45e3d-f917-4b8b-a666-f71e1a5510a4","full":16.1},"geometry":{"type":"Polygon","coordinates":[[[135.652,35.40484],[135.65215,35.40514],[135.65287,35.40489],[135.65272,35.40458],[135.652,35.40484]]]}},{"type":"Feature","properties":{"pid":"fc3d2224-af47-400e-b191-241b35e53e65","full":12.6},"geometry":{"type":"Polygon","coordinates":[[[135.65186,35.40458],[135.65199,35.40483],[135.65271,35.40456],[135.65257,35.40431],[135.65186,35.40458]]]}},{"type":"Feature","properties":{"pid":"c64a0095-fa40-47a2-b155-843c4691d403","full":15.9},"geometry":{"type":"Polygon","coordinates":[[[135.65171,35.40428],[135.65185,35.40457],[135.65257,35.40431],[135.65239,35.404],[135.65171,35.40428]]]}},{"type":"Feature","properties":{"pid":"569a860b-ca8d-4f03-be4b-1c9dba05ce8b","full":17.7},"geometry":{"type":"Polygon","coordinates":[[[135.65079,35.40448],[135.65096,35.40478],[135.65171,35.40452],[135.65155,35.4042],[135.65079,35.40448]]]}},{"type":"Feature","properties":{"pid":"649393f5-e46d-4cba-ab04-a7f5a8b7ff68","full":11.9},"geometry":{"type":"Polygon","coordinates":[[[135.65144,35.40518],[135.65164,35.40529],[135.65203,35.40515],[135.65186,35.40482],[135.65119,35.40506],[135.65124,35.4051],[135.65144,35.40518]]]}},{"type":"Feature","properties":{"pid":"30294885-ee01-47d5-a716-ef5dd0a0330c","full":15.2},"geometry":{"type":"Polygon","coordinates":[[[135.65097,35.40478],[135.65109,35.40502],[135.65117,35.40505],[135.65186,35.40481],[135.65172,35.40453],[135.65097,35.40478]]]}},{"type":"Feature","properties":{"pid":"817eabbf-d77e-48c1-886d-79f93f921eb8","full":14.5},"geometry":{"type":"Polygon","coordinates":[[[135.65016,35.40478],[135.65037,35.40483],[135.65081,35.40497],[135.65086,35.40497],[135.65097,35.40494],[135.65067,35.40438],[135.6505,35.40452],[135.6502,35.40468],[135.65016,35.40478]]]}},{"type":"Feature","properties":{"pid":"53c51338-48bb-40f1-9129-83f6e5a30b40","full":13.9},"geometry":{"type":"Polygon","coordinates":[[[135.6507,35.40433],[135.65079,35.40447],[135.65154,35.40418],[135.65133,35.40383],[135.65114,35.40395],[135.65104,35.40402],[135.65081,35.40426],[135.6507,35.40433]]]}},{"type":"Feature","properties":{"pid":"b5934b1f-20e3-4af2-8dab-1bd1b164f1c9","full":18.7},"geometry":{"type":"Polygon","coordinates":[[[135.65107,35.4068],[135.65175,35.40681],[135.65185,35.40679],[135.65186,35.40662],[135.65154,35.40644],[135.6511,35.40629],[135.65107,35.4068]]]}},{"type":"Feature","properties":{"pid":"c037ffea-3a55-41ce-b228-e10fba2e0b19","full":61.4},"geometry":{"type":"Polygon","coordinates":[[[135.64997,35.40685],[135.65095,35.40687],[135.65099,35.40685],[135.65102,35.40626],[135.65074,35.40617],[135.65058,35.4061],[135.65001,35.40598],[135.64997,35.40685]]]}},{"type":"Feature","properties":{"pid":"04506a42-c7e2-41a4-b3dd-cef9acbfa91b","full":9.7},"geometry":{"type":"Polygon","coordinates":[[[135.65306,35.40529],[135.65295,35.40507],[135.65225,35.40532],[135.65236,35.40554],[135.65306,35.40529]]]}},{"type":"Feature","properties":{"pid":"22891245-d9d2-48e9-bc91-94fc99cb091a","full":11.6},"geometry":{"type":"Polygon","coordinates":[[[135.65236,35.40554],[135.65244,35.40569],[135.65249,35.40572],[135.65254,35.40573],[135.65258,35.40574],[135.65261,35.40575],[135.65319,35.40555],[135.65306,35.4053],[135.65236,35.40554]]]}},{"type":"Feature","properties":{"pid":"2b3d943d-35ff-4b3f-8af6-90a05f9b9795","full":8.1},"geometry":{"type":"Polygon","coordinates":[[[135.65262,35.40576],[135.65264,35.4058],[135.65275,35.40584],[135.65306,35.40591],[135.65318,35.40593],[135.65336,35.40587],[135.6532,35.40556],[135.65262,35.40576]]]}}],"precision":5}