{"type":"FeatureCollection","features":[{"type":"Feature","properties":{"pid":"f3992dfa-e8f6-408a-8325-00acadbc867e"},"geometry":{"type":"Polygon","coordinates":[[[136.53795950873055,36.048366058348364],[136.5379432578823,36.04839918709434],[136.53799351238987,36.048498358184055],[136.5381802293722,36.0484918225173],[136.53812542626758,36.04846963568111],[136.5380664224321,36.04840347342713],[136.53795950873055,36.048366058348364]]]}},{"type":"Feature","properties":{"pid":"2ea77a50-8047-49c6-9b1e-51fef5c681b9"},"geometry":{"type":"Polygon","coordinates":[[[136.5408998564499,36.04916206070805],[136.54111656348377,36.04917686286899],[136.54163507225022,36.04933576777054],[136.54183009504354,36.04929060196148],[136.54167482055004,36.04917919100748],[136.54159378757254,36.04914486646284],[136.5408997341456,36.04912332023269],[136.5408998564499,36.04916206070805]]]}},{"type":"Feature","properties":{"pid":"5101b807-e263-4db8-b810-a0f057ecfeb6"},"geometry":{"type":"Polygon","coordinates":[[[136.54122089898544,36.04868403998477],[136.54081828182095,36.048670382897754],[136.54080551587296,36.0487098650327],[136.54124947248457,36.04872334684074],[136.54122089898544,36.04868403998477]]]}},{"type":"Feature","properties":{"pid":"bde428ac-c1d1-41db-9c30-9b43014d0359"},"geometry":{"type":"Polygon","coordinates":[[[136.54084067423014,36.04893377640194],[136.54140211264132,36.04894984053698],[136.54140465394354,36.04892801353672],[136.54137217096647,36.04889124434448],[136.54084147718572,36.04887446835574],[136.54084067423014,36.04893377640194]]]}},{"type":"Feature","properties":{"pid":"bb7de629-ea76-4f13-88e3-7a6441448363"},"geometry":{"type":"Polygon","coordinates":[[[136.54082330670724,36.04847596208449],[136.54118306023028,36.048496541190495],[136.5411890965358,36.048360154046954],[136.5410209672761,36.04838870907911],[136.54084045961383,36.048384424947066],[136.54082330670724,36.04847596208449]]]}},{"type":"Feature","properties":{"pid":"fa97beec-977a-4a74-b020-85d5b431542a"},"geometry":{"type":"Polygon","coordinates":[[[136.5397292553944,36.04843204923465],[136.54050222836022,36.04844985655559],[136.54052267505975,36.04829172452532],[136.53975179575818,36.04833681264008],[136.5397292553944,36.04843204923465]]]}},{"type":"Feature","properties":{"pid":"2f139f2e-48b1-4f76-a5dd-ad74971b6ef6"},"geometry":{"type":"Polygon","coordinates":[[[136.539667785523,36.04897946434809],[136.53973209449924,36.04895596578418],[136.54001021661955,36.04894480956169],[136.54046093966443,36.04889256126737],[136.54045736775495,36.048841931917096],[136.53970791053536,36.04880951288505],[136.539667785523,36.04897946434809]]]}},{"type":"Feature","properties":{"pid":"de73b93d-e40c-43a6-ba03-efa1751d21ca"},"geometry":{"type":"Polygon","coordinates":[[[136.539698286953,36.048639491203964],[136.54047269210446,36.04867768329734],[136.54048383150723,36.048620031347674],[136.53971724262266,36.04857820788301],[136.539698286953,36.048639491203964]]]}},{"type":"Feature","properties":{"pid":"ad81e515-d8a8-4099-8375-62b3d36f7ea4"},"geometry":{"type":"Polygon","coordinates":[[[136.53832627737503,36.04873374417496],[136.5386278584935,36.04868780860426],[136.53862844195942,36.04856909658278],[136.5383157691552,36.048625335534155],[136.53833896579053,36.048702485622684],[136.53832627737503,36.04873374417496]]]}},{"type":"Feature","properties":{"pid":"b5b73d36-2f35-4172-90be-9b176bbeb57a"},"geometry":{"type":"Polygon","coordinates":[[[136.53862823117308,36.04886794399105],[136.5383862303295,36.04889138099862],[136.53839614564305,36.04897048974391],[136.5385076554915,36.04907410857141],[136.53867194895102,36.04905901513539],[136.5386815373019,36.048942303400594],[136.53862823117308,36.04886794399105]]]}},{"type":"Feature","properties":{"pid":"012b069d-78cf-43d7-b1ed-066102f34324"},"geometry":{"type":"Polygon","coordinates":[[[136.5389050656706,36.048763704149174],[136.53885013700912,36.04883863816595],[136.53886401619596,36.048917141009],[136.53902814045048,36.04883492157264],[136.53912243950109,36.04881618508336],[136.53931795205938,36.04884877447496],[136.5394157841612,36.04889041264656],[136.5394295429945,36.04882858407271],[136.53940419340955,36.04879369341866],[136.5389050656706,36.048763704149174]]]}},{"type":"Feature","properties":{"pid":"4964495f-0466-49a2-83ca-98865efb1d54"},"geometry":{"type":"Polygon","coordinates":[[[136.538714546409,36.04822681293683],[136.5387299727215,36.04830297697136],[136.53878277998666,36.04837294062612],[136.53939972169925,36.04839880094711],[136.53947639415782,36.04826797880764],[136.5394260718138,36.04822018463625],[136.5390997335162,36.04822798269485],[136.53901165192948,36.04824879894666],[136.538714546409,36.04822681293683]]]}},{"type":"Feature","properties":{"pid":"969367d0-7e41-4076-82cc-ac1258f61e5a"},"geometry":{"type":"Polygon","coordinates":[[[136.53890004246807,36.04787370808343],[136.53934580458764,36.04795969861981],[136.53949152461306,36.0479433075774],[136.53947650938724,36.04783818901443],[136.53894156647326,36.04777722429029],[136.5389052499294,36.04780521982463],[136.53890004246807,36.04787370808343]]]}},{"type":"Feature","properties":{"pid":"8bf3728f-6bdf-4586-9c43-f56c61e05819"},"geometry":{"type":"Polygon","coordinates":[[[136.53913462194973,36.047633179029184],[136.5395014397226,36.04767264827951],[136.53951558875377,36.04764197761569],[136.53950355544873,36.047578447361886],[136.5393016992704,36.04748350729884],[136.53913462194973,36.047633179029184]]]}},{"type":"Feature","properties":{"pid":"c0cfa4bf-4d8b-4676-8256-1b3c1607eb29"},"geometry":{"type":"Polygon","coordinates":[[[136.53897307708286,36.04753681952224],[136.53902963716408,36.047492373528925],[136.53847769799606,36.047051171870606],[136.53840429242246,36.04709440418902],[136.53897307708286,36.04753681952224]]]}},{"type":"Feature","properties":{"pid":"681d994a-5ff2-43de-9b26-e02b2a40fa7d"},"geometry":{"type":"Polygon","coordinates":[[[136.53882613884994,36.04764568336002],[136.53828819148626,36.04721781116704],[136.53823080996125,36.04725188538526],[136.53877411410375,36.047692333139395],[136.53882613884994,36.04764568336002]]]}},{"type":"Feature","properties":{"pid":"c5519094-b14b-443f-9aed-a55d320e80cf"},"geometry":{"type":"Polygon","coordinates":[[[136.5381026699537,36.04738486282996],[136.53802953142502,36.047425107976174],[136.53859377587932,36.04786077348134],[136.5386453587922,36.04782696953613],[136.5381026699537,36.04738486282996]]]}},{"type":"Feature","properties":{"pid":"c42d26c7-dc75-488c-bb07-464c0f4864e8"},"geometry":{"type":"Polygon","coordinates":[[[136.5381189745034,36.04626973972081],[136.53796601487952,36.04642088254346],[136.53839500928805,36.04677022462103],[136.53843537017897,36.04675502431896],[136.53847928166851,36.046770643896494],[136.53862017690867,36.046626460020356],[136.5381189745034,36.04626973972081]]]}},{"type":"Feature","properties":{"pid":"82d7126e-9c8b-479c-9f38-34de0b46a45c"},"geometry":{"type":"Polygon","coordinates":[[[136.53877569379833,36.04681510924966],[136.53919767512892,36.04712515573687],[136.53897791695402,36.04662868219541],[136.53877569379833,36.04681510924966]]]}},{"type":"Feature","properties":{"pid":"20142874-dcfc-49e5-98f3-2587be9ff494"},"geometry":{"type":"Polygon","coordinates":[[[136.53862438802415,36.04692759451946],[136.53912437545569,36.0473332806499],[136.53917386839012,36.04728634437313],[136.53866136264367,36.04688593329818],[136.53862438802415,36.04692759451946]]]}},{"type":"Feature","properties":{"pid":"443a9b87-85b0-4c80-8cef-4fc39758e3fd"},"geometry":{"type":"Polygon","coordinates":[[[136.53929233857613,36.046575660765846],[136.53953652648764,36.04708185932754],[136.53960708140147,36.0470117112944],[136.53964701275373,36.04687887243697],[136.53962118538547,36.046848429022354],[136.53946975829055,36.04679924393146],[136.53939267544808,36.04669828959895],[136.53935578962026,36.04655459140613],[136.53929233857613,36.046575660765846]]]}},{"type":"Feature","properties":{"pid":"14d7cd66-fefb-4cda-92cb-fea35b69768c"},"geometry":{"type":"Polygon","coordinates":[[[136.53984984914172,36.04772686677463],[136.54014374829592,36.047745018474366],[136.5404104303298,36.04774351785467],[136.54007573426196,36.04765584935034],[136.53990422553852,36.04755766061146],[136.53981338181657,36.04753702448505],[136.53984984914172,36.04772686677463]]]}},{"type":"Feature","properties":{"pid":"81d09819-6bb8-4c95-a4db-2f2805748bce"},"geometry":{"type":"Polygon","coordinates":[[[136.53982865066308,36.04795040276069],[136.54043826239,36.048021473201224],[136.54044518280918,36.047921408566246],[136.53982667838912,36.04788291371938],[136.53982865066308,36.04795040276069]]]}},{"type":"Feature","properties":{"pid":"4b41bb37-0bd2-4326-bc7e-959eddb45090"},"geometry":{"type":"Polygon","coordinates":[[[136.54140412180328,36.04576015735632],[136.54149964075964,36.04581818316031],[136.54194752216912,36.0454087028065],[136.54198957160477,36.04523287528074],[136.54194666634734,36.04520529764235],[136.5415883374548,36.04562688037866],[136.54140412180328,36.04576015735632]]]}},{"type":"Feature","properties":{"pid":"a1b0cc0f-7b59-485d-9afa-a54ace4fd0d5"},"geometry":{"type":"Polygon","coordinates":[[[136.5416415277426,36.04594314495384],[136.5416888419302,36.0459406018036],[136.5418109206233,36.045890489378955],[136.54195869746772,36.04594874553756],[136.54200171092558,36.04589571141079],[136.54205324871407,36.04562041033051],[136.54204767447206,36.045562190869205],[136.5416415277426,36.04594314495384]]]}},{"type":"Feature","properties":{"pid":"3ec55c46-6a06-402e-8903-d9a2ae4c450f"},"geometry":{"type":"Polygon","coordinates":[[[136.54257702765645,36.04533949326944],[136.5427201242784,36.04522909952302],[136.54269357332885,36.04515176204916],[136.5426993223057,36.045035563210355],[136.54268105702104,36.04500902385793],[136.54244332511362,36.045236442360086],[136.54257702765645,36.04533949326944]]]}},{"type":"Feature","properties":{"pid":"dc40304a-c491-4258-9b23-922ad78b460a"},"geometry":{"type":"Polygon","coordinates":[[[136.54275389385057,36.04481739513864],[136.54285293081782,36.044970920168154],[136.54301452817012,36.04489673721571],[136.5429843412716,36.04480895540307],[136.5429415876452,36.04475067549417],[136.54275389385057,36.04481739513864]]]}},{"type":"Feature","properties":{"pid":"45ebd3db-c5ac-48d3-9ce6-3e7428c0c935"},"geometry":{"type":"Polygon","coordinates":[[[136.5420985362456,36.045041675047244],[136.5422439480302,36.045113783095466],[136.54248328927912,36.04489377398594],[136.54246695120153,36.044869964389406],[136.54241102547635,36.044890268609926],[136.54217890297403,36.04491882374743],[136.54209076780714,36.04502005031344],[136.5420985362456,36.045041675047244]]]}},{"type":"Feature","properties":{"pid":"30e03981-3213-41d6-8af3-de90af41e4e0"},"geometry":{"type":"Polygon","coordinates":[[[136.54121500428747,36.04492863216249],[136.5413577125781,36.045126449965345],[136.54146657034764,36.045241439576344],[136.54162190830775,36.04509344615175],[136.5418394294183,36.04480077348313],[136.54144275575342,36.04483962649677],[136.54121500428747,36.04492863216249]]]}},{"type":"Feature","properties":{"pid":"5178ae1d-7cc2-48c4-bed3-c32272023720"},"geometry":{"type":"Polygon","coordinates":[[[136.5410056622354,36.04519169655228],[136.54090030140034,36.045218101086746],[136.54089109477985,36.04523528091532],[136.54100714226672,36.04554421099717],[136.54107589123743,36.04552012007409],[136.54121883092515,36.04541220137926],[136.54107149174837,36.04521773059135],[136.54103278647665,36.0452139312829],[136.5410056622354,36.04519169655228]]]}},{"type":"Feature","properties":{"pid":"5533e3f4-b9d9-43b7-90d2-23534ae19c8d"},"geometry":{"type":"Polygon","coordinates":[[[136.5408399524443,36.045573824004585],[136.54073716155827,36.04528678408636],[136.54059794589256,36.0453211163592],[136.54070378691546,36.04560045324668],[136.5408399524443,36.045573824004585]]]}},{"type":"Feature","properties":{"pid":"4567a14a-2d78-413c-ad08-73727e4b7113"},"geometry":{"type":"Polygon","coordinates":[[[136.5408408952656,36.045046811763754],[136.54099563441082,36.045000946133435],[136.54089577676743,36.04485508119719],[136.54082895246697,36.04468045558739],[136.5407698589634,36.04464546171727],[136.54067868101154,36.04464942800697],[136.5408408952656,36.045046811763754]]]}},{"type":"Feature","properties":{"pid":"133a9ba6-6c91-4b8e-aebf-19964ba2462b"},"geometry":{"type":"Polygon","coordinates":[[[136.54114911519397,36.04457805730651],[136.5411170887596,36.04456161407424],[136.54107080955598,36.04457126853413],[136.54112988416864,36.04473188159198],[136.5412070756956,36.04471213920953],[136.54114911519397,36.04457805730651]]]}},{"type":"Feature","properties":{"pid":"702d650e-d717-476f-80b2-532af908b3d5"},"geometry":{"type":"Polygon","coordinates":[[[136.5404869365462,36.04514329128808],[136.5406672340194,36.045092825287846],[136.54049798150223,36.04468206444317],[136.54031231444125,36.044705314666935],[136.5404869365462,36.04514329128808]]]}},{"type":"Feature","properties":{"pid":"8fa5d57f-f092-4d19-ad2f-3c09e067efe8"},"geometry":{"type":"Polygon","coordinates":[[[136.54020730903775,36.04521929595908],[136.5403480823418,36.04517911553604],[136.5401619296057,36.04472072398054],[136.54001594487463,36.044727411571984],[136.54020730903775,36.04521929595908]]]}},{"type":"Feature","properties":{"pid":"8a530ee5-e600-4449-ad1f-0f4a9ef1cae1"},"geometry":{"type":"Polygon","coordinates":[[[136.53988246847578,36.045302756312736],[136.54001436006635,36.045267717846436],[136.5398189630192,36.04476097730595],[136.53968386714303,36.04478673325156],[136.53988246847578,36.045302756312736]]]}},{"type":"Feature","properties":{"pid":"f8310ec8-74ed-4bb4-bc87-301ff5357ef2"},"geometry":{"type":"Polygon","coordinates":[[[136.53936877080133,36.044901371936106],[136.53955830291906,36.04538968845738],[136.53970096894392,36.0453505822211],[136.53951296651405,36.04486000190155],[136.53936877080133,36.044901371936106]]]}},{"type":"Feature","properties":{"pid":"b822007b-8028-4fcd-bfdc-89a057d1a961"},"geometry":{"type":"Polygon","coordinates":[[[136.54024066039815,36.0453962604959],[136.5403609056211,36.04570239675528],[136.54050363046358,36.04562323646558],[136.54039741248275,36.04535358981326],[136.54024066039815,36.0453962604959]]]}},{"type":"Feature","properties":{"pid":"fceae0bd-bc62-410f-bf39-fea537a8e3b8"},"geometry":{"type":"Polygon","coordinates":[[[136.5402331876894,36.04577053997356],[136.540106653619,36.04544876613987],[136.53995470905429,36.04549652153797],[136.53994071408042,36.045519571589786],[136.54007798404507,36.045875096630084],[136.5402331876894,36.04577053997356]]]}},{"type":"Feature","properties":{"pid":"c8858234-c73a-4684-ae29-3c79d2451843"},"geometry":{"type":"Polygon","coordinates":[[[136.5395402138608,36.04618275807125],[136.53963578333034,36.04606647278518],[136.53963154012493,36.04602320750586],[136.53947056475585,36.04564436686084],[136.5393417371519,36.04568476086441],[136.5395402138608,36.04618275807125]]]}},{"type":"Feature","properties":{"pid":"14213df2-57ae-46be-954b-87549fc05d58"},"geometry":{"type":"Polygon","coordinates":[[[136.53995864768248,36.045940357969386],[136.53981749000909,36.045565797054785],[136.53967796308063,36.04560926196542],[136.53983832087653,36.04599857190041],[136.53995864768248,36.045940357969386]]]}},{"type":"Feature","properties":{"pid":"8e0ab271-f6ad-43aa-bfaa-f9c871c46d5a"},"geometry":{"type":"Polygon","coordinates":[[[136.53915700518186,36.045763863883444],[136.53894718814595,36.0458367216338],[136.53898203054854,36.04587727301478],[136.539035036223,36.04599854819238],[136.5390951148566,36.046030626397354],[136.53922630333727,36.04636206535692],[136.53935379013666,36.04626721028996],[136.53915700518186,36.045763863883444]]]}},{"type":"Feature","properties":{"pid":"66b51720-b082-418f-be37-63054eb43598"},"geometry":{"type":"Polygon","coordinates":[[[136.5387299933863,36.04654220469641],[136.53884690391374,36.04643499717853],[136.53866495857656,36.04598807460154],[136.53853769295162,36.04589766018487],[136.53824460294214,36.04618881480988],[136.5387299933863,36.04654220469641]]]}},{"type":"Feature","properties":{"pid":"91d21958-de8a-4032-9af2-4e48bd856668"},"geometry":{"type":"Polygon","coordinates":[[[136.53861334292196,36.04560574393833],[136.5384513696769,36.04521827822857],[136.5382480048823,36.04535028049234],[136.53857978508216,36.04561665441222],[136.53861334292196,36.04560574393833]]]}},{"type":"Feature","properties":{"pid":"39ec9d42-9fb0-4b69-b723-fa1fd0dd0d3d"},"geometry":{"type":"Polygon","coordinates":[[[136.53873464872,36.04556041878677],[136.53885366922012,36.045527693227214],[136.53866881322116,36.045086448729755],[136.53856084531225,36.04514936577971],[136.53873464872,36.04556041878677]]]}},{"type":"Feature","properties":{"pid":"98ea8991-ba64-4a25-a626-8c28eb0017b5"},"geometry":{"type":"Polygon","coordinates":[[[136.5392398489052,36.045475270826536],[136.539393000803,36.045434935918465],[136.53920228769954,36.04493828421381],[136.53903118154935,36.044959230120035],[136.5392398489052,36.045475270826536]]]}},{"type":"Feature","properties":{"pid":"e34e1dcb-f1fb-456d-8cad-dee65ad99cb6"},"geometry":{"type":"Polygon","coordinates":[[[136.53887629758458,36.04499164418041],[136.5388074974121,36.045013307378454],[136.5390077985258,36.045502874735966],[136.5390874388211,36.045522844535945],[136.53887629758458,36.04499164418041]]]}},{"type":"Feature","properties":{"pid":"017e1ff5-a831-4cb2-bf81-99ebcacd5e9d"},"geometry":{"type":"Polygon","coordinates":[[[136.53922431109243,36.04218318396032],[136.53931510334417,36.04215970039081],[136.53929792605337,36.04211187866373],[136.5392025413531,36.04213224753229],[136.53922431109243,36.04218318396032]]]}},{"type":"Feature","properties":{"pid":"58d73f50-50b8-446e-bd54-3e3c460c376d"},"geometry":{"type":"Polygon","coordinates":[[[136.53915371232972,36.04174497076499],[136.53948751836714,36.04164396644989],[136.53947555221836,36.041612993950686],[136.53926434314587,36.041660254609546],[136.53915769091043,36.04166713408029],[136.53915371232972,36.04174497076499]]]}},{"type":"Feature","properties":{"pid":"617d5bdd-cb3c-424a-99a6-de984a9b81d8"},"geometry":{"type":"Polygon","coordinates":[[[136.54056314254856,36.04195191422163],[136.54054640944082,36.04187627374727],[136.54040483511628,36.0418932228482],[136.5404244247936,36.041963566626166],[136.54056314254856,36.04195191422163]]]}},{"type":"Feature","properties":{"pid":"3c00fbd4-b8fc-489c-882f-35d99725a695"},"geometry":{"type":"Polygon","coordinates":[[[136.54060406938328,36.042173217335],[136.54058631821215,36.04206647733401],[136.5404487171634,36.04208168498763],[136.54045881382208,36.042146329346075],[136.54060406938328,36.042173217335]]]}},{"type":"Feature","properties":{"pid":"65003232-7631-44b9-aa07-30309348fd10"},"geometry":{"type":"Polygon","coordinates":[[[136.5396010736724,36.04195044589969],[136.5396608865708,36.04209793473619],[136.5397191544788,36.04208752012956],[136.53972645383783,36.04207439448642],[136.53966463106954,36.04193829765727],[136.5396010736724,36.04195044589969]]]}},{"type":"Feature","properties":{"pid":"37d7cacd-e885-433a-9cbb-518e739c164f"},"geometry":{"type":"Polygon","coordinates":[[[136.53945006387684,36.04213416457162],[136.5395263906516,36.042124420451714],[136.539466012056,36.0419840530618],[136.53940550642884,36.041999170732055],[136.53945006387684,36.04213416457162]]]}},{"type":"Feature","properties":{"pid":"24fa1167-146e-4b45-a695-43a7967a5644"},"geometry":{"type":"Polygon","coordinates":[[[136.53953620198712,36.042671295447924],[136.53964525988735,36.04261839795971],[136.5396486177489,36.042509849737016],[136.53959357900695,36.04226768793906],[136.53948148718396,36.04228851675185],[136.53953620198712,36.042671295447924]]]}},{"type":"Feature","properties":{"pid":"17866199-3c91-46a5-b585-da2a7d58abc4"},"geometry":{"type":"Polygon","coordinates":[[[136.54070107870308,36.042444756407285],[136.54071499217858,36.04237335012952],[136.54058450814597,36.04236526582712],[136.54058676384122,36.042479613298376],[136.54070107870308,36.042444756407285]]]}},{"type":"Feature","properties":{"pid":"3755fba1-6fb1-4d3b-a18d-b213fc19e07b"},"geometry":{"type":"Polygon","coordinates":[[[136.54163029542872,36.042334052953635],[136.54162878285808,36.04235749554279],[136.54165391748728,36.042375417838414],[136.54174291326495,36.042390192107895],[136.54190781854427,36.04246003962482],[136.5418775250781,36.04231802734662],[136.54163029542872,36.042334052953635]]]}},{"type":"Feature","properties":{"pid":"b08a7cec-bde8-4b58-a196-2183f5b69a6b"},"geometry":{"type":"Polygon","coordinates":[[[136.54158942895666,36.04212686862994],[136.5415224708569,36.04212717043303],[136.54143583174485,36.04213807323127],[136.54146190364582,36.04221065205659],[136.54152684668136,36.0422082831382],[136.54159497467458,36.04220053080338],[136.54158942895666,36.04212686862994]]]}},{"type":"Feature","properties":{"pid":"68c02e49-ce3e-45c6-be2f-5f9237ba21aa"},"geometry":{"type":"Polygon","coordinates":[[[136.54122583608913,36.042065710502776],[136.54115813041886,36.04191259367877],[136.54113019773453,36.04191752433135],[136.54113696868353,36.04204335945883],[136.54122583608913,36.042065710502776]]]}},{"type":"Feature","properties":{"pid":"5ff37404-f4df-42c5-afb6-dd0069cbc0e0"},"geometry":{"type":"Polygon","coordinates":[[[136.54081704528377,36.04220599835795],[136.54100829011995,36.04220821132344],[136.54100484621523,36.04212141498629],[136.54081105569963,36.042147934385795],[136.54081704528377,36.04220599835795]]]}},{"type":"Feature","properties":{"pid":"6217371f-f10f-42ea-8915-a675be2da989"},"geometry":{"type":"Polygon","coordinates":[[[136.54098222631512,36.04201368361304],[136.54096990542186,36.04190667645987],[136.54079072601257,36.04192289993571],[136.54080451266037,36.042023931243584],[136.54098222631512,36.04201368361304]]]}},{"type":"Feature","properties":{"pid":"2c5726b7-993c-4c22-83bb-458ad4c69439"},"geometry":{"type":"Polygon","coordinates":[[[136.5414677204609,36.04199718646135],[136.54155279472437,36.04198827776597],[136.54155124938953,36.04192124396975],[136.54145394415124,36.041899858027904],[136.5414677204609,36.04199718646135]]]}},{"type":"Feature","properties":{"pid":"aa0f71b5-555b-4ed7-8e17-6c30a46647aa"},"geometry":{"type":"Polygon","coordinates":[[[136.54194530529816,36.042069628523365],[136.5419654345289,36.0421030166425],[136.54208848290978,36.04209111606861],[136.54211453324476,36.04203783935476],[136.54217751701225,36.04202701195625],[136.54220278781537,36.04189489586714],[136.542359275287,36.04185158299522],[136.5423119802644,36.04160923400759],[136.5422734039826,36.0415581826292],[136.54215601969386,36.04152704139017],[136.5421257197179,36.04149362395308],[136.54197282419958,36.041579403891824],[136.54198353712883,36.04164065948105],[136.5420172198922,36.04170117256686],[136.54205971723363,36.041933369920976],[136.54204067723327,36.04200765820189],[136.54194530529816,36.042069628523365]]]}},{"type":"Feature","properties":{"pid":"b7238cd3-102e-405c-86ce-abb8ba481485"},"geometry":{"type":"Polygon","coordinates":[[[136.54245011882773,36.041620400402536],[136.54248147882097,36.041676691502694],[136.54248317282992,36.04173153040566],[136.54252336812968,36.04185712410599],[136.54285040339968,36.04182330637025],[136.54285794510574,36.04175427039736],[136.54276103951008,36.04155058781783],[136.54270594952064,36.041508592049475],[136.5426155328355,36.04150167408389],[136.5424873590682,36.04151905128629],[136.54247374510985,36.04159660287317],[136.54245011882773,36.041620400402536]]]}},{"type":"Feature","properties":{"pid":"75f4f7de-7ef7-44a5-bec2-b830ac955737"},"geometry":{"type":"Polygon","coordinates":[[[136.54287866283096,36.04222891349819],[136.54296091619125,36.04223305950729],[136.54302562672757,36.04220032111445],[136.54303768153707,36.042144302250406],[136.5429808034478,36.04203791066494],[136.54296917440809,36.04195309511467],[136.5429028130068,36.04193347655435],[136.54283421294463,36.041960137486036],[136.54286996300328,36.04209439097347],[136.54286609344913,36.04214983734519],[136.54284202449557,36.04218237735224],[136.54287866283096,36.04222891349819]]]}},{"type":"Feature","properties":{"pid":"6b71dc63-f06e-48cc-97c6-6e2cb0ceca73"},"geometry":{"type":"Polygon","coordinates":[[[136.54256140961945,36.041956576618134],[136.54259646052122,36.04202869006319],[136.54262791530522,36.04215842441169],[136.54269493629772,36.04216652332976],[136.54273469320424,36.04211064941721],[136.54266267909517,36.041946241922766],[136.54256140961945,36.041956576618134]]]}},{"type":"Feature","properties":{"pid":"41d0555c-92ab-4257-b987-aaf7e36e409c"},"geometry":{"type":"Polygon","coordinates":[[[136.54231109664119,36.041980134917175],[136.54230426325935,36.04200279205217],[136.54234780732452,36.04207970178448],[136.54234331862932,36.04211794544797],[136.54238108036847,36.042164190689725],[136.54244638935552,36.04222589190187],[136.54250585684076,36.04220949431196],[136.5424073790055,36.041947578631564],[136.54231109664119,36.041980134917175]]]}},{"type":"Feature","properties":{"pid":"9690e928-cf6d-4fe3-b780-92b65980da6b"},"geometry":{"type":"Polygon","coordinates":[[[136.54203827972339,36.04226390390588],[136.54206618234844,36.04236810336882],[136.54233886062843,36.042361062902565],[136.54233453465554,36.04234068310848],[136.54222688641113,36.04226129397992],[136.54214306054305,36.04223677666809],[136.54211895960466,36.042209395476206],[136.54203827972339,36.04226390390588]]]}},{"type":"Feature","properties":{"pid":"80adf0d7-3128-4bf1-9597-1981b10e743d"},"geometry":{"type":"Polygon","coordinates":[[[136.5425079146352,36.04256450098385],[136.54261462152007,36.042616296191795],[136.5426246073067,36.0425858936101],[136.54260000493147,36.042314782843334],[136.54250816869455,36.04232927579799],[136.5425079146352,36.04256450098385]]]}},{"type":"Feature","properties":{"pid":"76354717-693f-4f3d-91cb-286fe5e2d383"},"geometry":{"type":"Polygon","coordinates":[[[136.54208188990037,36.04247050326566],[136.54210072388196,36.04253294069897],[136.54224917115306,36.042561839162516],[136.54229949149607,36.04254364506033],[136.54230415666402,36.04246665523718],[136.54208188990037,36.04247050326566]]]}},{"type":"Feature","properties":{"pid":"960b2eb5-dfc9-47fa-a36a-5efb2e5d2870"},"geometry":{"type":"Polygon","coordinates":[[[136.5427312015134,36.04232539170944],[136.5427561211115,36.042646585043755],[136.54300871504913,36.04270661024305],[136.54293605748563,36.04234021370689],[136.5427312015134,36.04232539170944]]]}},{"type":"Feature","properties":{"pid":"8634750c-44de-4014-a304-ce1f1bc74f0c"},"geometry":{"type":"Polygon","coordinates":[[[136.54309366907756,36.04231779592346],[136.543143022776,36.042697408915174],[136.54330874857328,36.04269917890167],[136.5432415273504,36.04230213225116],[136.54309366907756,36.04231779592346]]]}},{"type":"Feature","properties":{"pid":"f7c7613e-b778-4684-b16e-e686f89f1b50"},"geometry":{"type":"Polygon","coordinates":[[[136.54547054012514,36.04326962520975],[136.54551053439437,36.04327399335898],[136.54555931132467,36.0432408940207],[136.54558232709778,36.04283662969918],[136.54547734598844,36.042802752286384],[136.54547054012514,36.04326962520975]]]}},{"type":"Feature","properties":{"pid":"3ea6abbd-a6b5-4c5a-9b4e-8432ced2f18d"},"geometry":{"type":"Polygon","coordinates":[[[136.54498623062761,36.04316769408938],[136.5451644929689,36.043171079931426],[136.5451477043651,36.04283096997007],[136.5451281289503,36.042753731572326],[136.544942302139,36.04275888937928],[136.54498623062761,36.04316769408938]]]}},{"type":"Feature","properties":{"pid":"d22190d7-1803-4d10-907a-946d3dee78a7"},"geometry":{"type":"Polygon","coordinates":[[[136.54467052349324,36.043100918790856],[136.54472111523418,36.043105089180855],[136.54476891674867,36.04307143473693],[136.54473940077904,36.04274238964485],[136.544600553922,36.042763375668564],[136.54467052349324,36.043100918790856]]]}},{"type":"Feature","properties":{"pid":"ce073da5-ce7e-4968-bb35-4f6abfacbf7d"},"geometry":{"type":"Polygon","coordinates":[[[136.54362662537324,36.04262665436245],[136.5434943621411,36.042567125225744],[136.54344603583993,36.0422275773152],[136.54336660180826,36.04223521129566],[136.54343822576158,36.042696333158595],[136.54358871736795,36.04272312233587],[136.54362662537324,36.04262665436245]]]}},{"type":"Feature","properties":{"pid":"d5f9a9a6-7d44-41e4-bb70-6d14b8f41ca2"},"geometry":{"type":"Polygon","coordinates":[[[136.54392257812498,36.042714573772564],[136.54422952218374,36.042665646417966],[136.5441812256152,36.04259714766641],[136.54391050718147,36.04266926526512],[136.54392257812498,36.042714573772564]]]}},{"type":"Feature","properties":{"pid":"e82f8901-62ef-4cc5-97a3-3e1b5654ef9d"},"geometry":{"type":"Polygon","coordinates":[[[136.54386841362475,36.04255907186291],[136.54410878262811,36.04249126553683],[136.54405064722826,36.04236890013736],[136.54407288444088,36.042144409760354],[136.54404216022974,36.0420797179054],[136.54391255393182,36.04205978932727],[136.54382538692883,36.042074359937075],[136.54386841362475,36.04255907186291]]]}},{"type":"Feature","properties":{"pid":"52f0412e-cf33-4be1-80b9-bb79bdb676d9"},"geometry":{"type":"Polygon","coordinates":[[[136.54442340505148,36.04238308505412],[136.54456297729854,36.042364479695955],[136.54445581275402,36.04194756399993],[136.54447467092587,36.04187334013545],[136.54434335048128,36.04188840905281],[136.54442340505148,36.04238308505412]]]}},{"type":"Feature","properties":{"pid":"b1922c47-fb2f-4033-b445-40d73ce066b5"},"geometry":{"type":"MultiPolygon","coordinates":[[[[136.544215060852,36.04199954927075],[136.54415012226306,36.04167216922243],[136.54411847216974,36.041656656996416],[136.54405563322322,36.04167291903293],[136.5441615806737,36.04178959763743],[136.544215060852,36.04199954927075]]],[[[136.5442227657762,36.042039578823605],[136.54424803606574,36.04226882843199],[136.5442392865633,36.04237469520429],[136.5442868381426,36.042372453566614],[136.5442227657762,36.042039578823605]]]]}},{"type":"Feature","properties":{"pid":"b978014e-e0d5-4fce-a979-9e4bbd3f4d25"},"geometry":{"type":"Polygon","coordinates":[[[136.54368199862577,36.04223521588134],[136.54358017793524,36.04225341933053],[136.5436214344425,36.04250214653642],[136.54371363405835,36.042538110373535],[136.54368199862577,36.04223521588134]]]}},{"type":"Feature","properties":{"pid":"f85692a6-a1c7-471e-94fe-ec572fbcd9ea"},"geometry":{"type":"Polygon","coordinates":[[[136.54336375806855,36.04187198311657],[136.54350369230227,36.04211933193829],[136.54355804029785,36.04214890587871],[136.54368730690217,36.042122987923165],[136.54366592654407,36.042064116549525],[136.543607691993,36.041991664674164],[136.54359174176398,36.04183020512315],[136.54356772594022,36.04179531992298],[136.54346849187837,36.04182895587701],[136.5434357176399,36.04185935075224],[136.54336375806855,36.04187198311657]]]}},{"type":"Feature","properties":{"pid":"d4459025-03fb-4ebf-858a-54894e6cb2ba"},"geometry":{"type":"Polygon","coordinates":[[[136.543107251834,36.04186716252498],[136.54309569550654,36.041994270693145],[136.54316485078792,36.04212188808884],[136.5431662115256,36.04221236880162],[136.54323257015335,36.04220259184228],[136.5432348555644,36.04216902755178],[136.54326474579145,36.04214540122069],[136.54337316340835,36.042134900366065],[136.54324977598083,36.041911485046825],[136.54318476500478,36.04184650145889],[136.543107251834,36.04186716252498]]]}},{"type":"Feature","properties":{"pid":"cd2c018f-02f0-4009-a0a7-d74f7920be1d"},"geometry":{"type":"Polygon","coordinates":[[[136.54370899616654,36.04177306862624],[136.5437391392726,36.04195864195282],[136.543759106975,36.0419831439564],[136.54390457950623,36.04195204360672],[136.54398403585958,36.04196890109489],[136.54402298879663,36.04195562042016],[136.54401491177387,36.04190342239737],[136.54397353030168,36.04183832685525],[136.5438748782077,36.04185138258918],[136.54383814971334,36.04181979705792],[136.54380114552816,36.041817800478874],[136.54375172758407,36.04178083570387],[136.54370899616654,36.04177306862624]]]}},{"type":"Feature","properties":{"pid":"0d8d5e9a-33c0-45f4-8476-491aa0604614"},"geometry":{"type":"Polygon","coordinates":[[[136.5446904617497,36.04208807521652],[136.5448448918573,36.04257808681785],[136.54498342686685,36.04257343781689],[136.54501271711922,36.04224898034455],[136.54492771373924,36.04217947382521],[136.54487109674994,36.0420714459906],[136.5446904617497,36.04208807521652]]]}},{"type":"Feature","properties":{"pid":"3e059454-69a7-4abb-aa32-7dddf73b7dd4"},"geometry":{"type":"Polygon","coordinates":[[[136.54454657574772,36.042607106141396],[136.54464110343818,36.04258668708695],[136.54460859727854,36.042498746553015],[136.54452478193767,36.042512757396814],[136.54454657574772,36.042607106141396]]]}},{"type":"Feature","properties":{"pid":"6bd114dc-f493-47b7-af61-333ea4391f6a"},"geometry":{"type":"Polygon","coordinates":[[[136.54513395029576,36.04258830989721],[136.5452935784526,36.04259486511285],[136.54530994634044,36.042583350913574],[136.54533398388276,36.042308070077986],[136.54516293878274,36.042314959555235],[136.54513395029576,36.04258830989721]]]}},{"type":"Feature","properties":{"pid":"cca80724-0382-4a52-9ef4-5af77aa663e9"},"geometry":{"type":"Polygon","coordinates":[[[136.54545121892482,36.04261763239151],[136.54554272485416,36.042623538218486],[136.54558830566077,36.042410434646385],[136.5455664449426,36.04234836799318],[136.54550242856178,36.04230107230622],[136.54546943646636,36.04231524349918],[136.54545121892482,36.04261763239151]]]}},{"type":"Feature","properties":{"pid":"ab73ac56-4bcd-4701-a421-6a892fe50337"},"geometry":{"type":"Polygon","coordinates":[[[136.54353776748357,36.04459425593673],[136.54348529426267,36.04459087698469],[136.54347564980046,36.044718432481105],[136.54352145827363,36.04471124183457],[136.54354641291127,36.04467660233431],[136.54353776748357,36.04459425593673]]]}},{"type":"Feature","properties":{"pid":"98354c3c-3342-4854-8da1-f28ca06adacd"},"geometry":{"type":"Polygon","coordinates":[[[136.54318092943535,36.04470892421281],[136.5432269315416,36.04482263887197],[136.54333080596956,36.044743752517775],[136.5433401441742,36.0446079718939],[136.54318092943535,36.04470892421281]]]}},{"type":"Feature","properties":{"pid":"6a804a9d-cf25-4709-9484-459dbbc97caa"},"geometry":{"type":"Polygon","coordinates":[[[136.54304544346098,36.04514944279122],[136.5430878527721,36.04516684069447],[136.5431520038071,36.04525691027534],[136.54324999520918,36.04519350348726],[136.54332725151826,36.045067996214264],[136.54348179381802,36.04491097602828],[136.54350440237002,36.044866765872655],[136.54345311907426,36.04487848405562],[136.54320518119505,36.04507236166082],[136.54304544346098,36.04514944279122]]]}},{"type":"Feature","properties":{"pid":"94005300-28d7-40a8-a361-b188e9a1f6db"},"geometry":{"type":"Polygon","coordinates":[[[136.52782599660253,36.040708885695686],[136.5277832916299,36.04072874103779],[136.52843672795137,36.04077299283769],[136.52840878483642,36.04073282869236],[136.52782599660253,36.040708885695686]]]}},{"type":"Feature","properties":{"pid":"af757374-1014-4435-8007-789fb63cbce3"},"geometry":{"type":"Polygon","coordinates":[[[136.52776117538082,36.04096000409314],[136.52818177904783,36.04094793192019],[136.52818189197106,36.04093216537111],[136.52789513068075,36.040909338238485],[136.52774073382128,36.04091329747282],[136.52776117538082,36.04096000409314]]]}},{"type":"Feature","properties":{"pid":"f8180ab7-9267-44d5-9cb2-45ad8528bd3b"},"geometry":{"type":"Polygon","coordinates":[[[136.53677391508563,36.042555636719854],[136.53683185940076,36.042537489175075],[136.53683002070792,36.04251493891973],[136.5367757061444,36.0424428271559],[136.5367514357125,36.0424436658364],[136.53672108161064,36.04246112571402],[136.53677391508563,36.042555636719854]]]}},{"type":"Feature","properties":{"pid":"2b14f7a1-b26b-4cfa-9732-290c07149f74"},"geometry":{"type":"Polygon","coordinates":[[[136.53383004299778,36.04287838436298],[136.5338705136333,36.04287715230237],[136.53390380945578,36.042901437920605],[136.5340837683379,36.04286218813413],[136.53395731906085,36.042603120766756],[136.53370730881798,36.04260006040206],[136.53383004299778,36.04287838436298]]]}},{"type":"Feature","properties":{"pid":"668e41a1-70e6-4dea-94b1-8b9a14c6b180"},"geometry":{"type":"Polygon","coordinates":[[[136.53351031208283,36.04315202355252],[136.53368149070533,36.04311832662971],[136.5335086562114,36.04286040472358],[136.5333448124133,36.04290184026181],[136.53351031208283,36.04315202355252]]]}},{"type":"Feature","properties":{"pid":"71e31d8a-66a5-4c01-a5e4-d41c5ac44b7b"},"geometry":{"type":"Polygon","coordinates":[[[136.53323518076294,36.042964924336694],[136.5332014903111,36.042983150696976],[136.53310890882005,36.04299403598139],[136.533190081182,36.04324085362088],[136.5333978890228,36.04322490130582],[136.53323518076294,36.042964924336694]]]}},{"type":"Feature","properties":{"pid":"558d4c45-426b-4a8f-ba78-5dfcdad8630e"},"geometry":{"type":"Polygon","coordinates":[[[136.53316895744558,36.04367933718525],[136.5334409004981,36.043598622165206],[136.53335084914866,36.04339326197757],[136.53313184320476,36.043406227598695],[136.53316895744558,36.04367933718525]]]}},{"type":"Feature","properties":{"pid":"7e9b7c66-5bb4-44ad-88b7-c132b81c8281"},"geometry":{"type":"Polygon","coordinates":[[[136.53358433530417,36.0435609414673],[136.53386171394234,36.043436762172306],[136.5338679380496,36.0434007566518],[136.53377459336107,36.04325400204898],[136.533722562416,36.043254176602545],[136.53349275283773,36.04333832004743],[136.53358433530417,36.0435609414673]]]}},{"type":"Feature","properties":{"pid":"ef036b84-50c4-4677-8bb1-34ee2fc01165"},"geometry":{"type":"Polygon","coordinates":[[[136.5338571151683,36.04386393332367],[136.5337682196863,36.043733939185344],[136.5333438293888,36.043916532575615],[136.53335436905945,36.04395638017387],[136.5334945812562,36.04395411847432],[136.53365275252006,36.04393146253975],[136.5338571151683,36.04386393332367]]]}},{"type":"Feature","properties":{"pid":"f40acb6e-20c2-4be4-92fe-65564905e926"},"geometry":{"type":"Polygon","coordinates":[[[136.53594689944998,36.04313678531411],[136.53599047430276,36.04324630035711],[136.5361378035794,36.04321046847517],[136.5361049776503,36.04310044808009],[136.53594689944998,36.04313678531411]]]}},{"type":"Feature","properties":{"pid":"2ca261bb-a281-418d-bb79-844c7a96069b"},"geometry":{"type":"Polygon","coordinates":[[[136.53633203212746,36.04304401289212],[136.5362283232642,36.043068056198194],[136.53626331246062,36.04318282493266],[136.53636785886343,36.04316264379056],[136.53633203212746,36.04304401289212]]]}},{"type":"Feature","properties":{"pid":"7d52f641-2e71-416d-9f90-e75042a28c74"},"geometry":{"type":"Polygon","coordinates":[[[136.53649573439031,36.04313538866998],[136.5367193813066,36.04308891660317],[136.5367345479739,36.04305323112837],[136.5367057300706,36.04302314982345],[136.53664335610344,36.04299659568906],[136.53645091196313,36.0430190822641],[136.53649573439031,36.04313538866998]]]}},{"type":"Feature","properties":{"pid":"681f6b9b-ab16-4faf-a3c2-7ad8745fb5a0"},"geometry":{"type":"Polygon","coordinates":[[[136.536460885894,36.04324853482325],[136.5364718872253,36.0432756827931],[136.53666207656107,36.04325841097598],[136.53664669975745,36.04321184770011],[136.536460885894,36.04324853482325]]]}},{"type":"Feature","properties":{"pid":"16913117-b71e-4968-b387-372e4a85d8c6"},"geometry":{"type":"Polygon","coordinates":[[[136.53732135727137,36.04550917360025],[136.53731617021776,36.04546550670676],[136.5372673251671,36.04541042924026],[136.53709528379716,36.04529994849584],[136.53707468087495,36.04531603895092],[136.53732135727137,36.04550917360025]]]}},{"type":"Feature","properties":{"pid":"d0c389cc-2176-4596-bbe0-51ae73712429"},"geometry":{"type":"Polygon","coordinates":[[[136.53690351278024,36.04594038789845],[136.53700371059466,36.045833853698625],[136.5367002777981,36.04560593851198],[136.53657452309685,36.04568263379286],[136.53690351278024,36.04594038789845]]]}},{"type":"Feature","properties":{"pid":"682376a5-a24e-4213-8fad-8d64aea4606d"},"geometry":{"type":"Polygon","coordinates":[[[136.53668772514592,36.04613617107503],[136.53680541327566,36.04601685685259],[136.5364551461448,36.04574434435743],[136.5363060817323,36.045850164176905],[136.53668772514592,36.04613617107503]]]}},{"type":"Feature","properties":{"pid":"648b5fa3-7955-4445-8eb0-cf52b831c508"},"geometry":{"type":"Polygon","coordinates":[[[136.53637882764446,36.04636195042543],[136.53603089532194,36.04609111543708],[136.53585093794166,36.04621214656814],[136.53624005216116,36.04651314398524],[136.53637882764446,36.04636195042543]]]}},{"type":"Feature","properties":{"pid":"2a0b14de-c5cd-4111-8e90-6d649147ab7e"},"geometry":{"type":"Polygon","coordinates":[[[136.5364946075987,36.0462967494867],[136.53657989588424,36.04621308612298],[136.53621141085642,36.045928918288254],[136.53612709815624,36.045993822607905],[136.5364946075987,36.0462967494867]]]}},{"type":"Feature","properties":{"pid":"cb16008e-e163-42c3-8c6c-270517c4e3df"},"geometry":{"type":"Polygon","coordinates":[[[136.53717608672878,36.04597887508345],[136.53693416109965,36.04622752753234],[136.5373647608889,36.046567063235],[136.53762199341207,36.046351251820845],[136.53717608672878,36.04597887508345]]]}},{"type":"Feature","properties":{"pid":"e764ae7e-70e6-4445-a953-56ef11700c16"},"geometry":{"type":"Polygon","coordinates":[[[136.53712780987584,36.0457305600001],[136.53722701309277,36.045604936918345],[136.53696442340262,36.04541089921918],[136.5368300483107,36.04549049841869],[136.53712780987584,36.0457305600001]]]}},{"type":"Feature","properties":{"pid":"a4bc996e-f1e6-45bd-8308-5148ccba8020"},"geometry":{"type":"Polygon","coordinates":[[[136.53836648996673,36.04572620634828],[136.5380934351612,36.04548901541668],[136.53794250033408,36.045574685209495],[136.53790517630424,36.04557970941383],[136.53767795556226,36.04540814724985],[136.5376637526114,36.04542156095564],[136.53821189982855,36.04584204406697],[136.53836648996673,36.04572620634828]]]}},{"type":"Feature","properties":{"pid":"1aa55c08-b23c-475c-84ed-4567876d292e"},"geometry":{"type":"Polygon","coordinates":[[[136.53756486537523,36.045532499086896],[136.53751782430905,36.04565405605218],[136.53799126688372,36.04602908150817],[136.53810070651926,36.045956116567694],[136.53756486537523,36.045532499086896]]]}},{"type":"Feature","properties":{"pid":"e782090a-763f-4db9-8b07-3b1544991678"},"geometry":{"type":"Polygon","coordinates":[[[136.53740602509893,36.045747849206435],[136.53730298964476,36.0458760055644],[136.5377425727445,36.04623625729966],[136.53788914041382,36.04613189166163],[136.53740602509893,36.045747849206435]]]}},{"type":"Feature","properties":{"pid":"c54c45d7-8e7e-4982-89e8-0fad08549e66"},"geometry":{"type":"Polygon","coordinates":[[[136.53771657402552,36.04657489813963],[136.5382405381009,36.04699066104387],[136.53833113691266,36.046869880226495],[136.5378320968269,36.04647424371022],[136.53771657402552,36.04657489813963]]]}},{"type":"Feature","properties":{"pid":"eb1bcf32-d9df-4363-aa3e-b3d1c82ce095"},"geometry":{"type":"Polygon","coordinates":[[[136.53683487029468,36.04631738563303],[136.53663071760343,36.04649744043496],[136.5369767456442,36.04675009917682],[136.53724496550723,36.0466312243258],[136.53683487029468,36.04631738563303]]]}},{"type":"Feature","properties":{"pid":"ec2c2c6d-c061-4bd9-a81e-df7e768c09fe"},"geometry":{"type":"Polygon","coordinates":[[[136.53729659691228,36.04691044224051],[136.53728323983293,36.04692391454537],[136.53780820674424,36.04733732610709],[136.53782318043633,36.047322059223006],[136.53729659691228,36.04691044224051]]]}},{"type":"Feature","properties":{"pid":"b5d3a705-deb8-4c50-8815-f02cb3e8891f"},"geometry":{"type":"Polygon","coordinates":[[[136.53795808434816,36.04721320705299],[136.53798918740355,36.047183706970785],[136.53744986360377,36.046776207154686],[136.53742315209996,36.04680422439511],[136.53795808434816,36.04721320705299]]]}},{"type":"Feature","properties":{"pid":"0eb46baf-2930-49cd-b87d-20f16587ce28"},"geometry":{"type":"Polygon","coordinates":[[[136.53756005239399,36.04668375956036],[136.53810422710828,36.047096940581675],[136.53814145598912,36.04707115593961],[136.53760382062697,36.04664652134324],[136.53756005239399,36.04668375956036]]]}},{"type":"Feature","properties":{"pid":"cee2a96b-7bb9-4378-b525-890b1ace9962"},"geometry":{"type":"Polygon","coordinates":[[[136.5376786576115,36.04772602436732],[136.5382292186198,36.047823875518404],[136.5379132398496,36.047569205511095],[136.5377214790736,36.04767459176482],[136.5376786576115,36.04772602436732]]]}},{"type":"Feature","properties":{"pid":"9714a15e-2bd6-4bf6-995b-1c734bd9195f"},"geometry":{"type":"Polygon","coordinates":[[[136.53713126140337,36.04706155315942],[136.53704022577614,36.04714358419024],[136.53756133823538,36.04755201975115],[136.53763523612278,36.04744665967922],[136.53713126140337,36.04706155315942]]]}},{"type":"Feature","properties":{"pid":"d071bfbc-2984-4e8a-a5b6-77608a51e72a"},"geometry":{"type":"Polygon","coordinates":[[[136.53728335301727,36.04769789108633],[136.5373847693538,36.047708733034],[136.5374343453381,36.04766073408653],[136.5369224465471,36.047252184640435],[136.53683373820897,36.04733483580392],[136.53728335301727,36.04769789108633]]]}},{"type":"Feature","properties":{"pid":"814f1c8c-2695-4500-8596-71fe0e5564a1"},"geometry":{"type":"Polygon","coordinates":[[[136.53668569667735,36.04745878366499],[136.53655229922683,36.04757158598137],[136.53671048536717,36.04761422249328],[136.5369164122424,36.047630439155796],[136.53668569667735,36.04745878366499]]]}},{"type":"Feature","properties":{"pid":"61c5af26-03c6-42bd-a4ca-ceb2be045ba9"},"geometry":{"type":"Polygon","coordinates":[[[136.5353964841079,36.047303918832185],[136.53557986100967,36.04733542347161],[136.53624394678783,36.047513645392385],[136.5362499525638,36.047500619783406],[136.53619534398973,36.04749615194256],[136.53599773868297,36.04742528296755],[136.53581096799223,36.04733934229174],[136.53569442008134,36.04726137602878],[136.53547377960925,36.04714975530875],[136.5353964841079,36.047303918832185]]]}},{"type":"Feature","properties":{"pid":"9c9ecffb-ac48-4cf7-8438-7f9fba357ab7"},"geometry":{"type":"Polygon","coordinates":[[[136.53666000880855,36.04705859589967],[136.5363224732241,36.046789805155186],[136.53603215566073,36.047068701183555],[136.5361643677022,36.04716702500014],[136.5363661266113,36.04716853082514],[136.53666000880855,36.04705859589967]]]}},{"type":"Feature","properties":{"pid":"ef78192a-a1dd-475c-a1df-b0a358001b14"},"geometry":{"type":"Polygon","coordinates":[[[136.53654063627022,36.0465818021745],[136.53641983046649,36.04670581029641],[136.53672913243946,36.04693856735206],[136.53685690095628,36.04682305491693],[136.53654063627022,36.0465818021745]]]}},{"type":"Feature","properties":{"pid":"3601a547-660a-4fd4-8ada-d332ef92072e"},"geometry":{"type":"Polygon","coordinates":[[[136.53578218667047,36.04686535480565],[136.53587425759207,36.04676822093375],[136.53553607995983,36.04650890025514],[136.53544608571318,36.04662413264425],[136.53578218667047,36.04686535480565]]]}},{"type":"Feature","properties":{"pid":"089ff1ae-5322-44b4-af30-6f361399d14f"},"geometry":{"type":"Polygon","coordinates":[[[136.5359923631226,36.046699621867994],[136.5361059996101,36.04659545820618],[136.5357408099473,36.04632864785355],[136.53562061788827,36.046406798308226],[136.5359923631226,36.046699621867994]]]}},{"type":"Feature","properties":{"pid":"83c3149e-5283-4495-8249-12161326f7d2"},"geometry":{"type":"Polygon","coordinates":[[[136.5340503289893,36.04712744557736],[136.5340561007856,36.04718018905909],[136.53408123766923,36.047213355271296],[136.5343749131759,36.047265116581166],[136.53465014350178,36.04727091989641],[136.5346747052615,36.04711301153649],[136.53461044232827,36.047059727235464],[136.5344861413052,36.04710916502961],[136.53428730002616,36.04709573776343],[136.5340503289893,36.04712744557736]]]}},{"type":"Feature","properties":{"pid":"839b5e3b-8034-4019-b8e5-88d879c9a73e"},"geometry":{"type":"Polygon","coordinates":[[[136.53487904674608,36.047309694112045],[136.535103127194,36.04734033621656],[136.53509941683808,36.047253613341766],[136.5351906640293,36.047079779424976],[136.53504047686914,36.04698994084102],[136.53491419445476,36.04702879019597],[136.5349329806777,36.04707800920881],[136.53487904674608,36.047309694112045]]]}},{"type":"Feature","properties":{"pid":"749d44ca-100c-4ee0-a305-d65154241650"},"geometry":{"type":"Polygon","coordinates":[[[136.5355560281974,36.04702460268067],[136.53562129181935,36.04696511249505],[136.53536294108528,36.04677454921072],[136.53529449429826,36.04683476562863],[136.5355560281974,36.04702460268067]]]}},{"type":"Feature","properties":{"pid":"af1e4ed7-9d30-4c7d-a9fc-14cb107f0a22"},"geometry":{"type":"Polygon","coordinates":[[[136.53509271889018,36.04771587351809],[136.53512995614406,36.04761171041501],[136.53472920686588,36.04756365638244],[136.53472161725915,36.047581218018856],[136.5349203688649,36.04767076638417],[136.53509271889018,36.04771587351809]]]}},{"type":"Feature","properties":{"pid":"730ae76e-ce22-463f-9b96-6236a626dd43"},"geometry":{"type":"Polygon","coordinates":[[[136.53527753376514,36.04775818206078],[136.5354810471075,36.04774622307951],[136.5356785953094,36.04776918962623],[136.53573644596494,36.04774598565482],[136.53567363116653,36.04772436849904],[136.53565237362432,36.04769097930132],[136.5353158281051,36.04765571853271],[136.53527753376514,36.04775818206078]]]}},{"type":"Feature","properties":{"pid":"335d18c2-9f55-4494-b439-97ab6fa5b24b"},"geometry":{"type":"Polygon","coordinates":[[[136.5344517497629,36.04750988136653],[136.5337856400547,36.04746268587501],[136.5336686953353,36.04746014300341],[136.5335715044064,36.04748777550039],[136.5335734245421,36.047516202793375],[136.53366680322182,36.04764821378659],[136.53374229867651,36.0476801434561],[136.5338887698517,36.04768144121689],[136.53410290342288,36.047604836197785],[136.5342753538133,36.04757847690877],[136.53445406749097,36.04752689038527],[136.5344517497629,36.04750988136653]]]}},{"type":"Feature","properties":{"pid":"52ba5903-4e66-44f3-ae4d-6d5bfcd6b621"},"geometry":{"type":"Polygon","coordinates":[[[136.53146740609412,36.04752910425642],[136.53171648805045,36.04748663832097],[136.5318836893433,36.04743124936526],[136.53191886206423,36.04739174334604],[136.53152223758335,36.04737383532392],[136.53146740609412,36.04752910425642]]]}},{"type":"Feature","properties":{"pid":"1857fb6f-507d-4cf2-be09-7abe156544c7"},"geometry":{"type":"Polygon","coordinates":[[[136.53097522257679,36.04754550148568],[136.53110667903002,36.04760345937845],[136.5312250634328,36.04762667961577],[136.5312763918412,36.04761929964586],[136.53136384079517,36.047339913342675],[136.5310729419722,36.047261431337475],[136.53097522257679,36.04754550148568]]]}},{"type":"Feature","properties":{"pid":"33dba1d1-d9f5-468c-ae0a-5dda9bce3f57"},"geometry":{"type":"Polygon","coordinates":[[[136.53056051070368,36.04779882597065],[136.53070208173705,36.047824481062314],[136.53093101693983,36.04792760377368],[136.53102192977332,36.047935470234314],[136.53105311043936,36.04788374064151],[136.53105591653,36.04785446453525],[136.5309578994187,36.04781539136371],[136.53091098087702,36.047778763029335],[136.53064798441693,36.04768936513899],[136.53062658531448,36.04773705542696],[136.53056051070368,36.04779882597065]]]}},{"type":"Feature","properties":{"pid":"d56dd94c-957a-418b-98fa-7bb4b3cceb90"},"geometry":{"type":"Polygon","coordinates":[[[136.5306754368003,36.04745173085689],[136.5308394578748,36.047516016456846],[136.53094107513598,36.047222476063844],[136.5307752861724,36.04715926732838],[136.5306754368003,36.04745173085689]]]}},{"type":"Feature","properties":{"pid":"6c029aed-0fdb-4d0c-a1a3-1e482ff1ebc7"},"geometry":{"type":"Polygon","coordinates":[[[136.530341313077,36.047337727212344],[136.53035779148047,36.04735634192455],[136.53052668356986,36.047400996862805],[136.53063662995592,36.04711101033339],[136.5304540814871,36.04707398437408],[136.5304317357495,36.047087292268735],[136.530341313077,36.047337727212344]]]}},{"type":"Feature","properties":{"pid":"72e9d8ab-a8dd-40e9-be85-953d0dac787c"},"geometry":{"type":"Polygon","coordinates":[[[136.52942017997435,36.04695181494546],[136.52950822572333,36.04697217035866],[136.5295560559883,36.04701798975687],[136.52976221040225,36.04705572814072],[136.52973515187267,36.0469552535379],[136.52974655816323,36.04676791678128],[136.52967112174082,36.04659141155114],[136.52965502450013,36.04650818526824],[136.52935293510257,36.04672027877788],[136.52942017997435,36.04695181494546]]]}},{"type":"Feature","properties":{"pid":"46ec8729-e4d9-46d0-ab86-430331f47041"},"geometry":{"type":"Polygon","coordinates":[[[136.52999146038553,36.04702528813846],[136.53019183178216,36.0472230887725],[136.53024538087445,36.04707754000257],[136.53004358545994,36.04705407390527],[136.52999146038553,36.04702528813846]]]}},{"type":"Feature","properties":{"pid":"aa8e824d-4d1e-4c7d-9b6b-cf38ddd5f8d4"},"geometry":{"type":"Polygon","coordinates":[[[136.53011096740067,36.04753533712287],[136.53010869490893,36.04759072340335],[136.5301373316595,36.047639640787104],[136.53023075136687,36.04768627496378],[136.53030982923917,36.04767965679155],[136.53036560507434,36.04765404976602],[136.53047408418507,36.047671869427504],[136.5304880321222,36.047656833509414],[136.53049615079834,36.047623777807544],[136.5301721150413,36.047567015399544],[136.53011096740067,36.04753533712287]]]}},{"type":"Feature","properties":{"pid":"546b182a-ea2d-44c4-811b-0e27632acfec"},"geometry":{"type":"Polygon","coordinates":[[[136.52916854867192,36.04733198049662],[136.52912332896094,36.04737651576463],[136.52921087301755,36.04742848420746],[136.52928864983028,36.047526338148316],[136.52950791698933,36.04766030255705],[136.52964725776852,36.04778695341531],[136.52974867862565,36.047815099477084],[136.53003528454556,36.04777203069628],[136.52996334575778,36.04772816036627],[136.5298883994504,36.04761197073776],[136.52963021893277,36.047484860700365],[136.52916854867192,36.04733198049662]]]}},{"type":"Feature","properties":{"pid":"fd420cd5-b9ee-4ba7-996e-a668afb24f07"},"geometry":{"type":"Polygon","coordinates":[[[136.52938439926277,36.04718527267751],[136.52952720153084,36.047243065547335],[136.52972510368946,36.04729314923922],[136.52988458991166,36.04739575112676],[136.52987673974613,36.04734496397036],[136.52983569038435,36.047275757167796],[136.52978168456477,36.04725101099985],[136.52938439926277,36.04718527267751]]]}},{"type":"Feature","properties":{"pid":"e157a58c-fad8-408e-9d36-b9b0635c8235"},"geometry":{"type":"Polygon","coordinates":[[[136.52806926726547,36.046951236720645],[136.52871216370306,36.04719581750901],[136.52875165318258,36.04707051687709],[136.5281156234983,36.046833538996296],[136.52806926726547,36.046951236720645]]]}},{"type":"Feature","properties":{"pid":"316bae11-a4a5-4d26-9d80-766e46a0832e"},"geometry":{"type":"Polygon","coordinates":[[[136.52813960321407,36.0467251966195],[136.52884713944448,36.04699590112328],[136.52895931027206,36.04700310156724],[136.5289084521368,36.046844538227504],[136.52820480806363,36.04657670979742],[136.52813960321407,36.0467251966195]]]}},{"type":"Feature","properties":{"pid":"a07bb79e-0c11-4854-8788-d57334c2ad23"},"geometry":{"type":"Polygon","coordinates":[[[136.52893819119782,36.04672050718784],[136.52893277108697,36.0466499625652],[136.52875800335607,36.0465475295363],[136.52858575692005,36.04648655347222],[136.5282699414436,36.04641818193864],[136.52824440740363,36.04645568686607],[136.52893819119782,36.04672050718784]]]}},{"type":"Feature","properties":{"pid":"6a36b674-97f3-403d-b661-582dbcade07f"},"geometry":{"type":"Polygon","coordinates":[[[136.52837153161104,36.045917556634464],[136.5282475878315,36.04592489547613],[136.5281834654409,36.045979085761545],[136.52818945242672,36.04610489703043],[136.52828246300072,36.04613432325025],[136.5285331225663,36.04617588936899],[136.52837153161104,36.045917556634464]]]}},{"type":"Feature","properties":{"pid":"394d769d-9059-4f6f-a49b-922aec802841"},"geometry":{"type":"Polygon","coordinates":[[[136.52775923797654,36.04564206848931],[136.52795866972446,36.04561829790597],[136.52807713273495,36.04567636928103],[136.52813716131823,36.04572519430345],[136.52817462259523,36.04572814787308],[136.52791376720873,36.04548658259883],[136.52781536367763,36.045420501024864],[136.52775923797654,36.04564206848931]]]}},{"type":"Feature","properties":{"pid":"40e492d9-b7c2-48f8-a935-2077bd02d1a5"},"geometry":{"type":"Polygon","coordinates":[[[136.52846370650053,36.04563877890501],[136.52858953231265,36.045571041799825],[136.52848355331128,36.04545186942293],[136.5283578242649,36.045527338722906],[136.52846370650053,36.04563877890501]]]}},{"type":"Feature","properties":{"pid":"550cae5c-0680-42da-8b98-afe29fbeb2ad"},"geometry":{"type":"Polygon","coordinates":[[[136.52865535353092,36.045909386657],[136.5291624764883,36.045674647536295],[136.52909923719085,36.04556534300703],[136.52899796389283,36.045526843255374],[136.52855195228491,36.04573702373842],[136.52865535353092,36.045909386657]]]}},{"type":"Feature","properties":{"pid":"183dfa6b-6526-497f-b083-1e6e31e9925f"},"geometry":{"type":"Polygon","coordinates":[[[136.52925560107354,36.04582046594681],[136.5287478191855,36.04602896106194],[136.52882669807445,36.04613741783386],[136.5289359213442,36.046209189966206],[136.52942042270928,36.04599270276889],[136.52925560107354,36.04582046594681]]]}},{"type":"Feature","properties":{"pid":"8564fa45-fb66-4260-932e-e69688f2b000"},"geometry":{"type":"Polygon","coordinates":[[[136.5290856163695,36.046298040006434],[136.5291632127568,36.04634112141928],[136.52926396607623,36.04645234976553],[136.5293056625071,36.046567429058896],[136.52956430969948,36.046382046699655],[136.5295949425692,36.04625505368277],[136.5295469209339,36.04614320751537],[136.5295125099275,36.04610025262494],[136.5290856163695,36.046298040006434]]]}},{"type":"Feature","properties":{"pid":"7078f3f7-334b-41ef-be6f-c171be6adcc1"},"geometry":{"type":"Polygon","coordinates":[[[136.52875755112396,36.0455068435074],[136.52888387658336,36.04544733888677],[136.52870087503175,36.04526950525918],[136.52858435031405,36.04525850560285],[136.5286349722329,36.045348267312264],[136.52872443196532,36.04543329821033],[136.52875755112396,36.0455068435074]]]}},{"type":"Feature","properties":{"pid":"daf7f3bc-eb9b-4f5d-ab33-fdd7e330e5df"},"geometry":{"type":"Polygon","coordinates":[[[136.52825237597168,36.045442544506265],[136.52842609145424,36.045337151695904],[136.52839904056978,36.04528749172379],[136.52830458062905,36.045201375231606],[136.52813654193602,36.04534156127657],[136.52825237597168,36.045442544506265]]]}},{"type":"Feature","properties":{"pid":"dae2f980-4d0c-45e4-8f8d-1a062c6b220a"},"geometry":{"type":"Polygon","coordinates":[[[136.52781566314752,36.04508485706449],[136.5278631086165,36.045140051145886],[136.52802140901096,36.0452539457205],[136.52823244658265,36.0450830626468],[136.5281086925245,36.044951415480334],[136.52802163767407,36.044903806561535],[136.52781566314752,36.04508485706449]]]}},{"type":"Feature","properties":{"pid":"9a25fefa-1119-43ea-b683-43b7a3be0291"},"geometry":{"type":"Polygon","coordinates":[[[136.52851238132715,36.043215761634045],[136.52837051931218,36.04322703903561],[136.5283509735156,36.04336149488005],[136.52845041394625,36.04333750527433],[136.52851238132715,36.043215761634045]]]}},{"type":"Feature","properties":{"pid":"2a67bc20-8802-4491-ba9c-adbd389294ea"},"geometry":{"type":"Polygon","coordinates":[[[136.52820128239358,36.04316857498966],[136.52807299073325,36.04320437122191],[136.528062981835,36.0433428734498],[136.52818361562362,36.04334421416102],[136.52820128239358,36.04316857498966]]]}},{"type":"Feature","properties":{"pid":"b943c461-b251-4bb4-bf0b-4821183521a0"},"geometry":{"type":"Polygon","coordinates":[[[136.53248302121025,36.04381493353848],[136.53240061993935,36.04341561880413],[136.53229658150403,36.04342894899736],[136.53220103214335,36.04374972251697],[136.53230532723566,36.043793686251874],[136.53248302121025,36.04381493353848]]]}},{"type":"Feature","properties":{"pid":"f3838f90-ddcf-4b4b-9227-bd4e27da72bf"},"geometry":{"type":"Polygon","coordinates":[[[136.5320341323011,36.04370013458122],[136.53205889590035,36.04370924221991],[136.5321497913758,36.04342016970018],[136.53213693980086,36.04341407885167],[136.5321209158813,36.04342101921613],[136.5320341323011,36.04370013458122]]]}},{"type":"Feature","properties":{"pid":"c5c2ebe8-9a63-44f4-94eb-d33ecfee2440"},"geometry":{"type":"Polygon","coordinates":[[[136.53279397925678,36.043752980010424],[136.53276940455794,36.043620849371635],[136.5326788458008,36.04355256179774],[136.53265422948814,36.043398376399324],[136.53254700692446,36.043406475788984],[136.53261745220732,36.04379188037174],[136.53279397925678,36.043752980010424]]]}},{"type":"Feature","properties":{"pid":"e8db9ea7-346a-4a13-8e08-589d095ec3e4"},"geometry":{"type":"Polygon","coordinates":[[[136.53299416206207,36.04372261148413],[136.53294779662124,36.04339194514362],[136.53280829526443,36.043388979488185],[136.5328222686909,36.043496729813036],[136.53290647072922,36.04355598946926],[136.53294749945454,36.04372808635785],[136.53299416206207,36.04372261148413]]]}},{"type":"Feature","properties":{"pid":"5be7c697-195f-4fe0-bfed-b6dd4804a2fb"},"geometry":{"type":"Polygon","coordinates":[[[136.53292901329368,36.04323861271002],[136.5329157421713,36.043089255470335],[136.53289502410618,36.043059355158896],[136.53275490866676,36.04305997739767],[136.53250570933272,36.04310048027948],[136.53252850093708,36.04324861475984],[136.53292901329368,36.04323861271002]]]}},{"type":"Feature","properties":{"pid":"da3c4e49-4e5a-4f7a-acfa-7801ddcf3a50"},"geometry":{"type":"Polygon","coordinates":[[[136.5323444228707,36.04326018087598],[136.53228635215862,36.04295452752145],[136.53228839825016,36.04278033475381],[136.53211759823867,36.04278322802624],[136.53208998253018,36.04295198802044],[136.53217213607596,36.04304330042964],[136.53221251185343,36.04318400568211],[136.53224310558488,36.04321652155005],[136.5323444228707,36.04326018087598]]]}},{"type":"Feature","properties":{"pid":"61bc278f-c335-4632-bd2d-ab36e694d4b2"},"geometry":{"type":"Polygon","coordinates":[[[136.53150802917222,36.04320265721828],[136.53196102828068,36.04320265722662],[136.53195510691882,36.043148526608725],[136.53152015073314,36.04310464953321],[136.53150802917222,36.04320265721828]]]}},{"type":"Feature","properties":{"pid":"8a89527a-b376-415c-85ce-676d04b57de9"},"geometry":{"type":"Polygon","coordinates":[[[136.5314528678824,36.043356029476996],[136.5314967127996,36.04345149505352],[136.5316592536454,36.04356588801076],[136.53171638660035,36.04355613298257],[136.53176388067382,36.04334784833177],[136.5314528678824,36.043356029476996]]]}},{"type":"Feature","properties":{"pid":"090f0389-cd24-4c10-bf5a-c8872248e350"},"geometry":{"type":"Polygon","coordinates":[[[136.5305615351185,36.04361132908281],[136.53082781112977,36.04357354719508],[136.53102328375732,36.04345861984554],[136.5308610322697,36.043434504130616],[136.530738864703,36.043525895565146],[136.53062055811725,36.04355319119734],[136.5305615351185,36.04361132908281]]]}},{"type":"Feature","properties":{"pid":"ce45aca1-0fe5-4fed-9bd5-7f81ab1aeced"},"geometry":{"type":"Polygon","coordinates":[[[136.53228799795443,36.04261949877774],[136.53232279949364,36.04241030242458],[136.53222505057184,36.04239751637085],[136.53218226483364,36.04244092293613],[136.53214336883556,36.042606522611734],[136.53215149800354,36.0426179312085],[136.53228799795443,36.04261949877774]]]}},{"type":"Feature","properties":{"pid":"4ab997c7-2018-490a-8122-06f22324b265"},"geometry":{"type":"Polygon","coordinates":[[[136.52933669157392,36.04151524419909],[136.52937817527172,36.0415135770584],[136.5294618071487,36.04137725403285],[136.5293313522771,36.04130986029652],[136.52933669157392,36.04151524419909]]]}},{"type":"Feature","properties":{"pid":"d6f2716b-d3ca-4399-8680-ff5abb55d79b"},"geometry":{"type":"Polygon","coordinates":[[[136.52802527809487,36.04195195601738],[136.52810598984126,36.04194613563494],[136.52808291687958,36.041461159360395],[136.52801120552851,36.041465116633326],[136.52802527809487,36.04195195601738]]]}},{"type":"Feature","properties":{"pid":"4b249ff5-ae02-4648-9e48-e3b8f0620b2e"},"geometry":{"type":"Polygon","coordinates":[[[136.5282395373877,36.04192576457617],[136.52832814944964,36.04190300116831],[136.52829752816385,36.04144356453547],[136.52822171569053,36.04145009293156],[136.5282395373877,36.04192576457617]]]}},{"type":"Feature","properties":{"pid":"1659b0cf-b721-414f-990e-fb8e0ebc6a71"},"geometry":{"type":"Polygon","coordinates":[[[136.528480230591,36.04184763171951],[136.5285430854924,36.04182122819004],[136.52851623486953,36.041401103632715],[136.52845437925328,36.041405901694546],[136.528480230591,36.04184763171951]]]}},{"type":"Feature","properties":{"pid":"befa8194-3775-4edb-9167-3c0e9b4d1ea4"},"geometry":{"type":"Polygon","coordinates":[[[136.5286852656846,36.041731467968766],[136.52874579137864,36.041702919840496],[136.52873016979908,36.041358365649884],[136.5286710221722,36.04137520442934],[136.5286852656846,36.041731467968766]]]}},{"type":"Feature","properties":{"pid":"1bc8788a-8abc-4ece-815d-f4d8e707dfdf"},"geometry":{"type":"Polygon","coordinates":[[[136.528901915342,36.04163096456367],[136.52897044104432,36.041596896614166],[136.52895670812308,36.04131560182818],[136.5288870559931,36.041328178139025],[136.528901915342,36.04163096456367]]]}},{"type":"Feature","properties":{"pid":"e82249a6-2a39-49e6-99e6-da91ce439598"},"geometry":{"type":"Polygon","coordinates":[[[136.5291872647416,36.041535697219864],[136.52917475693593,36.041287910563696],[136.52911310957737,36.04130290003358],[136.52913260475177,36.04154615675002],[136.5291872647416,36.041535697219864]]]}},{"type":"Feature","properties":{"pid":"06787d95-c5af-4732-95c4-6624ccf8e31f"},"geometry":{"type":"Polygon","coordinates":[[[136.52836909153814,36.0412593452694],[136.52856738048996,36.04123364065349],[136.52873624037682,36.04119381789175],[136.5285255938242,36.04107126022862],[136.52843577236766,36.040941093666284],[136.5283609290361,36.040940555309],[136.52836909153814,36.0412593452694]]]}},{"type":"Feature","properties":{"pid":"26d567e1-692d-4501-a0d1-b601b4b8fcb9"},"geometry":{"type":"Polygon","coordinates":[[[136.527734221088,36.04134938189754],[136.52795363009292,36.04133504584583],[136.52813470617846,36.04130269743697],[136.52812509437263,36.041107111197896],[136.52772875868465,36.041107017481536],[136.527734221088,36.04134938189754]]]}},{"type":"Feature","properties":{"pid":"924b032b-3982-4a12-829f-b134a13d401f"},"geometry":{"type":"Polygon","coordinates":[[[136.5267647168959,36.04149688746584],[136.52679206987412,36.04203385851015],[136.52685610171434,36.042024497763215],[136.5268452017062,36.041567426414105],[136.5267647168959,36.04149688746584]]]}},{"type":"Feature","properties":{"pid":"c7f3d476-e5f8-4f3b-b0c7-9a4aad0890c2"},"geometry":{"type":"Polygon","coordinates":[[[136.5269953615194,36.04154839780826],[136.52702514064686,36.04204343217518],[136.5270894995616,36.04203268374293],[136.52705211691867,36.0415446606313],[136.5269953615194,36.04154839780826]]]}},{"type":"Feature","properties":{"pid":"5470e0c4-c10c-4e58-b554-383173909a2a"},"geometry":{"type":"Polygon","coordinates":[[[136.52746085222174,36.04201359303417],[136.5275885942701,36.041993153120906],[136.52755938181735,36.041530225030456],[136.52743469633384,36.041534006159694],[136.52746085222174,36.04201359303417]]]}},{"type":"Feature","properties":{"pid":"6d3a68d0-fbfd-4e96-93eb-b8ba8cdc35cc"},"geometry":{"type":"Polygon","coordinates":[[[136.52722151062417,36.04154265145728],[136.52724259211843,36.04202483943924],[136.5273118359241,36.04201515349483],[136.52729082014616,36.04154000075422],[136.52722151062417,36.04154265145728]]]}},{"type":"Feature","properties":{"pid":"a70d1cc1-14ef-4f17-8021-fc94c130a380"},"geometry":{"type":"Polygon","coordinates":[[[136.5277410867199,36.04149814695644],[136.52776804956574,36.04197118038406],[136.5278783333081,36.041962980064305],[136.5278443204221,36.04149274039941],[136.5277410867199,36.04149814695644]]]}},{"type":"Feature","properties":{"pid":"3a80c194-691d-4482-af51-5cb33d4e59e2"},"geometry":{"type":"Polygon","coordinates":[[[136.5254069116321,36.04213536553936],[136.52550739783555,36.04212585201984],[136.52546368544807,36.0414193899481],[136.52536828473262,36.04143697013831],[136.5254069116321,36.04213536553936]]]}},{"type":"Feature","properties":{"pid":"fa595cc7-e54f-47d6-b530-d9a1f1e737c5"},"geometry":{"type":"Polygon","coordinates":[[[136.52584572679305,36.041440595895494],[136.52588257335265,36.04210794568389],[136.5259938104159,36.04209163359406],[136.52596216478227,36.04143276067295],[136.52584572679305,36.041440595895494]]]}},{"type":"Feature","properties":{"pid":"b687f727-d89e-413c-a78b-7ae85897fe11"},"geometry":{"type":"Polygon","coordinates":[[[136.52563904386014,36.042127905541086],[136.5257437928187,36.042116262648165],[136.5257001914672,36.04142108574596],[136.52563342007227,36.04138894433887],[136.52559855836878,36.04139436083842],[136.52563904386014,36.042127905541086]]]}},{"type":"Feature","properties":{"pid":"be7a5c88-a35c-4069-83ce-6c544bde562a"},"geometry":{"type":"Polygon","coordinates":[[[136.5261447440711,36.042074825855686],[136.52620358124108,36.042069162868366],[136.5261734915406,36.0414177261968],[136.52610558330105,36.041425262533046],[136.5261447440711,36.042074825855686]]]}},{"type":"Feature","properties":{"pid":"0c5fb815-7441-49c4-bd3b-7a01d41ce0a7"},"geometry":{"type":"Polygon","coordinates":[[[136.52638691520625,36.0413201979195],[136.52633420709557,36.04132390137166],[136.526356065099,36.04206344325311],[136.5264180559744,36.04205548448061],[136.52638691520625,36.0413201979195]]]}},{"type":"Feature","properties":{"pid":"1e163fda-ae2e-46df-bc50-1746ae593669"},"geometry":{"type":"Polygon","coordinates":[[[136.52654531591543,36.04136388029013],[136.52658114580885,36.04204977411179],[136.5266477760712,36.042046015742336],[136.5266098910023,36.041365698755264],[136.52654531591543,36.04136388029013]]]}},{"type":"Feature","properties":{"pid":"c9a83324-b306-4278-bf63-1c04a18d710a"},"geometry":{"type":"Polygon","coordinates":[[[136.52516536720478,36.04216807724325],[136.52526213818174,36.04215435748563],[136.52521218288413,36.041459170366316],[136.52513680600416,36.041506366179206],[136.52516536720478,36.04216807724325]]]}},{"type":"Feature","properties":{"pid":"603a7f77-3a84-4453-9caf-5b3b1ce8d565"},"geometry":{"type":"Polygon","coordinates":[[[136.524894920901,36.04456564608231],[136.52529572041394,36.04456950205451],[136.52530105536027,36.044389087232354],[136.5250766015189,36.04436102516181],[136.524894920901,36.04456564608231]]]}},{"type":"Feature","properties":{"pid":"ec87b1c8-f910-4a14-8ac3-93a071db6a30"},"geometry":{"type":"Polygon","coordinates":[[[136.5254606475249,36.04460122126138],[136.5257063687641,36.04460651613491],[136.52575793677653,36.044439151916436],[136.52546773178702,36.04440135521819],[136.5254606475249,36.04460122126138]]]}},{"type":"Feature","properties":{"pid":"d614a32f-6711-4906-9fb5-34d5005d4f67"},"geometry":{"type":"Polygon","coordinates":[[[136.52736725285246,36.04328550961662],[136.52730992709994,36.043282552240214],[136.52722499468445,36.04334598827104],[136.52692223908215,36.043503829669646],[136.52711305659957,36.043471963186704],[136.52728204374293,36.04341164406549],[136.52736725285246,36.04328550961662]]]}},{"type":"Feature","properties":{"pid":"9436e8b4-25f3-4c54-bfe4-bcba87d09ab9"},"geometry":{"type":"Polygon","coordinates":[[[136.5278963919899,36.043160277328454],[136.52785549807683,36.04314254302972],[136.527820278822,36.04314972312292],[136.52774926741688,36.04324043303852],[136.52766393031266,36.0432811014055],[136.52762789536132,36.04339023533775],[136.52768841515262,36.043408632390225],[136.52789196508505,36.04333629173035],[136.5278963919899,36.043160277328454]]]}},{"type":"Feature","properties":{"pid":"48ec375a-2b20-4fe9-84f6-e0699eeaafb3"},"geometry":{"type":"Polygon","coordinates":[[[136.52760486025147,36.0447107704941],[136.52763709227392,36.0447480521075],[136.52768395136962,36.04494698114586],[136.52771573684268,36.04500139777833],[136.52790786507958,36.044845633613846],[136.52770048261712,36.04473466801615],[136.52760486025147,36.0447107704941]]]}},{"type":"Feature","properties":{"pid":"0eac27f7-2f2c-43e0-a08c-5e7e580d1380"},"geometry":{"type":"Polygon","coordinates":[[[136.52760822611472,36.04568351527871],[136.52769353253393,36.045323024462355],[136.52758719325044,36.0452476266313],[136.52747400287635,36.04570176110102],[136.52760822611472,36.04568351527871]]]}},{"type":"Feature","properties":{"pid":"6669865a-62ff-45eb-9dce-8ac22841ebc8"},"geometry":{"type":"Polygon","coordinates":[[[136.52717820553647,36.045657410583836],[136.52731671015653,36.04570551507684],[136.52746015198602,36.04510662477639],[136.52742001621397,36.045054442098554],[136.52735532157402,36.0448297053453],[136.52716404128168,36.04563573716282],[136.52717820553647,36.045657410583836]]]}},{"type":"Feature","properties":{"pid":"4027432e-f757-4736-ae7d-e6f25fdce2fd"},"geometry":{"type":"Polygon","coordinates":[[[136.52683886899507,36.04546040970831],[136.5268793677045,36.04550738344159],[136.52701940218205,36.045577412660954],[136.52723023117036,36.044688196387746],[136.5270498658193,36.044639334180985],[136.52683886899507,36.04546040970831]]]}},{"type":"Feature","properties":{"pid":"8023e1eb-26e9-4a15-80cd-64ff4f701de3"},"geometry":{"type":"Polygon","coordinates":[[[136.52655314176175,36.04537903972606],[136.52671933044306,36.04539590200222],[136.526909298541,36.04461338730104],[136.526755940735,36.04458807769452],[136.52655314176175,36.04537903972606]]]}},{"type":"Feature","properties":{"pid":"3513c2c7-1868-42f6-815b-74fdaa9a64d9"},"geometry":{"type":"Polygon","coordinates":[[[136.52627116451197,36.045321788940946],[136.52641698706822,36.045347154973506],[136.52661563755652,36.04456653483816],[136.52647347218732,36.04454746541216],[136.52627116451197,36.045321788940946]]]}},{"type":"Feature","properties":{"pid":"d49759b3-3586-4b19-a30b-2e2691b73ba3"},"geometry":{"type":"Polygon","coordinates":[[[136.52599061071234,36.04531240260041],[136.52604184272707,36.045296036703796],[136.52612839918896,36.045296362270186],[136.5263212083726,36.04451798154086],[136.52618458888384,36.04450198918551],[136.52599061071234,36.04531240260041]]]}},{"type":"Feature","properties":{"pid":"97707c41-7359-4bbe-bfbd-daba54351bfc"},"geometry":{"type":"Polygon","coordinates":[[[136.52569894045214,36.04536028150988],[136.52583429431758,36.04535629683803],[136.52604541209539,36.04448138186204],[136.52598775010688,36.04447999661979],[136.52594744742166,36.04450245410888],[136.52592616642238,36.04454104645736],[136.52584769620879,36.04476126611452],[136.52579390354938,36.0450744896248],[136.52569894045214,36.04536028150988]]]}},{"type":"Feature","properties":{"pid":"2c8521d1-3053-454b-8a80-d48315b2295e"},"geometry":{"type":"Polygon","coordinates":[[[136.52539248723983,36.04533606401325],[136.52550208240038,36.045353047733876],[136.52561977446993,36.04499264394837],[136.5256601920784,36.04477721863954],[136.52548948071103,36.044768353681526],[136.52543356830589,36.044792559088975],[136.52539248723983,36.04533606401325]]]}},{"type":"Feature","properties":{"pid":"6edb2e88-96d0-47ca-899f-f0e88908b7a1"},"geometry":{"type":"Polygon","coordinates":[[[136.5249530804824,36.04525558381628],[136.52503740708556,36.045272485420696],[136.5250687688544,36.04474580641647],[136.52503111655915,36.04472658844852],[136.5249996371339,36.04472561491527],[136.5249530804824,36.04525558381628]]]}},{"type":"Feature","properties":{"pid":"7620d9a4-925f-497b-9dc3-f4c459ec8ab3"},"geometry":{"type":"Polygon","coordinates":[[[136.52517003310584,36.04529857673538],[136.52524587953533,36.04531468748884],[136.5252860805493,36.04475462303952],[136.52527169903965,36.044743241322315],[136.52521185379544,36.04474244723801],[136.52517003310584,36.04529857673538]]]}},{"type":"Feature","properties":{"pid":"4f4e2ac6-dd36-4cae-bee8-6ac3b4a6fc64"},"geometry":{"type":"Polygon","coordinates":[[[136.52519470859494,36.041138437674],[136.5252907828259,36.041128610045476],[136.52527987028392,36.04072692808754],[136.52519021522752,36.04072919780228],[136.52519470859494,36.041138437674]]]}},{"type":"Feature","properties":{"pid":"bb15fda7-46d3-415a-852e-013eba5394ad"},"geometry":{"type":"Polygon","coordinates":[[[136.52496474370383,36.0411754731041],[136.5250481139307,36.04117180397118],[136.5250439929837,36.04073425473714],[136.52496908173293,36.040733389388706],[136.52496474370383,36.0411754731041]]]}},{"type":"Feature","properties":{"pid":"13c64851-1421-4053-b8be-8efbeb5cb043"},"geometry":{"type":"Polygon","coordinates":[[[136.52541903094843,36.041075707487025],[136.52554184332942,36.04104724144641],[136.52552086668797,36.040729493851316],[136.52540971886242,36.04072386553386],[136.52541903094843,36.041075707487025]]]}},{"type":"Feature","properties":{"pid":"3ad13933-7cec-463f-8089-cd0a61518529"},"geometry":{"type":"Polygon","coordinates":[[[136.5256870190642,36.04072876447955],[136.52570211434016,36.04100430299175],[136.52581547711168,36.04100441170567],[136.52580811650907,36.04072947049693],[136.5256870190642,36.04072876447955]]]}},{"type":"Feature","properties":{"pid":"86786003-2a25-4c60-b510-daaa68745ec7"},"geometry":{"type":"Polygon","coordinates":[[[136.52630298269537,36.04073917444254],[136.52630236317066,36.040844041309285],[136.52676437904105,36.04077140626085],[136.52675809795528,36.040727651449465],[136.52630298269537,36.04073917444254]]]}},{"type":"Feature","properties":{"pid":"6ce6fa65-c1a9-4673-8bac-5f35743692c9"},"geometry":{"type":"Polygon","coordinates":[[[136.5259912336635,36.04094594472202],[136.5261174776241,36.04090289484971],[136.5261120868973,36.040717265983886],[136.5259875834451,36.04072160419624],[136.5259912336635,36.04094594472202]]]}},{"type":"Feature","properties":{"pid":"bd9ec162-42e5-41ee-8a77-bd0a114f41a3"},"geometry":{"type":"Polygon","coordinates":[[[136.52696341075185,36.04071296848079],[136.52697522070505,36.040830689701274],[136.52702526641326,36.040849004606436],[136.527550154509,36.04080752152002],[136.52753580151756,36.04072116516963],[136.52696341075185,36.04071296848079]]]}}]}