{"type":"FeatureCollection","features":[{"type":"Feature","properties":{"pid":"5bd1a4b5-5430-4b29-b1fd-5eb819a2e1ca"},"geometry":{"type":"Polygon","coordinates":[[[136.2534672796704,35.949023470167866],[136.25346991593182,35.949062791679104],[136.25415938100483,35.949036330976845],[136.25415472144994,35.948992254071925],[136.2534672796704,35.949023470167866]]]}},{"type":"Feature","properties":{"pid":"a399b78a-79e8-457d-a45b-6413a1621f9a"},"geometry":{"type":"Polygon","coordinates":[[[136.2708950529789,35.94966540561425],[136.27088541115558,35.94980132945007],[136.27101480999113,35.94980173619159],[136.27103203067142,35.949664982809054],[136.2708950529789,35.94966540561425]]]}},{"type":"Feature","properties":{"pid":"ee79c9a2-c36f-49e6-a192-100dbcb53576"},"geometry":{"type":"Polygon","coordinates":[[[136.27133715434678,35.95672330074636],[136.27132297547206,35.956988012298545],[136.2720716522017,35.9570075394881],[136.27208032291244,35.95648917999626],[136.27133715434678,35.95672330074636]]]}},{"type":"Feature","properties":{"pid":"547351a9-5004-4f9f-bbc9-dc6136a5dba3"},"geometry":{"type":"Polygon","coordinates":[[[136.2705370204752,35.95714700164063],[136.2706225799246,35.957139458149484],[136.27062918849276,35.957098126933616],[136.27058116836167,35.95707495721637],[136.27057065856133,35.9570209700686],[136.27061400600394,35.95696378107185],[136.27067805851692,35.956932860284155],[136.2706714788681,35.95682195464784],[136.27053540951175,35.956802907464414],[136.2705370204752,35.95714700164063]]]}},{"type":"Feature","properties":{"pid":"3ff37c56-4d6f-4537-92ac-d828b8b2ceb8"},"geometry":{"type":"Polygon","coordinates":[[[136.2697498423905,35.95706022313952],[136.26975340881117,35.95689077814092],[136.26939644500519,35.956954435281354],[136.26939674601184,35.9570431703056],[136.2697498423905,35.95706022313952]]]}},{"type":"Feature","properties":{"pid":"9a3dea7a-07a4-4cb2-ba7e-3a2a9a605af0"},"geometry":{"type":"Polygon","coordinates":[[[136.27436694515654,35.95659101480059],[136.27432277760843,35.95726547894799],[136.2751040126328,35.957307439735494],[136.27510723264098,35.957104274398475],[136.2751525348639,35.95663075153387],[136.27436694515654,35.95659101480059]]]}},{"type":"Feature","properties":{"pid":"0a5a93b6-9726-409a-af3b-bbb3cdf38417"},"geometry":{"type":"Polygon","coordinates":[[[136.27441272631378,35.95628359768173],[136.27437400059185,35.95630248641303],[136.2743627515716,35.956431467950544],[136.27517241562103,35.95647968651994],[136.2751751698589,35.95631881688296],[136.27441272631378,35.95628359768173]]]}},{"type":"Feature","properties":{"pid":"c417f94c-69fd-408b-a537-0d18d832cd9f"},"geometry":{"type":"Polygon","coordinates":[[[136.27321387199234,35.956251808199234],[136.27321405613824,35.956501650891504],[136.27405651707036,35.9565199350068],[136.27406846553617,35.95625671175678],[136.27323532684198,35.95623183032158],[136.27321387199234,35.956251808199234]]]}},{"type":"Feature","properties":{"pid":"dee0bb7b-0285-4a14-9f70-021295eb8ae5"},"geometry":{"type":"Polygon","coordinates":[[[136.27323397521374,35.956614778982456],[136.27321378725105,35.95662989553511],[136.2731973973603,35.95702534000696],[136.27321251794163,35.957034611998075],[136.27400511337302,35.95705399885915],[136.27404453291297,35.95663110365064],[136.27323397521374,35.956614778982456]]]}},{"type":"Feature","properties":{"pid":"32e7a35a-65ef-4a60-86de-4f14d18bc097"},"geometry":{"type":"Polygon","coordinates":[[[136.27225842367204,35.95700562049273],[136.27300321670242,35.95702797989229],[136.27301376308128,35.956625313653404],[136.27298981660516,35.95660431230375],[136.2722704182866,35.956583424232576],[136.27225842367204,35.95700562049273]]]}},{"type":"Feature","properties":{"pid":"71d6468d-dee2-4984-828f-4d9b77f6185f"},"geometry":{"type":"Polygon","coordinates":[[[136.27302459051407,35.95649269526836],[136.2730314953531,35.955869499187486],[136.27250174050153,35.95620048864511],[136.27226999949767,35.95641230269004],[136.27226957420842,35.95647087527866],[136.27302459051407,35.95649269526836]]]}},{"type":"Feature","properties":{"pid":"71538326-2325-467b-9073-83a14635aef5"},"geometry":{"type":"Polygon","coordinates":[[[136.2732193899811,35.95610237944143],[136.27324273677465,35.956120910055255],[136.2740734414297,35.956144286765536],[136.2740775513148,35.95585129508916],[136.27405782158928,35.955790226507915],[136.2740178556576,35.955736889544696],[136.27397486493223,35.95571024747582],[136.2737282624915,35.95564648465179],[136.27371477563563,35.95573609128193],[136.27367615028177,35.95576583890993],[136.2734582143852,35.95577612902865],[136.2732773346473,35.95572704696969],[136.2732287198689,35.95576592381647],[136.2732193899811,35.95610237944143]]]}},{"type":"Feature","properties":{"pid":"6657e1c1-f8fb-4e37-817d-180c2b7605eb"},"geometry":{"type":"Polygon","coordinates":[[[136.2741704690316,35.95514578387033],[136.27363368877678,35.95512408566133],[136.2736175437057,35.95534301251564],[136.27364099179812,35.95536258662564],[136.2741572075684,35.955492534644115],[136.27417656265075,35.95539453273486],[136.27418788341768,35.955160115541425],[136.2741704690316,35.95514578387033]]]}},{"type":"Feature","properties":{"pid":"777cbdc1-5278-4675-b63c-778abadef9a3"},"geometry":{"type":"Polygon","coordinates":[[[136.273625956718,35.955020885277754],[136.27417780687864,35.95504497129936],[136.27419693901052,35.95503098479612],[136.2741993921177,35.954961917362475],[136.27371874774656,35.954953420076045],[136.27359164077757,35.95492728760957],[136.273625956718,35.955020885277754]]]}},{"type":"Feature","properties":{"pid":"2da38bfc-35f3-4b31-830a-aee0036867e8"},"geometry":{"type":"Polygon","coordinates":[[[136.27450398813832,35.95385022197947],[136.27470394794466,35.95386231616227],[136.27472822860753,35.953653546737726],[136.27452599486443,35.953647068998194],[136.27450398813832,35.95385022197947]]]}},{"type":"Feature","properties":{"pid":"b4a2446d-e9e9-4c42-b2c8-11c4bb702fd1"},"geometry":{"type":"Polygon","coordinates":[[[136.27437401148046,35.955615953177215],[136.27438972923537,35.95562910898049],[136.2752243550459,35.95566080279693],[136.27525717364662,35.95521742569373],[136.2743854414106,35.95518024670686],[136.27437401148046,35.955615953177215]]]}},{"type":"Feature","properties":{"pid":"180d7ab0-e91c-494e-bca4-bd9b1d7c7efa"},"geometry":{"type":"Polygon","coordinates":[[[136.27437056586015,35.95577409285258],[136.2743891647211,35.956152562436856],[136.2744204787433,35.956173924370866],[136.27518294838802,35.956210145150884],[136.27521664585586,35.95576721827064],[136.27440118000092,35.95573536833155],[136.27437056586015,35.95577409285258]]]}},{"type":"Feature","properties":{"pid":"707813e7-d699-46af-890d-71a07fdde68e"},"geometry":{"type":"Polygon","coordinates":[[[136.2739223841251,35.947354459178015],[136.27389942804288,35.947572506322814],[136.27407039503794,35.94758122639736],[136.27409011623752,35.94736549163941],[136.2739223841251,35.947354459178015]]]}},{"type":"Feature","properties":{"pid":"2609a28b-51e8-4c44-8d7e-df4edd860869"},"geometry":{"type":"Polygon","coordinates":[[[136.27256924487813,35.94650653600267],[136.27255153679374,35.946671689572284],[136.27315451587037,35.94718559675581],[136.27367438638925,35.94721375041574],[136.27370530573143,35.946945526529454],[136.27348263145618,35.94693645599518],[136.27343669205018,35.9469013172066],[136.2734719169674,35.94656788638471],[136.27256924487813,35.94650653600267]]]}},{"type":"Feature","properties":{"pid":"75b06090-9d1e-4f32-a519-1e1f7faceea7"},"geometry":{"type":"Polygon","coordinates":[[[136.27262489595603,35.946324187409985],[136.2733568160693,35.946381893102654],[136.2734119000704,35.94576614401883],[136.272681858579,35.94573386111194],[136.27262489595603,35.946324187409985]]]}},{"type":"Feature","properties":{"pid":"d47a48af-3625-456e-b275-76a33a9e3faa"},"geometry":{"type":"Polygon","coordinates":[[[136.2735290449375,35.94577413058485],[136.2734737009596,35.94638689072649],[136.27375540048774,35.94640741069647],[136.27382298467413,35.94579269529608],[136.2735290449375,35.94577413058485]]]}},{"type":"Feature","properties":{"pid":"50509719-a15f-4074-943d-922a547e5020"},"geometry":{"type":"Polygon","coordinates":[[[136.27436597326695,35.94646053492865],[136.27466876900593,35.946481982536184],[136.27472573170363,35.94586222677389],[136.27443582210512,35.945846113833774],[136.27436597326695,35.94646053492865]]]}},{"type":"Feature","properties":{"pid":"30633676-3160-4df5-b248-53513a6cbba3"},"geometry":{"type":"Polygon","coordinates":[[[136.27386519840883,35.94659140677682],[136.27380503590976,35.947221959857636],[136.27410784697682,35.94723595897994],[136.27417684216326,35.94660706941614],[136.27386519840883,35.94659140677682]]]}},{"type":"Feature","properties":{"pid":"cd2648af-bebb-4798-801f-5f7238a96e3e"},"geometry":{"type":"Polygon","coordinates":[[[136.2742949015313,35.94725184597983],[136.27458311798128,35.947269084639174],[136.2746507798425,35.946642252755645],[136.27435721370904,35.946621961198275],[136.2742949015313,35.94725184597983]]]}},{"type":"Feature","properties":{"pid":"d27b9756-7b36-49d1-a78b-af5a6d7f475b"},"geometry":{"type":"Polygon","coordinates":[[[136.2747227078564,35.94727270742646],[136.27502070413206,35.94728602959922],[136.2750864049716,35.94668096601658],[136.27479586524277,35.9466599637244],[136.2747227078564,35.94727270742646]]]}},{"type":"Feature","properties":{"pid":"ed8ac3b9-6206-4366-83b8-8739081148e0"},"geometry":{"type":"Polygon","coordinates":[[[136.2748051839066,35.9464909666849],[136.27509525066682,35.94651236095306],[136.27515674922944,35.945895764398784],[136.27489695650118,35.94587731856189],[136.27486190562135,35.945896814495875],[136.2748051839066,35.9464909666849]]]}},{"type":"Feature","properties":{"pid":"282c9389-8646-4b78-86f3-995d1a930868"},"geometry":{"type":"Polygon","coordinates":[[[136.27384726780872,35.945593231322064],[136.2742675415722,35.9456213673122],[136.27431425202005,35.94517955945999],[136.27389293677894,35.94515474928497],[136.27384726780872,35.945593231322064]]]}},{"type":"Feature","properties":{"pid":"7f98ee1d-8606-46fb-a83c-6d7d347e006c"},"geometry":{"type":"Polygon","coordinates":[[[136.2732715944715,35.945549573245295],[136.273700430666,35.94557945487794],[136.27374376200555,35.945144795156295],[136.27334296922626,35.94511998465374],[136.27331642373468,35.94514048140123],[136.2732715944715,35.945549573245295]]]}},{"type":"Feature","properties":{"pid":"a811d9bb-6b68-4b1f-b6d9-4d94451013fb"},"geometry":{"type":"Polygon","coordinates":[[[136.2727235076962,35.94525568054896],[136.27287016036075,35.94526356266398],[136.27290662694836,35.945288637503495],[136.2728923988847,35.94552633368127],[136.27313066890167,35.94553830800099],[136.2731702203925,35.94512421991638],[136.27308645980958,35.94513969435963],[136.27303730486608,35.94511199947165],[136.27273994244948,35.945109555591],[136.2727235076962,35.94525568054896]]]}},{"type":"Feature","properties":{"pid":"f5ce0ca4-9661-43f9-9a2f-6f7382ccfd49"},"geometry":{"type":"Polygon","coordinates":[[[136.27211558739927,35.945473799515284],[136.27254459805425,35.9455036973305],[136.272593914197,35.94510694661437],[136.27216846147527,35.94506680325903],[136.27211558739927,35.945473799515284]]]}},{"type":"Feature","properties":{"pid":"0dadd7a9-1021-473e-be03-cfdf65b1745d"},"geometry":{"type":"Polygon","coordinates":[[[136.268218558561,35.94403903699255],[136.26978617191867,35.944355767715834],[136.26979423204264,35.94431793446297],[136.26937285096426,35.94415146394338],[136.26909064940963,35.94411937000207],[136.26889565184808,35.944065360390226],[136.2682918294868,35.94379151074834],[136.268218558561,35.94403903699255]]]}},{"type":"Feature","properties":{"pid":"85908b9d-a646-40dc-bd3d-5df3dafe1f2a"},"geometry":{"type":"Polygon","coordinates":[[[136.26726649973295,35.94384866125625],[136.26802384954573,35.94399823049253],[136.26810790552548,35.943734396818215],[136.26733923471085,35.943603010937416],[136.26726649973295,35.94384866125625]]]}},{"type":"Feature","properties":{"pid":"d29a4f5b-028c-4cc6-988d-0484631f54bc"},"geometry":{"type":"Polygon","coordinates":[[[136.26657269689375,35.94447891903871],[136.2677980633468,35.94471377671842],[136.2679790797185,35.94415844609365],[136.26673360563328,35.94392579394558],[136.26657269689375,35.94447891903871]]]}},{"type":"Feature","properties":{"pid":"71bcefe9-5fa8-432f-a8ad-f4515e3bca30"},"geometry":{"type":"Polygon","coordinates":[[[136.26774328555283,35.94488184603731],[136.26652674186187,35.944649960250786],[136.26634621040418,35.94523896470825],[136.2675563306626,35.945471994318],[136.26774328555283,35.94488184603731]]]}},{"type":"Feature","properties":{"pid":"9eeab9af-1446-44b7-b973-9f9bd178f2bb"},"geometry":{"type":"Polygon","coordinates":[[[136.26795081014103,35.94493010344082],[136.2677819190017,35.945510710316356],[136.26861254521583,35.94567586457586],[136.26902349322654,35.94567529694381],[136.2691657572898,35.94517576669364],[136.26795081014103,35.94493010344082]]]}},{"type":"Feature","properties":{"pid":"f57ab5f4-b7a5-49fb-84a4-438a503ab045"},"geometry":{"type":"Polygon","coordinates":[[[136.26800596121566,35.94476797323173],[136.2696765518543,35.945094712503966],[136.26984898062216,35.94453061383231],[136.26817071117114,35.944204792610506],[136.26800596121566,35.94476797323173]]]}},{"type":"Feature","properties":{"pid":"6d8255a9-a05a-4347-84b5-3c137bd6351d"},"geometry":{"type":"Polygon","coordinates":[[[136.27026068707502,35.945203503999025],[136.2705744866796,35.94526762511502],[136.270786620554,35.94471016197235],[136.27047394806226,35.944650730161186],[136.27026068707502,35.945203503999025]]]}},{"type":"Feature","properties":{"pid":"51216208-62fd-4040-9327-f3e3f9cb0b42"},"geometry":{"type":"Polygon","coordinates":[[[136.27069407704212,35.94527677903399],[136.2707028381167,35.94529526390811],[136.27113946909526,35.94540394505855],[136.27118343471741,35.94484094223098],[136.27089646431742,35.94474553077896],[136.27069407704212,35.94527677903399]]]}},{"type":"Feature","properties":{"pid":"96620108-d5df-45ba-a920-b9854f44fab7"},"geometry":{"type":"Polygon","coordinates":[[[136.27143296453048,35.945422216317155],[136.27175589913438,35.94544455633679],[136.27178861591173,35.945184477212216],[136.2718594697259,35.94515255118024],[136.2720279879512,35.94515654125816],[136.27204778617994,35.94505025992457],[136.27168132455319,35.94497802088436],[136.27148923296713,35.94487898618448],[136.27143296453048,35.945422216317155]]]}},{"type":"Feature","properties":{"pid":"b13ff22e-d2b7-423a-a6cf-1682780a8962"},"geometry":{"type":"Polygon","coordinates":[[[136.27169181859344,35.94590644474128],[136.27164515816804,35.94588025498501],[136.27163791991666,35.945816992540415],[136.27135542793488,35.945797728370906],[136.2713249649204,35.946155783649054],[136.27167772219795,35.946188197303435],[136.27172607581625,35.94622541425687],[136.27172629136746,35.94634278754387],[136.27173944663716,35.94635577158051],[136.27188953615385,35.94637358220387],[136.27193877846798,35.94591998260934],[136.27169181859344,35.94590644474128]]]}},{"type":"Feature","properties":{"pid":"46be46e1-0d0a-457f-a0b6-bb94b761777c"},"geometry":{"type":"Polygon","coordinates":[[[136.27080809582478,35.946280391018284],[136.27095100879203,35.94631902346408],[136.27104164141994,35.9463252370889],[136.27111242287066,35.94557427177887],[136.27106798633758,35.9455647675363],[136.27080809582478,35.946280391018284]]]}},{"type":"Feature","properties":{"pid":"968e193e-fbf3-4767-8624-05d2638d38d7"},"geometry":{"type":"Polygon","coordinates":[[[136.27062238051104,35.94547476784626],[136.27039304296832,35.94614022821617],[136.27068666263418,35.94624543952522],[136.27094893287472,35.9455300468429],[136.27064778410048,35.945461521355675],[136.27062238051104,35.94547476784626]]]}},{"type":"Feature","properties":{"pid":"7f98d943-088d-46af-aa46-76fd53aefa89"},"geometry":{"type":"Polygon","coordinates":[[[136.2693176181444,35.94520670465829],[136.2691754794878,35.94569228663101],[136.26944263489793,35.94574623424109],[136.27025759626167,35.94607977990498],[136.27049519202694,35.94544256159234],[136.2693176181444,35.94520670465829]]]}},{"type":"Feature","properties":{"pid":"097f28bf-57e1-462b-a732-f25d77775a68"},"geometry":{"type":"Polygon","coordinates":[[[136.27027968601405,35.94647472161552],[136.270120328614,35.94647655569236],[136.27011315020002,35.946737345354975],[136.27096387658784,35.94682399673924],[136.27097556326243,35.94668005873374],[136.27071322924044,35.94663303809086],[136.27027968601405,35.94647472161552]]]}},{"type":"Feature","properties":{"pid":"a7aa097f-fe49-4f0f-ac1d-ddf2ebcc12a4"},"geometry":{"type":"Polygon","coordinates":[[[136.27122295276217,35.94704077313796],[136.2713853014098,35.947050097384164],[136.27141804022858,35.94706511413832],[136.27143147040516,35.947093661070355],[136.2714203232654,35.94721038857412],[136.27160433441793,35.947213524908896],[136.2716405317137,35.94697895154197],[136.2712319706316,35.94696882937701],[136.27122295276217,35.94704077313796]]]}},{"type":"Feature","properties":{"pid":"d65490b4-ff03-48fb-ba98-61ad7c29d85c"},"geometry":{"type":"Polygon","coordinates":[[[136.26848622356442,35.94728595849007],[136.2687590753565,35.94754807123254],[136.26903031393095,35.94754578716483],[136.26919183533758,35.947049154097904],[136.26917588116544,35.94701701517789],[136.268611822127,35.94689257616099],[136.26848622356442,35.94728595849007]]]}},{"type":"Feature","properties":{"pid":"52d0af2a-1d2a-40c7-85d5-a044906db44d"},"geometry":{"type":"Polygon","coordinates":[[[136.2692573394365,35.947866671489486],[136.2696805973535,35.94785611238353],[136.26971240075886,35.947680637254635],[136.26917208912081,35.94769095165116],[136.2692573394365,35.947866671489486]]]}},{"type":"Feature","properties":{"pid":"2b45ca0d-4636-45fc-aba7-8d3c3a4c8b60"},"geometry":{"type":"Polygon","coordinates":[[[136.26883288697064,35.94771120907292],[136.26889923369868,35.94788416376532],[136.26892129066064,35.94800943842684],[136.26894065233276,35.94836332774797],[136.26908619357908,35.94837470954628],[136.26912010904883,35.94812581296382],[136.26914842586064,35.94809523760659],[136.26963580181578,35.94809015548653],[136.2696619197618,35.94795864496331],[136.26918453091602,35.94796982592967],[136.26915361297125,35.94794733447861],[136.26904401600925,35.94771225545272],[136.26883288697064,35.94771120907292]]]}},{"type":"Feature","properties":{"pid":"81926570-ee38-4373-ab68-25887acb24c8"},"geometry":{"type":"Polygon","coordinates":[[[136.26675970860444,35.94764734836011],[136.2670952949999,35.94783162030931],[136.2671221487536,35.947797213452944],[136.26715753746254,35.947786759229146],[136.26761711238422,35.94784362335707],[136.26772781402923,35.94739305340203],[136.26685793495648,35.94725558832877],[136.26675970860444,35.94764734836011]]]}},{"type":"Feature","properties":{"pid":"40860b06-62a1-469a-bea4-7fada1d51f16"},"geometry":{"type":"Polygon","coordinates":[[[136.26694496753197,35.946556867587695],[136.26682764154233,35.9470544813707],[136.26757752234013,35.947165570233366],[136.2676342417451,35.947210128933236],[136.26774705759968,35.94723008381488],[136.26776068182377,35.94716943143418],[136.2669884770161,35.94656199467603],[136.26694496753197,35.946556867587695]]]}},{"type":"Feature","properties":{"pid":"b1823edb-c0b6-4808-a6cd-40cc37876392"},"geometry":{"type":"Polygon","coordinates":[[[136.26838618619337,35.94719633832655],[136.26848749058607,35.94687744231915],[136.26847040493337,35.94685960709758],[136.26814067216128,35.9467824072692],[136.26809618542222,35.94692867056595],[136.26838618619337,35.94719633832655]]]}},{"type":"Feature","properties":{"pid":"8f6e3cdd-20b0-4707-a2e7-941df998dc2a"},"geometry":{"type":"Polygon","coordinates":[[[136.26909551130842,35.946733200830586],[136.26911576789158,35.94675675906057],[136.2694576219041,35.94683292377734],[136.2696622006813,35.94625955035451],[136.26930179201673,35.946105060484975],[136.26909551130842,35.946733200830586]]]}},{"type":"Feature","properties":{"pid":"a019d0d4-7022-4022-8822-9ac461b56f90"},"geometry":{"type":"Polygon","coordinates":[[[136.2683905295745,35.94660557473565],[136.2686570650328,35.94666220801751],[136.2688513950627,35.946035318582815],[136.26857658505267,35.94601450209613],[136.2683905295745,35.94660557473565]]]}},{"type":"Feature","properties":{"pid":"03d58b0e-d693-4b97-a84a-d870609f518d"},"geometry":{"type":"Polygon","coordinates":[[[136.2679674192711,35.94650908610614],[136.26827372041478,35.946580191749405],[136.26845626446485,35.945992508518785],[136.2681460386907,35.94593562303174],[136.2679674192711,35.94650908610614]]]}},{"type":"Feature","properties":{"pid":"3992ad17-f729-4631-ba2c-f10126c558e5"},"geometry":{"type":"Polygon","coordinates":[[[136.26756184900964,35.94617776909159],[136.2674919481659,35.94640332209161],[136.2677571100175,35.94645505996731],[136.26792531486237,35.94590173743705],[136.2678868404335,35.945895514949854],[136.2677852495556,35.94619735115675],[136.26774101671572,35.946209117357114],[136.26756184900964,35.94617776909159]]]}},{"type":"Feature","properties":{"pid":"0e3aab2f-c504-42b6-a887-2f6271cd876e"},"geometry":{"type":"Polygon","coordinates":[[[136.2663144233897,35.94561723228871],[136.26653094384017,35.945775300211785],[136.2665924861227,35.945792999598375],[136.26700160581828,35.946121571160944],[136.26712102813238,35.94574654796623],[136.2663144233897,35.94561723228871]]]}},{"type":"Feature","properties":{"pid":"811068f5-b7f6-44f6-9242-a2a4b5d5e33b"},"geometry":{"type":"Polygon","coordinates":[[[136.26506061221713,35.94596042545745],[136.26510394152697,35.94623368479717],[136.26534841302026,35.94623578955919],[136.26538040401135,35.94625764053616],[136.2653868773266,35.94629714861011],[136.26567147312093,35.9462561880524],[136.26663117326797,35.94628317634726],[136.2660493211701,35.94584342598866],[136.26598417788608,35.94587721068229],[136.26506061221713,35.94596042545745]]]}},{"type":"Feature","properties":{"pid":"ed987b50-0541-41ee-bf8a-1d84137a6eec"},"geometry":{"type":"Polygon","coordinates":[[[136.2649880745986,35.94530531314119],[136.265037064125,35.94579260245225],[136.2655017402799,35.945756062182625],[136.26548636687096,35.9454927520347],[136.26542813799978,35.945470868460596],[136.26538334196394,35.94552116228879],[136.26533054399965,35.94552557715505],[136.26523205410845,35.94547403725321],[136.26522635865155,35.9454444611534],[136.26524790924057,35.94540611426418],[136.2649880745986,35.94530531314119]]]}},{"type":"Feature","properties":{"pid":"1c8813bf-14cc-4b18-9bcd-4c85d24c1d38"},"geometry":{"type":"Polygon","coordinates":[[[136.26448877242353,35.94534732637227],[136.2642983586313,35.94538532572899],[136.264369326264,35.94588486479027],[136.26456569335983,35.94586829318277],[136.26448877242353,35.94534732637227]]]}},{"type":"Feature","properties":{"pid":"4d665928-5bb9-49e3-9c5a-1ef07ca50bc8"},"geometry":{"type":"Polygon","coordinates":[[[136.26468001894673,35.94585929783174],[136.2648406370128,35.94584486271315],[136.26474889381404,35.94529667861887],[136.26460166234864,35.94532490819902],[136.26468001894673,35.94585929783174]]]}},{"type":"Feature","properties":{"pid":"da0f9f9c-9408-4b4b-86ad-65407c643fa6"},"geometry":{"type":"Polygon","coordinates":[[[136.26406629723672,35.946232271178],[136.26409179773503,35.94651758128552],[136.26442870228064,35.94643366833823],[136.26490775093234,35.946362038135256],[136.26485458568223,35.94598235165576],[136.26409731315357,35.9460476001755],[136.2641141751672,35.946191959302425],[136.26409783121272,35.94621971318047],[136.26406629723672,35.946232271178]]]}},{"type":"Feature","properties":{"pid":"c656b487-476a-4db1-9950-6f81201b3c44"},"geometry":{"type":"Polygon","coordinates":[[[136.2660713461076,35.94693720428763],[136.26618524644422,35.94648156031823],[136.2659945288045,35.94647277188452],[136.2654294031196,35.94652345538681],[136.26538099405798,35.94683649231594],[136.2660713461076,35.94693720428763]]]}},{"type":"Feature","properties":{"pid":"dd2054e3-190d-4d55-87ce-ae98405d0afa"},"geometry":{"type":"Polygon","coordinates":[[[136.26632345100901,35.946494915279125],[136.26621795106138,35.94695883198171],[136.2666882024111,35.94703087753128],[136.26680412003535,35.94653788964154],[136.26632345100901,35.946494915279125]]]}},{"type":"Feature","properties":{"pid":"2aa2eead-6b27-4eb1-a90f-d300a2aae7b2"},"geometry":{"type":"Polygon","coordinates":[[[136.2661129850549,35.94737663974778],[136.2663376655991,35.94739103362716],[136.26644836048283,35.94744533742024],[136.2666059661901,35.94755742114065],[136.26668504204966,35.94722673081876],[136.2661680276397,35.947138693839676],[136.2661129850549,35.94737663974778]]]}},{"type":"Feature","properties":{"pid":"f9443777-e131-4156-8ab4-acd91c721cd6"},"geometry":{"type":"Polygon","coordinates":[[[136.26596995448108,35.94738263715894],[136.2660234018405,35.94711575790233],[136.26541015289345,35.94702185523131],[136.26536475316635,35.94738787998662],[136.26596995448108,35.94738263715894]]]}},{"type":"Feature","properties":{"pid":"c840bde2-03da-41e9-8848-3c727f020057"},"geometry":{"type":"Polygon","coordinates":[[[136.26316667215093,35.947071110686856],[136.26322768067666,35.947498086523495],[136.26349921287803,35.94752556115751],[136.2636884221421,35.946895752968985],[136.26316667215093,35.947071110686856]]]}},{"type":"Feature","properties":{"pid":"13af609d-95b0-4786-a6cb-f296bd02e8c4"},"geometry":{"type":"Polygon","coordinates":[[[136.2619924086507,35.94822535236474],[136.26211392510655,35.9482236615366],[136.2621112455098,35.947933043066634],[136.26202674051024,35.94794430542209],[136.2619924086507,35.94822535236474]]]}},{"type":"Feature","properties":{"pid":"2f713de6-a5e5-4f0f-ab18-07c6b29026c8"},"geometry":{"type":"Polygon","coordinates":[[[136.26223145023874,35.94822646069952],[136.2622902214696,35.94822580008417],[136.26225869931616,35.94791717788867],[136.26222682546012,35.947919798101786],[136.26223145023874,35.94822646069952]]]}},{"type":"Feature","properties":{"pid":"a4bb2193-74de-4592-a27e-d1df79c3dc04"},"geometry":{"type":"Polygon","coordinates":[[[136.26306451580086,35.94773009698179],[136.26271357808966,35.94773336998697],[136.26272363727378,35.9477868572434],[136.2628196272845,35.94798597405505],[136.2630291888257,35.94784475503759],[136.26304042084763,35.94776822273749],[136.26306451580086,35.94773009698179]]]}},{"type":"Feature","properties":{"pid":"5ae609a2-bdc7-42e7-adaf-3a256c89195e"},"geometry":{"type":"Polygon","coordinates":[[[136.26265339892518,35.94721420941564],[136.26263984188594,35.94723632657069],[136.26266018112574,35.94739667062669],[136.26309214362527,35.94740017123997],[136.26305313985785,35.94711109512949],[136.26265339892518,35.94721420941564]]]}},{"type":"Feature","properties":{"pid":"30e609e9-b31d-4d7d-ba56-abe4849d55d8"},"geometry":{"type":"Polygon","coordinates":[[[136.26204298205343,35.947762862026536],[136.26241909834297,35.94772096821097],[136.2624060463505,35.94762103244855],[136.26243292397325,35.947579325954734],[136.26246756778417,35.94756419220183],[136.26242019947827,35.947246109574316],[136.2619759959683,35.947282984310824],[136.26204298205343,35.947762862026536]]]}},{"type":"Feature","properties":{"pid":"bf61f37f-5bb1-4cfa-863a-05510e2e0792"},"geometry":{"type":"Polygon","coordinates":[[[136.26166394283803,35.946446121213285],[136.2617554551628,35.94706174179645],[136.2621634334891,35.947022823116775],[136.26207693207624,35.94640615046162],[136.26166394283803,35.946446121213285]]]}},{"type":"Feature","properties":{"pid":"01dc1af8-9a45-457d-8a1e-70dc62e4a408"},"geometry":{"type":"Polygon","coordinates":[[[136.26229876900047,35.94700949798044],[136.26245024250247,35.946994706420654],[136.26237361739012,35.94637882873422],[136.2622102251266,35.94639294477303],[136.26229876900047,35.94700949798044]]]}},{"type":"Feature","properties":{"pid":"f22de80e-c9a6-46c7-a26b-517e76a6a66e"},"geometry":{"type":"Polygon","coordinates":[[[136.2625865783166,35.94697752668668],[136.26282756218475,35.946927623872504],[136.26277542515555,35.94634683916985],[136.2624898634359,35.946369633068564],[136.2625668651264,35.94696457241026],[136.2625865783166,35.94697752668668]]]}},{"type":"Feature","properties":{"pid":"c062d717-7665-404e-b52f-d72776aa7cc1"},"geometry":{"type":"Polygon","coordinates":[[[136.26366088227437,35.94665183110777],[136.26393838669134,35.946555424506364],[136.26390445800732,35.946250134612725],[136.26361078039284,35.94627361748309],[136.26366088227437,35.94665183110777]]]}},{"type":"Feature","properties":{"pid":"ba8c88a5-df6a-471d-9e76-4070e1252eb8"},"geometry":{"type":"Polygon","coordinates":[[[136.26324581781813,35.946797248804344],[136.26355128461992,35.946689821105316],[136.26349505541543,35.94628248214581],[136.2631774362582,35.94631226945344],[136.26324581781813,35.946797248804344]]]}},{"type":"Feature","properties":{"pid":"2161c886-b1f1-4dcb-87e4-f0d1364bd713"},"geometry":{"type":"Polygon","coordinates":[[[136.2642556532767,35.945894402725884],[136.26418684223302,35.94540961525105],[136.2639754517719,35.94546098445122],[136.26403423314818,35.94591413744058],[136.2642556532767,35.945894402725884]]]}},{"type":"Feature","properties":{"pid":"5ac6753f-33a5-435e-812c-4966b99509b2"},"geometry":{"type":"Polygon","coordinates":[[[136.26333773628755,35.94614359101087],[136.2639012325919,35.946093117109505],[136.26382894377343,35.945479914181206],[136.26325249027158,35.945526940532936],[136.26333773628755,35.94614359101087]]]}},{"type":"Feature","properties":{"pid":"3ea7d90f-9340-4091-ab75-b9126d747931"},"geometry":{"type":"Polygon","coordinates":[[[136.26307644665073,35.9455440481255],[136.2631597807876,35.94616146522156],[136.2632229122268,35.94615506061372],[136.26313593116814,35.945539152694636],[136.26307644665073,35.9455440481255]]]}},{"type":"Feature","properties":{"pid":"23af4774-d3b5-4872-b3e3-46e5d9b5fd74"},"geometry":{"type":"Polygon","coordinates":[[[136.26211444360695,35.94563141176377],[136.26219224627752,35.94624679431486],[136.2629577344098,35.946177840442125],[136.26287779224774,35.945564334341185],[136.26211444360695,35.94563141176377]]]}},{"type":"Feature","properties":{"pid":"c7b9980d-6ff3-47ff-8904-375f2d1325ac"},"geometry":{"type":"Polygon","coordinates":[[[136.26202513347536,35.94505132726858],[136.26209184932756,35.94548229334052],[136.26285015361282,35.94541270351639],[136.26279233093376,35.94503553712188],[136.26240530338532,35.945032259262476],[136.26202513347536,35.94505132726858]]]}},{"type":"Feature","properties":{"pid":"e572debc-7511-4c03-8ba2-5b484efef502"},"geometry":{"type":"Polygon","coordinates":[[[136.26121499144728,35.94470526146505],[136.26187393749518,35.94464421265702],[136.26277761992895,35.94460670215073],[136.2626781021314,35.94415027925704],[136.26204688433293,35.94425091334317],[136.2615375914423,35.94441921818638],[136.26146525855341,35.944458659122944],[136.26121499144728,35.94470526146505]]]}},{"type":"Feature","properties":{"pid":"65617565-89ec-4a33-a8a9-fd76d077cae1"},"geometry":{"type":"Polygon","coordinates":[[[136.2634492264423,35.94387082065354],[136.26499739915118,35.94417461944972],[136.2651633805333,35.94362203338922],[136.26514556199,35.94360358091633],[136.26426732761277,35.94342628613452],[136.26421671813853,35.943428052892756],[136.2641385400986,35.94344978367662],[136.26394125059568,35.943610437448974],[136.2634492264423,35.94387082065354]]]}},{"type":"Feature","properties":{"pid":"7d7eb013-039d-4c54-9238-0f9fe02d8831"},"geometry":{"type":"Polygon","coordinates":[[[136.26288127440057,35.94411916891631],[136.26298454726052,35.94461107449857],[136.26332508699866,35.94464241402469],[136.26474994473202,35.944918416764494],[136.26476731949396,35.9449163997647],[136.26494112896563,35.944362005110925],[136.26492106419818,35.944323638473534],[136.2631930140996,35.94399081311425],[136.26288127440057,35.94411916891631]]]}},{"type":"Feature","properties":{"pid":"68f2074e-88f2-40af-a10a-d938a59026c4"},"geometry":{"type":"Polygon","coordinates":[[[136.26379197538887,35.945117025250696],[136.26325144954683,35.94502200589161],[136.26302514417048,35.945012818183905],[136.26307020053227,35.94538980607655],[136.26380406352962,35.94532960371546],[136.26379197538887,35.945117025250696]]]}},{"type":"Feature","properties":{"pid":"ac0d9053-d8b7-4940-bef7-474feb74cb00"},"geometry":{"type":"Polygon","coordinates":[[[136.26515819873165,35.944376328079095],[136.26498162351157,35.944947576935576],[136.26502442356372,35.94497959496664],[136.26621096207398,35.945211741093644],[136.2663877611112,35.94462161620468],[136.26515819873165,35.944376328079095]]]}},{"type":"Feature","properties":{"pid":"af37ee4d-88a0-48c8-bf27-15f9ac3af248"},"geometry":{"type":"Polygon","coordinates":[[[136.26521345098791,35.94421268951623],[136.26643429308825,35.94445275307625],[136.26660202051227,35.94389406040508],[136.26537156754034,35.94365986095972],[136.26521345098791,35.94421268951623]]]}},{"type":"Feature","properties":{"pid":"1a356bad-2f2b-404a-a225-b3ec6651736e"},"geometry":{"type":"Polygon","coordinates":[[[136.26580620950426,35.943559756637484],[136.2662535039243,35.943649769479755],[136.2663398735255,35.943388362573025],[136.26623806616226,35.943382413356886],[136.26612045891437,35.94341368820914],[136.26588727190617,35.94353442372534],[136.26580620950426,35.943559756637484]]]}},{"type":"Feature","properties":{"pid":"30178bd8-af39-4177-98ab-916c7aa9127a"},"geometry":{"type":"Polygon","coordinates":[[[136.26637114416909,35.94367235681622],[136.26713067779278,35.94382253248486],[136.2672090290823,35.94357337640063],[136.26645379313698,35.94341660030216],[136.26637114416909,35.94367235681622]]]}},{"type":"Feature","properties":{"pid":"a402ffb0-4cf9-488f-88f6-50b25157a03d"},"geometry":{"type":"Polygon","coordinates":[[[136.26307308477124,35.943728269690546],[136.26339484314275,35.94359067060618],[136.26337081806113,35.94355486722073],[136.26305001726453,35.94370107003096],[136.26307308477124,35.943728269690546]]]}},{"type":"Feature","properties":{"pid":"e1e87c54-f754-4ec1-a55b-b68eaa510026"},"geometry":{"type":"Polygon","coordinates":[[[136.2600136597563,35.94566260196431],[136.26073136399188,35.94559742191982],[136.26071577283142,35.945461978272924],[136.26066688879172,35.945426584681506],[136.26063165806485,35.945168837934524],[136.26048078263958,35.945183182504095],[136.26016609439733,35.945312457076334],[136.2600136597563,35.94566260196431]]]}},{"type":"Feature","properties":{"pid":"62c1e900-b9c4-4074-b9d8-cee6c7fd94ff"},"geometry":{"type":"Polygon","coordinates":[[[136.2612913741586,35.945553079683755],[136.26161585415065,35.945521751145044],[136.26155192125955,35.94508261015747],[136.26123455390925,35.945117511590695],[136.2612913741586,35.945553079683755]]]}},{"type":"Feature","properties":{"pid":"c3d6edf1-476c-408d-8709-dccc5d1541f8"},"geometry":{"type":"Polygon","coordinates":[[[136.2617385048787,35.94550953373826],[136.26195064170966,35.94549559173038],[136.26189537142704,35.945058378123925],[136.26166809628617,35.94507226041637],[136.2617385048787,35.94550953373826]]]}},{"type":"Feature","properties":{"pid":"15e26acf-8978-42f7-89bf-65683ff5aa1d"},"geometry":{"type":"Polygon","coordinates":[[[136.26130506593086,35.945702092112896],[136.2613812804061,35.946314777765295],[136.26205184151385,35.94626016829064],[136.26197118823,35.945642073024054],[136.26130506593086,35.945702092112896]]]}},{"type":"Feature","properties":{"pid":"36a23fcd-041c-4577-82b6-4538a7ce5879"},"geometry":{"type":"Polygon","coordinates":[[[136.26067167058687,35.945769861322646],[136.26074234396773,35.94637361759964],[136.26119803585868,35.94633660877967],[136.26112272663377,35.94572811593419],[136.26067167058687,35.945769861322646]]]}},{"type":"Feature","properties":{"pid":"20bb65f6-f583-418a-84fb-6cb58f9f483e"},"geometry":{"type":"Polygon","coordinates":[[[136.25883269993645,35.946123426272926],[136.25889143349292,35.94654493182322],[136.25996161021143,35.94645416035373],[136.2598947067402,35.9458924627029],[136.25981794428793,35.945960606571376],[136.2595681331119,35.9460568462049],[136.25942401908281,35.9460863014044],[136.25901370188737,35.94610131142638],[136.25883269993645,35.946123426272926]]]}},{"type":"Feature","properties":{"pid":"c83de441-2361-4977-86de-b92746c4f064"},"geometry":{"type":"Polygon","coordinates":[[[136.26015213648802,35.94642756733746],[136.26062199463297,35.94638454429518],[136.26054515315695,35.94578383435433],[136.26007701626716,35.94582791502808],[136.26015213648802,35.94642756733746]]]}},{"type":"Feature","properties":{"pid":"a7e70aaa-7827-41c6-9c7f-747fba8d39d8"},"geometry":{"type":"Polygon","coordinates":[[[136.2597375082039,35.94724351029024],[136.25990325658177,35.94722573646174],[136.25992244894078,35.94718957505236],[136.25985987920026,35.946600434469275],[136.25966147350158,35.946618686841944],[136.2597375082039,35.94724351029024]]]}},{"type":"Feature","properties":{"pid":"f231ea3c-a66e-4636-996d-6147cbf9cfe9"},"geometry":{"type":"Polygon","coordinates":[[[136.2600650340745,35.94720938965087],[136.2600907974236,35.94720755789465],[136.26001629834002,35.94658946090163],[136.25997605140654,35.94659154692968],[136.26003906774778,35.94718408515642],[136.2600650340745,35.94720938965087]]]}},{"type":"Feature","properties":{"pid":"376a5f11-ffec-47da-a60b-e309cf787809"},"geometry":{"type":"Polygon","coordinates":[[[136.26053955019214,35.947170616242516],[136.26046717676584,35.946554438022936],[136.26017056895427,35.946577531850224],[136.26025227847086,35.94719352369302],[136.26053955019214,35.947170616242516]]]}},{"type":"Feature","properties":{"pid":"a2c4e454-8028-414f-a4a5-f9bf00e7ef8b"},"geometry":{"type":"Polygon","coordinates":[[[136.26065774398666,35.947154753027135],[136.26093728978216,35.94713665045872],[136.26096879729755,35.94710593395134],[136.26103390230048,35.947097659722964],[136.2610896586802,35.94712174400698],[136.26120996669945,35.947110608674706],[136.26112772221205,35.94649416249947],[136.26058764832044,35.946544109610095],[136.26065774398666,35.947154753027135]]]}},{"type":"Feature","properties":{"pid":"95a8d076-54e3-4cd7-ac7c-58b20316a2fe"},"geometry":{"type":"Polygon","coordinates":[[[136.26160844249375,35.946866280005885],[136.26154779131213,35.94645762723785],[136.26140567437812,35.94646780561783],[136.26146354859247,35.94688139464443],[136.26160844249375,35.946866280005885]]]}},{"type":"Feature","properties":{"pid":"84d6c56a-89fd-42b1-8572-8d2d66ae57a6"},"geometry":{"type":"Polygon","coordinates":[[[136.26149506149906,35.9478342881055],[136.2619137414631,35.94777875548188],[136.26184983417124,35.94729586752743],[136.26142900984325,35.947326653105236],[136.26149506149906,35.9478342881055]]]}},{"type":"Feature","properties":{"pid":"151559d2-5c37-416b-98e8-88a80d55e80b"},"geometry":{"type":"Polygon","coordinates":[[[136.26081199488442,35.94738188850268],[136.26087443273707,35.947846764394946],[136.26116972412302,35.94783949200925],[136.26110121362436,35.94735962864193],[136.26081199488442,35.94738188850268]]]}},{"type":"Feature","properties":{"pid":"1f7ae9cb-148d-4cdd-ac67-e7814577adf1"},"geometry":{"type":"Polygon","coordinates":[[[136.26179820203288,35.9483063139942],[136.26183633212162,35.94796900874637],[136.26179171182434,35.9479732925024],[136.2617521811491,35.94830602189957],[136.26179820203288,35.9483063139942]]]}},{"type":"Feature","properties":{"pid":"38e9f4fa-61db-4b86-b133-1a680ee5070d"},"geometry":{"type":"Polygon","coordinates":[[[136.2602656444499,35.94823682942877],[136.2603460881883,35.94823935300517],[136.26038366791917,35.948262951985924],[136.26121896919759,35.94824527554633],[136.26125420676766,35.94822186232024],[136.26132674031564,35.948023057344734],[136.26029478155473,35.9480280932658],[136.2602656444499,35.94823682942877]]]}},{"type":"Feature","properties":{"pid":"b02053a5-142e-4a3c-bee8-21646f303b50"},"geometry":{"type":"Polygon","coordinates":[[[136.2599995458133,35.948274456842945],[136.2600668727359,35.94817788960008],[136.2600873169498,35.948016613344],[136.2594130245778,35.94798069567468],[136.25940539562905,35.94819772013196],[136.25942922693025,35.94839860709086],[136.2593869165027,35.948456709889406],[136.25963703690485,35.94843073926452],[136.25963429743138,35.9483869618762],[136.25966104838247,35.94836103663237],[136.2598309166422,35.9483312441729],[136.2599995458133,35.948274456842945]]]}},{"type":"Feature","properties":{"pid":"bd61bba7-d34e-408c-9adb-7cc3dc6b9b90"},"geometry":{"type":"Polygon","coordinates":[[[136.25983672420318,35.94746920347009],[136.25978793464998,35.947473501110274],[136.2598392622931,35.94782916610772],[136.2600801143054,35.94783566119224],[136.26003753644883,35.947515321119056],[136.25987587667254,35.94752370696211],[136.25984572116332,35.9475044666121],[136.25983672420318,35.94746920347009]]]}},{"type":"Feature","properties":{"pid":"80b7a3e5-e0c6-4571-80c7-2c085e12d1a0"},"geometry":{"type":"Polygon","coordinates":[[[136.25815299093637,35.94761710070207],[136.25807107503138,35.94762481152277],[136.25814152480737,35.9481582813492],[136.25822509243875,35.9481526868599],[136.25815299093637,35.94761710070207]]]}},{"type":"Feature","properties":{"pid":"217c911c-e062-4fc1-a4c7-58330505193a"},"geometry":{"type":"Polygon","coordinates":[[[136.25827660174556,35.947605963458486],[136.25836030197868,35.94829485836628],[136.25882098785414,35.94826292982141],[136.2588497113255,35.94786339778421],[136.25884269537642,35.94779844504406],[136.25886547677075,35.947766293997844],[136.25883783148944,35.94755600127279],[136.25827660174556,35.947605963458486]]]}},{"type":"Feature","properties":{"pid":"789df996-fab1-4d99-8798-4ea6c89cf6aa"},"geometry":{"type":"Polygon","coordinates":[[[136.25708826005874,35.94861896300391],[136.2572638052686,35.94873054771381],[136.25729042665404,35.94873016224422],[136.2573238474064,35.94865259364821],[136.25735445867915,35.948629320191664],[136.25753856053896,35.948642215332214],[136.25752933132492,35.948538845707866],[136.2574391756699,35.948535841445945],[136.25719054450167,35.94843216479732],[136.25708826005874,35.94861896300391]]]}},{"type":"Feature","properties":{"pid":"b3927fe6-3b5a-4c07-b1b4-60bd8ac7c02d"},"geometry":{"type":"Polygon","coordinates":[[[136.25699124820179,35.94771984784027],[136.25678504495602,35.94774310756575],[136.2568450623804,35.94816349236587],[136.25706368185158,35.948217900746414],[136.25699124820179,35.94771984784027]]]}},{"type":"Feature","properties":{"pid":"9fffa9ac-ee8e-4c84-9c7c-7ee30734a2c0"},"geometry":{"type":"Polygon","coordinates":[[[136.25718545066874,35.94825282288115],[136.25748762950937,35.94837391553892],[136.25765660575303,35.948355975058334],[136.25756215746563,35.94767140872116],[136.25710656773276,35.947709468415205],[136.25718545066874,35.94825282288115]]]}},{"type":"Feature","properties":{"pid":"f4e9716a-5572-4103-8bde-a1bb2e10cf77"},"geometry":{"type":"Polygon","coordinates":[[[136.25724335199794,35.94747794388048],[136.2571478415549,35.946847569263],[136.25695871474116,35.94686304588191],[136.2570511741645,35.94749509348354],[136.25724335199794,35.94747794388048]]]}},{"type":"Feature","properties":{"pid":"d05a7563-c910-44d4-8801-f2311ecd46da"},"geometry":{"type":"Polygon","coordinates":[[[136.25735550759012,35.94743270455378],[136.2573850853261,35.94746765234892],[136.2574339964538,35.947462908386086],[136.25735638937257,35.9468273053561],[136.25726493545292,35.946836247417615],[136.25735550759012,35.94743270455378]]]}},{"type":"Feature","properties":{"pid":"e734d746-8fde-41aa-8733-55bf3f1c6caa"},"geometry":{"type":"Polygon","coordinates":[[[136.25686139850038,35.94610212180764],[136.2569393177633,35.94672025683347],[136.25716265741622,35.94669764809294],[136.25708186616401,35.946079116082316],[136.25686139850038,35.94610212180764]]]}},{"type":"Feature","properties":{"pid":"e6ebc0de-a95c-491e-8f25-c7fa3d8e7fe5"},"geometry":{"type":"Polygon","coordinates":[[[136.25728112378968,35.94668699872388],[136.25759870401714,35.94665765681273],[136.25752251579522,35.94606773402218],[136.25749874174167,35.94604457921249],[136.2571971601698,35.94606890827353],[136.25728112378968,35.94668699872388]]]}},{"type":"Feature","properties":{"pid":"9cfc65a3-d1a8-4e10-bd99-d1c154bcad82"},"geometry":{"type":"Polygon","coordinates":[[[136.2576613538843,35.94603075913782],[136.2577344508893,35.94664362678513],[136.25783129069706,35.946632915896394],[136.25775484553034,35.946021492589786],[136.2576613538843,35.94603075913782]]]}},{"type":"Feature","properties":{"pid":"246d4bdc-5721-4d97-b8ca-e8a946d77787"},"geometry":{"type":"Polygon","coordinates":[[[136.2575468149072,35.94742778743952],[136.25757492555746,35.947447757352066],[136.2577011328902,35.94743416913059],[136.2576204168265,35.94680532177169],[136.2574733901995,35.94681738217813],[136.2575468149072,35.94742778743952]]]}},{"type":"Feature","properties":{"pid":"a8af933f-8a2b-4f5c-987d-c9ce21eb23e8"},"geometry":{"type":"Polygon","coordinates":[[[136.25792712014143,35.94740493991123],[136.25856429897428,35.94735720140602],[136.25856180082224,35.94728407985415],[136.25862269643625,35.94725732980383],[136.25860079825296,35.94700000169246],[136.25863568129336,35.94697434879975],[136.2587604928577,35.94696306538011],[136.25872431112242,35.946709396110435],[136.2577478509085,35.94679499893009],[136.25781504394348,35.947322118558155],[136.2579088545075,35.947364447835774],[136.25792712014143,35.94740493991123]]]}},{"type":"Feature","properties":{"pid":"ed2a4470-91ed-428f-96a5-e526949c7627"},"geometry":{"type":"Polygon","coordinates":[[[136.2596206495629,35.94725476306583],[136.259542606359,35.94662829863289],[136.25890789012576,35.94668831819891],[136.25899334468824,35.94731784926643],[136.2596206495629,35.94725476306583]]]}},{"type":"Feature","properties":{"pid":"a22dadf0-7500-4fa9-90a6-9104a036f806"},"geometry":{"type":"Polygon","coordinates":[[[136.25860346861765,35.94656282131673],[136.25870319448603,35.94655329794026],[136.25864944298243,35.94615344061039],[136.2585513633146,35.94616918750625],[136.25860346861765,35.94656282131673]]]}},{"type":"Feature","properties":{"pid":"8179aefe-f973-427c-8d3a-a779fd7eccf1"},"geometry":{"type":"Polygon","coordinates":[[[136.2580048501928,35.94599941780429],[136.25786969053365,35.94601084460792],[136.257946466408,35.94662050388205],[136.25847451857504,35.94657305995477],[136.25842731665767,35.9462080750759],[136.25840465959982,35.946196581201185],[136.2581176820422,35.94623699977267],[136.25809212178547,35.946214285542155],[136.2580038698758,35.9460409415031],[136.2580048501928,35.94599941780429]]]}},{"type":"Feature","properties":{"pid":"477192e9-6411-4789-974a-6a5b6114d183"},"geometry":{"type":"Polygon","coordinates":[[[136.25853207457666,35.94599697710284],[136.2585379421243,35.946021316369325],[136.2587385262439,35.94599183210747],[136.2587327832433,35.945960394187175],[136.25853207457666,35.94599697710284]]]}},{"type":"Feature","properties":{"pid":"289fa6b6-058a-47bf-ba77-c589a662dfff"},"geometry":{"type":"Polygon","coordinates":[[[136.25725040386092,35.94590465949863],[136.25805495561337,35.94582565296632],[136.25806672930813,35.945810060708126],[136.25802702335238,35.94561513647477],[136.2578674014765,35.94561440615977],[136.25774253097376,35.945640468487575],[136.25721315945682,35.94559604139628],[136.25725040386092,35.94590465949863]]]}},{"type":"Feature","properties":{"pid":"0ff5238d-fc4d-4307-98e9-b56aaa83b2a6"},"geometry":{"type":"Polygon","coordinates":[[[136.25650401529018,35.94597439673384],[136.2571168244083,35.94592131457727],[136.25706761822744,35.94558930929149],[136.25676157162442,35.94562133183603],[136.2565938570322,35.94566588780956],[136.2564707730184,35.94573515316141],[136.25650401529018,35.94597439673384]]]}},{"type":"Feature","properties":{"pid":"f4aa09e6-95ed-443a-81c3-4b84999e017c"},"geometry":{"type":"Polygon","coordinates":[[[136.2545272766634,35.94619969364395],[136.2554391614958,35.94586233956513],[136.25543843333952,35.94585908963466],[136.25498071093034,35.945835046115576],[136.25452287945302,35.94577896953997],[136.2545272766634,35.94619969364395]]]}},{"type":"Feature","properties":{"pid":"aef4e071-95f1-465f-81f3-3899e50908db"},"geometry":{"type":"Polygon","coordinates":[[[136.25532331691855,35.94686515562651],[136.25526608046965,35.946390597331494],[136.25483694325536,35.94657037295228],[136.2552614132848,35.94687085593267],[136.25532331691855,35.94686515562651]]]}},{"type":"Feature","properties":{"pid":"f41721e2-7663-40a3-95b2-83b169e8b2b5"},"geometry":{"type":"Polygon","coordinates":[[[136.2543509370291,35.94695772843782],[136.25497508065183,35.94689572634424],[136.2546133375006,35.94668448139237],[136.2545545509463,35.946725254712455],[136.2543509370291,35.94695772843782]]]}},{"type":"Feature","properties":{"pid":"31b94dea-7405-47cb-9f7b-14f2b72823ed"},"geometry":{"type":"Polygon","coordinates":[[[136.25565870934344,35.94683401500779],[136.25558161694465,35.94626459280809],[136.2553775673393,35.94634440037036],[136.2554375320893,35.946854993149856],[136.25565870934344,35.94683401500779]]]}},{"type":"Feature","properties":{"pid":"1ef07848-df6b-4417-ae1c-7183b77cbe7e"},"geometry":{"type":"Polygon","coordinates":[[[136.25569864996038,35.94625159359249],[136.25577723777207,35.94682329934069],[136.25594624697078,35.946807563436046],[136.25586889375194,35.946192417685566],[136.25575674707426,35.94619784029461],[136.25572837345362,35.94620972879437],[136.25569864996038,35.94625159359249]]]}},{"type":"Feature","properties":{"pid":"e0f0e931-72f5-4764-b071-0f9bb9ff6d9b"},"geometry":{"type":"Polygon","coordinates":[[[136.2560526168618,35.94617837897234],[136.25603573998984,35.946196402505855],[136.25611958369254,35.94679084889912],[136.25675667536797,35.94672859147404],[136.25667671619757,35.94612495127439],[136.2560526168618,35.94617837897234]]]}},{"type":"Feature","properties":{"pid":"c84fc817-a4fa-40eb-b1ca-069564a7437b"},"geometry":{"type":"Polygon","coordinates":[[[136.2566097996265,35.94753672086179],[136.25687405875138,35.94750978157677],[136.2567829723189,35.94687822163605],[136.2565140060843,35.94690223843195],[136.2566097996265,35.94753672086179]]]}},{"type":"Feature","properties":{"pid":"48393f17-3ca2-4a10-b4c7-984606e79258"},"geometry":{"type":"Polygon","coordinates":[[[136.25633446146534,35.94756382839372],[136.25648973588648,35.947548637821754],[136.2563982448492,35.94691435618461],[136.25623335621864,35.94692953896645],[136.25631573754436,35.94755047495212],[136.25633446146534,35.94756382839372]]]}},{"type":"Feature","properties":{"pid":"11c3067d-f3f2-43f2-956f-4f7f8e162008"},"geometry":{"type":"Polygon","coordinates":[[[136.25615937875745,35.94756706974254],[136.25620099420468,35.9475741033545],[136.2561165223219,35.946940586735785],[136.25608173778707,35.94694435300989],[136.25615937875745,35.94756706974254]]]}},{"type":"Feature","properties":{"pid":"2397b0bd-2a4a-4a6a-b9a8-db095fb07519"},"geometry":{"type":"Polygon","coordinates":[[[136.25539760240798,35.94762846274946],[136.25542077026685,35.947640034037576],[136.25568728791893,35.9476185569908],[136.2557245668344,35.94759499172581],[136.25586998221232,35.947578067774124],[136.25592207203164,35.94759710231543],[136.25603627557103,35.947588914948845],[136.2559594200765,35.94695669360964],[136.25531805128912,35.947009843063825],[136.25539760240798,35.94762846274946]]]}},{"type":"Feature","properties":{"pid":"f17ef5f1-09e8-4f1d-9fd1-565791ddc157"},"geometry":{"type":"Polygon","coordinates":[[[136.255471250647,35.948209468432374],[136.25565572453155,35.94822178424383],[136.25590583141474,35.94819412573276],[136.25585571062516,35.94782928993991],[136.25552027154498,35.94785961447024],[136.2555047530035,35.947912067028206],[136.2554348182256,35.9479261843601],[136.255471250647,35.948209468432374]]]}},{"type":"Feature","properties":{"pid":"563a4a6d-48f3-44a0-9cb1-9988475d9e4d"},"geometry":{"type":"Polygon","coordinates":[[[136.25623242274082,35.948192033206304],[136.25618122278678,35.947796566346376],[136.25597185528142,35.94781776659657],[136.25602550935025,35.94818933533674],[136.25623242274082,35.948192033206304]]]}},{"type":"Feature","properties":{"pid":"415e8a17-43b7-427a-85f6-56c38725961b"},"geometry":{"type":"Polygon","coordinates":[[[136.25629573452585,35.94778556818457],[136.2563471771614,35.948192265388755],[136.25638829387745,35.948193629860214],[136.25640889194702,35.94815072527053],[136.25643925259837,35.948134120332746],[136.25638929485083,35.9477763396044],[136.25629573452585,35.94778556818457]]]}},{"type":"Feature","properties":{"pid":"5fbc0813-631c-47da-9c05-2259b475066d"},"geometry":{"type":"Polygon","coordinates":[[[136.25666844053922,35.94775418205136],[136.2565733042277,35.947762645125785],[136.25661595804206,35.94810723115027],[136.25672539522608,35.94813452855644],[136.25666844053922,35.94775418205136]]]}},{"type":"Feature","properties":{"pid":"d8481129-f38b-459f-8e1b-02ca06946e7b"},"geometry":{"type":"Polygon","coordinates":[[[136.25492240436188,35.94790800383234],[136.25491009083754,35.94792842701712],[136.254973241824,35.94833892760035],[136.25527965178267,35.948251030244876],[136.25528994969773,35.94823848600555],[136.25524014340218,35.94788248023601],[136.25492240436188,35.94790800383234]]]}},{"type":"Feature","properties":{"pid":"0e61cdfa-2c2e-407f-86a2-2710c5aa32b4"},"geometry":{"type":"Polygon","coordinates":[[[136.25424495977995,35.9486668998961],[136.25447859113498,35.94853217052878],[136.25441525586095,35.94799244008588],[136.2543726920122,35.9479548607928],[136.25415374403445,35.947985173041616],[136.25424495977995,35.9486668998961]]]}},{"type":"Feature","properties":{"pid":"a57a2f8e-ee07-45d0-b252-420c065c81ea"},"geometry":{"type":"Polygon","coordinates":[[[136.25453051565498,35.947979366833295],[136.25459643343441,35.9484756186294],[136.25485987032758,35.94837552407361],[136.25479285199097,35.94791675565814],[136.2545549344133,35.94793648274714],[136.25453051565498,35.947979366833295]]]}},{"type":"Feature","properties":{"pid":"260d6d52-e5dd-430d-b71e-b41e1b57b5d7"},"geometry":{"type":"Polygon","coordinates":[[[136.25472576987923,35.947693118825796],[136.25520435247978,35.94765881474209],[136.25512449400264,35.94702516435871],[136.25440530748395,35.947086483747505],[136.25447371058547,35.947570840102536],[136.2546254714914,35.947566355034574],[136.25465056585472,35.947589943785914],[136.2546684968866,35.9476756481319],[136.25472576987923,35.947693118825796]]]}},{"type":"Feature","properties":{"pid":"c04981f5-f25c-4a26-974b-a8140badadff"},"geometry":{"type":"Polygon","coordinates":[[[136.2535582598245,35.94776413636104],[136.25433730719155,35.94772575788696],[136.25437002609837,35.94770444833357],[136.25427857969723,35.947101217650975],[136.25426123070582,35.947103605673206],[136.25404634393576,35.947333917704654],[136.2535582598245,35.94776413636104]]]}},{"type":"Feature","properties":{"pid":"f1e1e6db-2502-4be4-847c-9f047804929b"},"geometry":{"type":"Polygon","coordinates":[[[136.25385952995964,35.94885597686579],[136.25375507701713,35.94805007250641],[136.25357318918745,35.94807964346496],[136.25370109370954,35.94886654354167],[136.25385952995964,35.94885597686579]]]}},{"type":"Feature","properties":{"pid":"84dd1772-01d2-4b03-9063-c9508b3324b9"},"geometry":{"type":"Polygon","coordinates":[[[136.25387476609606,35.94803871499649],[136.2539782540641,35.94884846999399],[136.25402031108274,35.948846352962576],[136.25390300241403,35.948055114391714],[136.25387476609606,35.94803871499649]]]}},{"type":"Feature","properties":{"pid":"ba259ae7-3af7-479a-b111-dad7505c0ced"},"geometry":{"type":"Polygon","coordinates":[[[136.2540210885888,35.94801910356535],[136.25413723964616,35.94884115998397],[136.2541559060684,35.948840368933915],[136.25403340949177,35.94802428143532],[136.2540210885888,35.94801910356535]]]}},{"type":"Feature","properties":{"pid":"41d92533-2d12-4bd1-a214-4071b5446d0a"},"geometry":{"type":"Polygon","coordinates":[[[136.2535765792512,35.94887280759301],[136.25345493011864,35.94810007807685],[136.2533037890668,35.94812715969243],[136.2534202702125,35.948882574927744],[136.2535765792512,35.94887280759301]]]}},{"type":"Feature","properties":{"pid":"4e547a20-38d2-4c2a-b6f0-5f5467b0bbaa"},"geometry":{"type":"Polygon","coordinates":[[[136.25222941223558,35.94900368765011],[136.25236650687015,35.94896481724481],[136.25258106730945,35.948951349310256],[136.25276379621198,35.9489589189466],[136.2531111231836,35.94904439697243],[136.25329572737056,35.94904225049483],[136.25316789439108,35.94818622040963],[136.25238282915862,35.9488117701622],[136.25234766437188,35.94882147029365],[136.25231145644455,35.94880989102027],[136.25218055362726,35.94888304927527],[136.25222941223558,35.94900368765011]]]}},{"type":"Feature","properties":{"pid":"e423e342-997d-4470-8d2b-0498ce143558"},"geometry":{"type":"Polygon","coordinates":[[[136.2516819114791,35.94741826353356],[136.2516889778702,35.94788641450591],[136.251791910226,35.94789251849265],[136.2521322611763,35.9478603635491],[136.25212824812087,35.94741805173122],[136.2516819114791,35.94741826353356]]]}},{"type":"Feature","properties":{"pid":"b7e619d9-5854-4f5d-9319-3746db02d545"},"geometry":{"type":"Polygon","coordinates":[[[136.25227641002314,35.947849750382005],[136.25239285772597,35.94784075556699],[136.25239770032115,35.94741967285558],[136.2522694073234,35.94742037618295],[136.25227641002314,35.947849750382005]]]}},{"type":"Feature","properties":{"pid":"b5781a93-0b97-44fb-b675-c7076099265f"},"geometry":{"type":"Polygon","coordinates":[[[136.25251470064785,35.94783075377363],[136.2527647134402,35.94780845264529],[136.25320473158553,35.94741402339417],[136.25251719890355,35.94741937120289],[136.25251470064785,35.94783075377363]]]}},{"type":"Feature","properties":{"pid":"8b4d16f1-f101-4bd3-979b-c7524f504c8a"},"geometry":{"type":"Polygon","coordinates":[[[136.2521070121367,35.94645240951969],[136.25210701845054,35.947255771809395],[136.25231579712303,35.94725699106134],[136.25230945121046,35.94645092483829],[136.2521070121367,35.94645240951969]]]}},{"type":"Feature","properties":{"pid":"999e2c55-49e1-431e-9fcb-2042d4056a64"},"geometry":{"type":"Polygon","coordinates":[[[136.25198750518803,35.94725401891745],[136.2519834442648,35.94645696530126],[136.25166958601937,35.94645686115729],[136.25166593569952,35.94725701644106],[136.25198750518803,35.94725401891745]]]}},{"type":"Feature","properties":{"pid":"18c96863-68ed-4ef8-99d1-69de716e7c36"},"geometry":{"type":"Polygon","coordinates":[[[136.25278146571168,35.94645863489991],[136.25268336548655,35.94644820345684],[136.25268584123972,35.947258565166926],[136.25279991176586,35.94726233892286],[136.25278146571168,35.94645863489991]]]}},{"type":"Feature","properties":{"pid":"411d49a8-1a44-42ab-8545-774dd987ff31"},"geometry":{"type":"Polygon","coordinates":[[[136.2524353074997,35.947259292391585],[136.25254343214135,35.94725766934249],[136.25253622983408,35.94644909253775],[136.2524280814602,35.946450731067834],[136.2524353074997,35.947259292391585]]]}},{"type":"Feature","properties":{"pid":"f11fedde-f369-4461-a14c-f460ae6a3b81"},"geometry":{"type":"Polygon","coordinates":[[[136.2532396674277,35.946444958714984],[136.25290610970345,35.94644884087047],[136.2529198069727,35.94726571878394],[136.25324454865998,35.94726618076131],[136.2532396674277,35.946444958714984]]]}},{"type":"Feature","properties":{"pid":"ff01709e-e262-4687-a7b0-54ea049f844d"},"geometry":{"type":"Polygon","coordinates":[[[136.25336457366973,35.94724862199694],[136.2535410320001,35.9471018595628],[136.25353320442636,35.94644411803357],[136.25336089119511,35.94644424810091],[136.25336457366973,35.94724862199694]]]}},{"type":"Feature","properties":{"pid":"58f3d5a0-8c2f-4e11-9267-af7dafc43bda"},"geometry":{"type":"Polygon","coordinates":[[[136.25368453625984,35.9469795764318],[136.25406089189806,35.9465536859857],[136.25413168955805,35.94651313903845],[136.25418740716296,35.94645160114504],[136.2537722946005,35.94644510774774],[136.25373918786588,35.94646492060776],[136.2536793625844,35.94646788412663],[136.25368453625984,35.9469795764318]]]}},{"type":"Feature","properties":{"pid":"2276ec28-5a30-4515-923c-a096af2da8b6"},"geometry":{"type":"Polygon","coordinates":[[[136.25286356675664,35.94627001325566],[136.25288139482998,35.94628225821689],[136.25332002202538,35.946279022634556],[136.2533148323294,35.94559587348005],[136.2531881423835,35.945554224271795],[136.2528573773427,35.94555622391588],[136.25286356675664,35.94627001325566]]]}},{"type":"Feature","properties":{"pid":"693e8ddf-cf66-4186-9f9b-a95dd7c11ec1"},"geometry":{"type":"Polygon","coordinates":[[[136.2535322463403,35.94567205163378],[136.25343294632304,35.94563626740926],[136.25343784002604,35.94628108630308],[136.25353551828834,35.94628048974769],[136.2535322463403,35.94567205163378]]]}},{"type":"Feature","properties":{"pid":"62bf0329-f95e-47af-a081-6cea810c7d64"},"geometry":{"type":"Polygon","coordinates":[[[136.2536627426553,35.946244540198315],[136.2542153462662,35.9462281170632],[136.25434158448107,35.94625140780579],[136.254380611366,35.94624020325567],[136.25437369362388,35.94579889064462],[136.25399760308338,35.945729684506574],[136.25391389469152,35.94575484195799],[136.2536542943601,35.945704411447096],[136.2536627426553,35.946244540198315]]]}},{"type":"Feature","properties":{"pid":"e1f29708-1772-4365-8c16-03f80b56c4e7"},"geometry":{"type":"Polygon","coordinates":[[[136.2524017884835,35.94628636422758],[136.25266966912264,35.9462810505038],[136.2526693745872,35.945529804542495],[136.25250063303483,35.94547572156398],[136.25242304203948,35.945415882432805],[136.25236122428907,35.94540177382522],[136.25237432359535,35.94626630032273],[136.2524017884835,35.94628636422758]]]}},{"type":"Feature","properties":{"pid":"b4fdcec9-ebf4-4d28-9796-73d326d8160a"},"geometry":{"type":"Polygon","coordinates":[[[136.25165012220967,35.94518539924358],[136.25167229151228,35.946284682146604],[136.25191738054758,35.94628278138891],[136.25191588722572,35.94529897501143],[136.25174423437167,35.945210050282334],[136.25165012220967,35.94518539924358]]]}},{"type":"Feature","properties":{"pid":"45909024-2a77-4e19-b10b-a6b560067569"},"geometry":{"type":"Polygon","coordinates":[[[136.2520350881739,35.94627251513003],[136.25205087395008,35.946284542896215],[136.25225528874407,35.946286802405076],[136.25223992716337,35.945393875189936],[136.25211774370953,35.945407972299876],[136.2520322251482,35.945371130961085],[136.2520350881739,35.94627251513003]]]}},{"type":"Feature","properties":{"pid":"dfad96d1-d2c8-4a95-937a-915d281b5d4f"},"geometry":{"type":"Polygon","coordinates":[[[136.25005266502146,35.94453191649016],[136.25004216747163,35.94532190357907],[136.2501641196601,35.945320230235275],[136.25015894057242,35.94455138367736],[136.25012528841492,35.944532673743915],[136.25005266502146,35.94453191649016]]]}},{"type":"Feature","properties":{"pid":"1c757cd2-2478-4762-a77e-d6cfebb16982"},"geometry":{"type":"Polygon","coordinates":[[[136.25041809068406,35.94531996453943],[136.25087891876737,35.94531900179927],[136.25087866411295,35.94484760014551],[136.25050546155998,35.94474023975543],[136.25041520185744,35.944697409639296],[136.25041809068406,35.94531996453943]]]}},{"type":"Feature","properties":{"pid":"d8448be9-6fb9-469f-bd5e-c5a9a258abcd"},"geometry":{"type":"Polygon","coordinates":[[[136.2509944963837,35.94531827077793],[136.25107863193637,35.94531839009502],[136.2510774072091,35.94493142260607],[136.2509968927776,35.94489679700334],[136.2509944963837,35.94531827077793]]]}},{"type":"Feature","properties":{"pid":"53705bad-69ed-4c14-9fa7-d2067984f7a9"},"geometry":{"type":"Polygon","coordinates":[[[136.2511978605271,35.94531881516123],[136.25143975726596,35.94531643947222],[136.25143896156453,35.94506076717935],[136.25119258805864,35.94497462706191],[136.2511978605271,35.94531881516123]]]}},{"type":"Feature","properties":{"pid":"2a25edc4-28db-49b2-a8ab-c6a404ca4bfa"},"geometry":{"type":"Polygon","coordinates":[[[136.25138967783207,35.94627732169789],[136.25146488679334,35.94627445838827],[136.25148780759403,35.94625878230825],[136.25148223556602,35.945490995679066],[136.2513762979755,35.94549190713175],[136.25138967783207,35.94627732169789]]]}},{"type":"Feature","properties":{"pid":"b47af659-78d3-4763-a83b-c3d1191261e8"},"geometry":{"type":"Polygon","coordinates":[[[136.25125647593876,35.94549212307004],[136.25078330335592,35.94548967679792],[136.25079049068808,35.946283282643016],[136.25126521751503,35.946281145203734],[136.25125647593876,35.94549212307004]]]}},{"type":"Feature","properties":{"pid":"b44ec838-405d-45a2-a61e-a398420228e2"},"geometry":{"type":"Polygon","coordinates":[[[136.2503980766066,35.94628788410606],[136.25066755708534,35.9462842928657],[136.25066192514805,35.94548991116064],[136.25037353619163,35.945492523676585],[136.25038519811577,35.9462659566045],[136.2503980766066,35.94628788410606]]]}},{"type":"Feature","properties":{"pid":"b2048c39-fcb2-47d9-94c6-75e2451bf89a"},"geometry":{"type":"Polygon","coordinates":[[[136.25009056523712,35.946291407318576],[136.25022552254856,35.94629009030597],[136.25021883382348,35.94548762818851],[136.250095042014,35.94548737507572],[136.25009056523712,35.946291407318576]]]}},{"type":"Feature","properties":{"pid":"740a29be-e071-4dd3-9678-8e38b9bee963"},"geometry":{"type":"Polygon","coordinates":[[[136.2501010891077,35.947255695874055],[136.25023085603559,35.94725435440312],[136.2502273412082,35.946457382402265],[136.25010060783174,35.94645764662836],[136.2501010891077,35.947255695874055]]]}},{"type":"Feature","properties":{"pid":"73dcb5a3-a1f9-435c-a3c0-b6c5664ecc31"},"geometry":{"type":"Polygon","coordinates":[[[136.25038224028467,35.94726592447368],[136.2514938644956,35.94725667787674],[136.25148979687276,35.946470038342355],[136.25146971921592,35.946455547341245],[136.25038501835905,35.94645875705201],[136.25038224028467,35.94726592447368]]]}},{"type":"Feature","properties":{"pid":"d546532a-b9fc-4df7-bbdd-ab9ea544e088"},"geometry":{"type":"Polygon","coordinates":[[[136.25066228755682,35.94742234776135],[136.25026354379287,35.94742327257256],[136.2502701704856,35.94799825533549],[136.25066850112626,35.947993054354086],[136.25066228755682,35.94742234776135]]]}},{"type":"Feature","properties":{"pid":"e4ddaa26-a57b-45bf-a8cd-af336138d4bc"},"geometry":{"type":"Polygon","coordinates":[[[136.25078924633277,35.94799461374871],[136.2511726689293,35.947996168020815],[136.25150393875418,35.94793127054682],[136.25149943206168,35.94742122821234],[136.25078782149788,35.94742211969492],[136.25078924633277,35.94799461374871]]]}},{"type":"Feature","properties":{"pid":"accf5a95-5d02-42d2-808f-91bed94f4425"},"geometry":{"type":"Polygon","coordinates":[[[136.2508015812077,35.949018891927565],[136.2509036866561,35.949001945984335],[136.25127526315578,35.94883240967048],[136.25166011369228,35.94862945581762],[136.25146390842087,35.948274319487105],[136.25141852302076,35.948273047859516],[136.2512482724483,35.94832153504569],[136.251216708647,35.94835035112517],[136.25057287754467,35.948584318042805],[136.2508015812077,35.949018891927565]]]}},{"type":"Feature","properties":{"pid":"5678fe6d-8af7-4394-8737-15f429dcc7e3"},"geometry":{"type":"Polygon","coordinates":[[[136.25017514615917,35.948746443416],[136.2501114885445,35.94875362970943],[136.25032863909465,35.949153172160514],[136.25067540971173,35.94904640416694],[136.25045609372145,35.94862925686376],[136.25017514615917,35.948746443416]]]}},{"type":"Feature","properties":{"pid":"9d2daeee-ba8a-4c72-a11e-2c84cfc83610"},"geometry":{"type":"Polygon","coordinates":[[[136.24991346798012,35.94853744492038],[136.25080489806683,35.94818462485882],[136.25080509812517,35.94817984130792],[136.2499112288984,35.948182393469885],[136.24991346798012,35.94853744492038]]]}},{"type":"Feature","properties":{"pid":"3f7f768f-bb42-4712-bb4b-be5b71546e58"},"geometry":{"type":"Polygon","coordinates":[[[136.25014560883386,35.947421718432906],[136.24990274259966,35.94742222430349],[136.2498997312044,35.94799761605741],[136.2501474320429,35.94800022734694],[136.25014560883386,35.947421718432906]]]}}]}