{"type":"FeatureCollection","features":[{"type":"Feature","properties":{"pid":"459117c2-a3b4-4c0a-9b21-e8ab4b5ec279"},"geometry":{"type":"Polygon","coordinates":[[[136.08515209095935,36.109531943188486],[136.08528600191772,36.109324912253996],[136.0852742347114,36.10919930037773],[136.0850584977739,36.10921612727281],[136.08495065238057,36.109348896531664],[136.08515209095935,36.109531943188486]]]}},{"type":"Feature","properties":{"pid":"2f3a8f25-4f01-44a1-b426-c11e3f109042"},"geometry":{"type":"Polygon","coordinates":[[[136.08504341522305,36.109848934405335],[136.0850807845606,36.10984638050485],[136.08510040840136,36.109817658423545],[136.08513347640857,36.109693707409996],[136.08512626945762,36.1096747606107],[136.0847542548417,36.10935088924397],[136.0846134009462,36.10939999106719],[136.08462467108046,36.10953539384751],[136.08504341522305,36.109848934405335]]]}},{"type":"Feature","properties":{"pid":"d99e6695-2cb3-4988-8eef-47350e73afcf"},"geometry":{"type":"Polygon","coordinates":[[[136.08530082968173,36.110208650247834],[136.08553130060614,36.110334032947584],[136.08572873952508,36.11007828491235],[136.08552689792467,36.109964134508154],[136.08530082968173,36.110208650247834]]]}},{"type":"Feature","properties":{"pid":"3bbda20a-489b-4051-9b30-716d808a229c"},"geometry":{"type":"Polygon","coordinates":[[[136.08510832712278,36.11034693653946],[136.08521744523986,36.1105802788612],[136.08520827972967,36.11066932647359],[136.085128509768,36.11081537859263],[136.0851401701841,36.11085308464382],[136.0851839079961,36.1108885131619],[136.08539136793914,36.110985578800396],[136.08548347686974,36.110972974188996],[136.08569808947462,36.11090034765188],[136.0856070621685,36.11071393939029],[136.08556824937102,36.11050768950974],[136.0851938532354,36.11030796475908],[136.08514763479027,36.11031034145213],[136.08510832712278,36.11034693653946]]]}}]}