{"type":"FeatureCollection","features":[{"type":"Feature","properties":{"pid":"c44b6379-24b1-4a33-803e-b18ab981b2fa"},"geometry":{"type":"Polygon","coordinates":[[[136.58366673229142,35.96789086760429],[136.5837643325313,35.96786105359742],[136.58393092789947,35.967862040798295],[136.58387037832634,35.967559927493234],[136.58361582308004,35.967610957732326],[136.58360765683963,35.967627308622085],[136.58366673229142,35.96789086760429]]]}},{"type":"Feature","properties":{"pid":"27802961-d8b2-41a0-88e1-92f8ccc12599"},"geometry":{"type":"Polygon","coordinates":[[[136.58323486495726,35.96787244052057],[136.5834677822889,35.967916011734225],[136.58353102960885,35.967914543450775],[136.58347510500082,35.96765073394664],[136.58320074780505,35.96773675150154],[136.58323486495726,35.96787244052057]]]}},{"type":"Feature","properties":{"pid":"84dade55-7f28-4da3-a0c0-58154403ec94"},"geometry":{"type":"Polygon","coordinates":[[[136.58262258504342,35.96743915161066],[136.58308079142773,35.96737391577219],[136.58302118162615,35.96721511267116],[136.5825977605036,35.96729386083386],[136.58259225122714,35.9673231381246],[136.58261928712977,35.967381499433536],[136.58262258504342,35.96743915161066]]]}},{"type":"Feature","properties":{"pid":"f2aa32ce-f413-48ed-bdbe-1cbfdd8fd73b"},"geometry":{"type":"Polygon","coordinates":[[[136.58333415524666,35.96710211660716],[136.58358380705423,35.967087214828545],[136.58380056490904,35.96711328872529],[136.58388354831007,35.967116576531446],[136.58391810025032,35.96710352211682],[136.58387304644563,35.96690366883888],[136.58335078828148,35.96700490738155],[136.58332202892836,35.96703527709681],[136.58333415524666,35.96710211660716]]]}},{"type":"Feature","properties":{"pid":"aa1a32ac-4304-4ec3-b76d-391f38fca7eb"},"geometry":{"type":"Polygon","coordinates":[[[136.58386317596052,35.966712544859284],[136.58382032833688,35.9664907815063],[136.58329567666942,35.96658294007374],[136.58335005268907,35.96688449787483],[136.5838124173029,35.96679744961074],[136.58381267407432,35.966738968094624],[136.58386317596052,35.966712544859284]]]}},{"type":"Feature","properties":{"pid":"867ff9db-1e84-48f7-b66a-9d38e5c49d8a"},"geometry":{"type":"Polygon","coordinates":[[[136.5824265503279,35.96669090862865],[136.58249029086653,35.96681107639979],[136.58306461461032,35.966724682370554],[136.58303801385446,35.9666531786297],[136.58276396850573,35.96669504929067],[136.5824265503279,35.96669090862865]]]}},{"type":"Feature","properties":{"pid":"fa609241-8f62-4936-8a0d-08fa67a3f186"},"geometry":{"type":"Polygon","coordinates":[[[136.5825243263221,35.96700464406953],[136.58305220268676,35.96691614952788],[136.58303653951032,35.96685757328973],[136.58250641743504,35.96693540953998],[136.5825243263221,35.96700464406953]]]}},{"type":"Feature","properties":{"pid":"8798ca64-df82-479b-b7f5-f2a38ca6c222"},"geometry":{"type":"Polygon","coordinates":[[[136.5825660260648,35.96716475711449],[136.583035320435,35.96708657821088],[136.58303114739155,35.967038666896954],[136.58256426985426,35.96711542696689],[136.5825660260648,35.96716475711449]]]}},{"type":"Feature","properties":{"pid":"1b14ede0-e1ba-4a2c-86e5-c3fa80160189"},"geometry":{"type":"Polygon","coordinates":[[[136.58179978627444,35.967230131283245],[136.5818578535637,35.96728154606181],[136.58225426636344,35.967213085347495],[136.58227239938068,35.96718467311756],[136.58232153965548,35.96716032382143],[136.58231705751493,35.96714203172164],[136.58179978627444,35.967230131283245]]]}},{"type":"Feature","properties":{"pid":"d357bb1c-4478-4897-b6f2-a51ee9df2241"},"geometry":{"type":"Polygon","coordinates":[[[136.58195616776197,35.96739224259354],[136.58202319502982,35.96742995205004],[136.58223290511233,35.967445779326525],[136.58231981360112,35.967447631057915],[136.58233095241343,35.96741951400077],[136.58236411348517,35.96740111986081],[136.5823450484772,35.96732093189282],[136.58195616776197,35.96739224259354]]]}},{"type":"Feature","properties":{"pid":"accc57f6-087a-457f-aafe-08bb2848e005"},"geometry":{"type":"Polygon","coordinates":[[[136.58176171301722,35.96711610077204],[136.58221156805385,35.96704078972529],[136.58222763841604,35.96700826766728],[136.58228373620773,35.96698188700347],[136.58227910513162,35.96696462684799],[136.58172741603397,35.967068951190164],[136.58176171301722,35.96711610077204]]]}},{"type":"Feature","properties":{"pid":"27902e0c-4465-45f8-8de3-7df206509e14"},"geometry":{"type":"Polygon","coordinates":[[[136.58174322718637,35.96693273988124],[136.5821841504327,35.96686263131792],[136.5822013514524,35.966833598591705],[136.58225368203475,35.96680558064899],[136.5822393294183,35.96675635872592],[136.58196362404757,35.96681223733606],[136.58175207480994,35.966907173054715],[136.58174322718637,35.96693273988124]]]}},{"type":"Feature","properties":{"pid":"2c3e8011-bae1-4f21-9d4d-92390871e169"},"geometry":{"type":"Polygon","coordinates":[[[136.58398291691736,35.966686355342055],[136.58444896859973,35.966625776877635],[136.5847079187267,35.966569210786425],[136.58462374024336,35.9664102666581],[136.5839474076085,35.96650018948082],[136.58398291691736,35.966686355342055]]]}},{"type":"Feature","properties":{"pid":"06510077-9896-4f3b-b177-46765675823e"},"geometry":{"type":"Polygon","coordinates":[[[136.58484325673763,35.96653522338513],[136.58506877661773,35.96646892924976],[136.58500487843298,35.96634912210686],[136.58479032721272,35.96640694272],[136.58484325673763,35.96653522338513]]]}},{"type":"Feature","properties":{"pid":"f43310fa-6d8d-418a-85d9-db9d9d6e98b6"},"geometry":{"type":"Polygon","coordinates":[[[136.58578334357588,35.967650025013114],[136.58595831713095,35.967592187435514],[136.58574366676402,35.96718672686208],[136.5856072516308,35.96721315415015],[136.58578334357588,35.967650025013114]]]}},{"type":"Feature","properties":{"pid":"b7c633e5-89e8-4026-a48b-8aa71c69767c"},"geometry":{"type":"Polygon","coordinates":[[[136.58537539228567,35.96775963272493],[136.58548198685747,35.96774499078022],[136.58545635034776,35.96769253942099],[136.58546769513978,35.96765945393014],[136.58562778670935,35.96759566143837],[136.5854912299094,35.967246909506265],[136.58524843215773,35.967307139080475],[136.58537539228567,35.96775963272493]]]}},{"type":"Feature","properties":{"pid":"a6c3660b-5019-486b-92e1-776816c58342"},"geometry":{"type":"Polygon","coordinates":[[[136.58559720006366,35.966910544919706],[136.5862159696045,35.96671796594037],[136.5859459468317,35.966545027138196],[136.58573724354065,35.966627315856535],[136.58552457305123,35.96674407804615],[136.58550588653827,35.96676927531675],[136.58557297466754,35.96690548870349],[136.58559720006366,35.966910544919706]]]}},{"type":"Feature","properties":{"pid":"ff2f18c9-3331-421b-a3e5-847ff34a12bf"},"geometry":{"type":"Polygon","coordinates":[[[136.58498151164633,35.967008102061165],[136.58533588710046,35.96697805309962],[136.58544062000004,35.96695407450629],[136.58538271781723,35.96687448478271],[136.5852905126514,35.966933399248255],[136.58507218979315,35.96699114954578],[136.5849799928387,35.96699793400081],[136.58498151164633,35.967008102061165]]]}},{"type":"Feature","properties":{"pid":"88ed7883-8091-41a6-b817-956506aee8c1"},"geometry":{"type":"Polygon","coordinates":[[[136.58460882180952,35.96688520647579],[136.58492740465422,35.96679781761415],[136.58496523421724,35.96680074799672],[136.58499657590258,35.96682656603195],[136.58522885279567,35.96676902245581],[136.58522898828855,35.966704139526975],[136.58529062954545,35.9666686357121],[136.585252004334,35.96659075761291],[136.58512345432825,35.96662561662803],[136.5850126291995,35.96669424581601],[136.5845878247281,35.966816189171894],[136.58460882180952,35.96688520647579]]]}},{"type":"Feature","properties":{"pid":"c93aae87-9bf9-4339-84a1-39f6bb0541ca"},"geometry":{"type":"Polygon","coordinates":[[[136.58406540140248,35.967088919823155],[136.5842614063864,35.96707148646105],[136.58432652601712,35.9670458441654],[136.58447104432213,35.96690558100524],[136.58443321705923,35.966764503039386],[136.58400634100335,35.96682391869407],[136.58406540140248,35.967088919823155]]]}},{"type":"Feature","properties":{"pid":"505bc8b2-f49c-47f7-9202-589c9debcffb"},"geometry":{"type":"Polygon","coordinates":[[[136.58485041830963,35.96781115603883],[136.58503099287677,35.96774496862573],[136.5851499116018,35.96776655071425],[136.58502753321,35.96729775130604],[136.58474417919842,35.96733782190783],[136.58485041830963,35.96781115603883]]]}},{"type":"Feature","properties":{"pid":"b6b701f1-3401-4f89-9a6e-f50f5454b996"},"geometry":{"type":"Polygon","coordinates":[[[136.58450460635984,35.967807312980135],[136.5845221589465,35.96763626007967],[136.58455788767512,35.96761873157465],[136.58467822177107,35.967621398899176],[136.5846217509315,35.96736692655498],[136.58439586411708,35.96742268230655],[136.584462588354,35.96780858040482],[136.58450460635984,35.967807312980135]]]}},{"type":"Feature","properties":{"pid":"ee28fe45-3ed0-4173-b812-c29e57aaf2fe"},"geometry":{"type":"Polygon","coordinates":[[[136.58398844101083,35.96753495293461],[136.58405450536796,35.9678510365804],[136.58433542945525,35.967829904690426],[136.58428078145388,35.967531703970145],[136.5842257032327,35.967525927715535],[136.58419549416263,35.967480653810355],[136.58398844101083,35.96753495293461]]]}},{"type":"Feature","properties":{"pid":"674e72c1-a019-4675-9a98-595193a45349"},"geometry":{"type":"Polygon","coordinates":[[[136.59448879924562,35.968598695053636],[136.59452330505619,35.96857990333544],[136.59451007565056,35.96845571930442],[136.5942055436774,35.96849879124966],[136.59402502584544,35.96848514060729],[136.59407814763952,35.96863011188854],[136.59448879924562,35.968598695053636]]]}},{"type":"Feature","properties":{"pid":"8da3055c-9cc8-42ca-b4d0-371f1f6c7157"},"geometry":{"type":"Polygon","coordinates":[[[136.5939990648098,35.968000002990884],[136.59398605304415,35.96802475445772],[136.59408454760137,35.96821435588653],[136.5941695799754,35.96821142091984],[136.59427453468615,35.96818170535259],[136.59434309036092,35.96814314600661],[136.59419147838457,35.96793552768383],[136.5939990648098,35.968000002990884]]]}},{"type":"Feature","properties":{"pid":"1d6214d6-38a5-4915-a45f-a978c5a72f29"},"geometry":{"type":"Polygon","coordinates":[[[136.59365016271613,35.96810363134383],[136.59371837217674,35.968256298879176],[136.59396424111003,35.96822675937368],[136.59388293578323,35.96806935770641],[136.59383688648364,35.968046182728145],[136.59365016271613,35.96810363134383]]]}},{"type":"Feature","properties":{"pid":"fed0f04a-583b-490f-8224-9956aeb01c59"},"geometry":{"type":"Polygon","coordinates":[[[136.5943837710823,35.968002355126025],[136.59460914323927,35.96787880384674],[136.5945641206809,35.96782698601517],[136.59431053750845,35.96789942039059],[136.5943837710823,35.968002355126025]]]}},{"type":"Feature","properties":{"pid":"3d3ef5ff-9def-45ff-b62e-1f800563043b"},"geometry":{"type":"Polygon","coordinates":[[[136.5947035088099,35.96777515512271],[136.5947450761157,35.96783235563221],[136.5948974844127,35.967780959176096],[136.5947035088099,35.96777515512271]]]}},{"type":"Feature","properties":{"pid":"983636a9-3785-4b5d-9d8f-7e84362e8561"},"geometry":{"type":"Polygon","coordinates":[[[136.59597012100133,35.96937979422947],[136.59633420560996,35.96938801780156],[136.59626853776754,35.96926827422371],[136.59621308728464,35.96920438830281],[136.5961135774105,35.96913113527618],[136.59598256362165,35.9690931983825],[136.59597012100133,35.96937979422947]]]}},{"type":"Feature","properties":{"pid":"706bb092-cac5-4566-ab62-0016bca72d4e"},"geometry":{"type":"Polygon","coordinates":[[[136.5943293197474,35.968932896015424],[136.5944763735399,35.968928490403904],[136.59462276123315,35.968751183423365],[136.59456604691485,35.96869703317718],[136.59440244333226,35.968797339289516],[136.5943293197474,35.968932896015424]]]}},{"type":"Feature","properties":{"pid":"09e91fbd-73f6-4581-b660-9ae31595a444"},"geometry":{"type":"Polygon","coordinates":[[[136.5940533972411,35.96929851193],[136.59489877080517,35.969323307934474],[136.59489805618006,35.969228116180716],[136.59481711537123,35.96922648920515],[136.59469082562134,35.96918356787372],[136.59455511523413,35.96910491098445],[136.5944689977359,35.969033262637595],[136.59425485342234,35.96903735060887],[136.5940745961226,35.96914647726601],[136.5940472689487,35.96920109286868],[136.5940533972411,35.96929851193]]]}},{"type":"Feature","properties":{"pid":"d46260fa-ae23-45e7-b66c-1e558e772dd8"},"geometry":{"type":"Polygon","coordinates":[[[136.5958018989144,35.96907297469645],[136.59580372210164,35.968918576967404],[136.59540729349504,35.96903989479321],[136.5954242279007,35.96906754100984],[136.5958018989144,35.96907297469645]]]}},{"type":"Feature","properties":{"pid":"cf459e1e-230f-4d19-b0f3-a0a898238958"},"geometry":{"type":"MultiPolygon","coordinates":[[[[136.59518224139592,35.969328749817855],[136.59509963588766,35.96931595626447],[136.59507237759945,35.969303130112955],[136.59507208716116,35.96932572817506],[136.59518224139592,35.969328749817855]]],[[[136.59536883351655,35.969333867998074],[136.5957937001548,35.96934552090851],[136.5957987632141,35.969170283346315],[136.59545602336428,35.96916484138472],[136.59542233914863,35.96927323618819],[136.59536883351655,35.969333867998074]]]]}},{"type":"Feature","properties":{"pid":"0f6d8882-8dc3-4fd5-b83d-732803bafa86"},"geometry":{"type":"Polygon","coordinates":[[[136.59577961736576,35.96961335803763],[136.59578816382208,35.96944341995066],[136.59507086703175,35.96942431981161],[136.59506448661463,35.96960024183515],[136.59577961736576,35.96961335803763]]]}},{"type":"Feature","properties":{"pid":"5b7d7828-e945-44b8-b404-8bece2de12f7"},"geometry":{"type":"Polygon","coordinates":[[[136.59413805451734,35.969485923044964],[136.59489320246342,35.96951617585852],[136.59489594142073,35.969426098609325],[136.5940845364492,35.96939920801083],[136.59413805451734,35.969485923044964]]]}},{"type":"Feature","properties":{"pid":"4ee66676-93e0-4e75-8fa0-0bd9250b9ab8"},"geometry":{"type":"Polygon","coordinates":[[[136.59433948769498,35.96981842335739],[136.59488270564523,35.96983691329669],[136.59488383946598,35.96961659749536],[136.59421553243723,35.96959432665016],[136.59429746413477,35.96977810100267],[136.59433948769498,35.96981842335739]]]}},{"type":"Feature","properties":{"pid":"0ebe7db4-01dd-4bc7-8f81-15bd6e34bb1c"},"geometry":{"type":"Polygon","coordinates":[[[136.59447320269604,35.96994778330506],[136.5948117126014,35.97034012500736],[136.59485104824563,35.97036120252051],[136.5948694357323,35.96995050359007],[136.59447776591543,35.96993255166756],[136.59447320269604,35.96994778330506]]]}},{"type":"Feature","properties":{"pid":"c0f49432-ff2f-48d0-b33d-83786b76b125"},"geometry":{"type":"Polygon","coordinates":[[[136.595056182234,35.9698911705817],[136.59577530014363,35.96990806544164],[136.59577731342176,35.969710558922124],[136.59506397597792,35.96969759250294],[136.595056182234,35.9698911705817]]]}},{"type":"Feature","properties":{"pid":"deee2003-e662-4e0d-a06e-788774618a75"},"geometry":{"type":"Polygon","coordinates":[[[136.59504878543387,35.97014241575404],[136.59576287228663,35.970169883774666],[136.59576271131587,35.97001713259056],[136.5950554771389,35.96999952494936],[136.59504878543387,35.97014241575404]]]}},{"type":"Feature","properties":{"pid":"6a27da95-082c-493f-adf4-67530af44736"},"geometry":{"type":"Polygon","coordinates":[[[136.59593736417273,35.97018373532635],[136.59654015154123,35.9701960902844],[136.59655285318544,35.970168203260954],[136.59659312960113,35.97014531183526],[136.59658694402356,35.9700637242771],[136.5965679771427,35.97002563790769],[136.59594312660346,35.97000602167722],[136.59593736417273,35.97018373532635]]]}},{"type":"Feature","properties":{"pid":"34b58c53-25d3-447b-bbed-07995c354f5a"},"geometry":{"type":"Polygon","coordinates":[[[136.5959444921404,35.96990939810947],[136.596554063342,35.969925790482556],[136.59657060512706,35.9697406784714],[136.59595189690708,35.96972302795927],[136.5959444921404,35.96990939810947]]]}},{"type":"Feature","properties":{"pid":"2a234726-b810-4618-85d7-9a4e0bd3013b"},"geometry":{"type":"Polygon","coordinates":[[[136.5959570690726,35.969626597337424],[136.59646531971592,35.96964203297766],[136.59657009186316,35.96964521500452],[136.59652466252692,35.96955706898711],[136.5964033569311,35.96948392749324],[136.5959666494758,35.969474900381556],[136.5959570690726,35.969626597337424]]]}},{"type":"Feature","properties":{"pid":"f8307c21-c55e-458c-9db8-e90e5907ff19"},"geometry":{"type":"Polygon","coordinates":[[[136.595113655752,35.97158653358821],[136.59511980976103,35.97130491527237],[136.59506978630824,35.97130235965871],[136.59501894991936,35.97137438668603],[136.59501597454047,35.971429744633014],[136.59498571705163,35.971475770604435],[136.595113655752,35.97158653358821]]]}},{"type":"Feature","properties":{"pid":"65b785ed-8c2d-4fbd-97fd-ae97cb25aaeb"},"geometry":{"type":"Polygon","coordinates":[[[136.59561464068315,35.97184345946011],[136.59568174107417,35.971805516590145],[136.5956925380392,35.971318977099656],[136.59562379252034,35.97132202992623],[136.59561464068315,35.97184345946011]]]}},{"type":"Feature","properties":{"pid":"6f7dca0c-3749-4242-b152-3a741f0d870f"},"geometry":{"type":"Polygon","coordinates":[[[136.59546962731866,35.97181499099019],[136.59549272582555,35.97131596534686],[136.59524700331812,35.971309800627054],[136.5952456400744,35.971609086732755],[136.59541432943465,35.97172522375456],[136.5954327058145,35.971799219748135],[136.59546962731866,35.97181499099019]]]}},{"type":"Feature","properties":{"pid":"95f02932-2056-4963-a81a-1f86bfa0676c"},"geometry":{"type":"Polygon","coordinates":[[[136.59647825819422,35.97129546259409],[136.5964853664056,35.97147123067572],[136.59668847245297,35.971421164440585],[136.5968094451407,35.971309195259686],[136.59647825819422,35.97129546259409]]]}},{"type":"Feature","properties":{"pid":"643b863f-d42b-4bf3-aaaf-f4e29a8ecac8"},"geometry":{"type":"Polygon","coordinates":[[[136.59614972772195,35.9715932864055],[136.59634439173107,35.97151846862405],[136.5963457626357,35.97130793375643],[136.5961451772455,35.9713031683277],[136.59614972772195,35.9715932864055]]]}},{"type":"Feature","properties":{"pid":"3c494139-1562-4a31-8c7f-920051881124"},"geometry":{"type":"Polygon","coordinates":[[[136.59589707152222,35.97172376593777],[136.59599244526882,35.97163900248462],[136.5959939794076,35.97133470297749],[136.59590141826658,35.97135005508207],[136.59589707152222,35.97172376593777]]]}},{"type":"Feature","properties":{"pid":"bbe36245-1599-4fda-8e89-c032b56d9f4f"},"geometry":{"type":"Polygon","coordinates":[[[136.5958874095671,35.97118463569704],[136.59599946596586,35.97120314413309],[136.59603069054435,35.97059784848009],[136.59592190212572,35.97059584536953],[136.5958874095671,35.97118463569704]]]}},{"type":"Feature","properties":{"pid":"65334ba9-6c51-497e-8afe-615fcf7775b9"},"geometry":{"type":"Polygon","coordinates":[[[136.59614866686695,35.97119762858907],[136.59634116481146,35.97120347381492],[136.59636137260077,35.970603132495775],[136.5961661860022,35.97059674199961],[136.59614866686695,35.97119762858907]]]}},{"type":"Feature","properties":{"pid":"b4918a5b-a072-47b4-b36b-eda661428bb6"},"geometry":{"type":"Polygon","coordinates":[[[136.5964800670351,35.9711974015477],[136.5968065611073,35.97121099399561],[136.5967786399398,35.971042479032555],[136.59672905218173,35.970974492405816],[136.59668283135633,35.97085998088356],[136.59668688390485,35.97069297949182],[136.5966242206522,35.97060463299314],[136.5965020270683,35.970602982875725],[136.5964800670351,35.9711974015477]]]}},{"type":"Feature","properties":{"pid":"1c2c5b75-b4cc-4a58-93d3-d8f32ee8ff52"},"geometry":{"type":"Polygon","coordinates":[[[136.595930692807,35.970455013989515],[136.5966134476738,35.970487381663126],[136.5966605913466,35.970443669162684],[136.59665807404983,35.97042079514306],[136.59653774860854,35.97029435612283],[136.59593574966587,35.97028174414527],[136.595930692807,35.970455013989515]]]}},{"type":"Feature","properties":{"pid":"93f025cb-fec0-4ab0-9087-c022843e70a8"},"geometry":{"type":"Polygon","coordinates":[[[136.59503100368482,35.97025386481976],[136.59502769070968,35.97034389661052],[136.59504702314518,35.9703984126984],[136.5957545561909,35.97045062626647],[136.59575121847593,35.97027481272265],[136.59503100368482,35.97025386481976]]]}},{"type":"Feature","properties":{"pid":"63d0e071-fb7b-4742-b8b0-d1bddaae8c28"},"geometry":{"type":"Polygon","coordinates":[[[136.59547623229366,35.97116702167018],[136.59571361261408,35.97117119518891],[136.59573459629124,35.97070740113382],[136.59572609353447,35.970607495791434],[136.59564289211318,35.97060431800312],[136.5955243363324,35.971006446582074],[136.59547303432637,35.9710586607501],[136.59547623229366,35.97116702167018]]]}},{"type":"Feature","properties":{"pid":"50e54f94-a59d-4435-9ba6-28c8e530f792"},"geometry":{"type":"Polygon","coordinates":[[[136.59509520264157,35.9711694712133],[136.59533577536206,35.97117682102908],[136.59532697356167,35.97108456041364],[136.5952523760964,35.97100430268818],[136.59521684366834,35.97092258947226],[136.59518757202937,35.97068039154976],[136.59515517466696,35.97058580407265],[136.59501247897865,35.97058726286469],[136.59503261376955,35.970906621633915],[136.59509520264157,35.9711694712133]]]}},{"type":"Feature","properties":{"pid":"fd0b9b2b-6723-41cf-ae52-47f914cd8ce6"},"geometry":{"type":"Polygon","coordinates":[[[136.59984635582813,35.963538027395444],[136.60026785753777,35.96337452334242],[136.59969871808545,35.96337532280099],[136.59984635582813,35.963538027395444]]]}}]}