{"type":"FeatureCollection","features":[{"type":"Feature","properties":{"pid":"b89c5685-8c6e-4db1-b871-fd42986f35a2","full":0.5},"geometry":{"type":"Polygon","coordinates":[[[135.79221,35.47372],[135.79241,35.47368],[135.79236,35.47354],[135.79217,35.47358],[135.79221,35.47372]]]}},{"type":"Feature","properties":{"pid":"db97f9d7-6840-4bf6-8029-ca11a56cfa0c","full":3.7},"geometry":{"type":"Polygon","coordinates":[[[135.79289,35.47385],[135.79348,35.47373],[135.79343,35.47357],[135.79284,35.47368],[135.79289,35.47385]]]}},{"type":"Feature","properties":{"pid":"dae59cc1-9966-490c-b354-78931d5ac2cd","full":10.9},"geometry":{"type":"Polygon","coordinates":[[[135.79282,35.4736],[135.7934,35.47348],[135.79332,35.47318],[135.79273,35.4733],[135.79282,35.4736]]]}},{"type":"Feature","properties":{"pid":"8d8a7227-adc6-439f-9ee0-4dddc473f7b1","full":3.1},"geometry":{"type":"Polygon","coordinates":[[[135.79224,35.47389],[135.79282,35.47377],[135.79278,35.47362],[135.79221,35.47374],[135.79224,35.47389]]]}},{"type":"Feature","properties":{"pid":"c5a901dc-9f0f-40c2-b3ca-94457aae1999","full":1.6},"geometry":{"type":"Polygon","coordinates":[[[135.79243,35.47368],[135.79278,35.4736],[135.79274,35.47346],[135.79238,35.47353],[135.79243,35.47368]]]}},{"type":"Feature","properties":{"pid":"4b2e9229-07c2-4f98-827d-41859b0413e2","full":3.0},"geometry":{"type":"Polygon","coordinates":[[[135.7927,35.47311],[135.79327,35.473],[135.79322,35.47285],[135.79263,35.47297],[135.79267,35.47309],[135.79269,35.47309],[135.7927,35.47311]]]}},{"type":"Feature","properties":{"pid":"58b8314e-dc18-44f4-b782-9ac4d4f4b046","full":2.9},"geometry":{"type":"Polygon","coordinates":[[[135.79345,35.47347],[135.79403,35.47336],[135.79398,35.47321],[135.79341,35.47332],[135.79345,35.47347]]]}},{"type":"Feature","properties":{"pid":"5e466a14-c42e-41d2-8da0-1a9312f34607","full":2.4},"geometry":{"type":"Polygon","coordinates":[[[135.7934,35.47331],[135.79398,35.4732],[135.79394,35.47307],[135.79337,35.47318],[135.7934,35.47331]]]}},{"type":"Feature","properties":{"pid":"8eb5c366-eaeb-4d0b-b29b-f5fde2a05e4f","full":2.3},"geometry":{"type":"Polygon","coordinates":[[[135.79335,35.47314],[135.79393,35.47303],[135.79389,35.47289],[135.79331,35.473],[135.79335,35.47314]]]}},{"type":"Feature","properties":{"pid":"3c89a443-cb58-40b5-88e4-8f5f47bb7a70","full":2.9},"geometry":{"type":"Polygon","coordinates":[[[135.79331,35.47299],[135.79388,35.47288],[135.79383,35.47273],[135.79327,35.47284],[135.79331,35.47299]]]}},{"type":"Feature","properties":{"pid":"67ca2472-1d33-45bb-9c0c-9cf88f4ca3ff","full":2.8},"geometry":{"type":"Polygon","coordinates":[[[135.79381,35.47269],[135.79377,35.47258],[135.79322,35.47268],[135.79327,35.47283],[135.7938,35.47273],[135.79381,35.47269]]]}},{"type":"Feature","properties":{"pid":"8e465b3d-c722-47f3-a0dc-06ff1a2f5209","full":1.3},"geometry":{"type":"Polygon","coordinates":[[[135.79322,35.47268],[135.79348,35.47263],[135.79344,35.47246],[135.79317,35.47252],[135.79322,35.47268]]]}},{"type":"Feature","properties":{"pid":"64638cca-ec0b-4aed-950e-511eba259ac4","full":3.0},"geometry":{"type":"Polygon","coordinates":[[[135.79312,35.47247],[135.79308,35.47235],[135.7925,35.47246],[135.79254,35.47261],[135.7931,35.4725],[135.79311,35.47248],[135.79312,35.47247]]]}},{"type":"Feature","properties":{"pid":"3ad76723-5896-4394-967a-a4ae07bdd6c2","full":3.6},"geometry":{"type":"Polygon","coordinates":[[[135.79259,35.4728],[135.79317,35.47268],[135.79313,35.47252],[135.79254,35.47264],[135.79259,35.4728]]]}},{"type":"Feature","properties":{"pid":"3ad17569-5c58-40bd-810e-382de4d3d54f","full":3.2},"geometry":{"type":"Polygon","coordinates":[[[135.79263,35.47296],[135.79321,35.47284],[135.79317,35.47269],[135.79258,35.47281],[135.79263,35.47296]]]}},{"type":"Feature","properties":{"pid":"e575a760-8c3a-46bd-a3fa-d3277112c039","full":27.3},"geometry":{"type":"Polygon","coordinates":[[[135.79217,35.47357],[135.79272,35.47345],[135.7925,35.47266],[135.79217,35.47272],[135.79214,35.47289],[135.79213,35.47302],[135.79213,35.47314],[135.79213,35.47331],[135.79217,35.47357]]]}},{"type":"Feature","properties":{"pid":"fde1e2ca-c46a-4b67-a961-ad456e679383","full":2.8},"geometry":{"type":"Polygon","coordinates":[[[135.79217,35.47268],[135.79248,35.47263],[135.79238,35.47226],[135.79235,35.47225],[135.79229,35.47232],[135.79219,35.47252],[135.79217,35.47268]]]}},{"type":"Feature","properties":{"pid":"e2f14dd9-1589-45cc-a6a7-384269d6c379","full":17.3},"geometry":{"type":"Polygon","coordinates":[[[135.79206,35.47141],[135.79214,35.47137],[135.79247,35.47123],[135.79214,35.47081],[135.79194,35.47094],[135.79181,35.4711],[135.79181,35.47158],[135.79206,35.47141]]]}},{"type":"Feature","properties":{"pid":"a194940d-92a6-406e-8eb0-18d3bb797135","full":14.6},"geometry":{"type":"Polygon","coordinates":[[[135.79228,35.47068],[135.79215,35.4708],[135.79249,35.47122],[135.79288,35.47107],[135.79242,35.47056],[135.79232,35.47063],[135.79228,35.47068]]]}},{"type":"Feature","properties":{"pid":"bedd192b-26b4-4e5c-84cb-af5ef3ae4ff8","full":8.3},"geometry":{"type":"Polygon","coordinates":[[[135.79289,35.47107],[135.79311,35.47096],[135.79265,35.47041],[135.79244,35.47054],[135.79289,35.47107]]]}},{"type":"Feature","properties":{"pid":"3504319f-6cf2-4128-991d-1a5d03cc251a","full":2.8},"geometry":{"type":"Polygon","coordinates":[[[135.79303,35.472],[135.79353,35.47191],[135.79349,35.47176],[135.79298,35.47185],[135.79303,35.472]]]}},{"type":"Feature","properties":{"pid":"5235da14-422b-41cb-a6a9-b99bc28902cf","full":1.0},"geometry":{"type":"Polygon","coordinates":[[[135.79298,35.47185],[135.79349,35.47175],[135.79344,35.47161],[135.79306,35.47173],[135.79297,35.47179],[135.79298,35.47185]]]}},{"type":"Feature","properties":{"pid":"4108658b-5dde-472e-8204-d054686d5e46","full":2.9},"geometry":{"type":"Polygon","coordinates":[[[135.79246,35.47229],[135.79304,35.47218],[135.793,35.47203],[135.7924,35.47215],[135.79244,35.47228],[135.79246,35.47227],[135.79246,35.47229]]]}},{"type":"Feature","properties":{"pid":"a4e97e2e-9e97-4f50-a1f7-50807ed11f0d","full":3.2},"geometry":{"type":"Polygon","coordinates":[[[135.79249,35.47245],[135.79308,35.47234],[135.79304,35.47219],[135.79245,35.4723],[135.79249,35.47245]]]}},{"type":"Feature","properties":{"pid":"9c2ed4a1-cde7-4428-8d18-0eddba20e741","full":2.0},"geometry":{"type":"Polygon","coordinates":[[[135.79308,35.47215],[135.79357,35.47205],[135.79353,35.47192],[135.79303,35.47201],[135.79308,35.47215]]]}},{"type":"Feature","properties":{"pid":"4948de36-195c-4742-8608-32857adcb9b0","full":5.9},"geometry":{"type":"Polygon","coordinates":[[[135.79456,35.47261],[135.79506,35.47251],[135.79499,35.47228],[135.79449,35.47238],[135.79456,35.47261]]]}},{"type":"Feature","properties":{"pid":"2f309eae-b7f0-408e-a064-80f524f7032b","full":0.7},"geometry":{"type":"Polygon","coordinates":[[[135.79499,35.47225],[135.79496,35.47217],[135.79446,35.47227],[135.79449,35.47237],[135.79497,35.47228],[135.79496,35.47225],[135.79499,35.47225]]]}},{"type":"Feature","properties":{"pid":"8fc18ff1-f1cc-49fc-b247-b58ada9f0149","full":10.5},"geometry":{"type":"Polygon","coordinates":[[[135.79496,35.47212],[135.79487,35.47182],[135.79436,35.47192],[135.79446,35.47226],[135.79495,35.47216],[135.79494,35.47213],[135.79496,35.47212]]]}},{"type":"Feature","properties":{"pid":"4d22fee8-144a-4230-b473-5dc80c3e27de","full":17.2},"geometry":{"type":"Polygon","coordinates":[[[135.79371,35.4719],[135.79404,35.47184],[135.79421,35.47164],[135.7941,35.47121],[135.79406,35.47121],[135.79396,35.47127],[135.79362,35.47153],[135.79371,35.4719]]]}},{"type":"Feature","properties":{"pid":"9702cd28-db5e-4cc3-b17a-b07a74f28093","full":1.4},"geometry":{"type":"Polygon","coordinates":[[[135.79414,35.47116],[135.79463,35.47107],[135.79475,35.4709],[135.79437,35.47097],[135.79414,35.47116]]]}},{"type":"Feature","properties":{"pid":"059d9c87-d052-48ef-9677-63fbf8e92b2b","full":1.3},"geometry":{"type":"Polygon","coordinates":[[[135.7944,35.47096],[135.79476,35.47089],[135.79488,35.47074],[135.79484,35.47073],[135.79461,35.47075],[135.7944,35.47096]]]}},{"type":"Feature","properties":{"pid":"dac839d8-1d7d-4430-b7d7-ee3d2ad22f63","full":1.3},"geometry":{"type":"Polygon","coordinates":[[[135.79417,35.47131],[135.79449,35.47125],[135.79462,35.47108],[135.79415,35.47118],[135.79417,35.47131]]]}},{"type":"Feature","properties":{"pid":"7be486b9-5b4c-4d92-a376-e4d9882c49b6","full":12.7},"geometry":{"type":"Polygon","coordinates":[[[135.79486,35.47178],[135.79469,35.47122],[135.79468,35.47121],[135.7943,35.4717],[135.79435,35.4719],[135.79485,35.4718],[135.79484,35.47179],[135.79486,35.47178]]]}},{"type":"Feature","properties":{"pid":"54c391e4-cb9e-41c3-8ce9-6ba39a0cc70f","full":22.4},"geometry":{"type":"Polygon","coordinates":[[[135.79573,35.47164],[135.79561,35.47125],[135.79484,35.4714],[135.79495,35.47181],[135.79573,35.47164]]]}},{"type":"Feature","properties":{"pid":"fe99877b-5595-4933-a09c-dd4a74d7772e","full":13.5},"geometry":{"type":"Polygon","coordinates":[[[135.79561,35.47122],[135.79554,35.47098],[135.79552,35.47095],[135.79478,35.47109],[135.79476,35.47112],[135.79483,35.47137],[135.79561,35.47122]]]}},{"type":"Feature","properties":{"pid":"2d7317cf-01b9-4fab-b387-1736251a7fbe","full":43.5},"geometry":{"type":"Polygon","coordinates":[[[135.79631,35.47064],[135.79627,35.47061],[135.79624,35.47062],[135.79558,35.47093],[135.79592,35.47204],[135.79599,35.47205],[135.79622,35.4717],[135.79625,35.47165],[135.79628,35.47158],[135.79629,35.47151],[135.79628,35.47142],[135.7962,35.47113],[135.7962,35.47107],[135.79621,35.47093],[135.79622,35.47086],[135.79631,35.47064]]]}},{"type":"Feature","properties":{"pid":"8d8eeee4-7826-460d-9ac9-286eeef4e55b","full":38.1},"geometry":{"type":"Polygon","coordinates":[[[135.79574,35.47167],[135.79495,35.47184],[135.79514,35.47245],[135.79579,35.47232],[135.79584,35.47227],[135.79588,35.4722],[135.79589,35.47218],[135.79574,35.47167]]]}},{"type":"Feature","properties":{"pid":"81f983d7-6313-4421-a232-99d6320f1ebc","full":18.0},"geometry":{"type":"Polygon","coordinates":[[[135.79545,35.47354],[135.79637,35.47337],[135.79603,35.47308],[135.79535,35.47321],[135.79545,35.47354]]]}},{"type":"Feature","properties":{"pid":"04fdc15c-14bd-4867-97fa-74980830b690","full":10.9},"geometry":{"type":"Polygon","coordinates":[[[135.79524,35.47284],[135.7957,35.47275],[135.79569,35.47265],[135.7957,35.47257],[135.79578,35.47237],[135.79514,35.4725],[135.79524,35.47284]]]}},{"type":"Feature","properties":{"pid":"2a00d6ba-9553-4eb6-8757-06c452ad3cfe","full":10.2},"geometry":{"type":"Polygon","coordinates":[[[135.79515,35.47282],[135.79506,35.47252],[135.79456,35.47262],[135.79465,35.47295],[135.79514,35.47286],[135.79513,35.47282],[135.79515,35.47282]]]}},{"type":"Feature","properties":{"pid":"d8126291-59fc-437b-82c6-4d45b83aefcb","full":2.8},"geometry":{"type":"Polygon","coordinates":[[[135.79396,35.47271],[135.79451,35.47259],[135.79447,35.47245],[135.79393,35.47255],[135.79396,35.47271]]]}},{"type":"Feature","properties":{"pid":"d7fb06f9-a8fd-4bbb-9add-3f0962291645","full":2.9},"geometry":{"type":"Polygon","coordinates":[[[135.79401,35.47286],[135.79456,35.47275],[135.79452,35.4726],[135.79396,35.47271],[135.79401,35.47286]]]}},{"type":"Feature","properties":{"pid":"1983f5a1-88fa-47d3-bf87-042d3beb7138","full":3.1},"geometry":{"type":"Polygon","coordinates":[[[135.79405,35.47302],[135.79461,35.47292],[135.79456,35.47276],[135.79401,35.47287],[135.79401,35.47291],[135.79405,35.47302]]]}},{"type":"Feature","properties":{"pid":"99ea6fce-2782-4839-bc65-eaabc7cd86fb","full":3.1},"geometry":{"type":"Polygon","coordinates":[[[135.7941,35.47319],[135.79465,35.47308],[135.79461,35.47292],[135.79405,35.47303],[135.7941,35.47319]]]}},{"type":"Feature","properties":{"pid":"80230866-9046-403c-81e7-2fe58c148ef0","full":7.4},"geometry":{"type":"Polygon","coordinates":[[[135.79523,35.47309],[135.79516,35.47287],[135.79465,35.47297],[135.79472,35.47323],[135.79523,35.47313],[135.79522,35.4731],[135.79523,35.47309]]]}},{"type":"Feature","properties":{"pid":"dfda4687-50bb-44c9-8024-e056f38c8d05","full":2.7},"geometry":{"type":"Polygon","coordinates":[[[135.79528,35.47326],[135.79525,35.47313],[135.79473,35.47324],[135.79477,35.47339],[135.79526,35.47329],[135.79525,35.47326],[135.79528,35.47326]]]}},{"type":"Feature","properties":{"pid":"84bbeaab-ac5b-41a3-9516-b67e9b655d88","full":13.9},"geometry":{"type":"Polygon","coordinates":[[[135.7936,35.4739],[135.79413,35.4738],[135.79415,35.47378],[135.79405,35.47343],[135.79347,35.47354],[135.79357,35.47388],[135.79359,35.47388],[135.7936,35.4739]]]}},{"type":"Feature","properties":{"pid":"6018163b-90d0-4875-be15-f27914078c05","full":2.6},"geometry":{"type":"Polygon","coordinates":[[[135.79533,35.47341],[135.79529,35.4733],[135.79477,35.47339],[135.79482,35.47354],[135.79532,35.47345],[135.79531,35.47341],[135.79533,35.47341]]]}},{"type":"Feature","properties":{"pid":"d4d5a0cc-7fe3-4c41-87d6-04f32b16851b","full":24.9},"geometry":{"type":"Polygon","coordinates":[[[135.79556,35.4739],[135.79671,35.47368],[135.79639,35.47338],[135.79546,35.47356],[135.79556,35.4739]]]}},{"type":"Feature","properties":{"pid":"6d1e1c79-fd52-4968-9210-695fac4a9960","full":68.4},"geometry":{"type":"Polygon","coordinates":[[[135.79784,35.46977],[135.79753,35.46935],[135.79689,35.46964],[135.79604,35.47007],[135.79608,35.47014],[135.79634,35.47051],[135.79784,35.46977]]]}},{"type":"Feature","properties":{"pid":"d0b91ea4-2c4c-4042-98dc-8f00df9a1286","full":30.5},"geometry":{"type":"Polygon","coordinates":[[[135.79708,35.46945],[135.79679,35.46905],[135.79664,35.46916],[135.79651,35.46924],[135.79625,35.46945],[135.79591,35.46974],[135.79585,35.46981],[135.79597,35.46997],[135.79598,35.46998],[135.79708,35.46945]]]}},{"type":"Feature","properties":{"pid":"5b067b8c-dd4b-4d2c-b423-dd76c7709185","full":13.2},"geometry":{"type":"Polygon","coordinates":[[[135.79711,35.46944],[135.79748,35.46926],[135.79714,35.46881],[135.79681,35.46902],[135.79711,35.46944]]]}},{"type":"Feature","properties":{"pid":"884edd96-ce3f-468c-8981-0a895b59a8b9","full":0.7},"geometry":{"type":"Polygon","coordinates":[[[135.79811,35.46964],[135.79823,35.46958],[135.79803,35.46932],[135.79792,35.46938],[135.79811,35.46964]]]}},{"type":"Feature","properties":{"pid":"77fd86ad-76dc-4a6e-9df7-941609b7da9f","full":6.3},"geometry":{"type":"Polygon","coordinates":[[[135.79787,35.46976],[135.79808,35.46965],[135.79776,35.46922],[135.79754,35.46933],[135.79785,35.46976],[135.79787,35.46976]]]}},{"type":"Feature","properties":{"pid":"73a63b6d-b6de-446f-8896-618f4d1262a5","full":3.0},"geometry":{"type":"Polygon","coordinates":[[[135.79824,35.46958],[135.79841,35.46949],[135.79818,35.46918],[135.79815,35.46919],[135.79812,35.46918],[135.7981,35.46916],[135.79813,35.46913],[135.79792,35.46915],[135.79824,35.46958]]]}},{"type":"Feature","properties":{"pid":"1e82157f-aadb-40b7-9eba-a10a9e432099","full":55.3},"geometry":{"type":"Polygon","coordinates":[[[135.79821,35.47037],[135.79835,35.47031],[135.79846,35.47023],[135.79855,35.47023],[135.79859,35.47023],[135.79873,35.47016],[135.7988,35.47008],[135.79881,35.47005],[135.79878,35.46968],[135.79865,35.46952],[135.79863,35.46951],[135.79847,35.46959],[135.79779,35.46991],[135.79742,35.4701],[135.79757,35.47031],[135.79761,35.47034],[135.79781,35.47037],[135.79792,35.47036],[135.79812,35.47038],[135.79821,35.47037]]]}},{"type":"Feature","properties":{"pid":"9445f3f2-3b54-419a-b6fd-be38bbeb495c","full":0.7},"geometry":{"type":"Polygon","coordinates":[[[135.79883,35.47005],[135.79894,35.47003],[135.79904,35.46998],[135.79879,35.46966],[135.79883,35.47005]]]}},{"type":"Feature","properties":{"pid":"e33092ea-cd3e-4af0-b0b2-13c98e820aa7","full":4.4},"geometry":{"type":"Polygon","coordinates":[[[135.79919,35.46966],[135.79926,35.46959],[135.79916,35.4695],[135.79897,35.46962],[135.7989,35.46956],[135.79886,35.4696],[135.79877,35.46952],[135.79871,35.46949],[135.79869,35.4695],[135.79906,35.46997],[135.79915,35.46989],[135.79916,35.46982],[135.79922,35.46974],[135.79919,35.46966]]]}},{"type":"Feature","properties":{"pid":"ab0338ad-ec8e-44d4-be09-b1aea6fb9809","full":3.1},"geometry":{"type":"Polygon","coordinates":[[[135.80006,35.46838],[135.80014,35.46828],[135.80018,35.46825],[135.7999,35.46802],[135.79975,35.46823],[135.80006,35.46838]]]}},{"type":"Feature","properties":{"pid":"af69a38f-2cb2-4e2d-95e0-2b9920970361","full":4.6},"geometry":{"type":"Polygon","coordinates":[[[135.79977,35.46765],[135.79963,35.46776],[135.80023,35.46826],[135.80033,35.46814],[135.79977,35.46765]]]}},{"type":"Feature","properties":{"pid":"e909919b-a6bf-43f7-9c0a-d455903e57e9","full":3.0},"geometry":{"type":"Polygon","coordinates":[[[135.79923,35.46797],[135.79945,35.46778],[135.79926,35.46768],[135.79894,35.46782],[135.79923,35.46797]]]}},{"type":"Feature","properties":{"pid":"d0f43a2e-a638-4d85-bc4d-3897e2bc6058","full":29.9},"geometry":{"type":"Polygon","coordinates":[[[135.79878,35.46706],[135.79849,35.46688],[135.79757,35.46762],[135.79751,35.46786],[135.79753,35.46788],[135.79806,35.46759],[135.79837,35.46744],[135.79896,35.46719],[135.79878,35.46706]]]}},{"type":"Feature","properties":{"pid":"d587de3f-a571-4eca-be41-9f6a83a751e8","full":2.0},"geometry":{"type":"Polygon","coordinates":[[[135.79765,35.46878],[135.79785,35.46906],[135.79795,35.46901],[135.79801,35.46896],[135.79767,35.4685],[135.79759,35.46855],[135.79774,35.46873],[135.79765,35.46878]]]}},{"type":"Feature","properties":{"pid":"49a747d7-1b10-4ff9-b87e-2e08a53bf7e2","full":14.1},"geometry":{"type":"Polygon","coordinates":[[[135.79749,35.46925],[135.79784,35.46906],[135.7975,35.4686],[135.79715,35.4688],[135.79749,35.46925]]]}},{"type":"Feature","properties":{"pid":"953a8312-a72e-4479-aa30-1ca45e489c94","full":10.2},"geometry":{"type":"Polygon","coordinates":[[[135.79717,35.46735],[135.79697,35.46718],[135.79678,35.46732],[135.7965,35.46741],[135.79649,35.46742],[135.79655,35.46757],[135.79652,35.46759],[135.79668,35.46775],[135.79696,35.46753],[135.79717,35.46735]]]}},{"type":"Feature","properties":{"pid":"85a6b875-758a-4144-9165-f068705be435","full":2.5},"geometry":{"type":"Polygon","coordinates":[[[135.79506,35.46904],[135.79529,35.46886],[135.79509,35.46869],[135.7949,35.46878],[135.79499,35.4689],[135.79506,35.46904]]]}},{"type":"Feature","properties":{"pid":"2cfb8089-43fb-4a00-baf4-91189cfacb21","full":36.0},"geometry":{"type":"Polygon","coordinates":[[[135.79607,35.46823],[135.79571,35.46794],[135.79562,35.46788],[135.79553,35.4679],[135.79525,35.46811],[135.79517,35.46817],[135.79514,35.46827],[135.79515,35.46832],[135.79509,35.46843],[135.79513,35.46854],[135.79515,35.46857],[135.79541,35.46877],[135.79607,35.46823]]]}},{"type":"Feature","properties":{"pid":"ca149d15-58a5-435d-96d8-7f953c0bd111","full":32.4},"geometry":{"type":"Polygon","coordinates":[[[135.79671,35.46788],[135.79668,35.46786],[135.79548,35.46882],[135.79572,35.469],[135.79602,35.46877],[135.79681,35.46828],[135.79674,35.46802],[135.79671,35.46788]]]}},{"type":"Feature","properties":{"pid":"c4daa845-3360-4075-a07e-b1440b6cabd8","full":5.2},"geometry":{"type":"Polygon","coordinates":[[[135.79522,35.46936],[135.79556,35.46909],[135.79532,35.4689],[135.79509,35.46909],[135.79522,35.46936]]]}},{"type":"Feature","properties":{"pid":"47cb4837-2b8d-4dcc-9fd9-10c8ecaeb90d","full":7.1},"geometry":{"type":"Polygon","coordinates":[[[135.79606,35.47064],[135.79629,35.47053],[135.79596,35.47007],[135.79573,35.47019],[135.79606,35.47064]]]}},{"type":"Feature","properties":{"pid":"56b94ebb-d4ed-4e49-8d2e-e3bae478e309","full":1.5},"geometry":{"type":"Polygon","coordinates":[[[135.79593,35.47071],[135.79605,35.47065],[135.79571,35.47019],[135.79559,35.47025],[135.79593,35.47071]]]}},{"type":"Feature","properties":{"pid":"da70c5b4-faf5-46f0-a5bc-e41f0325ec01","full":14.4},"geometry":{"type":"Polygon","coordinates":[[[135.79555,35.4709],[135.79592,35.47072],[135.7956,35.47028],[135.79558,35.47029],[135.79555,35.47027],[135.79536,35.47037],[135.79522,35.47047],[135.79555,35.4709]]]}},{"type":"Feature","properties":{"pid":"72e8b5c9-7e46-4fb0-a92e-a8025f42be3c","full":0.6},"geometry":{"type":"Polygon","coordinates":[[[135.79491,35.4707],[135.79512,35.47038],[135.79503,35.47032],[135.79486,35.47049],[135.79489,35.47069],[135.79491,35.4707]]]}},{"type":"Feature","properties":{"pid":"c7acbf49-855d-4f92-a4c0-4181a6fb572d","full":6.8},"geometry":{"type":"Polygon","coordinates":[[[135.79362,35.46995],[135.79405,35.47049],[135.79412,35.47044],[135.79422,35.47035],[135.7938,35.46984],[135.79364,35.46993],[135.79363,35.46995],[135.79362,35.46995]]]}},{"type":"Feature","properties":{"pid":"67823b2b-e857-4f51-a66d-5e97f956e46e","full":5.0},"geometry":{"type":"Polygon","coordinates":[[[135.79396,35.46975],[135.79381,35.46983],[135.79422,35.47034],[135.79437,35.47021],[135.79399,35.46975],[135.79398,35.46976],[135.79396,35.46975]]]}},{"type":"Feature","properties":{"pid":"1a345fba-34c6-401c-9522-6fbb09956178","full":4.2},"geometry":{"type":"Polygon","coordinates":[[[135.794,35.46974],[135.79438,35.4702],[135.79451,35.47007],[135.79417,35.46964],[135.79402,35.46972],[135.79402,35.46974],[135.794,35.46974]]]}},{"type":"Feature","properties":{"pid":"79541cc9-e205-4d0d-9b7d-b4420ebd14a1","full":9.2},"geometry":{"type":"Polygon","coordinates":[[[135.7942,35.46927],[135.79411,35.46924],[135.79408,35.46924],[135.79401,35.46928],[135.79394,35.46935],[135.79375,35.4694],[135.79393,35.46966],[135.79462,35.46931],[135.79454,35.46923],[135.79449,35.46925],[135.79426,35.46927],[135.7942,35.46927]]]}},{"type":"Feature","properties":{"pid":"e8763ad4-cac6-4804-9388-0c21e605d7e6","full":4.2},"geometry":{"type":"Polygon","coordinates":[[[135.79452,35.47006],[135.79467,35.46993],[135.79436,35.46954],[135.79418,35.46963],[135.79452,35.47006]]]}},{"type":"Feature","properties":{"pid":"7394c96e-8dfb-4615-8a19-93ac6be6c926","full":2.4},"geometry":{"type":"Polygon","coordinates":[[[135.79468,35.46992],[135.79479,35.46981],[135.79452,35.46944],[135.79436,35.46952],[135.79468,35.46992]]]}},{"type":"Feature","properties":{"pid":"ccb452c2-e257-49b1-aaf9-6904b6a6f97a","full":0.5},"geometry":{"type":"Polygon","coordinates":[[[135.7948,35.4698],[135.79489,35.46972],[135.79464,35.46938],[135.79453,35.46943],[135.7948,35.4698]]]}},{"type":"Feature","properties":{"pid":"d451415d-31f1-45cb-a5d4-335e7ce21f5d","full":4.0},"geometry":{"type":"Polygon","coordinates":[[[135.7949,35.46971],[135.79514,35.46951],[135.79505,35.46934],[135.79486,35.4694],[135.79478,35.4693],[135.79465,35.46937],[135.7949,35.46971]]]}},{"type":"Feature","properties":{"pid":"a615c872-b7d3-4cff-b91c-d1ab12905261","full":2.9},"geometry":{"type":"Polygon","coordinates":[[[135.79333,35.46999],[135.7935,35.46989],[135.79326,35.46958],[135.79307,35.46965],[135.79333,35.46999]]]}},{"type":"Feature","properties":{"pid":"16a4ef87-1a69-4853-b93e-4dff356b78be","full":8.3},"geometry":{"type":"Polygon","coordinates":[[[135.79328,35.46956],[135.79349,35.46982],[135.79355,35.46979],[135.79359,35.46984],[135.79391,35.46967],[135.79373,35.46941],[135.7936,35.46946],[135.7934,35.46952],[135.79328,35.46956]]]}},{"type":"Feature","properties":{"pid":"d9f3ec86-9273-45e8-b07a-857a8c905b2c","full":2.2},"geometry":{"type":"Polygon","coordinates":[[[135.79317,35.47007],[135.79332,35.46999],[135.79306,35.46965],[135.79299,35.46967],[135.79287,35.46967],[135.79317,35.47007]]]}},{"type":"Feature","properties":{"pid":"0a2de6b3-6ca0-413f-835f-49edd67f8ccf","full":3.8},"geometry":{"type":"Polygon","coordinates":[[[135.79388,35.4706],[135.79402,35.47051],[135.79357,35.46996],[135.79343,35.47003],[135.79388,35.4706]]]}},{"type":"Feature","properties":{"pid":"6fd540f2-36ef-4ae8-8df8-b97eb9e39a86","full":16.2},"geometry":{"type":"Polygon","coordinates":[[[135.79341,35.47081],[135.79387,35.47061],[135.79342,35.47004],[135.7932,35.47016],[135.79341,35.47081]]]}},{"type":"Feature","properties":{"pid":"a9d91627-1bbd-4bb8-83b5-74a871ce5b80","full":11.3},"geometry":{"type":"Polygon","coordinates":[[[135.79312,35.47095],[135.79326,35.47088],[135.79307,35.47024],[135.79305,35.47021],[135.79267,35.47041],[135.79312,35.47095]]]}},{"type":"Feature","properties":{"pid":"fe55fdc6-0a7a-4775-933a-5eb74ad4d0ad","full":4.2},"geometry":{"type":"Polygon","coordinates":[[[135.79241,35.4705],[135.79302,35.47018],[135.79294,35.47001],[135.79244,35.47028],[135.79244,35.47038],[135.79241,35.4705]]]}},{"type":"Feature","properties":{"pid":"fd6d2e4f-3817-47cd-9cf3-3b7e8d2f6cf4","full":3.2},"geometry":{"type":"Polygon","coordinates":[[[135.79243,35.47027],[135.79293,35.47],[135.79283,35.46987],[135.79232,35.47014],[135.79241,35.47023],[135.79243,35.47027]]]}},{"type":"Feature","properties":{"pid":"fa9f34a2-5e30-4273-855b-29eb7b7f9720","full":3.4},"geometry":{"type":"Polygon","coordinates":[[[135.79229,35.47013],[135.79282,35.46984],[135.79271,35.46971],[135.79221,35.46999],[135.7922,35.47003],[135.79222,35.47009],[135.79226,35.47012],[135.79229,35.47013]]]}},{"type":"Feature","properties":{"pid":"b3cd1398-5d3b-44e3-b57f-4e7c2e3cfacb","full":3.0},"geometry":{"type":"Polygon","coordinates":[[[135.79219,35.46996],[135.79269,35.46969],[135.79259,35.46957],[135.7921,35.46982],[135.79219,35.46996]]]}},{"type":"Feature","properties":{"pid":"090b2c28-a47f-496b-b75f-17582e773d43","full":3.0},"geometry":{"type":"Polygon","coordinates":[[[135.79209,35.4698],[135.79257,35.46954],[135.79246,35.46942],[135.79243,35.46944],[135.79242,35.46944],[135.79198,35.46967],[135.79202,35.46974],[135.79209,35.4698]]]}},{"type":"Feature","properties":{"pid":"2d577b83-418f-4a7b-9bb9-52c64c3fb42a","full":3.2},"geometry":{"type":"Polygon","coordinates":[[[135.79195,35.46966],[135.79244,35.46939],[135.79234,35.46926],[135.79185,35.46952],[135.79187,35.46959],[135.79195,35.46966]]]}},{"type":"Feature","properties":{"pid":"cd91c1de-1eef-4f84-a071-66dd348bc2c4","full":2.9},"geometry":{"type":"Polygon","coordinates":[[[135.79183,35.46949],[135.79231,35.46924],[135.79221,35.46911],[135.79176,35.46933],[135.79181,35.4694],[135.79183,35.46949]]]}},{"type":"Feature","properties":{"pid":"73e28e23-e6b4-4fcd-88ce-eb8d0c6f80f7","full":2.9},"geometry":{"type":"Polygon","coordinates":[[[135.79174,35.46931],[135.79219,35.46909],[135.79219,35.46907],[135.7921,35.46895],[135.79165,35.46918],[135.79165,35.46921],[135.79167,35.46924],[135.79172,35.4693],[135.79174,35.46931]]]}},{"type":"Feature","properties":{"pid":"19a0e493-a2e5-451b-a5f3-8ca35180c379","full":2.5},"geometry":{"type":"Polygon","coordinates":[[[135.79165,35.46916],[135.79194,35.46901],[135.79209,35.46893],[135.79198,35.46881],[135.79158,35.46901],[135.79161,35.46911],[135.79165,35.46916]]]}},{"type":"Feature","properties":{"pid":"88131502-839a-44bd-a405-148d22b6feee","full":2.5},"geometry":{"type":"Polygon","coordinates":[[[135.79157,35.46899],[135.79197,35.46879],[135.79186,35.46865],[135.79149,35.46883],[135.79157,35.46899]]]}},{"type":"Feature","properties":{"pid":"c03d80b8-8add-4a5f-8d8d-ffcb7401eab6","full":1.6},"geometry":{"type":"Polygon","coordinates":[[[135.79147,35.4688],[135.79184,35.46863],[135.79175,35.46851],[135.79143,35.46866],[135.79142,35.4687],[135.79142,35.46874],[135.79147,35.4688]]]}},{"type":"Feature","properties":{"pid":"943796a8-4155-4e8c-a3ff-1be9e71a3ae6","full":2.5},"geometry":{"type":"Polygon","coordinates":[[[135.79196,35.46857],[135.79234,35.46837],[135.79235,35.46835],[135.79225,35.46822],[135.79185,35.46844],[135.79196,35.46857]]]}},{"type":"Feature","properties":{"pid":"f61fb1f0-0a20-4106-a284-620e85aa1e8e","full":1.6},"geometry":{"type":"Polygon","coordinates":[[[135.79184,35.46843],[135.79225,35.4682],[135.79217,35.4681],[135.7918,35.46828],[135.79176,35.46832],[135.79184,35.46843]]]}},{"type":"Feature","properties":{"pid":"f51e08ca-aa1d-4c2c-9113-ce57136dc888","full":2.7},"geometry":{"type":"Polygon","coordinates":[[[135.79209,35.46872],[135.79251,35.4685],[135.79241,35.46838],[135.79239,35.46837],[135.79198,35.46859],[135.79209,35.46872]]]}},{"type":"Feature","properties":{"pid":"07165911-7aa2-43d9-9b0a-5f496e0d88fb","full":0.9},"geometry":{"type":"Polygon","coordinates":[[[135.79234,35.46902],[135.79256,35.4689],[135.79253,35.46887],[135.79249,35.46877],[135.79224,35.46889],[135.79234,35.46902]]]}},{"type":"Feature","properties":{"pid":"de5dceb9-6056-4b09-8743-b61b266c16a0","full":3.7},"geometry":{"type":"Polygon","coordinates":[[[135.78428,35.47105],[135.78453,35.47101],[135.78442,35.47056],[135.78426,35.47057],[135.78428,35.47105]]]}},{"type":"Feature","properties":{"pid":"aa7bfcb5-d54c-4668-ac83-372262e6badc","full":9.9},"geometry":{"type":"Polygon","coordinates":[[[135.78371,35.47098],[135.78422,35.47091],[135.7842,35.47059],[135.78364,35.47067],[135.78371,35.47098]]]}},{"type":"Feature","properties":{"pid":"89ffd04a-d17a-4977-ab9f-238fb83ef800","full":4.8},"geometry":{"type":"Polygon","coordinates":[[[135.78375,35.4712],[135.78424,35.47113],[135.78422,35.47092],[135.78371,35.47099],[135.78375,35.4712]]]}},{"type":"Feature","properties":{"pid":"c42c340a-51d6-4c7b-8670-e4dd4243c24f","full":3.7},"geometry":{"type":"Polygon","coordinates":[[[135.78381,35.47136],[135.78443,35.47127],[135.78439,35.47108],[135.78425,35.4711],[135.78426,35.47114],[135.78376,35.47121],[135.78379,35.47134],[135.7838,35.47134],[135.78381,35.47136]]]}},{"type":"Feature","properties":{"pid":"4979baa5-72cc-41bd-9507-f974fc1db7f6","full":6.1},"geometry":{"type":"Polygon","coordinates":[[[135.78379,35.47138],[135.78383,35.47156],[135.78451,35.47147],[135.78448,35.47141],[135.7845,35.47137],[135.78464,35.47136],[135.78463,35.47125],[135.78381,35.47137],[135.78381,35.47138],[135.78379,35.47138]]]}},{"type":"Feature","properties":{"pid":"80ed429a-c4bd-4600-9540-4c485669434a","full":2.9},"geometry":{"type":"Polygon","coordinates":[[[135.78394,35.47207],[135.78466,35.47196],[135.78464,35.47183],[135.78391,35.47193],[135.78394,35.47207]]]}},{"type":"Feature","properties":{"pid":"e0709b1f-274a-48c9-921d-0286e1621e01","full":6.2},"geometry":{"type":"Polygon","coordinates":[[[135.78391,35.47192],[135.78464,35.47182],[135.78463,35.47173],[135.78458,35.47164],[135.78388,35.47174],[135.78391,35.47192]]]}},{"type":"Feature","properties":{"pid":"28ebd906-23f0-46cf-823a-03be6ece4e8e","full":3.9},"geometry":{"type":"Polygon","coordinates":[[[135.78387,35.47173],[135.7846,35.47162],[135.78453,35.47148],[135.78384,35.47157],[135.78387,35.47173]]]}},{"type":"Feature","properties":{"pid":"8b66b9cb-dfa9-4bc8-a7e3-d7f6a3ea2679","full":3.6},"geometry":{"type":"Polygon","coordinates":[[[135.78319,35.47238],[135.78389,35.47228],[135.78386,35.47213],[135.78317,35.47223],[135.78319,35.47238]]]}},{"type":"Feature","properties":{"pid":"4f46e53e-54e5-4c9d-b2a8-a6f9ce3582c1","full":7.2},"geometry":{"type":"Polygon","coordinates":[[[135.78322,35.47259],[135.78393,35.47249],[135.78389,35.47228],[135.78319,35.47238],[135.78322,35.47259]]]}},{"type":"Feature","properties":{"pid":"20b68cfd-7661-4f19-9833-52b4471f84d5","full":20.4},"geometry":{"type":"Polygon","coordinates":[[[135.78404,35.47254],[135.7847,35.47245],[135.78468,35.47203],[135.78466,35.47201],[135.78396,35.47212],[135.78404,35.47254]]]}},{"type":"Feature","properties":{"pid":"c4cdc4e6-d6b9-4bd8-aa3a-643164745f8d","full":9.6},"geometry":{"type":"Polygon","coordinates":[[[135.7841,35.47394],[135.78464,35.47389],[135.78461,35.47378],[135.78459,35.4736],[135.78456,35.47358],[135.78406,35.47363],[135.7841,35.47394]]]}},{"type":"Feature","properties":{"pid":"6f1b819a-622a-4d97-adb2-69190d5b7de8","full":4.2},"geometry":{"type":"Polygon","coordinates":[[[135.78356,35.47339],[135.78371,35.47334],[135.78409,35.47329],[135.78406,35.47315],[135.78331,35.47325],[135.78333,35.47342],[135.78356,35.47339]]]}},{"type":"Feature","properties":{"pid":"66acf9c5-6d6b-4ede-a596-90906b7879bd","full":14.8},"geometry":{"type":"Polygon","coordinates":[[[135.78327,35.47292],[135.7833,35.47324],[135.78406,35.47313],[135.784,35.47281],[135.78327,35.47292]]]}},{"type":"Feature","properties":{"pid":"52873644-4554-4710-89db-2bd9596943b4","full":4.3},"geometry":{"type":"Polygon","coordinates":[[[135.78421,35.4734],[135.78459,35.47334],[135.78466,35.47311],[135.78419,35.47318],[135.78419,35.47319],[135.78417,35.47319],[135.78421,35.4734]]]}},{"type":"Feature","properties":{"pid":"ad3e3ff1-309d-46c8-aaae-7af87b089eb1","full":21.4},"geometry":{"type":"Polygon","coordinates":[[[135.78416,35.47316],[135.78466,35.47309],[135.78472,35.47283],[135.78471,35.47256],[135.78406,35.47265],[135.78416,35.47316]]]}},{"type":"Feature","properties":{"pid":"cc7c8487-defd-4f94-a823-dbf3df44e053","full":3.4},"geometry":{"type":"Polygon","coordinates":[[[135.784,35.47281],[135.78397,35.47267],[135.78325,35.47277],[135.78327,35.47291],[135.784,35.47281]]]}},{"type":"Feature","properties":{"pid":"c69d6ecd-25f7-4b89-aa66-85015bb939cc","full":3.9},"geometry":{"type":"Polygon","coordinates":[[[135.78324,35.47275],[135.78396,35.47265],[135.78393,35.4725],[135.78322,35.4726],[135.78324,35.47275]]]}},{"type":"Feature","properties":{"pid":"0c8e3ec8-359f-433f-8bff-b5034b59068f","full":2.4},"geometry":{"type":"Polygon","coordinates":[[[135.78231,35.47399],[135.78236,35.47366],[135.78205,35.47364],[135.78201,35.47397],[135.78209,35.47398],[135.78211,35.47386],[135.78214,35.47383],[135.78221,35.47385],[135.78219,35.47392],[135.78217,35.47392],[135.78216,35.47398],[135.78231,35.47399]]]}},{"type":"Feature","properties":{"pid":"b423af51-a9a2-4a89-81d6-74bfd04ae110","full":1.1},"geometry":{"type":"Polygon","coordinates":[[[135.78316,35.47212],[135.78384,35.47201],[135.78382,35.47191],[135.78315,35.472],[135.78316,35.47212]]]}},{"type":"Feature","properties":{"pid":"c6072a5c-2647-4ce4-8926-82bb9a96ee90","full":4.1},"geometry":{"type":"Polygon","coordinates":[[[135.78315,35.472],[135.78381,35.4719],[135.78378,35.47174],[135.78313,35.47184],[135.78315,35.472]]]}},{"type":"Feature","properties":{"pid":"b5d46ef6-3dd6-4651-8429-4c9c528add52","full":2.6},"geometry":{"type":"Polygon","coordinates":[[[135.78313,35.47183],[135.78378,35.47173],[135.78376,35.4716],[135.78312,35.47169],[135.78313,35.47183]]]}},{"type":"Feature","properties":{"pid":"7ad71f8d-a91c-4216-8b55-9b7d41a6be23","full":1.8},"geometry":{"type":"Polygon","coordinates":[[[135.7831,35.47159],[135.78374,35.4715],[135.78371,35.47137],[135.78308,35.47146],[135.7831,35.47159]]]}},{"type":"Feature","properties":{"pid":"fa6d64c6-bc09-4eb8-93a0-47316fc18d7d","full":6.6},"geometry":{"type":"Polygon","coordinates":[[[135.78307,35.47146],[135.78371,35.47137],[135.78367,35.47116],[135.78302,35.47125],[135.78307,35.47146]]]}},{"type":"Feature","properties":{"pid":"94935bf0-5bdb-4eae-8f8b-fd5584d3eaaa","full":2.6},"geometry":{"type":"Polygon","coordinates":[[[135.78302,35.47125],[135.78366,35.47115],[135.78364,35.47102],[135.78299,35.47111],[135.78302,35.47125]]]}},{"type":"Feature","properties":{"pid":"c8c2b15c-aea1-484d-a657-675c0859efb2","full":3.5},"geometry":{"type":"Polygon","coordinates":[[[135.78298,35.4711],[135.78363,35.47101],[135.7836,35.47085],[135.78295,35.47095],[135.78298,35.4711]]]}},{"type":"Feature","properties":{"pid":"4fb57d14-f83e-42a1-96b1-530254aac117","full":6.4},"geometry":{"type":"Polygon","coordinates":[[[135.78295,35.47094],[135.7836,35.47084],[135.78356,35.47064],[135.7829,35.47074],[135.78295,35.47094]]]}},{"type":"Feature","properties":{"pid":"a04a875a-3af9-4351-af6d-e98859216922","full":8.1},"geometry":{"type":"Polygon","coordinates":[[[135.78082,35.47062],[135.78115,35.47065],[135.78121,35.47025],[135.78084,35.47022],[135.78079,35.4706],[135.78081,35.47061],[135.78082,35.47062]]]}},{"type":"Feature","properties":{"pid":"646f3ae4-7624-431c-a1e1-c4fa5df8e8cb","full":11.3},"geometry":{"type":"Polygon","coordinates":[[[135.78126,35.46989],[135.78067,35.46984],[135.78064,35.47016],[135.78122,35.47021],[135.78126,35.46989]]]}},{"type":"Feature","properties":{"pid":"f12ac907-c421-483b-bb5a-5f3d83bf291d","full":9.2},"geometry":{"type":"Polygon","coordinates":[[[135.78184,35.4698],[135.78183,35.46959],[135.78099,35.4694],[135.78093,35.4696],[135.78184,35.4698]]]}},{"type":"Feature","properties":{"pid":"34a24e45-46ec-415a-b6b8-922a9f031874","full":10.6},"geometry":{"type":"Polygon","coordinates":[[[135.78187,35.46921],[135.78192,35.46897],[135.78118,35.46881],[135.7811,35.46904],[135.78187,35.46921]]]}},{"type":"Feature","properties":{"pid":"8adbfd55-9c0f-41a0-b6ce-bd04b956585c","full":18.5},"geometry":{"type":"Polygon","coordinates":[[[135.78183,35.46958],[135.78183,35.4694],[135.78186,35.46922],[135.78109,35.46906],[135.78099,35.46939],[135.78183,35.46958]]]}},{"type":"Feature","properties":{"pid":"d2131e37-d2c9-4718-87d3-763c9cddcb4d","full":16.3},"geometry":{"type":"Polygon","coordinates":[[[135.78264,35.46955],[135.78331,35.46945],[135.78323,35.46902],[135.78273,35.4691],[135.78268,35.4693],[135.78264,35.46955]]]}},{"type":"Feature","properties":{"pid":"49b12289-c9a9-4a49-8ba0-cc3460b16343","full":1.2},"geometry":{"type":"Polygon","coordinates":[[[135.78273,35.46909],[135.78322,35.46901],[135.7832,35.46889],[135.7828,35.46895],[135.78273,35.46909]]]}},{"type":"Feature","properties":{"pid":"6c8d46ef-1d94-437b-afe6-6c80ad21709f","full":23.0},"geometry":{"type":"Polygon","coordinates":[[[135.78271,35.47003],[135.78341,35.46993],[135.78333,35.46951],[135.78331,35.46946],[135.78265,35.46956],[135.78265,35.4697],[135.78267,35.46991],[135.78271,35.47003]]]}},{"type":"Feature","properties":{"pid":"a42041f1-0fa0-4608-aa21-568c3a1046fb","full":14.1},"geometry":{"type":"Polygon","coordinates":[[[135.78282,35.47038],[135.78348,35.47027],[135.78341,35.46995],[135.78272,35.47005],[135.78279,35.47027],[135.78282,35.47038]]]}},{"type":"Feature","properties":{"pid":"caf59c1c-e3d0-4e18-832e-fa8312fd9c40","full":5.1},"geometry":{"type":"Polygon","coordinates":[[[135.78285,35.47057],[135.78352,35.47047],[135.78348,35.47029],[135.78282,35.47039],[135.78285,35.47057]]]}},{"type":"Feature","properties":{"pid":"372bebff-32c5-4b19-838e-47de13590298","full":3.9},"geometry":{"type":"Polygon","coordinates":[[[135.7829,35.47073],[135.78356,35.47063],[135.78353,35.47048],[135.78286,35.47058],[135.7829,35.47073]]]}},{"type":"Feature","properties":{"pid":"15e930d8-2e79-44e3-9fe1-161b664e54ff","full":5.5},"geometry":{"type":"Polygon","coordinates":[[[135.78364,35.47066],[135.7842,35.47058],[135.7842,35.47054],[135.78414,35.47037],[135.7836,35.47045],[135.78364,35.47066]]]}},{"type":"Feature","properties":{"pid":"89d30f1c-a0b4-4d82-bb7c-36b1f1434ef4","full":4.2},"geometry":{"type":"Polygon","coordinates":[[[135.78407,35.47038],[135.78401,35.4702],[135.78381,35.4702],[135.78381,35.47019],[135.78355,35.47023],[135.7836,35.47044],[135.78407,35.47038]]]}},{"type":"Feature","properties":{"pid":"22a4d19b-bee7-4fd5-afad-de5d6577aed3","full":3.1},"geometry":{"type":"Polygon","coordinates":[[[135.7838,35.47018],[135.78376,35.46989],[135.78349,35.46993],[135.78355,35.47022],[135.7838,35.47018]]]}},{"type":"Feature","properties":{"pid":"8289088a-b366-4575-9159-f623b87c77f6","full":14.9},"geometry":{"type":"Polygon","coordinates":[[[135.78349,35.46993],[135.78376,35.46989],[135.78375,35.46978],[135.78376,35.46976],[135.78414,35.46969],[135.78415,35.46968],[135.78387,35.46939],[135.78343,35.46945],[135.7834,35.46948],[135.78349,35.46993]]]}},{"type":"Feature","properties":{"pid":"9c5f82e0-543c-4c2b-830c-2cadd9892781","full":8.3},"geometry":{"type":"Polygon","coordinates":[[[135.7835,35.46893],[135.78335,35.46873],[135.78326,35.4688],[135.78337,35.46941],[135.7838,35.46933],[135.78347,35.46895],[135.7835,35.46893]]]}},{"type":"Feature","properties":{"pid":"cdb7a767-0da1-4847-af44-e052770864ca","full":5.1},"geometry":{"type":"Polygon","coordinates":[[[135.78302,35.46835],[135.78297,35.46835],[135.78288,35.46861],[135.78309,35.46886],[135.7833,35.46865],[135.78302,35.46835]]]}},{"type":"Feature","properties":{"pid":"9be9c1fc-1ec6-4288-9439-ca43b6d4e755","full":11.9},"geometry":{"type":"Polygon","coordinates":[[[135.78204,35.46844],[135.78209,35.46816],[135.78142,35.46802],[135.78133,35.4683],[135.78204,35.46844]]]}},{"type":"Feature","properties":{"pid":"e64558bd-6be5-48ec-a38b-6446b57fe1b2","full":17.5},"geometry":{"type":"Polygon","coordinates":[[[135.78197,35.46882],[135.78204,35.46846],[135.78133,35.46831],[135.78122,35.46866],[135.78197,35.46882]]]}},{"type":"Feature","properties":{"pid":"1638d4d3-2649-4da2-ae04-62d67a6527be","full":1.1},"geometry":{"type":"Polygon","coordinates":[[[135.78193,35.46896],[135.78195,35.46886],[135.78121,35.46869],[135.78118,35.4688],[135.78193,35.46896]]]}},{"type":"Feature","properties":{"pid":"8fbd9e09-5009-4628-ab33-599a17cabf74","full":18.5},"geometry":{"type":"Polygon","coordinates":[[[135.78061,35.46781],[135.78051,35.46813],[135.7813,35.46829],[135.7814,35.46795],[135.78064,35.46779],[135.78064,35.46781],[135.78061,35.46781]]]}},{"type":"Feature","properties":{"pid":"89d15f02-97a8-496e-9e8b-c037734eb0c4","full":18.0},"geometry":{"type":"Polygon","coordinates":[[[135.78065,35.46778],[135.78141,35.46794],[135.78151,35.46761],[135.78079,35.46746],[135.78075,35.46746],[135.7807,35.46748],[135.78062,35.46776],[135.78064,35.46777],[135.78065,35.46778]]]}},{"type":"Feature","properties":{"pid":"76dbdc08-e548-42fb-b9dc-ab0ae359a2bd","full":17.8},"geometry":{"type":"Polygon","coordinates":[[[135.78209,35.46815],[135.78212,35.46798],[135.78219,35.46788],[135.78226,35.46782],[135.78217,35.46778],[135.78203,35.46773],[135.78154,35.46762],[135.78142,35.46801],[135.78209,35.46815]]]}},{"type":"Feature","properties":{"pid":"f9bb9ee4-55ad-47a6-a592-9d81c65fc24a","full":19.4},"geometry":{"type":"Polygon","coordinates":[[[135.78237,35.46775],[135.78243,35.46768],[135.78249,35.46751],[135.78252,35.4674],[135.78167,35.46722],[135.78157,35.46755],[135.78213,35.46766],[135.78237,35.46775]]]}},{"type":"Feature","properties":{"pid":"34708191-d1cf-4ab4-b93a-ea0fc93a2333","full":0.9},"geometry":{"type":"Polygon","coordinates":[[[135.78171,35.46711],[135.78168,35.46721],[135.78253,35.46738],[135.78254,35.46728],[135.78171,35.46711]]]}},{"type":"Feature","properties":{"pid":"26af382d-85a5-47d7-9797-69fd0adf5cb2","full":1.0},"geometry":{"type":"Polygon","coordinates":[[[135.78153,35.46754],[135.78156,35.46743],[135.78078,35.46727],[135.78076,35.46733],[135.78079,35.46737],[135.78084,35.46739],[135.78153,35.46754]]]}},{"type":"Feature","properties":{"pid":"1f073cf4-ec99-4516-8064-823ada748b34","full":9.4},"geometry":{"type":"Polygon","coordinates":[[[135.78083,35.46707],[135.78078,35.46726],[135.78156,35.46742],[135.78163,35.46721],[135.78088,35.46705],[135.78086,35.46706],[135.78083,35.46707]]]}},{"type":"Feature","properties":{"pid":"8e52a77b-4322-48c3-8e73-63ce72e4b5fc","full":18.4},"geometry":{"type":"Polygon","coordinates":[[[135.78088,35.46704],[135.78164,35.46719],[135.78174,35.46685],[135.78095,35.46669],[135.78086,35.46702],[135.78087,35.46702],[135.78088,35.46704]]]}},{"type":"Feature","properties":{"pid":"a67fddce-971c-4d6d-bd13-db32e172a027","full":18.2},"geometry":{"type":"Polygon","coordinates":[[[135.78175,35.46684],[135.78185,35.46651],[135.78107,35.46635],[135.78096,35.46668],[135.78175,35.46684]]]}},{"type":"Feature","properties":{"pid":"57fd80e2-4055-4f0e-85df-e53decbf4efa","full":17.5},"geometry":{"type":"Polygon","coordinates":[[[135.78258,35.46701],[135.78264,35.46667],[135.78189,35.46652],[135.78179,35.46685],[135.78258,35.46701]]]}},{"type":"Feature","properties":{"pid":"76da1e48-a97c-4f06-9092-ed4b2bce5290","full":2.7},"geometry":{"type":"Polygon","coordinates":[[[135.78256,35.46715],[135.78258,35.46702],[135.78178,35.46686],[135.78175,35.46699],[135.78256,35.46715]]]}},{"type":"Feature","properties":{"pid":"9881b5d4-3964-4ddf-9d70-e425fbb8a28c","full":1.7},"geometry":{"type":"Polygon","coordinates":[[[135.78254,35.46727],[135.78256,35.46716],[135.78174,35.46699],[135.78171,35.4671],[135.78254,35.46727]]]}},{"type":"Feature","properties":{"pid":"a344b7a5-0646-44b0-95f3-75652fc3551b","full":5.0},"geometry":{"type":"Polygon","coordinates":[[[135.78266,35.46665],[135.78269,35.46649],[135.78196,35.46634],[135.78191,35.4665],[135.78266,35.46665]]]}},{"type":"Feature","properties":{"pid":"d3090d31-d2e9-4221-b4b7-9dd5aadf0be1","full":5.5},"geometry":{"type":"Polygon","coordinates":[[[135.78269,35.46648],[135.78272,35.4663],[135.78202,35.46616],[135.78197,35.46633],[135.78269,35.46648]]]}},{"type":"Feature","properties":{"pid":"77800454-bf58-4c7f-8f20-1efb4fc717c4","full":11.3},"geometry":{"type":"Polygon","coordinates":[[[135.7828,35.46595],[135.78213,35.46582],[135.78204,35.46609],[135.78274,35.46623],[135.7828,35.46595]]]}},{"type":"Feature","properties":{"pid":"ee460d71-f435-4200-bba5-ad65ea55051d","full":7.4},"geometry":{"type":"Polygon","coordinates":[[[135.78287,35.46558],[135.78294,35.46534],[135.78232,35.46525],[135.78225,35.46545],[135.78287,35.46558]]]}},{"type":"Feature","properties":{"pid":"7a0fdb6b-ea96-49ed-8d60-5e67109e91fe","full":12.4},"geometry":{"type":"Polygon","coordinates":[[[135.78279,35.46591],[135.78287,35.4656],[135.78225,35.46547],[135.78215,35.46578],[135.78279,35.46591]]]}},{"type":"Feature","properties":{"pid":"a69fc1ae-42ac-439a-b7e0-9d7c46e0543b","full":18.6},"geometry":{"type":"Polygon","coordinates":[[[135.78209,35.46579],[135.7822,35.46546],[135.78139,35.46529],[135.7813,35.46564],[135.78209,35.46579]]]}},{"type":"Feature","properties":{"pid":"32ee1cfa-7eaa-40e4-8256-a57a933172a1","full":4.9},"geometry":{"type":"Polygon","coordinates":[[[135.78204,35.46597],[135.78209,35.46581],[135.78129,35.46565],[135.78125,35.4658],[135.78204,35.46597]]]}},{"type":"Feature","properties":{"pid":"b53db6be-f58f-4a87-ade2-142321901e0f","full":6.1},"geometry":{"type":"Polygon","coordinates":[[[135.78123,35.46599],[135.78198,35.46614],[135.78204,35.46597],[135.78125,35.46581],[135.7812,35.46596],[135.78124,35.46597],[135.78123,35.46599]]]}},{"type":"Feature","properties":{"pid":"c24a5720-0a74-4a3f-9a53-3268bf098387","full":18.0},"geometry":{"type":"Polygon","coordinates":[[[135.78111,35.46633],[135.78188,35.46649],[135.78198,35.46615],[135.7812,35.466],[135.7811,35.46631],[135.78112,35.46631],[135.78111,35.46633]]]}},{"type":"Feature","properties":{"pid":"62e5af1b-3ad6-4fa1-97c1-d867324a17a0","full":7.2},"geometry":{"type":"Polygon","coordinates":[[[135.7822,35.46544],[135.78227,35.46524],[135.78146,35.46511],[135.7814,35.46524],[135.78144,35.46526],[135.78143,35.46528],[135.7822,35.46544]]]}},{"type":"Feature","properties":{"pid":"3274c274-b206-4e33-80fa-9ecbcb0b76b9","full":12.5},"geometry":{"type":"Polygon","coordinates":[[[135.78226,35.46522],[135.78233,35.46501],[135.78172,35.46479],[135.7815,35.46505],[135.78147,35.4651],[135.78226,35.46522]]]}},{"type":"Feature","properties":{"pid":"7954bc50-8d9d-4bc2-9908-4345212da794","full":2.4},"geometry":{"type":"Polygon","coordinates":[[[135.78233,35.46498],[135.7824,35.46485],[135.78185,35.46465],[135.78174,35.46477],[135.78233,35.46498]]]}},{"type":"Feature","properties":{"pid":"16b10441-e457-4551-9cc8-30638faf4690","full":3.0},"geometry":{"type":"Polygon","coordinates":[[[135.78242,35.46482],[135.7825,35.46468],[135.78201,35.4645],[135.78187,35.46462],[135.78242,35.46482]]]}},{"type":"Feature","properties":{"pid":"5138b8e9-acc5-439c-934f-e8a12f9f38d6","full":4.3},"geometry":{"type":"Polygon","coordinates":[[[135.78128,35.46493],[135.78141,35.46481],[135.78089,35.46447],[135.7807,35.46455],[135.78128,35.46493]]]}},{"type":"Feature","properties":{"pid":"82d94921-8e9a-4da8-8745-e62bcbf7c08a","full":3.8},"geometry":{"type":"Polygon","coordinates":[[[135.78141,35.46479],[135.78154,35.46466],[135.78111,35.46438],[135.7809,35.46446],[135.78141,35.46479]]]}},{"type":"Feature","properties":{"pid":"4008fb57-7f56-4801-8258-99433f8a7738","full":2.6},"geometry":{"type":"Polygon","coordinates":[[[135.78203,35.46412],[135.78219,35.46407],[135.78225,35.464],[135.7819,35.46383],[135.7818,35.46402],[135.78203,35.46412]]]}},{"type":"Feature","properties":{"pid":"dbbd7590-ceea-47dc-b373-eb640ffd7d8d","full":4.3},"geometry":{"type":"Polygon","coordinates":[[[135.78267,35.46437],[135.7828,35.46414],[135.78258,35.46406],[135.78256,35.46406],[135.78247,35.46404],[135.78235,35.46417],[135.78238,35.46427],[135.78267,35.46437]]]}},{"type":"Feature","properties":{"pid":"0d5cadf4-32bd-4a2b-958d-2ca49f341d56","full":4.6},"geometry":{"type":"Polygon","coordinates":[[[135.7828,35.46413],[135.78297,35.46385],[135.78268,35.46374],[135.78253,35.464],[135.78251,35.46399],[135.78248,35.46404],[135.78256,35.46406],[135.78258,35.46405],[135.7828,35.46413]]]}},{"type":"Feature","properties":{"pid":"ff6e175f-6021-4f03-9e4b-0805ecfba897","full":4.5},"geometry":{"type":"Polygon","coordinates":[[[135.78298,35.46383],[135.783,35.46383],[135.78312,35.46361],[135.78272,35.46346],[135.7827,35.4635],[135.78268,35.4636],[135.7827,35.46364],[135.78269,35.46373],[135.78298,35.46383]]]}},{"type":"Feature","properties":{"pid":"b9213b6b-0e62-4c41-aede-6991528178cb","full":5.8},"geometry":{"type":"Polygon","coordinates":[[[135.78346,35.46402],[135.78357,35.46379],[135.78314,35.46362],[135.78301,35.46384],[135.78346,35.46402]]]}},{"type":"Feature","properties":{"pid":"5ad5baa6-e4fc-40ef-89e5-fa3b49ce618d","full":2.9},"geometry":{"type":"Polygon","coordinates":[[[135.78339,35.46418],[135.78345,35.46403],[135.78301,35.46385],[135.78292,35.46401],[135.78339,35.46418]]]}},{"type":"Feature","properties":{"pid":"42a3b995-631d-425c-9a5b-044284d49d10","full":5.6},"geometry":{"type":"Polygon","coordinates":[[[135.78321,35.46458],[135.78327,35.46444],[135.78322,35.46442],[135.78326,35.46434],[135.78283,35.46418],[135.78271,35.46439],[135.78321,35.46458]]]}},{"type":"Feature","properties":{"pid":"01c1d177-2066-4d7e-b8ef-87b08c600215","full":2.8},"geometry":{"type":"Polygon","coordinates":[[[135.78207,35.46451],[135.78251,35.46467],[135.78253,35.46467],[135.78261,35.46453],[135.78228,35.4644],[135.78207,35.46445],[135.78204,35.46447],[135.78208,35.46449],[135.78207,35.46451]]]}},{"type":"Feature","properties":{"pid":"fb5515d9-2af2-44fa-92ec-aaad57970848","full":11.1},"geometry":{"type":"Polygon","coordinates":[[[135.78262,35.46453],[135.78254,35.46467],[135.78255,35.46468],[135.78246,35.46483],[135.78304,35.46504],[135.78315,35.46476],[135.78262,35.46453]]]}},{"type":"Feature","properties":{"pid":"14a3abdf-999c-4949-b28c-0a4e91fc42a5","full":2.5},"geometry":{"type":"Polygon","coordinates":[[[135.78297,35.46522],[135.78302,35.46509],[135.78244,35.46487],[135.78237,35.465],[135.78297,35.46522]]]}},{"type":"Feature","properties":{"pid":"4399ecc5-976b-4c6f-b4a4-c79ced37c96b","full":3.5},"geometry":{"type":"Polygon","coordinates":[[[135.78295,35.46532],[135.78298,35.46523],[135.78238,35.46502],[135.78232,35.46523],[135.78295,35.46532]]]}},{"type":"Feature","properties":{"pid":"21d549e5-d065-482e-9af7-8a9f355ef002","full":5.4},"geometry":{"type":"Polygon","coordinates":[[[135.78591,35.46033],[135.78606,35.46022],[135.78535,35.45981],[135.78529,35.45989],[135.78527,35.45997],[135.78591,35.46033]]]}},{"type":"Feature","properties":{"pid":"e2c67a3d-080d-4cfe-b41d-7d1e7c9035f8","full":4.6},"geometry":{"type":"Polygon","coordinates":[[[135.78582,35.4605],[135.78589,35.46034],[135.78527,35.45999],[135.78526,35.46016],[135.7853,35.46021],[135.78582,35.4605]]]}},{"type":"Feature","properties":{"pid":"de189e80-1c60-423a-b931-a9ae3c760216","full":4.0},"geometry":{"type":"Polygon","coordinates":[[[135.78571,35.46066],[135.7858,35.46051],[135.7853,35.46023],[135.78527,35.46031],[135.78526,35.46042],[135.78571,35.46066]]]}},{"type":"Feature","properties":{"pid":"72b6e862-6c20-402e-8274-2ec75d5a9ae8","full":2.7},"geometry":{"type":"Polygon","coordinates":[[[135.78561,35.46081],[135.7857,35.46067],[135.78526,35.46043],[135.78526,35.46063],[135.78557,35.46081],[135.78558,35.4608],[135.78561,35.46081]]]}},{"type":"Feature","properties":{"pid":"e82b5a24-0987-4fb6-9a03-971757e29cd2","full":1.1},"geometry":{"type":"Polygon","coordinates":[[[135.78406,35.46066],[135.78446,35.46031],[135.78431,35.46027],[135.78396,35.46058],[135.78406,35.46066]]]}},{"type":"Feature","properties":{"pid":"02bbc3d1-91b3-4e34-a91a-c710a4fee761","full":2.4},"geometry":{"type":"Polygon","coordinates":[[[135.78394,35.46057],[135.78429,35.46026],[135.78419,35.46022],[135.78388,35.46036],[135.78374,35.46041],[135.78378,35.46044],[135.78379,35.46047],[135.78394,35.46057]]]}},{"type":"Feature","properties":{"pid":"b995833e-b915-4290-adb5-99bb23520afe","full":1.0},"geometry":{"type":"Polygon","coordinates":[[[135.78342,35.46085],[135.78377,35.46052],[135.78367,35.46045],[135.78331,35.46077],[135.78342,35.46085]]]}},{"type":"Feature","properties":{"pid":"8728e056-c9cb-47ed-bd6e-9da6d6ecc78a","full":1.1},"geometry":{"type":"Polygon","coordinates":[[[135.78367,35.46103],[135.78403,35.4607],[135.78392,35.46062],[135.78359,35.46092],[135.78362,35.46094],[135.78358,35.46097],[135.78367,35.46103]]]}},{"type":"Feature","properties":{"pid":"3973d023-cf03-4fb8-8359-748b172936f1","full":1.2},"geometry":{"type":"Polygon","coordinates":[[[135.78353,35.46094],[135.78391,35.46061],[135.78381,35.46053],[135.78379,35.46053],[135.78343,35.46086],[135.78353,35.46094]]]}},{"type":"Feature","properties":{"pid":"ecb9291d-2ddd-4afb-b8be-4b5da463875b","full":1.2},"geometry":{"type":"Polygon","coordinates":[[[135.78378,35.46112],[135.78415,35.4608],[135.78404,35.46072],[135.78368,35.46104],[135.78378,35.46112]]]}},{"type":"Feature","properties":{"pid":"fcc0c7c4-70dc-406d-9c18-ccefe6b7e69d","full":1.6},"geometry":{"type":"Polygon","coordinates":[[[135.78418,35.46076],[135.78463,35.46036],[135.78447,35.46032],[135.78407,35.46068],[135.78418,35.46076]]]}},{"type":"Feature","properties":{"pid":"fdb820df-0cbf-41db-8331-74a0d51310dd","full":2.3},"geometry":{"type":"Polygon","coordinates":[[[135.78438,35.4609],[135.78448,35.46078],[135.78453,35.46068],[135.78457,35.46058],[135.78459,35.46041],[135.7842,35.46077],[135.78438,35.4609]]]}},{"type":"Feature","properties":{"pid":"91dcd3e9-8d18-4d20-bb98-f6a6c638fa28","full":1.3},"geometry":{"type":"Polygon","coordinates":[[[135.78339,35.46149],[135.78375,35.46116],[135.78364,35.46108],[135.78328,35.46141],[135.78339,35.46149]]]}},{"type":"Feature","properties":{"pid":"5cf2dd68-c078-4cd0-aa6d-054bf334d201","full":1.1},"geometry":{"type":"Polygon","coordinates":[[[135.7835,35.46157],[135.78387,35.46125],[135.78376,35.46117],[135.7834,35.46149],[135.7835,35.46157]]]}},{"type":"Feature","properties":{"pid":"7192efa6-b28d-4c31-b1f6-7d3dcc16d45a","full":0.6},"geometry":{"type":"Polygon","coordinates":[[[135.78364,35.46166],[135.78397,35.46132],[135.78389,35.46126],[135.78352,35.46159],[135.78364,35.46166]]]}},{"type":"Feature","properties":{"pid":"0063e3a4-fdfa-474e-a52e-3c2e977558a5","full":10.0},"geometry":{"type":"Polygon","coordinates":[[[135.78409,35.4619],[135.7844,35.462],[135.78451,35.46164],[135.78457,35.46164],[135.78463,35.46141],[135.78443,35.46136],[135.78433,35.46146],[135.78426,35.46154],[135.78409,35.46187],[135.78409,35.4619]]]}},{"type":"Feature","properties":{"pid":"867f4881-ae87-4db9-b4d5-beeee302a24c","full":2.8},"geometry":{"type":"Polygon","coordinates":[[[135.7837,35.46348],[135.78378,35.46333],[135.78334,35.46318],[135.78326,35.46333],[135.7837,35.46348]]]}},{"type":"Feature","properties":{"pid":"3b598f37-a406-4cf3-bcbb-87b1684379e7","full":2.6},"geometry":{"type":"Polygon","coordinates":[[[135.78378,35.46331],[135.78386,35.46316],[135.78342,35.46302],[135.78335,35.46316],[135.78378,35.46331]]]}},{"type":"Feature","properties":{"pid":"179ca849-da3c-4014-8c74-5c50d6d5d2c5","full":2.8},"geometry":{"type":"Polygon","coordinates":[[[135.78352,35.46282],[135.78345,35.46296],[135.78389,35.4631],[135.78396,35.46295],[135.78355,35.46281],[135.78352,35.46282]]]}},{"type":"Feature","properties":{"pid":"d990291a-abc8-4a9f-a404-e0b8673f31a4","full":2.6},"geometry":{"type":"Polygon","coordinates":[[[135.78355,35.4628],[135.78396,35.46294],[135.78404,35.46278],[135.78361,35.46264],[135.78354,35.46278],[135.78355,35.4628]]]}},{"type":"Feature","properties":{"pid":"7c6c4255-8224-4495-8eff-ac1e5d59ef7b","full":2.5},"geometry":{"type":"Polygon","coordinates":[[[135.78411,35.4626],[135.78419,35.46245],[135.78378,35.46231],[135.7837,35.46246],[135.78411,35.4626]]]}},{"type":"Feature","properties":{"pid":"cc44a3a1-e48f-4e4b-9a05-fc9f68d903e7","full":1.8},"geometry":{"type":"Polygon","coordinates":[[[135.7842,35.46243],[135.78427,35.46228],[135.78395,35.46217],[135.78388,35.46232],[135.7842,35.46243]]]}},{"type":"Feature","properties":{"pid":"b9be34a5-83bc-41a8-b514-de35122e2e08","full":2.5},"geometry":{"type":"Polygon","coordinates":[[[135.78404,35.46277],[135.78411,35.46262],[135.78369,35.46248],[135.78362,35.46263],[135.78404,35.46277]]]}},{"type":"Feature","properties":{"pid":"1b87bbb2-98db-4721-8d50-469db10906dc","full":4.4},"geometry":{"type":"Polygon","coordinates":[[[135.78428,35.46226],[135.78437,35.46202],[135.78406,35.46192],[135.78389,35.46214],[135.78428,35.46226]]]}},{"type":"Feature","properties":{"pid":"cfe04ddf-adaf-455a-8386-b4c47ef3d53c","full":2.7},"geometry":{"type":"Polygon","coordinates":[[[135.78347,35.46278],[135.78355,35.46262],[135.78314,35.46248],[135.78303,35.46263],[135.78347,35.46278]]]}},{"type":"Feature","properties":{"pid":"cadd76c3-2b2c-4582-b35c-1d41f1f37d05","full":3.0},"geometry":{"type":"Polygon","coordinates":[[[135.78339,35.46295],[135.78347,35.46279],[135.78302,35.46264],[135.78295,35.46277],[135.78295,35.46279],[135.78339,35.46295]]]}},{"type":"Feature","properties":{"pid":"4a466806-ea74-41cc-ae83-06ecc9c07cc0","full":3.1},"geometry":{"type":"Polygon","coordinates":[[[135.78361,35.46367],[135.78369,35.46349],[135.78326,35.46335],[135.78322,35.46343],[135.7832,35.4635],[135.78361,35.46367]]]}},{"type":"Feature","properties":{"pid":"437f2b5e-b69f-4d67-955f-e19bacf16148","full":1.7},"geometry":{"type":"Polygon","coordinates":[[[135.78255,35.46139],[135.78236,35.46136],[135.78231,35.46162],[135.78251,35.46167],[135.78255,35.46139]]]}},{"type":"Feature","properties":{"pid":"afa7178e-c7dc-4418-8f8f-6a829d926b49","full":1.0},"geometry":{"type":"Polygon","coordinates":[[[135.78277,35.46142],[135.78263,35.4614],[135.78256,35.46173],[135.7827,35.46177],[135.78277,35.46142]]]}},{"type":"Feature","properties":{"pid":"2e221f2e-4e19-4534-927d-289779abc21a","full":1.8},"geometry":{"type":"Polygon","coordinates":[[[135.78279,35.46142],[135.78269,35.46185],[135.7828,35.46189],[135.78286,35.46183],[135.78294,35.46144],[135.78279,35.46142]]]}},{"type":"Feature","properties":{"pid":"a1644e80-badb-4f4e-8d1a-edeee9269bd5","full":1.1},"geometry":{"type":"Polygon","coordinates":[[[135.78308,35.46195],[135.78345,35.46163],[135.78334,35.46156],[135.78302,35.46184],[135.78299,35.46183],[135.78297,35.46189],[135.78308,35.46195]]]}},{"type":"Feature","properties":{"pid":"18da59d8-68fb-4eef-ba3e-7b06a48c4167","full":1.9},"geometry":{"type":"Polygon","coordinates":[[[135.78301,35.46183],[135.78333,35.46154],[135.7831,35.46138],[135.78308,35.46138],[135.78299,35.46182],[135.78301,35.46183]]]}},{"type":"Feature","properties":{"pid":"4e46bf1a-f396-4702-aff5-bfdf2132c102","full":1.1},"geometry":{"type":"Polygon","coordinates":[[[135.78294,35.46138],[135.78299,35.46115],[135.78301,35.46104],[135.78286,35.46101],[135.78279,35.46136],[135.78294,35.46138]]]}},{"type":"Feature","properties":{"pid":"af4af340-b67f-4c42-b6ce-6e686d7de9ce","full":1.5},"geometry":{"type":"Polygon","coordinates":[[[135.78326,35.4614],[135.78363,35.46107],[135.78352,35.46099],[135.78315,35.46132],[135.78326,35.4614]]]}},{"type":"Feature","properties":{"pid":"9c11a627-027c-43e0-8177-ad052a57f342","full":1.1},"geometry":{"type":"Polygon","coordinates":[[[135.78262,35.46134],[135.78269,35.46097],[135.78254,35.46094],[135.78247,35.46131],[135.78262,35.46134]]]}},{"type":"Feature","properties":{"pid":"252ca87e-6bab-4d03-92bd-da6556261e44","full":4.3},"geometry":{"type":"Polygon","coordinates":[[[135.78244,35.46131],[135.78251,35.46093],[135.78231,35.46088],[135.78215,35.46128],[135.78244,35.46131]]]}},{"type":"Feature","properties":{"pid":"0b18a4d8-18df-498d-9798-9fa534202a5b","full":1.4},"geometry":{"type":"Polygon","coordinates":[[[135.784,35.45933],[135.78434,35.45932],[135.78434,35.45918],[135.78388,35.45919],[135.78386,35.45924],[135.78396,35.45929],[135.784,35.45933]]]}},{"type":"Feature","properties":{"pid":"54d9831f-d5b4-4bc0-b61c-89ff1eba2360","full":2.5},"geometry":{"type":"Polygon","coordinates":[[[135.78442,35.45935],[135.78441,35.4595],[135.78487,35.45951],[135.78494,35.45937],[135.78487,35.45935],[135.78442,35.45935]]]}},{"type":"Feature","properties":{"pid":"07aa4e53-aa49-41ea-8b4e-78b97536cde8","full":5.7},"geometry":{"type":"Polygon","coordinates":[[[135.78608,35.46021],[135.7862,35.46008],[135.78553,35.4597],[135.78535,35.4598],[135.78608,35.46021]]]}},{"type":"Feature","properties":{"pid":"5364e3ea-8de6-4bc8-9def-7c88a7e3b17e","full":7.8},"geometry":{"type":"Polygon","coordinates":[[[135.78621,35.46007],[135.78631,35.45997],[135.78592,35.45956],[135.78558,35.45965],[135.78556,35.45967],[135.78556,35.4597],[135.78621,35.46007]]]}},{"type":"Feature","properties":{"pid":"a7e7b857-0450-463b-b0af-34c72ec4f468","full":2.7},"geometry":{"type":"Polygon","coordinates":[[[135.78535,35.45902],[135.78544,35.45897],[135.7856,35.45891],[135.78553,35.4586],[135.78541,35.45863],[135.7853,35.459],[135.78535,35.45902]]]}},{"type":"Feature","properties":{"pid":"1483b7b0-dae4-4920-9bfb-c21866716306","full":1.8},"geometry":{"type":"Polygon","coordinates":[[[135.78583,35.45883],[135.78603,35.45879],[135.78598,35.45853],[135.78577,35.45855],[135.78583,35.45883]]]}},{"type":"Feature","properties":{"pid":"8372dc83-4eb7-4653-945c-9d7626ef9e6c","full":2.0},"geometry":{"type":"Polygon","coordinates":[[[135.78576,35.4585],[135.78596,35.45847],[135.78589,35.45815],[135.78571,35.45822],[135.78576,35.4585]]]}},{"type":"Feature","properties":{"pid":"daf67d4c-8948-48ad-9d52-483e51599b25","full":5.1},"geometry":{"type":"Polygon","coordinates":[[[135.78485,35.45933],[135.78492,35.45919],[135.78492,35.45915],[135.78472,35.45913],[135.78441,35.45902],[135.78441,35.45933],[135.78485,35.45933]]]}},{"type":"Feature","properties":{"pid":"9ae4797b-fe9d-4a9b-b8be-cbfe005d1b7f","full":0.9},"geometry":{"type":"Polygon","coordinates":[[[135.78389,35.45917],[135.78434,35.45916],[135.78434,35.45904],[135.7839,35.45905],[135.78389,35.45917]]]}},{"type":"Feature","properties":{"pid":"21755d4c-3939-4a68-9375-68bd47f7aa48","full":2.4},"geometry":{"type":"Polygon","coordinates":[[[135.78598,35.45847],[135.78618,35.45844],[135.78611,35.4581],[135.78599,35.45812],[135.78591,35.45814],[135.78598,35.45847]]]}},{"type":"Feature","properties":{"pid":"67d12cb1-a8ed-49ad-a308-e873b4f51feb","full":7.5},"geometry":{"type":"Polygon","coordinates":[[[135.78992,35.4576],[135.78994,35.45742],[135.79019,35.45727],[135.79023,35.45723],[135.79024,35.45719],[135.78977,35.45712],[135.78966,35.45757],[135.78992,35.4576]]]}},{"type":"Feature","properties":{"pid":"941be1cb-6ddc-4c35-9462-e42dd65a3519","full":7.7},"geometry":{"type":"Polygon","coordinates":[[[135.79003,35.45825],[135.79011,35.45818],[135.79015,35.45811],[135.79018,35.458],[135.79001,35.458],[135.78957,35.45787],[135.78949,35.4581],[135.79003,35.45825]]]}},{"type":"Feature","properties":{"pid":"666e6988-8a55-4b27-9ec5-fa1424212be5","full":0.9},"geometry":{"type":"Polygon","coordinates":[[[135.78999,35.45841],[135.78999,35.45835],[135.79001,35.45829],[135.78948,35.45815],[135.78944,35.45825],[135.78999,35.45841]]]}},{"type":"Feature","properties":{"pid":"3bcb124c-66ad-421e-8ec3-f083ac652b7e","full":0.7},"geometry":{"type":"Polygon","coordinates":[[[135.78876,35.45809],[135.78884,35.45796],[135.78861,35.45785],[135.78858,35.45788],[135.78852,35.45783],[135.78846,35.45789],[135.78876,35.45809]]]}},{"type":"Feature","properties":{"pid":"67c59d73-5afa-4c57-932c-994fd8cb9eea","full":2.7},"geometry":{"type":"Polygon","coordinates":[[[135.78619,35.45844],[135.7864,35.45841],[135.78633,35.45806],[135.78612,35.4581],[135.78619,35.45844]]]}},{"type":"Feature","properties":{"pid":"92b894d7-0608-4f52-9b89-7edfc7c2db65","full":2.6},"geometry":{"type":"Polygon","coordinates":[[[135.78641,35.45841],[135.78662,35.45838],[135.78655,35.45803],[135.78634,35.45806],[135.78641,35.45841]]]}},{"type":"Feature","properties":{"pid":"7c73258b-aa03-4ca7-aa2f-1cc9c1698402","full":0.8},"geometry":{"type":"Polygon","coordinates":[[[135.7868,35.45817],[135.78676,35.458],[135.78656,35.45803],[135.78659,35.45819],[135.7868,35.45817]]]}},{"type":"Feature","properties":{"pid":"af9bc7f2-430e-45e4-b1c9-dac2ba62a48d","full":2.4},"geometry":{"type":"Polygon","coordinates":[[[135.78685,35.45834],[135.78704,35.45832],[135.78698,35.45797],[135.78678,35.458],[135.78685,35.45834]]]}},{"type":"Feature","properties":{"pid":"79037649-6dd0-45f5-84eb-a83f1e7ef684","full":2.2},"geometry":{"type":"Polygon","coordinates":[[[135.78706,35.45831],[135.78725,35.45829],[135.78718,35.45794],[135.78699,35.45796],[135.78706,35.45831]]]}},{"type":"Feature","properties":{"pid":"1cc55c19-a850-4d31-93a5-eade9eb20e7c","full":2.6},"geometry":{"type":"Polygon","coordinates":[[[135.78842,35.45846],[135.78855,35.45833],[135.78865,35.45821],[135.7885,35.45811],[135.78825,35.45825],[135.78842,35.45846]]]}},{"type":"Feature","properties":{"pid":"a3d84600-1694-4283-b96f-4562287d8179","full":3.4},"geometry":{"type":"Polygon","coordinates":[[[135.78825,35.45863],[135.78842,35.45847],[135.78813,35.45811],[135.78799,35.45819],[135.78825,35.45863]]]}},{"type":"Feature","properties":{"pid":"482fcb4e-ecbc-44d9-8c2b-cc311d93504d","full":2.8},"geometry":{"type":"Polygon","coordinates":[[[135.78824,35.45864],[135.78811,35.45843],[135.78786,35.45851],[135.78786,35.45857],[135.78789,35.45866],[135.78791,35.45871],[135.78797,35.45871],[135.78816,35.45867],[135.78824,35.45864]]]}},{"type":"Feature","properties":{"pid":"1f20b8ea-1e07-46e0-9889-c6a60f9500eb","full":3.2},"geometry":{"type":"Polygon","coordinates":[[[135.78756,35.45833],[135.78764,35.45872],[135.78777,35.45872],[135.78785,35.45871],[135.78776,35.45829],[135.78757,35.45831],[135.78756,35.45833]]]}},{"type":"Feature","properties":{"pid":"6a5aea50-3366-4a94-8d4a-d007d1c75b62","full":3.9},"geometry":{"type":"Polygon","coordinates":[[[135.78675,35.45951],[135.78664,35.4594],[135.78657,35.4594],[135.78636,35.45947],[135.78624,35.4595],[135.78651,35.45976],[135.78662,35.45962],[135.78675,35.45951]]]}},{"type":"Feature","properties":{"pid":"cb8562e4-c923-40b5-9e9d-a4b7be8d3a00","full":5.7},"geometry":{"type":"Polygon","coordinates":[[[135.7865,35.45976],[135.78622,35.4595],[135.78592,35.45955],[135.78632,35.45995],[135.78643,35.45984],[135.7865,35.45976]]]}},{"type":"Feature","properties":{"pid":"88282bd1-0583-4afa-942f-e054b649e4e7","full":2.1},"geometry":{"type":"Polygon","coordinates":[[[135.78999,35.45855],[135.78999,35.45841],[135.78944,35.45826],[135.78938,35.45838],[135.78999,35.45855]]]}},{"type":"Feature","properties":{"pid":"3e283330-1704-463e-b410-c43c41d69295","full":4.0},"geometry":{"type":"Polygon","coordinates":[[[135.78932,35.45855],[135.78992,35.45871],[135.78998,35.45864],[135.79,35.45861],[135.79001,35.45857],[135.78937,35.4584],[135.78931,35.45853],[135.78933,35.45854],[135.78932,35.45855]]]}},{"type":"Feature","properties":{"pid":"6b13fc64-95a7-402d-b7b5-dbe0e3e830fb","full":6.1},"geometry":{"type":"Polygon","coordinates":[[[135.78915,35.45891],[135.78937,35.45897],[135.78956,35.45893],[135.78971,35.45888],[135.78975,35.45887],[135.78983,35.45881],[135.78925,35.45865],[135.78914,35.45889],[135.78915,35.45891]]]}},{"type":"Feature","properties":{"pid":"d195c6f4-879f-4600-9d0d-385203cd1e00","full":11.7},"geometry":{"type":"Polygon","coordinates":[[[135.79763,35.46698],[135.79735,35.46675],[135.7972,35.46687],[135.79708,35.46699],[135.79698,35.46711],[135.79699,35.46715],[135.79698,35.46715],[135.79719,35.46733],[135.79746,35.46713],[135.79763,35.46698]]]}},{"type":"Feature","properties":{"pid":"f7dd0a2f-7dcb-44ee-8596-09834a3e1962","full":23.5},"geometry":{"type":"Polygon","coordinates":[[[135.79752,35.46761],[135.79848,35.46684],[135.79847,35.46683],[135.79824,35.46668],[135.7976,35.46709],[135.79743,35.46723],[135.79739,35.46728],[135.79745,35.46739],[135.79752,35.46761]]]}},{"type":"Feature","properties":{"pid":"b9cc7d00-79bb-44de-a859-4fe6fd424973","full":12.1},"geometry":{"type":"Polygon","coordinates":[[[135.79858,35.46623],[135.79846,35.4661],[135.79838,35.46604],[135.7983,35.46609],[135.79812,35.46616],[135.79809,35.46615],[135.79785,35.46629],[135.79785,35.46631],[135.79784,35.46632],[135.79814,35.46657],[135.79858,35.46626],[135.79858,35.46623]]]}},{"type":"Feature","properties":{"pid":"5bbfadd2-9ec1-488a-908f-073285373cff","full":14.5},"geometry":{"type":"Polygon","coordinates":[[[135.79811,35.46661],[135.7978,35.46635],[135.79768,35.4664],[135.79764,35.46642],[135.79754,35.46656],[135.7974,35.46667],[135.7974,35.46671],[135.79739,35.46672],[135.79767,35.46695],[135.79796,35.46674],[135.79811,35.46661]]]}},{"type":"Feature","properties":{"pid":"fa204f91-8876-4d83-a73e-ccd0dc5e4b9d","full":36.9},"geometry":{"type":"Polygon","coordinates":[[[135.80038,35.4655],[135.80003,35.4652],[135.79998,35.46523],[135.79921,35.46585],[135.79943,35.46608],[135.79957,35.46618],[135.80036,35.46554],[135.80038,35.4655]]]}},{"type":"Feature","properties":{"pid":"545d6938-3813-4930-b50c-00a934df479f","full":30.7},"geometry":{"type":"Polygon","coordinates":[[[135.79926,35.46611],[135.79907,35.46597],[135.79865,35.4663],[135.79833,35.46652],[135.79829,35.46655],[135.79829,35.46656],[135.79871,35.46683],[135.79941,35.46626],[135.79944,35.46622],[135.79926,35.46611]]]}},{"type":"Feature","properties":{"pid":"b449d52b-74a2-4174-a09d-1bd3e99c6d2d","full":20.3},"geometry":{"type":"Polygon","coordinates":[[[135.79948,35.46634],[135.79875,35.46692],[135.79888,35.46704],[135.7993,35.4667],[135.79956,35.4669],[135.8,35.4667],[135.80002,35.46668],[135.79978,35.46651],[135.79951,35.46634],[135.79948,35.46634]]]}},{"type":"Feature","properties":{"pid":"98df04a4-ef9b-4338-b799-511edb6d381b","full":1.3},"geometry":{"type":"Polygon","coordinates":[[[135.79903,35.46714],[135.79951,35.46694],[135.79933,35.4668],[135.79898,35.46712],[135.79903,35.46714]]]}},{"type":"Feature","properties":{"pid":"1ce224c7-1fae-44a4-9356-8db81cbe18ad","full":5.3},"geometry":{"type":"Polygon","coordinates":[[[135.78117,35.46507],[135.78128,35.46495],[135.7807,35.46457],[135.78066,35.4646],[135.78059,35.46472],[135.78114,35.46507],[135.78115,35.46506],[135.78117,35.46507]]]}},{"type":"Feature","properties":{"pid":"5039d45d-5c94-4d24-8d79-4c5650820af3","full":1.0},"geometry":{"type":"Polygon","coordinates":[[[135.78109,35.46516],[135.78115,35.46509],[135.78058,35.46472],[135.7805,35.4648],[135.78105,35.46517],[135.78107,35.46515],[135.78109,35.46516]]]}},{"type":"Feature","properties":{"pid":"1f9627a9-055b-4add-9730-6ae06e5baaed","full":2.7},"geometry":{"type":"Polygon","coordinates":[[[135.77997,35.46526],[135.78016,35.46507],[135.78005,35.46508],[135.7799,35.46504],[135.77985,35.46501],[135.77969,35.46503],[135.77962,35.46517],[135.77976,35.46523],[135.7798,35.46519],[135.77997,35.46526]]]}},{"type":"Feature","properties":{"pid":"a23142b8-90f0-45aa-b54d-1165e708caa6","full":1.4},"geometry":{"type":"Polygon","coordinates":[[[135.77947,35.46499],[135.77929,35.46498],[135.77923,35.46516],[135.7794,35.4653],[135.77948,35.46534],[135.77954,35.46522],[135.77947,35.46518],[135.77941,35.46512],[135.77947,35.46499]]]}},{"type":"Feature","properties":{"pid":"af36fee1-fa6e-4612-9c75-ed81f780cdfd","full":0.6},"geometry":{"type":"Polygon","coordinates":[[[135.77958,35.4652],[135.77961,35.46517],[135.77967,35.46504],[135.77957,35.46499],[135.77949,35.46499],[135.77944,35.4651],[135.77948,35.46512],[135.77952,35.46517],[135.77958,35.4652]]]}},{"type":"Feature","properties":{"pid":"6615060d-95c1-4fc8-bb2a-ce80bc2e6a77","full":0.9},"geometry":{"type":"Polygon","coordinates":[[[135.78023,35.46615],[135.7799,35.46594],[135.77986,35.46607],[135.78013,35.46625],[135.78023,35.46615]]]}},{"type":"Feature","properties":{"pid":"f26c8173-4ac4-4dd1-9995-f1d2bd08b040","full":3.2},"geometry":{"type":"Polygon","coordinates":[[[135.78023,35.46615],[135.78036,35.46601],[135.77991,35.46571],[135.77992,35.46588],[135.77991,35.46593],[135.78023,35.46615]]]}},{"type":"Feature","properties":{"pid":"677486ff-8c39-4cf1-beac-d6fe3b0f6ca2","full":3.1},"geometry":{"type":"Polygon","coordinates":[[[135.78038,35.466],[135.78049,35.46587],[135.77995,35.46553],[135.77991,35.46569],[135.78038,35.466]]]}},{"type":"Feature","properties":{"pid":"55161f6b-aac5-44f5-b5d4-b0e50519ce9c","full":2.8},"geometry":{"type":"Polygon","coordinates":[[[135.78066,35.4671],[135.78071,35.46695],[135.78013,35.46684],[135.78011,35.46699],[135.78066,35.4671]]]}},{"type":"Feature","properties":{"pid":"7ca9c101-33ff-4ca1-ad16-73b5b0c73f75","full":10.6},"geometry":{"type":"Polygon","coordinates":[[[135.78036,35.4681],[135.78046,35.46775],[135.77989,35.46764],[135.77994,35.46802],[135.78036,35.4681]]]}},{"type":"Feature","properties":{"pid":"1a02e459-57d7-44dd-8df5-02552d5b657e","full":0.8},"geometry":{"type":"Polygon","coordinates":[[[135.77988,35.46795],[135.77989,35.46788],[135.77987,35.46774],[135.77972,35.46774],[135.7797,35.46786],[135.77968,35.46789],[135.77967,35.46794],[135.77988,35.46795]]]}},{"type":"Feature","properties":{"pid":"d1290ae3-d266-4f2e-8e69-9318eba41477","full":4.1},"geometry":{"type":"Polygon","coordinates":[[[135.78046,35.46774],[135.78053,35.46754],[135.78008,35.46744],[135.78004,35.46765],[135.78046,35.46774]]]}},{"type":"Feature","properties":{"pid":"ca82535f-ef4d-4d36-a0f8-ce3bd8299c87","full":1.2},"geometry":{"type":"Polygon","coordinates":[[[135.77903,35.46771],[135.77894,35.4675],[135.77889,35.46755],[135.77871,35.46766],[135.7787,35.46768],[135.77873,35.46778],[135.77903,35.46771]]]}},{"type":"Feature","properties":{"pid":"1c4baa03-c24a-44cf-9344-f8cd044395fa","full":0.6},"geometry":{"type":"Polygon","coordinates":[[[135.77842,35.46801],[135.77871,35.46796],[135.77866,35.46783],[135.77844,35.46788],[135.77842,35.46801]]]}},{"type":"Feature","properties":{"pid":"73e131f8-010b-4459-9040-104adc1e4f28","full":0.8},"geometry":{"type":"Polygon","coordinates":[[[135.77927,35.468],[135.77925,35.46784],[135.779,35.46791],[135.77905,35.46805],[135.77927,35.468]]]}},{"type":"Feature","properties":{"pid":"20562ff1-5725-4a97-bf75-60341ea26dfd","full":1.2},"geometry":{"type":"Polygon","coordinates":[[[135.77928,35.46796],[135.77942,35.46794],[135.77944,35.46754],[135.7793,35.46754],[135.77927,35.46775],[135.77928,35.46796]]]}},{"type":"Feature","properties":{"pid":"26c43079-b2a6-4cf2-b446-1ee1609dce88","full":0.7},"geometry":{"type":"Polygon","coordinates":[[[135.77963,35.4677],[135.77967,35.46755],[135.77954,35.46753],[135.77945,35.46754],[135.77944,35.46769],[135.77963,35.4677]]]}},{"type":"Feature","properties":{"pid":"de608af3-4a84-4cf4-ab9a-3d75f808078d","full":1.9},"geometry":{"type":"Polygon","coordinates":[[[135.77827,35.46823],[135.77877,35.46813],[135.77872,35.46797],[135.77842,35.46803],[135.7784,35.46808],[135.77827,35.46823]]]}},{"type":"Feature","properties":{"pid":"f88c15bd-0a03-4d77-8f0d-095cf71305ca","full":3.8},"geometry":{"type":"Polygon","coordinates":[[[135.77817,35.46845],[135.77883,35.46829],[135.77877,35.46814],[135.77825,35.46825],[135.77814,35.46837],[135.77817,35.46845]]]}},{"type":"Feature","properties":{"pid":"777ff1ba-7068-4873-9e0c-4a29cf4be26d","full":4.3},"geometry":{"type":"Polygon","coordinates":[[[135.77831,35.46861],[135.77889,35.46847],[135.77883,35.4683],[135.77817,35.46845],[135.77819,35.46851],[135.77828,35.46853],[135.7783,35.46856],[135.77831,35.46861]]]}},{"type":"Feature","properties":{"pid":"e21202c4-1e3e-43b1-aa74-813eb059ac2c","full":4.8},"geometry":{"type":"Polygon","coordinates":[[[135.77833,35.46881],[135.77896,35.46866],[135.77889,35.46848],[135.77831,35.46863],[135.77833,35.46881]]]}},{"type":"Feature","properties":{"pid":"e7cb523e-0881-473d-a2fe-b7af681973bd","full":3.9},"geometry":{"type":"Polygon","coordinates":[[[135.77846,35.46896],[135.77902,35.46882],[135.77896,35.46867],[135.77834,35.46882],[135.77834,35.46885],[135.77833,35.46888],[135.77834,35.46892],[135.77846,35.46896]]]}},{"type":"Feature","properties":{"pid":"a7f08898-3502-4beb-98f7-d6bd1731432b","full":2.8},"geometry":{"type":"Polygon","coordinates":[[[135.77918,35.46901],[135.77957,35.46891],[135.7795,35.46874],[135.77911,35.46883],[135.77918,35.46901]]]}},{"type":"Feature","properties":{"pid":"0bd8049f-5412-4bb5-b5eb-b52dfb66ca10","full":12.7},"geometry":{"type":"Polygon","coordinates":[[[135.78012,35.46881],[135.78023,35.46848],[135.77961,35.46835],[135.77958,35.46853],[135.77958,35.46861],[135.77962,35.46871],[135.78012,35.46881]]]}},{"type":"Feature","properties":{"pid":"737bc252-2448-4978-a288-9714b3ba87a3","full":18.6},"geometry":{"type":"Polygon","coordinates":[[[135.78117,35.46865],[135.78129,35.4683],[135.78051,35.46814],[135.7804,35.46848],[135.78117,35.46865]]]}},{"type":"Feature","properties":{"pid":"23d6ea2e-753a-473b-9f36-a63be812df5c","full":16.4},"geometry":{"type":"Polygon","coordinates":[[[135.78107,35.46899],[135.78116,35.46868],[135.78038,35.46851],[135.78028,35.46883],[135.78107,35.46899]]]}},{"type":"Feature","properties":{"pid":"de3621d3-7df3-4e89-94e6-28689aecd433","full":15.7},"geometry":{"type":"Polygon","coordinates":[[[135.7809,35.46954],[135.78099,35.46924],[135.78019,35.46908],[135.7801,35.46938],[135.7809,35.46954]]]}},{"type":"Feature","properties":{"pid":"23db825c-da64-40fe-871c-63f528412da2","full":7.6},"geometry":{"type":"Polygon","coordinates":[[[135.78099,35.46924],[135.78105,35.46905],[135.78026,35.46888],[135.78019,35.46907],[135.78099,35.46924]]]}},{"type":"Feature","properties":{"pid":"88ab941a-3251-4766-8318-17f319701ec3","full":6.2},"geometry":{"type":"Polygon","coordinates":[[[135.77981,35.46915],[135.77996,35.46913],[135.78001,35.46914],[135.78012,35.46883],[135.77963,35.46873],[135.77981,35.46915]]]}},{"type":"Feature","properties":{"pid":"6f4c3547-ae0a-4a6c-b344-38d65a4f5932","full":6.8},"geometry":{"type":"Polygon","coordinates":[[[135.78083,35.46976],[135.78089,35.46956],[135.78009,35.46939],[135.78007,35.46946],[135.7803,35.46948],[135.78032,35.46952],[135.78031,35.46971],[135.78083,35.46976]]]}},{"type":"Feature","properties":{"pid":"c3999533-b549-4645-8d91-50f252fd243f","full":8.4},"geometry":{"type":"Polygon","coordinates":[[[135.78078,35.47061],[135.78083,35.47022],[135.78054,35.47019],[135.78048,35.47027],[135.78037,35.47044],[135.78037,35.47048],[135.78042,35.47058],[135.78078,35.47061]]]}},{"type":"Feature","properties":{"pid":"f354c5b3-b8a4-4813-8e5c-1c4e076d22b8","full":1.3},"geometry":{"type":"Polygon","coordinates":[[[135.77998,35.47075],[135.78012,35.47074],[135.78024,35.47047],[135.78009,35.4704],[135.78005,35.47039],[135.77998,35.47075]]]}},{"type":"Feature","properties":{"pid":"3c28ebfe-999c-4791-b945-7874f288a626","full":3.1},"geometry":{"type":"Polygon","coordinates":[[[135.77982,35.47077],[135.77997,35.47076],[135.78004,35.47039],[135.77998,35.47038],[135.77982,35.47037],[135.77976,35.47076],[135.77982,35.47077]]]}},{"type":"Feature","properties":{"pid":"cb0ab18c-11c8-490c-b1fa-67c7928735d8","full":6.5},"geometry":{"type":"Polygon","coordinates":[[[135.78057,35.47007],[135.78058,35.47002],[135.78061,35.46983],[135.77999,35.46978],[135.77998,35.46981],[135.77995,35.46981],[135.77991,35.46999],[135.78029,35.47001],[135.78057,35.47007]]]}},{"type":"Feature","properties":{"pid":"d0ea3f23-e234-4662-9e3b-36261b92c0e5","full":0.9},"geometry":{"type":"Polygon","coordinates":[[[135.77906,35.47012],[135.77943,35.47004],[135.77938,35.46993],[135.77938,35.46987],[135.7792,35.46987],[135.77919,35.47005],[135.77898,35.47005],[135.77898,35.47011],[135.77906,35.47012]]]}},{"type":"Feature","properties":{"pid":"820cc937-4b01-44cd-8d87-5c65a20eb18e","full":9.3},"geometry":{"type":"Polygon","coordinates":[[[135.77901,35.47039],[135.77967,35.47023],[135.77973,35.47],[135.77896,35.47015],[135.77894,35.47018],[135.77895,35.47025],[135.77897,35.47032],[135.77901,35.47039]]]}},{"type":"Feature","properties":{"pid":"cdc2a2a9-542b-4274-a182-98d9f2d2288e","full":3.5},"geometry":{"type":"Polygon","coordinates":[[[135.77911,35.4706],[135.77963,35.47048],[135.77966,35.47031],[135.77904,35.47045],[135.77911,35.4706]]]}},{"type":"Feature","properties":{"pid":"9337a4ab-9275-493b-89be-100db3f80bf4","full":0.9},"geometry":{"type":"Polygon","coordinates":[[[135.7792,35.4697],[135.77921,35.46952],[135.77911,35.46952],[135.77901,35.46953],[135.77896,35.46956],[135.77901,35.46969],[135.7792,35.4697]]]}},{"type":"Feature","properties":{"pid":"70915ad8-7394-4f35-a74b-4dca413555f6","full":2.2},"geometry":{"type":"Polygon","coordinates":[[[135.77938,35.46948],[135.77956,35.4695],[135.77957,35.4694],[135.77969,35.46938],[135.77963,35.46923],[135.77929,35.46931],[135.77934,35.46946],[135.77938,35.46948]]]}},{"type":"Feature","properties":{"pid":"4f8fdcde-8ac8-48ac-8406-62a0b6abed5c","full":0.9},"geometry":{"type":"Polygon","coordinates":[[[135.77929,35.4693],[135.77965,35.46922],[135.77968,35.46918],[135.77965,35.46909],[135.77925,35.46919],[135.77929,35.4693]]]}},{"type":"Feature","properties":{"pid":"290c600b-c743-43a4-a97a-4f31e9ac5298","full":2.6},"geometry":{"type":"Polygon","coordinates":[[[135.77924,35.46918],[135.77965,35.46908],[135.77957,35.46892],[135.77918,35.46901],[135.77924,35.46918]]]}},{"type":"Feature","properties":{"pid":"5252c4c4-717f-46cf-b452-3c9598d1b6f1","full":1.7},"geometry":{"type":"Polygon","coordinates":[[[135.77907,35.46902],[135.77902,35.46886],[135.7787,35.46894],[135.77876,35.4691],[135.77907,35.46902]]]}},{"type":"Feature","properties":{"pid":"0e241c46-b622-4c2d-9ead-95ae80122f07","full":1.5},"geometry":{"type":"Polygon","coordinates":[[[135.77891,35.47111],[135.77926,35.47099],[135.77917,35.47086],[135.77883,35.47098],[135.77887,35.47107],[135.77891,35.47111]]]}},{"type":"Feature","properties":{"pid":"baa1427b-7b77-4ad0-85f2-b38ef250b8a7","full":8.5},"geometry":{"type":"Polygon","coordinates":[[[135.77946,35.4711],[135.77956,35.47108],[135.77955,35.47096],[135.77955,35.47084],[135.77962,35.47051],[135.77912,35.47062],[135.7792,35.47075],[135.77922,35.47081],[135.77929,35.47091],[135.77946,35.4711]]]}},{"type":"Feature","properties":{"pid":"56ff323d-3320-45b1-bbe0-17aa0373e6f4","full":5.1},"geometry":{"type":"Polygon","coordinates":[[[135.7802,35.47177],[135.78042,35.47164],[135.78036,35.47149],[135.78028,35.47151],[135.78026,35.47149],[135.78019,35.47128],[135.78015,35.47128],[135.78006,35.47133],[135.78006,35.47134],[135.77995,35.47144],[135.7802,35.47177]]]}},{"type":"Feature","properties":{"pid":"b08cc2e8-273b-4888-8f6d-508381bda8bc","full":1.8},"geometry":{"type":"Polygon","coordinates":[[[135.78057,35.47112],[135.78054,35.47101],[135.78032,35.47103],[135.78031,35.47104],[135.78033,35.47125],[135.78058,35.47123],[135.78057,35.47112]]]}},{"type":"Feature","properties":{"pid":"d9d367eb-fc83-4d1a-9206-3e198b22feb1","full":3.2},"geometry":{"type":"Polygon","coordinates":[[[135.78027,35.4707],[135.78016,35.47069],[135.78013,35.47074],[135.78019,35.4708],[135.78029,35.47103],[135.78033,35.47102],[135.78054,35.471],[135.7804,35.47071],[135.78027,35.4707]]]}},{"type":"Feature","properties":{"pid":"16b34efd-9ecc-46d4-abe9-0743f51d9df8","full":4.5},"geometry":{"type":"Polygon","coordinates":[[[135.78079,35.47099],[135.78084,35.47067],[135.78043,35.47063],[135.78059,35.47097],[135.78079,35.47099]]]}},{"type":"Feature","properties":{"pid":"2081ca3e-6329-4cbe-a234-911331f45b25","full":2.3},"geometry":{"type":"Polygon","coordinates":[[[135.78101,35.47101],[135.78105,35.47069],[135.78085,35.47067],[135.7808,35.47099],[135.78101,35.47101]]]}},{"type":"Feature","properties":{"pid":"0fe60c2f-4b4d-468d-a983-1f54a5829d7f","full":7.8},"geometry":{"type":"Polygon","coordinates":[[[135.78106,35.47136],[135.7811,35.47104],[135.78059,35.47099],[135.78061,35.47102],[135.78064,35.47112],[135.78066,35.47132],[135.78106,35.47136]]]}},{"type":"Feature","properties":{"pid":"3f3abe86-d969-489a-a6b7-74fc32e3f378","full":0.5},"geometry":{"type":"Polygon","coordinates":[[[135.78044,35.47164],[135.78058,35.47163],[135.78061,35.47145],[135.78038,35.47149],[135.78044,35.47164]]]}},{"type":"Feature","properties":{"pid":"664b0175-8dbe-44d9-b83f-98aa934d6f5b","full":1.0},"geometry":{"type":"Polygon","coordinates":[[[135.78044,35.47201],[135.78044,35.47165],[135.78021,35.47178],[135.78037,35.47198],[135.78039,35.47201],[135.78044,35.47201]]]}}],"precision":5}