{"type":"FeatureCollection","features":[{"type":"Feature","properties":{"pid":"46dcb7ca-a183-47c9-93a0-48932c11b644"},"geometry":{"type":"Polygon","coordinates":[[[136.0910933078866,35.605973700595754],[136.09120406608773,35.60597906010193],[136.0911641802005,35.60577572095735],[136.09095344037783,35.60581089101723],[136.0909423351885,35.60588991205035],[136.09106500746842,35.60588621973475],[136.09108635931653,35.60591094180958],[136.0910933078866,35.605973700595754]]]}},{"type":"Feature","properties":{"pid":"16fed7ea-6cc5-4e25-86d4-d9b512c179bb"},"geometry":{"type":"Polygon","coordinates":[[[136.0896255912072,35.605742433687894],[136.0895261730234,35.60570896983523],[136.08939979978027,35.60578505689612],[136.08944918279215,35.6058253129155],[136.0896255912072,35.605742433687894]]]}},{"type":"Feature","properties":{"pid":"61eaa267-82c1-4e1a-a7e1-10adc60f975c"},"geometry":{"type":"Polygon","coordinates":[[[136.0889503545573,35.60697580951511],[136.08903867972742,35.60690354747379],[136.08898574649908,35.60682335163012],[136.08887187871701,35.606920093252285],[136.0889503545573,35.60697580951511]]]}},{"type":"Feature","properties":{"pid":"253cb157-9cb3-49ed-a6b3-809fe3aed55a"},"geometry":{"type":"Polygon","coordinates":[[[136.08846789839507,35.605281990597575],[136.0884455224658,35.60504365462966],[136.08854126502354,35.604976006438754],[136.0885371668851,35.60488905219854],[136.08857534605448,35.60481944885929],[136.0886604430614,35.604756937076964],[136.0886812831075,35.604690741408945],[136.08857111578746,35.60470940143255],[136.0885216805522,35.60486177124679],[136.08849375048482,35.60489449175011],[136.088385954038,35.60515433537918],[136.08837395441824,35.605188504632245],[136.08846789839507,35.605281990597575]]]}},{"type":"Feature","properties":{"pid":"81bea94a-df9d-44f8-bc2d-f6b3596b580d"},"geometry":{"type":"Polygon","coordinates":[[[136.0882294486436,35.60506342763511],[136.08826556982166,35.60508332516602],[136.08841634060704,35.60468886171789],[136.08839133263342,35.60468596298498],[136.0882294486436,35.60506342763511]]]}},{"type":"Feature","properties":{"pid":"393f6c39-7b7c-4aa9-86c3-1e71f7e5bece"},"geometry":{"type":"Polygon","coordinates":[[[136.08811130758613,35.604959160683904],[136.08823318768862,35.60465541568237],[136.08819173800046,35.6046581808856],[136.0880793454188,35.60491934211437],[136.08811130758613,35.604959160683904]]]}},{"type":"Feature","properties":{"pid":"f3576850-dcd6-4a02-b222-7136b9897077"},"geometry":{"type":"Polygon","coordinates":[[[136.0879592605644,35.604817169432295],[136.08802558295122,35.604650157760105],[136.0879359519957,35.604694785589786],[136.08791882270822,35.604733363149556],[136.08792056912418,35.60476423984896],[136.0879592605644,35.604817169432295]]]}},{"type":"Feature","properties":{"pid":"66e84a4a-ac62-4036-a5ef-50f4a1f9c0be"},"geometry":{"type":"Polygon","coordinates":[[[136.09129581184519,35.60512311311088],[136.0913646854834,35.60515662920966],[136.09140047856627,35.60522422968595],[136.09147167950007,35.605282515003665],[136.09149462900157,35.60527764543628],[136.09146685683854,35.60521474798669],[136.09136460171297,35.605096757795394],[136.09129581184519,35.60512311311088]]]}},{"type":"Feature","properties":{"pid":"a2925cc9-fd31-4dd0-9c53-10dd2c2708b5"},"geometry":{"type":"Polygon","coordinates":[[[136.0945633481255,35.60585236871036],[136.09488952275578,35.60595417555197],[136.09496439679916,35.60583400829769],[136.0947832859564,35.60574941027152],[136.0945633481255,35.60585236871036]]]}},{"type":"Feature","properties":{"pid":"ca91fd2a-a6f2-4707-8adb-a9e88f63f036"},"geometry":{"type":"Polygon","coordinates":[[[136.0947242810809,35.606338234712744],[136.09481551060315,35.60636947580572],[136.09486624418687,35.606365089960555],[136.09508899510888,35.6060278856391],[136.09499550140418,35.60599801336622],[136.0947242810809,35.606338234712744]]]}},{"type":"Feature","properties":{"pid":"58ea800f-a827-4c43-acf9-d8197ba32177"},"geometry":{"type":"Polygon","coordinates":[[[136.09451670651427,35.605945543203205],[136.09452168168164,35.60606555342035],[136.09453520259953,35.60607972197203],[136.09473154652318,35.6061411352013],[136.0948177142245,35.60604117708435],[136.09451670651427,35.605945543203205]]]}},{"type":"Feature","properties":{"pid":"5e4884ac-cdb1-4f2b-b5d8-3edc3d277abe"},"geometry":{"type":"Polygon","coordinates":[[[136.09499255010763,35.60637359274082],[136.09524148844395,35.60634966514582],[136.09524527097122,35.60624436842956],[136.09530956863196,35.60608479744077],[136.09520362532442,35.60605803770021],[136.09499255010763,35.60637359274082]]]}},{"type":"Feature","properties":{"pid":"412f519e-aa6d-443b-953f-accfe223979a"},"geometry":{"type":"Polygon","coordinates":[[[136.0953617059131,35.6062827546017],[136.09557780551611,35.60622491858924],[136.0955415104546,35.60611902883436],[136.09542619275854,35.60610253106222],[136.09537487501385,35.60621366878705],[136.0953617059131,35.6062827546017]]]}},{"type":"Feature","properties":{"pid":"4b05d3df-2535-4260-929a-09f9c8ff4f62"},"geometry":{"type":"Polygon","coordinates":[[[136.09842798028922,35.60408742051953],[136.09846266152888,35.604203876798174],[136.0985366378353,35.604251794377504],[136.09857636938634,35.60420891237816],[136.09861472587858,35.60410905244853],[136.09842798028922,35.60408742051953]]]}},{"type":"Feature","properties":{"pid":"f1ea20aa-5f48-4744-84f9-f9531b5c7300"},"geometry":{"type":"Polygon","coordinates":[[[136.09898097385712,35.604011183218326],[136.099133254168,35.60384928852381],[136.09914837035052,35.60381523327741],[136.09909016785758,35.60377479624376],[136.09898941102716,35.60382866600105],[136.09880953026666,35.60388680734433],[136.0988134629134,35.60390207594519],[136.09898097385712,35.604011183218326]]]}},{"type":"Feature","properties":{"pid":"066cdd77-1976-4953-a663-3b00d0ecec02"},"geometry":{"type":"Polygon","coordinates":[[[136.09882414323795,35.603714524223086],[136.09892265126237,35.60370608000379],[136.09901545520208,35.60365306349795],[136.09895521258943,35.60365683894146],[136.0988245717942,35.60363309774873],[136.09879960651344,35.603684595151975],[136.09882414323795,35.603714524223086]]]}},{"type":"Feature","properties":{"pid":"5aaf5514-26c5-4def-a81b-8f63d99c015c"},"geometry":{"type":"Polygon","coordinates":[[[136.09842496838124,35.603983956565834],[136.09864331899118,35.60400833033205],[136.09867601777472,35.60394228310129],[136.09865730147877,35.603881942515095],[136.0985750722803,35.60388809519425],[136.09852664244033,35.60386620464907],[136.0984765475404,35.60380232616032],[136.09847712510455,35.60373990537613],[136.0984149139362,35.60377057404829],[136.09839943063108,35.60385927938034],[136.09842496838124,35.603983956565834]]]}},{"type":"Feature","properties":{"pid":"96297ddd-de93-4aa6-9328-92c508ee6c92"},"geometry":{"type":"Polygon","coordinates":[[[136.09826769978886,35.6038578259444],[136.09821186921926,35.60389573747433],[136.0982150635974,35.60397007530933],[136.09829586769283,35.60397000935175],[136.09826769978886,35.6038578259444]]]}}]}