{"type":"FeatureCollection","features":[{"type":"Feature","properties":{"pid":"e7562854-7a3e-4953-b42e-7cc1303eb582"},"geometry":{"type":"Polygon","coordinates":[[[136.21574048505892,35.84438015559179],[136.2159097474818,35.844493519800785],[136.21628889791535,35.844405442707085],[136.21616024135216,35.84424978121676],[136.21574048505892,35.84438015559179]]]}},{"type":"Feature","properties":{"pid":"d4afae65-1e19-4962-a21c-4f30da02389f"},"geometry":{"type":"Polygon","coordinates":[[[136.21640939206085,35.84463756239282],[136.2160998099807,35.844719142503706],[136.21611436498915,35.84473936048657],[136.21642469857082,35.84465533710021],[136.21640939206085,35.84463756239282]]]}},{"type":"Feature","properties":{"pid":"5604c7c3-98c1-4922-bff5-1141dedfbd29"},"geometry":{"type":"Polygon","coordinates":[[[136.21623631604626,35.844899486090405],[136.21644982035974,35.84475432142875],[136.21618708745999,35.84483548347995],[136.21623631604626,35.844899486090405]]]}},{"type":"Feature","properties":{"pid":"b0e0046e-7b39-454a-ae8d-55f0c38f8085"},"geometry":{"type":"Polygon","coordinates":[[[136.2142783544837,35.84369614441747],[136.21435481863355,35.84377012146358],[136.2146134701874,35.84372680751728],[136.21454866754388,35.84366075240316],[136.2142783544837,35.84369614441747]]]}},{"type":"Feature","properties":{"pid":"f41aaf0c-18a0-4ecd-8047-eba67f2294cc"},"geometry":{"type":"Polygon","coordinates":[[[136.21495898589743,35.84402561199229],[136.21486714697977,35.84417130469861],[136.21495605221665,35.84426758127124],[136.21510596142733,35.844127283532835],[136.21495898589743,35.84402561199229]]]}},{"type":"Feature","properties":{"pid":"63c10bd1-6cad-47d0-b08d-a2e5b9c3bd4d"},"geometry":{"type":"Polygon","coordinates":[[[136.21510094154658,35.84432944140651],[136.21520157458684,35.84434033032385],[136.21528127318768,35.84425733138647],[136.21521421391554,35.84420828628812],[136.21510094154658,35.84432944140651]]]}},{"type":"Feature","properties":{"pid":"eeb3ddb4-13c3-4b3a-a195-b72189d6aef5"},"geometry":{"type":"Polygon","coordinates":[[[136.21532501183833,35.84447050079266],[136.2154334594714,35.84437688530635],[136.21538565868394,35.84434082263076],[136.2152972846427,35.84444657533144],[136.21530073864048,35.84446813487082],[136.21532501183833,35.84447050079266]]]}},{"type":"Feature","properties":{"pid":"6330ded8-44b9-42f7-9915-0c4791627a8c"},"geometry":{"type":"Polygon","coordinates":[[[136.21602439506242,35.844074838179424],[136.21550506747198,35.84419744848234],[136.21561667883165,35.84427478981751],[136.21607596578272,35.84413365855768],[136.21602439506242,35.844074838179424]]]}},{"type":"Feature","properties":{"pid":"13ec04ed-ad3e-4667-8298-3723dfa32346"},"geometry":{"type":"Polygon","coordinates":[[[136.21576545842896,35.84378654675899],[136.21513751237822,35.843922449810876],[136.21517045872704,35.84394614120157],[136.21578617223415,35.84380150570408],[136.21576545842896,35.84378654675899]]]}},{"type":"Feature","properties":{"pid":"43a6e42c-5bd7-47b8-a0a9-a0dd149efce1"},"geometry":{"type":"Polygon","coordinates":[[[136.21588682356838,35.84390488329783],[136.21529333335525,35.84404002137319],[136.2153809854047,35.84410290474084],[136.21595072664132,35.84396863236382],[136.21588682356838,35.84390488329783]]]}},{"type":"Feature","properties":{"pid":"e341fa6d-1b3a-4286-acac-b11679a7ac96"},"geometry":{"type":"Polygon","coordinates":[[[136.21494615673862,35.843780307002795],[136.21501112311097,35.84382303135645],[136.21565858718472,35.84367811718555],[136.21549012620287,35.84355090953309],[136.21494615673862,35.843780307002795]]]}},{"type":"Feature","properties":{"pid":"9d773f94-785f-4ab4-92dc-dec0e9c0e553"},"geometry":{"type":"Polygon","coordinates":[[[136.21475843318117,35.843970339766706],[136.21471068243136,35.843894820908965],[136.21461965755825,35.84391059334266],[136.21468672264075,35.84399300264601],[136.21475843318117,35.843970339766706]]]}},{"type":"Feature","properties":{"pid":"d679a466-07e7-48b3-8046-fefdff785bf9"},"geometry":{"type":"Polygon","coordinates":[[[136.21469774395945,35.84297473727382],[136.21437122019356,35.843196808958595],[136.21449346131342,35.84330236524482],[136.21485369270903,35.843065360135185],[136.21469774395945,35.84297473727382]]]}},{"type":"Feature","properties":{"pid":"3cec5716-925a-4c18-bf40-07161677f4d8"},"geometry":{"type":"Polygon","coordinates":[[[136.2149496222131,35.84316739478338],[136.2145809651993,35.843416719365486],[136.21469903196652,35.843519872115024],[136.21510684513814,35.84324736638334],[136.2149496222131,35.84316739478338]]]}},{"type":"Feature","properties":{"pid":"3335a7f7-573c-4c90-88b5-eb5baeac1931"},"geometry":{"type":"Polygon","coordinates":[[[136.21520729204087,35.84333389759762],[136.21478819745633,35.84361903709319],[136.21485581389894,35.84367906899871],[136.21540111086614,35.84344924658061],[136.21520729204087,35.84333389759762]]]}},{"type":"Feature","properties":{"pid":"63058d2f-5ef6-4723-8fcf-c50ec49a89c0"},"geometry":{"type":"Polygon","coordinates":[[[136.21422760831948,35.84258270308544],[136.21391715188582,35.842780494883115],[136.2140604860851,35.84290233125371],[136.21434627329427,35.84270844004674],[136.2143015316262,35.84267708012062],[136.21422760831948,35.84258270308544]]]}},{"type":"Feature","properties":{"pid":"37b26226-6511-4958-8840-b0225c52cc95"},"geometry":{"type":"Polygon","coordinates":[[[136.21443795534717,35.84280171607205],[136.214147981336,35.84300048523799],[136.21427154115972,35.84310495858881],[136.2145871219009,35.842896334708094],[136.21443795534717,35.84280171607205]]]}},{"type":"Feature","properties":{"pid":"f0e6da59-abf3-4b76-ba52-eda63f7685c2"},"geometry":{"type":"Polygon","coordinates":[[[136.21420391483113,35.84333457359961],[136.21408021828367,35.84342025195453],[136.2141508444811,35.843453585886486],[136.2142268298018,35.84353739828614],[136.21430159895684,35.8435463291597],[136.2143810004047,35.843530538536136],[136.21420391483113,35.84333457359961]]]}},{"type":"Feature","properties":{"pid":"22cd85d4-9aff-43fc-9e2a-a829488272ce"},"geometry":{"type":"Polygon","coordinates":[[[136.21369207543933,35.843311513916355],[136.2139166718883,35.84334115243671],[136.2140916558247,35.843241583031194],[136.21397875750606,35.84312908079923],[136.21369207543933,35.843311513916355]]]}},{"type":"Feature","properties":{"pid":"7346e9e7-c2d7-47cd-9169-f163992fb4bf"},"geometry":{"type":"Polygon","coordinates":[[[136.2135474371258,35.84269142319148],[136.21297448770545,35.84310268511771],[136.21311007099786,35.84316623890753],[136.2131603991983,35.84316842606621],[136.21367866654572,35.8428157181638],[136.2135474371258,35.84269142319148]]]}},{"type":"Feature","properties":{"pid":"df34b504-f78c-4d42-a6a2-2b4bb9c8c9d6"},"geometry":{"type":"Polygon","coordinates":[[[136.21376693053793,35.84290728063816],[136.21337557746918,35.84319497992349],[136.2135547530943,35.84324326224256],[136.21387597156428,35.843022942870746],[136.21376693053793,35.84290728063816]]]}},{"type":"Feature","properties":{"pid":"ce4b3fa7-8345-481e-ba41-9ce69da057e0"},"geometry":{"type":"Polygon","coordinates":[[[136.2126870034004,35.84292026033749],[136.21274473065094,35.84293834725598],[136.21284824329229,35.84301260125924],[136.21344035988054,35.842611624698385],[136.21331592240617,35.8424945243611],[136.2126870034004,35.84292026033749]]]}},{"type":"Feature","properties":{"pid":"cd65e705-ed46-4e3d-bea5-2dc184f13819"},"geometry":{"type":"Polygon","coordinates":[[[136.21290960503708,35.842073676703706],[136.2121485504434,35.84258818274108],[136.21229457691993,35.84268890193972],[136.21302123636474,35.842186787630936],[136.21290960503708,35.842073676703706]]]}},{"type":"Feature","properties":{"pid":"7dfd2736-025f-459c-84fe-93492a1b6d21"},"geometry":{"type":"Polygon","coordinates":[[[136.21243268082657,35.84274680802624],[136.2125317036926,35.842790869148246],[136.2131900248886,35.8423487813095],[136.2131209405081,35.84228071861314],[136.21243268082657,35.84274680802624]]]}},{"type":"Feature","properties":{"pid":"6d57c0df-4b6e-44ff-a61e-975a7114befc"},"geometry":{"type":"Polygon","coordinates":[[[136.21268738739883,35.84186677519027],[136.21193152259252,35.84237798085358],[136.21205889820897,35.84249767208205],[136.21281316325675,35.84198624562256],[136.21268738739883,35.84186677519027]]]}},{"type":"Feature","properties":{"pid":"aac0f08a-cfdc-4cab-87af-2d820656fa2f"},"geometry":{"type":"Polygon","coordinates":[[[136.21247717241602,35.84165815494647],[136.2117232262365,35.84216936375812],[136.2118425099847,35.842289134110295],[136.21259272961905,35.841774701409264],[136.21247717241602,35.84165815494647]]]}},{"type":"Feature","properties":{"pid":"abca4a3e-130f-4226-a7ea-c00f7ad035a6"},"geometry":{"type":"Polygon","coordinates":[[[136.21223530862764,35.84141543505732],[136.21156359057997,35.841869520543575],[136.21158530005192,35.84196887746201],[136.21164811480676,35.842064410234336],[136.21238058406837,35.841568876964374],[136.21223530862764,35.84141543505732]]]}},{"type":"Feature","properties":{"pid":"b9ea1b6f-394a-4838-8031-84d37ea70af6"},"geometry":{"type":"Polygon","coordinates":[[[136.2131956953363,35.84116181020515],[136.2126211603289,35.84153741738337],[136.2127695354629,35.8416532083798],[136.21337886587781,35.84123269284675],[136.2131956953363,35.84116181020515]]]}},{"type":"Feature","properties":{"pid":"ac0b0177-2065-4f3d-ab4f-cd31564ac6d7"},"geometry":{"type":"Polygon","coordinates":[[[136.21286485913217,35.84097399567233],[136.2123927813754,35.841301485873814],[136.21250923776824,35.841401200879915],[136.213043260208,35.84105885540093],[136.21300987735364,35.84103720677563],[136.2129607967022,35.84103170963053],[136.21286485913217,35.84097399567233]]]}},{"type":"Feature","properties":{"pid":"5df29bc8-32e6-48c2-a3ea-a56bc2af87eb"},"geometry":{"type":"Polygon","coordinates":[[[136.21260769499378,35.840795362683295],[136.21216923386214,35.84109394311949],[136.21230160286046,35.841209000277864],[136.2127555721872,35.840894291666196],[136.21266758613302,35.84084869467029],[136.21260769499378,35.840795362683295]]]}},{"type":"Feature","properties":{"pid":"f6a8794d-fd50-419a-b008-719db14acff8"},"geometry":{"type":"Polygon","coordinates":[[[136.21170343466196,35.84091287180938],[136.21158208585916,35.84079018562424],[136.21105552870998,35.84116099472844],[136.2111896998097,35.841263243619956],[136.21170343466196,35.84091287180938]]]}},{"type":"Feature","properties":{"pid":"18d02656-445c-4b79-bd9f-10549db551b1"},"geometry":{"type":"Polygon","coordinates":[[[136.21191623504788,35.841122934118424],[136.2117931140289,35.84099917054683],[136.21127828556035,35.84135737386361],[136.21139250789136,35.841480821014315],[136.21191623504788,35.841122934118424]]]}},{"type":"Feature","properties":{"pid":"7cf5029e-448c-4f29-b33d-e6d2c68a5cb8"},"geometry":{"type":"Polygon","coordinates":[[[136.21147905331577,35.841575804260486],[136.2115196397361,35.84162642336443],[136.21154767010745,35.84171914276652],[136.21212846864003,35.84132650248407],[136.212010106441,35.841209836120115],[136.21147905331577,35.841575804260486]]]}},{"type":"Feature","properties":{"pid":"e5385f74-db33-4b1f-89d3-c6dc09049a95"},"geometry":{"type":"Polygon","coordinates":[[[136.21107771140916,35.84026708592914],[136.2104324692368,35.84052417573173],[136.21041803933696,35.84064874213588],[136.21044933106197,35.84075554900095],[136.2105660226342,35.84067547453435],[136.21084330288102,35.84056269226563],[136.21115219323562,35.840350633326665],[136.21107771140916,35.84026708592914]]]}},{"type":"Feature","properties":{"pid":"f08a443b-f3c7-4333-a171-fd06c93ac9a5"},"geometry":{"type":"Polygon","coordinates":[[[136.2105583977712,35.840833112150946],[136.21073195709292,35.840861549433],[136.21127197127845,35.840496925439716],[136.21123784193713,35.84045668791],[136.21091068566398,35.84066931639247],[136.2106433063719,35.84076946371912],[136.2105583977712,35.840833112150946]]]}},{"type":"Feature","properties":{"pid":"e922e798-ff6a-4caa-b14b-e224df017c71"},"geometry":{"type":"Polygon","coordinates":[[[136.21148339493143,35.840705997113886],[136.21136142631724,35.84058954089623],[136.21085578616504,35.84093665526575],[136.21096788215175,35.841066289398036],[136.21148339493143,35.840705997113886]]]}},{"type":"Feature","properties":{"pid":"956fcc7c-1a6d-4a81-9524-273ef1e3a2e0"},"geometry":{"type":"Polygon","coordinates":[[[136.21217494739525,35.84039592671879],[136.21175864594443,35.840676664084896],[136.21188306650353,35.84078620919345],[136.21235231297374,35.84046615751004],[136.21217494739525,35.84039592671879]]]}},{"type":"Feature","properties":{"pid":"36013024-54c7-484f-afe7-ec931a048c85"},"geometry":{"type":"Polygon","coordinates":[[[136.21242775157262,35.84056072724129],[136.2119522000437,35.8408863011824],[136.21208447936414,35.84100017365419],[136.2125437230309,35.84068569518759],[136.21242775157262,35.84056072724129]]]}},{"type":"Feature","properties":{"pid":"c2889ccd-1f4d-4441-9fa3-65ee949287fd"},"geometry":{"type":"Polygon","coordinates":[[[136.21286381534478,35.841748747591176],[136.21299004836837,35.8418587032727],[136.2136498582917,35.84140137443307],[136.21350238692116,35.84130912526642],[136.21286381534478,35.841748747591176]]]}},{"type":"Feature","properties":{"pid":"c8bae551-5b97-4b7e-9e86-324c8dbd8504"},"geometry":{"type":"Polygon","coordinates":[[[136.21319772387093,35.842062363283],[136.21387919328174,35.84159998849613],[136.21376122432457,35.84149146282244],[136.21307818338292,35.84195361242824],[136.21319772387093,35.842062363283]]]}},{"type":"Feature","properties":{"pid":"82b6cdea-9e97-4b3f-b1db-9786cd12cd4f"},"geometry":{"type":"Polygon","coordinates":[[[136.2140391374779,35.84184184592083],[136.21402029888662,35.841775261079135],[136.21396824697717,35.84169813489038],[136.21328482647732,35.84216671809511],[136.21341446522482,35.842271813298694],[136.2140391374779,35.84184184592083]]]}},{"type":"Feature","properties":{"pid":"19124c6b-1a96-4b44-a709-4301ce4cef7a"},"geometry":{"type":"Polygon","coordinates":[[[136.21404332215013,35.842000839477095],[136.2135057132454,35.84237210201369],[136.21362361789184,35.842490715284605],[136.2140650900356,35.84217848986907],[136.21404332215013,35.842000839477095]]]}},{"type":"Feature","properties":{"pid":"efba7a53-3364-4dd2-bfb7-7df3d2c601fe"},"geometry":{"type":"Polygon","coordinates":[[[136.21408918901994,35.84232329806037],[136.21371005457445,35.84258576937694],[136.21379466184442,35.84265527175149],[136.21414509640758,35.84243379055104],[136.21408918901994,35.84232329806037]]]}},{"type":"Feature","properties":{"pid":"00c35394-a596-4450-8a74-c7dd9a9a1f1b"},"geometry":{"type":"Polygon","coordinates":[[[136.20810650733569,35.840752242399795],[136.20873073372593,35.840467374978054],[136.2087022056105,35.840433042216674],[136.2080929060973,35.840729195408585],[136.20810650733569,35.840752242399795]]]}},{"type":"Feature","properties":{"pid":"00be6d0e-a1d8-4184-96ed-1035c6e52dac"},"geometry":{"type":"Polygon","coordinates":[[[136.20816604076464,35.84085213040689],[136.20825712328198,35.84096725648506],[136.2088785118692,35.84067614561581],[136.2087987732983,35.84055905926728],[136.20816604076464,35.84085213040689]]]}},{"type":"Feature","properties":{"pid":"9a134adb-25de-4478-be4d-578eec7df1af"},"geometry":{"type":"Polygon","coordinates":[[[136.20828526102008,35.841382620600754],[136.20840039810508,35.84138348058744],[136.2084597533057,35.84145055209091],[136.2084957436767,35.84145126027566],[136.20857513707787,35.84142603586424],[136.2086531295407,35.84135498573675],[136.2085134200322,35.84134974000339],[136.20831388785507,35.841309016333504],[136.20828840693886,35.841344298346755],[136.20828526102008,35.841382620600754]]]}},{"type":"Feature","properties":{"pid":"efefe2b5-42fd-4eed-b905-0ea1d4e489a1"},"geometry":{"type":"Polygon","coordinates":[[[136.20834493327527,35.84109435221363],[136.20863949985306,35.84103749533681],[136.2090154641259,35.84085428764004],[136.2089540776601,35.84076187170031],[136.20832095958545,35.8410617311738],[136.20834493327527,35.84109435221363]]]}},{"type":"Feature","properties":{"pid":"879de720-f133-4a73-afff-5a3123e49095"},"geometry":{"type":"Polygon","coordinates":[[[136.20834885514887,35.84119631176393],[136.20850645320576,35.841232616979205],[136.20872689696193,35.84124385344022],[136.2087945525368,35.84116773670716],[136.20901172490838,35.8410409792283],[136.20905163087957,35.84095947488886],[136.20869356874383,35.84113276892994],[136.20834885514887,35.84119631176393]]]}},{"type":"Feature","properties":{"pid":"8378cfa4-d415-4574-b300-ea8b669699ad"},"geometry":{"type":"Polygon","coordinates":[[[136.20084678792077,35.841920421861445],[136.20024778049262,35.84151328943964],[136.20011331332432,35.84164247169186],[136.20064861756288,35.84201187942371],[136.20084678792077,35.841920421861445]]]}},{"type":"Feature","properties":{"pid":"bcddde70-63a7-48e0-a8bf-e7f5463ceb40"},"geometry":{"type":"Polygon","coordinates":[[[136.20046385023943,35.84130452589972],[136.2003310223832,35.84142790608534],[136.200965585422,35.84185963162678],[136.20105205254472,35.841818866400956],[136.2010995654312,35.84174233878093],[136.20046385023943,35.84130452589972]]]}},{"type":"Feature","properties":{"pid":"d9a27ea4-7c6c-49b4-a7c1-81e200b52cd6"},"geometry":{"type":"Polygon","coordinates":[[[136.20118520547896,35.84167232046298],[136.20130981537056,35.84153699676503],[136.20078277450403,35.84119417394669],[136.20059601511497,35.84125922678025],[136.20118520547896,35.84167232046298]]]}},{"type":"Feature","properties":{"pid":"e36b32d5-2776-47ad-99dc-86b122ec0003"},"geometry":{"type":"Polygon","coordinates":[[[136.20137198436765,35.8412630065813],[136.2013120200012,35.84131516240152],[136.20144574493645,35.84140414082272],[136.20151175014024,35.84132127956407],[136.20137198436765,35.8412630065813]]]}},{"type":"Feature","properties":{"pid":"8487208d-ee1c-4289-8e5b-88f5e549cac4"},"geometry":{"type":"Polygon","coordinates":[[[136.20137203796003,35.84109781973902],[136.20120083450425,35.840978109176014],[136.2010397075585,35.84111517429134],[136.20121931156825,35.84123589345523],[136.20137203796003,35.84109781973902]]]}},{"type":"Feature","properties":{"pid":"b1a0df0e-58c9-4658-a41a-7a7cfa9a5b00"},"geometry":{"type":"Polygon","coordinates":[[[136.20043479924092,35.840570092253856],[136.2000060094435,35.840274536411066],[136.19986007810618,35.84041314529816],[136.20048228602536,35.840838361677385],[136.20040635139128,35.840729578979904],[136.2003817788229,35.84065892757176],[136.20040210937253,35.84060503011004],[136.20043479924092,35.840570092253856]]]}},{"type":"Feature","properties":{"pid":"f9f1a887-61b1-4b2f-9236-246b0df0573b"},"geometry":{"type":"Polygon","coordinates":[[[136.20037495657715,35.84217824829186],[136.20040822220906,35.842154250380005],[136.1999182425059,35.84182343408704],[136.1998942962283,35.841845213302044],[136.20037495657715,35.84217824829186]]]}},{"type":"Feature","properties":{"pid":"52379b36-bc08-4af8-b822-a99fd03f88f8"},"geometry":{"type":"Polygon","coordinates":[[[136.20053469716052,35.842069671629794],[136.20003090184034,35.84171977674198],[136.19999623361255,35.84174849741421],[136.20049883238957,35.842092960817006],[136.20053469716052,35.842069671629794]]]}},{"type":"Feature","properties":{"pid":"f90708df-9ba5-49fa-8fd3-b883a9b02e58"},"geometry":{"type":"Polygon","coordinates":[[[136.2000813110722,35.84336224873247],[136.2001173168711,35.843364394374035],[136.2002909574454,35.84322495779181],[136.20025570974008,35.8431889553842],[136.20005428490165,35.843332859026056],[136.2000813110722,35.84336224873247]]]}},{"type":"Feature","properties":{"pid":"e407adba-f92b-4773-a4ab-5860786453fc"},"geometry":{"type":"Polygon","coordinates":[[[136.2002169684048,35.84346934677979],[136.20026627119844,35.843522434880825],[136.20035425759772,35.84348397259759],[136.20044584074085,35.843392679990906],[136.20039609713479,35.84333534085765],[136.2002169684048,35.84346934677979]]]}}]}