{"type":"FeatureCollection","features":[{"type":"Feature","properties":{"pid":"e7562854-7a3e-4953-b42e-7cc1303eb582","full":7.1},"geometry":{"type":"Polygon","coordinates":[[[136.21618,35.8442],[136.21565,35.84436],[136.21566,35.84438],[136.21589,35.84454],[136.21591,35.84454],[136.21637,35.84443],[136.2163,35.84433],[136.21618,35.8442]]]}},{"type":"Feature","properties":{"pid":"d4afae65-1e19-4962-a21c-4f30da02389f","full":0.7},"geometry":{"type":"Polygon","coordinates":[[[136.21643,35.84458],[136.21602,35.84469],[136.21609,35.84479],[136.21651,35.84468],[136.21643,35.84458]]]}},{"type":"Feature","properties":{"pid":"5604c7c3-98c1-4922-bff5-1141dedfbd29","full":1.0},"geometry":{"type":"Polygon","coordinates":[[[136.21653,35.84468],[136.2161,35.84481],[136.2162,35.84493],[136.21621,35.84497],[136.21657,35.84473],[136.21653,35.84468]]]}},{"type":"Feature","properties":{"pid":"b0e0046e-7b39-454a-ae8d-55f0c38f8085","full":2.1},"geometry":{"type":"Polygon","coordinates":[[[136.21457,35.84361],[136.21432,35.84365],[136.21422,35.84365],[136.2142,35.84369],[136.21433,35.84382],[136.21471,35.84376],[136.21457,35.84361]]]}},{"type":"Feature","properties":{"pid":"f41aaf0c-18a0-4ecd-8047-eba67f2294cc","full":2.9},"geometry":{"type":"Polygon","coordinates":[[[136.21493,35.84432],[136.21497,35.84431],[136.21502,35.84428],[136.21518,35.84412],[136.21492,35.84394],[136.2149,35.84396],[136.2149,35.84403],[136.2148,35.84417],[136.21493,35.84432]]]}},{"type":"Feature","properties":{"pid":"63c10bd1-6cad-47d0-b08d-a2e5b9c3bd4d","full":1.1},"geometry":{"type":"Polygon","coordinates":[[[136.21501,35.84436],[136.21523,35.84439],[136.21536,35.84425],[136.21521,35.84414],[136.21506,35.8443],[136.215,35.84434],[136.21501,35.84436]]]}},{"type":"Feature","properties":{"pid":"eeb3ddb4-13c3-4b3a-a195-b72189d6aef5","full":0.7},"geometry":{"type":"Polygon","coordinates":[[[136.21535,35.84452],[136.21551,35.84437],[136.21538,35.84427],[136.21524,35.84444],[136.21525,35.84451],[136.21535,35.84452]]]}},{"type":"Feature","properties":{"pid":"6330ded8-44b9-42f7-9915-0c4791627a8c","full":4.4},"geometry":{"type":"Polygon","coordinates":[[[136.21605,35.84402],[136.21539,35.84418],[136.21561,35.84433],[136.21616,35.84416],[136.21605,35.84402]]]}},{"type":"Feature","properties":{"pid":"13ec04ed-ad3e-4667-8298-3723dfa32346","full":1.6},"geometry":{"type":"Polygon","coordinates":[[[136.21578,35.84374],[136.21502,35.8439],[136.21516,35.844],[136.2159,35.84382],[136.21578,35.84374]]]}},{"type":"Feature","properties":{"pid":"43a6e42c-5bd7-47b8-a0a9-a0dd149efce1","full":4.7},"geometry":{"type":"Polygon","coordinates":[[[136.21591,35.84385],[136.21518,35.84402],[136.21537,35.84415],[136.21605,35.84399],[136.21591,35.84385]]]}},{"type":"Feature","properties":{"pid":"e341fa6d-1b3a-4286-acac-b11679a7ac96","full":7.3},"geometry":{"type":"Polygon","coordinates":[[[136.2155,35.8435],[136.21486,35.84376],[136.21488,35.8438],[136.215,35.84387],[136.21577,35.8437],[136.2155,35.8435]]]}},{"type":"Feature","properties":{"pid":"9d773f94-785f-4ab4-92dc-dec0e9c0e553","full":0.8},"geometry":{"type":"Polygon","coordinates":[[[136.21484,35.84399],[136.21474,35.84384],[136.21453,35.84388],[136.21467,35.84405],[136.21484,35.84399]]]}},{"type":"Feature","properties":{"pid":"d679a466-07e7-48b3-8046-fefdff785bf9","full":6.5},"geometry":{"type":"Polygon","coordinates":[[[136.2147,35.84292],[136.21429,35.84319],[136.21449,35.84336],[136.21493,35.84307],[136.21493,35.84305],[136.2148,35.84298],[136.2147,35.84292]]]}},{"type":"Feature","properties":{"pid":"3cec5716-925a-4c18-bf40-07161677f4d8","full":7.1},"geometry":{"type":"Polygon","coordinates":[[[136.21495,35.84311],[136.2145,35.84341],[136.21469,35.84358],[136.2152,35.84325],[136.21495,35.84311]]]}},{"type":"Feature","properties":{"pid":"3335a7f7-573c-4c90-88b5-eb5baeac1931","full":7.6},"geometry":{"type":"Polygon","coordinates":[[[136.2152,35.84328],[136.21471,35.84361],[136.21484,35.84373],[136.21549,35.84346],[136.21543,35.84341],[136.2152,35.84328]]]}},{"type":"Feature","properties":{"pid":"63058d2f-5ef6-4723-8fcf-c50ec49a89c0","full":6.2},"geometry":{"type":"Polygon","coordinates":[[[136.21424,35.84252],[136.21383,35.84278],[136.21406,35.84296],[136.21443,35.84271],[136.21434,35.84265],[136.21424,35.84252]]]}},{"type":"Feature","properties":{"pid":"37b26226-6511-4958-8840-b0225c52cc95","full":5.8},"geometry":{"type":"Polygon","coordinates":[[[136.21444,35.84274],[136.21407,35.843],[136.21427,35.84317],[136.21468,35.84289],[136.21465,35.84287],[136.2146,35.84285],[136.21444,35.84274]]]}},{"type":"Feature","properties":{"pid":"f0e6da59-abf3-4b76-ba52-eda63f7685c2","full":2.8},"geometry":{"type":"Polygon","coordinates":[[[136.21421,35.84327],[136.21399,35.84343],[136.21411,35.84349],[136.2142,35.84358],[136.2143,35.84359],[136.21445,35.84356],[136.21445,35.84354],[136.21421,35.84327]]]}},{"type":"Feature","properties":{"pid":"22cd85d4-9aff-43fc-9e2a-a829488272ce","full":4.1},"geometry":{"type":"Polygon","coordinates":[[[136.21399,35.84307],[136.21359,35.84332],[136.21362,35.84335],[136.21379,35.84337],[136.21392,35.84339],[136.21398,35.84337],[136.21417,35.84325],[136.21399,35.84307]]]}},{"type":"Feature","properties":{"pid":"7346e9e7-c2d7-47cd-9169-f163992fb4bf","full":11.5},"geometry":{"type":"Polygon","coordinates":[[[136.21355,35.84263],[136.21289,35.84311],[136.21297,35.84315],[136.21309,35.84321],[136.21318,35.84321],[136.21376,35.84282],[136.21355,35.84263]]]}},{"type":"Feature","properties":{"pid":"df34b504-f78c-4d42-a6a2-2b4bb9c8c9d6","full":6.6},"geometry":{"type":"Polygon","coordinates":[[[136.21377,35.84284],[136.21325,35.84322],[136.21339,35.84324],[136.21349,35.84328],[136.21357,35.84329],[136.21395,35.84303],[136.21377,35.84284]]]}},{"type":"Feature","properties":{"pid":"ce4b3fa7-8345-481e-ba41-9ce69da057e0","full":12.2},"geometry":{"type":"Polygon","coordinates":[[[136.21259,35.84292],[136.21263,35.84295],[136.21271,35.84297],[136.21285,35.84307],[136.21352,35.84262],[136.21335,35.84245],[136.21333,35.84245],[136.21332,35.84244],[136.21259,35.84292]]]}},{"type":"Feature","properties":{"pid":"cd65e705-ed46-4e3d-bea5-2dc184f13819","full":14.6},"geometry":{"type":"Polygon","coordinates":[[[136.21292,35.84201],[136.21207,35.84259],[136.21219,35.84269],[136.2123,35.84275],[136.2131,35.84219],[136.21292,35.84201]]]}},{"type":"Feature","properties":{"pid":"7dfd2736-025f-459c-84fe-93492a1b6d21","full":7.6},"geometry":{"type":"Polygon","coordinates":[[[136.21313,35.84222],[136.21232,35.84277],[136.21235,35.84278],[136.21239,35.84278],[136.21254,35.84285],[136.21327,35.84235],[136.21313,35.84222]]]}},{"type":"Feature","properties":{"pid":"6d57c0df-4b6e-44ff-a61e-975a7114befc","full":15.5},"geometry":{"type":"Polygon","coordinates":[[[136.21269,35.8418],[136.21185,35.84237],[136.21205,35.84256],[136.21289,35.84199],[136.21269,35.8418]]]}},{"type":"Feature","properties":{"pid":"aac0f08a-cfdc-4cab-87af-2d820656fa2f","full":14.9},"geometry":{"type":"Polygon","coordinates":[[[136.21248,35.84159],[136.21165,35.84216],[136.21184,35.84235],[136.21267,35.84178],[136.21248,35.84159]]]}},{"type":"Feature","properties":{"pid":"abca4a3e-130f-4226-a7ea-c00f7ad035a6","full":18.0},"geometry":{"type":"Polygon","coordinates":[[[136.21224,35.84135],[136.2115,35.84185],[136.21153,35.84198],[136.21156,35.84205],[136.21164,35.84213],[136.21246,35.84158],[136.21224,35.84135]]]}},{"type":"Feature","properties":{"pid":"b9ea1b6f-394a-4838-8031-84d37ea70af6","full":12.1},"geometry":{"type":"Polygon","coordinates":[[[136.21319,35.84111],[136.21254,35.84153],[136.21277,35.84171],[136.21348,35.84122],[136.21319,35.84111]]]}},{"type":"Feature","properties":{"pid":"ac0b0177-2065-4f3d-ab4f-cd31564ac6d7","full":9.6},"geometry":{"type":"Polygon","coordinates":[[[136.21286,35.84092],[136.21231,35.8413],[136.2125,35.84146],[136.21306,35.84111],[136.21312,35.84105],[136.21303,35.84099],[136.21299,35.84099],[136.21286,35.84092]]]}},{"type":"Feature","properties":{"pid":"5df29bc8-32e6-48c2-a3ea-a56bc2af87eb","full":9.0},"geometry":{"type":"Polygon","coordinates":[[[136.21261,35.84073],[136.21209,35.84109],[136.2123,35.84127],[136.21285,35.84089],[136.2127,35.84081],[136.21261,35.84073]]]}},{"type":"Feature","properties":{"pid":"f6a8794d-fd50-419a-b008-719db14acff8","full":10.5},"geometry":{"type":"Polygon","coordinates":[[[136.21178,35.84092],[136.21159,35.84073],[136.21097,35.84116],[136.21119,35.84132],[136.21178,35.84092]]]}},{"type":"Feature","properties":{"pid":"18d02656-445c-4b79-bd9f-10549db551b1","full":10.7},"geometry":{"type":"Polygon","coordinates":[[[136.21199,35.84113],[136.2118,35.84094],[136.2112,35.84135],[136.21138,35.84155],[136.21199,35.84113]]]}},{"type":"Feature","properties":{"pid":"7cf5029e-448c-4f29-b33d-e6d2c68a5cb8","full":10.7},"geometry":{"type":"Polygon","coordinates":[[[136.2114,35.84157],[136.21147,35.84164],[136.21151,35.8418],[136.21221,35.84133],[136.21202,35.84115],[136.2114,35.84157]]]}},{"type":"Feature","properties":{"pid":"e5385f74-db33-4b1f-89d3-c6dc09049a95","full":13.2},"geometry":{"type":"Polygon","coordinates":[[[136.21109,35.84021],[136.21038,35.84049],[136.21036,35.84065],[136.21038,35.84075],[136.21043,35.84083],[136.2106,35.84071],[136.21087,35.8406],[136.21122,35.84036],[136.21116,35.84028],[136.21109,35.84021]]]}},{"type":"Feature","properties":{"pid":"f08a443b-f3c7-4333-a171-fd06c93ac9a5","full":5.2},"geometry":{"type":"Polygon","coordinates":[[[136.21045,35.84085],[136.21074,35.84091],[136.21135,35.84051],[136.21125,35.84039],[136.21088,35.84063],[136.21061,35.84073],[136.21045,35.84085]]]}},{"type":"Feature","properties":{"pid":"e922e798-ff6a-4caa-b14b-e224df017c71","full":10.4},"geometry":{"type":"Polygon","coordinates":[[[136.21156,35.84071],[136.21137,35.84053],[136.21078,35.84093],[136.21096,35.84113],[136.21156,35.84071]]]}},{"type":"Feature","properties":{"pid":"956fcc7c-1a6d-4a81-9524-273ef1e3a2e0","full":8.6},"geometry":{"type":"Polygon","coordinates":[[[136.21217,35.84034],[136.21168,35.84067],[136.21188,35.84085],[136.21243,35.84047],[136.21238,35.84042],[136.21217,35.84034]]]}},{"type":"Feature","properties":{"pid":"36013024-54c7-484f-afe7-ec931a048c85","full":9.6},"geometry":{"type":"Polygon","coordinates":[[[136.21244,35.8405],[136.21187,35.84088],[136.21208,35.84106],[136.21262,35.84069],[136.21244,35.8405]]]}},{"type":"Feature","properties":{"pid":"c2889ccd-1f4d-4441-9fa3-65ee949287fd","full":12.7},"geometry":{"type":"Polygon","coordinates":[[[136.21278,35.84174],[136.21299,35.84192],[136.21372,35.84141],[136.2137,35.84137],[136.2135,35.84125],[136.21278,35.84174]]]}},{"type":"Feature","properties":{"pid":"c8bae551-5b97-4b7e-9e86-324c8dbd8504","full":12.9},"geometry":{"type":"Polygon","coordinates":[[[136.21319,35.84212],[136.21396,35.8416],[136.21377,35.84143],[136.213,35.84195],[136.21319,35.84212]]]}},{"type":"Feature","properties":{"pid":"82b6cdea-9e97-4b3f-b1db-9786cd12cd4f","full":12.8},"geometry":{"type":"Polygon","coordinates":[[[136.2141,35.84186],[136.21407,35.84176],[136.21398,35.84163],[136.2132,35.84216],[136.21341,35.84233],[136.2141,35.84186]]]}},{"type":"Feature","properties":{"pid":"19124c6b-1a96-4b44-a709-4301ce4cef7a","full":9.7},"geometry":{"type":"Polygon","coordinates":[[[136.21409,35.84191],[136.21343,35.84237],[136.21362,35.84256],[136.21412,35.8422],[136.21409,35.84191]]]}},{"type":"Feature","properties":{"pid":"efba7a53-3364-4dd2-bfb7-7df3d2c601fe","full":5.0},"geometry":{"type":"Polygon","coordinates":[[[136.21412,35.84225],[136.21363,35.84258],[136.21379,35.84272],[136.21421,35.84245],[136.21416,35.84234],[136.21412,35.84225]]]}},{"type":"Feature","properties":{"pid":"00c35394-a596-4450-8a74-c7dd9a9a1f1b","full":2.4},"geometry":{"type":"Polygon","coordinates":[[[136.20808,35.84082],[136.20881,35.84048],[136.20872,35.84037],[136.20802,35.84071],[136.20808,35.84082]]]}},{"type":"Feature","properties":{"pid":"00be6d0e-a1d8-4184-96ed-1035c6e52dac","full":9.8},"geometry":{"type":"Polygon","coordinates":[[[136.20809,35.84084],[136.20824,35.84103],[136.20895,35.84069],[136.20882,35.8405],[136.20809,35.84084]]]}},{"type":"Feature","properties":{"pid":"9a134adb-25de-4478-be4d-578eec7df1af","full":2.5},"geometry":{"type":"Polygon","coordinates":[[[136.20823,35.84143],[136.20838,35.84143],[136.20843,35.84149],[136.20851,35.8415],[136.20861,35.84146],[136.20877,35.84131],[136.20852,35.84131],[136.20829,35.84126],[136.20823,35.84133],[136.20823,35.84143]]]}},{"type":"Feature","properties":{"pid":"efefe2b5-42fd-4eed-b905-0ea1d4e489a1","full":6.9},"geometry":{"type":"Polygon","coordinates":[[[136.20832,35.84115],[136.20866,35.84108],[136.20909,35.84087],[136.20898,35.8407],[136.20824,35.84105],[136.20832,35.84115]]]}},{"type":"Feature","properties":{"pid":"879de720-f133-4a73-afff-5a3123e49095","full":5.0},"geometry":{"type":"Polygon","coordinates":[[[136.20829,35.84116],[136.20829,35.84123],[136.2085,35.84128],[136.20875,35.84129],[136.20883,35.8412],[136.20906,35.84107],[136.2091,35.84098],[136.20912,35.84091],[136.20911,35.84088],[136.20867,35.84109],[136.20829,35.84116]]]}},{"type":"Feature","properties":{"pid":"8378cfa4-d415-4574-b300-ea8b669699ad","full":12.7},"geometry":{"type":"Polygon","coordinates":[[[136.20094,35.84193],[136.20024,35.84145],[136.20004,35.84165],[136.20064,35.84207],[136.20094,35.84193]]]}},{"type":"Feature","properties":{"pid":"bcddde70-63a7-48e0-a8bf-e7f5463ceb40","full":13.7},"geometry":{"type":"Polygon","coordinates":[[[136.20118,35.84174],[136.20048,35.84126],[136.20044,35.84126],[136.20025,35.84143],[136.20096,35.84191],[136.2011,35.84185],[136.20113,35.84178],[136.20118,35.84174]]]}},{"type":"Feature","properties":{"pid":"d9a27ea4-7c6c-49b4-a7c1-81e200b52cd6","full":11.5},"geometry":{"type":"Polygon","coordinates":[[[136.20127,35.84166],[136.20138,35.84153],[136.20079,35.84114],[136.20049,35.84125],[136.20119,35.84174],[136.20127,35.84166]]]}},{"type":"Feature","properties":{"pid":"e36b32d5-2776-47ad-99dc-86b122ec0003","full":1.4},"geometry":{"type":"Polygon","coordinates":[[[136.20136,35.84121],[136.20123,35.84132],[136.20146,35.84147],[136.20156,35.84134],[136.20158,35.8413],[136.20136,35.84121]]]}},{"type":"Feature","properties":{"pid":"8487208d-ee1c-4289-8e5b-88f5e549cac4","full":4.4},"geometry":{"type":"Polygon","coordinates":[[[136.20145,35.84109],[136.2012,35.84092],[136.20096,35.84112],[136.20122,35.8413],[136.20136,35.84118],[136.20145,35.84109]]]}},{"type":"Feature","properties":{"pid":"b1a0df0e-58c9-4658-a41a-7a7cfa9a5b00","full":11.3},"geometry":{"type":"Polygon","coordinates":[[[136.20051,35.84056],[136.2,35.84021],[136.19978,35.84042],[136.20055,35.84095],[136.20057,35.84092],[136.20056,35.84086],[136.20046,35.84071],[136.20044,35.84065],[136.20045,35.84062],[136.20051,35.84056]]]}},{"type":"Feature","properties":{"pid":"f9f1a887-61b1-4b2f-9236-246b0df0573b","full":2.1},"geometry":{"type":"Polygon","coordinates":[[[136.20038,35.84224],[136.20049,35.84215],[136.19991,35.84176],[136.19982,35.84185],[136.20038,35.84224]]]}},{"type":"Feature","properties":{"pid":"52379b36-bc08-4af8-b822-a99fd03f88f8","full":2.5},"geometry":{"type":"Polygon","coordinates":[[[136.20062,35.84207],[136.20003,35.84166],[136.19991,35.84175],[136.2005,35.84215],[136.20062,35.84207]]]}},{"type":"Feature","properties":{"pid":"f90708df-9ba5-49fa-8fd3-b883a9b02e58","full":1.4},"geometry":{"type":"Polygon","coordinates":[[[136.2001,35.84341],[136.20012,35.84343],[136.20037,35.84323],[136.20026,35.84312],[136.19998,35.84333],[136.20007,35.84342],[136.2001,35.84341]]]}},{"type":"Feature","properties":{"pid":"e407adba-f92b-4773-a4ab-5860786453fc","full":1.9},"geometry":{"type":"Polygon","coordinates":[[[136.20014,35.84346],[136.20025,35.84358],[136.20039,35.84352],[136.20052,35.84339],[136.2004,35.84327],[136.20014,35.84346]]]}}],"precision":5}