{"type":"FeatureCollection","features":[{"type":"Feature","properties":{"pid":"b32ca0da-884b-4813-a0bc-f9b4931a8663","full":1.2},"geometry":{"type":"Polygon","coordinates":[[[135.64971,35.47244],[135.65055,35.47223],[135.65054,35.47221],[135.65059,35.47219],[135.65058,35.47214],[135.6502,35.47227],[135.64992,35.47225],[135.64963,35.47233],[135.64971,35.47244]]]}},{"type":"Feature","properties":{"pid":"3202b311-ddcd-4bb3-b240-6f96541da7bb","full":0.7},"geometry":{"type":"Polygon","coordinates":[[[135.64993,35.47277],[135.65062,35.47259],[135.6506,35.47249],[135.64989,35.47268],[135.64993,35.47277]]]}},{"type":"Feature","properties":{"pid":"9a283bdd-3eef-4c07-83c1-4680c293d3bb","full":0.8},"geometry":{"type":"Polygon","coordinates":[[[135.64987,35.47264],[135.65058,35.47245],[135.65057,35.47243],[135.6506,35.47241],[135.65059,35.47234],[135.64979,35.47255],[135.64987,35.47264]]]}},{"type":"Feature","properties":{"pid":"fb8c2b1a-49f0-43d1-999a-c7a9308c1a85","full":2.2},"geometry":{"type":"Polygon","coordinates":[[[135.64996,35.47295],[135.65068,35.47276],[135.65063,35.47264],[135.64994,35.47282],[135.64993,35.47287],[135.64996,35.47295]]]}},{"type":"Feature","properties":{"pid":"da79c55b-4f98-4d9e-aa4f-6f4db79a85dc","full":4.1},"geometry":{"type":"Polygon","coordinates":[[[135.64993,35.47314],[135.65071,35.47293],[135.65065,35.47279],[135.64995,35.47298],[135.64994,35.47303],[135.64993,35.47314]]]}},{"type":"Feature","properties":{"pid":"08577f8c-bdba-4d8f-a30a-c3d8300b81c8","full":2.7},"geometry":{"type":"Polygon","coordinates":[[[135.65011,35.47326],[135.65077,35.47311],[135.6507,35.47297],[135.64999,35.47316],[135.65011,35.47326]]]}},{"type":"Feature","properties":{"pid":"0e8e21f1-340b-4738-9710-3c16120fb116","full":2.5},"geometry":{"type":"Polygon","coordinates":[[[135.65015,35.4733],[135.65038,35.4734],[135.65081,35.47331],[135.6508,35.47315],[135.65015,35.4733]]]}},{"type":"Feature","properties":{"pid":"007e8824-c8d5-45ba-8616-a0ab60a452bd","full":10.6},"geometry":{"type":"Polygon","coordinates":[[[135.65107,35.47385],[135.65178,35.47382],[135.65162,35.47369],[135.65145,35.47356],[135.65141,35.47352],[135.65097,35.47354],[135.65098,35.47368],[135.65107,35.47385]]]}},{"type":"Feature","properties":{"pid":"74a79195-561a-4f96-83dc-aa6aabd6b853","full":0.6},"geometry":{"type":"Polygon","coordinates":[[[135.65062,35.47376],[135.65086,35.47371],[135.65081,35.47357],[135.65061,35.47361],[135.65062,35.47376]]]}},{"type":"Feature","properties":{"pid":"bcee2667-de65-4e6f-8e13-a10e5e1f70e4","full":1.1},"geometry":{"type":"Polygon","coordinates":[[[135.65061,35.47358],[135.65082,35.47353],[135.65081,35.47335],[135.65057,35.47341],[135.65061,35.47358]]]}},{"type":"Feature","properties":{"pid":"6866d709-01ed-4eae-9dd0-4197c3fb8916","full":3.0},"geometry":{"type":"Polygon","coordinates":[[[135.65097,35.47346],[135.65135,35.47345],[135.65135,35.47343],[135.65118,35.47323],[135.65095,35.47316],[135.65097,35.47346]]]}},{"type":"Feature","properties":{"pid":"e0632866-6313-4080-9de6-be61a51369c1","full":3.7},"geometry":{"type":"Polygon","coordinates":[[[135.66037,35.47294],[135.66044,35.47291],[135.66057,35.47295],[135.66068,35.47255],[135.66068,35.47253],[135.66056,35.47253],[135.66048,35.47266],[135.66036,35.47269],[135.66032,35.47273],[135.6603,35.47279],[135.6603,35.47283],[135.66033,35.4729],[135.66037,35.47294]]]}},{"type":"Feature","properties":{"pid":"b208604c-d9bf-460b-9e3a-2a1095dbfd13","full":12.5},"geometry":{"type":"Polygon","coordinates":[[[135.66145,35.47389],[135.66217,35.47348],[135.66203,35.47324],[135.66181,35.4733],[135.66184,35.47338],[135.66129,35.47369],[135.66145,35.47389]]]}},{"type":"Feature","properties":{"pid":"0b5925e2-0926-43f2-977e-69af6320a3bd","full":10.5},"geometry":{"type":"Polygon","coordinates":[[[135.66252,35.47371],[135.66269,35.47358],[135.66283,35.47346],[135.66268,35.47334],[135.6625,35.4731],[135.66243,35.47308],[135.66223,35.47315],[135.66222,35.4732],[135.66235,35.47341],[135.66252,35.47371]]]}},{"type":"Feature","properties":{"pid":"cd2a51a1-a9db-4caa-a3b7-375a3da9e59d","full":1.2},"geometry":{"type":"Polygon","coordinates":[[[135.6625,35.47288],[135.66265,35.47284],[135.66259,35.47257],[135.66239,35.47258],[135.6625,35.47288]]]}},{"type":"Feature","properties":{"pid":"be20c917-606e-4c1c-9b05-78e4e64655dc","full":3.4},"geometry":{"type":"Polygon","coordinates":[[[135.66219,35.47308],[135.6624,35.47299],[135.66243,35.47296],[135.66233,35.47269],[135.66231,35.47266],[135.66228,35.47265],[135.6621,35.47274],[135.66214,35.47282],[135.66219,35.47308]]]}},{"type":"Feature","properties":{"pid":"485922d1-cc51-45d9-ae31-c34880ceb335","full":7.6},"geometry":{"type":"Polygon","coordinates":[[[135.66159,35.47313],[135.66154,35.47302],[135.66102,35.47316],[135.66103,35.47323],[135.66105,35.47327],[135.66114,35.47337],[135.66118,35.47339],[135.66123,35.47339],[135.66163,35.47327],[135.66159,35.47313]]]}},{"type":"Feature","properties":{"pid":"b825dbeb-50fd-4e3d-a0f9-363e2e5988bb","full":8.3},"geometry":{"type":"Polygon","coordinates":[[[135.66101,35.47308],[135.66167,35.47291],[135.66169,35.47288],[135.66167,35.47285],[135.66161,35.47269],[135.66092,35.47287],[135.66097,35.47303],[135.66101,35.47308]]]}},{"type":"Feature","properties":{"pid":"a2ff6b89-30a8-4ad6-8c9a-757d8a3d5e82","full":8.3},"geometry":{"type":"Polygon","coordinates":[[[135.66089,35.47285],[135.66162,35.47266],[135.66149,35.47257],[135.66139,35.47247],[135.66137,35.47247],[135.6608,35.47264],[135.66089,35.47285]]]}},{"type":"Feature","properties":{"pid":"ac71672e-9efa-4dce-b823-89f013d6afa9","full":7.5},"geometry":{"type":"Polygon","coordinates":[[[135.66078,35.4726],[135.66138,35.47244],[135.6613,35.47234],[135.66125,35.47224],[135.66122,35.47223],[135.66068,35.47238],[135.66078,35.4726]]]}},{"type":"Feature","properties":{"pid":"785bb59f-01b3-430c-bc2d-55f85014228d","full":6.7},"geometry":{"type":"Polygon","coordinates":[[[135.66066,35.47235],[135.66119,35.4722],[135.66117,35.47215],[135.66092,35.47198],[135.66065,35.47205],[135.66062,35.47223],[135.66066,35.47235]]]}},{"type":"Feature","properties":{"pid":"9acd3eef-f761-4c3d-a862-fa5faa54e7f0","full":2.6},"geometry":{"type":"Polygon","coordinates":[[[135.66105,35.47181],[135.66123,35.47193],[135.66149,35.47173],[135.66128,35.47161],[135.66105,35.47181]]]}},{"type":"Feature","properties":{"pid":"71693f58-d6de-4fcc-8518-644c23432027","full":5.4},"geometry":{"type":"Polygon","coordinates":[[[135.66224,35.47254],[135.6619,35.47223],[135.66164,35.47241],[135.66169,35.47244],[135.66187,35.47253],[135.66198,35.4726],[135.66206,35.47267],[135.66216,35.4726],[135.66221,35.47258],[135.66221,35.47257],[135.66222,35.47255],[135.66224,35.47254]]]}},{"type":"Feature","properties":{"pid":"90125467-85b1-41d6-bcb8-e416f44cda16","full":2.8},"geometry":{"type":"Polygon","coordinates":[[[135.66234,35.47252],[135.66252,35.47252],[135.66251,35.47226],[135.66209,35.47228],[135.66228,35.47245],[135.66234,35.47252]]]}},{"type":"Feature","properties":{"pid":"47ccfb99-71fc-4aa3-9148-5d5b176a027a","full":2.2},"geometry":{"type":"Polygon","coordinates":[[[135.65966,35.47086],[135.66015,35.47072],[135.65993,35.47059],[135.65971,35.47069],[135.65963,35.47074],[135.65961,35.47078],[135.65966,35.47086]]]}},{"type":"Feature","properties":{"pid":"e1933682-3cb3-4842-be9a-3c2b1df4f2c3","full":5.2},"geometry":{"type":"Polygon","coordinates":[[[135.65977,35.47111],[135.66019,35.47098],[135.66017,35.47084],[135.66022,35.47076],[135.66018,35.47074],[135.65967,35.47089],[135.65977,35.47111]]]}},{"type":"Feature","properties":{"pid":"1c57c4e0-76bf-4cd3-a0ea-0b63bb77894a","full":1.5},"geometry":{"type":"Polygon","coordinates":[[[135.65998,35.47136],[135.66022,35.47127],[135.66024,35.47125],[135.66022,35.47111],[135.65983,35.47122],[135.65987,35.47125],[135.65991,35.47126],[135.65998,35.47136]]]}},{"type":"Feature","properties":{"pid":"1c8bada8-c927-4b49-a42d-0854e0302361","full":1.7},"geometry":{"type":"Polygon","coordinates":[[[135.66006,35.4716],[135.66036,35.47151],[135.66032,35.47147],[135.66027,35.4714],[135.66024,35.47129],[135.66,35.47138],[135.66007,35.47147],[135.66008,35.47153],[135.66006,35.4716]]]}},{"type":"Feature","properties":{"pid":"5e60b23d-9f08-467a-b36b-58f4396f2d54","full":3.3},"geometry":{"type":"Polygon","coordinates":[[[135.66052,35.47137],[135.6608,35.47133],[135.66067,35.47101],[135.66048,35.47102],[135.66052,35.47137]]]}},{"type":"Feature","properties":{"pid":"7837054b-f547-44b5-afae-599aaaff75b5","full":7.3},"geometry":{"type":"Polygon","coordinates":[[[135.65999,35.47203],[135.66013,35.47196],[135.66018,35.47185],[135.66061,35.47173],[135.66042,35.47155],[135.66038,35.47154],[135.66006,35.47165],[135.66,35.47173],[135.65996,35.47183],[135.65994,35.47199],[135.65996,35.47202],[135.65999,35.47203]]]}},{"type":"Feature","properties":{"pid":"58fcc4c9-3bb6-45d5-9ca7-94455b229953","full":4.1},"geometry":{"type":"Polygon","coordinates":[[[135.66057,35.47202],[135.66087,35.47193],[135.66066,35.47178],[135.66061,35.47178],[135.66027,35.47187],[135.6602,35.47191],[135.66018,35.47195],[135.66028,35.47197],[135.66037,35.472],[135.66057,35.47202]]]}},{"type":"Feature","properties":{"pid":"c79f5fd3-65c6-4595-bf8b-1c4a8127265d","full":2.0},"geometry":{"type":"Polygon","coordinates":[[[135.66031,35.47223],[135.66031,35.47208],[135.66028,35.47207],[135.66027,35.47205],[135.66018,35.47202],[135.66012,35.47203],[135.65996,35.47209],[135.65999,35.47216],[135.66003,35.47223],[135.66014,35.47222],[135.66031,35.47223]]]}},{"type":"Feature","properties":{"pid":"8319cce7-1a68-41ac-b558-97b3c7328e8b","full":11.5},"geometry":{"type":"Polygon","coordinates":[[[135.67297,35.47264],[135.67295,35.4726],[135.67299,35.47258],[135.67278,35.47235],[135.67229,35.47261],[135.6724,35.47275],[135.67251,35.47286],[135.67257,35.47286],[135.67297,35.47264]]]}},{"type":"Feature","properties":{"pid":"630e13be-ae1c-4016-8902-de5347fbf834","full":2.0},"geometry":{"type":"Polygon","coordinates":[[[135.67196,35.47177],[135.67187,35.47177],[135.6717,35.47191],[135.67162,35.47191],[135.67151,35.47199],[135.67142,35.47202],[135.67142,35.47205],[135.67149,35.47212],[135.67157,35.47216],[135.67195,35.47186],[135.67196,35.47177]]]}},{"type":"Feature","properties":{"pid":"7ef1ac2d-e77e-4a13-b94b-dcd665be08ae","full":0.6},"geometry":{"type":"Polygon","coordinates":[[[135.67196,35.47176],[135.67199,35.47172],[135.67198,35.47162],[135.672,35.47147],[135.6719,35.47149],[135.6718,35.47153],[135.67177,35.47152],[135.67182,35.47155],[135.67185,35.47158],[135.67186,35.47163],[135.67182,35.47168],[135.67177,35.47172],[135.67174,35.47177],[135.67186,35.47175],[135.67196,35.47176]]]}},{"type":"Feature","properties":{"pid":"3f852db2-43db-43b1-97a8-0e5459b05974","full":1.5},"geometry":{"type":"Polygon","coordinates":[[[135.67196,35.47194],[135.67194,35.47188],[135.67159,35.47217],[135.6718,35.47226],[135.67182,35.47224],[135.67186,35.47216],[135.67196,35.47203],[135.67196,35.47194]]]}},{"type":"Feature","properties":{"pid":"13745c77-bb8b-4a75-ad91-b73a59e20162","full":12.8},"geometry":{"type":"Polygon","coordinates":[[[135.6727,35.47233],[135.67267,35.47231],[135.67273,35.47227],[135.67253,35.47204],[135.6719,35.4724],[135.67192,35.47243],[135.67194,35.47244],[135.67213,35.47249],[135.67218,35.47253],[135.67227,35.47257],[135.6727,35.47233]]]}},{"type":"Feature","properties":{"pid":"0e2e1f99-7340-4829-b071-fc2cce1ed88a","full":12.4},"geometry":{"type":"Polygon","coordinates":[[[135.67313,35.4726],[135.6736,35.47235],[135.67343,35.47221],[135.67336,35.47203],[135.6729,35.47228],[135.67294,35.47233],[135.67291,35.47235],[135.67297,35.47245],[135.67313,35.4726]]]}},{"type":"Feature","properties":{"pid":"25c1a52d-55d3-473b-818d-ba98153d3437","full":10.9},"geometry":{"type":"Polygon","coordinates":[[[135.67286,35.47227],[135.67336,35.47199],[135.67339,35.47196],[135.67338,35.47192],[135.67326,35.47173],[135.67269,35.47202],[135.67271,35.47205],[135.67268,35.47207],[135.67286,35.47227]]]}},{"type":"Feature","properties":{"pid":"b993a6bd-929b-4b20-bf13-d308fe411e20","full":4.9},"geometry":{"type":"Polygon","coordinates":[[[135.67263,35.472],[135.67295,35.47185],[135.67291,35.47179],[135.67293,35.47176],[135.67282,35.4716],[135.67247,35.47181],[135.67249,35.47185],[135.67247,35.47186],[135.67255,35.47192],[135.67263,35.472]]]}},{"type":"Feature","properties":{"pid":"abe71b3d-0ef9-4f8c-9905-e745e086f0bc","full":5.4},"geometry":{"type":"Polygon","coordinates":[[[135.67248,35.47203],[135.67245,35.472],[135.6725,35.47197],[135.67247,35.47195],[135.67208,35.4718],[135.67202,35.47184],[135.67205,35.4719],[135.67206,35.47198],[135.67204,35.47205],[135.67203,35.47209],[135.67202,35.47222],[135.67207,35.47224],[135.67248,35.47203]]]}},{"type":"Feature","properties":{"pid":"36ee15b0-2cef-4392-827e-1b396fa7158d","full":0.5},"geometry":{"type":"Polygon","coordinates":[[[135.67237,35.47131],[135.67235,35.4713],[135.67208,35.47152],[135.67209,35.47165],[135.6721,35.47167],[135.67234,35.47148],[135.67226,35.47143],[135.67237,35.47131]]]}},{"type":"Feature","properties":{"pid":"f9bd03fd-e4e1-4425-9caf-dd149c726bec","full":2.1},"geometry":{"type":"Polygon","coordinates":[[[135.67194,35.4713],[135.67188,35.47132],[135.67186,35.4713],[135.67179,35.47123],[135.67178,35.4712],[135.67159,35.47134],[135.67155,35.47139],[135.67155,35.47144],[135.67159,35.47145],[135.67171,35.4715],[135.67175,35.47151],[135.67186,35.47137],[135.67196,35.47132],[135.67194,35.4713]]]}},{"type":"Feature","properties":{"pid":"0f1516cd-1e23-4624-833c-219e62f55503","full":1.1},"geometry":{"type":"Polygon","coordinates":[[[135.67149,35.47108],[135.67142,35.4713],[135.67152,35.47135],[135.67154,35.47137],[135.67155,35.47139],[135.67158,35.47133],[135.6716,35.47123],[135.67163,35.47117],[135.67171,35.47114],[135.67176,35.47107],[135.67169,35.47099],[135.67161,35.47105],[135.67156,35.47107],[135.67149,35.47108]]]}},{"type":"Feature","properties":{"pid":"80b4bdb4-9757-47fb-9d7c-661822c63eac","full":0.6},"geometry":{"type":"Polygon","coordinates":[[[135.67152,35.47103],[135.67159,35.471],[135.67164,35.47096],[135.67157,35.47084],[135.67153,35.47086],[135.67148,35.47086],[135.67139,35.47096],[135.67137,35.47103],[135.67152,35.47103]]]}},{"type":"Feature","properties":{"pid":"34dc19ad-58e7-4a96-a251-61a1b953e9ee","full":0.9},"geometry":{"type":"Polygon","coordinates":[[[135.67473,35.47257],[135.67492,35.47237],[135.67477,35.47232],[135.67462,35.47244],[135.67467,35.47252],[135.67473,35.47257]]]}},{"type":"Feature","properties":{"pid":"636c106f-5a69-4aec-bcce-75d2ee39b764","full":1.2},"geometry":{"type":"Polygon","coordinates":[[[135.67486,35.47269],[135.67509,35.47245],[135.67494,35.47238],[135.67474,35.47258],[135.67486,35.47269]]]}},{"type":"Feature","properties":{"pid":"85e336d4-f42f-4c2c-95af-363ae9fa5c27","full":19.7},"geometry":{"type":"Polygon","coordinates":[[[135.67324,35.47347],[135.67397,35.47308],[135.67363,35.47267],[135.67332,35.47285],[135.67346,35.47304],[135.67311,35.47323],[135.67318,35.47341],[135.67324,35.47347]]]}},{"type":"Feature","properties":{"pid":"396e2ea8-bdea-41e6-8603-06590e008667","full":2.5},"geometry":{"type":"Polygon","coordinates":[[[135.67448,35.47309],[135.67452,35.47308],[135.67459,35.47308],[135.67461,35.47308],[135.67496,35.47293],[135.67485,35.47282],[135.67477,35.47276],[135.67467,35.47281],[135.6747,35.47286],[135.67453,35.47294],[135.67455,35.47296],[135.67437,35.47304],[135.67441,35.47308],[135.67444,35.47309],[135.67448,35.47309]]]}},{"type":"Feature","properties":{"pid":"17170094-1cfe-4fe1-928e-eaf8a336a7b0","full":22.1},"geometry":{"type":"Polygon","coordinates":[[[135.67378,35.4739],[135.67381,35.47389],[135.67384,35.47392],[135.67412,35.47376],[135.67404,35.47354],[135.67398,35.4734],[135.67399,35.47311],[135.67334,35.47346],[135.67352,35.47367],[135.67378,35.4739]]]}},{"type":"Feature","properties":{"pid":"faaa5635-38e8-4122-aa7d-ec9144ebf0f2","full":37.0},"geometry":{"type":"Polygon","coordinates":[[[135.67445,35.47393],[135.67452,35.47392],[135.67453,35.47395],[135.67486,35.47381],[135.67475,35.4736],[135.67528,35.47339],[135.675,35.473],[135.67493,35.47302],[135.6743,35.47327],[135.6743,35.47349],[135.67445,35.47393]]]}}],"precision":5}