{"type":"FeatureCollection","features":[{"type":"Feature","properties":{"pid":"39ee6017-3ed2-43d4-afb2-c02841efd27b","full":0.5},"geometry":{"type":"Polygon","coordinates":[[[135.66346,35.38458],[135.66339,35.38463],[135.66336,35.38469],[135.6634,35.38471],[135.66347,35.38471],[135.66371,35.38466],[135.66378,35.38466],[135.66383,35.38464],[135.66383,35.38463],[135.66371,35.38461],[135.66359,35.38457],[135.66356,35.38455],[135.66348,35.38454],[135.66346,35.38458]]]}},{"type":"Feature","properties":{"pid":"810dfacd-8c70-49a4-92a3-c8e4ebccd852","full":0.5},"geometry":{"type":"Polygon","coordinates":[[[135.66752,35.38493],[135.66749,35.38492],[135.66737,35.38492],[135.66729,35.38519],[135.66741,35.38522],[135.66752,35.38493]]]}},{"type":"Feature","properties":{"pid":"20c9bdb4-591d-4aa9-9e0f-e24c14d7d5cc","full":1.5},"geometry":{"type":"Polygon","coordinates":[[[135.66761,35.38529],[135.66768,35.38495],[135.66752,35.38494],[135.66742,35.38523],[135.66761,35.38529]]]}},{"type":"Feature","properties":{"pid":"db7bf759-abdc-45d0-b710-37c59c8f74c3","full":0.8},"geometry":{"type":"Polygon","coordinates":[[[135.66272,35.38427],[135.66279,35.38409],[135.66261,35.38406],[135.66254,35.3842],[135.66257,35.38423],[135.66272,35.38427]]]}},{"type":"Feature","properties":{"pid":"876935b9-16db-4ca7-9abd-5c8d6e31e035","full":0.9},"geometry":{"type":"Polygon","coordinates":[[[135.65843,35.38261],[135.65835,35.38261],[135.65829,35.38261],[135.65826,35.38263],[135.65826,35.38277],[135.65835,35.38278],[135.65848,35.38277],[135.65849,35.38265],[135.65847,35.38263],[135.65843,35.38261]]]}},{"type":"Feature","properties":{"pid":"c748436e-cda9-430c-98b3-186c12e4d1a6","full":1.9},"geometry":{"type":"Polygon","coordinates":[[[135.6585,35.3829],[135.65873,35.38292],[135.65876,35.38274],[135.65872,35.38271],[135.65857,35.38264],[135.65851,35.38263],[135.6585,35.3829]]]}},{"type":"Feature","properties":{"pid":"8dcd1eb6-7146-405a-93d1-1cf67e82b2e4","full":0.9},"geometry":{"type":"Polygon","coordinates":[[[135.65796,35.38244],[135.6582,35.38237],[135.65819,35.38227],[135.65811,35.38224],[135.65797,35.38223],[135.65796,35.38244]]]}},{"type":"Feature","properties":{"pid":"197ac9f0-785c-4d85-8598-d1bcec2baa3d","full":0.7},"geometry":{"type":"Polygon","coordinates":[[[135.65758,35.38222],[135.65757,35.3824],[135.65775,35.38246],[135.65774,35.3822],[135.65768,35.3822],[135.65758,35.38222]]]}},{"type":"Feature","properties":{"pid":"a32b3b0e-a483-4316-97d1-9e53efd9d771","full":0.9},"geometry":{"type":"Polygon","coordinates":[[[135.65562,35.38268],[135.65579,35.38273],[135.65588,35.38257],[135.65571,35.38248],[135.65562,35.38268]]]}},{"type":"Feature","properties":{"pid":"488e9c05-1e40-466e-a87e-5932b5b69bb8","full":0.5},"geometry":{"type":"Polygon","coordinates":[[[135.65323,35.38335],[135.65333,35.38353],[135.65336,35.38356],[135.65348,35.3835],[135.65334,35.3833],[135.65323,35.38335]]]}},{"type":"Feature","properties":{"pid":"9acb8a0d-954c-4d53-913c-c88c072a4113","full":2.8},"geometry":{"type":"Polygon","coordinates":[[[135.65537,35.38263],[135.65537,35.38264],[135.65559,35.38273],[135.6557,35.38247],[135.65552,35.3824],[135.65545,35.38239],[135.65537,35.38263]]]}}],"precision":5}