{"type":"FeatureCollection","features":[{"type":"Feature","properties":{"pid":"8fabd797-cac6-4785-b34f-58ed2bc4aadd"},"geometry":{"type":"Polygon","coordinates":[[[135.99285981691236,35.94439463714043],[135.99290176404193,35.944434083128776],[135.99316901524276,35.94420327558982],[135.99313283419684,35.9441638975222],[135.99285981691236,35.94439463714043]]]}},{"type":"Feature","properties":{"pid":"6250fad5-081c-4314-9e1f-51d0eb28420a"},"geometry":{"type":"Polygon","coordinates":[[[135.99269517568317,35.9442687752405],[135.99274498945357,35.9443065261788],[135.99289408552653,35.94416229648762],[135.99285349633263,35.944133365737024],[135.99269517568317,35.9442687752405]]]}},{"type":"Feature","properties":{"pid":"51f39901-e20b-4de1-97b7-369da91b4e03"},"geometry":{"type":"Polygon","coordinates":[[[135.99236713158086,35.94454988997844],[135.9924126168438,35.94457956517201],[135.99258387522252,35.94443283544293],[135.9925617074727,35.94441734757517],[135.99236713158086,35.94454988997844]]]}},{"type":"Feature","properties":{"pid":"7189f060-92a0-4186-98ae-a6388dfad94a"},"geometry":{"type":"Polygon","coordinates":[[[135.99251820703657,35.94471107678983],[135.9925439602192,35.94473543856481],[135.99275467890297,35.94457135474261],[135.99272353980183,35.944554059685174],[135.99251820703657,35.94471107678983]]]}},{"type":"Feature","properties":{"pid":"e50aa2c0-c09f-4fb3-9f93-7b24f36af268"},"geometry":{"type":"Polygon","coordinates":[[[135.99129159289032,35.94597886038512],[135.9914455833767,35.94597859887162],[135.99132709230304,35.94556412580252],[135.9912736585426,35.945564760659444],[135.99129159289032,35.94597886038512]]]}},{"type":"Feature","properties":{"pid":"a19d5577-84ab-49ca-88ef-ba300948ae49"},"geometry":{"type":"Polygon","coordinates":[[[135.99163165661972,35.94596660856761],[135.9916325091395,35.94563973024088],[135.99155212750267,35.94564276475143],[135.99155655443033,35.945681309174816],[135.99163165661972,35.94596660856761]]]}},{"type":"Feature","properties":{"pid":"7b684d36-4bca-4bce-bace-a269ca9b2e66"},"geometry":{"type":"Polygon","coordinates":[[[135.9910938181689,35.946440292524755],[135.99145103093088,35.946270009307895],[135.9914886406276,35.946238372947896],[135.99145174240226,35.946131525725065],[135.9910921576581,35.94613149979866],[135.9910938181689,35.946440292524755]]]}},{"type":"Feature","properties":{"pid":"91992e44-5e2e-451c-a533-60200b9e294c"},"geometry":{"type":"Polygon","coordinates":[[[135.99107069255086,35.94597917395115],[135.99114169809968,35.945977735894],[135.99113395832146,35.9455885292206],[135.99106502205976,35.94563406568125],[135.99107069255086,35.94597917395115]]]}}]}