{"type":"FeatureCollection","features":[{"type":"Feature","properties":{"pid":"c2e6eabe-c7dd-4f69-a50f-e6bdfe12b911"},"geometry":{"type":"Polygon","coordinates":[[[136.35931262828439,35.87389659659257],[136.35954822507307,35.87398172490899],[136.359588839201,35.87390262508072],[136.3595604328193,35.8736952440629],[136.35966841460404,35.873430383107966],[136.3597455127747,35.873317946024684],[136.35980090119628,35.87316929206857],[136.35966482053306,35.87313382125394],[136.35931262828439,35.87389659659257]]]}},{"type":"Feature","properties":{"pid":"94a6aac3-896f-429d-b5e9-03d11bab036d"},"geometry":{"type":"Polygon","coordinates":[[[136.359008628094,35.87381205312862],[136.35915444519745,35.87386493707689],[136.35949877188182,35.87307452780357],[136.3593486924452,35.87303290848177],[136.359008628094,35.87381205312862]]]}},{"type":"Feature","properties":{"pid":"054feeb8-0d9d-4905-b9da-1445ac07f1e0"},"geometry":{"type":"Polygon","coordinates":[[[136.36110933285534,35.8713050321269],[136.36115065750826,35.87131913223415],[136.36128818952048,35.87105181090419],[136.36137520614452,35.87091807299728],[136.36149834290651,35.87080243395068],[136.36135756614436,35.870748275911794],[136.36110933285534,35.8713050321269]]]}},{"type":"Feature","properties":{"pid":"919b2999-d16e-4ce7-98fe-4bd555a8ae10"},"geometry":{"type":"Polygon","coordinates":[[[136.36016383404166,35.87208330939404],[136.36029210901322,35.872107916118495],[136.36062366376234,35.87140606633254],[136.36049698719535,35.87136948338912],[136.36016383404166,35.87208330939404]]]}},{"type":"Feature","properties":{"pid":"785e5d7d-a139-4e52-a9c5-39445e8b817f"},"geometry":{"type":"Polygon","coordinates":[[[136.36048039502884,35.87219019409921],[136.360503066363,35.872194101761686],[136.36083486609468,35.87147745980884],[136.36080735314934,35.871470682766024],[136.36048039502884,35.87219019409921]]]}},{"type":"Feature","properties":{"pid":"a2ca835c-7620-40b0-824c-f6faeab96d50"},"geometry":{"type":"Polygon","coordinates":[[[136.3597492339921,35.87296551740439],[136.35986141782018,35.87302039405499],[136.36006537405544,35.872659532653046],[136.3600501879608,35.872552195520896],[136.36015134838402,35.872285981524044],[136.3600860968824,35.87226849572659],[136.3597492339921,35.87296551740439]]]}},{"type":"Feature","properties":{"pid":"53121f07-b2c9-4a0c-a484-1d3cd1fc1538"},"geometry":{"type":"Polygon","coordinates":[[[136.35925170677885,35.87283033114627],[136.35928244678414,35.87284304499437],[136.35960313079113,35.87215440803389],[136.35952002001332,35.87230236242616],[136.35925170677885,35.87283033114627]]]}},{"type":"Feature","properties":{"pid":"9e1740f6-3f34-4726-bf73-f43288fb0548"},"geometry":{"type":"Polygon","coordinates":[[[136.35944093696247,35.87287928786007],[136.35957702033576,35.872925031127856],[136.35991228201735,35.87221389095608],[136.35977991807098,35.87216851747414],[136.35944093696247,35.87287928786007]]]}},{"type":"Feature","properties":{"pid":"4b214c18-ef49-4092-8b1d-52e75479f54d"},"geometry":{"type":"Polygon","coordinates":[[[136.35973343305176,35.87195175303828],[136.35985830934857,35.872008241808814],[136.35998965649446,35.87203988523903],[136.3603199193451,35.871304117403355],[136.36016334398622,35.87125230851809],[136.35973343305176,35.87195175303828]]]}},{"type":"Feature","properties":{"pid":"a7255b84-d3f2-4951-a8b5-c669803e3a60"},"geometry":{"type":"Polygon","coordinates":[[[136.35886386735692,35.87168606756047],[136.35951763370323,35.8718822409123],[136.3598911360505,35.87123595857457],[136.3599104909125,35.871158749871746],[136.3594153554408,35.871028081016426],[136.3593288515413,35.87109650067496],[136.35886386735692,35.87168606756047]]]}},{"type":"Feature","properties":{"pid":"8ca1a917-c018-44e4-a432-735cf6bf42b2"},"geometry":{"type":"Polygon","coordinates":[[[136.35866739993202,35.87191954324994],[136.3586379719317,35.87203542668658],[136.3585695630289,35.87219901471395],[136.35835702655916,35.8725748946082],[136.3590133107539,35.87277881448904],[136.3594040762017,35.87204884500036],[136.35873514753288,35.87183655366366],[136.35866739993202,35.87191954324994]]]}},{"type":"Feature","properties":{"pid":"a7e031f2-85c4-49d2-87bb-c7b19980e1f0"},"geometry":{"type":"Polygon","coordinates":[[[136.35798720197323,35.873504900684196],[136.35845263545835,35.8736458481764],[136.35860971950635,35.87347685069682],[136.35869582576595,35.873352551362935],[136.35893690790243,35.87289904213665],[136.35827295250377,35.87270861853191],[136.35820481225412,35.872818854107],[136.35811840167872,35.873231612904796],[136.35798720197323,35.873504900684196]]]}},{"type":"Feature","properties":{"pid":"c52dc954-595a-4a12-9817-4b04010b1016"},"geometry":{"type":"Polygon","coordinates":[[[136.35884375500967,35.87376208521074],[136.3592118606097,35.8729810449572],[136.35916827491832,35.87296559166608],[136.3587685064627,35.87372829470601],[136.35884375500967,35.87376208521074]]]}},{"type":"Feature","properties":{"pid":"21aa99dc-38ec-4272-8e00-43e0948a0c7f"},"geometry":{"type":"Polygon","coordinates":[[[136.36094273358677,35.86767326301689],[136.36111910646818,35.86773447694552],[136.36132700641076,35.86728962700416],[136.36114589889925,35.86721737138825],[136.36094273358677,35.86767326301689]]]}},{"type":"Feature","properties":{"pid":"bb1e35bd-5bc7-4082-90cb-dfcbec4d7527"},"geometry":{"type":"Polygon","coordinates":[[[136.3615548003901,35.86714161043963],[136.36165853442756,35.86717962645701],[136.36162727952686,35.867003535132795],[136.3615548003901,35.86714161043963]]]}},{"type":"Feature","properties":{"pid":"b04cc032-751f-485f-b934-f3fe79b58cc5"},"geometry":{"type":"Polygon","coordinates":[[[136.3612461128815,35.86703504239909],[136.36141944003495,35.86708996367398],[136.3615253511886,35.866851690135796],[136.36139879288282,35.86671244251144],[136.36138828207672,35.86670878540729],[136.3612461128815,35.86703504239909]]]}},{"type":"Feature","properties":{"pid":"25738e73-7aed-48b3-98e2-020bc1939b0e"},"geometry":{"type":"Polygon","coordinates":[[[136.36084878748773,35.866914205786294],[136.36102692347134,35.86697050071652],[136.36120004527612,35.866549456574866],[136.3611844350855,35.866526080418254],[136.36105215922757,35.86652125042757],[136.36084878748773,35.866914205786294]]]}},{"type":"Feature","properties":{"pid":"c668f9cf-e2e5-4fd3-83fc-226a3984e677"},"geometry":{"type":"Polygon","coordinates":[[[136.36052819983126,35.86682158503136],[136.36072361066286,35.86687990365037],[136.3609568163525,35.86638920142579],[136.36076681803704,35.86634769616344],[136.36052819983126,35.86682158503136]]]}},{"type":"Feature","properties":{"pid":"489035fb-d989-4c5b-9f60-2bfc34e89acc"},"geometry":{"type":"Polygon","coordinates":[[[136.36044057995818,35.866710825225866],[136.36062891890694,35.86632415944179],[136.3605245880705,35.866298964778764],[136.3604567040797,35.866317165163025],[136.3604371839976,35.86634312877012],[136.36041176304738,35.86648431068927],[136.36044057995818,35.866710825225866]]]}},{"type":"Feature","properties":{"pid":"99d1373d-f5f4-4c4e-a30a-8cfac8adc154"},"geometry":{"type":"Polygon","coordinates":[[[136.36157702473645,35.86788802975878],[136.3617900761463,35.86796156172657],[136.3617825477618,35.8677503392141],[136.3617229605311,35.867564124998204],[136.36157702473645,35.86788802975878]]]}},{"type":"Feature","properties":{"pid":"a0dd3f42-d725-410c-ac5a-ee4475b6196d"},"geometry":{"type":"Polygon","coordinates":[[[136.36126643224728,35.86777926519554],[136.36143450382926,35.86784139866437],[136.3616584892516,35.86737326639487],[136.36146976009695,35.86730001518693],[136.36126643224728,35.86777926519554]]]}},{"type":"Feature","properties":{"pid":"72e5d8ff-f50c-4967-a69e-1cc0627003c1"},"geometry":{"type":"Polygon","coordinates":[[[136.3614610623537,35.86861352258199],[136.3615175359661,35.868628828249456],[136.36159276633896,35.86859144572664],[136.36168118968516,35.8683818967093],[136.3617486899608,35.86812251232107],[136.36168687029144,35.86810488106036],[136.3614610623537,35.86861352258199]]]}},{"type":"Feature","properties":{"pid":"07131c68-4512-4f61-acae-981195d8f846"},"geometry":{"type":"Polygon","coordinates":[[[136.3611598866629,35.86849947382793],[136.36134215184518,35.86855793355823],[136.36155832667183,35.86806753410201],[136.3613933739133,35.86801629491143],[136.3611598866629,35.86849947382793]]]}},{"type":"Feature","properties":{"pid":"1a8ab214-efec-4ccb-8665-0906c775fbcc"},"geometry":{"type":"Polygon","coordinates":[[[136.36086528469335,35.868411348002006],[136.36102419942546,35.868455626671825],[136.36124955771965,35.86798209827659],[136.3610681448669,35.86792613446019],[136.36086528469335,35.868411348002006]]]}},{"type":"Feature","properties":{"pid":"7834a827-e422-4aaa-9c89-44d48e07a547"},"geometry":{"type":"Polygon","coordinates":[[[136.36062045502445,35.868325209887566],[136.36070869841674,35.868346618294744],[136.36093320249472,35.867883317933455],[136.36083048936027,35.86784745520335],[136.36062045502445,35.868325209887566]]]}},{"type":"Feature","properties":{"pid":"43e32f4f-34b0-41dc-a250-f8bfbcd511a0"},"geometry":{"type":"Polygon","coordinates":[[[136.36028054082482,35.8684077266921],[136.36032852560052,35.868438158002235],[136.36036108928397,35.86838639110329],[136.36063980925272,35.867804531969966],[136.36056679870862,35.867782990376455],[136.36028054082482,35.8684077266921]]]}},{"type":"Feature","properties":{"pid":"54774303-92e2-42d1-bac3-4d4da0c8e0fb"},"geometry":{"type":"Polygon","coordinates":[[[136.36006400863658,35.86814003761275],[136.36009010356713,35.868175604631055],[136.36029293755135,35.867743594452335],[136.36025064241994,35.867731158619],[136.36006400863658,35.86814003761275]]]}},{"type":"Feature","properties":{"pid":"9cb569ac-5b05-4b2c-a91e-726de671b1fa"},"geometry":{"type":"Polygon","coordinates":[[[136.36103450257718,35.869007938459525],[136.36121495449436,35.869066658330674],[136.3614386635562,35.8688977461953],[136.3614815744663,35.86884427868548],[136.36150516928328,35.86877558656981],[136.3611909063723,35.868681125148804],[136.36103450257718,35.869007938459525]]]}},{"type":"Feature","properties":{"pid":"78c07a01-2136-4a70-80be-4a42d2269372"},"geometry":{"type":"Polygon","coordinates":[[[136.36018360708866,35.86989570750034],[136.36050288367133,35.870008717514295],[136.36079864816773,35.86983495944425],[136.36062644333617,35.869853411656],[136.36023379289995,35.86984865832492],[136.36018360708866,35.86989570750034]]]}},{"type":"Feature","properties":{"pid":"aae28ada-cf96-4808-a016-7304e7666e85"},"geometry":{"type":"Polygon","coordinates":[[[136.35952991851133,35.870910117997255],[136.36004147764524,35.87104403865879],[136.36037286587435,35.87046106634263],[136.36040667918655,35.87037881266538],[136.36041468446413,35.87025404730589],[136.36033783685042,35.87019450296569],[136.36012716423414,35.87009729911582],[136.35985110593555,35.87058281613789],[136.35952991851133,35.870910117997255]]]}},{"type":"Feature","properties":{"pid":"c952327b-6947-4c84-9256-c4868b027184"},"geometry":{"type":"Polygon","coordinates":[[[136.3605775398128,35.87119021376842],[136.36068591413402,35.87124032864209],[136.36096903977358,35.870596186409934],[136.36086626371636,35.87055427237686],[136.3605775398128,35.87119021376842]]]}},{"type":"Feature","properties":{"pid":"0df0cdf0-fbc4-48d5-b594-8e4f79b3ee8a"},"geometry":{"type":"Polygon","coordinates":[[[136.3602853891329,35.87108711496463],[136.36039785616137,35.871152335900454],[136.36071462607,35.87045835332288],[136.36066562160767,35.87042623626725],[136.3602853891329,35.87108711496463]]]}},{"type":"Feature","properties":{"pid":"d9cc12ed-5970-4ff5-81b9-6bf2c2cc2148"},"geometry":{"type":"Polygon","coordinates":[[[136.36453343598987,35.86506603782055],[136.36457121976773,35.86503532017855],[136.3646910470739,35.864758890340326],[136.36464458591362,35.864749585276314],[136.36453343598987,35.86506603782055]]]}},{"type":"Feature","properties":{"pid":"48424f75-6022-418c-aaa7-87978403b1a8"},"geometry":{"type":"Polygon","coordinates":[[[136.36467733763004,35.864577831316616],[136.3647626399836,35.864601817724015],[136.3649023353723,35.864238082111406],[136.36482603878287,35.86421925471541],[136.36467733763004,35.864577831316616]]]}},{"type":"Feature","properties":{"pid":"eca5d4c6-4e70-40bb-8789-aa094e4910f9"},"geometry":{"type":"Polygon","coordinates":[[[136.36497323989366,35.864516266556556],[136.3650500582056,35.8645355509133],[136.36510284010032,35.86431029605085],[136.36505474853692,35.8642977386764],[136.36497323989366,35.864516266556556]]]}},{"type":"Feature","properties":{"pid":"0c44cbb8-b815-492c-a0d9-5fb6d6793bd0"},"geometry":{"type":"Polygon","coordinates":[[[136.36711583058698,35.862726128150754],[136.3671606357936,35.862701365635935],[136.367219446236,35.8626274495194],[136.36728134797636,35.86262158663476],[136.3673121920696,35.86257683704799],[136.36722687292226,35.862534237234634],[136.36716845169406,35.86261010472869],[136.36711583058698,35.862726128150754]]]}},{"type":"Feature","properties":{"pid":"2251a0d9-bd56-47e9-b378-69664c2e373e"},"geometry":{"type":"Polygon","coordinates":[[[136.36655449253254,35.86241826499095],[136.36667434629933,35.862474038620434],[136.36671103604428,35.86237661583851],[136.36659983589618,35.86233698425316],[136.36655449253254,35.86241826499095]]]}},{"type":"Feature","properties":{"pid":"9c3e3383-f7fe-40f9-97b3-011def301c6a"},"geometry":{"type":"Polygon","coordinates":[[[136.3663071025157,35.86251125589353],[136.36637696370056,35.8625238271477],[136.36646179329966,35.862303707818285],[136.36634237151935,35.86227211778723],[136.3663071025157,35.86251125589353]]]}},{"type":"Feature","properties":{"pid":"415618c2-f932-4106-8632-63a02c425e18"},"geometry":{"type":"Polygon","coordinates":[[[136.3658397394491,35.86234866510309],[136.36592470788185,35.86237125853794],[136.36595703858984,35.86239942528052],[136.3660109074989,35.86235261686558],[136.36603616959027,35.86217566555881],[136.36588196091645,35.86215321701189],[136.36586835908807,35.862203075193584],[136.3658133152446,35.862220342038285],[136.3658397394491,35.86234866510309]]]}},{"type":"Feature","properties":{"pid":"a951c08e-9e20-40d1-9653-c865d3cb17fa"},"geometry":{"type":"Polygon","coordinates":[[[136.36611691377053,35.86269299030664],[136.3661880401277,35.86275308187201],[136.3662453439909,35.86274797522102],[136.36630151390997,35.86263669164234],[136.3661626965886,35.862600041098105],[136.36611691377053,35.86269299030664]]]}},{"type":"Feature","properties":{"pid":"2ec2ce5a-d53b-42f4-b91d-2d7cc4a14595"},"geometry":{"type":"Polygon","coordinates":[[[136.3664545033156,35.862659943273435],[136.3664087554668,35.862757191581075],[136.36645915705674,35.862764212919686],[136.36653568082139,35.86280210882593],[136.3666251458686,35.86258087114213],[136.3665419459947,35.86255549678152],[136.36651252303727,35.862625914548886],[136.3664545033156,35.862659943273435]]]}},{"type":"Feature","properties":{"pid":"ed59e3e1-4e9c-4a29-b709-51e10a373593"},"geometry":{"type":"Polygon","coordinates":[[[136.36664335387522,35.863457042420826],[136.36665579361764,35.86344569647141],[136.3667736767768,35.86304683796225],[136.36675751782602,35.863045673355735],[136.36664335387522,35.863457042420826]]]}},{"type":"Feature","properties":{"pid":"d2b2a4d7-0608-40f1-b76f-8f24e06df87b"},"geometry":{"type":"Polygon","coordinates":[[[136.36650831772877,35.86337095842175],[136.36658776134283,35.863052658225584],[136.36646629423782,35.863339102271865],[136.36650831772877,35.86337095842175]]]}},{"type":"Feature","properties":{"pid":"be26b5e6-f5c1-41f5-bd9b-0f8c5a0aa428"},"geometry":{"type":"Polygon","coordinates":[[[136.36594485995275,35.86376879795734],[136.3660809585165,35.86376994631966],[136.3663518370655,35.863598480795105],[136.36607677856816,35.863390776090576],[136.3658211987645,35.8636433792759],[136.36594485995275,35.86376879795734]]]}},{"type":"Feature","properties":{"pid":"e3619cf5-35fe-4221-82e7-f4fdb6e92292"},"geometry":{"type":"Polygon","coordinates":[[[136.36553844984778,35.86366394294415],[136.36559409017946,35.86364326737794],[136.36590190388887,35.86332432479911],[136.36587408252961,35.863301846786264],[136.36580957430454,35.86336477777494],[136.36571202720464,35.863397659601375],[136.36561325022117,35.86351602302154],[136.36553844984778,35.86366394294415]]]}},{"type":"Feature","properties":{"pid":"7a4109fa-326e-49e5-a1bb-361a52a57636"},"geometry":{"type":"Polygon","coordinates":[[[136.36568577524554,35.86315016693089],[136.3657743280335,35.863211859967535],[136.3658030521602,35.86318023414161],[136.36575312122565,35.86307994804366],[136.36568577524554,35.86315016693089]]]}},{"type":"Feature","properties":{"pid":"7c318f1f-7fe9-408e-b98d-d089575c4d3c"},"geometry":{"type":"Polygon","coordinates":[[[136.3648998073496,35.863294054058336],[136.36498430111052,35.863189308359956],[136.36493239983136,35.8631647344741],[136.36485167189608,35.86326779268378],[136.3648998073496,35.863294054058336]]]}},{"type":"Feature","properties":{"pid":"a13ec0b5-5434-446c-ab2e-70bb129ac72d"},"geometry":{"type":"Polygon","coordinates":[[[136.3646437036423,35.86353571590108],[136.3647086211349,35.863570423931364],[136.36475712054903,35.86356715245757],[136.3648875474052,35.86362139154037],[136.36502621785797,35.863489799040856],[136.36478331628274,35.86336359538373],[136.3646437036423,35.86353571590108]]]}},{"type":"Feature","properties":{"pid":"e3007a92-15f4-499b-9619-1fa9852987ae"},"geometry":{"type":"Polygon","coordinates":[[[136.36507737126868,35.864084370054094],[136.36512808518992,35.86410112609383],[136.3653189705467,35.86392154866411],[136.3653247610345,35.86381734539958],[136.3654055501088,35.863735317647226],[136.36538385215988,35.863718910892615],[136.3652291567425,35.863854550378655],[136.36517260161074,35.863854502192794],[136.36516351304172,35.86391608075014],[136.36507737126868,35.864084370054094]]]}},{"type":"Feature","properties":{"pid":"025e51e3-45d1-4395-a0a9-2128b8802439"},"geometry":{"type":"Polygon","coordinates":[[[136.36451898516015,35.863470669238446],[136.36481598926497,35.86309128622734],[136.36470909667185,35.86302717141257],[136.36467928866776,35.86307717620355],[136.3646330376858,35.863228464236364],[136.36451898516015,35.863470669238446]]]}},{"type":"Feature","properties":{"pid":"29524703-da17-4523-92a1-08e66abaf045"},"geometry":{"type":"Polygon","coordinates":[[[136.36489744399722,35.86294114568021],[136.3650913363285,35.86305618091619],[136.36531189989807,35.86277417651371],[136.36530384424236,35.86275818924515],[136.3650300333351,35.86281057097845],[136.36489744399722,35.86294114568021]]]}},{"type":"Feature","properties":{"pid":"a8c2f1ae-b6f4-4070-a9cc-3e22f9088750"},"geometry":{"type":"Polygon","coordinates":[[[136.3645363317315,35.86128574199501],[136.3646602905003,35.86140040228181],[136.36471918563205,35.86138574020973],[136.36467984629937,35.86126390545069],[136.3645363317315,35.86128574199501]]]}},{"type":"Feature","properties":{"pid":"9f847fa2-4323-4564-872e-67f67084268c"},"geometry":{"type":"Polygon","coordinates":[[[136.3649734283445,35.86136897230804],[136.365034625022,35.86139310648227],[136.36569461057118,35.86130436757396],[136.36568591166636,35.86128272682575],[136.3649734283445,35.86136897230804]]]}},{"type":"Feature","properties":{"pid":"be5a21dc-7734-49b6-990c-6bcd16d2ec51"},"geometry":{"type":"Polygon","coordinates":[[[136.36517181492235,35.86149658810541],[136.36530770530138,35.86161982658142],[136.36549856446914,35.86160185501513],[136.36565488996732,35.86155683853729],[136.36562785553772,35.86143705205083],[136.36517181492235,35.86149658810541]]]}},{"type":"Feature","properties":{"pid":"8a099760-4cf5-4114-8fe4-8677b9c448f4"},"geometry":{"type":"Polygon","coordinates":[[[136.36606924074928,35.86139699758128],[136.3661466137448,35.86151520968402],[136.36639458289756,35.86143179717289],[136.36641678343622,35.86132544382932],[136.36606924074928,35.86139699758128]]]}},{"type":"Feature","properties":{"pid":"75df36ef-04b2-4016-ab5c-3e984ef48107"},"geometry":{"type":"Polygon","coordinates":[[[136.36225916516597,35.863410414097615],[136.36259565202985,35.86343084405684],[136.36262738980736,35.863218188791116],[136.36260828909943,35.86304858488124],[136.36263480615236,35.86285473289002],[136.36239629802475,35.86285731061753],[136.36235465453944,35.86299618796751],[136.36234732248928,35.86331944968151],[136.36225916516597,35.863410414097615]]]}},{"type":"Feature","properties":{"pid":"7c95a87f-14a7-44bc-be3a-6b7565850996"},"geometry":{"type":"Polygon","coordinates":[[[136.36202284213675,35.86325657048573],[136.36202928361394,35.863365768617975],[136.3620509657076,35.86337262984559],[136.36215621197925,35.86327511816851],[136.36202284213675,35.86325657048573]]]}},{"type":"Feature","properties":{"pid":"61d21389-721a-4f25-9c0a-d46a5436d081"},"geometry":{"type":"Polygon","coordinates":[[[136.3624688354356,35.86270074615715],[136.36268326466254,35.86269162387417],[136.36268479419743,35.862590183302665],[136.36263425920896,35.86261459613571],[136.3625114138433,35.862638295418776],[136.3624688354356,35.86270074615715]]]}}]}