{"type":"FeatureCollection","features":[{"type":"Feature","properties":{"pid":"0f049f7b-2dd1-4c1d-8cf4-8a5d537959f7","full":1.0},"geometry":{"type":"Polygon","coordinates":[[[136.176,35.79162],[136.17602,35.79162],[136.17617,35.79145],[136.17622,35.79136],[136.17587,35.79142],[136.17597,35.7916],[136.176,35.79162]]]}},{"type":"Feature","properties":{"pid":"73946fc5-c297-4850-8ffa-ee54e4ba46b9","full":11.7},"geometry":{"type":"Polygon","coordinates":[[[136.17482,35.79155],[136.17516,35.79154],[136.17531,35.79151],[136.17555,35.79133],[136.17566,35.79129],[136.17562,35.79115],[136.17485,35.79128],[136.17482,35.79155]]]}},{"type":"Feature","properties":{"pid":"9db2e954-2e0c-446c-b22e-b35438aab41a","full":7.0},"geometry":{"type":"Polygon","coordinates":[[[136.17503,35.79119],[136.17509,35.7912],[136.17564,35.79111],[136.17567,35.79109],[136.17557,35.79063],[136.17553,35.79064],[136.17544,35.79078],[136.1754,35.79087],[136.17532,35.7909],[136.17514,35.7911],[136.17503,35.79119]]]}},{"type":"Feature","properties":{"pid":"d7fd58da-b4e8-4435-8c21-b150f708588e","full":8.8},"geometry":{"type":"Polygon","coordinates":[[[136.17587,35.79141],[136.17621,35.79135],[136.17628,35.79127],[136.17638,35.7912],[136.17642,35.79116],[136.17642,35.79103],[136.1758,35.79113],[136.17579,35.79126],[136.1758,35.79132],[136.17587,35.79141]]]}},{"type":"Feature","properties":{"pid":"9017a36a-56c8-4d7f-8393-ebed2eaa08f8","full":6.5},"geometry":{"type":"Polygon","coordinates":[[[136.17572,35.79081],[136.1764,35.79069],[136.17621,35.79051],[136.17612,35.79054],[136.17591,35.79055],[136.17566,35.79054],[136.1757,35.79079],[136.17572,35.79081]]]}},{"type":"Feature","properties":{"pid":"4a27cd53-ab44-4b2c-9b79-f1097dbd0505","full":11.0},"geometry":{"type":"Polygon","coordinates":[[[136.17671,35.79089],[136.17683,35.79088],[136.17698,35.79082],[136.17696,35.79079],[136.17699,35.79077],[136.17643,35.79025],[136.17635,35.79039],[136.1763,35.79045],[136.17628,35.7905],[136.17671,35.79089]]]}},{"type":"Feature","properties":{"pid":"c04c015c-af17-41cc-bdf4-64e49465baec","full":10.8},"geometry":{"type":"Polygon","coordinates":[[[136.17576,35.79106],[136.17634,35.79098],[136.17637,35.79096],[136.17662,35.79093],[136.17663,35.79091],[136.17643,35.79071],[136.17641,35.79071],[136.17571,35.79083],[136.17574,35.79104],[136.17576,35.79106]]]}},{"type":"Feature","properties":{"pid":"565e7144-3674-4822-8144-32c8bb2c3127","full":4.8},"geometry":{"type":"Polygon","coordinates":[[[136.19044,35.79132],[136.19047,35.79132],[136.19058,35.79124],[136.18982,35.79059],[136.18969,35.79069],[136.19044,35.79132]]]}},{"type":"Feature","properties":{"pid":"e9eabeff-c3d6-4ace-ada1-4a376f7c6eca","full":24.6},"geometry":{"type":"Polygon","coordinates":[[[136.19013,35.79157],[136.19015,35.79156],[136.19045,35.79134],[136.18968,35.7907],[136.18939,35.79094],[136.19013,35.79157]]]}},{"type":"Feature","properties":{"pid":"286d914f-4f8e-435e-8b71-9eea35dda5a4","full":15.8},"geometry":{"type":"Polygon","coordinates":[[[136.18915,35.79102],[136.18938,35.79084],[136.18872,35.79026],[136.18868,35.79029],[136.18864,35.79025],[136.18844,35.7904],[136.18915,35.79102]]]}},{"type":"Feature","properties":{"pid":"f05f1d9f-a637-4adc-bd42-cc737182de00","full":16.9},"geometry":{"type":"Polygon","coordinates":[[[136.18892,35.79121],[136.18914,35.79103],[136.18843,35.7904],[136.18821,35.79059],[136.18823,35.79064],[136.18892,35.79121]]]}},{"type":"Feature","properties":{"pid":"9f6eacd1-7d78-4159-a7f6-8084e53afbf1","full":20.7},"geometry":{"type":"Polygon","coordinates":[[[136.18987,35.79169],[136.18992,35.7917],[136.18997,35.79169],[136.19012,35.79158],[136.18938,35.79094],[136.18914,35.79113],[136.18923,35.79121],[136.18934,35.79136],[136.18947,35.79156],[136.18987,35.79169]]]}},{"type":"Feature","properties":{"pid":"03108334-51b7-4d4f-b4b6-b33ee9c69463","full":0.9},"geometry":{"type":"Polygon","coordinates":[[[136.17636,35.8064],[136.17653,35.80618],[136.17644,35.80619],[136.17632,35.80618],[136.17625,35.80616],[136.17621,35.80622],[136.17622,35.80628],[136.17634,35.8064],[136.17636,35.8064]]]}},{"type":"Feature","properties":{"pid":"77994ef9-9a1c-45a8-9a17-e95848a934d4","full":2.3},"geometry":{"type":"Polygon","coordinates":[[[136.17682,35.8062],[136.17666,35.80614],[136.17658,35.80615],[136.17636,35.80642],[136.17646,35.80654],[136.17648,35.80653],[136.17659,35.80637],[136.17666,35.80634],[136.1768,35.80622],[136.17682,35.8062]]]}},{"type":"Feature","properties":{"pid":"1504e6c8-18c0-4fa5-8f12-9013e2a6ecda","full":6.1},"geometry":{"type":"Polygon","coordinates":[[[136.1765,35.80667],[136.17622,35.80684],[136.17627,35.80695],[136.17629,35.80704],[136.17633,35.80709],[136.17677,35.80683],[136.17672,35.80676],[136.1765,35.80667]]]}},{"type":"Feature","properties":{"pid":"fe0c5df3-a919-4af3-b2f5-4bfbb9b9e7fe","full":7.8},"geometry":{"type":"Polygon","coordinates":[[[136.17656,35.8073],[136.17692,35.80708],[136.17693,35.80701],[136.17692,35.80699],[136.17676,35.80685],[136.17634,35.8071],[136.17647,35.80726],[136.17656,35.8073]]]}},{"type":"Feature","properties":{"pid":"ac8bf3a7-955f-4fde-bb38-af6c189ac364","full":3.7},"geometry":{"type":"Polygon","coordinates":[[[136.17621,35.80684],[136.17649,35.80667],[136.17627,35.80649],[136.176,35.80665],[136.17621,35.80684]]]}},{"type":"Feature","properties":{"pid":"76c9c565-96d3-4c7e-98be-90bfb4b35964","full":3.7},"geometry":{"type":"Polygon","coordinates":[[[136.17599,35.80664],[136.17626,35.80648],[136.17609,35.80628],[136.17579,35.80645],[136.17592,35.80658],[136.17599,35.80664]]]}},{"type":"Feature","properties":{"pid":"c89c4c1e-06a8-4e27-b9ad-c2f89c309685","full":3.4},"geometry":{"type":"Polygon","coordinates":[[[136.17578,35.80644],[136.17606,35.80628],[136.17597,35.80625],[136.17592,35.8062],[136.17585,35.80612],[136.17563,35.80612],[136.17562,35.80619],[136.17566,35.8063],[136.17571,35.80638],[136.17578,35.80644]]]}},{"type":"Feature","properties":{"pid":"c9141bcd-e0a0-4427-8f43-16bd285d70cf","full":3.2},"geometry":{"type":"Polygon","coordinates":[[[136.17598,35.80605],[136.17609,35.80608],[136.1761,35.80608],[136.17598,35.80591],[136.17585,35.80578],[136.1755,35.80572],[136.17557,35.80583],[136.1756,35.80593],[136.17564,35.80595],[136.17589,35.806],[136.17598,35.80605]]]}},{"type":"Feature","properties":{"pid":"49aa0aba-2f75-4659-9763-38bbd97edd93","full":4.5},"geometry":{"type":"Polygon","coordinates":[[[136.1755,35.80572],[136.17585,35.80577],[136.17575,35.80564],[136.17574,35.80557],[136.17568,35.8055],[136.17561,35.80538],[136.17558,35.80535],[136.1755,35.80534],[136.17542,35.80535],[136.1754,35.80538],[136.17542,35.80543],[136.17545,35.80563],[136.17547,35.80569],[136.1755,35.80572]]]}},{"type":"Feature","properties":{"pid":"8ca60fdf-4d4e-4278-95c1-2207cad0ab50","full":0.5},"geometry":{"type":"Polygon","coordinates":[[[136.19476,35.80708],[136.19489,35.80706],[136.195,35.80706],[136.19509,35.80708],[136.19518,35.80706],[136.19513,35.80686],[136.19511,35.80687],[136.19503,35.80694],[136.19499,35.80696],[136.19485,35.807],[136.19478,35.80705],[136.19476,35.80707],[136.19476,35.80708]]]}},{"type":"Feature","properties":{"pid":"b71d67e6-2862-495d-bfb4-e2f10f174f13","full":6.8},"geometry":{"type":"Polygon","coordinates":[[[136.19469,35.8069],[136.19479,35.80689],[136.19492,35.80692],[136.19498,35.80695],[136.19513,35.80685],[136.19506,35.8066],[136.19502,35.8066],[136.19501,35.80659],[136.19461,35.80667],[136.19469,35.8069]]]}},{"type":"Feature","properties":{"pid":"6783e40d-dcf0-4dc3-9d3f-aea607661667","full":10.4},"geometry":{"type":"Polygon","coordinates":[[[136.19449,35.80713],[136.19455,35.80709],[136.1943,35.80648],[136.19428,35.80647],[136.19424,35.80647],[136.19419,35.80646],[136.19415,35.80643],[136.1941,35.80643],[136.19388,35.80651],[136.19385,35.80653],[136.19385,35.80655],[136.19402,35.80671],[136.19449,35.80713]]]}},{"type":"Feature","properties":{"pid":"5380976e-49bf-4208-97d8-cfb27fab6b33","full":6.4},"geometry":{"type":"Polygon","coordinates":[[[136.19326,35.80595],[136.19331,35.80595],[136.19379,35.80579],[136.1937,35.80559],[136.19365,35.80559],[136.19315,35.80576],[136.19313,35.80577],[136.19326,35.80595]]]}},{"type":"Feature","properties":{"pid":"78d07cc4-fae9-4a82-93f0-065c9975bf21","full":13.0},"geometry":{"type":"Polygon","coordinates":[[[136.19385,35.80652],[136.19415,35.80641],[136.19402,35.80597],[136.19398,35.80597],[136.19349,35.80614],[136.19348,35.80616],[136.19361,35.80629],[136.19385,35.80652]]]}},{"type":"Feature","properties":{"pid":"32ff23a9-1bf8-41e4-96e1-191855a470cb","full":5.2},"geometry":{"type":"Polygon","coordinates":[[[136.19347,35.80614],[136.19401,35.80596],[136.19398,35.80587],[136.19391,35.80587],[136.19385,35.80586],[136.19381,35.80584],[136.19378,35.80581],[136.19331,35.80596],[136.19347,35.80614]]]}},{"type":"Feature","properties":{"pid":"708c0c4d-cf7d-4a1d-a9d8-2cc34879a07c","full":11.2},"geometry":{"type":"Polygon","coordinates":[[[136.19312,35.80576],[136.19367,35.80557],[136.19368,35.80556],[136.19368,35.80553],[136.19374,35.80546],[136.19374,35.80543],[136.1937,35.8053],[136.19366,35.80529],[136.19295,35.80553],[136.19294,35.80555],[136.19312,35.80576]]]}},{"type":"Feature","properties":{"pid":"639f8ebe-c893-4a54-b226-530ee7145122","full":13.2},"geometry":{"type":"Polygon","coordinates":[[[136.19293,35.80553],[136.19366,35.80529],[136.19369,35.80527],[136.19368,35.8052],[136.1936,35.80506],[136.19358,35.80504],[136.19354,35.80505],[136.19278,35.80529],[136.19277,35.80532],[136.19293,35.80553]]]}},{"type":"Feature","properties":{"pid":"2293879d-4aee-4176-88a0-806467ab6331","full":14.4},"geometry":{"type":"Polygon","coordinates":[[[136.19275,35.8053],[136.1936,35.80502],[136.19349,35.80479],[136.19345,35.80479],[136.19263,35.80506],[136.19259,35.80508],[136.19259,35.8051],[136.19267,35.8052],[136.19275,35.8053]]]}},{"type":"Feature","properties":{"pid":"6402952b-9d4e-4d14-bc76-41186c19cf7a","full":15.5},"geometry":{"type":"Polygon","coordinates":[[[136.19258,35.80507],[136.19348,35.80477],[136.19348,35.80475],[136.19337,35.80453],[136.19335,35.80453],[136.19243,35.80483],[136.19242,35.80484],[136.19258,35.80507]]]}},{"type":"Feature","properties":{"pid":"13695d20-3c13-4f1b-9d1f-8b63c94c6f59","full":11.6},"geometry":{"type":"Polygon","coordinates":[[[136.19471,35.80552],[136.1946,35.80521],[136.19402,35.80533],[136.19415,35.80565],[136.19471,35.80552]]]}},{"type":"Feature","properties":{"pid":"8a258ae8-963c-485f-b3a9-85db9b4b7052","full":1.9},"geometry":{"type":"Polygon","coordinates":[[[136.19348,35.80404],[136.19367,35.80398],[136.19368,35.80396],[136.19355,35.80379],[136.19347,35.80366],[136.19345,35.80365],[136.19332,35.80369],[136.19348,35.80404]]]}},{"type":"Feature","properties":{"pid":"8834fb32-69a0-4442-b54f-6980277217e5","full":0.9},"geometry":{"type":"Polygon","coordinates":[[[136.19385,35.80443],[136.19396,35.8044],[136.19397,35.80438],[136.1938,35.80397],[136.19369,35.80398],[136.19366,35.80398],[136.19385,35.80443]]]}},{"type":"Feature","properties":{"pid":"95c7e587-7c3b-4b64-b74a-58614cb4b823","full":4.0},"geometry":{"type":"Polygon","coordinates":[[[136.19366,35.80448],[136.19385,35.80443],[136.19366,35.80399],[136.19348,35.80404],[136.19347,35.80406],[136.19363,35.80447],[136.19366,35.80448]]]}},{"type":"Feature","properties":{"pid":"9d2790e9-f4e8-4342-9114-7c0a6ea41383","full":15.9},"geometry":{"type":"Polygon","coordinates":[[[136.19241,35.80482],[136.19336,35.80452],[136.19335,35.80448],[136.19325,35.80429],[136.19322,35.80429],[136.19228,35.80459],[136.19227,35.8046],[136.19241,35.80482]]]}},{"type":"Feature","properties":{"pid":"6d16aafc-d687-4bba-af4a-2b99cb2c2083","full":15.4},"geometry":{"type":"Polygon","coordinates":[[[136.19211,35.80434],[136.19308,35.80404],[136.19296,35.8038],[136.19199,35.80411],[136.19211,35.80434]]]}},{"type":"Feature","properties":{"pid":"c53f4378-ad3d-4534-9763-3c7d21c4852d","full":16.7},"geometry":{"type":"Polygon","coordinates":[[[136.19198,35.80409],[136.19295,35.80378],[136.19284,35.80354],[136.19282,35.80353],[136.19188,35.80383],[136.19186,35.80385],[136.19198,35.80409]]]}},{"type":"Feature","properties":{"pid":"86a1293f-a899-4aa9-bd62-328031162550","full":15.8},"geometry":{"type":"Polygon","coordinates":[[[136.19225,35.80458],[136.19322,35.80428],[136.19322,35.80426],[136.19323,35.80425],[136.19317,35.80412],[136.19309,35.80405],[136.19212,35.80435],[136.19225,35.80458]]]}},{"type":"Feature","properties":{"pid":"fed85da3-bef4-44d5-857b-5566c81ac0cc","full":16.3},"geometry":{"type":"Polygon","coordinates":[[[136.19186,35.80383],[136.19283,35.80353],[136.19273,35.80329],[136.1927,35.80329],[136.19176,35.80358],[136.19175,35.80359],[136.19186,35.80383]]]}},{"type":"Feature","properties":{"pid":"766d1ba9-334f-40e9-95a9-3e912f87a098","full":15.5},"geometry":{"type":"Polygon","coordinates":[[[136.19175,35.80358],[136.19272,35.80328],[136.19261,35.80304],[136.1926,35.80304],[136.19167,35.80333],[136.19167,35.80334],[136.19175,35.80358]]]}},{"type":"Feature","properties":{"pid":"edcbd6d9-ae01-456f-992e-bd19718af507","full":16.3},"geometry":{"type":"Polygon","coordinates":[[[136.19166,35.80333],[136.1926,35.80303],[136.1925,35.80278],[136.19247,35.80278],[136.19159,35.80306],[136.19158,35.80307],[136.19166,35.80333]]]}},{"type":"Feature","properties":{"pid":"d6d76531-134c-475f-9890-4e89766fc444","full":15.6},"geometry":{"type":"Polygon","coordinates":[[[136.1915,35.80279],[136.19243,35.80249],[136.19231,35.80225],[136.19145,35.80251],[136.19144,35.80252],[136.1915,35.80279]]]}},{"type":"Feature","properties":{"pid":"b4e67cf6-09fa-4ba9-8f9c-d0ae0997f53d","full":15.4},"geometry":{"type":"Polygon","coordinates":[[[136.19157,35.80306],[136.19249,35.80277],[136.19243,35.80263],[136.19244,35.80257],[136.19241,35.80251],[136.19239,35.80251],[136.19151,35.80279],[136.1915,35.8028],[136.19157,35.80306]]]}},{"type":"Feature","properties":{"pid":"e17aa24f-3cf5-443e-907d-895a3d741336","full":13.7},"geometry":{"type":"Polygon","coordinates":[[[136.19143,35.80251],[136.19231,35.80224],[136.19219,35.80199],[136.1914,35.80224],[136.19143,35.80251]]]}},{"type":"Feature","properties":{"pid":"a8692d6d-1641-4d92-a131-d06c027c57ab","full":12.0},"geometry":{"type":"Polygon","coordinates":[[[136.1914,35.80224],[136.19219,35.80199],[136.19208,35.80175],[136.19206,35.80175],[136.19137,35.80196],[136.1914,35.80224]]]}},{"type":"Feature","properties":{"pid":"e233ec44-c959-4532-b9e9-d0b50a977f62","full":3.8},"geometry":{"type":"Polygon","coordinates":[[[136.19138,35.80107],[136.19172,35.80097],[136.19158,35.80068],[136.19157,35.80067],[136.19151,35.80052],[136.19147,35.80053],[136.19145,35.80058],[136.19138,35.80098],[136.19138,35.80107]]]}},{"type":"Feature","properties":{"pid":"08d22669-73c1-4408-b449-9f49e54d7cee","full":1.2},"geometry":{"type":"Polygon","coordinates":[[[136.19178,35.8011],[136.19172,35.80097],[136.19138,35.80108],[136.19137,35.80113],[136.19137,35.80121],[136.19178,35.8011]]]}},{"type":"Feature","properties":{"pid":"276f37f4-c0cb-4f91-a6fd-afd06aabb8cc","full":2.4},"geometry":{"type":"Polygon","coordinates":[[[136.19136,35.80137],[136.19141,35.80138],[136.19182,35.80125],[136.19184,35.80123],[136.19178,35.8011],[136.19137,35.80121],[136.19137,35.80126],[136.19135,35.80126],[136.19136,35.80137]]]}},{"type":"Feature","properties":{"pid":"ff60ec5f-5d8d-498d-9024-1ca27d9c4e7f","full":21.7},"geometry":{"type":"Polygon","coordinates":[[[136.19137,35.80195],[136.19205,35.80174],[136.19204,35.80173],[136.19207,35.80172],[136.19187,35.80129],[136.19184,35.80127],[136.1914,35.8014],[136.19138,35.80153],[136.19136,35.80156],[136.19137,35.80195]]]}},{"type":"Feature","properties":{"pid":"30348ed6-bac8-413b-ab0b-17ab9bf694a4","full":14.9},"geometry":{"type":"Polygon","coordinates":[[[136.19386,35.80106],[136.19393,35.80106],[136.19481,35.80095],[136.19476,35.80068],[136.19389,35.80079],[136.19386,35.80088],[136.19385,35.80094],[136.19386,35.80106]]]}},{"type":"Feature","properties":{"pid":"a999222b-562f-4299-a21c-83bad1b3f7f3","full":9.4},"geometry":{"type":"Polygon","coordinates":[[[136.19389,35.80078],[136.19475,35.80068],[136.19471,35.80041],[136.19469,35.80038],[136.19457,35.80043],[136.19433,35.8005],[136.19428,35.80053],[136.19401,35.80055],[136.1939,35.80072],[136.19389,35.80078]]]}},{"type":"Feature","properties":{"pid":"4b26476c-94ef-41f6-95f4-898651d08af0","full":17.5},"geometry":{"type":"Polygon","coordinates":[[[136.1948,35.80044],[136.19572,35.80033],[136.19573,35.80009],[136.19524,35.79995],[136.19519,35.79997],[136.19517,35.8],[136.19509,35.8001],[136.19501,35.80018],[136.19493,35.80024],[136.19479,35.80034],[136.1948,35.80044]]]}},{"type":"Feature","properties":{"pid":"5352de29-5134-4e15-ac04-9c0c6f165f20","full":13.4},"geometry":{"type":"Polygon","coordinates":[[[136.19485,35.8007],[136.19576,35.8006],[136.19574,35.80054],[136.19572,35.80034],[136.1948,35.80045],[136.19485,35.8007]]]}},{"type":"Feature","properties":{"pid":"f17e44c6-088c-451f-aaab-deac312cf66e","full":18.9},"geometry":{"type":"Polygon","coordinates":[[[136.19491,35.80103],[136.19494,35.80103],[136.1958,35.80093],[136.19579,35.80063],[136.19577,35.80061],[136.19485,35.80072],[136.19491,35.80103]]]}},{"type":"Feature","properties":{"pid":"32234bc3-53e3-4787-b9c9-ce71f30a67ea","full":17.0},"geometry":{"type":"Polygon","coordinates":[[[136.19384,35.80165],[136.19492,35.80152],[136.19487,35.80127],[136.19485,35.80127],[136.19386,35.80138],[136.19382,35.80151],[136.19384,35.80165]]]}},{"type":"Feature","properties":{"pid":"ef032804-3355-4757-b169-3796679d9d87","full":16.1},"geometry":{"type":"Polygon","coordinates":[[[136.19395,35.80191],[136.19496,35.80179],[136.19492,35.80153],[136.19384,35.80166],[136.19386,35.80177],[136.19395,35.80191]]]}},{"type":"Feature","properties":{"pid":"7524acab-220a-48ca-a40e-3869f404c479","full":35.0},"geometry":{"type":"Polygon","coordinates":[[[136.19414,35.80287],[136.19507,35.80275],[136.19511,35.80269],[136.19506,35.80231],[136.19437,35.80239],[136.19398,35.80251],[136.19392,35.80256],[136.19391,35.8026],[136.19399,35.8028],[136.19414,35.80287]]]}},{"type":"Feature","properties":{"pid":"4d89591e-6c11-4bb9-b4c0-c01f4cef1d9a","full":10.1},"geometry":{"type":"Polygon","coordinates":[[[136.19436,35.80239],[136.19503,35.80231],[136.19505,35.80227],[136.19501,35.80208],[136.195,35.80206],[136.19418,35.80216],[136.19436,35.80239]]]}},{"type":"Feature","properties":{"pid":"60c71f2d-17c4-45c8-96bf-23fd8b9787a0","full":14.4},"geometry":{"type":"Polygon","coordinates":[[[136.19458,35.80309],[136.1949,35.80313],[136.19511,35.80312],[136.19516,35.803],[136.19512,35.80275],[136.19415,35.80288],[136.19446,35.80304],[136.19458,35.80309]]]}},{"type":"Feature","properties":{"pid":"81ca9294-5fb4-4917-a8a3-21c4b27dc68b","full":0.6},"geometry":{"type":"Polygon","coordinates":[[[136.19758,35.80218],[136.19749,35.80187],[136.19747,35.80187],[136.19735,35.8019],[136.19746,35.8022],[136.19758,35.80218]]]}},{"type":"Feature","properties":{"pid":"99d0b2ab-21ae-489d-be9e-487245133d6b","full":17.0},"geometry":{"type":"Polygon","coordinates":[[[136.19523,35.80293],[136.1955,35.80289],[136.19559,35.80299],[136.1961,35.80282],[136.19609,35.80268],[136.19606,35.80255],[136.19519,35.80265],[136.19523,35.80293]]]}},{"type":"Feature","properties":{"pid":"2f623e4a-2150-494f-9145-fafc36dbba43","full":19.8},"geometry":{"type":"Polygon","coordinates":[[[136.19606,35.80255],[136.19599,35.8022],[136.19513,35.8023],[136.19519,35.80265],[136.19606,35.80255]]]}},{"type":"Feature","properties":{"pid":"b988a85d-95a0-41e5-addf-ff842c8920a3","full":20.8},"geometry":{"type":"Polygon","coordinates":[[[136.19513,35.8023],[136.19599,35.8022],[136.19592,35.80184],[136.19506,35.80194],[136.19513,35.8023]]]}},{"type":"Feature","properties":{"pid":"25de2d06-065d-4f04-a575-82380918e73f","full":19.4},"geometry":{"type":"Polygon","coordinates":[[[136.19506,35.80193],[136.19591,35.80183],[136.19587,35.80148],[136.195,35.80159],[136.19506,35.80193]]]}},{"type":"Feature","properties":{"pid":"c57ac466-6893-4a5d-93f9-f7df97ea47f5","full":13.2},"geometry":{"type":"Polygon","coordinates":[[[136.195,35.80158],[136.19587,35.80148],[136.19584,35.80122],[136.19495,35.80132],[136.195,35.80158]]]}},{"type":"Feature","properties":{"pid":"2b23a5cf-174e-41f6-9d4a-ff4d1d630f54","full":14.7},"geometry":{"type":"Polygon","coordinates":[[[136.19495,35.80132],[136.19584,35.80121],[136.19581,35.80094],[136.19491,35.80104],[136.19491,35.80108],[136.19495,35.80132]]]}},{"type":"Feature","properties":{"pid":"a9f204b8-2291-4dc6-b1af-af62fcf28d2e","full":13.4},"geometry":{"type":"Polygon","coordinates":[[[136.19722,35.80052],[136.19725,35.80052],[136.19777,35.80042],[136.19774,35.80033],[136.1977,35.80025],[136.19766,35.80021],[136.1976,35.80014],[136.19757,35.80008],[136.19756,35.80003],[136.19749,35.80004],[136.19714,35.80012],[136.19715,35.80014],[136.19712,35.80015],[136.19722,35.80052]]]}},{"type":"Feature","properties":{"pid":"eea0bca6-67e3-481a-afe5-4ba75b395e36","full":9.2},"geometry":{"type":"Polygon","coordinates":[[[136.19789,35.80069],[136.19782,35.80055],[136.19778,35.80043],[136.19722,35.80053],[136.19729,35.8008],[136.19733,35.8008],[136.19788,35.8007],[136.19789,35.80069]]]}},{"type":"Feature","properties":{"pid":"e750fdf1-6a49-453d-af99-2bf6223a172b","full":6.1},"geometry":{"type":"Polygon","coordinates":[[[136.19739,35.80117],[136.19811,35.80104],[136.19801,35.80086],[136.19799,35.80086],[136.19734,35.80098],[136.19739,35.80117]]]}},{"type":"Feature","properties":{"pid":"60a5712d-4ffd-4373-8b40-231e863d1b57","full":3.8},"geometry":{"type":"Polygon","coordinates":[[[136.198,35.80085],[136.19791,35.80072],[136.19788,35.80071],[136.1973,35.80082],[136.19734,35.80097],[136.19738,35.80097],[136.198,35.80085]]]}},{"type":"Feature","properties":{"pid":"39f2edf2-5e5e-4b40-a703-1e0fe4a6ecc5","full":17.1},"geometry":{"type":"Polygon","coordinates":[[[136.19822,35.80138],[136.19817,35.80112],[136.19811,35.80104],[136.19739,35.80117],[136.19748,35.80151],[136.19822,35.80138]]]}},{"type":"Feature","properties":{"pid":"2da28c19-ae48-482b-9bb5-d880a2755193","full":13.2},"geometry":{"type":"Polygon","coordinates":[[[136.19758,35.80184],[136.19821,35.80173],[136.19816,35.80153],[136.19821,35.80142],[136.1982,35.80139],[136.19749,35.80152],[136.19758,35.80184]]]}},{"type":"Feature","properties":{"pid":"11a0b6e7-df04-498c-ac09-4c14335da5c8","full":15.4},"geometry":{"type":"Polygon","coordinates":[[[136.19771,35.80218],[136.19774,35.80219],[136.19776,35.80221],[136.19841,35.8021],[136.19837,35.80201],[136.19826,35.80182],[136.19822,35.80176],[136.19759,35.80188],[136.19764,35.80204],[136.19771,35.80218]]]}},{"type":"Feature","properties":{"pid":"1fadfda3-f36a-4065-a8cd-16fe627b3f05","full":12.4},"geometry":{"type":"Polygon","coordinates":[[[136.19787,35.80249],[136.19823,35.80246],[136.19839,35.80243],[136.19852,35.80239],[136.19848,35.80223],[136.1984,35.8021],[136.19777,35.80222],[136.19777,35.80224],[136.19775,35.80226],[136.19787,35.80249]]]}},{"type":"Feature","properties":{"pid":"69e683b2-5655-402d-8c69-f6199d99cda1","full":9.8},"geometry":{"type":"Polygon","coordinates":[[[136.19796,35.80287],[136.1986,35.80276],[136.19858,35.8026],[136.19855,35.8025],[136.19848,35.8025],[136.19792,35.80263],[136.19796,35.80287]]]}},{"type":"Feature","properties":{"pid":"3ee81d9c-b1f8-4b78-840d-4f60a566700f","full":5.9},"geometry":{"type":"Polygon","coordinates":[[[136.19799,35.80307],[136.19861,35.80298],[136.19861,35.80286],[136.1986,35.80277],[136.19796,35.80288],[136.19799,35.80307]]]}},{"type":"Feature","properties":{"pid":"f2546993-7008-4381-8229-3ff065ad511f","full":17.5},"geometry":{"type":"Polygon","coordinates":[[[136.19993,35.7937],[136.19996,35.7937],[136.20031,35.79352],[136.19991,35.79299],[136.19973,35.79309],[136.1997,35.79305],[136.19954,35.79316],[136.19993,35.7937]]]}},{"type":"Feature","properties":{"pid":"f567634a-2ae2-4d92-8d96-7b9163265a72","full":27.1},"geometry":{"type":"Polygon","coordinates":[[[136.19938,35.79399],[136.19987,35.79374],[136.19988,35.79373],[136.19947,35.79318],[136.19945,35.79318],[136.19898,35.79342],[136.19897,35.79343],[136.19938,35.79399]]]}},{"type":"Feature","properties":{"pid":"a1a30de1-b4f4-4206-a5dd-76ab117829f3","full":13.3},"geometry":{"type":"Polygon","coordinates":[[[136.19972,35.7948],[136.2004,35.79446],[136.2004,35.79445],[136.20041,35.79443],[136.20024,35.79422],[136.19953,35.79456],[136.19972,35.7948]]]}},{"type":"Feature","properties":{"pid":"8e48ab18-fd09-4934-9a91-e2b85879c02c","full":8.8},"geometry":{"type":"Polygon","coordinates":[[[136.19954,35.79454],[136.20024,35.7942],[136.20024,35.79419],[136.20011,35.79403],[136.2001,35.79402],[136.1994,35.79436],[136.19954,35.79454]]]}},{"type":"Feature","properties":{"pid":"75bb5d8f-5ff0-41ab-a843-eb3fe90733a2","full":11.1},"geometry":{"type":"Polygon","coordinates":[[[136.19938,35.79435],[136.20008,35.79401],[136.20009,35.79399],[136.19993,35.79379],[136.19923,35.79414],[136.19938,35.79435]]]}},{"type":"Feature","properties":{"pid":"ee2ab71d-0323-449c-afcb-be492c90ed1b","full":10.4},"geometry":{"type":"Polygon","coordinates":[[[136.19932,35.79438],[136.19918,35.79417],[136.19848,35.79451],[136.19862,35.79472],[136.19932,35.79438]]]}},{"type":"Feature","properties":{"pid":"d547b516-235a-4d13-9917-11744873bcf0","full":13.8},"geometry":{"type":"Polygon","coordinates":[[[136.19882,35.79498],[136.19951,35.79464],[136.19952,35.79462],[136.19934,35.79439],[136.19868,35.79471],[136.19868,35.79473],[136.19865,35.79475],[136.19882,35.79498]]]}},{"type":"Feature","properties":{"pid":"62c53876-2c9b-4faa-91d8-e93b0f45c1b8","full":17.9},"geometry":{"type":"Polygon","coordinates":[[[136.198,35.79466],[136.19801,35.79466],[136.19838,35.79448],[136.19798,35.79394],[136.1976,35.79412],[136.198,35.79466]]]}},{"type":"Feature","properties":{"pid":"ea7e960e-bd0c-41c2-a47b-6cc62fac30a4","full":18.2},"geometry":{"type":"Polygon","coordinates":[[[136.19838,35.79447],[136.19876,35.79429],[136.19836,35.79374],[136.19798,35.79393],[136.19838,35.79447]]]}},{"type":"Feature","properties":{"pid":"72bfdd48-b660-4012-a50c-6f037e3afb7f","full":17.4},"geometry":{"type":"Polygon","coordinates":[[[136.19877,35.79428],[136.19914,35.7941],[136.19874,35.79356],[136.19837,35.79374],[136.19877,35.79428]]]}},{"type":"Feature","properties":{"pid":"e2305d42-e086-42a3-bd4e-e0226ae39f5f","full":8.4},"geometry":{"type":"Polygon","coordinates":[[[136.19915,35.7941],[136.19937,35.79399],[136.19897,35.79344],[136.19875,35.79355],[136.19915,35.7941]]]}},{"type":"Feature","properties":{"pid":"256e3eaf-60a5-4b9a-8214-91711fc17888","full":9.0},"geometry":{"type":"Polygon","coordinates":[[[136.1987,35.79347],[136.19893,35.79335],[136.19858,35.79286],[136.19856,35.79286],[136.19834,35.79298],[136.19833,35.79299],[136.19866,35.79346],[136.19869,35.79345],[136.1987,35.79347]]]}},{"type":"Feature","properties":{"pid":"8dfc0986-ff65-4d3c-b811-7ed67f50f999","full":4.9},"geometry":{"type":"Polygon","coordinates":[[[136.19849,35.79357],[136.19867,35.79348],[136.19831,35.793],[136.1983,35.793],[136.19813,35.79309],[136.19849,35.79357]]]}},{"type":"Feature","properties":{"pid":"8d34db04-57cd-4ae6-91da-4c7ccb8f7e78","full":4.6},"geometry":{"type":"Polygon","coordinates":[[[136.19829,35.79365],[136.19831,35.79364],[136.19832,35.79365],[136.19848,35.79357],[136.19813,35.79309],[136.19796,35.79319],[136.19829,35.79365]]]}},{"type":"Feature","properties":{"pid":"f7e1a8c5-0840-4431-b3f2-54aa6444efaa","full":13.3},"geometry":{"type":"Polygon","coordinates":[[[136.19792,35.79384],[136.19794,35.79384],[136.19829,35.79367],[136.19795,35.7932],[136.19762,35.79344],[136.19792,35.79384]]]}},{"type":"Feature","properties":{"pid":"80e7ec3a-d790-492a-bd98-4efc30866a5b","full":9.5},"geometry":{"type":"Polygon","coordinates":[[[136.19756,35.79401],[136.19758,35.794],[136.1976,35.79401],[136.19792,35.79385],[136.19791,35.79383],[136.19763,35.79346],[136.19762,35.79346],[136.19741,35.79363],[136.19745,35.79368],[136.19739,35.79382],[136.19756,35.79401]]]}},{"type":"Feature","properties":{"pid":"b4385855-aedc-4ca7-9f47-c4da9c97c300","full":2.4},"geometry":{"type":"Polygon","coordinates":[[[136.19707,35.79358],[136.19726,35.79358],[136.19737,35.79348],[136.19737,35.79347],[136.19735,35.79322],[136.19733,35.79319],[136.19706,35.7935],[136.19707,35.79358]]]}},{"type":"Feature","properties":{"pid":"2bebf779-d04e-47a8-891f-ea379f98769c","full":16.3},"geometry":{"type":"Polygon","coordinates":[[[136.1961,35.79342],[136.19649,35.79377],[136.19696,35.79347],[136.19693,35.7933],[136.19684,35.79329],[136.1967,35.79332],[136.19654,35.79331],[136.19646,35.79329],[136.19636,35.79321],[136.1961,35.79342]]]}},{"type":"Feature","properties":{"pid":"5d4eb134-7e8a-4c1e-8213-0e121b6a1f47","full":4.8},"geometry":{"type":"Polygon","coordinates":[[[136.196,35.79345],[136.19607,35.79341],[136.19611,35.79341],[136.19632,35.79323],[136.19635,35.7932],[136.1961,35.79305],[136.19581,35.79339],[136.196,35.79345]]]}},{"type":"Feature","properties":{"pid":"8f38aeac-dbdb-46b2-8b3b-90f2a69c0ff7","full":1.0},"geometry":{"type":"Polygon","coordinates":[[[136.19572,35.79337],[136.1958,35.79339],[136.1961,35.79303],[136.19608,35.793],[136.19591,35.79303],[136.19587,35.79307],[136.19581,35.79314],[136.19572,35.79337]]]}},{"type":"Feature","properties":{"pid":"cbc79c57-067f-40c8-97f9-48eaeff1cd9f","full":2.6},"geometry":{"type":"Polygon","coordinates":[[[136.19586,35.79378],[136.19601,35.79346],[136.1958,35.79339],[136.19569,35.79359],[136.19572,35.79368],[136.19586,35.79378]]]}},{"type":"Feature","properties":{"pid":"9a988b01-41e4-4813-9b2e-1be53e4aca8d","full":6.5},"geometry":{"type":"Polygon","coordinates":[[[136.19636,35.79384],[136.19638,35.79384],[136.19648,35.79378],[136.19608,35.79342],[136.19606,35.79343],[136.19601,35.79347],[136.19587,35.79378],[136.1959,35.79379],[136.19606,35.7938],[136.19609,35.7938],[136.19625,35.79381],[136.19636,35.79384]]]}},{"type":"Feature","properties":{"pid":"630eec8b-6a7b-4de3-bf20-fceaa333d059","full":7.6},"geometry":{"type":"Polygon","coordinates":[[[136.19548,35.79425],[136.19571,35.79429],[136.19583,35.79378],[136.19564,35.79364],[136.19559,35.79368],[136.19553,35.79387],[136.19548,35.79425]]]}},{"type":"Feature","properties":{"pid":"ed045e47-4f6f-4d23-b9b9-cf66cb733c3d","full":11.4},"geometry":{"type":"Polygon","coordinates":[[[136.19573,35.79484],[136.19577,35.79486],[136.19601,35.79494],[136.19604,35.79493],[136.19611,35.7948],[136.19626,35.79486],[136.19629,35.79485],[136.19647,35.79454],[136.19602,35.79442],[136.19598,35.79453],[136.19579,35.7948],[136.19573,35.79484]]]}},{"type":"Feature","properties":{"pid":"8264e4bf-fa23-464c-a520-eedc7c44540d","full":13.8},"geometry":{"type":"Polygon","coordinates":[[[136.19706,35.79512],[136.19736,35.79497],[136.19696,35.79443],[136.19667,35.79457],[136.19676,35.79473],[136.19703,35.79511],[136.19706,35.79512]]]}},{"type":"Feature","properties":{"pid":"fe5b2d52-7b66-40aa-8b28-e3e8f775d282","full":4.1},"geometry":{"type":"Polygon","coordinates":[[[136.19737,35.79496],[136.19753,35.79489],[136.19712,35.79434],[136.19697,35.79443],[136.19737,35.79496]]]}},{"type":"Feature","properties":{"pid":"e3e49ebc-cf0c-40f8-89f1-01cddf5ddcf4","full":2.6},"geometry":{"type":"Polygon","coordinates":[[[136.19672,35.79444],[136.19724,35.7942],[136.19717,35.79411],[136.19701,35.79403],[136.19669,35.79442],[136.19672,35.79444]]]}},{"type":"Feature","properties":{"pid":"093fd59f-c1d7-4326-b3a9-d8638885226f","full":22.3},"geometry":{"type":"Polygon","coordinates":[[[136.19742,35.79559],[136.19744,35.79561],[136.19797,35.79535],[136.19798,35.79534],[136.19766,35.79492],[136.19712,35.79518],[136.19712,35.79519],[136.1974,35.79559],[136.19742,35.79559]]]}},{"type":"Feature","properties":{"pid":"c1b4be01-59e0-42a9-b68a-33fd16cdb243","full":9.4},"geometry":{"type":"Polygon","coordinates":[[[136.19762,35.79586],[136.19817,35.79559],[136.19801,35.79537],[136.19798,35.79538],[136.19745,35.79563],[136.19745,35.79565],[136.1976,35.79585],[136.19762,35.79586]]]}},{"type":"Feature","properties":{"pid":"78bd7287-741f-4fff-a8e4-12f1aed0d877","full":25.8},"geometry":{"type":"Polygon","coordinates":[[[136.1967,35.79596],[136.19736,35.79563],[136.19706,35.79523],[136.19703,35.79523],[136.1964,35.79555],[136.1967,35.79596]]]}},{"type":"Feature","properties":{"pid":"04c6598e-6356-48a7-9894-3650caffda4a","full":5.2},"geometry":{"type":"Polygon","coordinates":[[[136.19679,35.79525],[136.19683,35.79523],[136.19698,35.79515],[136.197,35.79514],[136.19671,35.79475],[136.19663,35.79466],[136.19657,35.79478],[136.19658,35.79487],[136.19656,35.79496],[136.19679,35.79525]]]}},{"type":"Feature","properties":{"pid":"16b647e6-b282-4a60-87f5-57709e853275","full":5.6},"geometry":{"type":"Polygon","coordinates":[[[136.19626,35.79536],[136.19634,35.79544],[136.19639,35.79545],[136.19678,35.79525],[136.19657,35.79498],[136.19655,35.79498],[136.19652,35.79506],[136.19631,35.79525],[136.19626,35.79536]]]}},{"type":"Feature","properties":{"pid":"0f51f816-652b-4914-ac32-849005e3b7ef","full":18.7},"geometry":{"type":"Polygon","coordinates":[[[136.19596,35.79553],[136.19616,35.79508],[136.19614,35.79507],[136.19563,35.79497],[136.19553,35.79494],[136.19541,35.79532],[136.19546,35.79532],[136.19557,35.79537],[136.1956,35.79542],[136.19561,35.7955],[136.19596,35.79553]]]}},{"type":"Feature","properties":{"pid":"b4d474fd-79d1-4a7b-9e97-0ebb1adaee61","full":21.9},"geometry":{"type":"Polygon","coordinates":[[[136.19587,35.79634],[136.19662,35.79598],[136.19662,35.79595],[136.19636,35.79561],[136.19631,35.79561],[136.19629,35.79559],[136.19601,35.79573],[136.19579,35.79622],[136.19579,35.79624],[136.19585,35.79633],[136.19587,35.79634]]]}},{"type":"Feature","properties":{"pid":"f7aadc54-eac1-4b9e-ba08-a36c5224b302","full":3.4},"geometry":{"type":"Polygon","coordinates":[[[136.1955,35.79625],[136.19563,35.79623],[136.1958,35.79587],[136.19568,35.7958],[136.19561,35.7959],[136.19548,35.79592],[136.19547,35.79596],[136.19546,35.79597],[136.19547,35.79619],[136.1955,35.79625]]]}},{"type":"Feature","properties":{"pid":"7fece464-c7b2-4c9f-8b22-e48674b916cc","full":2.4},"geometry":{"type":"Polygon","coordinates":[[[136.1955,35.79625],[136.19546,35.79619],[136.19545,35.79597],[136.19542,35.79597],[136.19542,35.79594],[136.19523,35.79597],[136.19525,35.79612],[136.19528,35.79621],[136.1953,35.79627],[136.19533,35.79632],[136.19547,35.79631],[136.1955,35.79625]]]}},{"type":"Feature","properties":{"pid":"e8a889d2-ad30-4aeb-9b5a-a5f47ab2cd4f","full":12.8},"geometry":{"type":"Polygon","coordinates":[[[136.19585,35.79662],[136.19586,35.79661],[136.19588,35.79662],[136.19677,35.79618],[136.19663,35.79599],[136.1957,35.79645],[136.19568,35.79651],[136.19585,35.79662]]]}},{"type":"Feature","properties":{"pid":"0ad867fe-d572-4d2c-9227-155def81ec9a","full":12.5},"geometry":{"type":"Polygon","coordinates":[[[136.19609,35.79677],[136.19612,35.79675],[136.19613,35.79677],[136.19692,35.79639],[136.19693,35.79638],[136.19679,35.79619],[136.19677,35.79619],[136.19588,35.79663],[136.19589,35.79664],[136.19609,35.79677]]]}},{"type":"Feature","properties":{"pid":"59d07cbb-0da7-437e-a85e-99194fb15175","full":9.9},"geometry":{"type":"Polygon","coordinates":[[[136.19686,35.79618],[136.19751,35.79586],[136.19751,35.79584],[136.19736,35.79564],[136.1967,35.79598],[136.19686,35.79618]]]}},{"type":"Feature","properties":{"pid":"f6450b59-5321-4b78-bee8-43b1959091fd","full":3.4},"geometry":{"type":"Polygon","coordinates":[[[136.19695,35.79629],[136.19696,35.7963],[136.19761,35.79598],[136.19761,35.79596],[136.19754,35.79587],[136.1975,35.79589],[136.19749,35.79587],[136.19686,35.79618],[136.19695,35.79629]]]}},{"type":"Feature","properties":{"pid":"4992cfa4-f640-40aa-a87e-a8371d2c4fd8","full":5.3},"geometry":{"type":"Polygon","coordinates":[[[136.19707,35.79645],[136.19771,35.79613],[136.19771,35.79612],[136.19771,35.79611],[136.19762,35.79598],[136.19696,35.79631],[136.19707,35.79645]]]}},{"type":"Feature","properties":{"pid":"a3250085-5a66-4d69-a6f2-ee935ddeaf23","full":4.8},"geometry":{"type":"Polygon","coordinates":[[[136.19717,35.79659],[136.19782,35.79628],[136.19774,35.79615],[136.19772,35.79614],[136.19707,35.79645],[136.19717,35.79659]]]}},{"type":"Feature","properties":{"pid":"19641594-fd92-4f1c-b27e-f62207a35b06","full":10.5},"geometry":{"type":"Polygon","coordinates":[[[136.1974,35.7969],[136.19791,35.79643],[136.19789,35.79642],[136.19792,35.79639],[136.19783,35.79628],[136.19718,35.7966],[136.1974,35.7969]]]}},{"type":"Feature","properties":{"pid":"062240ce-cacc-4ff8-a9da-7b913b4471a2","full":9.0},"geometry":{"type":"Polygon","coordinates":[[[136.19777,35.79609],[136.19833,35.79582],[136.19818,35.79561],[136.19816,35.7956],[136.19763,35.79587],[136.19762,35.79588],[136.19777,35.79609]]]}},{"type":"Feature","properties":{"pid":"f0f7f9fc-4980-4d9b-9fda-205661c17e01","full":18.3},"geometry":{"type":"Polygon","coordinates":[[[136.19826,35.79563],[136.19828,35.79564],[136.19894,35.79532],[136.19895,35.7953],[136.19898,35.79528],[136.19875,35.79501],[136.19806,35.79534],[136.19806,35.79537],[136.19826,35.79563]]]}},{"type":"Feature","properties":{"pid":"46bc561a-73e3-4604-9a27-5f12f51735d3","full":9.7},"geometry":{"type":"Polygon","coordinates":[[[136.19805,35.79534],[136.19874,35.795],[136.19874,35.79499],[136.1986,35.79481],[136.1979,35.79515],[136.19805,35.79534]]]}},{"type":"Feature","properties":{"pid":"ab676747-76c7-40ee-a3cf-252780472928","full":4.3},"geometry":{"type":"Polygon","coordinates":[[[136.19908,35.79543],[136.199,35.79532],[136.19898,35.79532],[136.19897,35.79532],[136.19829,35.79564],[136.19829,35.79565],[136.19838,35.79577],[136.19908,35.79543]]]}},{"type":"Feature","properties":{"pid":"8e1f6a72-2f7f-40ec-b6d8-07fe56919569","full":9.7},"geometry":{"type":"Polygon","coordinates":[[[136.19854,35.796],[136.19857,35.79599],[136.19917,35.79561],[136.19919,35.7956],[136.19909,35.79543],[136.19838,35.79578],[136.19854,35.796]]]}},{"type":"Feature","properties":{"pid":"3f48f200-a0a3-45a5-b06b-2829b58bca50","full":24.2},"geometry":{"type":"Polygon","coordinates":[[[136.19926,35.79555],[136.19987,35.79512],[136.19987,35.79511],[136.19964,35.7948],[136.19896,35.79513],[136.19898,35.79515],[136.19895,35.79516],[136.19914,35.79542],[136.19926,35.79555]]]}},{"type":"Feature","properties":{"pid":"b1929bbf-529f-4d07-80ec-eb5ce0a47534","full":5.5},"geometry":{"type":"Polygon","coordinates":[[[136.19895,35.79512],[136.19963,35.79479],[136.19955,35.79466],[136.19952,35.79465],[136.19885,35.79497],[136.19883,35.79499],[136.19891,35.7951],[136.19895,35.79512]]]}},{"type":"Feature","properties":{"pid":"4183c594-b400-44fc-acb8-67f886996891","full":8.6},"geometry":{"type":"Polygon","coordinates":[[[136.1971,35.80005],[136.19712,35.80007],[136.19735,35.80002],[136.19764,35.79994],[136.19764,35.79971],[136.19717,35.79968],[136.1971,35.80005]]]}},{"type":"Feature","properties":{"pid":"e2ee3136-769c-415c-9351-a8153f0164c9","full":6.7},"geometry":{"type":"Polygon","coordinates":[[[136.19521,35.79992],[136.19573,35.80007],[136.19575,35.79992],[136.19577,35.79982],[136.19533,35.79968],[136.19521,35.79992]]]}},{"type":"Feature","properties":{"pid":"8f68fcec-34e9-460e-81e2-725ba14dc1b7","full":8.2},"geometry":{"type":"Polygon","coordinates":[[[136.19534,35.79966],[136.19577,35.79979],[136.19585,35.79944],[136.19549,35.79934],[136.19534,35.79964],[136.19534,35.79966]]]}},{"type":"Feature","properties":{"pid":"2c26762b-d513-4ec6-b5a8-669e48799679","full":1.1},"geometry":{"type":"Polygon","coordinates":[[[136.19558,35.79912],[136.19591,35.79922],[136.19595,35.79908],[136.19564,35.79899],[136.19558,35.79912]]]}},{"type":"Feature","properties":{"pid":"87b868b2-b92a-4975-aecb-37008356b985","full":3.4},"geometry":{"type":"Polygon","coordinates":[[[136.19549,35.79933],[136.19585,35.79944],[136.19591,35.79922],[136.19558,35.79912],[136.19549,35.79933]]]}},{"type":"Feature","properties":{"pid":"ed0c2dbd-d4dc-4995-8c93-09237bf21727","full":6.0},"geometry":{"type":"Polygon","coordinates":[[[136.19564,35.79898],[136.19595,35.79907],[136.19606,35.7987],[136.19582,35.7986],[136.1958,35.7986],[136.19564,35.79896],[136.19564,35.79898]]]}},{"type":"Feature","properties":{"pid":"c4adba40-b134-40b6-a3c9-afea7bd3a433","full":1.0},"geometry":{"type":"Polygon","coordinates":[[[136.19582,35.79826],[136.19603,35.79838],[136.19609,35.79825],[136.19579,35.79804],[136.19578,35.79807],[136.1958,35.79812],[136.19583,35.79822],[136.19582,35.79826]]]}},{"type":"Feature","properties":{"pid":"dd049d41-30c3-4f39-a14e-aad8cc965865","full":2.8},"geometry":{"type":"Polygon","coordinates":[[[136.19595,35.79776],[136.19595,35.79778],[136.19626,35.798],[136.19639,35.79784],[136.19609,35.79763],[136.19601,35.7977],[136.19595,35.79776]]]}},{"type":"Feature","properties":{"pid":"b9e391d6-fbe2-4fd5-957d-20fbccbfbfc4","full":1.6},"geometry":{"type":"Polygon","coordinates":[[[136.19652,35.79769],[136.19658,35.7977],[136.19663,35.7976],[136.19662,35.79753],[136.19642,35.79737],[136.19631,35.79745],[136.19631,35.79747],[136.19642,35.79759],[136.19652,35.79769]]]}},{"type":"Feature","properties":{"pid":"777c2f50-9c59-45bc-a90c-1904d9038c9e","full":5.6},"geometry":{"type":"Polygon","coordinates":[[[136.19579,35.79803],[136.1961,35.79824],[136.19626,35.79801],[136.19594,35.79778],[136.19586,35.79788],[136.19579,35.79803]]]}},{"type":"Feature","properties":{"pid":"b033e74f-1997-4cb2-a84f-af849cb05263","full":10.7},"geometry":{"type":"Polygon","coordinates":[[[136.19704,35.797],[136.19729,35.79687],[136.19711,35.79661],[136.19709,35.7966],[136.19641,35.79694],[136.19666,35.79707],[136.19675,35.79705],[136.1968,35.79704],[136.19696,35.79694],[136.19697,35.79694],[136.19704,35.797]]]}},{"type":"Feature","properties":{"pid":"6935c958-5bbe-4930-844b-7166a294f3d5","full":11.1},"geometry":{"type":"Polygon","coordinates":[[[136.19637,35.79693],[136.19641,35.79693],[136.19709,35.79659],[136.19695,35.7964],[136.19694,35.79639],[136.19615,35.79678],[136.19614,35.79679],[136.19637,35.79693]]]}},{"type":"Feature","properties":{"pid":"f0931bc3-5975-4c56-9451-58baadfc5d99","full":1.4},"geometry":{"type":"Polygon","coordinates":[[[136.19537,35.7966],[136.19524,35.79651],[136.19505,35.79669],[136.19519,35.79682],[136.1952,35.79681],[136.19536,35.79663],[136.19537,35.7966]]]}},{"type":"Feature","properties":{"pid":"03c8fd15-c17b-4311-a85e-6b59265fb8c6","full":3.6},"geometry":{"type":"Polygon","coordinates":[[[136.19465,35.79679],[136.19481,35.79685],[136.19507,35.7969],[136.19512,35.7969],[136.19525,35.79689],[136.19504,35.79669],[136.19484,35.7966],[136.19465,35.79679]]]}},{"type":"Feature","properties":{"pid":"6f550d03-5178-4440-bffb-dd85496f5c14","full":9.8},"geometry":{"type":"Polygon","coordinates":[[[136.19502,35.7975],[136.19502,35.79746],[136.19504,35.79694],[136.19503,35.79692],[136.19489,35.7969],[136.19487,35.79696],[136.19485,35.79699],[136.19476,35.79703],[136.19463,35.79715],[136.19462,35.79716],[136.19473,35.79744],[136.19502,35.7975]]]}},{"type":"Feature","properties":{"pid":"5189ea59-6e6d-4404-acda-9a817ee8417b","full":6.1},"geometry":{"type":"Polygon","coordinates":[[[136.19434,35.79755],[136.19446,35.7975],[136.19467,35.79747],[136.19472,35.79744],[136.19464,35.79724],[136.1946,35.79723],[136.19446,35.79726],[136.19444,35.79725],[136.19442,35.79721],[136.19438,35.7972],[136.1942,35.79719],[136.19418,35.79722],[136.19421,35.79735],[136.19434,35.79755]]]}},{"type":"Feature","properties":{"pid":"45de1ce7-da35-4443-86c1-3107642a8b35","full":0.8},"geometry":{"type":"Polygon","coordinates":[[[136.19316,35.79681],[136.193,35.79681],[136.19291,35.797],[136.19309,35.79702],[136.19311,35.79702],[136.19316,35.79681]]]}},{"type":"Feature","properties":{"pid":"2726e7ca-15ff-4de3-8e69-24a32db88a87","full":1.3},"geometry":{"type":"Polygon","coordinates":[[[136.19435,35.79755],[136.1944,35.79764],[136.19441,35.79768],[136.19441,35.79776],[136.19457,35.79771],[136.19461,35.79767],[136.19459,35.79749],[136.1945,35.7975],[136.19435,35.79755]]]}},{"type":"Feature","properties":{"pid":"47edb114-3d5a-4b10-a519-433c75292217","full":13.2},"geometry":{"type":"Polygon","coordinates":[[[136.19266,35.79973],[136.19333,35.79995],[136.19352,35.79968],[136.19286,35.79948],[136.19284,35.79949],[136.19278,35.79948],[136.19266,35.79973]]]}},{"type":"Feature","properties":{"pid":"197afef5-9700-4275-a4f8-32f118e2a026","full":11.4},"geometry":{"type":"Polygon","coordinates":[[[136.19278,35.79945],[136.19353,35.79968],[136.19358,35.79961],[136.19362,35.79959],[136.19371,35.79949],[136.1937,35.79948],[136.1929,35.79921],[136.19278,35.79945]]]}},{"type":"Feature","properties":{"pid":"e8151aee-70c1-475a-addf-03507110be4e","full":0.6},"geometry":{"type":"Polygon","coordinates":[[[136.19279,35.79887],[136.1928,35.79888],[136.19297,35.79891],[136.19304,35.79878],[136.19304,35.79874],[136.1928,35.79876],[136.19279,35.79887]]]}},{"type":"Feature","properties":{"pid":"fb9108a1-95ef-4a13-af99-326dd4574821","full":3.0},"geometry":{"type":"Polygon","coordinates":[[[136.19259,35.79871],[136.19274,35.79869],[136.19277,35.79867],[136.19273,35.79854],[136.19276,35.79852],[136.19285,35.79852],[136.19285,35.79834],[136.19253,35.79833],[136.19259,35.79871]]]}},{"type":"Feature","properties":{"pid":"748d0d89-8eab-402c-823b-049fb2572dde","full":6.8},"geometry":{"type":"Polygon","coordinates":[[[136.19241,35.79873],[136.19259,35.79871],[136.19252,35.79833],[136.19246,35.79832],[136.19241,35.79827],[136.19237,35.79825],[136.19221,35.79825],[136.19225,35.79865],[136.19236,35.79868],[136.19239,35.7987],[136.19241,35.79873]]]}},{"type":"Feature","properties":{"pid":"b1aaef8e-765a-4841-862f-90b7a122fe4a","full":6.4},"geometry":{"type":"Polygon","coordinates":[[[136.19219,35.79866],[136.19213,35.79842],[136.19214,35.79819],[136.1918,35.79822],[136.19176,35.79841],[136.19178,35.79842],[136.19187,35.79842],[136.19196,35.79867],[136.19219,35.79866]]]}},{"type":"Feature","properties":{"pid":"7723d9ce-3c83-44c6-aa28-02f5aa84b8b8","full":1.6},"geometry":{"type":"Polygon","coordinates":[[[136.19176,35.79843],[136.19163,35.79843],[136.19161,35.79875],[136.1919,35.7987],[136.19179,35.79854],[136.19176,35.79848],[136.19176,35.79843]]]}},{"type":"Feature","properties":{"pid":"4afe5132-c641-499b-afbf-a17946ba4086","full":4.4},"geometry":{"type":"Polygon","coordinates":[[[136.19176,35.79933],[136.19184,35.79933],[136.19204,35.79929],[136.19207,35.79919],[136.1921,35.79905],[136.19209,35.79902],[136.19209,35.79887],[136.19208,35.79886],[136.19196,35.79889],[136.19195,35.79898],[136.19195,35.79902],[136.19194,35.79903],[136.19181,35.79904],[136.19176,35.79918],[136.19176,35.79933]]]}},{"type":"Feature","properties":{"pid":"7fcb68a8-5274-4fbe-8490-0e98a404a315","full":0.8},"geometry":{"type":"Polygon","coordinates":[[[136.19216,35.79924],[136.19235,35.7993],[136.19245,35.79907],[136.19244,35.79905],[136.19234,35.79903],[136.19232,35.79904],[136.1923,35.7991],[136.19228,35.79911],[136.19223,35.79911],[136.19216,35.79924]]]}},{"type":"Feature","properties":{"pid":"c11a852c-9e0a-4613-91db-c2e0dcdce16e","full":0.9},"geometry":{"type":"Polygon","coordinates":[[[136.19232,35.79899],[136.19249,35.79904],[136.19253,35.79879],[136.19234,35.79881],[136.19232,35.79899]]]}},{"type":"Feature","properties":{"pid":"b2c2cb54-ad03-4a1c-ae8a-58cb9a1d7a32","full":2.7},"geometry":{"type":"Polygon","coordinates":[[[136.19249,35.79904],[136.19268,35.79911],[136.19278,35.79885],[136.19279,35.79876],[136.19254,35.79879],[136.19249,35.79904]]]}},{"type":"Feature","properties":{"pid":"ea64ab4f-591a-4e6d-aeed-51404b1b5901","full":3.1},"geometry":{"type":"Polygon","coordinates":[[[136.19203,35.7995],[136.19229,35.79958],[136.19242,35.79933],[136.19218,35.79926],[136.19215,35.79926],[136.19215,35.79929],[136.19215,35.79934],[136.19211,35.79936],[136.19205,35.79937],[136.19203,35.79939],[136.19203,35.7995]]]}},{"type":"Feature","properties":{"pid":"bac47636-dbd8-4d21-b143-ddf8de7d5c15","full":14.4},"geometry":{"type":"Polygon","coordinates":[[[136.19182,35.79989],[136.19242,35.79996],[136.19244,35.79994],[136.19246,35.79994],[136.19259,35.79968],[136.19203,35.79951],[136.19198,35.79957],[136.19195,35.7996],[136.19191,35.79967],[136.19181,35.79979],[136.1918,35.79983],[136.19182,35.79989]]]}},{"type":"Feature","properties":{"pid":"76b44c06-0d62-4feb-8436-fbc144dd76d1","full":1.0},"geometry":{"type":"Polygon","coordinates":[[[136.19182,35.79802],[136.19167,35.79801],[136.19163,35.79842],[136.19175,35.79842],[136.1918,35.79821],[136.19182,35.79802]]]}},{"type":"Feature","properties":{"pid":"11324c9e-e99d-40c9-89bd-7c936bae81c6","full":1.5},"geometry":{"type":"Polygon","coordinates":[[[136.19214,35.79806],[136.19183,35.79802],[136.1918,35.79822],[136.19214,35.79819],[136.19214,35.79806]]]}},{"type":"Feature","properties":{"pid":"2767e60e-1f2f-48ee-b778-71eba3f67852","full":0.8},"geometry":{"type":"Polygon","coordinates":[[[136.19238,35.79825],[136.19241,35.79825],[136.19247,35.79831],[136.19264,35.79832],[136.19265,35.79816],[136.19241,35.79817],[136.19238,35.79825]]]}},{"type":"Feature","properties":{"pid":"4cd784a9-5163-4181-aca3-b6ffa2e92b9a","full":0.5},"geometry":{"type":"Polygon","coordinates":[[[136.19241,35.79782],[136.19243,35.7978],[136.19251,35.7978],[136.19253,35.79769],[136.19227,35.79769],[136.19225,35.7977],[136.19224,35.79782],[136.19241,35.79782]]]}},{"type":"Feature","properties":{"pid":"5f46e6d0-9ff4-4981-8649-067966630b47","full":3.4},"geometry":{"type":"Polygon","coordinates":[[[136.19213,35.79764],[136.19216,35.79745],[136.19192,35.79744],[136.19182,35.79741],[136.19179,35.79741],[136.19177,35.79747],[136.19174,35.7975],[136.19173,35.79762],[136.19199,35.79765],[136.19213,35.79764]]]}},{"type":"Feature","properties":{"pid":"ca02df97-ec33-454c-9f5b-286cb1a3ab96","full":0.6},"geometry":{"type":"Polygon","coordinates":[[[136.19171,35.79781],[136.19191,35.79782],[136.19192,35.79766],[136.19173,35.79765],[136.19171,35.79781]]]}},{"type":"Feature","properties":{"pid":"7d5c6702-0619-446f-ab71-9f39b7007c85","full":0.6},"geometry":{"type":"Polygon","coordinates":[[[136.19241,35.79759],[136.19248,35.79757],[136.19268,35.79756],[136.19269,35.79743],[136.19247,35.79742],[136.19247,35.79747],[136.19241,35.79747],[136.19241,35.79759]]]}},{"type":"Feature","properties":{"pid":"692de1d1-7cf4-474b-8461-7e6386893aa6","full":2.1},"geometry":{"type":"Polygon","coordinates":[[[136.19261,35.79682],[136.19243,35.79679],[136.19241,35.79684],[136.1924,35.797],[136.19265,35.79701],[136.19268,35.79696],[136.19272,35.79695],[136.19274,35.79693],[136.19276,35.79682],[136.19261,35.79682]]]}},{"type":"Feature","properties":{"pid":"f99b14a2-8140-4c31-8602-dca8784312a5","full":0.8},"geometry":{"type":"Polygon","coordinates":[[[136.19192,35.79677],[136.19204,35.79677],[136.19207,35.79678],[136.19219,35.79678],[136.19225,35.79668],[136.19198,35.79661],[136.19192,35.79677]]]}},{"type":"Feature","properties":{"pid":"71be01c1-f342-4f77-a179-a627d9b4b932","full":1.3},"geometry":{"type":"Polygon","coordinates":[[[136.19119,35.7957],[136.19133,35.79553],[136.19098,35.79553],[136.19093,35.79568],[136.19095,35.79571],[136.19108,35.79569],[136.19119,35.7957]]]}},{"type":"Feature","properties":{"pid":"2d02ed7b-b9b8-4614-af4c-63cb2811be53","full":0.6},"geometry":{"type":"Polygon","coordinates":[[[136.19222,35.79506],[136.19232,35.79509],[136.19243,35.79474],[136.19229,35.7947],[136.19228,35.79471],[136.19222,35.79506]]]}},{"type":"Feature","properties":{"pid":"8e601cdb-1ae1-491e-813f-2ee5ab6f8ae5","full":1.1},"geometry":{"type":"Polygon","coordinates":[[[136.19234,35.79565],[136.19249,35.79569],[136.19255,35.79546],[136.19254,35.79542],[136.1924,35.79539],[136.19233,35.79564],[136.19234,35.79565]]]}},{"type":"Feature","properties":{"pid":"7389fdf9-b345-412c-b331-a12aa1abd7ba","full":2.0},"geometry":{"type":"Polygon","coordinates":[[[136.19251,35.79569],[136.1927,35.79577],[136.19279,35.79549],[136.19258,35.79546],[136.19256,35.79548],[136.19251,35.79565],[136.19251,35.79569]]]}},{"type":"Feature","properties":{"pid":"b9c55427-cc8f-4e6e-95a6-7b02bb1419bf","full":0.7},"geometry":{"type":"Polygon","coordinates":[[[136.19285,35.796],[136.19304,35.79601],[136.19305,35.79596],[136.19304,35.79589],[136.19301,35.79584],[136.19298,35.79583],[136.19279,35.79577],[136.19278,35.79584],[136.19284,35.79584],[136.19286,35.79587],[136.19285,35.796]]]}},{"type":"Feature","properties":{"pid":"731ef844-5cd4-4776-aeaf-f1f7419ba0be","full":7.9},"geometry":{"type":"Polygon","coordinates":[[[136.19335,35.7957],[136.19284,35.79563],[136.19283,35.79564],[136.19279,35.79576],[136.19281,35.79577],[136.19301,35.79583],[136.19305,35.79589],[136.19307,35.79596],[136.19302,35.79615],[136.19323,35.79617],[136.19327,35.79615],[136.19335,35.7957]]]}},{"type":"Feature","properties":{"pid":"fe9b52f2-fd70-45ef-a8c5-5e336cf64a89","full":1.0},"geometry":{"type":"Polygon","coordinates":[[[136.1935,35.79592],[136.19355,35.79569],[136.19337,35.79567],[136.19332,35.7959],[136.19347,35.79593],[136.1935,35.79592]]]}},{"type":"Feature","properties":{"pid":"d7d3d0f6-a513-49d9-981a-17d534347a76","full":0.5},"geometry":{"type":"Polygon","coordinates":[[[136.19352,35.79586],[136.19372,35.79588],[136.19376,35.79575],[136.19355,35.79571],[136.19352,35.79586]]]}},{"type":"Feature","properties":{"pid":"0c4733dc-5868-4d7a-9aa9-a8da8231a806","full":1.3},"geometry":{"type":"Polygon","coordinates":[[[136.19511,35.79643],[136.19507,35.79642],[136.19494,35.79642],[136.19495,35.79648],[136.19499,35.79664],[136.19505,35.79669],[136.19524,35.79651],[136.19511,35.79643]]]}},{"type":"Feature","properties":{"pid":"22221703-0d7c-4163-9417-132a5d5826cd","full":2.9},"geometry":{"type":"Polygon","coordinates":[[[136.19541,35.79532],[136.19553,35.79494],[136.1955,35.79492],[136.19527,35.79501],[136.19519,35.79505],[136.19513,35.7951],[136.19529,35.79523],[136.19529,35.79529],[136.19541,35.79532]]]}},{"type":"Feature","properties":{"pid":"b60a02ce-0fca-44a8-86c6-6346f83fa9d2","full":3.9},"geometry":{"type":"Polygon","coordinates":[[[136.19369,35.79512],[136.19374,35.79501],[136.19375,35.79494],[136.19378,35.79486],[136.19379,35.79482],[136.19372,35.7948],[136.19367,35.7948],[136.19355,35.79478],[136.19352,35.79485],[136.19347,35.79488],[136.19345,35.79491],[136.19344,35.79499],[136.19346,35.79511],[136.19357,35.79511],[136.19369,35.79512]]]}},{"type":"Feature","properties":{"pid":"90db5179-6bb3-4cef-9c30-6f33a050948f","full":1.0},"geometry":{"type":"Polygon","coordinates":[[[136.19327,35.79501],[136.19343,35.795],[136.19344,35.7949],[136.19346,35.79488],[136.19352,35.79484],[136.19354,35.79478],[136.19333,35.79476],[136.1933,35.79485],[136.19328,35.79488],[136.19325,35.79489],[136.19327,35.79501]]]}},{"type":"Feature","properties":{"pid":"7e5500fc-f89d-48bb-99a1-7ce4a14bc1b1","full":1.8},"geometry":{"type":"Polygon","coordinates":[[[136.19283,35.7952],[136.19308,35.79513],[136.19306,35.79501],[136.1931,35.79499],[136.19308,35.7949],[136.19285,35.79497],[136.1928,35.79497],[136.1928,35.79506],[136.19282,35.79517],[136.19283,35.7952]]]}},{"type":"Feature","properties":{"pid":"4b22f198-ebf2-48d4-baf0-329a10dc5024","full":2.6},"geometry":{"type":"Polygon","coordinates":[[[136.19309,35.79489],[136.19313,35.79467],[136.19288,35.79468],[136.1928,35.79497],[136.19285,35.79497],[136.19305,35.79491],[136.19309,35.79489]]]}},{"type":"Feature","properties":{"pid":"ab5a8b47-94be-439c-ac6d-a2d617ac40c9","full":1.0},"geometry":{"type":"Polygon","coordinates":[[[136.19326,35.79488],[136.19328,35.79488],[136.1933,35.79484],[136.19333,35.79476],[136.19334,35.79468],[136.19314,35.79467],[136.19309,35.79489],[136.19315,35.79488],[136.19326,35.79488]]]}},{"type":"Feature","properties":{"pid":"7de783bc-ea42-4d74-9d66-a195a0754f3e","full":0.6},"geometry":{"type":"Polygon","coordinates":[[[136.19315,35.79451],[136.19333,35.79454],[136.19337,35.79444],[136.19324,35.79435],[136.19322,35.7943],[136.19318,35.79429],[136.19315,35.79442],[136.19315,35.79451]]]}},{"type":"Feature","properties":{"pid":"d7ec3a69-abe6-462b-b441-16eaa23addf3","full":1.4},"geometry":{"type":"Polygon","coordinates":[[[136.19318,35.79429],[136.19311,35.79427],[136.19307,35.79428],[136.19299,35.79445],[136.19298,35.79451],[136.19296,35.79455],[136.19288,35.79464],[136.19287,35.79467],[136.19313,35.79466],[136.19315,35.79465],[136.19314,35.79444],[136.19318,35.79429]]]}},{"type":"Feature","properties":{"pid":"1d13b2d4-c5b7-425e-a4e5-60ae869e1358","full":3.4},"geometry":{"type":"Polygon","coordinates":[[[136.19278,35.79478],[136.1928,35.79476],[136.19289,35.7946],[136.19296,35.79451],[136.19297,35.7945],[136.19297,35.79444],[136.19302,35.79436],[136.19306,35.79429],[136.19304,35.79427],[136.19305,35.79423],[136.1931,35.79413],[136.19307,35.79411],[136.19301,35.79408],[136.19297,35.79404],[136.19294,35.79403],[136.19271,35.79468],[136.19271,35.79472],[136.19278,35.79478]]]}},{"type":"Feature","properties":{"pid":"6b7ed06e-308d-4882-8977-abebd4b50238","full":0.9},"geometry":{"type":"Polygon","coordinates":[[[136.19319,35.79428],[136.19326,35.79422],[136.19334,35.79411],[136.19337,35.79407],[136.1932,35.79401],[136.19306,35.79426],[136.19306,35.79428],[136.19312,35.79427],[136.19319,35.79428]]]}},{"type":"Feature","properties":{"pid":"73bbaec5-fecb-4919-bb47-55e26f7d2410","full":1.6},"geometry":{"type":"Polygon","coordinates":[[[136.1936,35.79429],[136.19327,35.79426],[136.19323,35.79429],[136.19324,35.79429],[136.19325,35.79435],[136.19338,35.79443],[136.1935,35.79449],[136.1936,35.79437],[136.1936,35.79429]]]}},{"type":"Feature","properties":{"pid":"8e25ca69-4e6f-4372-a584-d6d921741566","full":2.2},"geometry":{"type":"Polygon","coordinates":[[[136.19358,35.79428],[136.19358,35.79423],[136.19364,35.79409],[136.19341,35.79403],[136.19339,35.79407],[136.19326,35.79422],[136.19321,35.79427],[136.19322,35.79428],[136.19326,35.79426],[136.19358,35.79428]]]}},{"type":"Feature","properties":{"pid":"4726d6e8-16da-4578-8309-b1875f5fc312","full":2.9},"geometry":{"type":"Polygon","coordinates":[[[136.19361,35.79478],[136.19371,35.79471],[136.19359,35.79458],[136.19357,35.79457],[136.19347,35.79449],[136.19338,35.79445],[136.19336,35.79449],[136.19334,35.79456],[136.19335,35.79471],[136.19334,35.79476],[136.19361,35.79478]]]}},{"type":"Feature","properties":{"pid":"84654a1e-7d18-486e-a645-4a9340e4db02","full":1.2},"geometry":{"type":"Polygon","coordinates":[[[136.19497,35.79347],[136.195,35.79325],[136.19484,35.79324],[136.19483,35.79326],[136.19477,35.7933],[136.19478,35.79347],[136.19497,35.79347]]]}},{"type":"Feature","properties":{"pid":"fa2c165f-a1f6-4073-9e86-89bebcfbbbfa","full":0.9},"geometry":{"type":"Polygon","coordinates":[[[136.19497,35.79345],[136.19518,35.79344],[136.19521,35.79348],[136.19523,35.79344],[136.19519,35.79339],[136.19515,35.7933],[136.19512,35.79323],[136.19513,35.79313],[136.19502,35.79313],[136.19497,35.79345]]]}},{"type":"Feature","properties":{"pid":"15b796c3-5220-4097-93b8-e4f2c0a3855f","full":3.9},"geometry":{"type":"Polygon","coordinates":[[[136.19295,35.79402],[136.19297,35.79404],[136.19301,35.79407],[136.19308,35.7941],[136.19312,35.79413],[136.19337,35.79375],[136.19314,35.79367],[136.19295,35.79402]]]}},{"type":"Feature","properties":{"pid":"c32669a4-5510-4233-864e-7051c347f758","full":11.1},"geometry":{"type":"Polygon","coordinates":[[[136.19242,35.79349],[136.19246,35.7935],[136.19247,35.79353],[136.19282,35.79359],[136.19295,35.79328],[136.19245,35.79307],[136.19242,35.7932],[136.19242,35.79349]]]}},{"type":"Feature","properties":{"pid":"60e5d4be-b8c2-4fd8-9fe8-356896d0967a","full":5.8},"geometry":{"type":"Polygon","coordinates":[[[136.19241,35.79388],[136.19269,35.79394],[136.19281,35.79361],[136.19242,35.79354],[136.19241,35.79388]]]}},{"type":"Feature","properties":{"pid":"6bdcbc38-918f-4e3d-9806-fdfcad485f10","full":3.1},"geometry":{"type":"Polygon","coordinates":[[[136.19238,35.79426],[136.19257,35.79429],[136.19269,35.79397],[136.19241,35.79392],[136.19238,35.79426]]]}},{"type":"Feature","properties":{"pid":"a082f837-448a-45e0-800c-9690710ac317","full":2.0},"geometry":{"type":"Polygon","coordinates":[[[136.19229,35.79469],[136.19243,35.79472],[136.19256,35.79432],[136.19238,35.79428],[136.19229,35.79469]]]}},{"type":"Feature","properties":{"pid":"3045f7e3-cdc7-4602-ae01-761ac179b5f9","full":9.7},"geometry":{"type":"Polygon","coordinates":[[[136.19117,35.79245],[136.19133,35.79251],[136.19144,35.79254],[136.19165,35.79254],[136.19166,35.7925],[136.19156,35.79214],[136.19156,35.79206],[136.19158,35.79204],[136.19161,35.79201],[136.19169,35.79199],[136.1917,35.79197],[136.19169,35.79195],[136.19165,35.7919],[136.19149,35.79187],[136.19117,35.79245]]]}},{"type":"Feature","properties":{"pid":"bdca8c32-7266-4c4f-98d2-5a33e07bf598","full":10.0},"geometry":{"type":"Polygon","coordinates":[[[136.19236,35.79289],[136.19257,35.79298],[136.19278,35.79251],[136.19264,35.79239],[136.19237,35.79229],[136.1923,35.79241],[136.19234,35.79262],[136.1925,35.79273],[136.19245,35.79279],[136.19236,35.79277],[136.19237,35.79284],[136.19236,35.79289]]]}},{"type":"Feature","properties":{"pid":"2cfa0db3-1159-4df5-b0bd-6b38f6d080f9","full":10.0},"geometry":{"type":"Polygon","coordinates":[[[136.19237,35.79215],[136.19244,35.79214],[136.19266,35.79177],[136.19223,35.79159],[136.1922,35.7916],[136.19225,35.79178],[136.19224,35.7918],[136.19212,35.7919],[136.19202,35.79192],[136.19201,35.79194],[136.19227,35.79211],[136.19237,35.79215]]]}},{"type":"Feature","properties":{"pid":"87fcce8c-9689-4d3a-a581-ed294be15f60","full":13.5},"geometry":{"type":"Polygon","coordinates":[[[136.19267,35.79173],[136.1927,35.79172],[136.1929,35.79141],[136.19285,35.7914],[136.19261,35.79139],[136.19249,35.79136],[136.19221,35.79126],[136.19195,35.7911],[136.1919,35.79115],[136.1919,35.7912],[136.19192,35.79124],[136.19212,35.79149],[136.19267,35.79173]]]}},{"type":"Feature","properties":{"pid":"52ecece2-0435-414f-ac9a-6ebcc77214f7","full":7.1},"geometry":{"type":"Polygon","coordinates":[[[136.19095,35.79174],[136.19127,35.79173],[136.19128,35.79171],[136.19074,35.79126],[136.19058,35.79137],[136.1906,35.7914],[136.19057,35.79142],[136.19095,35.79174]]]}},{"type":"Feature","properties":{"pid":"1d169e6e-986b-411f-ab32-4e42a506adeb","full":14.9},"geometry":{"type":"Polygon","coordinates":[[[136.19075,35.7923],[136.19114,35.79245],[136.19148,35.79187],[136.19142,35.79187],[136.19099,35.79189],[136.19075,35.7923]]]}},{"type":"Feature","properties":{"pid":"4c55a5c3-e5af-49f6-b7e0-fdd1b8dd3307","full":2.0},"geometry":{"type":"Polygon","coordinates":[[[136.19016,35.79206],[136.19074,35.79229],[136.19083,35.79213],[136.19066,35.79206],[136.19051,35.79207],[136.19036,35.79205],[136.19019,35.79199],[136.19016,35.79206]]]}},{"type":"Feature","properties":{"pid":"b88ed595-d7c1-4455-a8f6-637bb318d62d","full":2.9},"geometry":{"type":"Polygon","coordinates":[[[136.19008,35.79179],[136.1904,35.79191],[136.19049,35.79192],[136.19061,35.79191],[136.19025,35.7916],[136.19007,35.79174],[136.19009,35.79175],[136.19008,35.79179]]]}},{"type":"Feature","properties":{"pid":"cdcfb85c-d86c-4c86-8aa0-c99f969e6906","full":9.0},"geometry":{"type":"Polygon","coordinates":[[[136.19062,35.79192],[136.19092,35.79176],[136.19054,35.79142],[136.1905,35.79142],[136.19025,35.79159],[136.19062,35.79192]]]}},{"type":"Feature","properties":{"pid":"0459c458-b94b-4d46-8c37-0608d0e63052","full":1.7},"geometry":{"type":"Polygon","coordinates":[[[136.19058,35.79124],[136.19068,35.79116],[136.18993,35.79053],[136.18989,35.79053],[136.18983,35.79059],[136.19058,35.79124]]]}},{"type":"Feature","properties":{"pid":"406c2bc7-d01b-4c00-a510-a567113a1d36","full":2.5},"geometry":{"type":"Polygon","coordinates":[[[136.19079,35.7912],[136.19121,35.79155],[136.19124,35.79153],[136.19117,35.79135],[136.19115,35.79134],[136.19114,35.79133],[136.19102,35.7911],[136.191,35.79106],[136.19097,35.79104],[136.1908,35.79117],[136.19079,35.7912]]]}},{"type":"Feature","properties":{"pid":"f7997f31-7345-47dd-930b-355281e77d01","full":1.0},"geometry":{"type":"Polygon","coordinates":[[[136.19092,35.79096],[136.19098,35.79092],[136.19099,35.79088],[136.19091,35.7908],[136.19081,35.79075],[136.19075,35.79068],[136.19062,35.7905],[136.19055,35.79043],[136.19052,35.79043],[136.19042,35.79053],[136.19092,35.79096]]]}},{"type":"Feature","properties":{"pid":"cff958c3-a664-47e6-bd9a-8646d24ef06e","full":13.1},"geometry":{"type":"Polygon","coordinates":[[[136.19071,35.79114],[136.19089,35.79099],[136.19088,35.79097],[136.19014,35.79035],[136.18995,35.79051],[136.19068,35.79113],[136.19071,35.79114]]]}},{"type":"Feature","properties":{"pid":"dc59babe-61c0-465b-a3a1-3adf50720c08","full":7.9},"geometry":{"type":"Polygon","coordinates":[[[136.19381,35.79204],[136.19433,35.79223],[136.19438,35.79222],[136.19446,35.79217],[136.19459,35.79207],[136.19393,35.79182],[136.19381,35.79204]]]}},{"type":"Feature","properties":{"pid":"f9572ad6-1d6b-48a8-bb40-a9c48f38074b","full":4.8},"geometry":{"type":"Polygon","coordinates":[[[136.1939,35.79177],[136.19465,35.79206],[136.19475,35.79191],[136.19458,35.79184],[136.19457,35.79185],[136.19439,35.79177],[136.19424,35.79178],[136.19421,35.79176],[136.19419,35.79174],[136.19417,35.79166],[136.19402,35.79163],[136.19398,35.79163],[136.1939,35.79177]]]}},{"type":"Feature","properties":{"pid":"fae89e33-968d-4924-8587-e515ae6b2618","full":14.6},"geometry":{"type":"Polygon","coordinates":[[[136.19355,35.7919],[136.19375,35.79155],[136.1936,35.79152],[136.19357,35.79151],[136.19311,35.79143],[136.193,35.79143],[136.19296,35.79146],[136.19288,35.79158],[136.19285,35.79161],[136.19355,35.7919]]]}},{"type":"Feature","properties":{"pid":"edaeaef3-840b-4086-89ef-b62e6be51d06","full":15.0},"geometry":{"type":"Polygon","coordinates":[[[136.19335,35.79224],[136.1935,35.79197],[136.19347,35.79194],[136.19289,35.79168],[136.19286,35.79168],[136.19268,35.79192],[136.19267,35.79196],[136.19335,35.79224]]]}},{"type":"Feature","properties":{"pid":"979c4718-5c84-4075-ac3f-ab311a2a1470","full":2.0},"geometry":{"type":"Polygon","coordinates":[[[136.19329,35.79237],[136.19334,35.79228],[136.19334,35.79226],[136.19265,35.79197],[136.19258,35.79208],[136.19329,35.79237]]]}},{"type":"Feature","properties":{"pid":"5509408a-6251-4a62-aa0b-cb14f1dee822","full":5.6},"geometry":{"type":"Polygon","coordinates":[[[136.19369,35.79229],[136.194,35.7924],[136.19405,35.7924],[136.1943,35.79227],[136.19432,35.79225],[136.19382,35.79206],[136.19369,35.79229]]]}},{"type":"Feature","properties":{"pid":"b8d62ef9-06c2-4609-b74f-0a32f546db1f","full":3.5},"geometry":{"type":"Polygon","coordinates":[[[136.19257,35.79208],[136.19253,35.79217],[136.19256,35.79218],[136.19256,35.7922],[136.19268,35.79225],[136.19288,35.79239],[136.19301,35.79245],[136.19307,35.79247],[136.19322,35.79248],[136.19329,35.79237],[136.19257,35.79208]]]}},{"type":"Feature","properties":{"pid":"5f6f8ef9-efb4-48b7-ad26-01b3be330a69","full":13.7},"geometry":{"type":"Polygon","coordinates":[[[136.19257,35.79303],[136.19285,35.79314],[136.19291,35.79314],[136.19299,35.79316],[136.19318,35.7927],[136.19298,35.79264],[136.19291,35.79259],[136.19288,35.79256],[136.19279,35.79252],[136.19257,35.79303]]]}},{"type":"Feature","properties":{"pid":"8c056b7b-20c1-41c5-aaa5-36ac2abf5e20","full":5.8},"geometry":{"type":"Polygon","coordinates":[[[136.19448,35.79252],[136.19441,35.79275],[136.19499,35.79282],[136.19504,35.79261],[136.19501,35.79257],[136.19488,35.79254],[136.19486,35.7926],[136.19484,35.79261],[136.19461,35.79257],[136.19459,35.79254],[136.19462,35.79246],[136.19454,35.79245],[136.19448,35.79252]]]}},{"type":"Feature","properties":{"pid":"79e19497-4733-4eb9-8599-7e19bdf0c9b9","full":2.8},"geometry":{"type":"Polygon","coordinates":[[[136.19655,35.79286],[136.19636,35.79282],[136.19619,35.79291],[136.19612,35.79299],[136.19627,35.7931],[136.19634,35.79313],[136.19655,35.79286]]]}},{"type":"Feature","properties":{"pid":"f0cd4916-a29a-466a-8934-a2ccb1366d71","full":1.3},"geometry":{"type":"Polygon","coordinates":[[[136.19602,35.79268],[136.19629,35.79284],[136.19645,35.79276],[136.19649,35.79272],[136.19606,35.79258],[136.19602,35.79268]]]}},{"type":"Feature","properties":{"pid":"29ba0204-1930-4a57-97d6-0c6620d30d30","full":5.2},"geometry":{"type":"Polygon","coordinates":[[[136.19598,35.79253],[136.19605,35.79254],[136.19632,35.79263],[136.1964,35.79246],[136.19638,35.79234],[136.19637,35.79224],[136.19614,35.79226],[136.19612,35.79238],[136.196,35.79237],[136.19598,35.79253]]]}},{"type":"Feature","properties":{"pid":"24e41c1d-f9a1-4b88-a07c-d9aa85358a33","full":1.0},"geometry":{"type":"Polygon","coordinates":[[[136.19633,35.79265],[136.1965,35.7927],[136.19658,35.79263],[136.19656,35.79259],[136.19655,35.79251],[136.19654,35.79247],[136.19641,35.79246],[136.19633,35.79265]]]}},{"type":"Feature","properties":{"pid":"4cf2948b-0f31-49b3-a64a-ee6c6ff0504d","full":0.9},"geometry":{"type":"Polygon","coordinates":[[[136.19611,35.79165],[136.19614,35.79166],[136.19637,35.79168],[136.19635,35.79162],[136.19633,35.7915],[136.19613,35.7915],[136.19611,35.79165]]]}},{"type":"Feature","properties":{"pid":"b8db75a7-df00-4762-bbb0-59adf440c41f","full":1.0},"geometry":{"type":"Polygon","coordinates":[[[136.19612,35.79182],[136.19638,35.79187],[136.1964,35.79171],[136.19639,35.79169],[136.19618,35.79167],[136.19613,35.79179],[136.19612,35.79182]]]}},{"type":"Feature","properties":{"pid":"31a00c0e-065f-46d5-b9e0-ea04ae5b1776","full":0.6},"geometry":{"type":"Polygon","coordinates":[[[136.19758,35.79141],[136.19756,35.79138],[136.19731,35.7914],[136.1973,35.79154],[136.19732,35.79156],[136.19734,35.79158],[136.19741,35.79153],[136.19753,35.7915],[136.19758,35.79141]]]}},{"type":"Feature","properties":{"pid":"4ee99e9d-bbd3-4023-9006-85dd2ad84cc6","full":0.5},"geometry":{"type":"Polygon","coordinates":[[[136.19709,35.79229],[136.19735,35.7923],[136.19737,35.79219],[136.19711,35.79216],[136.19709,35.79229]]]}},{"type":"Feature","properties":{"pid":"eaa426c3-bf78-4f82-bea7-508ec1d739db","full":0.9},"geometry":{"type":"Polygon","coordinates":[[[136.19659,35.79259],[136.19665,35.7926],[136.19673,35.79219],[136.19652,35.79222],[136.19659,35.79259]]]}},{"type":"Feature","properties":{"pid":"f6235f70-9772-4e57-9127-08c28d87045e","full":6.8},"geometry":{"type":"Polygon","coordinates":[[[136.19666,35.79258],[136.19671,35.79259],[136.19681,35.79264],[136.19686,35.79265],[136.19695,35.79264],[136.19703,35.79218],[136.19702,35.79214],[136.19683,35.79216],[136.19674,35.7922],[136.19666,35.79258]]]}},{"type":"Feature","properties":{"pid":"8dfb4dbe-faba-4f39-8f77-218a7d2c8195","full":4.3},"geometry":{"type":"Polygon","coordinates":[[[136.19704,35.79261],[136.19706,35.79264],[136.19729,35.79264],[136.19731,35.79263],[136.1974,35.79231],[136.19709,35.7923],[136.19704,35.79261]]]}},{"type":"Feature","properties":{"pid":"b4d62a02-46ef-4259-be87-d0c7855f92c4","full":3.6},"geometry":{"type":"Polygon","coordinates":[[[136.19698,35.79294],[136.19734,35.79293],[136.19733,35.7927],[136.19711,35.79269],[136.19702,35.7927],[136.19698,35.79294]]]}},{"type":"Feature","properties":{"pid":"99f64263-67fe-4f07-aeab-607dbe42a3d8","full":2.3},"geometry":{"type":"Polygon","coordinates":[[[136.19656,35.79286],[136.19691,35.79293],[136.19694,35.79271],[136.19684,35.79271],[136.19675,35.79267],[136.19671,35.79264],[136.19656,35.79286]]]}},{"type":"Feature","properties":{"pid":"1b970ca1-ba68-4750-85d4-7a61b59f7498","full":1.2},"geometry":{"type":"Polygon","coordinates":[[[136.19893,35.79335],[136.19905,35.79329],[136.1987,35.79281],[136.19859,35.79286],[136.19893,35.79335]]]}},{"type":"Feature","properties":{"pid":"d62c2855-062d-4ee5-93d8-7625c8e12ebb","full":14.5},"geometry":{"type":"Polygon","coordinates":[[[136.19906,35.79329],[136.19942,35.79311],[136.19908,35.79265],[136.19906,35.79265],[136.1987,35.7928],[136.19906,35.79329]]]}},{"type":"Feature","properties":{"pid":"1b353422-2efc-4b8d-8dac-14240244dfee","full":17.9},"geometry":{"type":"Polygon","coordinates":[[[136.19947,35.79308],[136.19949,35.79308],[136.19991,35.79287],[136.19959,35.79243],[136.19956,35.79243],[136.19915,35.79261],[136.19913,35.79263],[136.19947,35.79308]]]}},{"type":"Feature","properties":{"pid":"b9050dfc-2e05-4bd3-927e-fcdbd26b4944","full":1.2},"geometry":{"type":"Polygon","coordinates":[[[136.19755,35.79082],[136.19752,35.79068],[136.19726,35.79067],[136.19722,35.7907],[136.19719,35.79074],[136.19725,35.79076],[136.19729,35.7908],[136.19731,35.79084],[136.19751,35.79083],[136.19755,35.79082]]]}},{"type":"Feature","properties":{"pid":"57c1d7d6-f0f5-4f48-98d7-11c6d554f37d","full":1.0},"geometry":{"type":"Polygon","coordinates":[[[136.19764,35.79097],[136.19762,35.79093],[136.19749,35.79094],[136.19736,35.79095],[136.19728,35.79099],[136.19721,35.791],[136.19752,35.7911],[136.19764,35.79108],[136.19764,35.79097]]]}}],"precision":5}