{"type":"FeatureCollection","features":[{"type":"Feature","properties":{"pid":"7a0b4c3a-abea-4225-b7a1-ed3680047113"},"geometry":{"type":"Polygon","coordinates":[[[136.4959720887072,35.9205893097293],[136.49592770876583,35.920704242236],[136.49612019355564,35.92081010647541],[136.496152921741,35.92078578601239],[136.49618949929533,35.92078387228291],[136.49630044763254,35.920849465764384],[136.49641640460746,35.92087619135478],[136.49643403591236,35.920872601725705],[136.49633044822113,35.92084814812546],[136.4961886721695,35.92067401703823],[136.4959720887072,35.9205893097293]]]}},{"type":"Feature","properties":{"pid":"437e8ce2-a5e4-4d18-b5d3-6b2ccb2d37b5"},"geometry":{"type":"Polygon","coordinates":[[[136.49682085718993,35.9212602958716],[136.49682239018802,35.92115131200271],[136.49680070268212,35.921101719809684],[136.4967067042915,35.921081429377246],[136.4965047392615,35.920987245916294],[136.49643250695263,35.92099669644889],[136.4965187160683,35.92104628720309],[136.49661664876672,35.92117685567726],[136.49682085718993,35.9212602958716]]]}},{"type":"Feature","properties":{"pid":"e2db85f9-943f-4bd6-9dca-ef6838a08bfa"},"geometry":{"type":"Polygon","coordinates":[[[136.49699049232981,35.92134565969722],[136.49695326069426,35.921548156386486],[136.49726073051767,35.92176546175437],[136.4973972732452,35.92152906541608],[136.49699049232981,35.92134565969722]]]}},{"type":"Feature","properties":{"pid":"7825522d-fd7a-4b36-af7a-802c9b917975"},"geometry":{"type":"Polygon","coordinates":[[[136.4978520361055,35.92184704461496],[136.49791644504964,35.92186769180961],[136.49798500868656,35.92181421456776],[136.49806770608086,35.92182645583412],[136.49805911238138,35.921793423011486],[136.49808548687125,35.921718650015336],[136.49816613183134,35.921669810769956],[136.49797077523746,35.921649045939965],[136.4978520361055,35.92184704461496]]]}},{"type":"Feature","properties":{"pid":"2d128688-c349-4391-b4db-1e3b8302ba74"},"geometry":{"type":"Polygon","coordinates":[[[136.49740789995204,35.921871948839474],[136.49765725379424,35.92187744639605],[136.497840288364,35.92159872104642],[136.49781681759177,35.92151451408152],[136.497738149933,35.92152049922928],[136.4976905141672,35.92157956435982],[136.49759917597615,35.92157561466258],[136.49740789995204,35.921871948839474]]]}},{"type":"Feature","properties":{"pid":"29eb8e2f-b64b-4dcc-b9c9-c23bc2967997"},"geometry":{"type":"Polygon","coordinates":[[[136.49747182681912,35.92138280470057],[136.4976217564006,35.92144860546128],[136.4977385299197,35.92139700334895],[136.49785628093713,35.92139491884163],[136.49795238240083,35.921324918284895],[136.49785187840516,35.92126075859523],[136.49757137657295,35.92126192083238],[136.49747182681912,35.92138280470057]]]}},{"type":"Feature","properties":{"pid":"58aeb5fa-1474-4883-b04c-afca23a3bb92"},"geometry":{"type":"Polygon","coordinates":[[[136.49794660952523,35.92146561357334],[136.4979531839002,35.92151630583203],[136.4981571066787,35.921543603484594],[136.49822114798621,35.921523168053575],[136.4982251837563,35.92150414981362],[136.49805118640305,35.921390294118794],[136.49794660952523,35.92146561357334]]]}},{"type":"Feature","properties":{"pid":"6b1fabd1-5fe4-48cf-9d94-53f00b1ef020"},"geometry":{"type":"Polygon","coordinates":[[[136.49969860639348,35.923197580249536],[136.49980546973126,35.92325668039027],[136.49993191433137,35.92295630749094],[136.4998289101002,35.922969266434215],[136.49977889754092,35.92300942880024],[136.49969860639348,35.923197580249536]]]}}]}