{"type":"FeatureCollection","features":[{"type":"Feature","properties":{"pid":"68936412-ba15-408e-91dd-fa349b4e2e96","full":1.3},"geometry":{"type":"Polygon","coordinates":[[[136.27531,36.0057],[136.2752,36.00557],[136.27512,36.00561],[136.27503,36.00564],[136.27508,36.00574],[136.27508,36.00579],[136.27511,36.00582],[136.2752,36.00581],[136.2753,36.00579],[136.27532,36.00576],[136.27531,36.0057]]]}},{"type":"Feature","properties":{"pid":"902d98ca-70bf-4390-8d1e-c25250f35a74","full":1.2},"geometry":{"type":"Polygon","coordinates":[[[136.29095,35.99211],[136.29092,35.99159],[136.29082,35.99159],[136.29082,35.99162],[136.29078,35.99162],[136.2908,35.9921],[136.29095,35.99211]]]}},{"type":"Feature","properties":{"pid":"c0ef1cfb-d361-47d0-9300-b90413c1cbdd","full":5.5},"geometry":{"type":"Polygon","coordinates":[[[136.29062,35.99142],[136.28996,35.99143],[136.28997,35.99162],[136.29064,35.99162],[136.29062,35.99142]]]}},{"type":"Feature","properties":{"pid":"94cbfc5b-4e62-4b7b-a706-9618d3a16bb9","full":3.9},"geometry":{"type":"Polygon","coordinates":[[[136.29067,35.9922],[136.29064,35.99165],[136.29045,35.99165],[136.29048,35.99221],[136.29067,35.9922]]]}},{"type":"Feature","properties":{"pid":"f269815f-487c-414e-a248-31839fda7a36","full":5.2},"geometry":{"type":"Polygon","coordinates":[[[136.29047,35.99221],[136.29044,35.99166],[136.29022,35.99166],[136.29024,35.99222],[136.29047,35.99221]]]}},{"type":"Feature","properties":{"pid":"1ba414c3-445b-45b4-ac40-4775133900e3","full":4.4},"geometry":{"type":"Polygon","coordinates":[[[136.29024,35.99222],[136.29021,35.99166],[136.29,35.99166],[136.29004,35.99222],[136.29024,35.99222]]]}},{"type":"Feature","properties":{"pid":"09e2d554-47b7-4bc5-9f1f-10cc6fcd392b","full":1.2},"geometry":{"type":"Polygon","coordinates":[[[136.2911,35.99261],[136.29134,35.99261],[136.29136,35.99252],[136.29129,35.99246],[136.29112,35.99239],[136.29109,35.99241],[136.29109,35.9926],[136.2911,35.99261]]]}},{"type":"Feature","properties":{"pid":"819356f4-c5ed-4e1a-9f98-8f99e9b5d112","full":4.1},"geometry":{"type":"Polygon","coordinates":[[[136.29097,35.99215],[136.2908,35.99214],[136.29081,35.99261],[136.29103,35.99258],[136.29106,35.99246],[136.29102,35.9923],[136.29097,35.99215]]]}},{"type":"Feature","properties":{"pid":"2618dcf6-82f2-4d6b-bbbd-2cbac079aedb","full":1.5},"geometry":{"type":"Polygon","coordinates":[[[136.29066,35.99228],[136.29053,35.99228],[136.29053,35.99232],[136.2905,35.99233],[136.29052,35.99279],[136.29065,35.99279],[136.29065,35.99267],[136.29066,35.99267],[136.29066,35.99228]]]}},{"type":"Feature","properties":{"pid":"2eabf61a-8c62-4c02-b05c-aa37eebb691a","full":4.0},"geometry":{"type":"Polygon","coordinates":[[[136.2905,35.99279],[136.29049,35.99229],[136.29032,35.99229],[136.2903,35.99232],[136.29028,35.99233],[136.2903,35.9928],[136.2905,35.99279]]]}},{"type":"Feature","properties":{"pid":"08c79562-7e6c-4102-ad73-d8464d70a522","full":4.3},"geometry":{"type":"Polygon","coordinates":[[[136.29027,35.99281],[136.29025,35.99229],[136.29007,35.9923],[136.29007,35.99232],[136.29004,35.99232],[136.29006,35.99281],[136.29027,35.99281]]]}},{"type":"Feature","properties":{"pid":"5cae842e-74ad-4583-bfd9-31a9a0ab9112","full":1.3},"geometry":{"type":"Polygon","coordinates":[[[136.2905,35.99312],[136.29049,35.99286],[136.2903,35.99287],[136.29031,35.99312],[136.2905,35.99312]]]}},{"type":"Feature","properties":{"pid":"0850e008-9448-4746-b307-daa4d9f846cb","full":2.0},"geometry":{"type":"Polygon","coordinates":[[[136.2907,35.9934],[136.29068,35.99285],[136.29052,35.99286],[136.29055,35.9934],[136.2907,35.9934]]]}},{"type":"Feature","properties":{"pid":"d6709842-a9b6-4226-a441-7e4075324c84","full":2.0},"geometry":{"type":"Polygon","coordinates":[[[136.29105,35.99326],[136.29103,35.9929],[136.29084,35.99291],[136.29087,35.99328],[136.29105,35.99326]]]}},{"type":"Feature","properties":{"pid":"acda4157-5569-4f53-9c16-3de3ba3ce652","full":0.7},"geometry":{"type":"Polygon","coordinates":[[[136.29113,35.99267],[136.29106,35.99267],[136.29106,35.9929],[136.29108,35.99325],[136.29124,35.99323],[136.29113,35.99267]]]}},{"type":"Feature","properties":{"pid":"48753c87-d7c9-4764-80de-80ce4c1fd91c","full":0.6},"geometry":{"type":"Polygon","coordinates":[[[136.29155,35.99289],[136.29139,35.99289],[136.29146,35.99319],[136.2916,35.99316],[136.29155,35.99298],[136.29155,35.99289]]]}},{"type":"Feature","properties":{"pid":"380843e4-5368-49e3-8c19-66510c4e47d2","full":2.1},"geometry":{"type":"Polygon","coordinates":[[[136.2913,35.99267],[136.29116,35.99268],[136.29126,35.99322],[136.29143,35.9932],[136.29132,35.99269],[136.2913,35.99267]]]}},{"type":"Feature","properties":{"pid":"1ed12148-4a96-4004-bf2f-3a4130498a42","full":0.8},"geometry":{"type":"Polygon","coordinates":[[[136.29156,35.99269],[136.29134,35.99269],[136.29138,35.99288],[136.29156,35.99288],[136.29156,35.99269]]]}},{"type":"Feature","properties":{"pid":"32e836a3-efac-4b04-a2e1-8cbfe066e85f","full":7.2},"geometry":{"type":"Polygon","coordinates":[[[136.29125,35.99468],[136.29117,35.99461],[136.29066,35.99522],[136.29077,35.9954],[136.29133,35.99474],[136.29125,35.99468]]]}},{"type":"Feature","properties":{"pid":"c0168fa8-c9c8-4414-8401-f91e66a159bb","full":6.7},"geometry":{"type":"Polygon","coordinates":[[[136.29101,35.9943],[136.29087,35.99415],[136.29077,35.9944],[136.29048,35.99493],[136.29055,35.99502],[136.29106,35.99441],[136.29101,35.9943]]]}},{"type":"Feature","properties":{"pid":"6dd3c8ef-aa0a-4bc2-b146-9c47842bd23f","full":5.2},"geometry":{"type":"Polygon","coordinates":[[[136.29009,35.99408],[136.28961,35.99408],[136.28961,35.99411],[136.28994,35.9943],[136.2902,35.99451],[136.29042,35.99481],[136.29046,35.99472],[136.29009,35.99408]]]}},{"type":"Feature","properties":{"pid":"8e7b0bcc-544b-4340-9d54-5f1fb22b01a7","full":3.9},"geometry":{"type":"Polygon","coordinates":[[[136.29048,35.99439],[136.29034,35.99407],[136.2901,35.99408],[136.29047,35.99471],[136.29055,35.99458],[136.29048,35.99439]]]}},{"type":"Feature","properties":{"pid":"660e0b48-0bc7-4574-bc9b-d276ef19a9d0","full":3.5},"geometry":{"type":"Polygon","coordinates":[[[136.29011,35.994],[136.29008,35.99348],[136.28991,35.99348],[136.28991,35.99353],[136.28989,35.99353],[136.28991,35.99401],[136.29011,35.994]]]}},{"type":"Feature","properties":{"pid":"a3f73d69-e4c5-4e05-b2d7-504243e76a8c","full":3.9},"geometry":{"type":"Polygon","coordinates":[[[136.29032,35.994],[136.2903,35.99348],[136.29012,35.99348],[136.29012,35.99352],[136.2901,35.99352],[136.29012,35.994],[136.29032,35.994]]]}},{"type":"Feature","properties":{"pid":"70293752-22cf-4e72-ba17-6f18d24b2072","full":4.7},"geometry":{"type":"Polygon","coordinates":[[[136.29103,35.99368],[136.29102,35.99336],[136.29096,35.99336],[136.29095,35.99338],[136.29086,35.9934],[136.29086,35.99342],[136.29083,35.99342],[136.29085,35.99402],[136.29094,35.99401],[136.29104,35.99399],[136.29108,35.99387],[136.29103,35.99368]]]}},{"type":"Feature","properties":{"pid":"e62ffefa-fd13-444c-ac1c-5ce2c0d201d7","full":1.1},"geometry":{"type":"Polygon","coordinates":[[[136.2905,35.99313],[136.29033,35.99313],[136.29035,35.99341],[136.29052,35.9934],[136.2905,35.99313]]]}},{"type":"Feature","properties":{"pid":"2dfd0b6b-1ec8-497d-801d-797ff140f0d4","full":0.7},"geometry":{"type":"Polygon","coordinates":[[[136.28939,35.9934],[136.28922,35.99321],[136.28912,35.99327],[136.28919,35.99338],[136.28916,35.99339],[136.28926,35.9935],[136.28936,35.99344],[136.28939,35.9934]]]}},{"type":"Feature","properties":{"pid":"b72ae3be-b833-494d-8061-e92b61f135ae","full":0.8},"geometry":{"type":"Polygon","coordinates":[[[136.28912,35.99326],[136.28897,35.99306],[136.2889,35.99309],[136.28899,35.99339],[136.28901,35.99345],[136.28917,35.99337],[136.28911,35.99327],[136.28912,35.99326]]]}},{"type":"Feature","properties":{"pid":"984bed3c-5989-4da8-82ac-f7ef2e9cb8c1","full":8.7},"geometry":{"type":"Polygon","coordinates":[[[136.28989,35.99401],[136.28987,35.99349],[136.28971,35.99349],[136.28967,35.99353],[136.28964,35.99354],[136.28954,35.9937],[136.28956,35.99402],[136.28989,35.99401]]]}},{"type":"Feature","properties":{"pid":"b39c8f20-f82e-48a0-8d77-610e4b1bd06a","full":5.3},"geometry":{"type":"Polygon","coordinates":[[[136.28897,35.99464],[136.28886,35.99447],[136.28862,35.99458],[136.28867,35.9947],[136.2888,35.9949],[136.28891,35.99494],[136.28892,35.99487],[136.28903,35.99477],[136.28903,35.99469],[136.28897,35.99464]]]}},{"type":"Feature","properties":{"pid":"0908b55b-04ae-45f2-93df-78b3177a1d57","full":7.4},"geometry":{"type":"Polygon","coordinates":[[[136.28894,35.99411],[136.28887,35.99401],[136.28861,35.99409],[136.28857,35.99423],[136.28861,35.99437],[136.28859,35.99453],[136.28899,35.99435],[136.28902,35.99433],[136.28889,35.99412],[136.28894,35.99411]]]}},{"type":"Feature","properties":{"pid":"efed2890-e7d6-4f54-bb00-d1c4b9e33da3","full":2.2},"geometry":{"type":"Polygon","coordinates":[[[136.28887,35.994],[136.28881,35.99382],[136.28874,35.99384],[136.28872,35.99377],[136.28853,35.9938],[136.28862,35.99407],[136.28887,35.994]]]}},{"type":"Feature","properties":{"pid":"a74aa9ca-1a3a-468e-8a87-60b058444161","full":1.1},"geometry":{"type":"Polygon","coordinates":[[[136.28867,35.9933],[136.28861,35.99309],[136.28847,35.99317],[136.28848,35.99321],[136.28846,35.99325],[136.28838,35.99331],[136.28845,35.99339],[136.28867,35.9933]]]}},{"type":"Feature","properties":{"pid":"f1f86c52-5365-4a32-8b60-9228b50a3fb9","full":0.8},"geometry":{"type":"Polygon","coordinates":[[[136.28878,35.99278],[136.28886,35.9929],[136.2889,35.99298],[136.2889,35.99305],[136.28908,35.99295],[136.28894,35.99277],[136.28893,35.99273],[136.28878,35.99278]]]}},{"type":"Feature","properties":{"pid":"5967bc71-e034-48d2-a36a-cd5a97eee40e","full":10.6},"geometry":{"type":"Polygon","coordinates":[[[136.28944,35.99335],[136.28955,35.99311],[136.28959,35.99298],[136.2896,35.99279],[136.28912,35.99294],[136.28899,35.99303],[136.28914,35.99322],[136.28923,35.99317],[136.28941,35.99337],[136.28944,35.99335]]]}},{"type":"Feature","properties":{"pid":"29ea9b7a-07cf-40a6-960d-0909facd5fe1","full":5.2},"geometry":{"type":"Polygon","coordinates":[[[136.29004,35.99282],[136.29002,35.99231],[136.2898,35.99231],[136.28978,35.99235],[136.28975,35.99238],[136.28975,35.99248],[136.28986,35.99274],[136.28987,35.99282],[136.29004,35.99282]]]}},{"type":"Feature","properties":{"pid":"59f56d67-f323-49ae-8091-4ea93f3db4ae","full":5.3},"geometry":{"type":"Polygon","coordinates":[[[136.28939,35.9926],[136.2892,35.99219],[136.28896,35.99226],[136.28915,35.99268],[136.28939,35.9926]]]}},{"type":"Feature","properties":{"pid":"9f518a16-cf43-4bb2-ba44-024bd38a677f","full":4.6},"geometry":{"type":"Polygon","coordinates":[[[136.2895,35.99258],[136.28924,35.99268],[136.289,35.99275],[136.28898,35.99278],[136.28911,35.99292],[136.2896,35.99277],[136.2895,35.99258]]]}},{"type":"Feature","properties":{"pid":"2f480ed2-d9a7-4916-b7e0-52738a80ec97","full":0.9},"geometry":{"type":"Polygon","coordinates":[[[136.28914,35.99269],[136.28896,35.99229],[136.28884,35.99233],[136.28891,35.99241],[136.28895,35.99274],[136.28914,35.99269]]]}},{"type":"Feature","properties":{"pid":"2f0bbbee-925f-44aa-92a1-68d9ac68da20","full":6.7},"geometry":{"type":"Polygon","coordinates":[[[136.28999,35.99167],[136.28978,35.99167],[136.28974,35.99223],[136.29003,35.99222],[136.28999,35.99167]]]}},{"type":"Feature","properties":{"pid":"ac460a19-3fc2-4a9c-be1f-6286cb8de910","full":4.8},"geometry":{"type":"Polygon","coordinates":[[[136.28948,35.99158],[136.28941,35.99142],[136.2886,35.99166],[136.28864,35.99173],[136.2887,35.99176],[136.28904,35.99171],[136.28948,35.99158]]]}},{"type":"Feature","properties":{"pid":"bafb4c8a-dc9b-454b-9be0-63880e32165a","full":7.2},"geometry":{"type":"Polygon","coordinates":[[[136.28951,35.99166],[136.28949,35.99159],[136.28908,35.99171],[136.28933,35.9921],[136.28949,35.99207],[136.28951,35.99186],[136.28951,35.99166]]]}},{"type":"Feature","properties":{"pid":"89cc690e-2e02-4c74-b9b1-55b89c1b446d","full":4.3},"geometry":{"type":"Polygon","coordinates":[[[136.28922,35.99521],[136.28891,35.995],[136.28874,35.9952],[136.28885,35.99528],[136.28895,35.99533],[136.28913,35.99537],[136.28922,35.99521]]]}},{"type":"Feature","properties":{"pid":"809587da-497d-4611-9ded-c0f8ef1045c9","full":1.2},"geometry":{"type":"Polygon","coordinates":[[[136.28933,35.99524],[136.28925,35.99522],[136.28915,35.99539],[136.28939,35.99544],[136.28952,35.99536],[136.28933,35.99524]]]}},{"type":"Feature","properties":{"pid":"64e02328-a478-411b-824f-8d1ba703fc9b","full":7.3},"geometry":{"type":"Polygon","coordinates":[[[136.29151,35.99482],[136.29133,35.99474],[136.29077,35.9954],[136.29088,35.99551],[136.29093,35.99549],[136.29117,35.99524],[136.29144,35.99492],[136.29151,35.99482]]]}},{"type":"Feature","properties":{"pid":"5a61e706-a874-4072-82ab-b066a2c8afd4","full":1.0},"geometry":{"type":"Polygon","coordinates":[[[136.2784,36.00433],[136.27824,36.00429],[136.27816,36.00432],[136.27807,36.00434],[136.27804,36.00441],[136.27819,36.00448],[136.27836,36.00441],[136.2784,36.00433]]]}},{"type":"Feature","properties":{"pid":"1b9c0541-216c-41e4-8356-9aa358a61e6c","full":0.6},"geometry":{"type":"Polygon","coordinates":[[[136.2781,36.00407],[136.278,36.00405],[136.27785,36.00431],[136.27799,36.00436],[136.27804,36.00429],[136.2781,36.00407]]]}},{"type":"Feature","properties":{"pid":"718f3f76-bb5f-42c6-9bf2-54f42a603a95","full":1.3},"geometry":{"type":"Polygon","coordinates":[[[136.27844,36.00397],[136.27838,36.00395],[136.27826,36.00427],[136.2784,36.0043],[136.27851,36.00419],[136.27851,36.00412],[136.27844,36.00397]]]}},{"type":"Feature","properties":{"pid":"d38f07c7-70a6-40d7-8406-f86e246e9fe2","full":0.5},"geometry":{"type":"Polygon","coordinates":[[[136.27829,36.00411],[136.27814,36.00406],[136.27806,36.00429],[136.2781,36.00431],[136.27823,36.00427],[136.27829,36.00411]]]}},{"type":"Feature","properties":{"pid":"98eebc63-7211-4f1a-a280-dc848f18e112","full":1.3},"geometry":{"type":"Polygon","coordinates":[[[136.27832,36.00385],[136.27823,36.00382],[136.27818,36.00383],[136.27814,36.00404],[136.27831,36.00408],[136.27838,36.00391],[136.27832,36.00385]]]}},{"type":"Feature","properties":{"pid":"d624394c-65af-4714-961f-4f8cc523c827","full":5.8},"geometry":{"type":"Polygon","coordinates":[[[136.27799,36.00404],[136.27807,36.00383],[136.27766,36.00392],[136.27763,36.0042],[136.27783,36.00429],[136.27799,36.00404]]]}},{"type":"Feature","properties":{"pid":"07d99443-6e86-4b2b-ada5-6bf96a309be6","full":0.9},"geometry":{"type":"Polygon","coordinates":[[[136.2776,36.0042],[136.27764,36.00391],[136.27745,36.00396],[136.27745,36.00419],[136.2776,36.0042]]]}},{"type":"Feature","properties":{"pid":"bcc663c8-1fca-42ab-b77c-010374f5237e","full":0.6},"geometry":{"type":"Polygon","coordinates":[[[136.2769,36.00409],[136.27688,36.00403],[136.27671,36.00405],[136.27678,36.00429],[136.2768,36.00431],[136.27687,36.00424],[136.2769,36.00418],[136.2769,36.00409]]]}},{"type":"Feature","properties":{"pid":"d76a3ec9-3d94-4226-84d5-654a1918e63e","full":1.8},"geometry":{"type":"Polygon","coordinates":[[[136.27678,36.00432],[136.2767,36.00405],[136.27649,36.00407],[136.2766,36.00436],[136.27677,36.00437],[136.27678,36.00432]]]}},{"type":"Feature","properties":{"pid":"c3863af1-2bbe-4029-a968-11ce18ebd000","full":4.4},"geometry":{"type":"Polygon","coordinates":[[[136.2765,36.00463],[136.27646,36.00445],[136.27602,36.0046],[136.2761,36.00479],[136.27616,36.00481],[136.27633,36.00473],[136.2765,36.00463]]]}},{"type":"Feature","properties":{"pid":"6f41d700-4988-43d5-8251-e88306528db6","full":1.4},"geometry":{"type":"Polygon","coordinates":[[[136.27606,36.00478],[136.27601,36.00469],[136.27567,36.00479],[136.2757,36.00486],[136.27582,36.00493],[136.27602,36.00486],[136.27599,36.0048],[136.27606,36.00478]]]}},{"type":"Feature","properties":{"pid":"7540cc84-9e7c-4680-9797-1b5b47867a66","full":2.7},"geometry":{"type":"Polygon","coordinates":[[[136.27564,36.00488],[136.27556,36.00473],[136.27533,36.00481],[136.27533,36.00512],[136.27537,36.00513],[136.27564,36.00488]]]}},{"type":"Feature","properties":{"pid":"5b64be08-a060-4e36-aff6-3a2746f6653d","full":2.8},"geometry":{"type":"Polygon","coordinates":[[[136.27528,36.00528],[136.27531,36.00482],[136.27519,36.00484],[136.27512,36.00485],[136.27509,36.00529],[136.27528,36.00528]]]}},{"type":"Feature","properties":{"pid":"cb7387a8-ad11-4a02-9259-139a11a75796","full":7.9},"geometry":{"type":"Polygon","coordinates":[[[136.2752,36.00476],[136.27515,36.00436],[136.27511,36.00436],[136.27501,36.00407],[136.27489,36.00412],[136.27488,36.00477],[136.2752,36.00476]]]}},{"type":"Feature","properties":{"pid":"d8253c6c-e09e-4a02-98b0-9ed390c27899","full":4.8},"geometry":{"type":"Polygon","coordinates":[[[136.27554,36.00467],[136.27537,36.00432],[136.27517,36.00435],[136.27522,36.00476],[136.27554,36.00467]]]}},{"type":"Feature","properties":{"pid":"0fc451e7-8be4-43cc-85ba-04dbe7ec5a6c","full":1.0},"geometry":{"type":"Polygon","coordinates":[[[136.27594,36.00453],[136.27588,36.00439],[136.27582,36.00441],[136.27577,36.00426],[136.27562,36.00428],[136.27577,36.00459],[136.27594,36.00453]]]}},{"type":"Feature","properties":{"pid":"25bec03f-f00e-48b1-96e3-8be0ba2739b1","full":2.4},"geometry":{"type":"Polygon","coordinates":[[[136.27574,36.0046],[136.27559,36.00428],[136.27539,36.00431],[136.27556,36.00466],[136.27574,36.0046]]]}},{"type":"Feature","properties":{"pid":"66b1d511-c377-4bec-9c4e-03633d6554a7","full":0.8},"geometry":{"type":"Polygon","coordinates":[[[136.2757,35.99065],[136.27549,35.9905],[136.2754,35.99061],[136.27557,35.99076],[136.2757,35.99065]]]}},{"type":"Feature","properties":{"pid":"ad469040-3d41-4de3-9fec-ee5aa3a5a634","full":0.9},"geometry":{"type":"Polygon","coordinates":[[[136.2767,35.99091],[136.2768,35.99098],[136.2768,35.99103],[136.2771,35.99118],[136.27727,35.99112],[136.27677,35.99087],[136.2767,35.99091]]]}},{"type":"Feature","properties":{"pid":"36cd4987-230a-4a11-8fa9-18b8335c35ad","full":4.4},"geometry":{"type":"Polygon","coordinates":[[[136.27679,35.99087],[136.2773,35.99112],[136.27754,35.99092],[136.27685,35.99079],[136.27679,35.99087]]]}},{"type":"Feature","properties":{"pid":"f03a9ef1-25de-4e79-92d1-a97e56c9cf35","full":11.1},"geometry":{"type":"Polygon","coordinates":[[[136.27686,35.99078],[136.27755,35.99089],[136.27774,35.99051],[136.27687,35.99063],[136.2769,35.99072],[136.27686,35.99073],[136.27686,35.99078]]]}},{"type":"Feature","properties":{"pid":"2c62ef5e-603a-4b55-9886-13c016b47aba","full":1.3},"geometry":{"type":"Polygon","coordinates":[[[136.28104,35.99058],[136.28098,35.99049],[136.2805,35.99058],[136.28051,35.99068],[136.28055,35.99071],[136.28104,35.99058]]]}},{"type":"Feature","properties":{"pid":"4769f9b2-6f1f-42ce-94ec-04b4bc26a489","full":0.7},"geometry":{"type":"Polygon","coordinates":[[[136.28123,35.99097],[136.2812,35.99096],[136.28091,35.99105],[136.28092,35.99111],[136.28127,35.99112],[136.28127,35.99109],[136.28124,35.99102],[136.28123,35.99097]]]}},{"type":"Feature","properties":{"pid":"e3e4308d-abfd-4f2f-ae74-f0884dc10e2e","full":1.0},"geometry":{"type":"Polygon","coordinates":[[[136.28118,35.99127],[136.2809,35.99128],[136.28088,35.99137],[136.28121,35.99144],[136.28123,35.99143],[136.28123,35.99128],[136.28118,35.99127]]]}},{"type":"Feature","properties":{"pid":"a5d07496-b2a6-4c2e-ac5f-87594334fdee","full":5.7},"geometry":{"type":"Polygon","coordinates":[[[136.28745,35.99077],[136.28732,35.99046],[136.28702,35.99054],[136.28701,35.99064],[136.28698,35.99073],[136.28699,35.9908],[136.28744,35.99078],[136.28745,35.99077]]]}},{"type":"Feature","properties":{"pid":"6801d023-8c4d-4d0b-8cb9-35f43f5bf1e7","full":3.2},"geometry":{"type":"Polygon","coordinates":[[[136.28746,35.99138],[136.28744,35.99134],[136.28742,35.99125],[136.28698,35.99136],[136.28699,35.99146],[136.28705,35.99155],[136.28708,35.99159],[136.28729,35.99145],[136.28746,35.99138]]]}},{"type":"Feature","properties":{"pid":"d97e0e84-ad6f-4839-ad8d-707453f79bc1","full":2.1},"geometry":{"type":"Polygon","coordinates":[[[136.28779,35.99144],[136.28769,35.99123],[136.28745,35.99128],[136.28745,35.99133],[136.28754,35.99148],[136.28757,35.99149],[136.28779,35.99144]]]}},{"type":"Feature","properties":{"pid":"469fe78f-9b62-49b1-bb7a-86af5208d4db","full":6.8},"geometry":{"type":"Polygon","coordinates":[[[136.28911,35.99075],[136.28824,35.99074],[136.28821,35.99092],[136.28916,35.99092],[136.28911,35.99075]]]}},{"type":"Feature","properties":{"pid":"57c5ab99-dc5f-422a-ac13-6b6219004324","full":6.2},"geometry":{"type":"Polygon","coordinates":[[[136.28912,35.99073],[136.28908,35.99056],[136.28826,35.99056],[136.28823,35.99072],[136.28826,35.99073],[136.28912,35.99073]]]}},{"type":"Feature","properties":{"pid":"9e4ac7f4-d1e0-4704-8db6-e2a69aa502ba","full":11.2},"geometry":{"type":"Polygon","coordinates":[[[136.28921,35.99103],[136.28916,35.99092],[136.28823,35.99093],[136.28825,35.99111],[136.28827,35.99112],[136.28828,35.99115],[136.28925,35.99115],[136.28921,35.99103]]]}},{"type":"Feature","properties":{"pid":"444569e6-3cee-4f51-9357-7b187040b0a5","full":10.3},"geometry":{"type":"Polygon","coordinates":[[[136.28931,35.99126],[136.28926,35.99116],[136.28828,35.99117],[136.28828,35.99141],[136.28875,35.9914],[136.28931,35.99126]]]}},{"type":"Feature","properties":{"pid":"4dc95ea2-8f26-471d-a1df-f84095a4b84e","full":5.7},"geometry":{"type":"Polygon","coordinates":[[[136.2886,35.99165],[136.28941,35.99141],[136.28933,35.99128],[136.28831,35.99155],[136.28832,35.99163],[136.28841,35.99164],[136.28856,35.99163],[136.2886,35.99165]]]}},{"type":"Feature","properties":{"pid":"3c4e3c1d-4502-4b93-b870-d96c2df49b4b","full":6.1},"geometry":{"type":"Polygon","coordinates":[[[136.28982,35.99101],[136.28954,35.991],[136.28952,35.99103],[136.28964,35.99125],[136.28975,35.99162],[136.28989,35.99161],[136.28987,35.99102],[136.28982,35.99101]]]}},{"type":"Feature","properties":{"pid":"7621fade-11f0-47dd-bfb0-01a1612b3a7c","full":4.3},"geometry":{"type":"Polygon","coordinates":[[[136.29063,35.99141],[136.29062,35.99124],[136.28995,35.99125],[136.28996,35.99143],[136.29063,35.99141]]]}},{"type":"Feature","properties":{"pid":"91ab747d-b6c7-4592-9741-2e5ae8e2770c","full":4.0},"geometry":{"type":"Polygon","coordinates":[[[136.29062,35.99123],[136.29062,35.99107],[136.28995,35.99108],[136.28995,35.99124],[136.29062,35.99123]]]}},{"type":"Feature","properties":{"pid":"39449f8e-d070-4b3b-b824-8c294a31090f","full":4.7},"geometry":{"type":"Polygon","coordinates":[[[136.29061,35.99106],[136.29061,35.99089],[136.28994,35.9909],[136.28995,35.99108],[136.29061,35.99106]]]}},{"type":"Feature","properties":{"pid":"d63e9fce-cb46-4ec8-bf0d-199418f49135","full":4.2},"geometry":{"type":"Polygon","coordinates":[[[136.2906,35.99061],[136.2906,35.99053],[136.28992,35.99055],[136.28993,35.99071],[136.29059,35.9907],[136.2906,35.99061]]]}},{"type":"Feature","properties":{"pid":"8bd8d5be-e9ba-40fa-85e2-963997fb4b0a","full":3.8},"geometry":{"type":"Polygon","coordinates":[[[136.2906,35.99087],[136.2906,35.99071],[136.28993,35.99072],[136.28994,35.99088],[136.2906,35.99087]]]}},{"type":"Feature","properties":{"pid":"e4f188c7-6ec8-4a4e-b4d2-b43c54842302","full":2.7},"geometry":{"type":"Polygon","coordinates":[[[136.29117,35.99067],[136.29074,35.99068],[136.29074,35.99085],[136.29123,35.99084],[136.29117,35.99067]]]}},{"type":"Feature","properties":{"pid":"bdd11033-ab7b-4568-b096-108c4d20a8f4","full":8.6},"geometry":{"type":"Polygon","coordinates":[[[136.29126,35.9909],[136.29123,35.99085],[136.29078,35.99086],[136.29078,35.99106],[136.29081,35.99126],[136.29093,35.99125],[136.29124,35.99107],[136.29125,35.99105],[136.29123,35.99104],[136.29123,35.991],[136.29126,35.99096],[136.29126,35.9909]]]}}],"precision":5}