{"type":"FeatureCollection","features":[{"type":"Feature","properties":{"pid":"bf7d4dd6-5e75-4190-9f79-ccce61dc2aaa","full":0.8},"geometry":{"type":"Polygon","coordinates":[[[136.47646,36.04801],[136.47649,36.04801],[136.47656,36.04796],[136.47654,36.04795],[136.47648,36.04784],[136.47648,36.04782],[136.47649,36.04779],[136.4765,36.04773],[136.47649,36.04771],[136.47644,36.04771],[136.47644,36.04766],[136.47642,36.04757],[136.47624,36.04758],[136.47624,36.0476],[136.47629,36.04766],[136.47626,36.04768],[136.47631,36.04776],[136.47633,36.04776],[136.47646,36.04801]]]}},{"type":"Feature","properties":{"pid":"0b1c9bb2-d60f-4956-8548-4d935c9fe2ca","full":9.8},"geometry":{"type":"Polygon","coordinates":[[[136.47504,36.04966],[136.47522,36.05009],[136.47544,36.05003],[136.47552,36.05],[136.47555,36.04998],[136.47533,36.04948],[136.47528,36.0495],[136.47504,36.04966]]]}},{"type":"Feature","properties":{"pid":"2ce0bd9e-c431-4c8b-8850-31585c2fe252","full":2.7},"geometry":{"type":"Polygon","coordinates":[[[136.47523,36.04945],[136.47542,36.04937],[136.47513,36.04904],[136.47497,36.04915],[136.47523,36.04945]]]}},{"type":"Feature","properties":{"pid":"4accf603-aac2-4b73-beb4-3927866b669d","full":2.9},"geometry":{"type":"Polygon","coordinates":[[[136.47544,36.04937],[136.47554,36.04935],[136.47558,36.04931],[136.47553,36.04915],[136.47545,36.04904],[136.4752,36.049],[136.47517,36.04904],[136.47544,36.04937]]]}},{"type":"Feature","properties":{"pid":"2ec2f655-183a-4d73-8374-72c6c56db3da","full":3.7},"geometry":{"type":"Polygon","coordinates":[[[136.47538,36.04863],[136.4754,36.04848],[136.47539,36.04829],[136.4751,36.04829],[136.47511,36.04847],[136.4751,36.04849],[136.47511,36.04857],[136.47514,36.04858],[136.47528,36.04859],[136.47538,36.04863]]]}},{"type":"Feature","properties":{"pid":"aba9329b-adcc-45e6-8045-f85dd062bdd9","full":2.3},"geometry":{"type":"Polygon","coordinates":[[[136.47494,36.04872],[136.47487,36.04874],[136.47496,36.04888],[136.47501,36.04903],[136.47503,36.04904],[136.47522,36.04889],[136.47521,36.04879],[136.47523,36.04873],[136.47522,36.04869],[136.47503,36.04874],[136.47496,36.04874],[136.47494,36.04872]]]}},{"type":"Feature","properties":{"pid":"1310a866-0de1-4a98-8139-e00b4d2c2a81","full":0.5},"geometry":{"type":"Polygon","coordinates":[[[136.47577,36.04904],[136.47591,36.04903],[136.4758,36.04874],[136.47573,36.04876],[136.47569,36.04869],[136.47565,36.04871],[136.47577,36.04904]]]}},{"type":"Feature","properties":{"pid":"54b137d9-7b1d-4fa5-94aa-0b4a7c5f6182","full":1.8},"geometry":{"type":"Polygon","coordinates":[[[136.47566,36.04964],[136.4756,36.04946],[136.47561,36.04943],[136.47558,36.04937],[136.47548,36.0494],[136.47545,36.04943],[136.47538,36.04947],[136.47548,36.0497],[136.47566,36.04964]]]}},{"type":"Feature","properties":{"pid":"2ad608c9-31d7-4fa5-8116-e047a2bce5b8","full":1.2},"geometry":{"type":"Polygon","coordinates":[[[136.47549,36.04971],[136.47561,36.04999],[136.47571,36.04995],[136.47573,36.04984],[136.47567,36.04965],[136.47549,36.04971]]]}},{"type":"Feature","properties":{"pid":"d3da9b19-69fc-4580-9413-ecf622d8f5ca","full":1.1},"geometry":{"type":"Polygon","coordinates":[[[136.47495,36.05062],[136.47498,36.05078],[136.47526,36.05073],[136.47516,36.05057],[136.47495,36.05062]]]}},{"type":"Feature","properties":{"pid":"d5411a4f-4aac-4444-bd01-9d4de991ed50","full":1.7},"geometry":{"type":"Polygon","coordinates":[[[136.47499,36.05086],[136.47502,36.05105],[136.47516,36.05107],[136.4752,36.05105],[136.47526,36.05089],[136.47526,36.05087],[136.47529,36.0508],[136.47499,36.05086]]]}},{"type":"Feature","properties":{"pid":"9e39b792-3fb0-4832-b2a4-7333832ca79c","full":2.4},"geometry":{"type":"Polygon","coordinates":[[[136.47501,36.05148],[136.47503,36.05152],[136.47509,36.05155],[136.47529,36.05118],[136.47517,36.05111],[136.47504,36.05108],[136.47501,36.05148]]]}},{"type":"Feature","properties":{"pid":"4889824c-5d27-47dd-8118-78bad3caffb5","full":11.1},"geometry":{"type":"Polygon","coordinates":[[[136.49316,36.04991],[136.49317,36.04995],[136.49334,36.05015],[136.49354,36.05029],[136.49358,36.05029],[136.49372,36.05034],[136.49405,36.0504],[136.49405,36.05039],[136.49398,36.05012],[136.49395,36.05011],[136.49395,36.05009],[136.49316,36.04991]]]}},{"type":"Feature","properties":{"pid":"d0d574ad-0251-4bf0-a1d3-3c0dbab96c9a","full":1.8},"geometry":{"type":"Polygon","coordinates":[[[136.49433,36.05022],[136.49439,36.05042],[136.4945,36.05041],[136.49457,36.05029],[136.49439,36.05022],[136.49451,36.04999],[136.49424,36.04989],[136.49424,36.04991],[136.49421,36.04991],[136.49433,36.05022]]]}},{"type":"Feature","properties":{"pid":"92c3c9d5-1009-4a7b-9cbf-a7be291569c1","full":14.8},"geometry":{"type":"Polygon","coordinates":[[[136.49482,36.04948],[136.49454,36.05001],[136.49467,36.05005],[136.49509,36.04995],[136.49526,36.04963],[136.49482,36.04948]]]}},{"type":"Feature","properties":{"pid":"79f0cdf5-340a-4be7-9695-27044e2cd3ea","full":0.9},"geometry":{"type":"Polygon","coordinates":[[[136.49446,36.04908],[136.4944,36.04919],[136.49485,36.04934],[136.4949,36.04923],[136.49446,36.04908]]]}},{"type":"Feature","properties":{"pid":"bb3e750c-2a2e-4fed-b22e-2a69d33bf60e","full":3.3},"geometry":{"type":"Polygon","coordinates":[[[136.49446,36.04907],[136.49491,36.04923],[136.495,36.04906],[136.49454,36.04891],[136.49446,36.04907]]]}},{"type":"Feature","properties":{"pid":"62d6f679-ce94-42f3-9919-7a1258a338f1","full":18.8},"geometry":{"type":"Polygon","coordinates":[[[136.49555,36.04907],[136.49512,36.04891],[136.49482,36.04947],[136.49527,36.04962],[136.49555,36.04907]]]}},{"type":"Feature","properties":{"pid":"fe839393-0f23-4d1c-ae07-4dbc6caa7bd9","full":12.3},"geometry":{"type":"Polygon","coordinates":[[[136.49578,36.04866],[136.49534,36.0485],[136.49513,36.0489],[136.49556,36.04905],[136.49578,36.04866]]]}},{"type":"Feature","properties":{"pid":"18554af5-dedf-4501-85db-f8f8033a2ee6","full":8.7},"geometry":{"type":"Polygon","coordinates":[[[136.49467,36.04869],[136.49512,36.04885],[136.49527,36.04856],[136.49485,36.0484],[136.49481,36.04841],[136.49467,36.04869]]]}},{"type":"Feature","properties":{"pid":"863817d4-4882-40e7-8ce3-e5cc27a5864f","full":4.3},"geometry":{"type":"Polygon","coordinates":[[[136.49511,36.04886],[136.49466,36.0487],[136.49456,36.04888],[136.49501,36.04904],[136.49511,36.04886]]]}},{"type":"Feature","properties":{"pid":"8eb79442-6cf7-43a7-bb09-7416f54016c5","full":0.9},"geometry":{"type":"Polygon","coordinates":[[[136.49528,36.04855],[136.49533,36.04846],[136.49488,36.04827],[136.49482,36.04838],[136.49528,36.04855]]]}},{"type":"Feature","properties":{"pid":"a97c2004-374d-4f79-af9f-c53253385f44","full":17.8},"geometry":{"type":"Polygon","coordinates":[[[136.49433,36.04861],[136.49435,36.04859],[136.49438,36.04859],[136.49449,36.04837],[136.49334,36.04811],[136.49327,36.04836],[136.49433,36.04861]]]}},{"type":"Feature","properties":{"pid":"230fd3db-1733-4de5-841a-c09084543da0","full":17.4},"geometry":{"type":"Polygon","coordinates":[[[136.49422,36.04887],[136.49436,36.04862],[136.49326,36.04837],[136.4932,36.04863],[136.49422,36.04887]]]}},{"type":"Feature","properties":{"pid":"84b5375e-1b12-4678-8a31-2805bd376cb7","full":15.3},"geometry":{"type":"Polygon","coordinates":[[[136.49407,36.0491],[136.49408,36.04907],[136.49411,36.04907],[136.49422,36.04887],[136.49319,36.04864],[136.49313,36.04889],[136.49407,36.0491]]]}},{"type":"Feature","properties":{"pid":"38b4b2c8-3192-4f44-bfca-775936f0a837","full":2.1},"geometry":{"type":"Polygon","coordinates":[[[136.49439,36.0492],[136.49432,36.04933],[136.49478,36.04948],[136.49485,36.04935],[136.49439,36.0492]]]}},{"type":"Feature","properties":{"pid":"e722d46c-cb94-4273-ade4-b5ec705791fb","full":2.5},"geometry":{"type":"Polygon","coordinates":[[[136.4942,36.04987],[136.49451,36.04998],[136.4946,36.04983],[136.49416,36.04967],[136.49417,36.04969],[136.49416,36.0497],[136.49417,36.0498],[136.4942,36.04987]]]}},{"type":"Feature","properties":{"pid":"ef7f3db5-fb00-4f5e-8635-021afde1206e","full":24.3},"geometry":{"type":"Polygon","coordinates":[[[136.4931,36.04979],[136.49388,36.04996],[136.49388,36.04995],[136.49389,36.04994],[136.49383,36.04964],[136.49387,36.0495],[136.49308,36.04932],[136.49307,36.04959],[136.49308,36.04969],[136.4931,36.04979]]]}},{"type":"Feature","properties":{"pid":"b4d030af-446b-4dd5-8304-197e0bb02504","full":21.5},"geometry":{"type":"Polygon","coordinates":[[[136.49408,36.04914],[136.49405,36.04913],[136.49406,36.04911],[136.49313,36.0489],[136.49308,36.04925],[136.49376,36.04942],[136.4938,36.04938],[136.49393,36.04941],[136.49408,36.04914]]]}},{"type":"Feature","properties":{"pid":"53cdbeb3-58af-432e-bc30-8346a0a76e89","full":11.8},"geometry":{"type":"Polygon","coordinates":[[[136.49253,36.05028],[136.49271,36.05007],[136.49269,36.04995],[136.4928,36.04995],[136.4928,36.04992],[136.49281,36.04993],[136.4928,36.04978],[136.49278,36.04968],[136.49281,36.0496],[136.49281,36.04956],[136.4926,36.04938],[136.49244,36.04942],[136.49244,36.04944],[136.49242,36.04945],[136.49253,36.05028]]]}},{"type":"Feature","properties":{"pid":"9daac9ad-adcb-40aa-b662-d7a96800d335","full":16.8},"geometry":{"type":"Polygon","coordinates":[[[136.4922,36.05034],[136.49239,36.05036],[136.49252,36.05028],[136.49241,36.04944],[136.49239,36.04945],[136.49239,36.04944],[136.49209,36.0495],[136.4922,36.05034]]]}},{"type":"Feature","properties":{"pid":"1e2e5f17-a075-4b59-8966-17dd69206a69","full":8.0},"geometry":{"type":"Polygon","coordinates":[[[136.4922,36.04911],[136.49262,36.04907],[136.4927,36.04875],[136.49217,36.0488],[136.4922,36.04911]]]}},{"type":"Feature","properties":{"pid":"bef93291-bb21-48a1-9e17-5f4fca35c7c5","full":24.7},"geometry":{"type":"Polygon","coordinates":[[[136.49248,36.04872],[136.49271,36.04871],[136.49298,36.04778],[136.49242,36.04782],[136.49238,36.04784],[136.49248,36.04872]]]}},{"type":"Feature","properties":{"pid":"49a5e981-a012-45e6-b7ca-7a26979a4a06","full":17.0},"geometry":{"type":"Polygon","coordinates":[[[136.49248,36.04872],[136.49237,36.04786],[136.49234,36.04785],[136.49234,36.04782],[136.49205,36.04784],[136.49215,36.04875],[136.49248,36.04872]]]}},{"type":"Feature","properties":{"pid":"bf8dc404-25d8-47d2-b7fe-1082f5df722b","full":17.3},"geometry":{"type":"Polygon","coordinates":[[[136.49198,36.04784],[136.49172,36.04786],[136.49182,36.04877],[136.49214,36.04875],[136.49205,36.04789],[136.49201,36.04789],[136.49198,36.04784]]]}},{"type":"Feature","properties":{"pid":"b1c72a45-f9cb-4530-a915-98233046f9fc","full":18.2},"geometry":{"type":"Polygon","coordinates":[[[136.49171,36.04785],[136.49144,36.04788],[136.49138,36.04792],[136.49148,36.04879],[136.49181,36.04877],[136.49171,36.04785]]]}},{"type":"Feature","properties":{"pid":"f00fd882-4729-4401-b896-eb4c6e606411","full":9.3},"geometry":{"type":"Polygon","coordinates":[[[136.49108,36.04832],[136.49101,36.04831],[136.49079,36.04849],[136.49072,36.04866],[136.49065,36.04877],[136.49076,36.04884],[136.49081,36.04885],[136.49113,36.04882],[136.49108,36.04832]]]}},{"type":"Feature","properties":{"pid":"8ba2f067-90ec-4ec5-91dc-1ab78b27ebea","full":12.4},"geometry":{"type":"Polygon","coordinates":[[[136.49137,36.04798],[136.49133,36.04797],[136.4912,36.04812],[136.49121,36.04813],[136.49119,36.04816],[136.49116,36.04816],[136.49109,36.04824],[136.49116,36.04882],[136.49148,36.0488],[136.49137,36.04798]]]}},{"type":"Feature","properties":{"pid":"5f94b959-ac46-4457-aa62-1976095ebbe9","full":1.1},"geometry":{"type":"Polygon","coordinates":[[[136.49068,36.04847],[136.49082,36.0484],[136.49055,36.04818],[136.49043,36.04829],[136.49068,36.04847]]]}},{"type":"Feature","properties":{"pid":"8accd14a-2d14-4a14-9149-0b72561a309a","full":17.0},"geometry":{"type":"Polygon","coordinates":[[[136.49086,36.04933],[136.49081,36.0489],[136.49079,36.04891],[136.49075,36.0489],[136.49048,36.04873],[136.49037,36.04881],[136.49032,36.04887],[136.49025,36.04903],[136.49022,36.04907],[136.49022,36.0491],[136.49048,36.04933],[136.49078,36.04931],[136.49086,36.04933]]]}},{"type":"Feature","properties":{"pid":"ea193431-4f66-4603-a40d-45e5c7977ef3","full":0.5},"geometry":{"type":"Polygon","coordinates":[[[136.49112,36.04994],[136.49113,36.04997],[136.49115,36.04999],[136.49122,36.04998],[136.49138,36.04991],[136.49126,36.0498],[136.49124,36.0498],[136.49124,36.04981],[136.49116,36.04981],[136.49112,36.04994]]]}},{"type":"Feature","properties":{"pid":"af584254-6136-4f33-ac7c-ab6ea566b646","full":1.6},"geometry":{"type":"Polygon","coordinates":[[[136.49156,36.04999],[136.49157,36.04995],[136.49154,36.04962],[136.49128,36.04969],[136.49127,36.04973],[136.49156,36.04999]]]}},{"type":"Feature","properties":{"pid":"42db1692-9fbc-4dc8-9365-6a6a3cf18697","full":9.0},"geometry":{"type":"Polygon","coordinates":[[[136.49121,36.04947],[136.49115,36.04887],[136.49082,36.0489],[136.49088,36.04934],[136.49121,36.04947]]]}},{"type":"Feature","properties":{"pid":"0432123d-4bce-43ef-8348-e58739526e09","full":12.3},"geometry":{"type":"Polygon","coordinates":[[[136.49156,36.04951],[136.49148,36.04885],[136.49116,36.04887],[136.49123,36.04948],[136.49141,36.04955],[136.49156,36.04951]]]}},{"type":"Feature","properties":{"pid":"76174487-c436-462d-b395-4c9caed7f4ad","full":11.4},"geometry":{"type":"Polygon","coordinates":[[[136.49189,36.04944],[136.49182,36.04882],[136.4915,36.04885],[136.49157,36.04946],[136.49158,36.04946],[136.4916,36.04951],[136.49189,36.04944]]]}},{"type":"Feature","properties":{"pid":"f80b06a8-dff2-41ec-8fb5-9b6d7de8f562","full":10.5},"geometry":{"type":"Polygon","coordinates":[[[136.49221,36.04937],[136.49215,36.0488],[136.49183,36.04882],[136.4919,36.04943],[136.49221,36.04937]]]}},{"type":"Feature","properties":{"pid":"aced0d84-fdeb-418c-bb25-37cfc1abed1a","full":3.7},"geometry":{"type":"Polygon","coordinates":[[[136.4918,36.05021],[136.49183,36.05019],[136.49177,36.04967],[136.49171,36.04969],[136.49168,36.0496],[136.49155,36.04962],[136.49159,36.05002],[136.4918,36.05021]]]}},{"type":"Feature","properties":{"pid":"5a002675-61c8-453c-9a9a-fd25855581d6","full":13.5},"geometry":{"type":"Polygon","coordinates":[[[136.49178,36.04958],[136.49184,36.05021],[136.49189,36.05023],[136.49198,36.05031],[136.49218,36.05033],[136.49209,36.04954],[136.49206,36.04954],[136.49206,36.04951],[136.49178,36.04958]]]}},{"type":"Feature","properties":{"pid":"7eb129ed-034c-4cb6-95c2-16a740d9fc92","full":0.6},"geometry":{"type":"Polygon","coordinates":[[[136.47676,36.04848],[136.47679,36.04847],[136.47685,36.04841],[136.47687,36.04841],[136.47678,36.04823],[136.47669,36.04819],[136.47662,36.04815],[136.47658,36.04819],[136.47676,36.04848]]]}},{"type":"Feature","properties":{"pid":"ec3a45b0-0dfa-466e-bb65-a81afaf2b7b0","full":5.5},"geometry":{"type":"Polygon","coordinates":[[[136.4881,36.04082],[136.48824,36.04081],[136.48832,36.04079],[136.48836,36.04076],[136.48838,36.04073],[136.48839,36.0407],[136.48837,36.04059],[136.48831,36.04039],[136.48806,36.04039],[136.4881,36.04076],[136.4881,36.04082]]]}},{"type":"Feature","properties":{"pid":"6f9de001-0c34-4d18-ae1b-07fa41ae88da","full":5.7},"geometry":{"type":"Polygon","coordinates":[[[136.48846,36.04058],[136.48849,36.0406],[136.4885,36.04079],[136.48851,36.04082],[136.48853,36.04102],[136.48855,36.0411],[136.48889,36.04067],[136.48847,36.04047],[136.48846,36.04049],[136.48846,36.04058]]]}},{"type":"Feature","properties":{"pid":"b40555a1-f512-4daa-af57-3dba25423f41","full":2.1},"geometry":{"type":"Polygon","coordinates":[[[136.48863,36.04126],[136.48904,36.04075],[136.48891,36.04068],[136.48854,36.04115],[136.48855,36.04118],[136.48857,36.04121],[136.48863,36.04126]]]}},{"type":"Feature","properties":{"pid":"eb66fc61-f331-4bcd-b584-814b78dfc1c6","full":2.7},"geometry":{"type":"Polygon","coordinates":[[[136.48876,36.04135],[136.48918,36.04083],[136.48904,36.04075],[136.48864,36.04126],[136.48876,36.04135]]]}},{"type":"Feature","properties":{"pid":"6f1d8451-d1bc-42b3-a40e-27cf28e45d2c","full":23.1},"geometry":{"type":"Polygon","coordinates":[[[136.48979,36.04107],[136.4898,36.04106],[136.48983,36.04109],[136.49043,36.04034],[136.49034,36.04026],[136.49028,36.04019],[136.49015,36.04013],[136.48953,36.04089],[136.48952,36.04093],[136.48979,36.04107]]]}},{"type":"Feature","properties":{"pid":"069a3846-6f9a-4def-a9c2-6d94ff98addb","full":14.7},"geometry":{"type":"Polygon","coordinates":[[[136.48986,36.04108],[136.49011,36.04122],[136.49067,36.0405],[136.49042,36.04037],[136.48986,36.04108]]]}},{"type":"Feature","properties":{"pid":"49d8df8d-ed36-4b3a-823c-c78f9bc9d732","full":0.7},"geometry":{"type":"Polygon","coordinates":[[[136.49018,36.04128],[136.49021,36.04128],[136.49022,36.04129],[136.4908,36.04056],[136.4907,36.04052],[136.49011,36.04124],[136.49018,36.04128]]]}},{"type":"Feature","properties":{"pid":"b18a584b-2a71-4976-a97c-168f2a97a861","full":6.3},"geometry":{"type":"Polygon","coordinates":[[[136.49022,36.04131],[136.49034,36.04137],[136.49036,36.04135],[136.49039,36.04137],[136.49098,36.04063],[136.49082,36.04055],[136.49022,36.04131]]]}},{"type":"Feature","properties":{"pid":"1c767bbe-641e-46da-8e46-5ac66ed28c98","full":11.0},"geometry":{"type":"Polygon","coordinates":[[[136.49192,36.04091],[136.49234,36.04038],[136.49234,36.04036],[136.49209,36.04023],[136.49167,36.04075],[136.49168,36.04078],[136.49192,36.04091]]]}},{"type":"Feature","properties":{"pid":"3c275912-883a-4af5-9b69-92d69777262e","full":0.5},"geometry":{"type":"Polygon","coordinates":[[[136.49211,36.04102],[136.49218,36.04107],[136.49262,36.04051],[136.49253,36.04045],[136.4921,36.04098],[136.49212,36.041],[136.49211,36.04102]]]}},{"type":"Feature","properties":{"pid":"8e15992e-59e0-461e-b09f-608ad6de05ca","full":12.3},"geometry":{"type":"Polygon","coordinates":[[[136.49222,36.04108],[136.49244,36.04121],[136.49245,36.04119],[136.4925,36.0412],[136.49292,36.04065],[136.49265,36.04051],[136.49222,36.04108]]]}},{"type":"Feature","properties":{"pid":"915e54b9-67ff-4339-b53a-af0611e14444","full":10.0},"geometry":{"type":"Polygon","coordinates":[[[136.49399,36.04052],[136.4938,36.04029],[136.49338,36.04082],[136.49366,36.04096],[136.49399,36.04052]]]}},{"type":"Feature","properties":{"pid":"ce085a3c-49ed-4ec6-ac5f-ddcef1763ad3","full":15.7},"geometry":{"type":"Polygon","coordinates":[[[136.49399,36.04053],[136.49367,36.04097],[136.49411,36.0412],[136.4944,36.04091],[136.49399,36.04053]]]}},{"type":"Feature","properties":{"pid":"4b221dad-dfed-4c3d-98ed-d1e64a6c451d","full":1.6},"geometry":{"type":"Polygon","coordinates":[[[136.49565,36.04057],[136.49552,36.04052],[136.49536,36.04042],[136.49529,36.04062],[136.49552,36.04071],[136.49565,36.04057]]]}},{"type":"Feature","properties":{"pid":"9bb3dba3-56d7-40ad-97a5-7845f2376137","full":3.3},"geometry":{"type":"Polygon","coordinates":[[[136.49585,36.0407],[136.49568,36.0409],[136.49584,36.041],[136.49617,36.04064],[136.49615,36.04059],[136.49605,36.04058],[136.49606,36.04055],[136.49603,36.04054],[136.49591,36.04063],[136.49585,36.0407]]]}},{"type":"Feature","properties":{"pid":"11cc22f1-0e25-4942-838c-0d9f7a617056","full":6.3},"geometry":{"type":"Polygon","coordinates":[[[136.49584,36.041],[136.49613,36.04118],[136.49632,36.04099],[136.49617,36.04065],[136.49584,36.041]]]}},{"type":"Feature","properties":{"pid":"52578dba-ab35-4714-8f4f-273fbaac40f6","full":9.4},"geometry":{"type":"Polygon","coordinates":[[[136.49698,36.04093],[136.49695,36.04084],[136.49707,36.04081],[136.49705,36.04076],[136.49635,36.04059],[136.49635,36.04061],[136.49654,36.04104],[136.49655,36.04105],[136.49698,36.04093]]]}},{"type":"Feature","properties":{"pid":"1c6a1c9d-4028-4a1e-aee5-94b6fc740284","full":6.3},"geometry":{"type":"Polygon","coordinates":[[[136.49663,36.04126],[136.49727,36.04107],[136.4972,36.04092],[136.49721,36.0409],[136.4972,36.04088],[136.49656,36.04105],[136.49656,36.04109],[136.49663,36.04126]]]}},{"type":"Feature","properties":{"pid":"7ab55185-e1f4-4105-beb6-baec1aeae238","full":6.4},"geometry":{"type":"Polygon","coordinates":[[[136.49672,36.04145],[136.49735,36.04128],[136.49727,36.04108],[136.49665,36.04126],[136.49664,36.04129],[136.49672,36.04145]]]}},{"type":"Feature","properties":{"pid":"390d254e-e133-4be3-b5ad-f4e8f0eeecc8","full":3.8},"geometry":{"type":"Polygon","coordinates":[[[136.49672,36.04147],[136.49678,36.04159],[136.49681,36.04159],[136.49683,36.04159],[136.49743,36.04144],[136.49736,36.04128],[136.49672,36.04147]]]}},{"type":"Feature","properties":{"pid":"983fc4b3-2166-4f64-8b15-8aab294bff22","full":11.5},"geometry":{"type":"Polygon","coordinates":[[[136.49679,36.04163],[136.49688,36.04186],[136.49694,36.04214],[136.49734,36.04184],[136.49719,36.04151],[136.49683,36.04161],[136.49682,36.04162],[136.49679,36.04163]]]}},{"type":"Feature","properties":{"pid":"7a532e74-024d-4b7d-b308-006e0b045967","full":1.1},"geometry":{"type":"Polygon","coordinates":[[[136.49598,36.04155],[136.49597,36.04169],[136.49635,36.04192],[136.49644,36.04183],[136.49598,36.04155]]]}},{"type":"Feature","properties":{"pid":"9bfd4670-7985-44e1-83cc-cfe30e424aca","full":0.7},"geometry":{"type":"Polygon","coordinates":[[[136.49633,36.04168],[136.49642,36.0416],[136.49602,36.04135],[136.49599,36.04138],[136.49598,36.04147],[136.49633,36.04168]]]}},{"type":"Feature","properties":{"pid":"2959090b-8cc7-487c-b47f-a7dbda1f6116","full":0.7},"geometry":{"type":"Polygon","coordinates":[[[136.49642,36.04159],[136.49653,36.04149],[136.49647,36.04134],[136.49645,36.04134],[136.49643,36.04134],[136.49628,36.0415],[136.49642,36.04159]]]}},{"type":"Feature","properties":{"pid":"61a00c6f-90c7-4dbc-8751-3b9832c74e73","full":3.8},"geometry":{"type":"Polygon","coordinates":[[[136.4959,36.04105],[136.49567,36.0409],[136.49546,36.04113],[136.49546,36.04115],[136.49569,36.04129],[136.4959,36.04105]]]}},{"type":"Feature","properties":{"pid":"539611c7-cc95-4dd6-9c2e-26cfff546cfa","full":1.1},"geometry":{"type":"Polygon","coordinates":[[[136.49579,36.04158],[136.49567,36.04171],[136.49582,36.04175],[136.4958,36.04183],[136.49592,36.04186],[136.49597,36.0417],[136.49597,36.04162],[136.49583,36.04158],[136.49581,36.04159],[136.49579,36.04158]]]}},{"type":"Feature","properties":{"pid":"c78854de-fa51-4940-a376-d69208e1d0d1","full":1.0},"geometry":{"type":"Polygon","coordinates":[[[136.49544,36.0422],[136.49563,36.04225],[136.4957,36.04225],[136.49571,36.04222],[136.49576,36.04224],[136.49577,36.04221],[136.49578,36.04221],[136.4958,36.04218],[136.49573,36.04214],[136.49564,36.04207],[136.49558,36.04201],[136.49544,36.0422]]]}},{"type":"Feature","properties":{"pid":"1ca99304-b686-4839-a8f9-ac3ba663fb8d","full":2.1},"geometry":{"type":"Polygon","coordinates":[[[136.49502,36.04232],[136.49531,36.04243],[136.49542,36.04224],[136.49519,36.04215],[136.49502,36.04232]]]}},{"type":"Feature","properties":{"pid":"88809a1a-3962-4573-9ea7-9ec880ca3dac","full":8.8},"geometry":{"type":"Polygon","coordinates":[[[136.49501,36.04279],[136.49502,36.04278],[136.49504,36.04278],[136.49522,36.04241],[136.49499,36.04232],[136.49471,36.04251],[136.49466,36.04266],[136.49501,36.04279]]]}},{"type":"Feature","properties":{"pid":"77ef2803-ac1f-40dd-8843-19edc76bf719","full":9.3},"geometry":{"type":"Polygon","coordinates":[[[136.49566,36.04284],[136.49569,36.04284],[136.49568,36.04287],[136.49619,36.04305],[136.49613,36.04266],[136.49611,36.04249],[136.49599,36.04248],[136.49595,36.04263],[136.49573,36.04258],[136.49566,36.04284]]]}},{"type":"Feature","properties":{"pid":"0cc6ed94-7ebd-4fbe-ba94-939c8639375f","full":7.6},"geometry":{"type":"Polygon","coordinates":[[[136.49635,36.04303],[136.49658,36.04262],[136.49658,36.04257],[136.49654,36.04255],[136.49641,36.04256],[136.49616,36.04255],[136.49613,36.04257],[136.49619,36.04299],[136.49635,36.04303]]]}},{"type":"Feature","properties":{"pid":"4eb70f38-7114-43bd-9325-0ae76726e11a","full":1.7},"geometry":{"type":"Polygon","coordinates":[[[136.49678,36.04207],[136.49674,36.04195],[136.49671,36.0419],[136.49646,36.04189],[136.49631,36.04204],[136.49678,36.04207]]]}},{"type":"Feature","properties":{"pid":"8759558e-9682-49e1-8fb8-b5e01939876e","full":2.2},"geometry":{"type":"Polygon","coordinates":[[[136.49631,36.04204],[136.49619,36.04216],[136.4962,36.0422],[136.49678,36.0422],[136.49679,36.04215],[136.49678,36.04207],[136.49631,36.04204]]]}},{"type":"Feature","properties":{"pid":"e233431b-3e83-42f5-b389-45fb10e8e657","full":16.7},"geometry":{"type":"Polygon","coordinates":[[[136.49669,36.04282],[136.49657,36.04307],[136.49748,36.04338],[136.49751,36.04338],[136.49765,36.04315],[136.49669,36.04282]]]}},{"type":"Feature","properties":{"pid":"30100a3e-46f9-4531-b0ce-55a06a1cd0bc","full":4.5},"geometry":{"type":"Polygon","coordinates":[[[136.4962,36.04308],[136.49619,36.04306],[136.49569,36.04288],[136.49567,36.04291],[136.49564,36.04291],[136.49563,36.04297],[136.49582,36.04305],[136.49576,36.04319],[136.49612,36.04329],[136.4962,36.04308]]]}},{"type":"Feature","properties":{"pid":"4b09d73d-0953-4ad8-b330-1384ba9427db","full":18.5},"geometry":{"type":"Polygon","coordinates":[[[136.49636,36.0434],[136.49622,36.04367],[136.49713,36.04399],[136.49715,36.04398],[136.49719,36.04398],[136.49732,36.04375],[136.49636,36.0434]]]}},{"type":"Feature","properties":{"pid":"49e83a4b-200b-4005-bf06-3e480963520a","full":26.0},"geometry":{"type":"Polygon","coordinates":[[[136.49752,36.04341],[136.49654,36.04307],[136.49636,36.0434],[136.4973,36.04373],[136.49732,36.04371],[136.49734,36.04372],[136.49752,36.04341]]]}},{"type":"Feature","properties":{"pid":"dbb60039-1d11-4153-a52f-e126f8532366","full":15.6},"geometry":{"type":"Polygon","coordinates":[[[136.49623,36.04368],[136.49612,36.04394],[136.49703,36.04426],[136.49717,36.04402],[136.49623,36.04368]]]}},{"type":"Feature","properties":{"pid":"4445ccda-5b61-47c0-9d2a-4b1132032ac5","full":15.4},"geometry":{"type":"Polygon","coordinates":[[[136.49702,36.04426],[136.49612,36.04394],[136.49608,36.04407],[136.49605,36.04421],[136.49685,36.04451],[136.49686,36.04449],[136.49689,36.04449],[136.49702,36.04426]]]}},{"type":"Feature","properties":{"pid":"b6c63349-fb9e-49a5-bb22-43c74c90823b","full":14.3},"geometry":{"type":"Polygon","coordinates":[[[136.49687,36.04452],[136.49603,36.04421],[136.49598,36.0445],[136.4967,36.04476],[136.49671,36.04475],[136.49674,36.04476],[136.49687,36.04452]]]}},{"type":"Feature","properties":{"pid":"5de47693-0e74-4e80-8085-3eb151ce2190","full":18.2},"geometry":{"type":"Polygon","coordinates":[[[136.49531,36.0436],[136.4952,36.044],[136.49522,36.04401],[136.49522,36.04402],[136.49582,36.04414],[136.49587,36.04394],[136.49592,36.0438],[136.49596,36.04372],[136.49531,36.0436]]]}},{"type":"Feature","properties":{"pid":"523e4f69-6fa7-4500-b682-195850ad62a6","full":15.5},"geometry":{"type":"Polygon","coordinates":[[[136.49575,36.04451],[136.49507,36.04438],[136.49498,36.04469],[136.49501,36.0447],[136.49501,36.04473],[136.49569,36.04485],[136.4957,36.04476],[136.49575,36.04451]]]}},{"type":"Feature","properties":{"pid":"55b29027-6c6b-40c7-bfd8-ce49b96af460","full":14.9},"geometry":{"type":"Polygon","coordinates":[[[136.49583,36.04414],[136.49519,36.04403],[136.49509,36.04434],[136.49512,36.04437],[136.49575,36.0445],[136.49583,36.04414]]]}},{"type":"Feature","properties":{"pid":"0ddaadda-3f9e-4f55-a7f9-2aced01ba758","full":19.0},"geometry":{"type":"Polygon","coordinates":[[[136.49511,36.04401],[136.49429,36.04384],[136.49424,36.04409],[136.49421,36.04419],[136.49498,36.04435],[136.49501,36.04434],[136.49511,36.04401]]]}},{"type":"Feature","properties":{"pid":"359e2cd6-b316-408d-89f4-b6c48d17f8dd","full":18.9},"geometry":{"type":"Polygon","coordinates":[[[136.49523,36.04366],[136.49439,36.0435],[136.4943,36.04383],[136.49509,36.04399],[136.4951,36.04398],[136.49513,36.04398],[136.49523,36.04366]]]}},{"type":"Feature","properties":{"pid":"c628175d-e19f-4e89-afd8-48536dea1c29","full":19.7},"geometry":{"type":"Polygon","coordinates":[[[136.49533,36.04331],[136.49451,36.04314],[136.4944,36.04349],[136.49519,36.04365],[136.49519,36.04363],[136.49523,36.04363],[136.49533,36.04331]]]}},{"type":"Feature","properties":{"pid":"a8d1ce0b-c266-4d95-a47f-0d53946acfa6","full":19.6},"geometry":{"type":"Polygon","coordinates":[[[136.49558,36.04321],[136.49556,36.04323],[136.49554,36.04323],[136.49545,36.0432],[136.49543,36.04321],[136.49535,36.04347],[136.49538,36.04347],[136.49534,36.04359],[136.49596,36.04371],[136.49608,36.04348],[136.49618,36.04332],[136.49576,36.04321],[136.49574,36.04324],[136.49558,36.04321]]]}},{"type":"Feature","properties":{"pid":"33b4447a-2651-4e75-a13d-8cbcbb68db4c","full":0.8},"geometry":{"type":"Polygon","coordinates":[[[136.49557,36.04318],[136.49558,36.04319],[136.49574,36.04322],[136.49581,36.04305],[136.49563,36.04298],[136.49557,36.04318]]]}},{"type":"Feature","properties":{"pid":"1aea92c0-2ee7-4aae-ad0d-382941a43d6f","full":1.9},"geometry":{"type":"Polygon","coordinates":[[[136.49537,36.04312],[136.49548,36.04315],[136.49549,36.04311],[136.49555,36.04312],[136.49564,36.04275],[136.49551,36.04271],[136.49549,36.04272],[136.49548,36.04272],[136.49537,36.04312]]]}},{"type":"Feature","properties":{"pid":"c4919824-8578-4d6c-b8b0-737df7e0989d","full":2.2},"geometry":{"type":"Polygon","coordinates":[[[136.49531,36.0427],[136.49519,36.04303],[136.49522,36.04306],[136.49537,36.04311],[136.49547,36.04272],[136.49547,36.0427],[136.49538,36.04267],[136.49534,36.04266],[136.49532,36.0427],[136.49531,36.0427]]]}},{"type":"Feature","properties":{"pid":"f5f4fbd9-b746-41c6-8659-78b1fa107185","full":1.3},"geometry":{"type":"Polygon","coordinates":[[[136.49485,36.04301],[136.49512,36.04306],[136.49516,36.04295],[136.49515,36.04291],[136.49492,36.04282],[136.49485,36.04301]]]}},{"type":"Feature","properties":{"pid":"d3d66b0c-9ad8-4c44-8ed6-6f173d678a77","full":5.7},"geometry":{"type":"Polygon","coordinates":[[[136.49451,36.04314],[136.49529,36.0433],[136.4953,36.04327],[136.49534,36.04327],[136.49536,36.04319],[136.49534,36.04316],[136.49508,36.04307],[136.49506,36.04307],[136.49456,36.04297],[136.49451,36.04314]]]}},{"type":"Feature","properties":{"pid":"0e7a34ee-04f3-4681-bac9-c2a84f54b23b","full":0.9},"geometry":{"type":"Polygon","coordinates":[[[136.49457,36.04295],[136.49473,36.04299],[136.4948,36.04277],[136.49463,36.04271],[136.49457,36.04295]]]}},{"type":"Feature","properties":{"pid":"92bb0bd4-d8da-4358-82b3-0bddabd63b49","full":5.7},"geometry":{"type":"Polygon","coordinates":[[[136.49428,36.04315],[136.4943,36.04302],[136.49298,36.04268],[136.49298,36.0427],[136.49294,36.0427],[136.49293,36.04282],[136.49428,36.04315]]]}},{"type":"Feature","properties":{"pid":"716dbd08-71d6-48f3-8231-9ca89ad0bbd1","full":2.1},"geometry":{"type":"Polygon","coordinates":[[[136.49295,36.04294],[136.49424,36.04327],[136.49427,36.04316],[136.49293,36.04283],[136.49292,36.04291],[136.49294,36.04292],[136.49295,36.04294]]]}},{"type":"Feature","properties":{"pid":"adec2c7b-063f-48e7-876a-26b2dac7cc10","full":14.7},"geometry":{"type":"Polygon","coordinates":[[[136.49379,36.04344],[136.49388,36.04319],[136.49292,36.04295],[136.4929,36.04319],[136.49293,36.0432],[136.49292,36.04323],[136.49379,36.04344]]]}},{"type":"Feature","properties":{"pid":"7ebdf166-a985-4dda-8fa3-0d7332a847cc","full":19.1},"geometry":{"type":"Polygon","coordinates":[[[136.49405,36.04379],[136.49413,36.04354],[136.49294,36.04324],[136.49293,36.04326],[136.4929,36.04326],[136.4929,36.0435],[136.49405,36.04379]]]}},{"type":"Feature","properties":{"pid":"64659717-b667-41fa-ae75-4848f9c1b821","full":8.3},"geometry":{"type":"Polygon","coordinates":[[[136.495,36.04438],[136.49498,36.04438],[136.49498,36.04436],[136.49419,36.0442],[136.49413,36.04437],[136.49493,36.04458],[136.495,36.04438]]]}},{"type":"Feature","properties":{"pid":"44008172-b2eb-4981-b548-cfc9e2281839","full":19.0},"geometry":{"type":"Polygon","coordinates":[[[136.49299,36.04382],[136.49302,36.04388],[136.49302,36.0439],[136.49301,36.04392],[136.4932,36.04418],[136.49332,36.04426],[136.49381,36.04445],[136.49394,36.04405],[136.49299,36.04382]]]}},{"type":"Feature","properties":{"pid":"6de1674a-cb8c-47b1-a1cd-effb0e7c4f17","full":17.3},"geometry":{"type":"Polygon","coordinates":[[[136.49294,36.04377],[136.493,36.04379],[136.49301,36.04381],[136.49394,36.04404],[136.49404,36.0438],[136.4929,36.04351],[136.49289,36.04361],[136.4929,36.04367],[136.49294,36.04377]]]}},{"type":"Feature","properties":{"pid":"89b582ff-e311-4fa1-97b4-9f389aa83926","full":14.5},"geometry":{"type":"Polygon","coordinates":[[[136.49179,36.0431],[136.49188,36.0432],[136.492,36.04331],[136.49253,36.04266],[136.4925,36.04264],[136.49254,36.0426],[136.49229,36.04248],[136.49179,36.0431]]]}},{"type":"Feature","properties":{"pid":"5fdc08cd-95be-4f08-bee2-44903fcb8247","full":13.1},"geometry":{"type":"Polygon","coordinates":[[[136.49206,36.04227],[136.49229,36.0424],[136.49231,36.04239],[136.49232,36.0424],[136.49279,36.04182],[136.49274,36.04173],[136.49261,36.04159],[136.49206,36.04227]]]}},{"type":"Feature","properties":{"pid":"c2b1d880-ffd9-4339-bb2f-7339fd77d9b5","full":11.2},"geometry":{"type":"Polygon","coordinates":[[[136.49233,36.04241],[136.49275,36.04263],[136.49276,36.04262],[136.49277,36.04261],[136.49276,36.04258],[136.49278,36.04255],[136.4928,36.04254],[136.49285,36.04205],[136.49285,36.04199],[136.4928,36.04184],[136.49233,36.04241]]]}},{"type":"Feature","properties":{"pid":"0ed5328e-9c61-4a80-957b-1e394fddeee1","full":8.0},"geometry":{"type":"Polygon","coordinates":[[[136.49304,36.04231],[136.49318,36.04237],[136.49321,36.04237],[136.49333,36.04227],[136.49361,36.04213],[136.4931,36.04185],[136.49304,36.04231]]]}},{"type":"Feature","properties":{"pid":"b82aba12-1eec-4831-9082-6d61709cf1fa","full":22.8},"geometry":{"type":"Polygon","coordinates":[[[136.49432,36.04301],[136.49439,36.04276],[136.49323,36.04246],[136.49302,36.04238],[136.49298,36.04242],[136.49295,36.04266],[136.49432,36.04301]]]}},{"type":"Feature","properties":{"pid":"60726cf0-505c-494e-a138-83174059202f","full":4.3},"geometry":{"type":"Polygon","coordinates":[[[136.49441,36.04275],[136.49441,36.04269],[136.49447,36.04264],[136.49408,36.04242],[136.49378,36.04259],[136.49441,36.04275]]]}},{"type":"Feature","properties":{"pid":"a82fa196-289f-4aae-b11b-6dcebe575292","full":6.0},"geometry":{"type":"Polygon","coordinates":[[[136.49393,36.04222],[136.49395,36.04223],[136.49394,36.04225],[136.49409,36.04234],[136.49416,36.04226],[136.4942,36.04229],[136.49428,36.04213],[136.49432,36.0421],[136.49443,36.04184],[136.49426,36.04178],[136.49393,36.04222]]]}},{"type":"Feature","properties":{"pid":"e3c46b4c-cbc0-4b28-87d3-871498353f85","full":10.7},"geometry":{"type":"Polygon","coordinates":[[[136.49377,36.04259],[136.49407,36.04241],[136.49369,36.04218],[136.49364,36.04218],[136.4934,36.04231],[136.49333,36.04235],[136.49321,36.04245],[136.49377,36.04259]]]}},{"type":"Feature","properties":{"pid":"790d18ab-c0d5-4610-967d-d68e6bf72dc3","full":13.6},"geometry":{"type":"Polygon","coordinates":[[[136.49337,36.04189],[136.49357,36.04202],[136.49359,36.04201],[136.49361,36.04202],[136.49416,36.04129],[136.49407,36.04125],[136.49406,36.04123],[136.49393,36.04115],[136.49337,36.04189]]]}},{"type":"Feature","properties":{"pid":"4653ca49-58cf-4d23-b7f3-cfebc0f4b11d","full":19.6},"geometry":{"type":"Polygon","coordinates":[[[136.49361,36.04205],[136.49385,36.04219],[136.49387,36.04219],[136.49389,36.04221],[136.4939,36.04222],[136.49425,36.04176],[136.49446,36.04143],[136.49445,36.0414],[136.49437,36.04137],[136.49423,36.04129],[136.4942,36.04129],[136.49361,36.04205]]]}},{"type":"Feature","properties":{"pid":"aeb129a4-7786-49eb-80a6-d2fa2c9424a0","full":0.7},"geometry":{"type":"Polygon","coordinates":[[[136.49448,36.04198],[136.49452,36.04199],[136.49454,36.04198],[136.49468,36.042],[136.49473,36.04186],[136.49453,36.0418],[136.49448,36.04198]]]}},{"type":"Feature","properties":{"pid":"36eb761f-ce98-44d6-8e2f-32133befa873","full":3.3},"geometry":{"type":"Polygon","coordinates":[[[136.49323,36.04182],[136.49331,36.04187],[136.49332,36.04185],[136.49337,36.04187],[136.49392,36.04115],[136.49379,36.04108],[136.49323,36.04182]]]}},{"type":"Feature","properties":{"pid":"0446cfa0-57b3-4533-875f-331d59e45600","full":5.1},"geometry":{"type":"Polygon","coordinates":[[[136.49307,36.04172],[136.49318,36.04179],[136.4932,36.04178],[136.49323,36.04179],[136.49378,36.04108],[136.49364,36.041],[136.49307,36.04172]]]}},{"type":"Feature","properties":{"pid":"2b95e660-8d5e-481b-923f-f15434cb0db0","full":15.1},"geometry":{"type":"Polygon","coordinates":[[[136.49283,36.04152],[136.49292,36.04162],[136.49302,36.04169],[136.49304,36.04168],[136.49308,36.04169],[136.49362,36.041],[136.49334,36.04087],[136.49283,36.04152]]]}},{"type":"Feature","properties":{"pid":"904c3725-f724-4a7b-8fdf-89a45aff3961","full":20.7},"geometry":{"type":"Polygon","coordinates":[[[136.49278,36.04148],[136.49281,36.04147],[136.49284,36.04149],[136.49332,36.04086],[136.49295,36.04066],[136.49251,36.04124],[136.4927,36.04138],[136.49278,36.04148]]]}},{"type":"Feature","properties":{"pid":"d9206a9a-6f4c-4677-8d04-f5d639d0068e","full":15.9},"geometry":{"type":"Polygon","coordinates":[[[136.49201,36.04226],[136.49202,36.04225],[136.49204,36.04227],[136.49261,36.04158],[136.49238,36.04138],[136.49179,36.04213],[136.49201,36.04226]]]}},{"type":"Feature","properties":{"pid":"d9b186fa-da9a-42a3-b025-4cac4eddba53","full":16.6},"geometry":{"type":"Polygon","coordinates":[[[136.49038,36.04139],[136.49065,36.04153],[136.49126,36.04077],[136.491,36.04064],[136.49038,36.04139]]]}},{"type":"Feature","properties":{"pid":"bddd16bb-e263-4e11-9aed-1cf5ec648df9","full":16.4},"geometry":{"type":"Polygon","coordinates":[[[136.49066,36.04153],[136.49093,36.04167],[136.49154,36.04092],[136.49127,36.04078],[136.49066,36.04153]]]}},{"type":"Feature","properties":{"pid":"4d89ec69-7a7e-4d18-bcc6-2a6e839458e5","full":15.3},"geometry":{"type":"Polygon","coordinates":[[[136.49096,36.04169],[136.49121,36.04182],[136.49181,36.04108],[136.49158,36.04093],[136.49096,36.04169]]]}},{"type":"Feature","properties":{"pid":"e0090871-c03f-4e4f-a87b-30bddfcb9252","full":16.6},"geometry":{"type":"Polygon","coordinates":[[[136.4915,36.04197],[136.4921,36.04122],[136.49183,36.04109],[136.49123,36.04183],[136.4915,36.04197]]]}},{"type":"Feature","properties":{"pid":"72cb273a-12ca-4c9e-97fb-76b9065c7ac7","full":15.9},"geometry":{"type":"Polygon","coordinates":[[[136.49151,36.04198],[136.49177,36.04211],[136.49236,36.04138],[136.49212,36.04122],[136.49151,36.04198]]]}},{"type":"Feature","properties":{"pid":"9cf3b566-2ca0-4e93-8cdf-3ce19ccf6691","full":12.0},"geometry":{"type":"Polygon","coordinates":[[[136.49155,36.04291],[136.49174,36.043],[136.49175,36.04302],[136.49174,36.04304],[136.49178,36.04308],[136.49228,36.04247],[136.49201,36.04233],[136.49155,36.04291]]]}},{"type":"Feature","properties":{"pid":"9eb10130-3cd7-45e6-9e8a-3f06ff7e8e29","full":12.7},"geometry":{"type":"Polygon","coordinates":[[[136.49154,36.04291],[136.49199,36.04235],[136.49197,36.04233],[136.49199,36.04231],[136.49174,36.04218],[136.49127,36.04276],[136.49154,36.04291]]]}},{"type":"Feature","properties":{"pid":"dd462772-154b-4c9c-8848-0d431a41bf0f","full":13.6},"geometry":{"type":"Polygon","coordinates":[[[136.49146,36.04204],[136.49089,36.04274],[136.49093,36.04276],[136.49111,36.04276],[136.49125,36.04275],[136.49173,36.04217],[136.49146,36.04204]]]}},{"type":"Feature","properties":{"pid":"7b074c54-c250-44d5-b7ba-b83e3085a2bc","full":14.8},"geometry":{"type":"Polygon","coordinates":[[[136.49118,36.04189],[136.49058,36.04265],[136.49088,36.04272],[136.49111,36.04243],[136.49144,36.04203],[136.49118,36.04189]]]}},{"type":"Feature","properties":{"pid":"1562518e-8fb4-4695-96b3-648acbc6a90e","full":17.2},"geometry":{"type":"Polygon","coordinates":[[[136.49062,36.04162],[136.4901,36.04224],[136.49004,36.04234],[136.49029,36.04249],[136.49089,36.04176],[136.49087,36.04174],[136.49089,36.04172],[136.49067,36.04161],[136.49064,36.04163],[136.49062,36.04162]]]}},{"type":"Feature","properties":{"pid":"ec47a91a-7573-4cf3-9fe1-3485d5986175","full":15.9},"geometry":{"type":"Polygon","coordinates":[[[136.49091,36.04175],[136.4903,36.0425],[136.49053,36.04267],[136.49116,36.04188],[136.49091,36.04175]]]}},{"type":"Feature","properties":{"pid":"f8c3c2ad-b3de-4c76-9c28-acf5f1d87590","full":9.7},"geometry":{"type":"Polygon","coordinates":[[[136.48976,36.04255],[136.48981,36.04255],[136.48992,36.04257],[136.49,36.04256],[136.49006,36.04253],[136.49011,36.04249],[136.48908,36.04192],[136.48906,36.04194],[136.48912,36.04219],[136.4892,36.04226],[136.48945,36.04232],[136.48957,36.04239],[136.4897,36.04249],[136.48976,36.04255]]]}},{"type":"Feature","properties":{"pid":"ab7693c5-4ec4-4d73-b1d6-e92f8c6c13eb","full":18.0},"geometry":{"type":"Polygon","coordinates":[[[136.48917,36.0419],[136.48945,36.04204],[136.49005,36.0413],[136.49005,36.04128],[136.48978,36.04115],[136.48917,36.0419]]]}},{"type":"Feature","properties":{"pid":"aeee1968-81aa-46d2-b1f4-02a5a9e13ffd","full":17.0},"geometry":{"type":"Polygon","coordinates":[[[136.48947,36.04205],[136.48971,36.04218],[136.48973,36.04217],[136.48975,36.04218],[136.49033,36.04144],[136.49007,36.0413],[136.48947,36.04205]]]}},{"type":"Feature","properties":{"pid":"f3542bb0-29eb-4e93-9b9d-cfda15238a2d","full":17.6},"geometry":{"type":"Polygon","coordinates":[[[136.49034,36.04144],[136.48975,36.04219],[136.49002,36.04233],[136.49061,36.04161],[136.49062,36.04159],[136.49034,36.04144]]]}},{"type":"Feature","properties":{"pid":"a83aaaea-ac7e-4a88-92e3-2940711440fb","full":10.3},"geometry":{"type":"Polygon","coordinates":[[[136.48877,36.04134],[136.48901,36.04149],[136.48941,36.04101],[136.48939,36.04099],[136.4894,36.04097],[136.48943,36.04096],[136.48943,36.04095],[136.48919,36.04083],[136.48877,36.04134]]]}},{"type":"Feature","properties":{"pid":"210a0090-aeaf-4397-b94a-38116ec99633","full":7.1},"geometry":{"type":"Polygon","coordinates":[[[136.48914,36.04161],[136.48909,36.04176],[136.4891,36.04182],[136.48912,36.04186],[136.48916,36.0419],[136.48977,36.04114],[136.48976,36.04112],[136.4896,36.04105],[136.48914,36.04161]]]}},{"type":"Feature","properties":{"pid":"e542efe9-9c82-4418-b263-5a2488a3c239","full":3.2},"geometry":{"type":"Polygon","coordinates":[[[136.49222,36.0468],[136.49219,36.04654],[136.49188,36.04658],[136.49191,36.04682],[136.49222,36.0468]]]}},{"type":"Feature","properties":{"pid":"c820f4bd-0571-4b1f-88ec-aa282f6bdbef","full":28.3},"geometry":{"type":"Polygon","coordinates":[[[136.49202,36.04777],[136.49192,36.04688],[136.49176,36.04689],[136.49167,36.04688],[136.49163,36.04697],[136.49152,36.04715],[136.4915,36.04721],[136.49149,36.04727],[136.49148,36.04734],[136.49148,36.04758],[136.49145,36.04779],[136.49147,36.04781],[136.49202,36.04777]]]}},{"type":"Feature","properties":{"pid":"024b6fbb-66dd-4b1f-b9af-452786c66f88","full":11.5},"geometry":{"type":"Polygon","coordinates":[[[136.49084,36.04839],[136.49096,36.04829],[136.49129,36.04793],[136.49135,36.04789],[136.49106,36.04781],[136.49102,36.04782],[136.49085,36.04797],[136.49056,36.04818],[136.49084,36.04839]]]}},{"type":"Feature","properties":{"pid":"03c347a3-8d14-4e32-a1c4-7513564dedb5","full":17.1},"geometry":{"type":"Polygon","coordinates":[[[136.49236,36.04775],[136.49224,36.04685],[136.49193,36.04687],[136.49203,36.04775],[136.49206,36.04775],[136.49206,36.04777],[136.49236,36.04775]]]}},{"type":"Feature","properties":{"pid":"fc22ad1d-7fe9-4fbf-b00a-590b47ac4827","full":17.1},"geometry":{"type":"Polygon","coordinates":[[[136.49267,36.04773],[136.49266,36.0477],[136.49268,36.0477],[136.49258,36.04682],[136.49226,36.04685],[136.49237,36.04775],[136.49267,36.04773]]]}},{"type":"Feature","properties":{"pid":"27e793e1-5de7-4b5d-9be3-4677ada0c6f8","full":12.8},"geometry":{"type":"Polygon","coordinates":[[[136.49449,36.04837],[136.49459,36.0482],[136.49457,36.04816],[136.49354,36.04794],[136.49349,36.04794],[136.49341,36.048],[136.49338,36.048],[136.49335,36.0481],[136.49449,36.04837]]]}},{"type":"Feature","properties":{"pid":"ae6a3ccc-c0cf-40a2-a276-bf854173e45a","full":30.0},"geometry":{"type":"Polygon","coordinates":[[[136.49489,36.04766],[136.49392,36.04739],[136.49391,36.04742],[136.49396,36.04759],[136.49397,36.04774],[136.49393,36.04793],[136.49466,36.0481],[136.4947,36.04803],[136.49489,36.04766]]]}},{"type":"Feature","properties":{"pid":"76da1c38-f3ea-40a3-8c8c-5d6c55e1b355","full":14.7},"geometry":{"type":"Polygon","coordinates":[[[136.49501,36.04742],[136.49402,36.04715],[136.49394,36.04736],[136.49396,36.04736],[136.49397,36.0474],[136.49489,36.04765],[136.49501,36.04742]]]}},{"type":"Feature","properties":{"pid":"c4b4cb4d-7b15-4a87-a52b-a2263df4260e","full":18.2},"geometry":{"type":"Polygon","coordinates":[[[136.49338,36.0468],[136.49338,36.04693],[136.49348,36.04746],[136.49382,36.04741],[136.49382,36.04739],[136.49385,36.04737],[136.49401,36.04696],[136.49338,36.0468]]]}},{"type":"Feature","properties":{"pid":"0c89ded5-b5d1-44ea-a8cd-cdc3660a40cc","full":15.5},"geometry":{"type":"Polygon","coordinates":[[[136.49404,36.04714],[136.49502,36.04741],[136.49515,36.04717],[136.49416,36.04691],[136.49414,36.04693],[136.49411,36.04692],[136.49404,36.04714]]]}},{"type":"Feature","properties":{"pid":"b7af4dc2-2757-493f-93bd-00c6586bf4ed","full":15.8},"geometry":{"type":"Polygon","coordinates":[[[136.49337,36.04679],[136.49402,36.04695],[136.49414,36.04662],[136.49339,36.04643],[136.49337,36.04665],[136.49337,36.04679]]]}},{"type":"Feature","properties":{"pid":"c8f8cad7-1b36-470c-96fa-ccfeb47c8839","full":29.3},"geometry":{"type":"Polygon","coordinates":[[[136.49273,36.04772],[136.49301,36.0477],[136.49307,36.04737],[136.49314,36.0473],[136.49321,36.04727],[136.49316,36.047],[136.49313,36.04678],[136.49259,36.04682],[136.4927,36.0477],[136.49272,36.0477],[136.49273,36.04772]]]}},{"type":"Feature","properties":{"pid":"9030ef3c-0850-4e85-9858-030c3e633866","full":16.4},"geometry":{"type":"Polygon","coordinates":[[[136.49243,36.0459],[136.49243,36.04587],[136.49232,36.04588],[136.49213,36.04622],[136.49216,36.04622],[136.49223,36.0468],[136.49257,36.04677],[136.49246,36.0459],[136.49243,36.0459]]]}},{"type":"Feature","properties":{"pid":"0c4e5e44-1dde-4f95-9801-7a7d04f46c21","full":16.4},"geometry":{"type":"Polygon","coordinates":[[[136.49276,36.04585],[136.49247,36.04587],[136.49258,36.04677],[136.49289,36.04675],[136.49279,36.04587],[136.49277,36.04588],[136.49276,36.04585]]]}},{"type":"Feature","properties":{"pid":"b6de4191-d77a-4793-8ef7-e7c00db9edb4","full":20.2},"geometry":{"type":"Polygon","coordinates":[[[136.49291,36.04674],[136.49314,36.04673],[136.49316,36.04652],[136.49322,36.04622],[136.49333,36.04587],[136.49332,36.04584],[136.49321,36.04581],[136.49283,36.04585],[136.49283,36.04587],[136.49281,36.04587],[136.49291,36.04674]]]}},{"type":"Feature","properties":{"pid":"938d0169-9c3d-406b-835e-10816fe18588","full":20.5},"geometry":{"type":"Polygon","coordinates":[[[136.49269,36.04528],[136.49263,36.04535],[136.49251,36.04555],[136.49237,36.0458],[136.49238,36.04581],[136.49319,36.04575],[136.49319,36.04573],[136.49322,36.04573],[136.49315,36.0454],[136.49274,36.04526],[136.49269,36.04528]]]}},{"type":"Feature","properties":{"pid":"68993c26-333f-4d12-8d64-3a84b59fade5","full":12.5},"geometry":{"type":"Polygon","coordinates":[[[136.49332,36.04503],[136.49341,36.04483],[136.49339,36.04482],[136.49355,36.04454],[136.49325,36.04443],[136.49314,36.04446],[136.49304,36.04468],[136.49296,36.0449],[136.49332,36.04503]]]}},{"type":"Feature","properties":{"pid":"e1838e91-5445-473d-9a8d-8fb5e0752a27","full":8.1},"geometry":{"type":"Polygon","coordinates":[[[136.49316,36.04539],[136.49327,36.04507],[136.49328,36.04503],[136.49296,36.04491],[136.49289,36.04503],[136.49273,36.04524],[136.49316,36.04539]]]}},{"type":"Feature","properties":{"pid":"02e98f2f-002d-4b88-b282-dad33e237429","full":16.3},"geometry":{"type":"Polygon","coordinates":[[[136.49383,36.045],[136.49472,36.04523],[136.49478,36.04505],[136.49473,36.04502],[136.49472,36.04499],[136.49394,36.04464],[136.49391,36.04472],[136.49393,36.04473],[136.49386,36.04488],[136.49383,36.045]]]}},{"type":"Feature","properties":{"pid":"264a22e9-9a61-4d23-b3b9-8c54211480d4","full":8.5},"geometry":{"type":"Polygon","coordinates":[[[136.49493,36.04459],[136.49413,36.04438],[136.49408,36.0445],[136.49485,36.04487],[136.49493,36.04459]]]}},{"type":"Feature","properties":{"pid":"e7baccdd-9738-437e-ae6e-5314b62dc5c4","full":21.0},"geometry":{"type":"Polygon","coordinates":[[[136.49383,36.04501],[136.49381,36.0451],[136.49375,36.04537],[136.49457,36.04559],[136.4947,36.04525],[136.49383,36.04501]]]}},{"type":"Feature","properties":{"pid":"3a6a5b8a-60fb-44d1-984b-acb4d5d21e29","full":19.9},"geometry":{"type":"Polygon","coordinates":[[[136.49361,36.04571],[136.49443,36.04593],[136.49457,36.0456],[136.49374,36.04538],[136.49361,36.04571]]]}},{"type":"Feature","properties":{"pid":"05232e1b-7772-4800-b409-8c629a70cbad","full":19.4},"geometry":{"type":"Polygon","coordinates":[[[136.49349,36.04606],[136.4943,36.04627],[136.49442,36.04595],[136.4936,36.04572],[136.49349,36.04601],[136.49349,36.04606]]]}},{"type":"Feature","properties":{"pid":"ad09f54e-4164-4add-8d40-9d42aab4c51a","full":18.7},"geometry":{"type":"Polygon","coordinates":[[[136.4934,36.04642],[136.49415,36.04662],[136.49429,36.04628],[136.49348,36.04607],[136.4934,36.04642]]]}},{"type":"Feature","properties":{"pid":"d49632b0-22cf-4666-949d-1d05471eb095","full":17.9},"geometry":{"type":"Polygon","coordinates":[[[136.49556,36.04642],[136.49561,36.04621],[136.49561,36.04616],[136.49455,36.04588],[136.49445,36.04608],[136.49448,36.04608],[136.49447,36.04613],[136.49556,36.04642]]]}},{"type":"Feature","properties":{"pid":"31712993-d6c1-41bf-bbca-c743ac921162","full":12.3},"geometry":{"type":"Polygon","coordinates":[[[136.49476,36.04536],[136.49467,36.04557],[136.4947,36.04558],[136.49471,36.04562],[136.49556,36.04585],[136.49552,36.04569],[136.49547,36.04556],[136.49476,36.04536]]]}},{"type":"Feature","properties":{"pid":"1d59f49d-5b90-4da5-b9b0-f8a94c36fcbe","full":15.6},"geometry":{"type":"Polygon","coordinates":[[[136.49561,36.04615],[136.49561,36.0461],[136.49557,36.04587],[136.49464,36.04562],[136.49456,36.04583],[136.49459,36.04584],[136.49458,36.04587],[136.49561,36.04615]]]}},{"type":"Feature","properties":{"pid":"6f8046fe-bf9f-48dc-b504-177ccfcd6183","full":8.7},"geometry":{"type":"Polygon","coordinates":[[[136.49548,36.04555],[136.4955,36.04552],[136.49545,36.04542],[136.49538,36.04533],[136.49514,36.04519],[136.49488,36.04507],[136.49486,36.04507],[136.49475,36.04535],[136.49548,36.04555]]]}},{"type":"Feature","properties":{"pid":"0df09106-0bc0-497d-b89f-2f8bcdba4ace","full":12.0},"geometry":{"type":"Polygon","coordinates":[[[136.4957,36.04486],[136.49498,36.04473],[136.49493,36.04491],[136.49563,36.04524],[136.4957,36.04486]]]}},{"type":"Feature","properties":{"pid":"3ea61897-9366-4a5a-b265-6da6cb324c64","full":12.8},"geometry":{"type":"Polygon","coordinates":[[[136.4959,36.04514],[136.4959,36.04521],[136.49591,36.04527],[136.49585,36.04562],[136.49617,36.04578],[136.49642,36.04534],[136.4959,36.04514]]]}},{"type":"Feature","properties":{"pid":"0b662f74-37b4-438a-800d-13e48e7dd2b8","full":5.1},"geometry":{"type":"Polygon","coordinates":[[[136.49599,36.04451],[136.49596,36.04468],[136.49664,36.04494],[136.49673,36.04478],[136.49599,36.04451]]]}},{"type":"Feature","properties":{"pid":"241889db-9d2b-4327-b30c-1ef3f1b300c7","full":16.3},"geometry":{"type":"Polygon","coordinates":[[[136.49591,36.04513],[136.49638,36.04531],[136.49643,36.04531],[136.49662,36.04496],[136.49597,36.04472],[136.49591,36.04513]]]}},{"type":"Feature","properties":{"pid":"801652cc-fee9-4d45-adbd-35d87f31e26a","full":1.7},"geometry":{"type":"Polygon","coordinates":[[[136.49613,36.04584],[136.49603,36.04579],[136.49586,36.04582],[136.4959,36.04617],[136.49594,36.04621],[136.49613,36.04584]]]}},{"type":"Feature","properties":{"pid":"8a7eb629-1166-4181-bf4d-faea5fd61c44","full":17.6},"geometry":{"type":"Polygon","coordinates":[[[136.49542,36.04667],[136.49555,36.04642],[136.49445,36.04613],[136.49437,36.04633],[136.49439,36.04634],[136.49437,36.04639],[136.49542,36.04667]]]}},{"type":"Feature","properties":{"pid":"a514fc28-cd47-49ed-986d-073c8fd79487","full":17.5},"geometry":{"type":"Polygon","coordinates":[[[136.49527,36.04691],[136.49538,36.04675],[136.49541,36.04667],[136.49433,36.04639],[136.49423,36.04664],[136.49527,36.04691]]]}},{"type":"Feature","properties":{"pid":"61dc8564-2933-4bf5-9f45-4104e7ae98d1","full":16.8},"geometry":{"type":"Polygon","coordinates":[[[136.49515,36.04716],[136.49527,36.04692],[136.49422,36.04664],[136.49413,36.04689],[136.49515,36.04716]]]}},{"type":"Feature","properties":{"pid":"6aed53a3-107c-4032-baac-73cbd7af783c","full":11.8},"geometry":{"type":"Polygon","coordinates":[[[136.49813,36.04435],[136.49725,36.04402],[136.49714,36.04421],[136.49715,36.04424],[136.49801,36.04455],[136.49813,36.04435]]]}},{"type":"Feature","properties":{"pid":"ee910ecf-e869-415a-b3b1-9191b0da4469","full":20.5},"geometry":{"type":"Polygon","coordinates":[[[136.4983,36.04404],[136.49743,36.04372],[136.49727,36.04399],[136.49728,36.04401],[136.49728,36.04403],[136.49813,36.04434],[136.4983,36.04404]]]}},{"type":"Feature","properties":{"pid":"dd2c554c-3c0b-4b0e-adf2-3384f0b1d5e2","full":34.9},"geometry":{"type":"Polygon","coordinates":[[[136.49854,36.04356],[136.49769,36.04325],[136.49745,36.04368],[136.49747,36.0437],[136.49746,36.04372],[136.49831,36.04403],[136.49849,36.0437],[136.49854,36.04356]]]}},{"type":"Feature","properties":{"pid":"5ba09fa4-8403-4241-9ca3-a4a4a29bcc28","full":18.5},"geometry":{"type":"Polygon","coordinates":[[[136.49864,36.04323],[136.49787,36.04294],[136.49771,36.04321],[136.49774,36.04323],[136.49772,36.04325],[136.49855,36.04355],[136.49864,36.04323]]]}},{"type":"Feature","properties":{"pid":"2cc357ca-9e5a-4d8f-9082-48504df01f19","full":7.2},"geometry":{"type":"Polygon","coordinates":[[[136.49789,36.04291],[136.49791,36.04292],[136.49791,36.04295],[136.49863,36.04321],[136.4987,36.04306],[136.498,36.04273],[136.49789,36.04291]]]}},{"type":"Feature","properties":{"pid":"6155e280-72f6-4d79-9f3d-1ad6272dc21a","full":18.1},"geometry":{"type":"Polygon","coordinates":[[[136.49706,36.04263],[136.49683,36.04256],[136.4967,36.04281],[136.49762,36.04313],[136.49765,36.04311],[136.49766,36.04312],[136.4978,36.04288],[136.49706,36.04263]]]}},{"type":"Feature","properties":{"pid":"6dbffa22-53ef-4db0-a2c9-c97e8221541d","full":9.5},"geometry":{"type":"Polygon","coordinates":[[[136.49706,36.04262],[136.4978,36.04287],[136.49781,36.04285],[136.49782,36.04286],[136.49791,36.04269],[136.49718,36.04239],[136.49706,36.04262]]]}},{"type":"Feature","properties":{"pid":"7eb3b55a-b304-471e-a699-4bc3df43c088","full":3.5},"geometry":{"type":"Polygon","coordinates":[[[136.49732,36.0419],[136.49818,36.0422],[136.49825,36.04208],[136.49745,36.0418],[136.49732,36.0419]]]}},{"type":"Feature","properties":{"pid":"2da89fca-a803-4ff1-b83a-cfc79cc41b29","full":4.2},"geometry":{"type":"Polygon","coordinates":[[[136.4972,36.04201],[136.4981,36.04234],[136.49818,36.0422],[136.49731,36.04191],[136.4972,36.04201]]]}},{"type":"Feature","properties":{"pid":"c4b4da0f-d3d7-4998-85f0-2f7e8832e754","full":14.4},"geometry":{"type":"Polygon","coordinates":[[[136.49719,36.04201],[136.49713,36.04209],[136.49707,36.0422],[136.49706,36.04225],[136.49733,36.04233],[136.49796,36.04259],[136.4981,36.04235],[136.49719,36.04201]]]}},{"type":"Feature","properties":{"pid":"11af006d-9e60-4fba-919c-1ca70b891de0","full":8.0},"geometry":{"type":"Polygon","coordinates":[[[136.49891,36.04271],[136.49815,36.04244],[136.49806,36.0426],[136.49809,36.0426],[136.49809,36.04263],[136.4983,36.04272],[136.49878,36.04288],[136.49882,36.04286],[136.49891,36.04271]]]}},{"type":"Feature","properties":{"pid":"480389c5-1169-48be-8264-dc8302936b1e","full":13.9},"geometry":{"type":"Polygon","coordinates":[[[136.49816,36.04241],[136.49819,36.04242],[136.49818,36.04244],[136.49891,36.04271],[136.49906,36.04247],[136.49906,36.04245],[136.4983,36.04217],[136.49816,36.04241]]]}},{"type":"Feature","properties":{"pid":"e1549791-6571-40e2-886d-ed9dc2cd2539","full":8.1},"geometry":{"type":"Polygon","coordinates":[[[136.4987,36.04148],[136.49859,36.04166],[136.49861,36.04166],[136.49861,36.04169],[136.49928,36.04193],[136.49934,36.04171],[136.4987,36.04148]]]}},{"type":"Feature","properties":{"pid":"92a9da31-a7c5-431a-952f-0e17314042c5","full":7.8},"geometry":{"type":"Polygon","coordinates":[[[136.4995,36.04122],[136.49899,36.04102],[136.49895,36.04103],[136.49884,36.04123],[136.49942,36.04145],[136.4995,36.04122]]]}},{"type":"Feature","properties":{"pid":"f8c1e2d2-92ed-4ec0-9422-341419bcfe57","full":8.3},"geometry":{"type":"Polygon","coordinates":[[[136.49935,36.0417],[136.49942,36.04147],[136.49883,36.04125],[136.49871,36.04145],[136.49875,36.04146],[136.49874,36.04148],[136.49935,36.0417]]]}},{"type":"Feature","properties":{"pid":"234c38e8-58b7-4a77-8ff9-54c9adc60ff5","full":9.1},"geometry":{"type":"Polygon","coordinates":[[[136.4975,36.0414],[136.49759,36.04161],[136.4979,36.04138],[136.49824,36.04108],[136.49822,36.04107],[136.49794,36.041],[136.4975,36.0414]]]}},{"type":"Feature","properties":{"pid":"6664f989-b260-4481-a57e-0dc221e8d9b3","full":13.1},"geometry":{"type":"Polygon","coordinates":[[[136.49796,36.04139],[136.49853,36.04159],[136.49872,36.04125],[136.49871,36.04123],[136.4983,36.04108],[136.49796,36.04139]]]}},{"type":"Feature","properties":{"pid":"39e20cbd-80c9-4832-9d5a-36c52d2f10ca","full":4.3},"geometry":{"type":"Polygon","coordinates":[[[136.49758,36.0417],[136.49831,36.04195],[136.49834,36.04193],[136.49841,36.04181],[136.49771,36.04158],[136.49758,36.0417]]]}},{"type":"Feature","properties":{"pid":"180e00ac-e607-42c5-8c60-b022f1378f0f","full":2.2},"geometry":{"type":"Polygon","coordinates":[[[136.49746,36.04179],[136.49825,36.04207],[136.49832,36.04196],[136.49758,36.04171],[136.49746,36.04179]]]}},{"type":"Feature","properties":{"pid":"e316527f-edaf-4b2e-9ca9-312ebfd0ff02","full":7.2},"geometry":{"type":"Polygon","coordinates":[[[136.49795,36.0414],[136.49774,36.04157],[136.49838,36.04179],[136.49839,36.04177],[136.49841,36.04178],[136.49852,36.0416],[136.49795,36.0414]]]}},{"type":"Feature","properties":{"pid":"65a1bc5a-5120-4945-be5c-e4394f760335","full":2.8},"geometry":{"type":"Polygon","coordinates":[[[136.49737,36.04181],[136.49754,36.04168],[136.49744,36.04144],[136.4972,36.0415],[136.49734,36.0418],[136.49736,36.0418],[136.49737,36.04181]]]}},{"type":"Feature","properties":{"pid":"69258108-a299-4bdd-a2fe-f3fdb44a52e1","full":1.4},"geometry":{"type":"Polygon","coordinates":[[[136.49792,36.04098],[136.49776,36.04095],[136.49744,36.04125],[136.49744,36.04127],[136.49749,36.04139],[136.49792,36.04098]]]}},{"type":"Feature","properties":{"pid":"0fae6d06-1756-45d9-a03a-423797e6635a","full":2.4},"geometry":{"type":"Polygon","coordinates":[[[136.49775,36.04094],[136.49753,36.04088],[136.49734,36.04105],[136.49742,36.04125],[136.49775,36.04094]]]}},{"type":"Feature","properties":{"pid":"ecea1514-b47c-48b2-814d-69e43973a990","full":1.2},"geometry":{"type":"Polygon","coordinates":[[[136.49806,36.04079],[136.49796,36.04093],[136.49797,36.04095],[136.49831,36.04102],[136.49833,36.04098],[136.49838,36.04094],[136.49806,36.04079]]]}},{"type":"Feature","properties":{"pid":"9ed4a315-b3f4-4235-a044-d4955c574112","full":3.7},"geometry":{"type":"Polygon","coordinates":[[[136.49806,36.04078],[136.49839,36.04093],[136.49858,36.04077],[136.49819,36.04059],[136.49806,36.04078]]]}},{"type":"Feature","properties":{"pid":"a5fa22df-bfba-4e97-bf40-c3c05f3e6e57","full":4.4},"geometry":{"type":"Polygon","coordinates":[[[136.49821,36.0406],[136.49859,36.04077],[136.49877,36.04062],[136.49833,36.0404],[136.49821,36.04057],[136.49823,36.04058],[136.49821,36.0406]]]}},{"type":"Feature","properties":{"pid":"2de9a963-e833-4c3f-b85b-515f2a43c13f","full":0.8},"geometry":{"type":"Polygon","coordinates":[[[136.49893,36.04053],[136.49889,36.04057],[136.4988,36.04066],[136.49898,36.04072],[136.499,36.04072],[136.49902,36.04073],[136.49911,36.04058],[136.49896,36.04053],[136.49893,36.04053]]]}},{"type":"Feature","properties":{"pid":"f6d856ed-16b1-4e75-961b-4ec23baa643b","full":1.9},"geometry":{"type":"Polygon","coordinates":[[[136.49873,36.04071],[136.49856,36.04086],[136.49888,36.04098],[136.49897,36.04081],[136.49873,36.04071]]]}},{"type":"Feature","properties":{"pid":"ac9ace3a-250c-4dcb-b946-307613535d28","full":4.2},"geometry":{"type":"Polygon","coordinates":[[[136.49855,36.04087],[136.4984,36.04099],[136.49836,36.04105],[136.49876,36.0412],[136.49888,36.04098],[136.49855,36.04087]]]}},{"type":"Feature","properties":{"pid":"ba6849f4-36b8-440a-9d06-ce64c8a1b8d4","full":8.3},"geometry":{"type":"Polygon","coordinates":[[[136.49959,36.04093],[136.49911,36.04075],[136.49899,36.04098],[136.499,36.04099],[136.49901,36.04101],[136.4995,36.04121],[136.49959,36.04093]]]}},{"type":"Feature","properties":{"pid":"38115add-5968-469b-8881-42b86326d5bc","full":6.3},"geometry":{"type":"Polygon","coordinates":[[[136.49912,36.04073],[136.49914,36.04074],[136.49914,36.04075],[136.49959,36.04092],[136.49967,36.04067],[136.49925,36.04051],[136.49912,36.04073]]]}},{"type":"Feature","properties":{"pid":"f02ed483-15d3-4943-a48c-b45c605b4ed9","full":12.4},"geometry":{"type":"Polygon","coordinates":[[[136.50025,36.05143],[136.49989,36.05135],[136.49987,36.05136],[136.49985,36.05138],[136.49982,36.05138],[136.49963,36.0517],[136.49967,36.05172],[136.49966,36.05175],[136.49967,36.05176],[136.50012,36.05182],[136.50021,36.05162],[136.50026,36.05144],[136.50025,36.05143]]]}},{"type":"Feature","properties":{"pid":"ec73d17e-05b8-45bf-a3bb-a424f38697ef","full":14.4},"geometry":{"type":"Polygon","coordinates":[[[136.50007,36.05184],[136.49962,36.05179],[136.49961,36.0518],[136.49939,36.05218],[136.5,36.05227],[136.50008,36.05185],[136.50007,36.05184]]]}}],"precision":5}