{"type":"FeatureCollection","features":[{"type":"Feature","properties":{"pid":"4bebc0c3-dafd-4970-8be4-06b574c61655"},"geometry":{"type":"Polygon","coordinates":[[[135.96753646947033,35.9896082557323],[135.96761113384972,35.989611684700975],[135.96771201608362,35.98959203635128],[135.96778629269366,35.98954832865819],[135.9678944843463,35.98953662197696],[135.96803284520794,35.989461532853205],[135.9680960493773,35.98939570682907],[135.96817475916185,35.98937515267944],[135.96825178918886,35.98924944700278],[135.96808254776428,35.9893294667631],[135.96801222808082,35.989326774046845],[135.96790309272916,35.989361713835095],[135.96783406419317,35.98941564133465],[135.9677616933438,35.98941196984621],[135.9675706527305,35.989536096686905],[135.96753646947033,35.9896082557323]]]}}]}