{"type":"FeatureCollection","features":[{"type":"Feature","properties":{"pid":"e0db3b84-75a9-49e3-83da-1f602e8cbe99"},"geometry":{"type":"Polygon","coordinates":[[[136.02270720447186,35.68152192930683],[136.0229552273726,35.68129694258193],[136.02301408693089,35.68120759949656],[136.02300966119756,35.68118417097516],[136.02267274119922,35.681494435318726],[136.02270720447186,35.68152192930683]]]}},{"type":"Feature","properties":{"pid":"d8d7e761-57b9-4200-a1bf-845a2e0b5161"},"geometry":{"type":"Polygon","coordinates":[[[136.02254856054685,35.68139257631043],[136.02258795277905,35.68142433210935],[136.02298276944603,35.68106546231409],[136.02298024456758,35.680994010221525],[136.02254856054685,35.68139257631043]]]}},{"type":"Feature","properties":{"pid":"989455fb-64b6-4a68-8eaa-4c8a0eeeeb77"},"geometry":{"type":"Polygon","coordinates":[[[136.02372204603856,35.681269047604296],[136.02371488226666,35.68190554435909],[136.02399245012128,35.68193611133663],[136.0240252450182,35.68190508713556],[136.0240484132497,35.681249575939205],[136.0238070833436,35.681276313700266],[136.02372204603856,35.681269047604296]]]}},{"type":"Feature","properties":{"pid":"9bc58909-e010-425a-b787-6ed7a50e8448"},"geometry":{"type":"Polygon","coordinates":[[[136.0233912151785,35.681865019159495],[136.02357241359357,35.68188032024591],[136.02357850178643,35.681553756393306],[136.02339694460434,35.681549119240486],[136.0233912151785,35.681865019159495]]]}},{"type":"Feature","properties":{"pid":"5da153ab-a8ff-4c7a-9d94-6c3e79e02050"},"geometry":{"type":"Polygon","coordinates":[[[136.02253564377568,35.68200499436123],[136.02263688604498,35.68241110922686],[136.02319254285896,35.682319891395494],[136.0231813679274,35.68228280823936],[136.02292906643808,35.6821956924973],[136.02274838278925,35.68209384433309],[136.0226638312055,35.68208039748707],[136.02253564377568,35.68200499436123]]]}},{"type":"Feature","properties":{"pid":"bda89b39-c447-4068-8844-366fd3a0d48a"},"geometry":{"type":"Polygon","coordinates":[[[136.02316211780322,35.681555273743506],[136.02316663498098,35.681781660078926],[136.02323959894048,35.68182322849619],[136.02324256176652,35.68155525811665],[136.02316211780322,35.681555273743506]]]}},{"type":"Feature","properties":{"pid":"2d61a2de-0d7d-4ace-967d-596267e3b325"},"geometry":{"type":"Polygon","coordinates":[[[136.02284821285397,35.68159322521624],[136.02299313805963,35.68169015167104],[136.02299307069413,35.68145577993636],[136.02284821285397,35.68159322521624]]]}},{"type":"Feature","properties":{"pid":"5c24e6d5-5d8a-456f-b714-0992717060ad"},"geometry":{"type":"Polygon","coordinates":[[[136.0215015321527,35.68203926858214],[136.0216361134231,35.68257395765176],[136.02182696369923,35.682546048160745],[136.02171368287517,35.68207063027728],[136.0216977359816,35.68205131583408],[136.02160005457682,35.68206090363697],[136.0215015321527,35.68203926858214]]]}},{"type":"Feature","properties":{"pid":"d6ccea61-0159-45f7-b57a-872bc190b604"},"geometry":{"type":"Polygon","coordinates":[[[136.0218403724122,35.68208331391769],[136.0219466692429,35.682528127313134],[136.02208546039685,35.682506472140716],[136.02197775011462,35.68204605867671],[136.02189035336207,35.6820844844663],[136.0218403724122,35.68208331391769]]]}},{"type":"Feature","properties":{"pid":"d8f1126f-055a-44b9-821c-9e1217ad0e84"},"geometry":{"type":"Polygon","coordinates":[[[136.02215219445785,35.68175739342891],[136.02208086895328,35.68193637105413],[136.02220728931724,35.682486589201865],[136.02251373372917,35.68243558914803],[136.0223832589626,35.68190571658014],[136.02215219445785,35.68175739342891]]]}},{"type":"Feature","properties":{"pid":"be64d673-563c-46ed-8c39-7948c930f8a3"},"geometry":{"type":"Polygon","coordinates":[[[136.02176005545147,35.68354262283566],[136.02155165871935,35.68275008464495],[136.02134993963256,35.68278433379924],[136.0215617701489,35.683581760192425],[136.02176005545147,35.68354262283566]]]}},{"type":"Feature","properties":{"pid":"a27d95ba-53c6-4b15-a5a9-4897088fae9a"},"geometry":{"type":"Polygon","coordinates":[[[136.0220956319058,35.683494178674614],[136.0218945336488,35.682694795164224],[136.0216844007712,35.68272834860496],[136.02188496070593,35.683522434280796],[136.0220956319058,35.683494178674614]]]}},{"type":"Feature","properties":{"pid":"10b00669-eab4-4db0-89eb-ac9006627418"},"geometry":{"type":"Polygon","coordinates":[[[136.0223967582348,35.6834490249992],[136.02220951491967,35.68264168953449],[136.02215094916178,35.682651008951225],[136.0223599647717,35.68345457386885],[136.0223967582348,35.6834490249992]]]}},{"type":"Feature","properties":{"pid":"af021172-d562-4deb-b301-c374621a4925"},"geometry":{"type":"Polygon","coordinates":[[[136.02223997845533,35.6834740912766],[136.0220273469054,35.682673347810194],[136.0220135867844,35.68267547356523],[136.02221572914135,35.68347753409766],[136.02223997845533,35.6834740912766]]]}},{"type":"Feature","properties":{"pid":"8c47b6b9-ea29-43ac-9fbd-1d5506de90e3"},"geometry":{"type":"Polygon","coordinates":[[[136.02251876965025,35.68342643047658],[136.02274297382567,35.68339524257288],[136.02253741796073,35.68258475593096],[136.02233509512635,35.68262009407117],[136.02251876965025,35.68342643047658]]]}},{"type":"Feature","properties":{"pid":"7236e8b1-fc57-4d53-8bc8-aa2a361571e8"},"geometry":{"type":"Polygon","coordinates":[[[136.02321774798344,35.68331956269107],[136.02344068593777,35.68328242281391],[136.02324376268805,35.682477078540444],[136.02303642772844,35.68251022471989],[136.02321774798344,35.68331956269107]]]}},{"type":"Feature","properties":{"pid":"b595788f-f8bd-4232-be55-f0df2519912c"},"geometry":{"type":"Polygon","coordinates":[[[136.02310019851413,35.68333783097247],[136.0229087395135,35.68253044235644],[136.02269384250056,35.68256233527389],[136.0229016910398,35.68337141851255],[136.02310019851413,35.68333783097247]]]}},{"type":"Feature","properties":{"pid":"b9b4c539-0772-4f4b-a900-a75bf1454dba"},"geometry":{"type":"Polygon","coordinates":[[[136.02356275511764,35.68326760657375],[136.02376607174944,35.683235551823834],[136.0235577061077,35.68238651424142],[136.02353098845458,35.68235211344642],[136.02344382675014,35.682347226265776],[136.02335491277432,35.682438168498194],[136.02356275511764,35.68326760657375]]]}},{"type":"Feature","properties":{"pid":"8ee805cc-9d9a-4aac-ab95-03605fa3ee95"},"geometry":{"type":"Polygon","coordinates":[[[136.02389230553638,35.683215183482595],[136.0240966438149,35.68318428234804],[136.0239000228539,35.68237888851754],[136.02368786083707,35.6823676137957],[136.02389230553638,35.683215183482595]]]}},{"type":"Feature","properties":{"pid":"541f4c03-2664-45be-9a23-667feec5da30"},"geometry":{"type":"Polygon","coordinates":[[[136.02422408581157,35.68316359024248],[136.02440569165068,35.68313371985055],[136.0243094735979,35.68266393600811],[136.02436024057027,35.68258955743145],[136.02432894635805,35.68246211878821],[136.02427803619452,35.682417874535325],[136.02403564328884,35.68239063321461],[136.02422408581157,35.68316359024248]]]}},{"type":"Feature","properties":{"pid":"1c91be24-5c07-4cfb-8e3a-16e22af4a977"},"geometry":{"type":"Polygon","coordinates":[[[136.02415583301993,35.681943800668805],[136.0244600281852,35.681958539305136],[136.024284423819,35.681224573164364],[136.02418096731287,35.68123930749109],[136.02415583301993,35.681943800668805]]]}},{"type":"Feature","properties":{"pid":"675fc4c0-d53b-432c-879d-129f317c335e"},"geometry":{"type":"Polygon","coordinates":[[[136.02400574966072,35.68334861816821],[136.0240607720668,35.68354632076347],[136.0247550820223,35.68346867931531],[136.02469338291655,35.68323564144076],[136.02400574966072,35.68334861816821]]]}},{"type":"Feature","properties":{"pid":"278dddca-9f12-4d4c-b4cc-58f6d12f1b8b"},"geometry":{"type":"Polygon","coordinates":[[[136.02388176053952,35.68418802571826],[136.02420942435037,35.68413301037871],[136.0241310095751,35.68380332126413],[136.02381544660363,35.68391779286259],[136.02388176053952,35.68418802571826]]]}},{"type":"Feature","properties":{"pid":"82798914-3720-4451-a937-c17b78ad5aa2"},"geometry":{"type":"Polygon","coordinates":[[[136.0248997140113,35.683798836614365],[136.02482419239098,35.68378561631511],[136.02477702764222,35.6837169343116],[136.02426648184215,35.6837884451638],[136.02434387682814,35.684112044502186],[136.0250612401868,35.68399865163575],[136.0249671223845,35.68386279943039],[136.0249205779176,35.68383875175975],[136.0248997140113,35.683798836614365]]]}},{"type":"Feature","properties":{"pid":"82799003-43eb-4408-8c3b-a248718edb7b"},"geometry":{"type":"Polygon","coordinates":[[[136.02404221174038,35.684473507680245],[136.02430355106875,35.68467624573779],[136.02432044071884,35.68467315132735],[136.0242454006281,35.684345004220546],[136.0240267800828,35.68438456736132],[136.02404221174038,35.684473507680245]]]}},{"type":"Feature","properties":{"pid":"c3c4b640-d765-47af-af0e-a1165bbcab8a"},"geometry":{"type":"Polygon","coordinates":[[[136.02223827915452,35.685201360145534],[136.02210199739903,35.684654006660615],[136.02185016881944,35.68469140970952],[136.02202532104718,35.68539912709848],[136.02223827915452,35.685201360145534]]]}},{"type":"Feature","properties":{"pid":"36eae5c2-4df0-4c6c-87e9-0b139acbb38c"},"geometry":{"type":"Polygon","coordinates":[[[136.0215615252299,35.685560799903215],[136.02137519902877,35.68477388740151],[136.02135204277198,35.68477724843019],[136.02154622241397,35.68556366191264],[136.0215615252299,35.685560799903215]]]}},{"type":"Feature","properties":{"pid":"8f21c4bf-22ea-43dd-9527-db1097c79e9c"},"geometry":{"type":"Polygon","coordinates":[[[136.02189921983802,35.685506147807985],[136.02171047990316,35.68471311551915],[136.0215238994637,35.68474133882033],[136.02170701158389,35.68553231861284],[136.02189921983802,35.685506147807985]]]}},{"type":"Feature","properties":{"pid":"21c4f674-9974-40b5-8a4a-40b05bca5740"},"geometry":{"type":"Polygon","coordinates":[[[136.02164583652657,35.68454059665321],[136.02147218572918,35.68381079828338],[136.02126608788873,35.68384002700119],[136.02143384679067,35.68457122600643],[136.02164583652657,35.68454059665321]]]}},{"type":"Feature","properties":{"pid":"75b3180d-96f6-4c08-99b7-60969dea175c"},"geometry":{"type":"Polygon","coordinates":[[[136.02246585469206,35.685092254885056],[136.0223529272933,35.68461069420201],[136.0222432105134,35.684629512636135],[136.0223686562044,35.68513323404615],[136.02246585469206,35.685092254885056]]]}},{"type":"Feature","properties":{"pid":"108e73a4-ae0d-4f33-829e-3fb4aa99f49c"},"geometry":{"type":"Polygon","coordinates":[[[136.02265141800217,35.68502648600197],[136.02253922722656,35.68457648813094],[136.0224873785757,35.68458519030975],[136.02259560485516,35.68504523464354],[136.02265141800217,35.68502648600197]]]}},{"type":"Feature","properties":{"pid":"67dad69f-33a6-4e8d-8fb0-82e49a7a6914"},"geometry":{"type":"Polygon","coordinates":[[[136.02277279158923,35.685000503349045],[136.02303955065705,35.68496483140994],[136.02292494966784,35.68451154501891],[136.0226646437124,35.68455635545948],[136.02277279158923,35.685000503349045]]]}},{"type":"Feature","properties":{"pid":"8da6f450-95a1-4e05-b9c7-1e3ff11ca47a"},"geometry":{"type":"Polygon","coordinates":[[[136.02319732328831,35.68456049630452],[136.02338123630312,35.68449587749248],[136.02377170489277,35.68447079800672],[136.02376123664726,35.68441081591376],[136.02318500690404,35.68450801159127],[136.02319732328831,35.68456049630452]]]}},{"type":"Feature","properties":{"pid":"713761f5-8f4c-4e8b-963e-06c238350d96"},"geometry":{"type":"Polygon","coordinates":[[[136.022755280145,35.68435484097513],[136.0229480259966,35.68432517636142],[136.02277071904226,35.68358699357827],[136.02258198084624,35.68362087329315],[136.022755280145,35.68435484097513]]]}},{"type":"Feature","properties":{"pid":"fa9517fb-6697-437b-a7cb-6b92d9795bcf"},"geometry":{"type":"Polygon","coordinates":[[[136.0233408394683,35.6842785929407],[136.02314948676147,35.683479198140844],[136.02292922567162,35.68352627984729],[136.0231309128564,35.68430825254],[136.0233408394683,35.6842785929407]]]}},{"type":"Feature","properties":{"pid":"d1b71553-9947-46e4-be35-22f0a27d9582"},"geometry":{"type":"Polygon","coordinates":[[[136.0234637193514,35.684256659361886],[136.02374698360828,35.6842126962464],[136.0236628333827,35.683874916964804],[136.0235900605979,35.683756343022964],[136.0235013096733,35.683426128606364],[136.02326867960355,35.68345787311831],[136.0234637193514,35.684256659361886]]]}},{"type":"Feature","properties":{"pid":"618f5139-3a8d-4064-b027-dba8cec27b94"},"geometry":{"type":"Polygon","coordinates":[[[136.02368118360442,35.683626460031974],[136.0239289093333,35.68357633318],[136.02387072108073,35.68336362195587],[136.0236259037572,35.68340700198753],[136.02368118360442,35.683626460031974]]]}},{"type":"Feature","properties":{"pid":"5fd7a2f2-9cbc-4b92-902d-619511650a47"},"geometry":{"type":"Polygon","coordinates":[[[136.02262054298322,35.684372693098545],[136.02244617346352,35.683643862590046],[136.02224952470925,35.683677631197334],[136.022427504191,35.68440272928193],[136.02262054298322,35.684372693098545]]]}},{"type":"Feature","properties":{"pid":"d5e1af98-6deb-4dd8-ac32-18f4396bdb51"},"geometry":{"type":"Polygon","coordinates":[[[136.02229539934206,35.68442590528001],[136.02212131267547,35.68369948978497],[136.02192787621175,35.683731659019095],[136.02209604119932,35.68445870687088],[136.02229539934206,35.68442590528001]]]}},{"type":"Feature","properties":{"pid":"6ff743a7-b873-458d-86d1-06da2bf6a81b"},"geometry":{"type":"Polygon","coordinates":[[[136.02196600323273,35.684480090578745],[136.02179729292726,35.68375616810912],[136.0215958478954,35.683791763507315],[136.02176724311553,35.684518672579074],[136.02196600323273,35.684480090578745]]]}},{"type":"Feature","properties":{"pid":"3452fd9c-3824-4a02-b104-1c08181fb050"},"geometry":{"type":"Polygon","coordinates":[[[136.0209857459185,35.683668376020755],[136.02107095209584,35.68365445784346],[136.02086202054807,35.68287476086421],[136.020728429668,35.68289783317061],[136.02066692875684,35.68352418932172],[136.0206822426212,35.68354916497638],[136.0208675434424,35.68359287694501],[136.0209857459185,35.683668376020755]]]}},{"type":"Feature","properties":{"pid":"8fa7053a-2beb-446e-acc1-30a1fb12881c"},"geometry":{"type":"Polygon","coordinates":[[[136.0207449753519,35.684196106215424],[136.02079092193887,35.68463787255017],[136.02098514948503,35.68461852262127],[136.02085493008715,35.6841112281076],[136.0207449753519,35.684196106215424]]]}},{"type":"Feature","properties":{"pid":"d6f990aa-1eea-4820-b97e-d571e48c5848"},"geometry":{"type":"Polygon","coordinates":[[[136.02131864291607,35.68458592704475],[136.02114876675935,35.683862839367336],[136.02106238798717,35.683883547187015],[136.02101062444686,35.68391066761716],[136.02100385846663,35.68396328800853],[136.021159632417,35.68460517524832],[136.02131864291607,35.68458592704475]]]}},{"type":"Feature","properties":{"pid":"33792442-49b9-4f43-ae99-328c8c789f7d"},"geometry":{"type":"Polygon","coordinates":[[[136.02143170952758,35.685585617062884],[136.0212326055841,35.68479520881964],[136.02120067132358,35.684800099525276],[136.0213872505725,35.68559391607175],[136.02143170952758,35.685585617062884]]]}},{"type":"Feature","properties":{"pid":"88df568a-2719-4b24-b6dd-bcaa3c7c7d79"},"geometry":{"type":"Polygon","coordinates":[[[136.02098253258342,35.68565774605952],[136.02123550877243,35.68561642204529],[136.0210508058182,35.68482862645511],[136.02078388140853,35.68487552068455],[136.02098253258342,35.68565774605952]]]}},{"type":"Feature","properties":{"pid":"1ab8fce4-2b7a-4094-b837-27ac5921acbf"},"geometry":{"type":"Polygon","coordinates":[[[136.02066401656487,35.68618358746505],[136.0210538432376,35.68643685634878],[136.02124045226526,35.68625628478579],[136.02088829922658,35.686013156155035],[136.02066401656487,35.68618358746505]]]}},{"type":"Feature","properties":{"pid":"c4ea564c-78a7-429e-8907-b5f0bae6c689"},"geometry":{"type":"Polygon","coordinates":[[[136.02042665547364,35.68639555528527],[136.02086334715534,35.68668756381213],[136.02096135967673,35.686564417671406],[136.02052817707016,35.68627938064035],[136.02042665547364,35.68639555528527]]]}},{"type":"Feature","properties":{"pid":"6872e877-e813-4813-b935-bb23e3b9c798"},"geometry":{"type":"Polygon","coordinates":[[[136.0202328751848,35.68661709246266],[136.020633228226,35.68688714487463],[136.0207462218305,35.6867724602156],[136.02033279053242,35.68649974037397],[136.0202328751848,35.68661709246266]]]}},{"type":"Feature","properties":{"pid":"f7660877-1f72-419b-b39c-2bc066f19571"},"geometry":{"type":"Polygon","coordinates":[[[136.01956776861977,35.68670390450599],[136.01958195605343,35.68669188851765],[136.0195192570506,35.68645433223317],[136.0194695946878,35.68642679325939],[136.0193790663181,35.68647794558324],[136.01956776861977,35.68670390450599]]]}},{"type":"Feature","properties":{"pid":"6158a3ca-af1e-4369-9678-e3909c737bb8"},"geometry":{"type":"Polygon","coordinates":[[[136.01919871406483,35.68649686955659],[136.01913421786838,35.686515530568954],[136.01941133201575,35.68680699490833],[136.01945264549505,35.68678545199976],[136.01919871406483,35.68649686955659]]]}},{"type":"Feature","properties":{"pid":"f1b93763-ca61-4840-9169-23ecd08ca94b"},"geometry":{"type":"Polygon","coordinates":[[[136.02143222744553,35.68360409334961],[136.02122328741135,35.68280608277712],[136.02103688756392,35.68283858397643],[136.02124600404056,35.68362987992831],[136.02143222744553,35.68360409334961]]]}},{"type":"Feature","properties":{"pid":"446b862b-db64-4842-85b6-22293c70f079"},"geometry":{"type":"Polygon","coordinates":[[[136.02052874289257,35.68211358265695],[136.02064544717499,35.682680193191935],[136.02069731475257,35.682718421571046],[136.0208050288424,35.682701377483916],[136.02082382299793,35.682671983621134],[136.02069107007844,35.6821058518307],[136.02052874289257,35.68211358265695]]]}},{"type":"Feature","properties":{"pid":"3ad86580-7189-457a-9bbc-8f5c665082ca"},"geometry":{"type":"Polygon","coordinates":[[[136.02099381829203,35.682665985927436],[136.02114257240356,35.6826402431488],[136.0211661119509,35.68260281938163],[136.02102084013143,35.68201771458637],[136.02085805161036,35.68210062548314],[136.02099381829203,35.682665985927436]]]}},{"type":"Feature","properties":{"pid":"ee65abf3-3425-4161-8018-db0276d8c146"},"geometry":{"type":"Polygon","coordinates":[[[136.02151535996933,35.68259416904891],[136.02136715700104,35.68200887801726],[136.02123749640793,35.68199158250169],[136.02115465234488,35.68200214355118],[136.02131603481587,35.68263083981683],[136.02151535996933,35.68259416904891]]]}},{"type":"Feature","properties":{"pid":"bfbf24cd-ef00-423c-9868-ff29fde228d8"},"geometry":{"type":"Polygon","coordinates":[[[136.01862860361106,35.68711307809275],[136.01879534264,35.687205190028436],[136.01895073025628,35.687114261757834],[136.01895001737836,35.687092326311806],[136.01878901034559,35.68693595618255],[136.01862860361106,35.68711307809275]]]}},{"type":"Feature","properties":{"pid":"d07f240c-1e06-484c-b2a4-e02e6efaac25"},"geometry":{"type":"Polygon","coordinates":[[[136.01987689036494,35.68693325222596],[136.0201119944972,35.6871956096487],[136.02046517880453,35.687439459870774],[136.02050262403753,35.687408898944696],[136.02050653002001,35.687342807072596],[136.01990255059872,35.68690765459068],[136.01987689036494,35.68693325222596]]]}},{"type":"Feature","properties":{"pid":"676d3161-1157-45c5-a70d-e9f9ab6eb233"},"geometry":{"type":"Polygon","coordinates":[[[136.02001953130926,35.68679847943631],[136.02049393750013,35.68712011343474],[136.02058864270572,35.68702207986291],[136.02012216980063,35.68669956359983],[136.02001953130926,35.68679847943631]]]}}]}