{"type":"FeatureCollection","features":[{"type":"Feature","properties":{"pid":"ce0a650a-8129-4cf7-86ba-8140b91844b0"},"geometry":{"type":"Polygon","coordinates":[[[136.400064257927,35.96248315676059],[136.39967648947905,35.96217285254254],[136.39955467048125,35.96220522796428],[136.39996010778717,35.96268933990249],[136.39999033068526,35.96265963713937],[136.400064257927,35.96248315676059]]]}},{"type":"Feature","properties":{"pid":"471ccd3f-e4e1-407a-af26-08494e520a70"},"geometry":{"type":"Polygon","coordinates":[[[136.39988305979247,35.9627670444225],[136.39943951530455,35.9622418619322],[136.399425105381,35.96224646459905],[136.3998725552322,35.96277611147348],[136.39988305979247,35.9627670444225]]]}},{"type":"Feature","properties":{"pid":"af9d1f1e-423d-4aa4-a569-23454e6ab4cd"},"geometry":{"type":"Polygon","coordinates":[[[136.3997822771972,35.96284831977896],[136.39931431322714,35.96228854627381],[136.39921512670034,35.96231323003254],[136.39901034454266,35.962318892723296],[136.39957523530921,35.96297607269474],[136.3996790611202,35.96292829194028],[136.3997822771972,35.96284831977896]]]}},{"type":"Feature","properties":{"pid":"9bde4b95-fde5-4c75-8234-425b16bd4ca1"},"geometry":{"type":"Polygon","coordinates":[[[136.39945829961152,35.96302455624294],[136.39884369617513,35.96231228877196],[136.3987585101182,35.962329906357525],[136.39847838396517,35.96244919961091],[136.39891664204418,35.962955289410246],[136.39925058962817,35.96302717702553],[136.39945829961152,35.96302455624294]]]}},{"type":"Feature","properties":{"pid":"1b42f164-9dc7-4d02-ada4-f12b9c61704e"},"geometry":{"type":"Polygon","coordinates":[[[136.39872906980963,35.962911616154535],[136.39837345270067,35.96250085053634],[136.39824885725284,35.96258025500854],[136.39822076364337,35.96285787703804],[136.39872906980963,35.962911616154535]]]}},{"type":"Feature","properties":{"pid":"6ac75185-43d5-459f-9751-28d01bf6d610"},"geometry":{"type":"Polygon","coordinates":[[[136.39805541552823,35.96255628816161],[136.39775385759634,35.96246995879683],[136.3976502722931,35.96278936987307],[136.39804981720414,35.96285555630358],[136.3980826302434,35.96257931162948],[136.39805541552823,35.96255628816161]]]}},{"type":"Feature","properties":{"pid":"94b9f278-b437-43dd-bb16-444781d7944a"},"geometry":{"type":"Polygon","coordinates":[[[136.39618847768335,35.96243845047212],[136.39641867210776,35.962103698498275],[136.3961780844794,35.96199993237975],[136.39595446508955,35.96232980484366],[136.39618847768335,35.96243845047212]]]}},{"type":"Feature","properties":{"pid":"3b1cd69e-dc63-4dc4-9f1b-f477f9fceaba"},"geometry":{"type":"Polygon","coordinates":[[[136.39725658035715,35.9622799207019],[136.39704395871345,35.96225462969373],[136.39675957264507,35.96260285449271],[136.39752275853238,35.96276215330211],[136.39763776808164,35.96243731619013],[136.39725658035715,35.9622799207019]]]}},{"type":"Feature","properties":{"pid":"6239a592-2b9e-417c-853c-a29dc9495b25"},"geometry":{"type":"Polygon","coordinates":[[[136.39629991484665,35.9625021025101],[136.39642486055777,35.96254978258719],[136.39661552837333,35.962587008364146],[136.39692676133492,35.96221663215102],[136.39659161295774,35.96218049568716],[136.39653253714715,35.96215285444406],[136.39629991484665,35.9625021025101]]]}},{"type":"Feature","properties":{"pid":"d70e6623-a3e5-4489-b7c0-54131ebae41c"},"geometry":{"type":"Polygon","coordinates":[[[136.39563443305732,35.962450320390275],[136.39555936151794,35.96238288062378],[136.3953457656251,35.96209912948264],[136.395010986608,35.96215394991787],[136.39505615058619,35.96250563415247],[136.39532033748745,35.96252288082456],[136.39563443305732,35.962450320390275]]]}},{"type":"Feature","properties":{"pid":"f421c787-7c11-4832-9c8b-ed55a80c12ef"},"geometry":{"type":"Polygon","coordinates":[[[136.3950599492197,35.96181009641485],[136.3949550047516,35.96177154333668],[136.39499104672527,35.96204837729475],[136.39527853218422,35.96200434219264],[136.39515597898026,35.9618723428282],[136.3950599492197,35.96181009641485]]]}},{"type":"Feature","properties":{"pid":"b2834e11-978d-4a5e-94f5-74489a5b4eb1"},"geometry":{"type":"Polygon","coordinates":[[[136.39246026056205,35.96334951437853],[136.3927045273579,35.96302735785456],[136.3927564279173,35.963013828882865],[136.39289735430856,35.96290210704295],[136.39297195164724,35.96288996726696],[136.39290640874285,35.9627929350631],[136.39278237788864,35.96284794155916],[136.3922736137026,35.96313262551032],[136.3923955279182,35.96332416035699],[136.39246026056205,35.96334951437853]]]}},{"type":"Feature","properties":{"pid":"9571d9c3-272c-4dcd-b0b3-64706ba9205e"},"geometry":{"type":"Polygon","coordinates":[[[136.3934663442674,35.96237718795548],[136.3934392858896,35.962205384251064],[136.39329176238732,35.96230233481305],[136.39331266806528,35.96240269926553],[136.3934663442674,35.96237718795548]]]}},{"type":"Feature","properties":{"pid":"1421d8eb-9bdc-4048-bef3-e5bf6cf1fb05"},"geometry":{"type":"Polygon","coordinates":[[[136.39383087804742,35.96198606440294],[136.39370298905263,35.96202563143457],[136.39355384781948,35.962133712787846],[136.39360259782597,35.96241288967382],[136.39389655590796,35.96243312849177],[136.39383087804742,35.96198606440294]]]}},{"type":"Feature","properties":{"pid":"5b1d1e8d-a488-4cc4-af9b-cb878e8e487b"},"geometry":{"type":"Polygon","coordinates":[[[136.3943530708776,35.96210262256423],[136.39431145639563,35.96183182143661],[136.394002695381,35.96191500854353],[136.39403237953678,35.96213166331731],[136.3943530708776,35.96210262256423]]]}},{"type":"Feature","properties":{"pid":"4453b63f-9805-4535-abd1-b1a51af4907a"},"geometry":{"type":"Polygon","coordinates":[[[136.39472183736322,35.96248361069397],[136.39462451305207,35.96178028222489],[136.39444064750643,35.96180877759234],[136.39453383668825,35.962474294175415],[136.39472183736322,35.96248361069397]]]}},{"type":"Feature","properties":{"pid":"bb4e8a0e-2b2c-4042-9429-92513c14e1ea"},"geometry":{"type":"Polygon","coordinates":[[[136.3949097106055,35.96249579851214],[136.3948169940016,35.96176065667821],[136.39474232388068,35.96176552870482],[136.3948461636699,35.96249079112292],[136.3949097106055,35.96249579851214]]]}},{"type":"Feature","properties":{"pid":"9b05a662-7c62-4304-8930-fdca5f038786"},"geometry":{"type":"Polygon","coordinates":[[[136.39408655131584,35.96244738329884],[136.39440409662456,35.96247106450268],[136.39436408690693,35.96220333548853],[136.39404621873837,35.96223349464312],[136.39408655131584,35.96244738329884]]]}},{"type":"Feature","properties":{"pid":"90a0eb4f-f8df-4c7b-8355-9fe798c2c682"},"geometry":{"type":"Polygon","coordinates":[[[136.39329184649424,35.96334535462361],[136.3932562897488,35.963233381698885],[136.39301082704182,35.96331757347527],[136.39309545672586,35.963408973346546],[136.39311406597133,35.96345248295219],[136.39315470514285,35.963465430988535],[136.39329184649424,35.96334535462361]]]}}]}