{"type":"FeatureCollection","features":[{"type":"Feature","properties":{"pid":"419a9f82-9979-4bee-88ba-e424a8d07f2d"},"geometry":{"type":"Polygon","coordinates":[[[136.64975407580087,35.902491040798296],[136.64994188840836,35.902665553254955],[136.6500327589796,35.90261785552155],[136.6498374602703,35.90243817908403],[136.64975407580087,35.902491040798296]]]}},{"type":"Feature","properties":{"pid":"b1e83cee-0ba6-42dd-976d-3439fd5777e5"},"geometry":{"type":"Polygon","coordinates":[[[136.6492442666933,35.90290358773105],[136.64938519470365,35.90302358510656],[136.64962671573653,35.90287311555375],[136.64945174672403,35.90271606724167],[136.6492442666933,35.90290358773105]]]}},{"type":"Feature","properties":{"pid":"821ff9e9-6b0c-4a54-8abf-ed7806d35e9b"},"geometry":{"type":"Polygon","coordinates":[[[136.64956880283424,35.902643152453464],[136.64972874948876,35.90278692656407],[136.6498198597185,35.90273219519871],[136.64964615418532,35.90257608803613],[136.64956880283424,35.902643152453464]]]}},{"type":"Feature","properties":{"pid":"8632b608-a2f4-4868-852f-a26bad364be1"},"geometry":{"type":"Polygon","coordinates":[[[136.64812042309688,35.904648832969066],[136.64814516557828,35.904663299775095],[136.64835256975434,35.90458377862116],[136.6482694800022,35.9044898467677],[136.64812042309688,35.904648832969066]]]}},{"type":"Feature","properties":{"pid":"ec4bf459-20ed-4ae6-ae20-09a1583c92a6"},"geometry":{"type":"Polygon","coordinates":[[[136.6483699141607,35.90440255231481],[136.64843847527007,35.90449662447767],[136.6485071069286,35.90450861675908],[136.64869399528283,35.90445170448401],[136.64874637997022,35.90435246755283],[136.64871964259638,35.90430374853732],[136.64853718021513,35.90414514370731],[136.64848764161295,35.90419570028654],[136.6483699141607,35.90440255231481]]]}},{"type":"Feature","properties":{"pid":"9bac6e58-745c-48c0-966a-29184fa4d7de"},"geometry":{"type":"MultiPolygon","coordinates":[[[[136.64875916611263,35.90413895877052],[136.64877598945532,35.90415377092526],[136.6488594152002,35.90406529053245],[136.64875916611263,35.90413895877052]]],[[[136.64892567287848,35.904016600829],[136.64904467395905,35.904007695458944],[136.6491059596342,35.903962646844846],[136.6490562019173,35.90392068079809],[136.64892567287848,35.904016600829]]]]}},{"type":"Feature","properties":{"pid":"7e5a5186-101a-450a-ae8a-ea55cb34d2f0"},"geometry":{"type":"Polygon","coordinates":[[[136.64873439110093,35.90401786667163],[136.64881101300526,35.903965632162226],[136.6489713035188,35.90383867418513],[136.64892769236013,35.903801327410235],[136.64869870704212,35.903986224830234],[136.64873439110093,35.90401786667163]]]}},{"type":"Feature","properties":{"pid":"d4828840-4e14-47d8-91f9-23d30903ca26"},"geometry":{"type":"Polygon","coordinates":[[[136.6487770633421,35.903482948414606],[136.64913313798883,35.903221565318454],[136.6491284118959,35.90319484949845],[136.6490480588261,35.90312962051551],[136.6487770633421,35.903482948414606]]]}},{"type":"Feature","properties":{"pid":"7e5cb5bc-106f-4b10-bbdd-7a95acccf09b"},"geometry":{"type":"Polygon","coordinates":[[[136.64929558976922,35.90308884906382],[136.64916676598725,35.902976808285764],[136.64912100749908,35.90302757348598],[136.64924068813644,35.903130979614104],[136.64929558976922,35.90308884906382]]]}},{"type":"Feature","properties":{"pid":"27b3ab6e-fdd2-4d06-889e-469a0dceb2ff"},"geometry":{"type":"Polygon","coordinates":[[[136.64912632567092,35.90368136610393],[136.64937105388248,35.903495862666794],[136.6493975436366,35.90347346126193],[136.6493667772631,35.90344298166156],[136.64917982846205,35.90359909309012],[136.64912632567092,35.90368136610393]]]}},{"type":"Feature","properties":{"pid":"044796c2-3221-4f2e-91f2-ae3c0a4053b8"},"geometry":{"type":"Polygon","coordinates":[[[136.64927493549726,35.90382770972103],[136.64956106624214,35.90360602792065],[136.64950309571978,35.90355381468673],[136.64921348109053,35.90377015657608],[136.64927493549726,35.90382770972103]]]}},{"type":"Feature","properties":{"pid":"504261f0-50a1-4f4e-8d41-1d7c1536b8e9"},"geometry":{"type":"Polygon","coordinates":[[[136.64939141737,35.90388914893258],[136.64945672828824,35.90388945140287],[136.64970261042393,35.90372159666069],[136.64966527956176,35.90368591224559],[136.64939141737,35.90388914893258]]]}},{"type":"Feature","properties":{"pid":"c4549a14-7178-4ce5-8900-a7dbca03d690"},"geometry":{"type":"Polygon","coordinates":[[[136.6498351097194,35.9036344815318],[136.65012150323307,35.90340040265436],[136.6500672017515,35.903359270558674],[136.6497729967046,35.90358517639342],[136.6498351097194,35.9036344815318]]]}},{"type":"Feature","properties":{"pid":"0c18b621-aeff-4e32-930f-ce3103ad0fca"},"geometry":{"type":"Polygon","coordinates":[[[136.64992089501158,35.90320947496255],[136.64966933737088,35.90340681341371],[136.6496126656957,35.9034492947101],[136.6496811015651,35.903509118304456],[136.64998850266883,35.903272974094904],[136.64992089501158,35.90320947496255]]]}},{"type":"Feature","properties":{"pid":"d6bf685f-6ee1-43a3-8028-466f0332b21c"},"geometry":{"type":"Polygon","coordinates":[[[136.64962797960027,35.903296642280075],[136.6498399022829,35.90313268230095],[136.64979963844934,35.90309770446727],[136.64958489012272,35.90325598562172],[136.64962797960027,35.903296642280075]]]}},{"type":"Feature","properties":{"pid":"df0f5358-0c91-4d40-93cc-df21d7fcefa0"},"geometry":{"type":"Polygon","coordinates":[[[136.64958534029145,35.903966584616995],[136.64962415782867,35.903971554253815],[136.6497249468685,35.90394266599678],[136.64981737575147,35.90390518193073],[136.64987415730923,35.903861120180544],[136.64981337574437,35.9038086270907],[136.64958534029145,35.903966584616995]]]}}]}