{"type":"FeatureCollection","features":[{"type":"Feature","properties":{"pid":"e8eab9f9-3642-4f86-9cfb-2b8a782a2b07"},"geometry":{"type":"Polygon","coordinates":[[[136.12545046930546,36.05803361091015],[136.12446735903978,36.05789030497375],[136.1244564393863,36.057967939813096],[136.12543813358803,36.05810539659566],[136.12545046930546,36.05803361091015]]]}},{"type":"Feature","properties":{"pid":"8e749a86-e18d-449d-aa49-f113c9e4ad87"},"geometry":{"type":"Polygon","coordinates":[[[136.12425637664825,36.057744331019215],[136.12408557957286,36.057710166088256],[136.1242301526059,36.05794735754434],[136.12425637664825,36.057744331019215]]]}},{"type":"Feature","properties":{"pid":"3e209abb-bcbb-4548-954f-047322d60dd4"},"geometry":{"type":"Polygon","coordinates":[[[136.12397926178252,36.05752756212347],[136.12404481786186,36.057576323323616],[136.12427205666907,36.057623159240464],[136.12427623975594,36.05756672049376],[136.12397926178252,36.05752756212347]]]}},{"type":"Feature","properties":{"pid":"def2c52f-ed0e-42c8-9ab1-b788e01870ce"},"geometry":{"type":"Polygon","coordinates":[[[136.12430337020555,36.05746072213226],[136.12431448759907,36.05740042442238],[136.123807366412,36.05732786657495],[136.12380786619536,36.05738366880446],[136.12430337020555,36.05746072213226]]]}},{"type":"Feature","properties":{"pid":"c350ef76-993a-4375-9575-f5ac64a995c3"},"geometry":{"type":"Polygon","coordinates":[[[136.12517579066306,36.057444700166734],[136.12458437824168,36.057370278036835],[136.1245652237469,36.05754538245975],[136.12514270556923,36.05761805229391],[136.12517579066306,36.057444700166734]]]}},{"type":"Feature","properties":{"pid":"57f3d487-c856-43df-9402-72d2b2ec6643"},"geometry":{"type":"Polygon","coordinates":[[[136.1251245885067,36.05775508442401],[136.12451329474496,36.05767635896407],[136.124498670204,36.05775781409741],[136.12523150427774,36.05786034088622],[136.1251245885067,36.05775508442401]]]}},{"type":"Feature","properties":{"pid":"307463c1-3e66-4521-9d7b-03a776abdc54"},"geometry":{"type":"Polygon","coordinates":[[[136.10084126392542,36.07080313626358],[136.1007728110811,36.07086747790581],[136.1009388773651,36.071174364579875],[136.1010172912288,36.07109373356681],[136.10084126392542,36.07080313626358]]]}},{"type":"Feature","properties":{"pid":"68a629ad-f17a-4610-984a-ce5138f647c4"},"geometry":{"type":"Polygon","coordinates":[[[136.1011605924685,36.071039465701496],[136.1012228791968,36.070985175309225],[136.1012307978439,36.07094773472992],[136.10126456420457,36.070910839012704],[136.10117391531205,36.07080924889927],[136.10100780979377,36.07050890835236],[136.10093573444186,36.07064114256276],[136.1011605924685,36.071039465701496]]]}},{"type":"Feature","properties":{"pid":"6ffe168c-42de-4c0c-9579-19ec7a74a1cc"},"geometry":{"type":"Polygon","coordinates":[[[136.10072331425016,36.07060880517044],[136.1009181643575,36.070286416510484],[136.10079409775395,36.07022198748636],[136.10077334260168,36.07025145225986],[136.1007369787913,36.070425125228894],[136.10072331425016,36.07060880517044]]]}},{"type":"Feature","properties":{"pid":"feaf1549-4800-4569-9693-8f9ee1aecc63"},"geometry":{"type":"Polygon","coordinates":[[[136.1018645052879,36.06994781270371],[136.10194676888747,36.07004452786318],[136.1021963221482,36.06995971826416],[136.10197885587053,36.06986568173198],[136.1018645052879,36.06994781270371]]]}},{"type":"Feature","properties":{"pid":"286bacb0-e2ae-40ca-a6a2-7634a457c962"},"geometry":{"type":"MultiPolygon","coordinates":[[[[136.1014539926622,36.07022634427309],[136.1014548896924,36.07022561448077],[136.1014539416673,36.07022632201374],[136.1014539926622,36.07022634427309]]],[[[136.10149507045313,36.07019562663505],[136.1016546085687,36.07015564773576],[136.10180769195108,36.07009612501203],[136.10175657379762,36.070041519356145],[136.1016702770801,36.07009806580895],[136.10162243940349,36.07010056795774],[136.10149507045313,36.07019562663505]]]]}},{"type":"Feature","properties":{"pid":"8389667a-5077-45cf-8528-b08342d53fab"},"geometry":{"type":"Polygon","coordinates":[[[136.10049368398015,36.07098097194575],[136.10065407974483,36.07127914595868],[136.1007955042609,36.0712218393643],[136.1006259570682,36.07092496425842],[136.10049368398015,36.07098097194575]]]}},{"type":"Feature","properties":{"pid":"96131d23-8904-47fd-9d88-8f98c0463040"},"geometry":{"type":"Polygon","coordinates":[[[136.10036272643228,36.07101052504649],[136.10022397071205,36.07103093744206],[136.10038717371526,36.07129311023621],[136.100561179863,36.071362093430956],[136.10036272643228,36.07101052504649]]]}},{"type":"Feature","properties":{"pid":"88b4ba6c-baaa-4a4d-a9ae-fe3550e9131e"},"geometry":{"type":"Polygon","coordinates":[[[136.09983270779398,36.07109966650184],[136.0998963833995,36.07125114314502],[136.09991960111893,36.07126598580036],[136.100238581962,36.07127736186668],[136.1000896410365,36.07104079219702],[136.09983270779398,36.07109966650184]]]}}]}