{"type":"FeatureCollection","features":[{"type":"Feature","properties":{"pid":"e8eab9f9-3642-4f86-9cfb-2b8a782a2b07","full":7.5},"geometry":{"type":"Polygon","coordinates":[[[136.12551,36.058],[136.12442,36.05784],[136.1244,36.05801],[136.12549,36.05816],[136.12551,36.058]]]}},{"type":"Feature","properties":{"pid":"8e749a86-e18d-449d-aa49-f113c9e4ad87","full":1.9},"geometry":{"type":"Polygon","coordinates":[[[136.12427,36.05769],[136.12397,36.05765],[136.12406,36.05776],[136.12415,36.05793],[136.12427,36.05807],[136.12431,36.05773],[136.12427,36.05769]]]}},{"type":"Feature","properties":{"pid":"3e209abb-bcbb-4548-954f-047322d60dd4","full":1.2},"geometry":{"type":"Polygon","coordinates":[[[136.12431,36.05753],[136.1238,36.05746],[136.12402,36.05762],[136.1243,36.05767],[136.12432,36.05767],[136.12433,36.05755],[136.12431,36.05753]]]}},{"type":"Feature","properties":{"pid":"def2c52f-ed0e-42c8-9ab1-b788e01870ce","full":3.0},"geometry":{"type":"Polygon","coordinates":[[[136.12435,36.05736],[136.12376,36.05727],[136.12375,36.05739],[136.12378,36.05742],[136.12433,36.05751],[136.12435,36.0575],[136.12438,36.05737],[136.12435,36.05736]]]}},{"type":"Feature","properties":{"pid":"c350ef76-993a-4375-9575-f5ac64a995c3","full":10.4},"geometry":{"type":"Polygon","coordinates":[[[136.12524,36.05741],[136.12453,36.05732],[136.12451,36.05758],[136.12519,36.05767],[136.12524,36.05741]]]}},{"type":"Feature","properties":{"pid":"57f3d487-c856-43df-9402-72d2b2ec6643","full":5.8},"geometry":{"type":"Polygon","coordinates":[[[136.12517,36.05771],[136.12447,36.05762],[136.12444,36.05779],[136.12543,36.05793],[136.12543,36.05792],[136.12539,36.05788],[136.12527,36.05783],[136.12518,36.05775],[136.12517,36.05771]]]}},{"type":"Feature","properties":{"pid":"307463c1-3e66-4521-9d7b-03a776abdc54","full":3.4},"geometry":{"type":"Polygon","coordinates":[[[136.10092,36.07125],[136.10094,36.07125],[136.10108,36.0711],[136.10108,36.07109],[136.10085,36.07071],[136.10081,36.07072],[136.1008,36.07078],[136.10077,36.07081],[136.10071,36.07086],[136.10092,36.07125]]]}},{"type":"Feature","properties":{"pid":"68a629ad-f17a-4610-984a-ce5138f647c4","full":6.1},"geometry":{"type":"Polygon","coordinates":[[[136.10113,36.07109],[136.10117,36.0711],[136.10128,36.07101],[136.10128,36.07097],[136.10132,36.07094],[136.10132,36.0709],[136.10122,36.07079],[136.10114,36.07065],[136.10101,36.07039],[136.10087,36.07064],[136.10113,36.07109]]]}},{"type":"Feature","properties":{"pid":"6ffe168c-42de-4c0c-9579-19ec7a74a1cc","full":3.3},"geometry":{"type":"Polygon","coordinates":[[[136.10099,36.07027],[136.10079,36.07017],[136.10073,36.07021],[136.10068,36.07042],[136.10066,36.07054],[136.10067,36.07061],[136.10066,36.07069],[136.10069,36.07071],[136.10073,36.07069],[136.10081,36.07058],[136.1009,36.07042],[136.10099,36.07027]]]}},{"type":"Feature","properties":{"pid":"feaf1549-4800-4569-9693-8f9ee1aecc63","full":3.0},"geometry":{"type":"Polygon","coordinates":[[[136.10194,36.0701],[136.10205,36.07005],[136.10225,36.06999],[136.10226,36.06998],[136.10224,36.0699],[136.1022,36.06991],[136.10197,36.06982],[136.10185,36.06989],[136.1018,36.06995],[136.10192,36.07009],[136.10194,36.0701]]]}},{"type":"Feature","properties":{"pid":"286bacb0-e2ae-40ca-a6a2-7634a457c962","full":1.4},"geometry":{"type":"Polygon","coordinates":[[[136.10137,36.07024],[136.10143,36.07027],[136.10145,36.07029],[136.10146,36.07028],[136.10152,36.07024],[136.10167,36.0702],[136.10179,36.07016],[136.10189,36.07011],[136.10189,36.0701],[136.10182,36.07004],[136.10177,36.06996],[136.10174,36.06995],[136.10173,36.06998],[136.1017,36.07002],[136.10164,36.07006],[136.10161,36.07005],[136.10138,36.07022],[136.10137,36.07024]]]}},{"type":"Feature","properties":{"pid":"8389667a-5077-45cf-8528-b08342d53fab","full":5.0},"geometry":{"type":"Polygon","coordinates":[[[136.10063,36.07134],[136.10066,36.07134],[136.10069,36.07131],[136.10087,36.07125],[136.10066,36.07088],[136.10063,36.07087],[136.10048,36.07094],[136.10042,36.07095],[136.10042,36.07096],[136.10063,36.07134]]]}},{"type":"Feature","properties":{"pid":"96131d23-8904-47fd-9d88-8f98c0463040","full":4.5},"geometry":{"type":"Polygon","coordinates":[[[136.1004,36.07098],[136.10036,36.07096],[136.10014,36.071],[136.10035,36.07133],[136.10053,36.07141],[136.1006,36.07141],[136.10063,36.07137],[136.1004,36.07098]]]}},{"type":"Feature","properties":{"pid":"88b4ba6c-baaa-4a4d-a9ae-fe3550e9131e","full":6.2},"geometry":{"type":"Polygon","coordinates":[[[136.09976,36.07107],[136.09985,36.07128],[136.0999,36.07131],[136.10033,36.07133],[136.10012,36.07099],[136.09976,36.07107]]]}}],"precision":5}