{"type":"FeatureCollection","features":[{"type":"Feature","properties":{"pid":"b4f7fd41-9048-4031-bd4b-65d08ad30db0"},"geometry":{"type":"Polygon","coordinates":[[[135.71690494438255,35.54236777330618],[135.71721460053175,35.54221538885574],[135.71725062044706,35.542133797725086],[135.71690494438255,35.54236777330618]]]}},{"type":"Feature","properties":{"pid":"492fedf6-dfda-429f-93aa-8aaff0aec2df"},"geometry":{"type":"Polygon","coordinates":[[[135.71613253135655,35.54251897602581],[135.71621784490074,35.54260659163604],[135.71635689906756,35.54262043510957],[135.71642640072804,35.54253264134158],[135.7165532006991,35.54243675750783],[135.71641028727217,35.54230056249721],[135.71613504231468,35.542494170625254],[135.71613253135655,35.54251897602581]]]}},{"type":"Feature","properties":{"pid":"416fd2c6-8921-4886-ad39-a6aae184c18d"},"geometry":{"type":"Polygon","coordinates":[[[135.7159579534352,35.54223160482014],[135.71617804882533,35.54206508728694],[135.7161329049206,35.54202778222998],[135.7158965647114,35.54219432756925],[135.7159579534352,35.54223160482014]]]}},{"type":"Feature","properties":{"pid":"61695d80-316d-437e-9fb6-a77d65e6f35a"},"geometry":{"type":"Polygon","coordinates":[[[135.71600938954833,35.542429504476864],[135.71631962308444,35.54220743582995],[135.71626896368818,35.542156976462834],[135.7160208678166,35.54233826874215],[135.71600938954833,35.542429504476864]]]}},{"type":"Feature","properties":{"pid":"9a3c23d1-cf14-4341-87c2-73932a92216d"},"geometry":{"type":"Polygon","coordinates":[[[135.71673072966414,35.54232950831258],[135.71717991760727,35.5420186167626],[135.71672052525932,35.54231744333467],[135.71673072966414,35.54232950831258]]]}},{"type":"Feature","properties":{"pid":"9f2db593-e655-4541-9073-2e4e0506470d"},"geometry":{"type":"Polygon","coordinates":[[[135.71663041293044,35.54222649621875],[135.71700633553917,35.54196603517208],[135.71693474359662,35.54193438332445],[135.71657949492035,35.542182345006],[135.71663041293044,35.54222649621875]]]}},{"type":"Feature","properties":{"pid":"c287caa2-e1de-4c27-b2c0-6ced4b4606de"},"geometry":{"type":"Polygon","coordinates":[[[135.71629050511015,35.54191020760929],[135.71634383164366,35.541956527399506],[135.71667984729098,35.541727816420845],[135.7166329337049,35.541672409382365],[135.71629050511015,35.54191020760929]]]}},{"type":"Feature","properties":{"pid":"92075647-0be6-4efa-bfd0-3550775482f8"},"geometry":{"type":"Polygon","coordinates":[[[135.71648715715125,35.54208837134223],[135.7168157975583,35.541859311551725],[135.71677297546003,35.54181855372701],[135.71644090019916,35.542044395436534],[135.71648715715125,35.54208837134223]]]}},{"type":"Feature","properties":{"pid":"e26714db-50c4-4e67-b1b4-aef42c6573ca"},"geometry":{"type":"Polygon","coordinates":[[[135.7161360697639,35.541750882533485],[135.71620263779533,35.541814486243034],[135.71655268387426,35.54158026479634],[135.71640546397828,35.541537698544666],[135.7161360697639,35.541750882533485]]]}},{"type":"Feature","properties":{"pid":"4349a821-a6b9-4434-a2dc-d09692f8d7a0"},"geometry":{"type":"Polygon","coordinates":[[[135.71571364582385,35.54207579172787],[135.7157812419569,35.54211956714302],[135.71604206126142,35.541934346375726],[135.71598086944613,35.54186879836495],[135.71571364582385,35.54207579172787]]]}},{"type":"Feature","properties":{"pid":"4614d53e-3bf8-42b1-b802-374485f0deec"},"geometry":{"type":"Polygon","coordinates":[[[135.72228653537366,35.54311217873418],[135.722441853161,35.54296739520826],[135.72228109269952,35.54282457525741],[135.72223166172776,35.542838893041],[135.72216366407486,35.542928718544864],[135.7222384830226,35.54303654453655],[135.72223334183357,35.543089074660415],[135.72228653537366,35.54311217873418]]]}},{"type":"Feature","properties":{"pid":"dc230353-65a9-4efb-b25e-c3330ef7209a"},"geometry":{"type":"Polygon","coordinates":[[[135.72250975268767,35.54265886463166],[135.72251397912814,35.54264076833542],[135.722241362045,35.542476937828894],[135.7222390776331,35.54249307892234],[135.72250975268767,35.54265886463166]]]}},{"type":"Feature","properties":{"pid":"96b946e0-26c4-456d-bfe2-a29b7839537e"},"geometry":{"type":"Polygon","coordinates":[[[135.72365095315988,35.54229417200607],[135.72370688724894,35.542283716405834],[135.72343373102512,35.54187243905967],[135.72336634210248,35.54190306190022],[135.72361157745235,35.5422732896347],[135.72365095315988,35.54229417200607]]]}},{"type":"Feature","properties":{"pid":"72d02de9-3ef5-407b-ace1-e9a93fad6ff3"},"geometry":{"type":"Polygon","coordinates":[[[135.72384863623634,35.542243826669285],[135.7239223508506,35.54221690824764],[135.7236293474055,35.54178340579533],[135.7235641049157,35.5418130857285],[135.72384863623634,35.542243826669285]]]}},{"type":"Feature","properties":{"pid":"fa2157a0-e76c-443a-9801-28cf066e1662"},"geometry":{"type":"Polygon","coordinates":[[[135.72438585960055,35.54211619766877],[135.72403991551764,35.54159128703828],[135.72393616423096,35.54163631704439],[135.72426633065407,35.54211180081972],[135.72438585960055,35.54211619766877]]]}},{"type":"Feature","properties":{"pid":"62f262f8-71d6-42ef-9159-080a59f41137"},"geometry":{"type":"Polygon","coordinates":[[[135.7249040415348,35.541293037863845],[135.724393260857,35.54182730614089],[135.72443531992587,35.541889436162194],[135.7249354882357,35.541360492848845],[135.7249040415348,35.541293037863845]]]}},{"type":"Feature","properties":{"pid":"9dfa30cd-e754-413e-be66-c857d122c2f4"},"geometry":{"type":"Polygon","coordinates":[[[135.72404441786125,35.54216691087282],[135.7241283262982,35.542136517968345],[135.72382727449641,35.5416955858785],[135.72374900340654,35.54172855081167],[135.72404441786125,35.54216691087282]]]}},{"type":"Feature","properties":{"pid":"f72137bb-dc05-427e-bda0-df6ef8c914e9"},"geometry":{"type":"Polygon","coordinates":[[[135.72306150585987,35.541820660651084],[135.72312272997178,35.54179554122158],[135.7228630657287,35.54141330795557],[135.72284150165808,35.54142027792727],[135.72283236945037,35.541475113347],[135.72306150585987,35.541820660651084]]]}},{"type":"Feature","properties":{"pid":"dfd6b7ed-8035-4a1d-bcb6-b683046c95de"},"geometry":{"type":"Polygon","coordinates":[[[135.7228626657495,35.54191454838252],[135.72293799715038,35.54188709978832],[135.7227251748555,35.54157369374219],[135.72264712923462,35.541613951747784],[135.7228626657495,35.54191454838252]]]}},{"type":"Feature","properties":{"pid":"eb060983-6a59-4c8b-abac-7b623765afd8"},"geometry":{"type":"Polygon","coordinates":[[[135.72311613064008,35.542286247395296],[135.72318699264778,35.54226508571626],[135.7230412664789,35.54204737718994],[135.72297802182638,35.54207541951504],[135.72311613064008,35.542286247395296]]]}},{"type":"Feature","properties":{"pid":"b4d62e43-e534-46a5-9be0-073a5b377ccf"},"geometry":{"type":"Polygon","coordinates":[[[135.72344685437338,35.54228500148535],[135.72323008070822,35.541961577407406],[135.72317501644022,35.541985587549746],[135.723348192488,35.542253803448865],[135.72344685437338,35.54228500148535]]]}},{"type":"Feature","properties":{"pid":"cdc82cb7-ab84-458c-a9ef-8584de39ca4a"},"geometry":{"type":"Polygon","coordinates":[[[135.72289099548863,35.542387579053035],[135.7229854879429,35.542331525994726],[135.72285198048942,35.54213636930376],[135.7227485277885,35.542180763962136],[135.72289099548863,35.542387579053035]]]}},{"type":"Feature","properties":{"pid":"b2623ba6-b365-4e54-9c03-c5eb90ac5118"},"geometry":{"type":"Polygon","coordinates":[[[135.72259935830448,35.54254320654542],[135.72272596584813,35.54247789514856],[135.72257438287576,35.54226102568692],[135.7223299042387,35.542371361662944],[135.72259935830448,35.54254320654542]]]}},{"type":"Feature","properties":{"pid":"e11a5a86-9aa5-4b7a-96a8-dac2e2fd6d91"},"geometry":{"type":"Polygon","coordinates":[[[135.72230220464323,35.542152834209304],[135.72254061894625,35.54206428728011],[135.72234549611474,35.54177438004859],[135.72232785701857,35.54177670616728],[135.72230220464323,35.542152834209304]]]}},{"type":"Feature","properties":{"pid":"225f8c84-fa86-4ab5-8ec0-cb08a144e649"},"geometry":{"type":"Polygon","coordinates":[[[135.72267230742386,35.54199927185449],[135.7227423605744,35.541972051978874],[135.72253343321938,35.54167625726677],[135.72245813631747,35.54171117268764],[135.72267230742386,35.54199927185449]]]}},{"type":"Feature","properties":{"pid":"90eec096-70c8-4602-aa58-079f01d801ca"},"geometry":{"type":"Polygon","coordinates":[[[135.7220846898548,35.54199874371505],[135.72209389745208,35.541936010881294],[135.72141806225724,35.54187675692491],[135.7214094709643,35.5419421954523],[135.7220846898548,35.54199874371505]]]}},{"type":"Feature","properties":{"pid":"b88faffd-9f37-4fe2-934f-4d076e8334bb"},"geometry":{"type":"Polygon","coordinates":[[[135.72210770392877,35.541826123397755],[135.72211650072404,35.541755799517794],[135.721446513069,35.54169732043725],[135.72143618279748,35.54176747109583],[135.72210770392877,35.541826123397755]]]}},{"type":"Feature","properties":{"pid":"8a5667e3-9fa1-4941-8d56-8812d2736887"},"geometry":{"type":"Polygon","coordinates":[[[135.72049021723592,35.54168021381851],[135.7212085477323,35.54174172170362],[135.72121566705275,35.54168892642872],[135.7204874249592,35.541623613893535],[135.72049021723592,35.54168021381851]]]}},{"type":"Feature","properties":{"pid":"4dd66b2a-2a78-49da-916a-60078840910b"},"geometry":{"type":"Polygon","coordinates":[[[135.72118466532982,35.54192255992201],[135.72119491970065,35.54186136956293],[135.72049389204702,35.54179875690619],[135.72048754200378,35.54186241265214],[135.72118466532982,35.54192255992201]]]}},{"type":"Feature","properties":{"pid":"1e0a014f-f6e7-45c6-ace5-f515bfdd09c9"},"geometry":{"type":"Polygon","coordinates":[[[135.72204516323202,35.54235485523386],[135.72205414326132,35.54230009439319],[135.72136969091636,35.542240509084984],[135.72136313511632,35.54229299976282],[135.72204516323202,35.54235485523386]]]}},{"type":"Feature","properties":{"pid":"55e251d9-b880-442f-90d8-075074fe1ac6"},"geometry":{"type":"Polygon","coordinates":[[[135.7213830094106,35.54212379205142],[135.7220666575317,35.54218068527824],[135.72207364362328,35.5421154022652],[135.72139071830338,35.54205658102994],[135.7213830094106,35.54212379205142]]]}},{"type":"Feature","properties":{"pid":"9a96313d-f5bc-483a-a91e-465594599a02"},"geometry":{"type":"Polygon","coordinates":[[[135.7220193030044,35.542548318670896],[135.72202396652912,35.542483658545756],[135.7213666655311,35.54242678488156],[135.72135501085282,35.54249390888062],[135.7220193030044,35.542548318670896]]]}},{"type":"Feature","properties":{"pid":"fe8facf6-ca34-4006-9529-0f96469eba91"},"geometry":{"type":"MultiPolygon","coordinates":[[[[135.72126731333537,35.542611692303915],[135.72133951328433,35.542631143183726],[135.72148459466612,35.542613271045155],[135.7212948050005,35.54259755409508],[135.72126731333537,35.542611692303915]]],[[[135.7219069737692,35.54264824820402],[135.7219943671183,35.54270452765587],[135.7220011274275,35.54265604485015],[135.7219069737692,35.54264824820402]]]]}},{"type":"Feature","properties":{"pid":"1638f6d9-cb89-4b25-b074-cd55a18c4b56"},"geometry":{"type":"Polygon","coordinates":[[[135.72044196518425,35.54253039689266],[135.72046804642906,35.54256597744952],[135.72074261122208,35.5425813650565],[135.7208181317921,35.54256657785272],[135.72044196518425,35.54253039689266]]]}},{"type":"Feature","properties":{"pid":"b18ca686-e14d-4580-b1d2-df86bceb48e8"},"geometry":{"type":"Polygon","coordinates":[[[135.7208009837303,35.54236013404838],[135.72079968373345,35.54242732055195],[135.72111361703662,35.54245026972633],[135.72112372036239,35.54238668102955],[135.7208009837303,35.54236013404838]]]}},{"type":"Feature","properties":{"pid":"e080ec4f-b1dc-4795-9714-f347f14c63d7"},"geometry":{"type":"Polygon","coordinates":[[[135.720457329413,35.54221434631073],[135.72114253665535,35.54227534019734],[135.72115337658317,35.54221972352967],[135.72046592515255,35.54216001135445],[135.720457329413,35.54221434631073]]]}},{"type":"Feature","properties":{"pid":"62299ca7-7b3c-4bd3-8c39-0d849f3eda6d"},"geometry":{"type":"Polygon","coordinates":[[[135.72046786162537,35.5420409373683],[135.72116971367532,35.54210310166087],[135.7211789418094,35.54203961635501],[135.72047581547935,35.54198121806644],[135.72046786162537,35.5420409373683]]]}},{"type":"Feature","properties":{"pid":"133fffcf-2448-43af-b6b5-98bbadecc001"},"geometry":{"type":"Polygon","coordinates":[[[135.72123558078562,35.54156762110473],[135.72124657367257,35.541492401823824],[135.72078018550226,35.541449071932206],[135.72045436328048,35.541439898611856],[135.72046076303852,35.541495000519596],[135.72123558078562,35.54156762110473]]]}},{"type":"Feature","properties":{"pid":"66a1fcf5-2310-4c95-a34a-fba08a6a55c3"},"geometry":{"type":"Polygon","coordinates":[[[135.721286973058,35.54130886771847],[135.721335083809,35.541282307685165],[135.72173189361519,35.541301147822104],[135.72174417222442,35.541128400364045],[135.7207959638902,35.541274140778604],[135.72079729883353,35.54128624938585],[135.721286973058,35.54130886771847]]]}},{"type":"Feature","properties":{"pid":"a2b2c6de-e6fb-440f-b74d-acf463269806"},"geometry":{"type":"Polygon","coordinates":[[[135.72173288166076,35.541003888451996],[135.72168877623855,35.54094450944269],[135.72073766090435,35.54110141423318],[135.72075201116542,35.54116259430804],[135.72173288166076,35.541003888451996]]]}},{"type":"Feature","properties":{"pid":"315bc886-eb5b-401e-aa74-a0069aeef763"},"geometry":{"type":"Polygon","coordinates":[[[135.72067323907612,35.54092994297437],[135.72069913569118,35.54098902113089],[135.72155676436725,35.54084580968977],[135.7214952472037,35.540794127806286],[135.72067323907612,35.54092994297437]]]}},{"type":"Feature","properties":{"pid":"48c6efd2-fb07-413c-9ed0-5b03e3f050c6"},"geometry":{"type":"Polygon","coordinates":[[[135.72062282850405,35.540817448553625],[135.7214181444428,35.54068408654154],[135.72139319150043,35.54062359411824],[135.72058539627426,35.54075255390315],[135.72062282850405,35.540817448553625]]]}},{"type":"Feature","properties":{"pid":"145006aa-1a05-45ad-8a1e-3e25be83f593"},"geometry":{"type":"Polygon","coordinates":[[[135.72052238004446,35.54064714863742],[135.7213514278988,35.540514722387144],[135.72132995320692,35.540451889616165],[135.72049458899357,35.54058824131344],[135.72052238004446,35.54064714863742]]]}},{"type":"Feature","properties":{"pid":"aba28dc3-2174-441b-9a8c-f6b5722cab6a"},"geometry":{"type":"Polygon","coordinates":[[[135.7234464581544,35.54074287523803],[135.724081887759,35.54046214159937],[135.7240038695659,35.54031551568303],[135.72335833890915,35.540609051339665],[135.72333567490014,35.54071148770846],[135.7234464581544,35.54074287523803]]]}},{"type":"Feature","properties":{"pid":"6954d6f7-77d7-41c6-9c0f-92d35cafdc7c"},"geometry":{"type":"Polygon","coordinates":[[[135.72274586434548,35.54100529558215],[135.7227664001899,35.54107039737842],[135.72286430021927,35.54106721120395],[135.7228871426036,35.54101726168095],[135.72274586434548,35.54100529558215]]]}},{"type":"Feature","properties":{"pid":"767b831a-27bd-4296-a6fd-5594e4fcf907"},"geometry":{"type":"Polygon","coordinates":[[[135.72234548844105,35.54159412553694],[135.7226616705895,35.54145297851886],[135.72266458144063,35.541423119006595],[135.72256938789684,35.54141345598896],[135.7224620239448,35.54134723485542],[135.72240101023797,35.541341127484316],[135.72236221227658,35.54145110292735],[135.72234548844105,35.54159412553694]]]}},{"type":"Feature","properties":{"pid":"ade3af93-6d34-4a02-8a7e-bd332979cb84"},"geometry":{"type":"Polygon","coordinates":[[[135.72351550779692,35.54161431453189],[135.72323130537882,35.54121053901232],[135.7231552489915,35.54124153651514],[135.72343408191483,35.541650868577236],[135.72351550779692,35.54161431453189]]]}},{"type":"Feature","properties":{"pid":"9155a838-d440-431a-9237-6a9c77bee99c"},"geometry":{"type":"Polygon","coordinates":[[[135.7230309980854,35.54130070717392],[135.72299833612004,35.541344733218324],[135.72324797210328,35.541737792304886],[135.72330773355677,35.541713615144715],[135.7230309980854,35.54130070717392]]]}},{"type":"Feature","properties":{"pid":"19d8cca0-b400-431d-8500-cb80163cad8b"},"geometry":{"type":"Polygon","coordinates":[[[135.7236359919859,35.54155896969958],[135.72370382132573,35.541533426832395],[135.72351710629104,35.54125524439952],[135.72346933429296,35.541265475348],[135.7234203391179,35.54125144490979],[135.7236359919859,35.54155896969958]]]}},{"type":"Feature","properties":{"pid":"66202734-1c59-44db-a95d-55ded8db6506"},"geometry":{"type":"Polygon","coordinates":[[[135.72368397753712,35.54112660293486],[135.72363274241678,35.54119451201219],[135.7238323027381,35.541481315570095],[135.7239121425039,35.54144595738772],[135.72368397753712,35.54112660293486]]]}},{"type":"Feature","properties":{"pid":"63aed653-629c-46ea-a1e1-23146cc2f94d"},"geometry":{"type":"Polygon","coordinates":[[[135.72363568360106,35.54078191596428],[135.72370609726846,35.54082284406799],[135.72376102449562,35.54090383208517],[135.72425317115247,35.54068005438309],[135.72413444143996,35.540559848573864],[135.72363568360106,35.54078191596428]]]}},{"type":"Feature","properties":{"pid":"3946468b-0e0d-4429-8c08-79f62c6acab4"},"geometry":{"type":"Polygon","coordinates":[[[135.72386300977612,35.54104679584281],[135.72437634060572,35.540814126230345],[135.72434447204236,35.54077031646104],[135.7238287118917,35.54100046542412],[135.72386300977612,35.54104679584281]]]}},{"type":"Feature","properties":{"pid":"e2e9f61e-1285-4e30-a219-e0f966c0ca6a"},"geometry":{"type":"Polygon","coordinates":[[[135.7240742315639,35.541370295151744],[135.72458315233953,35.54112490391077],[135.72451190421557,35.54100319931271],[135.72398376241077,35.541241992538765],[135.7240742315639,35.541370295151744]]]}},{"type":"Feature","properties":{"pid":"ffa51de8-3199-4b82-b7e2-7d09505cd14c"},"geometry":{"type":"Polygon","coordinates":[[[135.7243207526589,35.54171441275414],[135.7247275193137,35.5412827870113],[135.72418788480633,35.541519553415185],[135.7243207526589,35.54171441275414]]]}},{"type":"Feature","properties":{"pid":"ead7b38a-7729-481e-a904-129a158e00e5"},"geometry":{"type":"Polygon","coordinates":[[[135.72456265173193,35.54205334595761],[135.72505483627228,35.54153226867252],[135.72501603021934,35.54146938957512],[135.72451929732838,35.5419897329012],[135.72456265173193,35.54205334595761]]]}},{"type":"Feature","properties":{"pid":"5192d6c0-b97d-4875-abcf-31dad107548e"},"geometry":{"type":"Polygon","coordinates":[[[135.72518083248337,35.541688127681766],[135.72513266969924,35.54163949238903],[135.72466283892754,35.542138369475126],[135.724730816855,35.54216544083189],[135.72518083248337,35.541688127681766]]]}}]}