{"type":"FeatureCollection","features":[{"type":"Feature","properties":{"pid":"889d0bf3-51f5-4726-ba30-bf5d8d3d2864","full":16.0},"geometry":{"type":"Polygon","coordinates":[[[136.19876,35.73799],[136.19887,35.73809],[136.19892,35.73812],[136.19899,35.73814],[136.19903,35.73821],[136.19906,35.73823],[136.19921,35.73829],[136.19933,35.73831],[136.19936,35.7383],[136.19938,35.73826],[136.19946,35.73792],[136.19944,35.73789],[136.19936,35.73786],[136.19916,35.73772],[136.19913,35.73771],[136.1991,35.73772],[136.19876,35.73799]]]}},{"type":"Feature","properties":{"pid":"00ae7fe0-73c2-485a-aefc-52d46997204e","full":14.5},"geometry":{"type":"Polygon","coordinates":[[[136.19874,35.73797],[136.1991,35.73769],[136.1991,35.73766],[136.19891,35.73735],[136.1988,35.73716],[136.19856,35.73725],[136.19858,35.73741],[136.19868,35.73768],[136.19867,35.73788],[136.19869,35.73792],[136.19874,35.73797]]]}},{"type":"Feature","properties":{"pid":"e991e0ec-ea14-460e-8dad-102fd58e48ed","full":6.2},"geometry":{"type":"Polygon","coordinates":[[[136.19824,35.73696],[136.19833,35.73701],[136.19837,35.73706],[136.19845,35.73718],[136.19853,35.73723],[136.19878,35.73714],[136.19879,35.73713],[136.19877,35.73707],[136.19864,35.73694],[136.19845,35.73681],[136.19841,35.7368],[136.19824,35.73693],[136.19824,35.73696]]]}},{"type":"Feature","properties":{"pid":"d7b4f07a-0f85-48b5-a208-b5ca6c477004","full":5.4},"geometry":{"type":"Polygon","coordinates":[[[136.19816,35.73694],[136.19839,35.73676],[136.19836,35.73672],[136.1982,35.73659],[136.19793,35.73642],[136.19784,35.73649],[136.19792,35.73661],[136.19796,35.73666],[136.19801,35.7367],[136.19807,35.73684],[136.19811,35.73691],[136.19816,35.73694]]]}},{"type":"Feature","properties":{"pid":"c614d794-8ae0-4cc5-a1c7-ff612609e50f","full":9.5},"geometry":{"type":"Polygon","coordinates":[[[136.19951,35.73758],[136.19957,35.73763],[136.19967,35.73767],[136.19977,35.7377],[136.1998,35.7377],[136.20023,35.73733],[136.20024,35.7373],[136.20018,35.73727],[136.19996,35.7372],[136.19991,35.73723],[136.19951,35.73758]]]}},{"type":"Feature","properties":{"pid":"956bbcab-5eb3-4083-a309-9a256ff877cf","full":14.3},"geometry":{"type":"Polygon","coordinates":[[[136.19909,35.73708],[136.19918,35.73726],[136.19923,35.73735],[136.19929,35.73742],[136.19947,35.73757],[136.1995,35.73756],[136.1999,35.73721],[136.1999,35.73719],[136.19966,35.73712],[136.19914,35.73703],[136.19911,35.73704],[136.19909,35.73708]]]}},{"type":"Feature","properties":{"pid":"e54b6f2e-5f0b-4b2d-840b-c4e542a2547f","full":11.3},"geometry":{"type":"Polygon","coordinates":[[[136.19946,35.7383],[136.19949,35.73833],[136.19963,35.73838],[136.19967,35.73838],[136.19983,35.73833],[136.19999,35.73834],[136.20001,35.73832],[136.19999,35.73807],[136.19998,35.73804],[136.1999,35.738],[136.19955,35.73795],[136.19953,35.73795],[136.19946,35.7383]]]}},{"type":"Feature","properties":{"pid":"47789e16-7045-4614-9608-0321075d98cb","full":4.7},"geometry":{"type":"Polygon","coordinates":[[[136.19954,35.74023],[136.20004,35.73977],[136.20005,35.73972],[136.19985,35.73958],[136.19984,35.73958],[136.19979,35.7397],[136.19964,35.73985],[136.19959,35.74004],[136.19954,35.7402],[136.19954,35.74023]]]}},{"type":"Feature","properties":{"pid":"9cae9ebb-3070-4102-8705-3505127ad8ff","full":10.9},"geometry":{"type":"Polygon","coordinates":[[[136.19977,35.74043],[136.2003,35.73993],[136.2003,35.7399],[136.20011,35.73978],[136.20008,35.73977],[136.19956,35.74026],[136.19955,35.74028],[136.19977,35.74043]]]}}],"precision":5}