{"type":"FeatureCollection","features":[{"type":"Feature","properties":{"pid":"6341003b-e1ee-4e4c-afe1-7cd02516c536","full":1.0},"geometry":{"type":"Polygon","coordinates":[[[136.60451,35.96554],[136.60515,35.96571],[136.60515,35.96558],[136.60471,35.96549],[136.60457,35.96544],[136.6045,35.96545],[136.60449,35.96548],[136.60451,35.96554]]]}},{"type":"Feature","properties":{"pid":"8da35d3f-0eab-4041-aac6-dd102f1b278c","full":3.2},"geometry":{"type":"Polygon","coordinates":[[[136.60444,35.96569],[136.60512,35.96588],[136.60515,35.96574],[136.60452,35.96556],[136.60449,35.96558],[136.60444,35.96569]]]}},{"type":"Feature","properties":{"pid":"4388a08f-33cd-4ff1-92db-2e967a96623e","full":4.8},"geometry":{"type":"Polygon","coordinates":[[[136.60436,35.96586],[136.60525,35.9661],[136.60532,35.96597],[136.60447,35.96573],[136.60436,35.96586]]]}},{"type":"Feature","properties":{"pid":"874c9d3a-3e57-42da-a0d7-edd7fd828558","full":10.6},"geometry":{"type":"Polygon","coordinates":[[[136.60424,35.96607],[136.60538,35.96638],[136.60546,35.96619],[136.60435,35.96591],[136.60424,35.96607]]]}},{"type":"Feature","properties":{"pid":"35042172-32e1-4ebc-9fc1-c97319087f1d","full":18.5},"geometry":{"type":"Polygon","coordinates":[[[136.60409,35.9663],[136.60433,35.96636],[136.60433,35.96641],[136.60438,35.96648],[136.60451,35.96653],[136.60464,35.96653],[136.60471,35.96651],[136.60512,35.96659],[136.60526,35.96656],[136.60533,35.96649],[136.60536,35.96641],[136.6042,35.96609],[136.60409,35.9663]]]}},{"type":"Feature","properties":{"pid":"1db70235-d992-4a1b-8aa5-735416b7267c","full":1.4},"geometry":{"type":"Polygon","coordinates":[[[136.60332,35.96668],[136.60369,35.96681],[136.60376,35.96673],[136.60377,35.96668],[136.60342,35.96656],[136.60332,35.96668]]]}},{"type":"Feature","properties":{"pid":"b74d5f2d-6c88-45f4-94b8-ecfa710e333a","full":15.1},"geometry":{"type":"Polygon","coordinates":[[[136.6018,35.96624],[136.60201,35.96631],[136.60218,35.96639],[136.60232,35.96638],[136.60238,35.96637],[136.60253,35.96641],[136.60259,35.96642],[136.60266,35.96645],[136.60277,35.96625],[136.60272,35.96621],[136.60212,35.96601],[136.60191,35.96592],[136.6019,35.96611],[136.60185,35.96615],[136.6018,35.96624]]]}},{"type":"Feature","properties":{"pid":"a3675acd-13ef-4f4f-b3be-4a794cc04afc","full":1.8},"geometry":{"type":"Polygon","coordinates":[[[136.60209,35.96596],[136.60276,35.96618],[136.6028,35.96618],[136.60284,35.9661],[136.60272,35.96603],[136.60212,35.96587],[136.60209,35.96596]]]}},{"type":"Feature","properties":{"pid":"1133e15d-cce5-4467-af8a-5237f01fad8c","full":2.4},"geometry":{"type":"Polygon","coordinates":[[[136.6028,35.96631],[136.60315,35.96644],[136.6033,35.96648],[136.60337,35.96634],[136.60323,35.96632],[136.60312,35.96628],[136.60299,35.96621],[136.60288,35.96613],[136.60284,35.96618],[136.60283,35.96625],[136.6028,35.96631]]]}},{"type":"Feature","properties":{"pid":"0d41cdc0-b1f0-4e12-99ba-b07b5671deff","full":6.0},"geometry":{"type":"Polygon","coordinates":[[[136.60268,35.96655],[136.60279,35.96663],[136.60289,35.96665],[136.603,35.96662],[136.60322,35.96668],[136.60329,35.96652],[136.60277,35.96633],[136.60269,35.96647],[136.60268,35.96655]]]}},{"type":"Feature","properties":{"pid":"7ce34bc2-359e-4d05-b254-960a3f0b97f6","full":2.1},"geometry":{"type":"Polygon","coordinates":[[[136.60344,35.96648],[136.60347,35.96653],[136.60378,35.96664],[136.60391,35.96662],[136.60395,35.96656],[136.60354,35.96636],[136.60349,35.96644],[136.60344,35.96648]]]}},{"type":"Feature","properties":{"pid":"7862ddbf-ff80-4bbe-95cd-bd568e91dfe2","full":2.0},"geometry":{"type":"Polygon","coordinates":[[[136.60324,35.96578],[136.60343,35.96583],[136.60415,35.96604],[136.60418,35.96592],[136.60327,35.96567],[136.60325,35.96572],[136.60324,35.96578]]]}},{"type":"Feature","properties":{"pid":"6312f60e-5dc6-4b12-a54e-68cc4a2bcd05","full":1.1},"geometry":{"type":"Polygon","coordinates":[[[136.60304,35.96598],[136.60315,35.96605],[136.60324,35.9661],[136.60395,35.96624],[136.60401,35.96618],[136.60309,35.96592],[136.60304,35.96598]]]}},{"type":"Feature","properties":{"pid":"c6c6eec2-d41e-4c06-94b3-4e1e41e25211","full":2.8},"geometry":{"type":"Polygon","coordinates":[[[136.60379,35.96537],[136.60379,35.96539],[136.60377,35.96539],[136.60373,35.96538],[136.60365,35.96544],[136.60356,35.96546],[136.60434,35.96567],[136.60439,35.96555],[136.60379,35.96537]]]}},{"type":"Feature","properties":{"pid":"1460f3ad-e74c-4963-8f57-6df86fbe8ee8","full":3.6},"geometry":{"type":"Polygon","coordinates":[[[136.60353,35.96549],[136.60353,35.96551],[136.60352,35.96552],[136.60348,35.96551],[136.60345,35.96553],[136.60334,35.96552],[136.60329,35.96551],[136.6033,35.96558],[136.60426,35.96584],[136.60434,35.96572],[136.60353,35.96549]]]}},{"type":"Feature","properties":{"pid":"83e1a6ab-a29d-481f-b304-ee1bcffdc211","full":1.4},"geometry":{"type":"Polygon","coordinates":[[[136.60403,35.96526],[136.604,35.96529],[136.60382,35.96534],[136.60439,35.9655],[136.60441,35.96536],[136.60403,35.96526]]]}},{"type":"Feature","properties":{"pid":"745131c6-0ad4-45e9-9fa2-c93be76bbfce","full":0.6},"geometry":{"type":"Polygon","coordinates":[[[136.60435,35.965],[136.60434,35.96496],[136.60405,35.96489],[136.60385,35.96497],[136.60412,35.96504],[136.6043,35.96499],[136.60435,35.965]]]}},{"type":"Feature","properties":{"pid":"532be7da-b258-4c2b-9517-b595fb985a82","full":1.2},"geometry":{"type":"Polygon","coordinates":[[[136.60424,35.96465],[136.60422,35.96461],[136.60379,35.96464],[136.6037,35.96467],[136.60367,35.96474],[136.60387,35.96479],[136.60424,35.96465]]]}},{"type":"Feature","properties":{"pid":"de5e575a-41c9-4986-916f-e389fd854fb7","full":1.5},"geometry":{"type":"Polygon","coordinates":[[[136.60171,35.9634],[136.60131,35.96332],[136.60121,35.96343],[136.6012,35.96346],[136.60126,35.96348],[136.60144,35.96352],[136.60158,35.96346],[136.60171,35.96344],[136.60171,35.9634]]]}},{"type":"Feature","properties":{"pid":"41b3782e-9c81-48a7-8101-235eadf428fd","full":4.1},"geometry":{"type":"Polygon","coordinates":[[[136.60205,35.96329],[136.60204,35.96327],[136.6018,35.96321],[136.60173,35.96316],[136.60163,35.96312],[136.60153,35.9631],[136.60147,35.96313],[136.60133,35.96328],[136.6018,35.96338],[136.60186,35.96337],[136.60193,35.96331],[136.60197,35.96329],[136.60205,35.96329]]]}},{"type":"Feature","properties":{"pid":"11c80198-eb2f-4183-8bd4-4c2a44ff431b","full":3.6},"geometry":{"type":"Polygon","coordinates":[[[136.60084,35.9632],[136.60122,35.96327],[136.60142,35.963],[136.601,35.96303],[136.60093,35.96313],[136.60084,35.9632]]]}},{"type":"Feature","properties":{"pid":"b41fbb80-8bbc-40a2-842e-47bf205af43a","full":3.5},"geometry":{"type":"Polygon","coordinates":[[[136.60122,35.96328],[136.60083,35.96321],[136.60071,35.96327],[136.60051,35.96334],[136.6011,35.96346],[136.60122,35.96328]]]}},{"type":"Feature","properties":{"pid":"49e1b1e1-6a8d-4574-898e-89ff8d64d499","full":7.6},"geometry":{"type":"Polygon","coordinates":[[[136.60019,35.9643],[136.60027,35.96427],[136.60044,35.96415],[136.60055,35.96412],[136.60061,35.96412],[136.6008,35.96409],[136.60086,35.96406],[136.60092,35.96395],[136.60097,35.96379],[136.60007,35.9641],[136.60019,35.9643]]]}},{"type":"Feature","properties":{"pid":"6bdd95c4-0339-48ad-adfd-e472ba095d2a","full":11.2},"geometry":{"type":"Polygon","coordinates":[[[136.60012,35.96381],[136.60027,35.96399],[136.60101,35.96374],[136.60108,35.96353],[136.60105,35.96349],[136.60094,35.96351],[136.60012,35.96381]]]}},{"type":"Feature","properties":{"pid":"711b54f1-1466-4f56-93c5-5a13b51446d6","full":4.5},"geometry":{"type":"Polygon","coordinates":[[[136.59979,35.96367],[136.59991,35.96379],[136.60075,35.9635],[136.60077,35.96344],[136.60067,35.96341],[136.60044,35.96344],[136.59979,35.96367]]]}}],"precision":5}