{"type":"FeatureCollection","features":[{"type":"Feature","properties":{"pid":"f99de031-d923-4b4b-834f-0805fac60a53"},"geometry":{"type":"Polygon","coordinates":[[[136.549890332774,36.03937535807791],[136.5502003859753,36.03940263540139],[136.5505575300331,36.039471375435475],[136.55043219900193,36.039378243861805],[136.54997708412978,36.03913645861746],[136.54987579524695,36.03914522997738],[136.549890332774,36.03937535807791]]]}},{"type":"Feature","properties":{"pid":"266e7e1c-ffde-4294-9c21-16d6dc85c94e"},"geometry":{"type":"Polygon","coordinates":[[[136.55418134706042,36.02653001243822],[136.55422583332998,36.0265513689626],[136.5542672497796,36.02633905999874],[136.55423017976597,36.02632515274629],[136.554190100581,36.02632705225497],[136.55418134706042,36.02653001243822]]]}},{"type":"Feature","properties":{"pid":"0a05502a-4c5e-4dc6-8a36-ae6d3b9572d0"},"geometry":{"type":"Polygon","coordinates":[[[136.5534341168326,36.02625701625014],[136.55353471061983,36.02626943928213],[136.5535236501873,36.026059084341156],[136.55354901818532,36.02600987130792],[136.55367795734597,36.02588097472064],[136.5532994263852,36.025842842841534],[136.55328807278428,36.025951986174015],[136.5533043294383,36.02600725346536],[136.5533485203331,36.02609311060245],[136.55343405717196,36.02618287033973],[136.5534341168326,36.02625701625014]]]}},{"type":"Feature","properties":{"pid":"1cbf94dc-0640-4056-940c-6d687fbc49c1"},"geometry":{"type":"Polygon","coordinates":[[[136.55351023658355,36.025681964655845],[136.55384640091168,36.02574527045128],[136.55390293107297,36.025558547884934],[136.55364982827626,36.02550566571191],[136.55346326956723,36.025544876174116],[136.55351023658355,36.025681964655845]]]}},{"type":"Feature","properties":{"pid":"61e08f8c-c415-44ee-bbc6-e5571388fa92"},"geometry":{"type":"Polygon","coordinates":[[[136.5540789108419,36.02562270423537],[136.55403902161765,36.02577512970158],[136.55447190375722,36.02586326659601],[136.55448217519512,36.025826002027486],[136.55441464249193,36.02574664651414],[136.5542742791214,36.0256586239364],[136.5540789108419,36.02562270423537]]]}},{"type":"Feature","properties":{"pid":"a9d7e247-9402-4b11-ae8d-16a9d7b7f792"},"geometry":{"type":"Polygon","coordinates":[[[136.55069282510433,36.02457600887944],[136.55104098015582,36.02471838758899],[136.55140810087767,36.024741332475976],[136.55147195696972,36.0245607766047],[136.5511338793544,36.024489586062074],[136.55083729165187,36.02440655801182],[136.55069282510433,36.02457600887944]]]}},{"type":"Feature","properties":{"pid":"a576e520-f45c-4a2a-bf52-3dc0356014bf"},"geometry":{"type":"Polygon","coordinates":[[[136.55091998908156,36.02507395061752],[136.55121456363898,36.025226819655586],[136.55134239543972,36.02490928126747],[136.5510127244797,36.02489311577574],[136.55091998908156,36.02507395061752]]]}},{"type":"Feature","properties":{"pid":"5a369bf1-430c-4124-8900-a496337112a5"},"geometry":{"type":"Polygon","coordinates":[[[136.55155171815446,36.024751633438164],[136.55209924359497,36.024860232268054],[136.55213908659505,36.024622288852825],[136.5517591514959,36.024615755578424],[136.55160237698095,36.02459767095782],[136.55155171815446,36.024751633438164]]]}},{"type":"Feature","properties":{"pid":"75f80911-0301-494e-9db3-b47b54a4e809"},"geometry":{"type":"Polygon","coordinates":[[[136.55226275077024,36.024889630732225],[136.5526164320306,36.02502612094921],[136.55277438161582,36.02515288695721],[136.55278930919033,36.02510495976362],[136.55277849973072,36.02491146150076],[136.55256024857158,36.024673343537486],[136.552386241687,36.02461321323594],[136.55230829177748,36.02460515015626],[136.55226275077024,36.024889630732225]]]}},{"type":"Feature","properties":{"pid":"34ceecdd-32e9-4733-8836-7365b985e658"},"geometry":{"type":"Polygon","coordinates":[[[136.55304924600887,36.025235380305745],[136.55313267190382,36.0252719087654],[136.55323570212695,36.02527835905615],[136.55328101468857,36.02525934380009],[136.55326774775716,36.025186259386686],[136.55304924600887,36.025235380305745]]]}},{"type":"Feature","properties":{"pid":"2baf1c23-ab37-48db-afe3-6dedc523a184"},"geometry":{"type":"Polygon","coordinates":[[[136.5521347609463,36.02525124602256],[136.55226689282128,36.02524159725326],[136.55234231488822,36.025253291918226],[136.552605257708,36.02522268437615],[136.55247909053347,36.025135034108],[136.5523013796538,36.0250750950805],[136.55220403726665,36.02506392385091],[136.5521347609463,36.02525124602256]]]}},{"type":"Feature","properties":{"pid":"3d46ebbd-ce23-4e29-bcc0-93dd80e1ace9"},"geometry":{"type":"Polygon","coordinates":[[[136.5520832541053,36.026726400324726],[136.5523288348797,36.02697338995589],[136.55249234488434,36.027084423190715],[136.55260771128331,36.02700384763927],[136.55248894866915,36.02690561174558],[136.55225938748103,36.02664447010938],[136.55221352610195,36.0266342553477],[136.55212335859974,36.02671103271351],[136.5520832541053,36.026726400324726]]]}},{"type":"Feature","properties":{"pid":"58c50ffe-7d9f-4346-84f0-030b5ff274c2"},"geometry":{"type":"Polygon","coordinates":[[[136.5515626954009,36.02623079883867],[136.55190607846396,36.026571931522206],[136.55205932922635,36.0264853525356],[136.5517631340892,36.02611968747374],[136.5515626954009,36.02623079883867]]]}},{"type":"Feature","properties":{"pid":"eea26017-4f5d-4d46-887f-e34a8b3a0020"},"geometry":{"type":"Polygon","coordinates":[[[136.55131567677802,36.02562869262066],[136.55118207780092,36.02574921782259],[136.5513447309652,36.025828187608965],[136.55150800767746,36.02601018923391],[136.5515567905872,36.025976784452496],[136.55153299984883,36.02594958868023],[136.55149826158294,36.02574516500813],[136.55131567677802,36.02562869262066]]]}},{"type":"Feature","properties":{"pid":"1e427547-b2cd-4c92-9e29-c985251a3537"},"geometry":{"type":"Polygon","coordinates":[[[136.5517607475033,36.02533359334196],[136.55194859229806,36.025292550414825],[136.55205980426388,36.025006262660966],[136.55188436245183,36.02498547224374],[136.5517607475033,36.02533359334196]]]}},{"type":"Feature","properties":{"pid":"09c601e8-d96c-4f33-a74e-36de41327a7c"},"geometry":{"type":"Polygon","coordinates":[[[136.55135877171926,36.02531094879236],[136.55151413912733,36.02536098526887],[136.55158702355243,36.025362739230744],[136.55172584234626,36.02495537802836],[136.55151202353554,36.0249262522918],[136.55135877171926,36.02531094879236]]]}},{"type":"Feature","properties":{"pid":"e16f09a2-13cd-4de4-a429-39b98606057b"},"geometry":{"type":"Polygon","coordinates":[[[136.55064679665153,36.025198939964305],[136.55050812490862,36.02520838068334],[136.55047746822657,36.02525526360695],[136.55060326825463,36.02538895835677],[136.55064836640344,36.02546961784927],[136.55069042487995,36.02549212098941],[136.5507474305555,36.02556204666999],[136.550900996934,36.02555753215335],[136.55097320448442,36.02558399830199],[136.55104303130847,36.02563392635497],[136.55115963785826,36.025522594437135],[136.55064679665153,36.025198939964305]]]}},{"type":"Feature","properties":{"pid":"238ee719-f7f2-4ab6-b974-220ac6e9a37d"},"geometry":{"type":"Polygon","coordinates":[[[136.55057867121397,36.02598777211887],[136.55061911022023,36.02585992832828],[136.55067610967754,36.02579378890708],[136.5505507429235,36.02569521581747],[136.55047556631237,36.025768570947214],[136.55051357806985,36.02591697485639],[136.55057867121397,36.02598777211887]]]}},{"type":"Feature","properties":{"pid":"a81462e3-b7bd-4e20-8576-6cbbacf9e205"},"geometry":{"type":"Polygon","coordinates":[[[136.55058168614414,36.02473648130465],[136.55066620187992,36.02480500385264],[136.55073478739843,36.02496866674261],[136.5507898379668,36.025006195803705],[136.5508720022908,36.02484316345433],[136.55058168614414,36.02473648130465]]]}},{"type":"Feature","properties":{"pid":"0feb6119-3c21-416a-9bb5-5c0adc626bd2"},"geometry":{"type":"Polygon","coordinates":[[[136.54999024138795,36.02438303311932],[136.55016433982635,36.02438539281565],[136.5503840974309,36.024445198589405],[136.55053927477184,36.024540846546124],[136.5507247840487,36.02432531278589],[136.55038086762306,36.02425577561605],[136.55030705969673,36.02425335515746],[136.55008753783153,36.02427300643672],[136.54999024138795,36.02438303311932]]]}},{"type":"Feature","properties":{"pid":"9c826b1b-77a8-489c-8a1b-b774c83fff00"},"geometry":{"type":"Polygon","coordinates":[[[136.55268268020114,36.027207111249496],[136.55272006271454,36.027249388404194],[136.55286059643197,36.02732382764672],[136.5530801564515,36.02740956245622],[136.55318276440715,36.02737355559378],[136.5532578154079,36.02732376938803],[136.55321129450465,36.02727071046089],[136.55283637308963,36.02711099535766],[136.55268268020114,36.027207111249496]]]}},{"type":"Feature","properties":{"pid":"18a854ac-bd8c-4523-bfb8-26a11993d43a"},"geometry":{"type":"Polygon","coordinates":[[[136.55492607832736,36.030609662495884],[136.5552009450264,36.03033762273931],[136.55496790176224,36.03018650605204],[136.55486648086813,36.03022828515463],[136.5547267520908,36.03041628157893],[136.55492607832736,36.030609662495884]]]}},{"type":"Feature","properties":{"pid":"fbaafca9-207c-403a-a92c-8f5d14c07682"},"geometry":{"type":"Polygon","coordinates":[[[136.55514523011533,36.03011365094381],[136.55576155995462,36.03052137146673],[136.55579951416652,36.030507872162325],[136.55583620826516,36.03051715773496],[136.55617661954506,36.030147320416646],[136.55580754574797,36.030083788259766],[136.55549956707003,36.029995690129645],[136.5554483973276,36.029995927546594],[136.55514523011533,36.03011365094381]]]}},{"type":"Feature","properties":{"pid":"f2642271-3541-4dac-a8f5-863b2ab6d243"},"geometry":{"type":"Polygon","coordinates":[[[136.55338803926603,36.02676741582087],[136.55338889276322,36.0268079215064],[136.5535738733001,36.0270279544422],[136.553746648371,36.02692524436829],[136.55338803926603,36.02676741582087]]]}},{"type":"Feature","properties":{"pid":"29f9ccd3-15f4-452c-ae52-36f505bace05"},"geometry":{"type":"Polygon","coordinates":[[[136.55374027727123,36.02712879921005],[136.5539044939066,36.02716028574263],[136.5539586339718,36.02717902164647],[136.55390813285268,36.027004290714835],[136.55374027727123,36.02712879921005]]]}},{"type":"Feature","properties":{"pid":"8b3330d5-17ec-4429-993a-7015ee4c794d"},"geometry":{"type":"Polygon","coordinates":[[[136.5540937850239,36.027197774045945],[136.55417174111145,36.02714971599977],[136.55412887002174,36.02707289881797],[136.55403675427044,36.02702423653041],[136.5540937850239,36.027197774045945]]]}},{"type":"Feature","properties":{"pid":"e4bdf244-4218-47f7-b893-dae0c6ea3179"},"geometry":{"type":"Polygon","coordinates":[[[136.55467293752722,36.02771951943445],[136.55467198818522,36.02758416841922],[136.55456409516736,36.02745915672595],[136.55442728273917,36.02723578322135],[136.55415397379264,36.02740310313548],[136.55441254435857,36.027625997163945],[136.55467293752722,36.02771951943445]]]}},{"type":"Feature","properties":{"pid":"fe0e55ec-dc2b-474f-a486-86d16388cf31"},"geometry":{"type":"Polygon","coordinates":[[[136.5553761645132,36.027802273837466],[136.5552576779649,36.02792401973036],[136.55537670322022,36.02803858576941],[136.55545197584595,36.02791505706703],[136.55539504891115,36.02785708004956],[136.5553761645132,36.027802273837466]]]}},{"type":"Feature","properties":{"pid":"fb2bd878-06d4-4b41-a2ac-d5f9037de0ee"},"geometry":{"type":"Polygon","coordinates":[[[136.55603799259282,36.03069151081094],[136.55647639633392,36.03024146239496],[136.55641075724168,36.03020106752457],[136.55632486999883,36.030174849245945],[136.55592491434928,36.03061226973216],[136.55603799259282,36.03069151081094]]]}},{"type":"Feature","properties":{"pid":"3b66d9b2-25d0-4f00-bd35-b09995532d31"},"geometry":{"type":"Polygon","coordinates":[[[136.55809830113554,36.030608533723985],[136.55814745445906,36.03073711531019],[136.55822951577787,36.030757851538446],[136.5582927839279,36.03091318163406],[136.558313226279,36.030934067810925],[136.55833974888216,36.03093259705368],[136.5582732144106,36.030775970206925],[136.55822263442212,36.030719023374],[136.55819882008316,36.03063426620033],[136.55809830113554,36.030608533723985]]]}},{"type":"Feature","properties":{"pid":"00fb154b-988f-48a2-b96b-647cfa09a437"},"geometry":{"type":"MultiPolygon","coordinates":[[[[136.55779860731175,36.03062864809742],[136.55788929444088,36.03063914785268],[136.55795962595087,36.03067030495799],[136.55802286704102,36.03076018955971],[136.55796414626374,36.030589118494774],[136.5578700450405,36.030572004901835],[136.5578346714304,36.030550310868314],[136.55779860731175,36.03062864809742]]],[[[136.55812431490648,36.030845020995066],[136.55811971291612,36.0308963873486],[136.5580993922708,36.03097272734877],[136.55817356285476,36.03095224631346],[136.55812431490648,36.030845020995066]]]]}},{"type":"Feature","properties":{"pid":"a9a9e1f2-4861-4954-97cb-7d3e48a93550"},"geometry":{"type":"Polygon","coordinates":[[[136.5577818776756,36.030739166105754],[136.55777471332772,36.03081773671825],[136.55788597865097,36.030908936965226],[136.55789956440236,36.03094135873813],[136.5579860244865,36.0309224578015],[136.55799047448227,36.03087744841722],[136.55788994631223,36.030799592929085],[136.55785536203072,36.03074678720493],[136.5577818776756,36.030739166105754]]]}},{"type":"Feature","properties":{"pid":"4f042cf9-47b8-413d-bf36-ca64779b9e32"},"geometry":{"type":"Polygon","coordinates":[[[136.5581290724522,36.031089537037346],[136.5581581350072,36.03119136575993],[136.55823551754068,36.031331043738014],[136.55822077081194,36.03138053749276],[136.5582397066671,36.03144269656372],[136.55829464029367,36.031490733329996],[136.5583210176185,36.03162338292275],[136.558432923428,36.03162799109478],[136.5585010422582,36.03160502457809],[136.55842001944555,36.03104213577674],[136.55822956567923,36.031043771624375],[136.5581290724522,36.031089537037346]]]}},{"type":"Feature","properties":{"pid":"2d0beebd-2d32-4a26-ab7f-5825eee9d6fe"},"geometry":{"type":"Polygon","coordinates":[[[136.55767997969522,36.03235955603095],[136.5579252784959,36.03213623019163],[136.5577265152822,36.03196294810322],[136.55748042025937,36.0321797653492],[136.55767997969522,36.03235955603095]]]}},{"type":"Feature","properties":{"pid":"91476600-1d50-4993-9003-ca9821892a22"},"geometry":{"type":"Polygon","coordinates":[[[136.55734943928192,36.03209292977344],[136.5576572648914,36.03181709688017],[136.55728868221036,36.03188878369201],[136.5573115000106,36.032024206748446],[136.55734943928192,36.03209292977344]]]}},{"type":"Feature","properties":{"pid":"f7d08426-17f4-4c99-8c45-e4ba6bff4707"},"geometry":{"type":"Polygon","coordinates":[[[136.55721216793128,36.03160990281295],[136.55730132100726,36.03160143673472],[136.5573053420029,36.0313700601907],[136.5572135865873,36.031342540623015],[136.55721216793128,36.03160990281295]]]}},{"type":"Feature","properties":{"pid":"3d94e8ec-67e8-4b22-aa51-a0ea6e1c9f83"},"geometry":{"type":"Polygon","coordinates":[[[136.55701467938994,36.03133148434402],[136.55701785814634,36.031622155389975],[136.55705841805135,36.03161876669564],[136.5570575588226,36.03133509509863],[136.55701467938994,36.03133148434402]]]}},{"type":"Feature","properties":{"pid":"496ec1c1-45d4-4973-a0b7-bf70cbd45f4f"},"geometry":{"type":"Polygon","coordinates":[[[136.55670063633968,36.03162934544206],[136.55684164806925,36.031625271581824],[136.55684409539543,36.03132354381657],[136.5568150217589,36.03132395674558],[136.55670063633968,36.03162934544206]]]}},{"type":"Feature","properties":{"pid":"728c732f-df6b-4601-8441-7f299e61f363"},"geometry":{"type":"Polygon","coordinates":[[[136.55604361488264,36.03088070138678],[136.55574204148402,36.03119706664736],[136.55611576936474,36.03142152489963],[136.55654774103428,36.03148726642465],[136.5566445481913,36.03126272772086],[136.55604361488264,36.03088070138678]]]}},{"type":"Feature","properties":{"pid":"770a8f4b-8940-450f-99db-a68af2e7926b"},"geometry":{"type":"Polygon","coordinates":[[[136.55693933128407,36.03084365269209],[136.55673815125164,36.03105934072155],[136.55681074981655,36.03109841128],[136.55705308039708,36.03112267431551],[136.55707868442406,36.03100535292836],[136.5571216559752,36.030937205611934],[136.55693933128407,36.03084365269209]]]}},{"type":"Feature","properties":{"pid":"2e95acaf-8421-4ed3-a8d0-705d631963fc"},"geometry":{"type":"Polygon","coordinates":[[[136.556626531823,36.03100128908448],[136.557074750711,36.030502403009976],[136.55691762182263,36.03043399631631],[136.55646752053602,36.03090756909559],[136.556626531823,36.03100128908448]]]}},{"type":"Feature","properties":{"pid":"9a7a629a-7d10-43d9-82fb-c450fbd85c09"},"geometry":{"type":"Polygon","coordinates":[[[136.55633865755036,36.03085253439361],[136.55676602127957,36.03039455386048],[136.5567803541146,36.030372015196654],[136.55660873536985,36.03030268996737],[136.55618451488525,36.03075242605113],[136.55633865755036,36.03085253439361]]]}},{"type":"Feature","properties":{"pid":"4c4023e8-e037-415f-9cf8-38b99d85551b"},"geometry":{"type":"Polygon","coordinates":[[[136.5554527713817,36.03094781447219],[136.55563997648056,36.03105514973973],[136.55564642058937,36.03109353940754],[136.55560744226779,36.031152401871246],[136.55594221497591,36.030807836002595],[136.5557861331077,36.030718618854664],[136.55569791592634,36.030692925596625],[136.5554527713817,36.03094781447219]]]}},{"type":"Feature","properties":{"pid":"39df13bc-da69-4b2b-b257-8d3cef3a8445"},"geometry":{"type":"Polygon","coordinates":[[[136.55523184974604,36.03096776599867],[136.5555921297491,36.030590350253085],[136.55534033891448,36.03043553810476],[136.55503701350622,36.030751170936945],[136.55523184974604,36.03096776599867]]]}},{"type":"Feature","properties":{"pid":"9ac37460-af15-4757-8dd9-7652cd1ce447"},"geometry":{"type":"Polygon","coordinates":[[[136.55564905465403,36.0326807327078],[136.55563478382217,36.03271240940098],[136.55593850362953,36.03281257332609],[136.5561466381492,36.032839144912785],[136.55636932840417,36.032945463644765],[136.55642088320238,36.03291475516467],[136.55564905465403,36.0326807327078]]]}},{"type":"Feature","properties":{"pid":"a2a82799-7858-4e9c-9965-67f932fac3d5"},"geometry":{"type":"Polygon","coordinates":[[[136.55571777560823,36.03246005276992],[136.55567332368324,36.03255821481989],[136.5566983507297,36.03284725070128],[136.5567898240656,36.0328324296641],[136.55684743026853,36.03279237502053],[136.55571777560823,36.03246005276992]]]}},{"type":"Feature","properties":{"pid":"b66bed30-5adb-426c-a8df-6a2de4b34e59"},"geometry":{"type":"Polygon","coordinates":[[[136.5557600028802,36.03227607685525],[136.55573228598087,36.03233201762918],[136.55685745545458,36.03267019982364],[136.55684711000075,36.0325970549105],[136.5557600028802,36.03227607685525]]]}},{"type":"Feature","properties":{"pid":"5ae8e747-39e2-4d0d-8474-7930dc253aff"},"geometry":{"type":"Polygon","coordinates":[[[136.555860260915,36.03212929886807],[136.55675230378685,36.03239563135006],[136.5567580516943,36.03238758956519],[136.55674675829073,36.03231406342498],[136.55667202897118,36.03223446633447],[136.55636912471942,36.03216290056078],[136.5561537130317,36.03207551515736],[136.55610083499772,36.03207301028722],[136.555860260915,36.03212929886807]]]}},{"type":"Feature","properties":{"pid":"ba1d34d7-3dd9-42f9-885c-c5338d7f5f54"},"geometry":{"type":"Polygon","coordinates":[[[136.55763053798302,36.032802338059355],[136.55778434217632,36.03271188876107],[136.55778148801298,36.03267590775653],[136.55761877508522,36.032610289294766],[136.55756512947815,36.03261359760903],[136.5575236151102,36.03263656411267],[136.55752808810928,36.032681763035846],[136.55758182767784,36.032770803578416],[136.55763053798302,36.032802338059355]]]}},{"type":"Feature","properties":{"pid":"84670cf9-b1f8-4f70-b685-c9411274a20b"},"geometry":{"type":"Polygon","coordinates":[[[136.557805284184,36.03245789664103],[136.55803759041376,36.032550334901615],[136.55840365121855,36.03223461197653],[136.5581542674771,36.03207647653429],[136.55807954821594,36.032137866121346],[136.55806619519174,36.032173922534085],[136.55779026159396,36.03242723296294],[136.557805284184,36.03245789664103]]]}},{"type":"Feature","properties":{"pid":"9b56596d-d02f-4736-b555-c344807cad7c"},"geometry":{"type":"Polygon","coordinates":[[[136.55827819547258,36.03255495274264],[136.55835726624775,36.03255148315631],[136.55861307859348,36.032321912933384],[136.55856827588372,36.03230254078886],[136.55827819547258,36.03255495274264]]]}},{"type":"Feature","properties":{"pid":"38299771-19c1-41d7-bcd1-6de2bf0293cd"},"geometry":{"type":"Polygon","coordinates":[[[136.55851755342758,36.03268040401828],[136.55885742059277,36.032576793621146],[136.5587873037668,36.03250292228032],[136.55874213647476,36.032419108478464],[136.5585634736297,36.032563533972024],[136.5584958124082,36.03264335745894],[136.55851755342758,36.03268040401828]]]}},{"type":"Feature","properties":{"pid":"8c7a0055-c21d-4dda-beab-2972b728d106"},"geometry":{"type":"Polygon","coordinates":[[[136.56005183391233,36.032343328622446],[136.56008128914596,36.03251657764666],[136.56014377118981,36.03255627129263],[136.5601500746693,36.03240741315474],[136.56026614789073,36.03235231811388],[136.5602832777798,36.0323233420882],[136.56005183391233,36.032343328622446]]]}},{"type":"Feature","properties":{"pid":"6ef5ceb0-a4d9-418f-9ca4-ecdd86fd172f"},"geometry":{"type":"Polygon","coordinates":[[[136.56025860644584,36.032652026979534],[136.5604800154165,36.03265675038449],[136.56058563088527,36.03263810738788],[136.5610771482963,36.03262057516426],[136.56118484607308,36.032383558650636],[136.56092496511914,36.03234366348706],[136.56048590930584,36.03232622289347],[136.56036137713377,36.0324338634585],[136.56026818387244,36.03246668217888],[136.56025860644584,36.032652026979534]]]}},{"type":"Feature","properties":{"pid":"85248c5d-0d97-4d6d-a3a2-209a78ed33a9"},"geometry":{"type":"Polygon","coordinates":[[[136.5594677507988,36.03215230814008],[136.55963826915334,36.03214221722594],[136.55964230793433,36.032123292021446],[136.55949611161816,36.03207923191419],[136.5594677507988,36.03215230814008]]]}},{"type":"Feature","properties":{"pid":"1ecaf0a0-1e40-47b0-a3d4-0830cc90147a"},"geometry":{"type":"Polygon","coordinates":[[[136.55913562038103,36.032148039508144],[136.55931185091862,36.032150064625554],[136.55934047197516,36.03205832912879],[136.55918371425452,36.032030770137055],[136.55913562038103,36.032148039508144]]]}},{"type":"Feature","properties":{"pid":"bc277358-343b-4c18-badc-6f3edbaa002d"},"geometry":{"type":"Polygon","coordinates":[[[136.55893976982583,36.03215055010491],[136.55895620810287,36.03212155891986],[136.55879209749054,36.0320648856187],[136.55876763561093,36.03210328320492],[136.55893976982583,36.03215055010491]]]}},{"type":"Feature","properties":{"pid":"52471537-143a-4535-8a3b-3daaab799aed"},"geometry":{"type":"Polygon","coordinates":[[[136.55872148768307,36.03176560330698],[136.5587968629576,36.03191321839012],[136.55900640050595,36.03198551743006],[136.5588493714035,36.03186546077859],[136.5587560584834,36.03176205033505],[136.55872148768307,36.03176560330698]]]}},{"type":"Feature","properties":{"pid":"f4e7e60d-f3ad-4638-b27e-880e776266f6"},"geometry":{"type":"Polygon","coordinates":[[[136.55842717204882,36.030714036049],[136.55847960537702,36.03080021607316],[136.55852555488698,36.030935412919625],[136.5585803308327,36.03098241989543],[136.55864565818536,36.03151130265662],[136.55869886649185,36.03138094946278],[136.5587416574997,36.03133890942073],[136.55878100582612,36.031327354927384],[136.5587028112348,36.03068038378132],[136.55842717204882,36.030714036049]]]}},{"type":"Feature","properties":{"pid":"f4d9da66-8ea4-4b82-9a05-e532526493ed"},"geometry":{"type":"Polygon","coordinates":[[[136.55894942354365,36.03133909816156],[136.55909958804938,36.03133238896542],[136.5590891990903,36.031092625522646],[136.55902101513394,36.03060569931498],[136.5589227773166,36.030586038551576],[136.55886118518166,36.030620853106974],[136.55894942354365,36.03133909816156]]]}},{"type":"Feature","properties":{"pid":"d90a0eaf-2230-48a0-9e42-f539e16d4340"},"geometry":{"type":"Polygon","coordinates":[[[136.55955433582,36.03076719084111],[136.5595980569534,36.03106074378107],[136.55965433447508,36.03103755898748],[136.55968284121644,36.03100042619293],[136.5596769544637,36.03092442968408],[136.55970095678674,36.030885458159624],[136.55955433582,36.03076719084111]]]}},{"type":"Feature","properties":{"pid":"7a209f3b-5475-432d-8e57-24287341ec8b"},"geometry":{"type":"Polygon","coordinates":[[[136.5591915908226,36.030651746887266],[136.55924143122863,36.0310737582125],[136.5594242457016,36.03106140398979],[136.55938541259172,36.030702448510965],[136.5591915908226,36.030651746887266]]]}},{"type":"Feature","properties":{"pid":"a9513cdd-3e1e-44bb-8cec-355eba29fadd"},"geometry":{"type":"Polygon","coordinates":[[[136.5728543209566,36.027303357381555],[136.57287140212532,36.02735086053169],[136.5730090709411,36.027318150611386],[136.5729649669227,36.02726416450825],[136.57299551631013,36.02721142351918],[136.5729713290939,36.02720174384073],[136.57290658891276,36.02728905824705],[136.5728543209566,36.027303357381555]]]}},{"type":"Feature","properties":{"pid":"98feaa47-8d89-4e6c-b1cc-11408d22a627"},"geometry":{"type":"MultiPolygon","coordinates":[[[[136.57319337164984,36.02702616024753],[136.5732151732764,36.027052304600005],[136.5732110314247,36.027085594134284],[136.57325610947595,36.027098756099356],[136.5732483281324,36.02705764844237],[136.57333378999425,36.0269690704031],[136.573333781476,36.02693598655435],[136.57313871413305,36.02684728043568],[136.57308425558145,36.02697217708413],[136.57319337164984,36.02702616024753]]],[[[136.57341686350352,36.027025676510405],[136.57343101820956,36.02707127868862],[136.57346733302163,36.02704006079756],[136.5734435308533,36.02703836693137],[136.57341686350352,36.027025676510405]]]]}},{"type":"Feature","properties":{"pid":"6ac29884-fabf-4e82-a027-748490cafbfc"},"geometry":{"type":"Polygon","coordinates":[[[136.57058534100466,36.02623455376013],[136.5706735942032,36.02628684695497],[136.57081870350777,36.02622191836699],[136.5709088459753,36.02623793598292],[136.57097731035157,36.026190190649245],[136.570935731609,36.02613647518939],[136.57083975250853,36.02613776450889],[136.5707305856463,36.0260508387933],[136.57070998362244,36.02610226884582],[136.57058534100466,36.02623455376013]]]}},{"type":"Feature","properties":{"pid":"beff613e-99e7-43ed-bc2e-d580854afb2b"},"geometry":{"type":"Polygon","coordinates":[[[136.5700706478853,36.02627808438702],[136.57015204975,36.02621996111384],[136.57028349977062,36.02618296666041],[136.57021287245698,36.026167135478026],[136.57016708999714,36.026113845787926],[136.5700725592359,36.026225215684306],[136.5700583017572,36.026260648063406],[136.5700706478853,36.02627808438702]]]}},{"type":"Feature","properties":{"pid":"db202292-c855-480e-b1bb-2e39a2343c1a"},"geometry":{"type":"Polygon","coordinates":[[[136.5702793044521,36.02607701205069],[136.57041217344823,36.026089665292226],[136.57046062095066,36.02605135056559],[136.57050490355704,36.02597928283251],[136.57041465807697,36.02597740541923],[136.5702793044521,36.02607701205069]]]}},{"type":"Feature","properties":{"pid":"3f839909-0cd4-43d5-ae23-00f72c3bdd09"},"geometry":{"type":"Polygon","coordinates":[[[136.56999336900284,36.02613302264666],[136.57009687396442,36.02602470109009],[136.57022162213246,36.02598849756752],[136.57025941139315,36.025962658482115],[136.57032932870237,36.025896827629204],[136.5703237302859,36.02586531801346],[136.57026247917923,36.02581995022352],[136.57019685084714,36.025922283429516],[136.57006291636804,36.02601214331535],[136.56999336900284,36.02613302264666]]]}},{"type":"Feature","properties":{"pid":"b04b7509-3756-4159-95cc-c8e9097c72ac"},"geometry":{"type":"Polygon","coordinates":[[[136.57036032110435,36.02568387503313],[136.57055439658203,36.02582051224365],[136.57063350552733,36.025699363996054],[136.57048882855185,36.025695731717605],[136.57036032110435,36.02568387503313]]]}},{"type":"Feature","properties":{"pid":"6ad2c96a-78f4-4026-a423-42e8a24b04fe"},"geometry":{"type":"Polygon","coordinates":[[[136.5708297990697,36.02598570591789],[136.57088746765658,36.02603867050364],[136.57097908318138,36.02603217946196],[136.5710404370181,36.026076404770016],[136.57103613414043,36.02605650262477],[136.5709733531577,36.02600792179647],[136.57092809129477,36.025904898389214],[136.57088631053904,36.02588080687899],[136.5708297990697,36.02598570591789]]]}},{"type":"Feature","properties":{"pid":"00f2e9b0-b75a-4ee1-b12e-aa195274f615"},"geometry":{"type":"Polygon","coordinates":[[[136.57062972047552,36.025935043599766],[136.57071536095842,36.0259166837746],[136.57074411476503,36.02589305087149],[136.57078987006068,36.02580215178207],[136.57080041451823,36.02571337506458],[136.5707184964009,36.02576837012481],[136.57062972047552,36.025935043599766]]]}},{"type":"Feature","properties":{"pid":"b47475dc-889b-4fd6-9566-30041e3886c5"},"geometry":{"type":"Polygon","coordinates":[[[136.57038113740325,36.02558644759413],[136.57066545706562,36.02558975568473],[136.5708608202973,36.025460168956506],[136.57078755158133,36.025432902942846],[136.57075109801923,36.02547557913152],[136.57067550230673,36.02551700375691],[136.57055599434398,36.025528824402286],[136.57051570782056,36.025552273965864],[136.5704181662039,36.025545419667836],[136.57038113740325,36.02558644759413]]]}},{"type":"Feature","properties":{"pid":"5e702b2e-646a-45ca-a46e-e89fb72ae5b2"},"geometry":{"type":"Polygon","coordinates":[[[136.5711220459819,36.02539725510045],[136.5714180359995,36.025262425639156],[136.57171703782066,36.025239690883545],[136.5718121818733,36.025248558984444],[136.57196550765235,36.02529617216418],[136.57198877753956,36.02526256342771],[136.57188724575178,36.02522138259942],[136.57184789808647,36.02515807809279],[136.57151197004723,36.025227840256385],[136.57134286274248,36.025231119614354],[136.57122945412556,36.025208236117834],[136.5711220459819,36.02539725510045]]]}},{"type":"Feature","properties":{"pid":"bb45ab46-1a30-4a81-9036-412b4a67388f"},"geometry":{"type":"Polygon","coordinates":[[[136.5719751536886,36.025859898601766],[136.5720089860076,36.02575646324075],[136.57208442412795,36.02572527394019],[136.57211284261024,36.0256183200549],[136.57215637409865,36.025587084162794],[136.57224365546716,36.02557715998702],[136.57220209209424,36.02549049295482],[136.57212940182072,36.02541737399967],[136.57197344526904,36.02539788612317],[136.57191382755465,36.025414564475035],[136.5718191487334,36.02535391863684],[136.57175108554176,36.025342409735025],[136.57153443846872,36.02535078472292],[136.57143689894795,36.025364846276325],[136.5712645579914,36.02545901272857],[136.57128356718732,36.025529473861575],[136.57138895452587,36.02565079951928],[136.57169446164653,36.02568424495504],[136.5717820402547,36.02573292580285],[136.57184822042177,36.025846773251125],[136.5719386159014,36.025844320098045],[136.5719751536886,36.025859898601766]],[[136.57179237354467,36.02567092706649],[136.57173891395706,36.02567279950995],[136.57161556265464,36.02561425999479],[136.57159189980072,36.02558176234926],[136.57159336447836,36.025524652991756],[136.57162658316489,36.02547033782812],[136.5717628451698,36.02540485191218],[136.57180677472087,36.02541635209461],[136.57188407978367,36.02549825193981],[136.57188457508798,36.025563206451906],[136.57186191439433,36.02562653799445],[136.57179237354467,36.02567092706649]]]}},{"type":"Feature","properties":{"pid":"a00fa610-4687-4a36-a96f-cea4f45cc6d5"},"geometry":{"type":"Polygon","coordinates":[[[136.57151038143252,36.026317516842845],[136.57151856432478,36.02636064712699],[136.5715890351483,36.026422295673875],[136.5715998062783,36.02633038801624],[136.57151038143252,36.026317516842845]]]}},{"type":"Feature","properties":{"pid":"b7e689d1-49c5-4d40-b460-7f1de6d5f186"},"geometry":{"type":"Polygon","coordinates":[[[136.57167721320138,36.026559872647404],[136.57176148613496,36.02657441903592],[136.5718513603319,36.02644141904056],[136.5718477125032,36.02636024134068],[136.5717259980156,36.02632902110632],[136.57170208391466,36.02650962482158],[136.57167721320138,36.026559872647404]]]}}]}