{"type":"FeatureCollection","features":[{"type":"Feature","properties":{"pid":"4d4263c8-59e6-4061-a4cb-ec4b573688dd"},"geometry":{"type":"Polygon","coordinates":[[[135.72614757682513,35.45172729708657],[135.7264741218892,35.45142706586845],[135.72644748039446,35.451395449875484],[135.7263427857714,35.45141993757087],[135.72621637485418,35.45149946169642],[135.72602554493022,35.45167862172625],[135.72614757682513,35.45172729708657]]]}},{"type":"Feature","properties":{"pid":"a9c996a5-467a-48f6-aee5-3b0890423a99"},"geometry":{"type":"Polygon","coordinates":[[[135.72589514046825,35.451541210565885],[135.72596280087657,35.4515910704145],[135.7261391583225,35.45142505047365],[135.72629075461245,35.451333678592],[135.7263872674693,35.45130732292388],[135.72631393594466,35.45121734638626],[135.72628559705672,35.45120719629018],[135.7259548706502,35.451504275585876],[135.72589514046825,35.451541210565885]]]}},{"type":"Feature","properties":{"pid":"3be06c80-95cc-44f3-bd34-df803ea2d9c2"},"geometry":{"type":"Polygon","coordinates":[[[135.72596560034282,35.45253799679225],[135.726048744207,35.45252389101096],[135.72606907300553,35.45236234929189],[135.726034163153,35.45235946663884],[135.72596560034282,35.45253799679225]]]}},{"type":"Feature","properties":{"pid":"b0866b3e-433b-4a5e-94df-75d29c9db788"},"geometry":{"type":"Polygon","coordinates":[[[135.72617642286835,35.45251418916562],[135.72629584506888,35.452515035376216],[135.726230747998,35.452418208103325],[135.72618228245688,35.452412868082746],[135.72617642286835,35.45251418916562]]]}},{"type":"Feature","properties":{"pid":"59cbfed1-928d-4660-b812-dccaaef0d964"},"geometry":{"type":"Polygon","coordinates":[[[135.72633804352034,35.45279561385024],[135.7263540805262,35.45274124137533],[135.72610102566372,35.452743267916865],[135.7260988133738,35.45279029476875],[135.72633804352034,35.45279561385024]]]}},{"type":"Feature","properties":{"pid":"03750dab-3820-4dc2-85a4-2cf4c833dac7"},"geometry":{"type":"Polygon","coordinates":[[[135.7261207535705,35.45289688137579],[135.72628700289388,35.45301288444308],[135.72630502073764,35.45290188656466],[135.7261207535705,35.45289688137579]]]}},{"type":"Feature","properties":{"pid":"2aba63b3-514d-4ab2-8dce-e81d6f3670bc"},"geometry":{"type":"Polygon","coordinates":[[[135.72726980296537,35.450252561592144],[135.72743966102306,35.44993747190786],[135.72732926605246,35.449898224963675],[135.72732593148262,35.44998706618119],[135.72720698606193,35.45022862095483],[135.72726980296537,35.450252561592144]]]}},{"type":"Feature","properties":{"pid":"c70bf7e6-2636-425d-9c06-93be450c19aa"},"geometry":{"type":"Polygon","coordinates":[[[135.72762910938513,35.44959114224215],[135.72763646953433,35.44957410261606],[135.7272714720223,35.44954480157842],[135.7272711952909,35.44956913543527],[135.72762910938513,35.44959114224215]]]}},{"type":"Feature","properties":{"pid":"26944093-70d7-4486-8730-514633b976b6"},"geometry":{"type":"Polygon","coordinates":[[[135.72708277904488,35.4484121467729],[135.72707799120823,35.4485289076037],[135.7270501819361,35.4485553148702],[135.726980623867,35.44857162209586],[135.72698964130362,35.448619119483475],[135.72705875370605,35.44866083408262],[135.72710084145496,35.44873040864589],[135.72725888044465,35.448705684541004],[135.72732372659885,35.44871010602354],[135.72717121737577,35.44853837911183],[135.72708277904488,35.4484121467729]]]}},{"type":"Feature","properties":{"pid":"19f13821-d009-4336-beff-ff6c29d6347d"},"geometry":{"type":"MultiPolygon","coordinates":[[[[135.72748120798533,35.44895362495753],[135.72742199298932,35.448881901797286],[135.727302205326,35.44889851265746],[135.7273245903419,35.448953271118896],[135.72748120798533,35.44895362495753]]],[[[135.7275656054297,35.44905584965632],[135.7275654923475,35.44911354942551],[135.72760941155596,35.449116251061724],[135.7276031140025,35.449101281053245],[135.7275656054297,35.44905584965632]]]]}},{"type":"Feature","properties":{"pid":"e0366b85-5bad-414d-864b-56546036fa92"},"geometry":{"type":"Polygon","coordinates":[[[135.7276507881307,35.44935352580065],[135.727650312678,35.44922351790769],[135.72746201134703,35.4492095129161],[135.72743635552752,35.44917624538171],[135.7274344479625,35.449056390169574],[135.7273304424114,35.449055872624484],[135.72731308018732,35.44922794505759],[135.727486333386,35.44925501124707],[135.72750783745408,35.4492847378063],[135.72750458804612,35.44934847475633],[135.7276507881307,35.44935352580065]]]}},{"type":"Feature","properties":{"pid":"d0ada307-300e-4d3e-ad86-98d41b1e35e8"},"geometry":{"type":"Polygon","coordinates":[[[135.72811892730311,35.44778371459419],[135.72807892492665,35.44777890156082],[135.7280613893839,35.44788901909127],[135.72818655038702,35.44789829615561],[135.7281682693159,35.44784845319477],[135.7281215916471,35.44781878113466],[135.72811892730311,35.44778371459419]]]}},{"type":"Feature","properties":{"pid":"87aacd76-204a-4b6c-a72b-988daa240ecf"},"geometry":{"type":"Polygon","coordinates":[[[135.72740375017872,35.44791485370825],[135.7276602907494,35.44796016679966],[135.72766737717114,35.44792721772604],[135.72743979443499,35.447876840725634],[135.72740375017872,35.44791485370825]]]}},{"type":"Feature","properties":{"pid":"1f3c50ee-bf36-4215-8ae2-8be6e2353aef"},"geometry":{"type":"Polygon","coordinates":[[[135.7276760645795,35.44766367399214],[135.72764151798035,35.4476603517814],[135.72752014903435,35.447786838649925],[135.72768929131794,35.447825783301724],[135.72771426335785,35.44769570858222],[135.7276760645795,35.44766367399214]]]}},{"type":"Feature","properties":{"pid":"bfd1d432-c34d-4cc9-b4bc-1ea75152bb2d"},"geometry":{"type":"Polygon","coordinates":[[[135.72778040509536,35.44672505623652],[135.72776413159002,35.44669808967064],[135.72760099513562,35.44669476190993],[135.72759300873557,35.44672490818546],[135.72778040509536,35.44672505623652]]]}},{"type":"Feature","properties":{"pid":"33fddcc1-324f-4f9e-b2b6-68742fb25489"},"geometry":{"type":"Polygon","coordinates":[[[135.72746663646063,35.44670442834968],[135.72748242069756,35.44662908074584],[135.7274293185423,35.44660512430609],[135.7273599891365,35.44661637910671],[135.72733590098292,35.44665478496386],[135.72746663646063,35.44670442834968]]]}},{"type":"Feature","properties":{"pid":"c40e80af-a4be-4cf1-8288-7bcbc974a04e"},"geometry":{"type":"Polygon","coordinates":[[[135.72697364597096,35.447504911728956],[135.72694130240245,35.44757380019842],[135.72720535522524,35.44766067412707],[135.72729595049506,35.44756998667601],[135.72716340399785,35.4475147281772],[135.72710087692224,35.44754299333104],[135.72697364597096,35.447504911728956]]]}},{"type":"Feature","properties":{"pid":"3d53693e-119d-42f8-9291-68f542f0fae6"},"geometry":{"type":"Polygon","coordinates":[[[135.72978994205556,35.442610269781234],[135.72989578053654,35.44257973444073],[135.72987060233467,35.44250661406694],[135.72968934667327,35.44253531716732],[135.72972412271855,35.4425853781633],[135.72978994205556,35.442610269781234]]]}},{"type":"Feature","properties":{"pid":"8cdb1eee-817b-467d-9762-beda42049f8a"},"geometry":{"type":"Polygon","coordinates":[[[135.72945566151742,35.44259680521539],[135.72938770580106,35.44263233128066],[135.72950833476247,35.44269538743516],[135.72953617484166,35.442665809159095],[135.72945566151742,35.44259680521539]]]}},{"type":"Feature","properties":{"pid":"bc196ff5-57f2-4c6c-990e-0a47ac64bf51"},"geometry":{"type":"Polygon","coordinates":[[[135.72931113024254,35.44289033946066],[135.72935301413273,35.44280984018966],[135.72929017785498,35.44278692805266],[135.72925149426123,35.44285769493197],[135.72931113024254,35.44289033946066]]]}},{"type":"Feature","properties":{"pid":"d82a14f1-2823-45da-9e2f-81522cbd4ca7"},"geometry":{"type":"Polygon","coordinates":[[[135.72965173301233,35.442897805397216],[135.72961861299456,35.4429433874176],[135.72976904654405,35.44299833163716],[135.72977652431436,35.442943127484156],[135.72965173301233,35.442897805397216]]]}},{"type":"Feature","properties":{"pid":"3d315270-b540-4846-a4da-4132f2442160"},"geometry":{"type":"Polygon","coordinates":[[[135.7290875303882,35.443271048816776],[135.72908172225232,35.44334595707608],[135.72922183491053,35.44336732149553],[135.72923682551973,35.44333128451015],[135.72912812906526,35.44330286892123],[135.7290875303882,35.443271048816776]]]}},{"type":"Feature","properties":{"pid":"032fb479-ba10-4048-8842-d3e825adc07c"},"geometry":{"type":"Polygon","coordinates":[[[135.7374942608508,35.452172361949344],[135.73756715844766,35.45215284365599],[135.73757408085177,35.452025512616174],[135.73754068262605,35.45202036184619],[135.7374942608508,35.452172361949344]]]}},{"type":"Feature","properties":{"pid":"17f3c3cd-c55f-48ae-8cba-523c387f5feb"},"geometry":{"type":"Polygon","coordinates":[[[135.7374640630238,35.452310078988596],[135.73753516089536,35.452306480813604],[135.73762187550795,35.45227464467728],[135.73777583313552,35.452276634105026],[135.73779384793127,35.45209316014023],[135.73777272219758,35.45194203099052],[135.73775072258934,35.45194367630686],[135.73768563592088,35.452221896425485],[135.73753067562924,35.45227730538758],[135.73747319689411,35.45227982645286],[135.7374640630238,35.452310078988596]]]}},{"type":"Feature","properties":{"pid":"b2080198-c76f-4c5c-a5be-1ddc44cb4ef0"},"geometry":{"type":"Polygon","coordinates":[[[135.73777318516045,35.453898379601725],[135.73784070591202,35.45387188507256],[135.73783139524605,35.45374125339818],[135.73778586970272,35.45373699296685],[135.73777318516045,35.453898379601725]]]}},{"type":"Feature","properties":{"pid":"8ceae7b7-f8b4-4f5c-be8a-5636792713fc"},"geometry":{"type":"Polygon","coordinates":[[[135.72576769985332,35.455195722677644],[135.7257148995467,35.45511021621134],[135.72551366248464,35.45514416868257],[135.72551863576044,35.45526749678612],[135.72576769985332,35.455195722677644]]]}},{"type":"Feature","properties":{"pid":"01a55b68-d481-4d15-85d2-b3d7baa81d18"},"geometry":{"type":"Polygon","coordinates":[[[135.72550833099086,35.45504661906699],[135.7256727543731,35.45502025626611],[135.725623992443,35.45488298981863],[135.7256113368698,35.45479152831036],[135.72555854362838,35.45484339802297],[135.72552099113562,35.45493088620123],[135.72550833099086,35.45504661906699]]]}},{"type":"Feature","properties":{"pid":"04f1c24c-126c-4bb5-ab3a-371e85165680"},"geometry":{"type":"Polygon","coordinates":[[[135.72586147215046,35.45387810795968],[135.72577096273807,35.45383958091559],[135.7257194541289,35.45388567226312],[135.72581108882744,35.45392042657022],[135.72586147215046,35.45387810795968]]]}},{"type":"Feature","properties":{"pid":"f5840277-765c-4c00-9cca-1b32199d08b4"},"geometry":{"type":"Polygon","coordinates":[[[135.72609237507314,35.4536842362082],[135.7261407748131,35.453627062216285],[135.7260160271269,35.45361174768142],[135.72599692767247,35.45364584749636],[135.72609237507314,35.4536842362082]]]}},{"type":"Feature","properties":{"pid":"704b2755-2fbd-479c-b232-afa8089dc623"},"geometry":{"type":"Polygon","coordinates":[[[135.7262516545861,35.4534681637368],[135.72602464959309,35.453456171073626],[135.72602050445013,35.45350831700633],[135.72622460110023,35.45353234904726],[135.7262516545861,35.4534681637368]]]}},{"type":"Feature","properties":{"pid":"dd64d07d-d5e6-4a90-9d12-458b7fb086b7"},"geometry":{"type":"Polygon","coordinates":[[[135.72677239227417,35.45383555750378],[135.72680598777816,35.453617468075414],[135.72675541646004,35.453612805427504],[135.7266185930596,35.45378169571559],[135.72677239227417,35.45383555750378]]]}},{"type":"Feature","properties":{"pid":"155cd8c2-fb77-4ddb-8ea8-7f7fee791e33"},"geometry":{"type":"Polygon","coordinates":[[[135.7260761919333,35.453241740416956],[135.7260455631715,35.45329484594046],[135.72603368468114,35.45335568528505],[135.726228740288,35.453365067569045],[135.7260761919333,35.453241740416956]]]}},{"type":"Feature","properties":{"pid":"2aad1548-d9ba-4480-8bf7-3f46286c14fb"},"geometry":{"type":"Polygon","coordinates":[[[135.7259880650888,35.453803979425736],[135.72602201545428,35.45376545385334],[135.72591923868052,35.45372359170898],[135.72587727054625,35.45375924186312],[135.7259880650888,35.453803979425736]]]}}]}