{"type":"FeatureCollection","features":[{"type":"Feature","properties":{"pid":"36835d44-b293-477a-8bf7-f8dcfce78814"},"geometry":{"type":"Polygon","coordinates":[[[136.19934349875757,35.87323086789733],[136.19918034792937,35.87333906716152],[136.199202929472,35.87336055528567],[136.19936650133667,35.87325316226273],[136.19934349875757,35.87323086789733]]]}},{"type":"Feature","properties":{"pid":"d77cd1ba-a310-4139-becd-2f49c09b22c7"},"geometry":{"type":"Polygon","coordinates":[[[136.19952058788945,35.87345971976613],[136.1993919150826,35.873550989030974],[136.1995673099094,35.87355233202226],[136.19952058788945,35.87345971976613]]]}},{"type":"Feature","properties":{"pid":"5615c985-37ef-4fda-9edd-779deab72526"},"geometry":{"type":"Polygon","coordinates":[[[136.199496005275,35.87376029751853],[136.19970384414566,35.87374754589473],[136.19974366278808,35.873694817176684],[136.19950364306473,35.87371264290794],[136.199496005275,35.87376029751853]]]}},{"type":"Feature","properties":{"pid":"d71b7ae4-9c28-4576-b8cd-97ff3e0e56ea"},"geometry":{"type":"Polygon","coordinates":[[[136.19902818844332,35.87310432237675],[136.19912449020035,35.87304450195569],[136.1989559466422,35.87297190014259],[136.19892719949112,35.87299753020881],[136.19902818844332,35.87310432237675]]]}},{"type":"Feature","properties":{"pid":"2ef3f137-26bf-443d-be6f-a1261a6f7c78"},"geometry":{"type":"Polygon","coordinates":[[[136.18033151383062,35.86943124624224],[136.1804360158652,35.86929062040578],[136.17994939091844,35.86903134648426],[136.17983177696087,35.86917639105468],[136.18033151383062,35.86943124624224]]]}},{"type":"Feature","properties":{"pid":"2ec0c4ef-1167-4601-ac5a-f6a4f5550220"},"geometry":{"type":"Polygon","coordinates":[[[136.18074149227238,35.86834185542346],[136.18059829467913,35.868274003876856],[136.18053413016577,35.86836117732305],[136.18068091169306,35.86843383790225],[136.18074149227238,35.86834185542346]]]}},{"type":"Feature","properties":{"pid":"22dbff5b-840c-4da1-83b0-e29aebf970ab"},"geometry":{"type":"Polygon","coordinates":[[[136.18086541677727,35.86814296000084],[136.18074857084446,35.86809002094827],[136.1806686866508,35.86818946054259],[136.18080047097467,35.86825145501279],[136.18086541677727,35.86814296000084]]]}},{"type":"Feature","properties":{"pid":"cee8d90a-8d56-4084-8daf-63d3abe3a36a"},"geometry":{"type":"Polygon","coordinates":[[[136.1818457182874,35.86830730213501],[136.18169957724427,35.86825635811226],[136.18165663517587,35.868331623792145],[136.1816975014975,35.86834351219471],[136.18175179878986,35.868312119376405],[136.18183288562787,35.868331076925486],[136.1818457182874,35.86830730213501]]]}},{"type":"Feature","properties":{"pid":"e2c7226b-9dbe-47f6-b131-4c6738468dea"},"geometry":{"type":"Polygon","coordinates":[[[136.1818680910263,35.86817723537641],[136.1818770378502,35.86810353080439],[136.18178315000685,35.86809999179745],[136.1817722850376,35.86814940249245],[136.1818680910263,35.86817723537641]]]}},{"type":"Feature","properties":{"pid":"91d23665-2d2e-4084-81bb-ad0b4ad89ef0"},"geometry":{"type":"Polygon","coordinates":[[[136.183966008188,35.86443034841208],[136.18404261659992,35.864443430681376],[136.18406688288945,35.86427764468023],[136.18396953527431,35.864253426727494],[136.183966008188,35.86443034841208]]]}},{"type":"Feature","properties":{"pid":"47c05a97-0647-4220-8e7d-96f394f7cbe2"},"geometry":{"type":"Polygon","coordinates":[[[136.18436619774025,35.863906576122645],[136.1843815552681,35.86398861365082],[136.18453091191412,35.864016032493836],[136.18451325287722,35.86398251991685],[136.18452614078046,35.86393867394695],[136.18436619774025,35.863906576122645]]]}},{"type":"Feature","properties":{"pid":"1d0112ff-5efd-47b5-8327-cc75349e07f4"},"geometry":{"type":"Polygon","coordinates":[[[136.18423894962078,35.86403086791924],[136.18423383392485,35.86399538267762],[136.18396035636516,35.863950456618696],[136.18391374597581,35.864068120526014],[136.18420415624195,35.86413518474815],[136.18423894962078,35.86403086791924]]]}},{"type":"Feature","properties":{"pid":"10301d32-549a-4d8c-a5b1-9ee267d372ce"},"geometry":{"type":"Polygon","coordinates":[[[136.18381179722888,35.8639797068378],[136.18373196039423,35.8639617579287],[136.18370951146068,35.864021815356544],[136.18378870091422,35.86403808380444],[136.18381179722888,35.8639797068378]]]}},{"type":"Feature","properties":{"pid":"52d79462-038c-434e-ac27-898848dcd6bf"},"geometry":{"type":"Polygon","coordinates":[[[136.18382975763487,35.86444807445235],[136.1838389619029,35.86422133180186],[136.18364690982582,35.86418322818724],[136.18354814382536,35.86442496551492],[136.1836845264736,35.86444802245519],[136.18382975763487,35.86444807445235]]]}},{"type":"Feature","properties":{"pid":"ae303752-5e13-466d-8fc8-c61f79a9f361"},"geometry":{"type":"Polygon","coordinates":[[[136.18328112671222,35.864531821782364],[136.18281368311912,35.864437747317346],[136.18273578324562,35.8646945033778],[136.1830696051245,35.864752573856244],[136.18312227362347,35.86463945780777],[136.18315790079185,35.864631414402446],[136.18324125612202,35.864648897200546],[136.18328112671222,35.864531821782364]]]}},{"type":"Feature","properties":{"pid":"bac69672-995d-4a27-a7d4-d89f5827086b"},"geometry":{"type":"Polygon","coordinates":[[[136.18347739987829,35.86513595607714],[136.18328065584902,35.86512636136169],[136.1832621249187,35.86517780821093],[136.1834799586983,35.86518996519219],[136.18347739987829,35.86513595607714]]]}},{"type":"Feature","properties":{"pid":"799de66c-aa12-45d7-9321-fbc152c7b94a"},"geometry":{"type":"Polygon","coordinates":[[[136.18277827916228,35.86509757264924],[136.18280120135546,35.86488186967721],[136.18269560227552,35.864858167848006],[136.1826571734189,35.86498802971198],[136.18262389443356,35.86500922115083],[136.182576698937,35.86500617229551],[136.18256301788938,35.86505294923397],[136.18277827916228,35.86509757264924]]]}},{"type":"Feature","properties":{"pid":"e3796a5b-2a7b-4420-8cc2-c0226c491b81"},"geometry":{"type":"Polygon","coordinates":[[[136.18250719196539,35.86555198729738],[136.18284840293578,35.86560225832313],[136.18292394575283,35.86546002619661],[136.18265863701066,35.86540513490767],[136.18251559093468,35.86539149576161],[136.18250719196539,35.86555198729738]]]}},{"type":"Feature","properties":{"pid":"75936417-eae2-4d9b-949f-c22c7d2cbc93"},"geometry":{"type":"Polygon","coordinates":[[[136.18339751428596,35.86569057919095],[136.18340660706858,35.86557000395507],[136.18325184115167,35.86554410066711],[136.18323148003466,35.86566634080538],[136.18339751428596,35.86569057919095]]]}},{"type":"Feature","properties":{"pid":"68c96f9d-6966-43cc-8a37-a7b078890080"},"geometry":{"type":"Polygon","coordinates":[[[136.1834399488552,35.86540747663862],[136.18318709703237,35.865391441288175],[136.1831747014675,35.86541426010301],[136.18343341949526,35.86546365999776],[136.1834399488552,35.86540747663862]]]}},{"type":"Feature","properties":{"pid":"11162bc3-4ac1-4600-8244-a9ad676408e2"},"geometry":{"type":"Polygon","coordinates":[[[136.18332269695063,35.86676543039962],[136.18308838262925,35.86674915828425],[136.18306558341186,35.86685379126927],[136.1833148900369,35.86687472099201],[136.18333647718958,35.86679331745043],[136.18332269695063,35.86676543039962]]]}},{"type":"Feature","properties":{"pid":"b56e9f0a-b426-4b8e-8667-f7caa4338d2e"},"geometry":{"type":"Polygon","coordinates":[[[136.18265070872113,35.86700319312959],[136.18269407909042,35.86703713345524],[136.1826904939463,35.86712717218407],[136.18285865652444,35.86715345889228],[136.1828936965578,35.866993172936354],[136.18266655238472,35.86696776612346],[136.18265070872113,35.86700319312959]]]}},{"type":"Feature","properties":{"pid":"9d8e4b07-043e-4bac-85d8-cb583b9dbb85"},"geometry":{"type":"Polygon","coordinates":[[[136.18292555547987,35.866886534871824],[136.1829601182205,35.866716139172745],[136.18265905856111,35.86672401963774],[136.1826499190474,35.86677264427782],[136.18267562354856,35.86686281554781],[136.18292555547987,35.866886534871824]]]}},{"type":"Feature","properties":{"pid":"60d02526-7412-428e-93c1-f2689bbc3436"},"geometry":{"type":"Polygon","coordinates":[[[136.1827344928069,35.86636523063443],[136.1826532968808,35.866355668269975],[136.1825873051512,35.866596380709424],[136.18262311514954,35.86662232957453],[136.18267312034303,35.86662053598239],[136.1827344928069,35.86636523063443]]]}},{"type":"Feature","properties":{"pid":"ed8a702b-edfd-4af5-8764-2f434203540c"},"geometry":{"type":"Polygon","coordinates":[[[136.1831019581518,35.866647795882244],[136.18327871403042,35.86665978478798],[136.18331516228713,35.86642472605451],[136.1831417026827,35.86640459763909],[136.1831019581518,35.866647795882244]]]}},{"type":"Feature","properties":{"pid":"c647c7be-7718-4622-9ae8-587531ddd11b"},"geometry":{"type":"Polygon","coordinates":[[[136.18335084677514,35.86620278907826],[136.18337588275844,35.86608603058122],[136.18313716386734,35.86605025726394],[136.18310601215197,35.86628729161016],[136.18321125999017,35.866297012625765],[136.1832414339822,35.866206772825805],[136.18327537131597,35.86619522579434],[136.18335084677514,35.86620278907826]]]}},{"type":"Feature","properties":{"pid":"067990e4-e1a2-4a09-a868-bc914b07afdc"},"geometry":{"type":"Polygon","coordinates":[[[136.1832435358172,35.865808296288954],[136.18315516794095,35.86579710699428],[136.18315654743125,35.86594914825799],[136.18339604156483,35.8659864392032],[136.18337550475715,35.86595369958179],[136.18323780490894,35.86592218715799],[136.18322737715394,35.86589311891488],[136.1832435358172,35.865808296288954]]]}},{"type":"Feature","properties":{"pid":"567f87fd-b145-40f6-bbbf-d16d320e2fea"},"geometry":{"type":"Polygon","coordinates":[[[136.18298136339857,35.86627189058488],[136.1830198991346,35.865984728568094],[136.1830162569747,35.86588568896506],[136.1829166308807,35.86587872614043],[136.18290340207213,35.86590036314965],[136.18290641522375,35.86616380536523],[136.18286514426885,35.86623544993093],[136.18279535610563,35.86625490098082],[136.18298136339857,35.86627189058488]]]}},{"type":"Feature","properties":{"pid":"3dafb6d9-100d-4eb8-b525-bedbf7cee21d"},"geometry":{"type":"Polygon","coordinates":[[[136.18254533435706,35.8672439961884],[136.18256647986664,35.86709877796614],[136.1821655748655,35.86704061791672],[136.18211267044822,35.86718455498503],[136.18254533435706,35.8672439961884]]]}},{"type":"Feature","properties":{"pid":"7120142b-6284-4bde-8228-a629a5c3694d"},"geometry":{"type":"Polygon","coordinates":[[[136.18237813358635,35.867435400524386],[136.18250730341938,35.86744550471035],[136.1825249565333,35.86738115153777],[136.1823943628618,35.8673619634644],[136.18237813358635,35.867435400524386]]]}},{"type":"Feature","properties":{"pid":"68c2e1f9-d15e-45b4-9c4c-4335465bdd95"},"geometry":{"type":"Polygon","coordinates":[[[136.18217538013488,35.86739094138235],[136.18226021539283,35.867410749600225],[136.1822760267109,35.867336239911495],[136.18218525859442,35.86732208443395],[136.18217538013488,35.86739094138235]]]}},{"type":"Feature","properties":{"pid":"932a9989-72b4-4f6c-87a9-fd43f87639ff"},"geometry":{"type":"Polygon","coordinates":[[[136.18235026164828,35.865039668095655],[136.1824151824857,35.864806424633294],[136.1820021440036,35.86473435896242],[136.18193465718824,35.86498873706034],[136.18223658260268,35.865044712654765],[136.18235026164828,35.865039668095655]]]}},{"type":"Feature","properties":{"pid":"6811db93-6672-47e0-9ee6-a8d0b473d27a"},"geometry":{"type":"Polygon","coordinates":[[[136.18261057321266,35.86467417264068],[136.18268915190745,35.864414214052445],[136.18214612706825,35.864317931700285],[136.18207324776816,35.86458222851244],[136.18261057321266,35.86467417264068]]]}},{"type":"Feature","properties":{"pid":"f4458781-aec4-465e-9e39-4c726f67c083"},"geometry":{"type":"Polygon","coordinates":[[[136.18251518128062,35.86397967920684],[136.1822718662679,35.86390370193811],[136.18218788349944,35.86420524346842],[136.18235135393297,35.86424035209012],[136.18251518128062,35.86397967920684]]]}},{"type":"Feature","properties":{"pid":"c101330e-3a72-4366-8ff2-bf4d8a8e164d"},"geometry":{"type":"Polygon","coordinates":[[[136.17896192205765,35.865421010400276],[136.178880375322,35.86537700284733],[136.17881605559788,35.86563133237215],[136.17916024665374,35.86570318065724],[136.179155249357,35.865583872142615],[136.17896192205765,35.865421010400276]]]}},{"type":"Feature","properties":{"pid":"0758ff03-8110-447c-aa7f-f616777ffb77"},"geometry":{"type":"Polygon","coordinates":[[[136.17794242596338,35.86523034763187],[136.17839173781607,35.86525106682657],[136.17852562928053,35.864969469439124],[136.17853390470748,35.86493271856305],[136.17849950666377,35.86479764209183],[136.1779702026774,35.864778906818955],[136.17794242596338,35.86523034763187]]]}},{"type":"Feature","properties":{"pid":"76e59e6a-6145-46f3-9c6a-8a83ce678f74"},"geometry":{"type":"Polygon","coordinates":[[[136.17848118926213,35.86556143020099],[136.17869753225025,35.865606591126415],[136.17875996148425,35.86535407423229],[136.17860163594597,35.865419345204614],[136.17852498784282,35.86543026096141],[136.17848118926213,35.86556143020099]]]}},{"type":"Feature","properties":{"pid":"d493783c-3291-459f-8b53-6cc356b2ae4a"},"geometry":{"type":"Polygon","coordinates":[[[136.17790595245913,35.86577079206604],[136.17794957788172,35.86578914807487],[136.17818411856706,35.86579640563968],[136.17828434634637,35.865548106399814],[136.17791738619587,35.8655322332163],[136.17790595245913,35.86577079206604]]]}},{"type":"Feature","properties":{"pid":"f4d96dee-e457-4aa6-ba4a-4d4d708d7128"},"geometry":{"type":"Polygon","coordinates":[[[136.1779301833707,35.86543827096229],[136.17830973796285,35.86545366723874],[136.1783458686453,35.86534394017838],[136.17793786413245,35.86532813107572],[136.1779301833707,35.86543827096229]]]}},{"type":"Feature","properties":{"pid":"74ca4951-b50c-4860-98d6-f50ff8eebb70"},"geometry":{"type":"Polygon","coordinates":[[[136.1779832515129,35.86468043987319],[136.1784728218176,35.864696844377505],[136.17844542831764,35.86462756921589],[136.17843633872312,35.864533950237565],[136.17847186117146,35.864287305007615],[136.17800287458005,35.86426714145986],[136.1779832515129,35.86468043987319]]]}},{"type":"Feature","properties":{"pid":"7fc6b3e1-9795-42ca-9a83-0eaaab4bf0f0"},"geometry":{"type":"Polygon","coordinates":[[[136.1780210474829,35.864143062021114],[136.17849942178364,35.86416860915708],[136.1785506033782,35.86396535863178],[136.17802506972606,35.86394401505003],[136.1780210474829,35.864143062021114]]]}},{"type":"Feature","properties":{"pid":"ad1693d6-389c-42f0-96ff-cba14c046476"},"geometry":{"type":"Polygon","coordinates":[[[136.1768020587173,35.86438735275144],[136.17780025890568,35.8644231486761],[136.17781536861122,35.86425894208933],[136.17681166213183,35.864217470360344],[136.1768020587173,35.86438735275144]]]}},{"type":"Feature","properties":{"pid":"69345232-68f3-4e08-9db1-3bb4fca8687c"},"geometry":{"type":"Polygon","coordinates":[[[136.17678751220504,35.86463370505715],[136.17777718105907,35.86467395154639],[136.17779079307365,35.86452601937336],[136.17679655203384,35.86448520811533],[136.17678751220504,35.86463370505715]]]}},{"type":"Feature","properties":{"pid":"26572c25-df0e-42b6-9f22-7536d8fd341b"},"geometry":{"type":"Polygon","coordinates":[[[136.17565157835512,35.86401458208742],[136.1766537918079,35.86405095730764],[136.17666559946844,35.863883681055015],[136.1756617562052,35.86384420176486],[136.17565157835512,35.86401458208742]]]}},{"type":"Feature","properties":{"pid":"5b9eb043-d86c-447b-a786-67712f80f406"},"geometry":{"type":"Polygon","coordinates":[[[136.1756412113893,35.864333594322225],[136.17662738633004,35.864372589640716],[136.17663633184475,35.8642174581456],[136.17565253999567,35.86416782678375],[136.1756412113893,35.864333594322225]]]}},{"type":"Feature","properties":{"pid":"462ec141-0220-4a87-8fb5-1042702596eb"},"geometry":{"type":"Polygon","coordinates":[[[136.1756322624268,35.86446452729114],[136.1766206474329,35.8644961464152],[136.17662154451077,35.86447969900649],[136.17563419657887,35.86443623050897],[136.1756322624268,35.86446452729114]]]}},{"type":"Feature","properties":{"pid":"2ed8c32d-10e7-4010-ad7f-79e4aa7fa3c9"},"geometry":{"type":"Polygon","coordinates":[[[136.17661476669178,35.864603974518666],[136.17562432835413,35.86456435681299],[136.1756208235236,35.86460727014779],[136.17661259459922,35.86464380338424],[136.17661476669178,35.864603974518666]]]}},{"type":"Feature","properties":{"pid":"ee148ae7-24ec-4439-89f8-c86766d68591"},"geometry":{"type":"Polygon","coordinates":[[[136.17560258912766,35.8648534090665],[136.1765976225933,35.86489217665956],[136.17660676860928,35.86474567837505],[136.1756126511982,35.86470731070365],[136.17560258912766,35.8648534090665]]]}},{"type":"Feature","properties":{"pid":"bf662027-f488-4700-ba05-a1b8283f5201"},"geometry":{"type":"Polygon","coordinates":[[[136.17558459501225,35.8651234244481],[136.17658085085537,35.86516081248072],[136.17659109428567,35.86499675160626],[136.17559579076402,35.86495542979705],[136.17558459501225,35.8651234244481]]]}},{"type":"Feature","properties":{"pid":"cf967fa2-9e43-41d7-9746-1e1e228f0244"},"geometry":{"type":"Polygon","coordinates":[[[136.17556748312734,35.86539753234571],[136.17656254253478,35.86543576346786],[136.17657421441092,35.86526197169964],[136.17557842810507,35.86522150939546],[136.17556748312734,35.86539753234571]]]}},{"type":"Feature","properties":{"pid":"4e639c55-3fff-490f-b1b1-3760f42d85de"},"geometry":{"type":"Polygon","coordinates":[[[136.17554932964646,35.865689493587],[136.17654333266083,35.8657309647294],[136.17655569859656,35.86553766398176],[136.1755613440224,35.865496259880274],[136.17554932964646,35.865689493587]]]}},{"type":"Feature","properties":{"pid":"f80a2bed-c293-463a-a1f6-5a90d5170372"},"geometry":{"type":"Polygon","coordinates":[[[136.1767680916283,35.8649029959712],[136.17776356346425,35.86494295015294],[136.17777190198265,35.864773664038296],[136.17678084491916,35.86473262733168],[136.1767680916283,35.8649029959712]]]}},{"type":"Feature","properties":{"pid":"e5346ba2-ee23-4644-b7f1-bdc474466a34"},"geometry":{"type":"Polygon","coordinates":[[[136.1767468132086,35.8651694714109],[136.1777503947275,35.86521028452833],[136.1777586615622,35.86504245297243],[136.17676026797054,35.865001202829696],[136.1767468132086,35.8651694714109]]]}},{"type":"Feature","properties":{"pid":"e1d74c91-16aa-4717-ae22-1182ae4fa832"},"geometry":{"type":"Polygon","coordinates":[[[136.1767297907609,35.865441774494876],[136.17773161136589,35.86548417101899],[136.17774515995416,35.865316561544],[136.17673829596384,35.86527105294149],[136.1767297907609,35.865441774494876]]]}},{"type":"Feature","properties":{"pid":"0acc964a-da17-441e-b647-a6ab61f754a2"},"geometry":{"type":"Polygon","coordinates":[[[136.17671897081905,35.86574013441663],[136.17770092630738,35.86577944473772],[136.1777209312704,35.86558694034068],[136.17672566785444,35.86553891568889],[136.17671897081905,35.86574013441663]]]}},{"type":"Feature","properties":{"pid":"72c998c3-b9ba-4bb2-b1fc-dc33fa848f73"},"geometry":{"type":"Polygon","coordinates":[[[136.17669886933564,35.86608830202947],[136.17793944317413,35.86612585190743],[136.17794853477017,35.86596124894252],[136.1777374861682,35.865890810349086],[136.17671389553834,35.865853941373445],[136.17669886933564,35.86608830202947]]]}},{"type":"Feature","properties":{"pid":"d22d2f6a-6b1e-4aec-87e1-e5d46c70c65e"},"geometry":{"type":"Polygon","coordinates":[[[136.17725222144338,35.866870475737684],[136.17756736590619,35.86686001467127],[136.17760844809564,35.86629647973694],[136.1772964645931,35.866287908723116],[136.17725222144338,35.866870475737684]]]}},{"type":"Feature","properties":{"pid":"ec6b2a4c-c270-4785-95c8-469f8b03486f"},"geometry":{"type":"Polygon","coordinates":[[[136.17681260099326,35.866861235229855],[136.17713208094636,35.86686795099904],[136.17716865137484,35.866285517563924],[136.17684595374226,35.86627863343706],[136.17681260099326,35.866861235229855]]]}},{"type":"Feature","properties":{"pid":"cb3074ba-c2d5-4c50-be22-ff266ab17e86"},"geometry":{"type":"Polygon","coordinates":[[[136.1763690286865,35.866854807650526],[136.17668669409778,35.86685927160333],[136.1767226419286,35.86627543122404],[136.1764037086041,35.86627426584235],[136.1763690286865,35.866854807650526]]]}},{"type":"Feature","properties":{"pid":"8284235e-37a2-431a-85c0-df8c790358c3"},"geometry":{"type":"MultiPolygon","coordinates":[[[[136.17611390953846,35.86651507887298],[136.17609722158332,35.8668508875857],[136.17623028754528,35.86685280682917],[136.1762582328099,35.866549682953384],[136.17618549192585,35.866572379419026],[136.17611390953846,35.86651507887298]]],[[[136.1761180824435,35.86643110793769],[136.17620730529308,35.86637707797613],[136.17626918849197,35.866390190332304],[136.17627715154478,35.86627426403213],[136.1761258767889,35.86627426279253],[136.1761180824435,35.86643110793769]]]]}},{"type":"Feature","properties":{"pid":"b0714c2a-d624-49f0-bbfa-ecc380c454d6"},"geometry":{"type":"Polygon","coordinates":[[[136.17552790446194,35.86606727787794],[136.17652077769597,35.86608566934165],[136.17653603532528,35.86584571522214],[136.17554295260044,35.86580101938932],[136.17552790446194,35.86606727787794]]]}},{"type":"Feature","properties":{"pid":"a6b39096-8a43-4084-bb12-33f0284eff14"},"geometry":{"type":"Polygon","coordinates":[[[136.1751722937166,35.86606161009469],[136.17534964574023,35.86606382926676],[136.1753682500497,35.86579745995633],[136.17519296703998,35.86579222804469],[136.1751722937166,35.86606161009469]]]}},{"type":"Feature","properties":{"pid":"2ae9dc9d-4f83-4c78-9b59-125b41fcd1a5"},"geometry":{"type":"Polygon","coordinates":[[[136.17497934555294,35.866820100707756],[136.17530067503913,35.86683307251261],[136.1753344034694,35.86624683438109],[136.17501915873513,35.86624387338589],[136.17497934555294,35.866820100707756]]]}},{"type":"Feature","properties":{"pid":"8cd2cfae-a83c-4b16-8dcf-a515a55cdbec"},"geometry":{"type":"Polygon","coordinates":[[[136.17547454113742,35.86684008075431],[136.17573712058194,35.86684487523569],[136.17577687044178,35.86621954985276],[136.17550782653495,35.86621503636334],[136.17547454113742,35.86684008075431]]]}},{"type":"Feature","properties":{"pid":"cb068fbe-6d8d-4f55-a824-6922c6b7dc8e"},"geometry":{"type":"Polygon","coordinates":[[[136.17592051665216,35.86684822298056],[136.1759723090002,35.866849085469035],[136.17599974568043,35.86627057000317],[136.17595299061517,35.86626860900688],[136.17592051665216,35.86684822298056]]]}},{"type":"Feature","properties":{"pid":"bb3e97c5-dbb1-4a8c-b707-3dbe54aa1425"},"geometry":{"type":"Polygon","coordinates":[[[136.17520961153758,35.86785390437613],[136.17541318047154,35.86785671887351],[136.17544213789586,35.86704959740722],[136.17523649853752,35.86704552462199],[136.17520961153758,35.86785390437613]]]}},{"type":"Feature","properties":{"pid":"46aaa7a2-5ed7-4d07-8efd-aabac64a2b80"},"geometry":{"type":"Polygon","coordinates":[[[136.17554907266845,35.86785824881361],[136.17569159388583,35.86785943803235],[136.17571592981722,35.86705502031207],[136.1755715968694,35.86705216145142],[136.17554907266845,35.86785824881361]]]}},{"type":"Feature","properties":{"pid":"18fce8c7-f0e9-4d4c-bbbe-d8e9d13444c3"},"geometry":{"type":"Polygon","coordinates":[[[136.17593564048832,35.86786759073363],[136.176160585475,35.86787481540879],[136.17617388285015,35.867063424608325],[136.17595530266277,35.86705976030625],[136.17593564048832,35.86786759073363]]]}},{"type":"Feature","properties":{"pid":"d07e2e2d-2a6c-4a7c-8bf8-c94bad08b807"},"geometry":{"type":"Polygon","coordinates":[[[136.17628607086542,35.86787752369986],[136.17633157037827,35.86787850585326],[136.17635586632244,35.86706574879199],[136.17630695483842,35.8670651242485],[136.17628607086542,35.86787752369986]]]}},{"type":"Feature","properties":{"pid":"a1b4c0f4-194c-45cf-98b1-20461fa203c6"},"geometry":{"type":"Polygon","coordinates":[[[136.1764548756646,35.867881166958554],[136.17647552577733,35.86788161291529],[136.17649785920452,35.867067855418554],[136.17647471745167,35.867067457555414],[136.1764548756646,35.867881166958554]]]}},{"type":"Feature","properties":{"pid":"eb75fd05-ded1-4908-8378-9baadf8a085d"},"geometry":{"type":"Polygon","coordinates":[[[136.17660483801527,35.86788402424449],[136.17680911209686,35.8678873203383],[136.1768247264467,35.867073472367686],[136.17662512014675,35.86707004256921],[136.17660483801527,35.86788402424449]]]}},{"type":"Feature","properties":{"pid":"a1eabe9e-2daf-4ca1-b718-e719a5df445c"},"geometry":{"type":"Polygon","coordinates":[[[136.17694711279415,35.867417807457954],[136.17730846449686,35.86742210538675],[136.17743241703172,35.86707908296017],[136.17695416258272,35.86707540618909],[136.17694711279415,35.867417807457954]]]}},{"type":"Feature","properties":{"pid":"84153621-4bda-4ca7-a389-b347d97f38af"},"geometry":{"type":"Polygon","coordinates":[[[136.1774859787479,35.867509704631416],[136.17775075736873,35.8675682902673],[136.1778691606935,35.86739421523808],[136.17789800693262,35.86737432488165],[136.17817609783137,35.86742232869149],[136.1782477456051,35.86713889870419],[136.17763232809196,35.867101245566936],[136.1774859787479,35.867509704631416]]]}},{"type":"Feature","properties":{"pid":"35a7707b-bb21-49de-b951-e7dfd1a28219"},"geometry":{"type":"Polygon","coordinates":[[[136.17770030902082,35.86684801016754],[136.1778748281364,35.86682402074513],[136.1779293447781,35.86630775990886],[136.1777383876344,35.86630067173635],[136.17770030902082,35.86684801016754]]]}},{"type":"Feature","properties":{"pid":"4d51f0e1-3c09-4793-9a4e-6d7cbf642bfc"},"geometry":{"type":"Polygon","coordinates":[[[136.17833589393496,35.86598082084916],[136.17860423615534,35.86598598291775],[136.17867302527188,35.86570603961352],[136.17844477425518,35.86565872822867],[136.17833589393496,35.86598082084916]]]}},{"type":"Feature","properties":{"pid":"afa08cc0-6cbd-47cc-80fa-6c705aad5d0c"},"geometry":{"type":"Polygon","coordinates":[[[136.17872153606933,35.86600241533614],[136.17908240614832,35.866022967021244],[136.17909669169373,35.865914641497376],[136.179136133639,35.865875749074974],[136.17914858703384,35.8658046115223],[136.17879086768173,35.86573046553253],[136.17872153606933,35.86600241533614]]]}},{"type":"Feature","properties":{"pid":"a0969a4b-ad53-4fdd-89ba-019a49cba7e6"},"geometry":{"type":"Polygon","coordinates":[[[136.18009180707242,35.869734663448746],[136.18026906778627,35.869514403987985],[136.17976428934023,35.86926019647999],[136.17959425000046,35.86948552687198],[136.18009180707242,35.869734663448746]]]}},{"type":"Feature","properties":{"pid":"4018b7c2-02cb-45e5-8469-3fb3b9726065"},"geometry":{"type":"Polygon","coordinates":[[[136.17633940604355,35.86952277963201],[136.17655086666994,35.86952329211701],[136.1765548892071,35.868991977172556],[136.17635106430347,35.86898906125873],[136.17633940604355,35.86952277963201]]]}},{"type":"Feature","properties":{"pid":"ea66ce5b-6ab4-452c-b53d-71a98198de3b"},"geometry":{"type":"Polygon","coordinates":[[[136.17634786158771,35.869816756926674],[136.17648909671163,35.86962351076156],[136.1763522571394,35.86962371171786],[136.17634786158771,35.869816756926674]]]}},{"type":"Feature","properties":{"pid":"90b85db3-89e0-4d8a-8695-5a97b702f215"},"geometry":{"type":"Polygon","coordinates":[[[136.17606061558476,35.870234608086214],[136.1762468202718,35.869988360259704],[136.17627358709666,35.86995357455532],[136.17606837548652,35.8699504749806],[136.17606061558476,35.870234608086214]]]}},{"type":"Feature","properties":{"pid":"2a76e766-e547-4cb5-baa9-a40b23f56d62"},"geometry":{"type":"Polygon","coordinates":[[[136.17585984157424,35.87044357807271],[136.17590314590092,35.87044285573151],[136.17593682750382,35.870398313592176],[136.17594896174407,35.86994867027783],[136.17587379699495,35.869947534602396],[136.17585984157424,35.87044357807271]]]}},{"type":"Feature","properties":{"pid":"1b9dab20-caec-43a5-ad66-bbc54227b6e3"},"geometry":{"type":"Polygon","coordinates":[[[136.17561740757066,35.87068881090779],[136.17567514979893,35.87062712249586],[136.17568803745638,35.869930970108236],[136.17563952087085,35.869929602644405],[136.17561740757066,35.87068881090779]]]}},{"type":"Feature","properties":{"pid":"7f042ab6-b442-4b4d-94f5-187beaf0e63e"},"geometry":{"type":"Polygon","coordinates":[[[136.17512662350126,35.87073778314],[136.17532898047773,35.87074498967452],[136.17535153054638,35.869921485774775],[136.17515479197283,35.869917015847214],[136.17512662350126,35.87073778314]]]}},{"type":"Feature","properties":{"pid":"a2f5a17e-b8fd-4b71-a670-3d127638708a"},"geometry":{"type":"Polygon","coordinates":[[[136.1755186661747,35.869926196419854],[136.17547431206208,35.86992494639688],[136.17545290111164,35.87074888671387],[136.17549585852325,35.87075006369127],[136.1755186661747,35.869926196419854]]]}},{"type":"Feature","properties":{"pid":"2b09def0-95ac-44c3-8b7a-c36094037f23"},"geometry":{"type":"Polygon","coordinates":[[[136.17588255102862,35.86978316323841],[136.17620326936498,35.86978942474532],[136.17622300956856,35.86899025683332],[136.17591056439576,35.86898911551804],[136.17588255102862,35.86978316323841]]]}},{"type":"Feature","properties":{"pid":"9ce4ce2d-228d-496a-bb24-342f8545acd4"},"geometry":{"type":"Polygon","coordinates":[[[136.1754945012382,35.86977923839115],[136.1756926382549,35.86978255630818],[136.17572274450512,35.868977222852614],[136.1755117678337,35.86897314788371],[136.1754945012382,35.86977923839115]]]}},{"type":"Feature","properties":{"pid":"f00d18bb-9894-429e-b615-58133f6e755f"},"geometry":{"type":"Polygon","coordinates":[[[136.17516357674702,35.86977369366089],[136.17537176895803,35.869777181457344],[136.17538666338282,35.86897072949081],[136.17518393723296,35.868966812836845],[136.17516357674702,35.86977369366089]]]}},{"type":"Feature","properties":{"pid":"244327ec-6485-41c7-84fa-23d8e03b26fb"},"geometry":{"type":"Polygon","coordinates":[[[136.17518341790776,35.868804634908045],[136.17538641012226,35.86881073175718],[136.17540796736432,35.868003420232895],[136.17520493974445,35.86799922649721],[136.17518341790776,35.868804634908045]]]}},{"type":"Feature","properties":{"pid":"08da40d8-44cf-4e6f-b5d6-c6e8105ab7ba"},"geometry":{"type":"Polygon","coordinates":[[[136.17551791597012,35.86881468148462],[136.17572629810954,35.86882093925424],[136.17574385492338,35.86801247644888],[136.17553543860228,35.868006857276335],[136.17551791597012,35.86881468148462]]]}},{"type":"Feature","properties":{"pid":"6b451196-12ca-4ccd-8ca7-15e9a43d4c83"},"geometry":{"type":"Polygon","coordinates":[[[136.17590758665014,35.868824740906184],[136.1761222252505,35.86882841675902],[136.17614550359085,35.86802263744362],[136.17593693085658,35.868017681113535],[136.17590758665014,35.868824740906184]]]}},{"type":"Feature","properties":{"pid":"14983528-afd4-4ef6-8c19-151a2bed9e56"},"geometry":{"type":"Polygon","coordinates":[[[136.17668132628694,35.86938084970747],[136.17672206470633,35.869313402803776],[136.1767318776918,35.86899944266361],[136.17668407927923,35.86899773148152],[136.17668132628694,35.86938084970747]]]}},{"type":"Feature","properties":{"pid":"5edf19b9-3db0-422f-be19-f34758147832"},"geometry":{"type":"Polygon","coordinates":[[[136.17658633030075,35.86883516418166],[136.17681454087705,35.86883823377807],[136.17709443234097,35.86803447596967],[136.1766075154713,35.86802920340304],[136.17658633030075,35.86883516418166]]]}},{"type":"Feature","properties":{"pid":"df38438d-8c1a-4445-8e3c-2d44b64adb49"},"geometry":{"type":"Polygon","coordinates":[[[136.1762487168496,35.86883058357368],[136.17646208687802,35.868833493008324],[136.17647818440648,35.86802736559555],[136.17627072877377,35.86802441689156],[136.1762487168496,35.86883058357368]]]}},{"type":"Feature","properties":{"pid":"e859f8f3-358b-40d0-86ad-99295c9a5968"},"geometry":{"type":"Polygon","coordinates":[[[136.1769374023603,35.86788939074459],[136.17714123329264,35.86789154538641],[136.1772751839874,35.86752322260641],[136.1769450571407,35.86751763043154],[136.1769374023603,35.86788939074459]]]}},{"type":"Feature","properties":{"pid":"1ad91f69-2964-4f32-80c7-1b8d2b9b1fcc"},"geometry":{"type":"Polygon","coordinates":[[[136.17469560532894,35.86036750193323],[136.17569304562667,35.860403763707254],[136.175703167995,35.860234715623236],[136.1747045981398,35.8601924427636],[136.17469560532894,35.86036750193323]]]}},{"type":"Feature","properties":{"pid":"22fe62e3-f701-49ec-b161-a003eb4d108d"},"geometry":{"type":"Polygon","coordinates":[[[136.17471022988823,35.86008913960178],[136.1757092209366,35.860133616770845],[136.17572024517122,35.85997214023864],[136.174719947649,35.859932047408286],[136.17471022988823,35.86008913960178]]]}},{"type":"Feature","properties":{"pid":"8a715e5d-e3b0-4509-b28f-a8644562484d"},"geometry":{"type":"Polygon","coordinates":[[[136.17472662832392,35.85982401692816],[136.17572789905697,35.85986376004027],[136.17573950759697,35.859699423434556],[136.17473706898505,35.859655224883994],[136.17472662832392,35.85982401692816]]]}},{"type":"Feature","properties":{"pid":"7a3a302f-ecdd-4bfe-8bc8-6cb29bc72e4e"},"geometry":{"type":"Polygon","coordinates":[[[136.175893571259,35.86041978272284],[136.1768814545883,35.86046142694893],[136.17689342279965,35.8602953943657],[136.17590291822677,35.86024959728286],[136.175893571259,35.86041978272284]]]}},{"type":"Feature","properties":{"pid":"abd2d1d5-4bc4-42bb-afdb-4b9823867648"},"geometry":{"type":"Polygon","coordinates":[[[136.17590857937947,35.86014652606092],[136.17690126588082,35.860186605349604],[136.17691266861476,35.860028423548705],[136.17592033189854,35.859981105438216],[136.17590857937947,35.86014652606092]]]}},{"type":"Feature","properties":{"pid":"da748d56-d707-48fe-a446-c1f480edb707"},"geometry":{"type":"Polygon","coordinates":[[[136.1759298092626,35.85988244093639],[136.17692031139353,35.85992240581877],[136.17692830046087,35.8597975849158],[136.17594128323213,35.85975195263562],[136.1759298092626,35.85988244093639]]]}},{"type":"Feature","properties":{"pid":"644666f1-40c8-4738-8c1c-3eeec0444784"},"geometry":{"type":"Polygon","coordinates":[[[136.1759462080969,35.85964733846673],[136.17693411364172,35.859691809418855],[136.17694578279514,35.85947953743336],[136.17595588369576,35.859441876087],[136.1759462080969,35.85964733846673]]]}},{"type":"Feature","properties":{"pid":"a274bb4f-e71f-4988-abca-dd83ad79f304"},"geometry":{"type":"Polygon","coordinates":[[[136.1759643960067,35.85933883386479],[136.17695146637087,35.85937613927314],[136.17696474951225,35.8592091456666],[136.176015441172,35.85916469234945],[136.17598263974656,35.85918668837954],[136.1759643960067,35.85933883386479]]]}},{"type":"Feature","properties":{"pid":"c02822f3-029c-41db-8d89-4d9acdbad080"},"geometry":{"type":"Polygon","coordinates":[[[136.1772774287105,35.859217796057045],[136.17714034427343,35.85921114888266],[136.17713256424773,35.8593804705904],[136.1772664970521,35.85938683031077],[136.1772774287105,35.859217796057045]]]}},{"type":"Feature","properties":{"pid":"d8d16bf4-772b-448c-84d4-afc9407f4dd5"},"geometry":{"type":"Polygon","coordinates":[[[136.1760009448632,35.85874796341862],[136.17698886705958,35.858783847051534],[136.17700010657393,35.85861798039445],[136.17600927804514,35.85857726504598],[136.1760009448632,35.85874796341862]]]}},{"type":"Feature","properties":{"pid":"73541f0b-d038-45f0-9e66-bdf230588c58"},"geometry":{"type":"Polygon","coordinates":[[[136.17599049020734,35.85901875596626],[136.1769684752975,35.85905784557689],[136.17698122102883,35.85888686719553],[136.17599699118355,35.85885037787838],[136.17599049020734,35.85901875596626]]]}},{"type":"Feature","properties":{"pid":"058a5c94-34bf-4c4a-8341-b62320d5002f"},"geometry":{"type":"Polygon","coordinates":[[[136.17476110341073,35.85928196878091],[136.1757545538371,35.85932611855407],[136.17576793631108,35.859155851773664],[136.1747723690448,35.859111396566696],[136.17476110341073,35.85928196878091]]]}},{"type":"Feature","properties":{"pid":"ab5aafe3-7b0f-4868-bb02-eb92c66a9497"},"geometry":{"type":"Polygon","coordinates":[[[136.1747430037844,35.859559277966014],[136.1757439623177,35.85960285995495],[136.17575071835282,35.85942538362756],[136.17475452198224,35.859381624479035],[136.1747430037844,35.859559277966014]]]}},{"type":"Feature","properties":{"pid":"45bc95f1-140b-48b1-ba68-f51207d6ffcf"},"geometry":{"type":"Polygon","coordinates":[[[136.17477878640432,35.85901416591672],[136.1757758061673,35.85905573434419],[136.17577739246587,35.859035553137446],[136.174779915598,35.85899616798987],[136.17477878640432,35.85901416591672]]]}},{"type":"Feature","properties":{"pid":"cdfea960-3029-4d01-bfaa-ca5284116a12"},"geometry":{"type":"Polygon","coordinates":[[[136.17478581481328,35.85890213924461],[136.17578296097747,35.85894131787785],[136.17578647755374,35.85883194081628],[136.17479300924856,35.858787465543216],[136.17478581481328,35.85890213924461]]]}},{"type":"Feature","properties":{"pid":"b318d74a-bfe9-4d00-aac1-1b5ed19a2a94"},"geometry":{"type":"Polygon","coordinates":[[[136.17479913826335,35.858689779929],[136.17579595023952,35.85873334933182],[136.17581033935366,35.858574357260665],[136.17480962247728,35.85852266288796],[136.17479913826335,35.858689779929]]]}},{"type":"Feature","properties":{"pid":"e418f060-5832-4e0c-9708-331690e7eb83"},"geometry":{"type":"Polygon","coordinates":[[[136.1760664990189,35.85766184972321],[136.17705535312595,35.857701387271995],[136.17706679359958,35.857533491119725],[136.17607876427533,35.85749185930977],[136.1760664990189,35.85766184972321]]]}},{"type":"Feature","properties":{"pid":"e698e416-330f-4c81-a2d4-41b1b7f33a2d"},"geometry":{"type":"Polygon","coordinates":[[[136.1760860655734,35.857390663087614],[136.17707381779175,35.85742860764092],[136.1770845855636,35.85726783305749],[136.17609817061748,35.8572228883015],[136.1760860655734,35.857390663087614]]]}},{"type":"Feature","properties":{"pid":"066c9071-5135-4f81-91a6-f64ecd872c88"},"geometry":{"type":"Polygon","coordinates":[[[136.1760494204756,35.85792876165688],[136.17703911570374,35.8579760739289],[136.17704827996477,35.85780393572537],[136.17606189600528,35.85776382241706],[136.1760494204756,35.85792876165688]]]}},{"type":"Feature","properties":{"pid":"36ed247a-0520-46c6-9fdd-5f6eba32cf59"},"geometry":{"type":"Polygon","coordinates":[[[136.1760296848907,35.85820908655832],[136.1770249701432,35.85825102482369],[136.17703410574634,35.85807533731662],[136.17604111582693,35.85803131249193],[136.1760296848907,35.85820908655832]]]}},{"type":"Feature","properties":{"pid":"0d134651-6f6c-42d9-b7d3-603f185f39dc"},"geometry":{"type":"Polygon","coordinates":[[[136.1761820924133,35.85848724735201],[136.1770047239448,35.858520457581044],[136.17701860308912,35.8583492149717],[136.1761847048913,35.85831525119683],[136.1761820924133,35.85848724735201]]]}},{"type":"Feature","properties":{"pid":"ddbe5be3-1849-409d-8fca-798ecac70942"},"geometry":{"type":"Polygon","coordinates":[[[136.17719862951517,35.85852431924409],[136.17815982663564,35.858562187847305],[136.17817006870752,35.85839814422875],[136.17720547293362,35.85835348706285],[136.17719862951517,35.85852431924409]]]}},{"type":"Feature","properties":{"pid":"c0b9f1c8-69c3-4fde-88e1-c46105dee8b1"},"geometry":{"type":"Polygon","coordinates":[[[136.17720962599495,35.858249831560066],[136.17817949946908,35.85829130253269],[136.17819223767833,35.858122695254856],[136.1772186617121,35.85808643806798],[136.17720962599495,35.858249831560066]]]}},{"type":"Feature","properties":{"pid":"292167cd-6be5-4058-ae77-4230f025a35b"},"geometry":{"type":"Polygon","coordinates":[[[136.17722580608378,35.8579874064565],[136.17819815326962,35.85802220817247],[136.17820848021356,35.857855373841325],[136.1772384378056,35.857811540508415],[136.17722580608378,35.8579874064565]]]}},{"type":"Feature","properties":{"pid":"5f09e62f-995a-400f-b4ee-5b72c8d626bd"},"geometry":{"type":"Polygon","coordinates":[[[136.1772450973945,35.857711809546224],[136.1782153722388,35.85775463606509],[136.17822930352207,35.85758171041569],[136.1772565584585,35.85754018966837],[136.1772450973945,35.857711809546224]]]}},{"type":"Feature","properties":{"pid":"efbaf5e5-74bd-4e9a-89d4-d4fd0b29c497"},"geometry":{"type":"Polygon","coordinates":[[[136.17726175692584,35.85744028282559],[136.1782375977315,35.85747955284543],[136.17825867390403,35.8572028660963],[136.17727377564972,35.857162496400356],[136.17726175692584,35.85744028282559]]]}},{"type":"Feature","properties":{"pid":"2202992e-d012-408b-861a-6c40eec86df6"},"geometry":{"type":"Polygon","coordinates":[[[136.1784228377853,35.857763103543405],[136.17942424322428,35.857810276380015],[136.17943658602007,35.857636964730695],[136.1784331230665,35.857600604506146],[136.1784228377853,35.857763103543405]]]}},{"type":"Feature","properties":{"pid":"5299811f-8e04-4d5e-83da-1376966e8f14"},"geometry":{"type":"Polygon","coordinates":[[[136.17843964960227,35.85749749108995],[136.1794439494645,35.85753356300485],[136.1794561799772,35.85736376248006],[136.17845261496439,35.8573216565254],[136.17843964960227,35.85749749108995]]]}},{"type":"Feature","properties":{"pid":"085ec45a-73e3-4bf9-9606-91ccd2777c33"},"geometry":{"type":"Polygon","coordinates":[[[136.1784618489519,35.857220779793536],[136.17946366901373,35.85725980680294],[136.1794754802641,35.85709583787152],[136.17847692821536,35.857056052194494],[136.1784618489519,35.857220779793536]]]}},{"type":"Feature","properties":{"pid":"c569d32c-da52-4c18-97cf-b9b9fc8055d3"},"geometry":{"type":"Polygon","coordinates":[[[136.17840565792991,35.858034558694264],[136.17940588696445,35.858073151504264],[136.17941717773272,35.857909496524286],[136.17841663806684,35.8578610612289],[136.17840565792991,35.858034558694264]]]}},{"type":"Feature","properties":{"pid":"e8bae96c-012b-46c0-adca-7512d228c502"},"geometry":{"type":"Polygon","coordinates":[[[136.1783872313315,35.85831211038991],[136.17938784266772,35.85834790608995],[136.17939938506274,35.8581739381917],[136.1783993571291,35.858130846436154],[136.1783872313315,35.85831211038991]]]}},{"type":"Feature","properties":{"pid":"4078d9ce-e427-4816-ad0c-3a401c94e758"},"geometry":{"type":"Polygon","coordinates":[[[136.17836833454479,35.85857470471999],[136.17936972589246,35.85862091879061],[136.17937733295676,35.85850628567448],[136.17837624177253,35.858464582257355],[136.17836833454479,35.85857470471999]]]}},{"type":"Feature","properties":{"pid":"550b331d-1359-49fc-b316-d44ffee948e3"},"geometry":{"type":"Polygon","coordinates":[[[136.17830939371163,35.85947972122418],[136.1793160852123,35.859517953299175],[136.17932709356307,35.859318016809326],[136.17832425233095,35.859271198204645],[136.17830939371163,35.85947972122418]]]}},{"type":"Feature","properties":{"pid":"6f5290a9-f727-4f1f-8d93-7ce5713c39b7"},"geometry":{"type":"Polygon","coordinates":[[[136.17833472960905,35.859130611895644],[136.1793351445831,35.85917176059274],[136.17934640980278,35.85898786125747],[136.1783465080824,35.858946381559704],[136.17833472960905,35.859130611895644]]]}},{"type":"Feature","properties":{"pid":"999491e5-d125-465c-a2bb-865b3fcc0b19"},"geometry":{"type":"Polygon","coordinates":[[[136.17835236358172,35.85884666072626],[136.1793527148021,35.85888802746376],[136.1793631256702,35.858723197761236],[136.1783622491193,35.858678323359825],[136.17835236358172,35.85884666072626]]]}},{"type":"Feature","properties":{"pid":"643e7027-9237-4922-8cb6-30edf8493697"},"geometry":{"type":"Polygon","coordinates":[[[136.17716500571586,35.859054834698355],[136.17812914850745,35.85908791195332],[136.17815531558216,35.85866622897644],[136.1771937319212,35.85862722461189],[136.17716500571586,35.859054834698355]]]}},{"type":"Feature","properties":{"pid":"f816f390-60de-42b3-b139-998d1f03a70d"},"geometry":{"type":"Polygon","coordinates":[[[136.1774062899109,35.859224045179005],[136.17739439825317,35.85939290329816],[136.17811499558135,35.859427119812274],[136.17812597446536,35.85925894375891],[136.1774062899109,35.859224045179005]]]}},{"type":"Feature","properties":{"pid":"d53a55ed-57a4-49b4-8bfe-a358240d99ba"},"geometry":{"type":"Polygon","coordinates":[[[136.17711726645058,35.859659757486405],[136.17809728837355,35.859698357388254],[136.17810843180058,35.859527668656774],[136.17712817250614,35.85948729541708],[136.17711726645058,35.859659757486405]]]}},{"type":"Feature","properties":{"pid":"79ebc0bc-0178-4b06-91fa-61e6f3b0de3f"},"geometry":{"type":"Polygon","coordinates":[[[136.17710100217892,35.85993016878921],[136.17807884159413,35.859978101870674],[136.17809032296657,35.859805055629636],[136.17711074214785,35.859764974185936],[136.17710100217892,35.85993016878921]]]}},{"type":"Feature","properties":{"pid":"8bbf18db-893c-4b7a-b52d-d1e317a18384"},"geometry":{"type":"Polygon","coordinates":[[[136.1770760732239,35.86020251296815],[136.17806372218408,35.86024232008899],[136.17807214140095,35.860077870137204],[136.1770878515187,35.860027936197824],[136.1770760732239,35.86020251296815]]]}},{"type":"Feature","properties":{"pid":"7011ac7b-dcaa-4fff-aff5-cdcf2435d433"},"geometry":{"type":"Polygon","coordinates":[[[136.17826749288022,35.860295743603444],[136.17926285398718,35.860337785117224],[136.17927710545817,35.860123791408895],[136.17827741605828,35.860080703380106],[136.17826749288022,35.860295743603444]]]}},{"type":"Feature","properties":{"pid":"4c61aea5-42d7-4a3b-bd75-a741d5d9c3bf"},"geometry":{"type":"Polygon","coordinates":[[[136.17828808414762,35.85984983774282],[136.17833753372923,35.85986709734615],[136.17835774914803,35.85989302352835],[136.178323465405,35.859981507211685],[136.17928400315358,35.86001968548368],[136.17929476053928,35.85985465780201],[136.17828981011974,35.85981595108699],[136.17828808414762,35.85984983774282]]]}},{"type":"Feature","properties":{"pid":"d580b3e7-72bb-44ba-b23f-1e798ee8fff2"},"geometry":{"type":"Polygon","coordinates":[[[136.17829531190858,35.85971831949105],[136.17930113133002,35.85975692344825],[136.17931046694687,35.859613708873724],[136.1783037419474,35.85957547640258],[136.17829531190858,35.85971831949105]]]}},{"type":"Feature","properties":{"pid":"8ad5e29c-36df-4a11-ab77-140a95a6039c"},"geometry":{"type":"Polygon","coordinates":[[[136.17945997506806,35.86003022941172],[136.18047194883647,35.86007391626238],[136.1804998971743,35.859904320946804],[136.17947124470663,35.85985962182811],[136.17945997506806,35.86003022941172]]]}},{"type":"Feature","properties":{"pid":"0f6c193a-b5bc-40e8-9d54-b8cd5e724924"},"geometry":{"type":"Polygon","coordinates":[[[136.1794413597216,35.86030287295371],[136.18042461669876,35.860345677243394],[136.18045511704668,35.86017080033082],[136.1794531853219,35.86013097519709],[136.1794413597216,35.86030287295371]]]}},{"type":"Feature","properties":{"pid":"c645425d-82f8-4d33-81f5-cdf012b0f1ad"},"geometry":{"type":"Polygon","coordinates":[[[136.18037809291687,35.86061790216963],[136.1804077766344,35.86044236747078],[136.17943425261487,35.860401990000724],[136.17942129796788,35.860582645963966],[136.18037809291687,35.86061790216963]]]}},{"type":"Feature","properties":{"pid":"c5713630-4a7e-43f0-94b8-d422a276d585"},"geometry":{"type":"Polygon","coordinates":[[[136.1803629274508,35.86070758461916],[136.17941484410696,35.86067264939546],[136.17940708114494,35.860838183216615],[136.18033946298908,35.86086963755634],[136.1803629274508,35.86070758461916]]]}},{"type":"Feature","properties":{"pid":"9849f8a9-23c9-46b0-af3c-cf8667595b3e"},"geometry":{"type":"Polygon","coordinates":[[[136.17825211884178,35.86052079461569],[136.1792459112188,35.860558807472785],[136.17925613509573,35.860438657648686],[136.17826055364506,35.86039286075635],[136.17825211884178,35.86052079461569]]]}},{"type":"Feature","properties":{"pid":"49c87127-f2b9-4b2c-b712-d0666dfa3db4"},"geometry":{"type":"Polygon","coordinates":[[[136.17823497155834,35.86078937331352],[136.17922975904722,35.86083557220203],[136.17923869028,35.86066625709075],[136.17824585069903,35.86061896124162],[136.17823497155834,35.86078937331352]]]}},{"type":"Feature","properties":{"pid":"49e68258-6893-4c82-8a74-83d259b2d04b"},"geometry":{"type":"Polygon","coordinates":[[[136.1782179265133,35.86106059715799],[136.1792130457276,35.861102236626316],[136.1792244070138,35.86093702889585],[136.1782283406872,35.8608932360078],[136.1782179265133,35.86106059715799]]]}},{"type":"Feature","properties":{"pid":"82cb9b6b-92a9-43a7-a72d-5c18b8998d16"},"geometry":{"type":"Polygon","coordinates":[[[136.18032400489918,35.86097544180149],[136.17940229367014,35.86094723816912],[136.17939241327034,35.861114276254796],[136.1802952678429,35.86114445476138],[136.18032400489918,35.86097544180149]]]}},{"type":"Feature","properties":{"pid":"e4d651d1-b1f3-4ec9-a492-91f2a113e143"},"geometry":{"type":"Polygon","coordinates":[[[136.17937913303916,35.86137937419655],[136.1802379472801,35.86140812929036],[136.1802757315957,35.86124526038008],[136.17938544318997,35.86121247268509],[136.17937913303916,35.86137937419655]]]}},{"type":"Feature","properties":{"pid":"0cedbced-96b2-40f8-8f86-68b8ffcf599d"},"geometry":{"type":"Polygon","coordinates":[[[136.1793635869471,35.86165995815132],[136.18018069092804,35.86167935247773],[136.18021610492053,35.86151159833162],[136.17937492377285,35.86148436285221],[136.1793635869471,35.86165995815132]]]}},{"type":"Feature","properties":{"pid":"394ca941-4b43-4687-893c-ec517228dd12"},"geometry":{"type":"Polygon","coordinates":[[[136.17934958671643,35.861912868939484],[136.18010887290515,35.862033205516],[136.18015960801225,35.86178162417562],[136.17935776562956,35.861758857851626],[136.17934958671643,35.861912868939484]]]}},{"type":"Feature","properties":{"pid":"7f9bf165-8393-406f-9945-37c298404f00"},"geometry":{"type":"Polygon","coordinates":[[[136.17818746803283,35.861603462638335],[136.17917822191703,35.86164646385004],[136.1791888043892,35.8614728416266],[136.17819610776328,35.861434293203125],[136.17818746803283,35.861603462638335]]]}},{"type":"Feature","properties":{"pid":"642e406e-a313-4825-bc88-b99dfbfe0cda"},"geometry":{"type":"Polygon","coordinates":[[[136.17817457038757,35.86185602418996],[136.17915866772717,35.86190046955039],[136.17917050792437,35.861746941556206],[136.17818235449252,35.86170359866798],[136.17817457038757,35.86185602418996]]]}},{"type":"Feature","properties":{"pid":"d350575f-1cd6-4bee-ad58-0f85713123f3"},"geometry":{"type":"Polygon","coordinates":[[[136.17694839563487,35.86216961252996],[136.17795332921358,35.86220387280412],[136.17796388448892,35.86204154940614],[136.17695901702865,35.861999277642454],[136.17694839563487,35.86216961252996]]]}},{"type":"Feature","properties":{"pid":"6f2b06eb-90e6-4a47-b750-5034b569e790"},"geometry":{"type":"Polygon","coordinates":[[[136.1769813633233,35.861810011001396],[136.17797185486873,35.86184522052754],[136.17797980412882,35.861694106237344],[136.176991457305,35.8616511072657],[136.1769813633233,35.861810011001396]]]}},{"type":"Feature","properties":{"pid":"aa9607ab-0e78-4852-9892-82ea744c4d83"},"geometry":{"type":"Polygon","coordinates":[[[136.1771210575225,35.86141230238606],[136.17717048644855,35.86144607646968],[136.17716778820565,35.8615561728985],[136.17798504564468,35.861594463684355],[136.17799556238296,35.861420485580055],[136.17700613365145,35.86138371636623],[136.17700530167076,35.86140510612696],[136.1771210575225,35.86141230238606]]]}},{"type":"Feature","properties":{"pid":"9335e358-fc12-4afc-b209-11d7387b7e0d"},"geometry":{"type":"Polygon","coordinates":[[[136.17701010400398,35.86128167232533],[136.17800258847956,35.86131404181354],[136.1780128058414,35.86114854813273],[136.17701702022015,35.86110392738382],[136.17701010400398,35.86128167232533]]]}},{"type":"Feature","properties":{"pid":"ac66d338-c5b2-46bc-8f22-2bf1e4fed8b5"},"geometry":{"type":"Polygon","coordinates":[[[136.17702174005726,35.86100748984846],[136.1780186391558,35.861051555984034],[136.1780294560893,35.860879742596296],[136.17703114580348,35.86083786930567],[136.17702174005726,35.86100748984846]]]}},{"type":"Feature","properties":{"pid":"d5ba629a-3ffa-430d-8ad8-d5af5c203bc2"},"geometry":{"type":"Polygon","coordinates":[[[136.17820188941548,35.86133286831119],[136.1791949446314,35.86137209730454],[136.17920546276233,35.86120618605369],[136.17821188379162,35.86116320082347],[136.17820188941548,35.86133286831119]]]}},{"type":"Feature","properties":{"pid":"f1656c10-8c41-43c2-b7b4-2dddb6c96ffe"},"geometry":{"type":"Polygon","coordinates":[[[136.17703650343947,35.860741242284924],[136.1780369015405,35.86078305949464],[136.17804767777332,35.860607413220364],[136.1770483464406,35.86056884575184],[136.17703650343947,35.860741242284924]]]}},{"type":"Feature","properties":{"pid":"44fd27e4-0ca4-4631-b24d-ca00aa4aea59"},"geometry":{"type":"Polygon","coordinates":[[[136.1780473379545,35.86034383954681],[136.17706904118702,35.860299565007516],[136.17705581709455,35.86047163677114],[136.17804558996943,35.86049901458636],[136.1780473379545,35.86034383954681]]]}},{"type":"Feature","properties":{"pid":"16349bb8-bc2a-4f17-9e8c-034281a4d7ee"},"geometry":{"type":"Polygon","coordinates":[[[136.1758410263919,35.86123255917593],[136.17683116801604,35.861264145136424],[136.17684255832958,35.86110111228302],[136.17585454531113,35.86105888844261],[136.1758410263919,35.86123255917593]]]}},{"type":"Feature","properties":{"pid":"36fe10bd-ee61-4518-882b-1cb77fc121bf"},"geometry":{"type":"Polygon","coordinates":[[[136.1758628242312,35.8609546531271],[136.17684979340603,35.86099754900955],[136.1768596554176,35.86083223791575],[136.17587470028707,35.860790431467656],[136.1758628242312,35.8609546531271]]]}},{"type":"Feature","properties":{"pid":"4c53f9af-8861-4291-9d7c-54562c42139b"},"geometry":{"type":"Polygon","coordinates":[[[136.17587979571098,35.86068761972274],[136.17686554689428,35.8607259118563],[136.17687464956123,35.86056164030141],[136.17588805232688,35.86052102389074],[136.17587979571098,35.86068761972274]]]}},{"type":"Feature","properties":{"pid":"076c05c3-62e5-480e-bc91-fa54037e4eee"},"geometry":{"type":"Polygon","coordinates":[[[136.17468118880785,35.86063753580257],[136.17546221244905,35.86066524872478],[136.17547919755273,35.86049716798132],[136.17469054978343,35.860465926363524],[136.17468118880785,35.86063753580257]]]}},{"type":"Feature","properties":{"pid":"75d0426d-58a5-4a28-b04f-f8fcd528a682"},"geometry":{"type":"Polygon","coordinates":[[[136.17466650275193,35.86090108874468],[136.17565667524005,35.860945009455165],[136.17566441829112,35.8608500491603],[136.17553620554878,35.86077707109489],[136.1746753136106,35.86074297793948],[136.17466650275193,35.86090108874468]]]}},{"type":"Feature","properties":{"pid":"e1665e21-b448-4522-8a4c-898795580697"},"geometry":{"type":"Polygon","coordinates":[[[136.1746506202808,35.86117531802554],[136.17564012076252,35.86121647351366],[136.1756500993884,35.86105058548028],[136.17466074420375,35.861004433639316],[136.1746506202808,35.86117531802554]]]}},{"type":"Feature","properties":{"pid":"1b43f53f-846c-48c1-97b8-4dda892e78b4"},"geometry":{"type":"Polygon","coordinates":[[[136.17463309957964,35.861453201909406],[136.175623798828,35.861487879394694],[136.17563387739122,35.861320291421514],[136.17464421709337,35.861276870579296],[136.17463309957964,35.861453201909406]]]}},{"type":"Feature","properties":{"pid":"8a1c2dc3-06d1-4d42-a2ed-4f9d63e6d30a"},"geometry":{"type":"Polygon","coordinates":[[[136.1746177996373,35.86169587728689],[136.17560851969694,35.86174198898569],[136.17561766142765,35.86158994622606],[136.17462690485132,35.8615514574734],[136.1746177996373,35.86169587728689]]]}},{"type":"Feature","properties":{"pid":"1750aeda-9025-46d3-a34d-e2037cb5344d"},"geometry":{"type":"Polygon","coordinates":[[[136.17459388719948,35.862063886711226],[136.17558562160434,35.86209978880373],[136.1755955579293,35.86194026887892],[136.17460888998215,35.861898922733964],[136.17459388719948,35.862063886711226]]]}},{"type":"Feature","properties":{"pid":"5e62963a-a622-4917-ad04-4e4c895b767c"},"geometry":{"type":"Polygon","coordinates":[[[136.17578815615195,35.86211263644734],[136.17677734306767,35.862157365836715],[136.1767880216077,35.861993999040706],[136.1757996657204,35.86195284262217],[136.17578815615195,35.86211263644734]]]}},{"type":"Feature","properties":{"pid":"f06e3926-a498-4f17-8afb-bf8223653121"},"geometry":{"type":"Polygon","coordinates":[[[136.17581046365532,35.86175531905461],[136.17679896983387,35.861798908483465],[136.1768076440342,35.861639549529144],[136.17581783823533,35.861601068760066],[136.17581046365532,35.86175531905461]]]}},{"type":"Feature","properties":{"pid":"3415a180-c11c-45c8-a294-f8746c829925"},"geometry":{"type":"Polygon","coordinates":[[[136.17582332649837,35.861500607435545],[136.1768131506429,35.8615383828546],[136.1768238103448,35.861369457782516],[136.1758344294321,35.86133247199011],[136.17582332649837,35.861500607435545]]]}},{"type":"Feature","properties":{"pid":"696e5a3a-a1c5-4c68-b850-887ae445da25"},"geometry":{"type":"Polygon","coordinates":[[[136.1771775555383,35.86227738996639],[136.17694287084555,35.862268049158565],[136.1769333322321,35.86243805632665],[136.17715993195074,35.86244799948557],[136.1771775555383,35.86227738996639]]]}},{"type":"Feature","properties":{"pid":"8f40778a-b7c3-4571-b572-66be054fd4e7"},"geometry":{"type":"Polygon","coordinates":[[[136.17691750546487,35.86271063721761],[136.17791600925474,35.86275286672735],[136.17792874128094,35.86258195727187],[136.17692762694674,35.86253777011334],[136.17691750546487,35.86271063721761]]]}},{"type":"Feature","properties":{"pid":"23112e2d-2929-4289-b4b3-7a1720ed5cd0"},"geometry":{"type":"Polygon","coordinates":[[[136.17690195178582,35.86297628501411],[136.17789520730702,35.86301913924031],[136.17790831780442,35.86285131634769],[136.17691167941044,35.86281013684645],[136.17690195178582,35.86297628501411]]]}},{"type":"Feature","properties":{"pid":"c0913e24-ab4d-430e-89c4-9d378f09e309"},"geometry":{"type":"Polygon","coordinates":[[[136.1757298804364,35.862928674956876],[136.17672523010646,35.86297189632099],[136.17673481611496,35.86280119507959],[136.17574445442105,35.86275814007426],[136.1757298804364,35.862928674956876]]]}},{"type":"Feature","properties":{"pid":"02f5fd00-f80b-410a-90f5-0c925fd6466c"},"geometry":{"type":"Polygon","coordinates":[[[136.17575024010554,35.862647219759225],[136.17674133649277,35.86268999395598],[136.1767520748017,35.86253113401105],[136.17575942725318,35.86249022636599],[136.17575024010554,35.862647219759225]]]}},{"type":"Feature","properties":{"pid":"7f56fc06-5d17-4283-82ac-6c51931f7dc2"},"geometry":{"type":"Polygon","coordinates":[[[136.17576737168147,35.86238367088046],[136.17675956195447,35.86242039242371],[136.1767702044823,35.86226295571947],[136.17578014180413,35.86221321130464],[136.17576737168147,35.86238367088046]]]}},{"type":"Feature","properties":{"pid":"6eda4a85-2313-475a-b68d-865234e766f1"},"geometry":{"type":"Polygon","coordinates":[[[136.17456983384713,35.86232836357341],[136.17556364587304,35.86237374495849],[136.17557683803977,35.86220930014041],[136.17458442839256,35.86216788905322],[136.17456983384713,35.86232836357341]]]}},{"type":"Feature","properties":{"pid":"dc10711e-670b-45eb-bea2-dd81d3cb63a5"},"geometry":{"type":"Polygon","coordinates":[[[136.1745502739025,35.86259835772143],[136.17554261482033,35.86264337869801],[136.17555546240948,35.86247771997524],[136.17456040114584,35.862432072267005],[136.1745502739025,35.86259835772143]]]}},{"type":"Feature","properties":{"pid":"7709c94f-f435-4011-b7e0-d862a0d8bb7c"},"geometry":{"type":"Polygon","coordinates":[[[136.17453481067662,35.86287189889432],[136.17552435974534,35.86291408411473],[136.1755347342985,35.862752915957536],[136.17454476556566,35.862704155556806],[136.17453481067662,35.86287189889432]]]}},{"type":"Feature","properties":{"pid":"45c8e53a-cfb4-44ae-9ddd-d52d232a3894"},"geometry":{"type":"Polygon","coordinates":[[[136.17452085783367,35.863137401311],[136.1755074708931,35.863176809784115],[136.17551656113952,35.86301856117477],[136.17452865525095,35.86297506017716],[136.17452085783367,35.863137401311]]]}},{"type":"Feature","properties":{"pid":"e5fa3212-5f9c-4073-b67e-061e769c360c"},"geometry":{"type":"Polygon","coordinates":[[[136.17450541164965,35.86340387609814],[136.17549787451338,35.86345486756423],[136.17550519950228,35.86328289549799],[136.1745188040145,35.86323535838194],[136.17450541164965,35.86340387609814]]]}},{"type":"Feature","properties":{"pid":"98dba370-886d-416c-8309-bb11790323e7"},"geometry":{"type":"Polygon","coordinates":[[[136.17566872421034,35.863741889980325],[136.17667267458805,35.86378345154254],[136.17668505729006,35.86360802417683],[136.1756806368504,35.86357119002824],[136.17566872421034,35.863741889980325]]]}},{"type":"Feature","properties":{"pid":"2e510154-c96d-4c4e-8844-76312b234239"},"geometry":{"type":"Polygon","coordinates":[[[136.17568927860987,35.86347133201217],[136.1766923389766,35.863504859392755],[136.1767038754813,35.863341414423296],[136.175703168219,35.86330059140762],[136.17568927860987,35.86347133201217]]]}},{"type":"Feature","properties":{"pid":"4f5c38e2-cc2a-4663-ac7c-3fd1f52d99fa"},"geometry":{"type":"Polygon","coordinates":[[[136.1757169526627,35.86310828540442],[136.1758051125032,35.86315504510305],[136.17580695924119,35.86320429642219],[136.17671018150406,35.86323986740402],[136.17671951684196,35.863073640932235],[136.17572248604102,35.86302636708062],[136.1757169526627,35.86310828540442]]]}},{"type":"Feature","properties":{"pid":"2fdeb3a6-8a26-461a-944f-a63a41237872"},"geometry":{"type":"Polygon","coordinates":[[[136.17688231736588,35.8632432433347],[136.17787740904245,35.863286952889204],[136.17788765528988,35.86312417628289],[136.17689565357605,35.863083835744085],[136.17688231736588,35.8632432433347]]]}},{"type":"Feature","properties":{"pid":"855b79c5-1420-4f63-b545-4e327a2fa73d"},"geometry":{"type":"Polygon","coordinates":[[[136.17685800659834,35.863520776110185],[136.1778603907388,35.86356622550318],[136.17787095248033,35.863389535309025],[136.17687311860857,35.863348263777894],[136.17685800659834,35.863520776110185]]]}},{"type":"Feature","properties":{"pid":"c7aa0683-2ec0-468c-b97b-90668e4e0e16"},"geometry":{"type":"Polygon","coordinates":[[[136.17682027967672,35.86407771213926],[136.1778274854904,35.864124499342594],[136.1778546469798,35.86366369070002],[136.1768503866736,35.86362020278349],[136.17682027967672,35.86407771213926]]]}},{"type":"Feature","properties":{"pid":"41b7b2a9-e63b-4397-9c41-77f6837b693a"},"geometry":{"type":"Polygon","coordinates":[[[136.178029956932,35.863844509468464],[136.17857192860964,35.863864954681354],[136.17861268444327,35.86370000764662],[136.1780387876047,35.863672938465065],[136.178029956932,35.863844509468464]]]}},{"type":"Feature","properties":{"pid":"34750678-bcec-4530-b8b0-5582c18a4b8b"},"geometry":{"type":"Polygon","coordinates":[[[136.17804545869504,35.86357478509062],[136.17863726384195,35.86360053217464],[136.1786753281874,35.86342416554114],[136.17805749409038,35.8633993143679],[136.17804545869504,35.86357478509062]]]}},{"type":"Feature","properties":{"pid":"6c84c353-57f4-4faf-9b9a-ebca2fe18aac"},"geometry":{"type":"Polygon","coordinates":[[[136.1780659767027,35.86329644742425],[136.1786946622975,35.86332503639445],[136.17872104755537,35.863160599231065],[136.17807855711874,35.863132420881264],[136.1780659767027,35.86329644742425]]]}},{"type":"Feature","properties":{"pid":"029c5625-f782-46dc-ae80-facdd30cd7cb"},"geometry":{"type":"Polygon","coordinates":[[[136.17794655837537,35.86230799485922],[136.17729693094466,35.86228214104911],[136.17727805327885,35.86245318349513],[136.17793524121316,35.862482019555344],[136.17794655837537,35.86230799485922]]]}},{"type":"Feature","properties":{"pid":"9ba9e5c3-4ff3-4afd-b903-d26d77f5cc61"},"geometry":{"type":"Polygon","coordinates":[[[136.1781154708723,35.86249223968958],[136.17895766311383,35.86252766467961],[136.17902059575772,35.862351063820626],[136.1781248847068,35.86232076175835],[136.1781154708723,35.86249223968958]]]}},{"type":"Feature","properties":{"pid":"fb7f9419-b000-4b0f-bc32-8f6ad14fdf5c"},"geometry":{"type":"Polygon","coordinates":[[[136.17810075339034,35.862754726617396],[136.17883627172338,35.862783218359525],[136.1789099569702,35.86262476272978],[136.17811015977793,35.86258922066083],[136.17810075339034,35.862754726617396]]]}},{"type":"Feature","properties":{"pid":"eeec3dd9-9ca9-4c15-8ba1-a9d87db574d5"},"geometry":{"type":"Polygon","coordinates":[[[136.17808419041273,35.863031539785105],[136.1787460218358,35.86305944316427],[136.17879938471302,35.86289346938469],[136.17809394751134,35.86286327958757],[136.17808419041273,35.863031539785105]]]}},{"type":"Feature","properties":{"pid":"8bc247da-0210-4a66-a389-58722b749d5c"},"geometry":{"type":"Polygon","coordinates":[[[136.18281806239904,35.86211301330937],[136.18291039746993,35.861844694781034],[136.18287662554465,35.86183608550483],[136.182802609133,35.8621096083698],[136.18281806239904,35.86211301330937]]]}},{"type":"Feature","properties":{"pid":"c1b51238-d077-41df-8746-09166e352c72"},"geometry":{"type":"Polygon","coordinates":[[[136.1834815043415,35.861579944597004],[136.1835771051191,35.8613356370831],[136.18300443883052,35.861185075490894],[136.18295706945457,35.86143604869086],[136.1834815043415,35.861579944597004]]]}},{"type":"Feature","properties":{"pid":"1f849ce9-41b0-46a8-bdb7-64f4cac1ac18"},"geometry":{"type":"Polygon","coordinates":[[[136.18338728218046,35.861817045999786],[136.1834444047403,35.86167269521858],[136.1829358784399,35.86153935024606],[136.18290292458892,35.861694119788396],[136.18338728218046,35.861817045999786]]]}},{"type":"Feature","properties":{"pid":"46107598-f183-47c1-9568-17e299f3e872"},"geometry":{"type":"Polygon","coordinates":[[[136.18375173894495,35.8608720723883],[136.18378769585567,35.860772020305994],[136.18316610653832,35.860612988380545],[136.18313814291503,35.86071126902332],[136.18375173894495,35.8608720723883]]]}},{"type":"Feature","properties":{"pid":"277634a8-246f-4e24-98a4-c6583546c7e3"},"geometry":{"type":"Polygon","coordinates":[[[136.18382197864602,35.86067682960875],[136.1838664136443,35.86056548476823],[136.18322898533341,35.86039754691558],[136.18319577948344,35.8605137591318],[136.18382197864602,35.86067682960875]]]}},{"type":"Feature","properties":{"pid":"9635ce0a-1f68-4eb5-91e3-002f086b5f47"},"geometry":{"type":"Polygon","coordinates":[[[136.18304475085324,35.861043330353944],[136.18362445004118,35.86119777977802],[136.18371450658188,35.86096528500159],[136.18311287751516,35.86080943735971],[136.18304475085324,35.861043330353944]]]}},{"type":"Feature","properties":{"pid":"8dbd51f2-bdd9-45d5-b2df-35032591b424"},"geometry":{"type":"Polygon","coordinates":[[[136.1846049162,35.86111369622759],[136.18392271914405,35.86094715014549],[136.1838119279555,35.86124197336958],[136.1841449722572,35.861321888943955],[136.18419835302143,35.86118444896778],[136.18422407134835,35.86116202641138],[136.18456101865576,35.86121323315955],[136.1846049162,35.86111369622759]]]}},{"type":"Feature","properties":{"pid":"dfa2484d-2186-4986-b9da-1664b01acd5c"},"geometry":{"type":"Polygon","coordinates":[[[136.18477983821955,35.86067807408625],[136.18409304916986,35.860501993706755],[136.1839739398642,35.86080956118099],[136.1846621063308,35.86098127366686],[136.18477983821955,35.86067807408625]]]}},{"type":"Feature","properties":{"pid":"1bbdd9b6-e145-48eb-9e80-f9bb07dcc35e"},"geometry":{"type":"Polygon","coordinates":[[[136.18413139088563,35.86040709514895],[136.18482033041198,35.86058119163109],[136.18486782516794,35.86046664849559],[136.18417319280724,35.860301555151636],[136.18413139088563,35.86040709514895]]]}},{"type":"Feature","properties":{"pid":"65a9a9aa-87df-4154-b284-1885a78596a1"},"geometry":{"type":"Polygon","coordinates":[[[136.1836884447379,35.86155304038167],[136.1843652803765,35.861717740068364],[136.18443660453022,35.86154245441535],[136.1837582573254,35.86138316493547],[136.1836884447379,35.86155304038167]]]}},{"type":"Feature","properties":{"pid":"1f248d68-a718-4838-8238-848267be20d7"},"geometry":{"type":"Polygon","coordinates":[[[136.18361331773548,35.861707629412166],[136.18430776554123,35.86187280031705],[136.18432778407376,35.86181661847789],[136.18364106962753,35.86165160587993],[136.18361331773548,35.861707629412166]]]}},{"type":"Feature","properties":{"pid":"e1e30025-1ffd-461d-ab5a-4e68f00336a1"},"geometry":{"type":"Polygon","coordinates":[[[136.18346475607436,35.862055201258364],[136.18416916275126,35.86222286968632],[136.18427057304527,35.86196794919593],[136.18356724411385,35.8618024047239],[136.18346475607436,35.862055201258364]]]}},{"type":"Feature","properties":{"pid":"32dccbda-dd91-4027-bda1-aa23fd3ddd66"},"geometry":{"type":"Polygon","coordinates":[[[136.18463211011147,35.861847473656134],[136.1845575958889,35.861827501301114],[136.18450730841516,35.861959718252145],[136.1846358373926,35.86199638084483],[136.18465222135134,35.86198001984492],[136.18463211011147,35.861847473656134]]]}},{"type":"Feature","properties":{"pid":"99ffa222-2cc3-41dd-8971-5f4d3d9a2b71"},"geometry":{"type":"Polygon","coordinates":[[[136.18474277884224,35.861803745562845],[136.18497331295262,35.86184907111956],[136.185013423966,35.861816292531465],[136.1850220493038,35.861638075454835],[136.18477005327924,35.861605912662405],[136.18474277884224,35.861803745562845]]]}},{"type":"Feature","properties":{"pid":"363fff40-06ec-45b7-a13b-7f747d7101af"},"geometry":{"type":"Polygon","coordinates":[[[136.18436750983943,35.86287569190938],[136.18430724304417,35.863104193917536],[136.18464677235139,35.86318012163127],[136.18472670245038,35.86296747240267],[136.18436750983943,35.86287569190938]]]}},{"type":"Feature","properties":{"pid":"5ba16c51-e24c-451f-88d5-80836ffc9dc9"},"geometry":{"type":"Polygon","coordinates":[[[136.1845914127831,35.86271582606083],[136.18480125550977,35.86276785077552],[136.1848205536349,35.862648703555756],[136.1846380911708,35.862597757272106],[136.1845914127831,35.86271582606083]]]}},{"type":"Feature","properties":{"pid":"78143578-de39-46f1-a390-9da5bead566f"},"geometry":{"type":"Polygon","coordinates":[[[136.1842420813302,35.86285278303056],[136.18416617696678,35.862851813110225],[136.18413315450252,35.862927662404445],[136.1842133045561,35.86294467280412],[136.1842420813302,35.86285278303056]]]}},{"type":"Feature","properties":{"pid":"6ca39ed7-03df-4fdb-93cb-a217b6ceedc6"},"geometry":{"type":"Polygon","coordinates":[[[136.18423738946615,35.86262665903786],[136.18446620803695,35.86268433993419],[136.1845144956191,35.862562782106515],[136.18430814383058,35.86250496608151],[136.18428192117443,35.86251295457598],[136.18423738946615,35.86262665903786]]]}},{"type":"Feature","properties":{"pid":"8d295650-2cfc-4104-a177-a6baac2cbc96"},"geometry":{"type":"Polygon","coordinates":[[[136.18412754341227,35.86233076303624],[136.18413205300857,35.86231806772689],[136.18342532760838,35.862159681793315],[136.18412754341227,35.86233076303624]]]}},{"type":"Feature","properties":{"pid":"3a9db76a-9919-4d7a-86b9-2ed9c861efa1"},"geometry":{"type":"Polygon","coordinates":[[[136.183385160259,35.86229599251721],[136.18407828537508,35.86246897924997],[136.18409411269724,35.8624229699709],[136.18340082956163,35.86225678513087],[136.183385160259,35.86229599251721]]]}},{"type":"Feature","properties":{"pid":"36246f06-a134-40c5-8403-663915137561"},"geometry":{"type":"Polygon","coordinates":[[[136.18342200543447,35.86245332422287],[136.18386932956355,35.86252032740775],[136.18343557673273,35.86241188867506],[136.18342200543447,35.86245332422287]]]}},{"type":"Feature","properties":{"pid":"6ad61cfe-51ee-4906-8a35-2f612e4247d8"},"geometry":{"type":"Polygon","coordinates":[[[136.18311969824757,35.8623810525949],[136.18314945362957,35.862295986416946],[136.18276187474805,35.862207617254754],[136.18273280134028,35.86229354474693],[136.18311969824757,35.8623810525949]]]}},{"type":"Feature","properties":{"pid":"b1aee79e-2f68-471c-879c-c92e052be14a"},"geometry":{"type":"Polygon","coordinates":[[[136.18254652880563,35.8629268266605],[136.18291947146025,35.86300523385648],[136.18302229298362,35.862746653136426],[136.18275831798624,35.86279454961402],[136.18259191696083,35.8627889229963],[136.18254652880563,35.8629268266605]]]}},{"type":"Feature","properties":{"pid":"4d187858-e13e-4471-8e2d-6a4ece73d53f"},"geometry":{"type":"Polygon","coordinates":[[[136.1839442945975,35.86279567821074],[136.1832245305201,35.86268807093672],[136.18315282307182,35.862876962053136],[136.18385510934533,35.86302741276444],[136.1839442945975,35.86279567821074]]]}},{"type":"Feature","properties":{"pid":"dafb3e35-920f-4170-a9bb-500d9fd50d5b"},"geometry":{"type":"Polygon","coordinates":[[[136.18365968060056,35.863547857130214],[136.1837216553492,35.86338147867411],[136.18302011948217,35.86323610086177],[136.18295933874384,35.863401281525576],[136.18365968060056,35.863547857130214]]]}},{"type":"Feature","properties":{"pid":"27ec2e17-f29b-44fc-8f06-239d4ac6d1e6"},"geometry":{"type":"Polygon","coordinates":[[[136.18311775398274,35.86297691248526],[136.183059706008,35.863137803686996],[136.18375621424386,35.863284465488164],[136.18381841185564,35.86312555604961],[136.18311775398274,35.86297691248526]]]}},{"type":"Feature","properties":{"pid":"2693e0f0-88e4-490a-aaa7-b1c3b1c80829"},"geometry":{"type":"Polygon","coordinates":[[[136.18248002439293,35.86313542611458],[136.1828365614156,35.86321398538274],[136.182876845558,35.86310314360782],[136.18251384337853,35.8630250039649],[136.18248002439293,35.86313542611458]]]}},{"type":"Feature","properties":{"pid":"91e6f311-8f45-46c1-8159-ecdd3276a2df"},"geometry":{"type":"Polygon","coordinates":[[[136.18244943993514,35.86323093939561],[136.18229773441234,35.86371420449149],[136.18262766395736,35.86378232678884],[136.18280484762394,35.863308887660224],[136.18244943993514,35.86323093939561]]]}},{"type":"Feature","properties":{"pid":"e99b46a0-ae4b-442d-a98c-63ddd7dfe082"},"geometry":{"type":"Polygon","coordinates":[[[136.18285034675299,35.86369477949611],[136.18279980905598,35.86382296877545],[136.1834957336776,35.86396346171193],[136.1835442527454,35.863835448636976],[136.18285034675299,35.86369477949611]]]}},{"type":"Feature","properties":{"pid":"5715bf40-c6ed-48dc-a238-6c394028806f"},"geometry":{"type":"Polygon","coordinates":[[[136.18361741550743,35.86364353084761],[136.18292584793525,35.86349960288633],[136.1828912825642,35.8635928865148],[136.18358195754652,35.863736926442805],[136.18361741550743,35.86364353084761]]]}},{"type":"Feature","properties":{"pid":"f7220a61-2722-4b81-bec2-e3ef15405698"},"geometry":{"type":"Polygon","coordinates":[[[136.18383488849332,35.86367967374013],[136.18380454026325,35.863767102793965],[136.18388377559057,35.86378827721817],[136.18391890816488,35.86369924058756],[136.18383488849332,35.86367967374013]]]}},{"type":"Feature","properties":{"pid":"c6a4d061-3aa8-4783-b853-ec5f6a5030cc"},"geometry":{"type":"Polygon","coordinates":[[[136.1841027361384,35.86358284340032],[136.18405516135496,35.86370995276546],[136.1841391586568,35.86372372874557],[136.18418733347784,35.863601376454376],[136.1841027361384,35.86358284340032]]]}},{"type":"Feature","properties":{"pid":"aba2cf85-1efd-414f-badf-213bf7bb619d"},"geometry":{"type":"Polygon","coordinates":[[[136.18408917114454,35.863331749290055],[136.1841512540764,35.86318004234844],[136.1840321977035,35.86315531812536],[136.18397632996232,35.86330794329278],[136.18408917114454,35.863331749290055]]]}},{"type":"Feature","properties":{"pid":"a2dd4d7d-4989-4df9-ba9d-0eeccc3d66e2"},"geometry":{"type":"Polygon","coordinates":[[[136.18485041181995,35.86300303557576],[136.18477525192796,35.86319472438763],[136.1848647620992,35.86319680855039],[136.18492744700208,35.86301970407709],[136.18485041181995,35.86300303557576]]]}},{"type":"Feature","properties":{"pid":"d6e26a04-69dc-493f-b7b3-75895ae2564b"},"geometry":{"type":"Polygon","coordinates":[[[136.1844518716284,35.86367795719972],[136.1845397236398,35.86369349882285],[136.18455773160835,35.863584648336854],[136.1844895238351,35.863567601778705],[136.1844518716284,35.86367795719972]]]}},{"type":"Feature","properties":{"pid":"7b655895-e2e6-423d-9218-696f991cf792"},"geometry":{"type":"Polygon","coordinates":[[[136.18604853953173,35.86161943764624],[136.1861117404346,35.861445623785336],[136.18598243133783,35.86144628783817],[136.18591950233312,35.86160261183171],[136.18604853953173,35.86161943764624]]]}},{"type":"Feature","properties":{"pid":"57e5a541-eb8a-4ee2-bd5e-363c67d30a64"},"geometry":{"type":"Polygon","coordinates":[[[136.18527272612408,35.86191207958259],[136.1853129778728,35.86183069910857],[136.18514722221087,35.86180235756622],[136.18514310416066,35.86185145424584],[136.18527272612408,35.86191207958259]]]}},{"type":"Feature","properties":{"pid":"55c140f3-388e-498f-9343-5fc8038e1fc5"},"geometry":{"type":"Polygon","coordinates":[[[136.18547958178073,35.86144964079689],[136.18476824797216,35.86126700494525],[136.18476185643365,35.86128439942444],[136.18494460271162,35.861333462881284],[136.18496049090763,35.86136208040634],[136.18495011686286,35.861431315870455],[136.18500340047822,35.861449192759196],[136.18501760056716,35.86149174046363],[136.18544807682906,35.86154347246608],[136.18547958178073,35.86144964079689]]]}},{"type":"Feature","properties":{"pid":"671b3db4-09e1-4b28-9093-d903f550c735"},"geometry":{"type":"Polygon","coordinates":[[[136.18587537586578,35.86126446362587],[136.18489293047907,35.86101549458243],[136.18483136329579,35.86117927738056],[136.1858117025012,35.861428428472365],[136.18587537586578,35.86126446362587]]]}},{"type":"Feature","properties":{"pid":"56c843c1-a4b8-4a2d-91a5-69de0e31b69a"},"geometry":{"type":"Polygon","coordinates":[[[136.1859754259752,35.86101052891447],[136.1849953982448,35.86075918039773],[136.18493069500857,35.86092317637195],[136.18591200098749,35.86117221393662],[136.1859754259752,35.86101052891447]]]}},{"type":"Feature","properties":{"pid":"383bdf43-c063-44a9-a396-02af5c387eef"},"geometry":{"type":"Polygon","coordinates":[[[136.18651788628685,35.86084798872719],[136.18625131314624,35.86078947278423],[136.186045998717,35.8613157149261],[136.18658239790363,35.86130108574655],[136.18662154256117,35.86120257472566],[136.18671079655607,35.86115557383965],[136.18651788628685,35.86084798872719]]]}},{"type":"Feature","properties":{"pid":"bb2c8f6d-c95a-452a-a7ae-3ed30f704852"},"geometry":{"type":"Polygon","coordinates":[[[136.1852256851047,35.860200343106484],[136.1851594907187,35.86037664289894],[136.18612025827048,35.86062660056289],[136.18618946929152,35.86045226137656],[136.1852256851047,35.860200343106484]]]}},{"type":"Feature","properties":{"pid":"03b2453a-4af2-4c04-be0e-fdc834545b0a"},"geometry":{"type":"Polygon","coordinates":[[[136.18503322289754,35.860655661838265],[136.1860127435352,35.86090894099714],[136.18607595196434,35.8607568737311],[136.18508907744118,35.8604918204404],[136.18503322289754,35.860655661838265]]]}},{"type":"Feature","properties":{"pid":"ab64a8be-b918-4f48-bd52-f123adf6f4e6"},"geometry":{"type":"Polygon","coordinates":[[[136.1853200739261,35.859940184940506],[136.18525933909368,35.86010613839452],[136.18622694460745,35.86035263636399],[136.18628747373506,35.860188902361706],[136.1853200739261,35.859940184940506]]]}},{"type":"Feature","properties":{"pid":"80aa7913-d7af-4564-9ae6-83d74ee9c4b1"},"geometry":{"type":"Polygon","coordinates":[[[136.18606809042114,35.85956232954343],[136.1862352954922,35.859780791387536],[136.18642280770104,35.85982906689522],[136.1864772772755,35.85969784225921],[136.18646112789602,35.85966692889587],[136.18606809042114,35.85956232954343]]]}},{"type":"Feature","properties":{"pid":"2540720a-44ef-46e1-b818-6d6f149deedb"},"geometry":{"type":"Polygon","coordinates":[[[136.18546496899063,35.85958239390571],[136.18574793883218,35.859653671031616],[136.1856142409621,35.859467081685466],[136.18551938563292,35.859444881011],[136.18546496899063,35.85958239390571]]]}},{"type":"Feature","properties":{"pid":"78bcaeb2-86a3-4213-aba7-677ec188d56c"},"geometry":{"type":"Polygon","coordinates":[[[136.18536548705973,35.859846739780615],[136.18598051039473,35.86000358949497],[136.18583567092952,35.859798679236654],[136.18543065794617,35.85968965281425],[136.18536548705973,35.859846739780615]]]}},{"type":"Feature","properties":{"pid":"4078c608-b522-4fc2-84d6-e7948557d90d"},"geometry":{"type":"Polygon","coordinates":[[[136.18588056523154,35.85841410714788],[136.18582210957794,35.85857329354971],[136.18599715488799,35.858619632618336],[136.1860112789347,35.85865122719575],[136.1859877634908,35.858714876397144],[136.18647529912238,35.858837012575144],[136.18647669277527,35.85856902943544],[136.18588056523154,35.85841410714788]]]}},{"type":"Feature","properties":{"pid":"005e1237-f455-4d07-bb3e-d28f476cec27"},"geometry":{"type":"Polygon","coordinates":[[[136.18567723242091,35.85902664964206],[136.18568723157225,35.85904280220121],[136.18648746831667,35.85922699399183],[136.1864757847586,35.85894266111937],[136.18594872108622,35.858815265237396],[136.18588375073648,35.858960923896404],[136.1858400561721,35.85897361916743],[136.18570828773684,35.85894345354622],[136.18567723242091,35.85902664964206]]]}},{"type":"Feature","properties":{"pid":"dc32925b-4130-4d17-92bb-1a3fbdd399c4"},"geometry":{"type":"Polygon","coordinates":[[[136.18579732583657,35.85917535634489],[136.18594608812953,35.85938362481804],[136.18647402044647,35.85950522724993],[136.18651986320046,35.859465754573606],[136.18650185538291,35.85933870341883],[136.18579732583657,35.85917535634489]]]}},{"type":"Feature","properties":{"pid":"00080180-f32c-433c-9ca6-eb8b9ef2f597"},"geometry":{"type":"Polygon","coordinates":[[[136.18653770748315,35.86003406374276],[136.1866104256443,35.860132103257406],[136.18657264754987,35.859942855985],[136.18653770748315,35.86003406374276]]]}},{"type":"Feature","properties":{"pid":"c73e1b48-0d48-4bae-9ef5-7e1111f43a6c"},"geometry":{"type":"Polygon","coordinates":[[[136.18654054903683,35.857811477085576],[136.18614914225344,35.85771168077288],[136.18609679304876,35.85784418633888],[136.18652302841028,35.857952200150756],[136.18654054903683,35.857811477085576]]]}},{"type":"Feature","properties":{"pid":"243431b0-72b1-47a4-a703-88145c95e36f"},"geometry":{"type":"Polygon","coordinates":[[[136.18591743511016,35.85831898033591],[136.1864838143924,35.858465799179285],[136.1865106519154,35.858055396892304],[136.18606183592033,35.85793925156487],[136.18591743511016,35.85831898033591]]]}},{"type":"Feature","properties":{"pid":"57568797-71f3-4ca9-a69f-539b36907857"},"geometry":{"type":"Polygon","coordinates":[[[136.1853273281317,35.85853659165569],[136.18556905843883,35.858603313330185],[136.18565012874222,35.85838062593143],[136.18510790103196,35.858238212577774],[136.1853273281317,35.85853659165569]]]}},{"type":"Feature","properties":{"pid":"22640300-64c6-413d-876c-7fce781b95c0"},"geometry":{"type":"Polygon","coordinates":[[[136.1850290503964,35.85807486490186],[136.18504887487813,35.85810332247595],[136.18570641528254,35.85826658064581],[136.18580129656246,35.85801644303948],[136.18512021197563,35.85785142993889],[136.1850290503964,35.85807486490186]]]}},{"type":"Feature","properties":{"pid":"ac51a587-08b6-4dfa-a524-7ee3ebfe7a93"},"geometry":{"type":"Polygon","coordinates":[[[136.18527607366815,35.85740626854869],[136.18597926308476,35.85758746291153],[136.1860259301694,35.85746551803792],[136.18529585450304,35.85735155258551],[136.18527607366815,35.85740626854869]]]}},{"type":"Feature","properties":{"pid":"a307812a-b324-4b2b-b081-1a67e34eaa5e"},"geometry":{"type":"Polygon","coordinates":[[[136.18594236064308,35.85767723924831],[136.18524237681086,35.85749871033021],[136.18514770068322,35.85774454289638],[136.1858443668527,35.857919972221154],[136.18594236064308,35.85767723924831]]]}},{"type":"Feature","properties":{"pid":"dbe814bc-40ef-4ecc-91c7-bd39ffde1834"},"geometry":{"type":"Polygon","coordinates":[[[136.1861811805689,35.85761326547822],[136.18655472682946,35.85771205437519],[136.18655971592895,35.8576780123518],[136.18619360613937,35.857577968156065],[136.1861811805689,35.85761326547822]]]}},{"type":"Feature","properties":{"pid":"4aa4523e-23e1-4eca-afab-af94889692ab"},"geometry":{"type":"Polygon","coordinates":[[[136.18490191620026,35.85729398272637],[136.18487996381256,35.85735236671924],[136.1850863899759,35.85740487268654],[136.18511334559042,35.85733584830816],[136.18490191620026,35.85729398272637]]]}},{"type":"Feature","properties":{"pid":"cb3a3e34-a908-4fd3-8bfb-896ab9352dcd"},"geometry":{"type":"Polygon","coordinates":[[[136.1848238140893,35.85763356764412],[136.18496483804412,35.85767397390974],[136.184991298754,35.85761189317371],[136.1849771611387,35.857576924902446],[136.18499773768988,35.857519983150155],[136.18466483833532,35.857426600166214],[136.1848238140893,35.85763356764412]]]}},{"type":"Feature","properties":{"pid":"8dfb524a-51b7-439d-938a-35045c583ab9"},"geometry":{"type":"Polygon","coordinates":[[[136.18383547742252,35.85844745558471],[136.18461126717094,35.85864441502613],[136.18469769592838,35.85841353167138],[136.18391080431613,35.858209482230926],[136.18383547742252,35.85844745558471]]]}},{"type":"Feature","properties":{"pid":"14c7a71a-eca4-4032-8797-963c0d334cc2"},"geometry":{"type":"Polygon","coordinates":[[[136.18406876429904,35.85769070106774],[136.18401620270862,35.85787800041713],[136.18429121957786,35.8579467546226],[136.18408256662693,35.857688239659794],[136.18406876429904,35.85769070106774]]]}},{"type":"Feature","properties":{"pid":"d5bb1c21-7a6f-4da8-a108-b923fc689016"},"geometry":{"type":"Polygon","coordinates":[[[136.183981254848,35.85798280378746],[136.18394130138836,35.858112818159455],[136.18473586150012,35.85831367849739],[136.18445530326423,35.85809366992137],[136.183981254848,35.85798280378746]]]}},{"type":"Feature","properties":{"pid":"1ecf8896-e735-4ab7-b805-9858e7a6ce5e"},"geometry":{"type":"Polygon","coordinates":[[[136.18506460357514,35.85858922227177],[136.18484960455723,35.858533975426504],[136.18475478113712,35.85878113226853],[136.1853243057456,35.858926622977016],[136.18506460357514,35.85858922227177]]]}},{"type":"Feature","properties":{"pid":"2604ecbf-fb5c-48de-829e-6443dda205a3"},"geometry":{"type":"Polygon","coordinates":[[[136.18373093270466,35.85877570773599],[136.18448965160434,35.85896882633818],[136.18457582174497,35.858739542942814],[136.18380463889244,35.858544860433135],[136.18373093270466,35.85877570773599]]]}},{"type":"Feature","properties":{"pid":"e99bd931-32f6-46c0-bead-60fb80d7cde4"},"geometry":{"type":"Polygon","coordinates":[[[136.18445092299933,35.85906649174209],[136.18370290159243,35.858878017927225],[136.18362956308283,35.85910406121461],[136.18436503360442,35.85929317247247],[136.18445092299933,35.85906649174209]]]}},{"type":"Feature","properties":{"pid":"5419ab85-c33c-4c98-b07d-cc75af4a77f0"},"geometry":{"type":"Polygon","coordinates":[[[136.1835118049923,35.85949400062177],[136.18421165030244,35.85967573555765],[136.18432558803863,35.85938792090806],[136.1836006325107,35.85920047084789],[136.1835118049923,35.85949400062177]]]}},{"type":"Feature","properties":{"pid":"888ff90b-3bcf-4d15-ae61-18778bd5505a"},"geometry":{"type":"Polygon","coordinates":[[[136.18541023088432,35.85905215594934],[136.18471835490422,35.85887472567814],[136.1846193794941,35.85912744001105],[136.18531222931685,35.85930915626628],[136.18541023088432,35.85905215594934]]]}},{"type":"Feature","properties":{"pid":"a2cc157b-3947-47c5-8213-2b496d2e058d"},"geometry":{"type":"Polygon","coordinates":[[[136.18457809184818,35.85925565276091],[136.18448074433098,35.85950591236725],[136.18516785126099,35.85968316561807],[136.18526505861885,35.85943671717233],[136.18457809184818,35.85925565276091]]]}},{"type":"Feature","properties":{"pid":"dc9fea83-5886-497b-b5f0-75236d35924a"},"geometry":{"type":"Polygon","coordinates":[[[136.18512974104462,35.85977793569327],[136.18444257294772,35.85960066710892],[136.18430213856004,35.85995910031218],[136.18499181719355,35.86013632158372],[136.18512974104462,35.85977793569327]]]}},{"type":"Feature","properties":{"pid":"af0b3a34-c7d3-4832-997a-2f91fd2e2b49"},"geometry":{"type":"Polygon","coordinates":[[[136.1847680683917,35.86034175795702],[136.18482140189616,35.86019631814851],[136.18426853658434,35.86005501585779],[136.18420852923072,35.86020817017042],[136.1847680683917,35.86034175795702]]]}},{"type":"Feature","properties":{"pid":"e6c14c51-99af-494e-b095-765280c5218d"},"geometry":{"type":"Polygon","coordinates":[[[136.18410136113846,35.85996169692256],[136.18417742686714,35.85977388676152],[136.18348123118355,35.85959051963444],[136.18342156928892,35.859775101077894],[136.18410136113846,35.85996169692256]]]}},{"type":"Feature","properties":{"pid":"90cf3fdb-7f3f-4835-9d9f-5f2d58b05349"},"geometry":{"type":"Polygon","coordinates":[[[136.18397875486608,35.860288475141644],[136.18406596394397,35.860060349221655],[136.18338743397547,35.85987666055425],[136.18332167288185,35.86010910884268],[136.18397875486608,35.860288475141644]]]}},{"type":"Feature","properties":{"pid":"42147643-de0c-43fd-83cb-e32ae24509ec"},"geometry":{"type":"Polygon","coordinates":[[[136.18390506203102,35.86047193739031],[136.18394073022247,35.86038101961323],[136.18329035733086,35.86020672867675],[136.18326018496649,35.86029986071438],[136.18390506203102,35.86047193739031]]]}},{"type":"Feature","properties":{"pid":"42568dd0-4344-4c71-a583-7225830ff063"},"geometry":{"type":"Polygon","coordinates":[[[136.17947655383105,35.8597614957051],[136.18051571033274,35.85980197715594],[136.18054185768779,35.85963275806828],[136.1794856725923,35.859592959431126],[136.17947655383105,35.8597614957051]]]}},{"type":"Feature","properties":{"pid":"bc63f298-70ae-4fa3-9e8e-1c2cc3e58cf9"},"geometry":{"type":"Polygon","coordinates":[[[136.17949097823438,35.85949494958972],[136.18055736742963,35.8595325218774],[136.18058328492174,35.85936526930861],[136.1795005201046,35.85931877320639],[136.17949097823438,35.85949494958972]]]}},{"type":"Feature","properties":{"pid":"82262341-6208-4d75-9511-8556a4c89c37"},"geometry":{"type":"Polygon","coordinates":[[[136.17951376128542,35.85917095209478],[136.18060641674563,35.859215992547355],[136.1806350497031,35.85903774311059],[136.1795288667162,35.858997598836325],[136.17951376128542,35.85917095209478]]]}},{"type":"Feature","properties":{"pid":"9515e796-542b-4ff9-80a5-ca83de55a379"},"geometry":{"type":"Polygon","coordinates":[[[136.17953610061562,35.85889600031662],[136.18065118273904,35.85893805177253],[136.18067710113246,35.85877789787917],[136.17954763878757,35.85873396685749],[136.17953610061562,35.85889600031662]]]}},{"type":"Feature","properties":{"pid":"6c11c7de-7e8e-4544-8928-50b4c455c91f"},"geometry":{"type":"Polygon","coordinates":[[[136.17955565758788,35.85862416580372],[136.18069596113722,35.85866813232969],[136.18072498193845,35.858503904001886],[136.17956773925752,35.85846147042977],[136.17955565758788,35.85862416580372]]]}},{"type":"Feature","properties":{"pid":"85bf557c-b042-4847-b665-85f9959a2fe4"},"geometry":{"type":"Polygon","coordinates":[[[136.17957527605532,35.85835524130176],[136.18074341908897,35.858399566866765],[136.18076773484123,35.85823937244631],[136.17971892014666,35.85818949890302],[136.1797064385713,35.85828613960931],[136.17967055358466,35.858304534398435],[136.17957870683375,35.85830334560477],[136.17957527605532,35.85835524130176]]]}},{"type":"Feature","properties":{"pid":"434e2ef3-86bd-42d0-b3ae-69510af74a11"},"geometry":{"type":"Polygon","coordinates":[[[136.17959345492937,35.858080279371464],[136.18078206734532,35.85812488501203],[136.18079656351338,35.857966576568394],[136.17960408524348,35.85791949610604],[136.17959345492937,35.858080279371464]]]}},{"type":"Feature","properties":{"pid":"bfb69258-dbef-4d41-9263-cb69c5e81b21"},"geometry":{"type":"Polygon","coordinates":[[[136.1796105077924,35.85781966815964],[136.1807984652567,35.85786205810995],[136.18080418207325,35.85769634800909],[136.1796218805475,35.85764179318143],[136.1796105077924,35.85781966815964]]]}},{"type":"Feature","properties":{"pid":"e0906fcd-c906-4932-b246-c5179061d418"},"geometry":{"type":"Polygon","coordinates":[[[136.17962857513325,35.85753757383439],[136.18080804959874,35.857589538155935],[136.18081106100755,35.857419441922616],[136.17963932377978,35.85737121182326],[136.17962857513325,35.85753757383439]]]}},{"type":"Feature","properties":{"pid":"b31b34e1-ae01-4b4f-bed5-2d52646d28d2"},"geometry":{"type":"Polygon","coordinates":[[[136.17964700681108,35.857252309539824],[136.18080349584412,35.857299335047614],[136.18078428053897,35.85715563454211],[136.17965459867762,35.85710629577898],[136.17964700681108,35.857252309539824]]]}}]}