{"type":"FeatureCollection","features":[{"type":"Feature","properties":{"pid":"2061d428-cb1b-4dba-b500-9fc01edc0452"},"geometry":{"type":"Polygon","coordinates":[[[136.04019674957266,36.04108195846014],[136.04025638129727,36.04109111841906],[136.0402925326611,36.040986014588775],[136.04022641838492,36.04097493325744],[136.04019674957266,36.04108195846014]]]}},{"type":"Feature","properties":{"pid":"5ce03575-bd33-40cd-ab2e-934986a637f3"},"geometry":{"type":"Polygon","coordinates":[[[136.04132638265915,36.04586877733311],[136.0415688280179,36.04587631152752],[136.0415296717341,36.0457409920994],[136.04136277486518,36.045747110757695],[136.0411482436109,36.04578652710614],[136.04108516337664,36.04577911975231],[136.04096448209918,36.04571749914626],[136.04121216284844,36.04589353757007],[136.04132638265915,36.04586877733311]]]}},{"type":"Feature","properties":{"pid":"aafcb7d9-4ec5-422c-b3f9-6d072a78582c"},"geometry":{"type":"Polygon","coordinates":[[[136.04165823207993,36.04571206570881],[136.04169750249034,36.0458882483],[136.0418356435059,36.04586114027257],[136.04192236517773,36.045808272139254],[136.0419650755528,36.0457432776833],[136.04196291398782,36.04569922064886],[136.04189713867007,36.04568778604503],[136.0417816197087,36.04561312186958],[136.04173456609846,36.04565842424129],[136.04168464242096,36.04567026179606],[136.04165823207993,36.04571206570881]]]}},{"type":"Feature","properties":{"pid":"53d602ca-b3bf-4758-aa1e-43b1bc67607b"},"geometry":{"type":"Polygon","coordinates":[[[136.03782073447832,36.04480502317915],[136.03812000198343,36.04494368196953],[136.03823676103792,36.04485944120691],[136.0381757939446,36.0448329828369],[136.0381617385861,36.04479563673007],[136.0382812076686,36.0445902396925],[136.03811093816242,36.04451134713923],[136.03782073447832,36.04480502317915]]]}},{"type":"Feature","properties":{"pid":"251852c0-b585-4c04-bb21-be46b469bc05"},"geometry":{"type":"Polygon","coordinates":[[[136.04273970922358,36.04222385060768],[136.04282611226992,36.04222279981403],[136.04288435082265,36.04205145456329],[136.04302141649197,36.04189273535557],[136.0429123796965,36.04183431177509],[136.04273970922358,36.04222385060768]]]}},{"type":"Feature","properties":{"pid":"d92cc6d6-b77c-443b-9514-db4ee15a25bb"},"geometry":{"type":"Polygon","coordinates":[[[136.04326966006326,36.042314845826084],[136.0433816086005,36.04229066270533],[136.04343376540797,36.04223888884023],[136.04332194417378,36.04220094723917],[136.04329568293417,36.042233681648135],[136.04326966006326,36.042314845826084]]]}}]}