{"type":"FeatureCollection","features":[{"type":"Feature","properties":{"pid":"8979145f-a10c-4b60-b622-95b0866013e9","full":0.5},"geometry":{"type":"Polygon","coordinates":[[[136.20847,35.79328],[136.20869,35.79335],[136.20872,35.79334],[136.20874,35.79322],[136.20874,35.79321],[136.20864,35.7932],[136.20853,35.79316],[136.20847,35.79328]]]}},{"type":"Feature","properties":{"pid":"fa638965-e4ff-4855-96c9-a730f5b7be42","full":7.1},"geometry":{"type":"Polygon","coordinates":[[[136.20719,35.79339],[136.20746,35.79323],[136.2072,35.7929],[136.20715,35.7929],[136.20693,35.79304],[136.20719,35.79339]]]}},{"type":"Feature","properties":{"pid":"aba20965-83e8-4367-92f2-1d48d200b90b","full":13.4},"geometry":{"type":"Polygon","coordinates":[[[136.20718,35.79387],[136.20738,35.79365],[136.20692,35.79305],[136.20666,35.7932],[136.20718,35.79387]]]}},{"type":"Feature","properties":{"pid":"8c9b7f51-2f0d-401b-ad0f-5b5cee4a8fe6","full":17.4},"geometry":{"type":"Polygon","coordinates":[[[136.20637,35.79442],[136.20666,35.79434],[136.20667,35.79433],[136.20608,35.79356],[136.20605,35.79356],[136.20604,35.79354],[136.20596,35.79354],[136.20577,35.79364],[136.20637,35.79442]]]}},{"type":"Feature","properties":{"pid":"e9841630-0346-4f2e-87ee-284d25c384f5","full":15.5},"geometry":{"type":"Polygon","coordinates":[[[136.20573,35.79461],[136.20601,35.79456],[136.20604,35.79455],[136.20547,35.79379],[136.2052,35.79392],[136.20573,35.79461]]]}},{"type":"Feature","properties":{"pid":"e912108f-22ca-479e-8fd8-7f3591d47ddf","full":17.3},"geometry":{"type":"Polygon","coordinates":[[[136.20606,35.79454],[136.20608,35.79454],[136.20635,35.79442],[136.20576,35.79365],[136.20548,35.79378],[136.20606,35.79454]]]}},{"type":"Feature","properties":{"pid":"2a70b525-f91f-45b2-88e7-4bb79bf44d9a","full":14.6},"geometry":{"type":"Polygon","coordinates":[[[136.20657,35.79411],[136.20673,35.79404],[136.20685,35.79422],[136.20696,35.7941],[136.20637,35.79335],[136.20627,35.7934],[136.20615,35.79356],[136.20657,35.79411]]]}},{"type":"Feature","properties":{"pid":"13383363-88c4-4d9f-9d5b-187d32331ba4","full":15.5},"geometry":{"type":"Polygon","coordinates":[[[136.20696,35.79409],[136.20717,35.79388],[136.20665,35.79321],[136.20638,35.79335],[136.20696,35.79409]]]}},{"type":"Feature","properties":{"pid":"cb90af45-575b-490c-aa5d-815d8690923d","full":14.1},"geometry":{"type":"Polygon","coordinates":[[[136.20539,35.79468],[136.20542,35.79468],[136.20569,35.79463],[136.2057,35.79462],[136.20519,35.79393],[136.2049,35.79406],[136.20539,35.79468]]]}},{"type":"Feature","properties":{"pid":"c7c6e99b-660a-4801-a93a-b8ad06f00052","full":22.1},"geometry":{"type":"Polygon","coordinates":[[[136.20084,35.79451],[136.20112,35.79432],[136.20055,35.79354],[136.20051,35.79354],[136.20049,35.79352],[136.20021,35.79366],[136.20084,35.79451]]]}},{"type":"Feature","properties":{"pid":"7b89b339-1d98-4a66-ba57-d5a6c3a626ac","full":19.0},"geometry":{"type":"Polygon","coordinates":[[[136.20246,35.79351],[136.20277,35.79334],[136.20226,35.79266],[136.20194,35.79282],[136.20246,35.79351]]]}},{"type":"Feature","properties":{"pid":"3fc07f4e-fd82-49d5-b4d3-b567aac62613","full":13.7},"geometry":{"type":"Polygon","coordinates":[[[136.20194,35.79382],[136.20217,35.79369],[136.20166,35.79298],[136.20163,35.79299],[136.20161,35.79297],[136.20139,35.79308],[136.20194,35.79382]]]}},{"type":"Feature","properties":{"pid":"ced4bea0-4914-4648-aedc-f74408ba05a1","full":12.1},"geometry":{"type":"Polygon","coordinates":[[[136.20218,35.79368],[136.20241,35.79356],[136.20188,35.79284],[136.20165,35.79295],[136.20218,35.79368]]]}},{"type":"Feature","properties":{"pid":"9823dcf3-c093-4c67-89fc-973fec29160e","full":19.4},"geometry":{"type":"Polygon","coordinates":[[[136.20164,35.794],[136.20193,35.79382],[136.20138,35.79308],[136.20108,35.79323],[136.20164,35.794]]]}},{"type":"Feature","properties":{"pid":"c0be47e3-22ea-48f5-817a-2a59da4b4650","full":6.7},"geometry":{"type":"Polygon","coordinates":[[[136.20148,35.7941],[136.20163,35.79401],[136.20107,35.79323],[136.20091,35.79332],[136.20148,35.7941]]]}},{"type":"Feature","properties":{"pid":"359f43a6-6e90-44c2-a617-467f648bf4ae","full":25.7},"geometry":{"type":"Polygon","coordinates":[[[136.20113,35.79431],[136.20148,35.7941],[136.2009,35.79332],[136.20067,35.79344],[136.20071,35.79349],[136.20062,35.79354],[136.2006,35.79352],[136.20056,35.79354],[136.20113,35.79431]]]}},{"type":"Feature","properties":{"pid":"3abe5b45-a7a3-46ab-acc0-57f20c636980","full":18.1},"geometry":{"type":"Polygon","coordinates":[[[136.20033,35.79351],[136.20036,35.7935],[136.2007,35.79333],[136.2003,35.79279],[136.20028,35.79279],[136.19993,35.79296],[136.19992,35.79297],[136.20033,35.79351]]]}},{"type":"Feature","properties":{"pid":"ef661a9a-249b-471b-9900-460ad57ad7a5","full":12.1},"geometry":{"type":"Polygon","coordinates":[[[136.20064,35.79464],[136.20066,35.79464],[136.20082,35.79451],[136.2002,35.79367],[136.20001,35.79377],[136.19999,35.79378],[136.20064,35.79464]]]}},{"type":"Feature","properties":{"pid":"cad833b4-7f1c-4d9c-a461-158ce4b01f2f","full":7.1},"geometry":{"type":"Polygon","coordinates":[[[136.19985,35.79497],[136.20054,35.79463],[136.20045,35.79449],[136.20042,35.79449],[136.2004,35.79448],[136.19973,35.79481],[136.19985,35.79497]]]}},{"type":"Feature","properties":{"pid":"499bb5c9-4f13-489e-aa5c-c2bc6b5b711b","full":31.8},"geometry":{"type":"Polygon","coordinates":[[[136.20067,35.7925],[136.20037,35.79208],[136.19962,35.79241],[136.19959,35.79243],[136.19992,35.79287],[136.20067,35.7925]]]}},{"type":"Feature","properties":{"pid":"db4bece2-6d8c-47c9-b10a-99914457cc71","full":13.0},"geometry":{"type":"Polygon","coordinates":[[[136.20548,35.79097],[136.2055,35.79096],[136.20551,35.79098],[136.20575,35.79086],[136.20565,35.79076],[136.20578,35.79068],[136.20552,35.79047],[136.20549,35.79049],[136.20531,35.7903],[136.20507,35.79043],[136.20548,35.79097]]]}},{"type":"Feature","properties":{"pid":"8a4709fc-d672-47fa-8622-26d7340ae289","full":0.7},"geometry":{"type":"Polygon","coordinates":[[[136.20512,35.79116],[136.20521,35.79112],[136.2048,35.79056],[136.20469,35.79061],[136.2051,35.79116],[136.20512,35.79116]]]}},{"type":"Feature","properties":{"pid":"990d2ffb-1d6f-4475-bdc7-7cd24cff1172","full":10.8},"geometry":{"type":"Polygon","coordinates":[[[136.2048,35.79056],[136.20522,35.79111],[136.20548,35.79099],[136.20506,35.79043],[136.2048,35.79056]]]}},{"type":"Feature","properties":{"pid":"4a18e0de-5c2a-40ff-910c-43429e98ed6e","full":18.2},"geometry":{"type":"Polygon","coordinates":[[[136.20472,35.79136],[136.20509,35.79117],[136.20468,35.79062],[136.20431,35.7908],[136.20472,35.79136]]]}},{"type":"Feature","properties":{"pid":"5f9d2bdd-55ff-4b09-9c55-1f910f671c08","full":17.6},"geometry":{"type":"Polygon","coordinates":[[[136.20435,35.79154],[136.20471,35.79136],[136.2043,35.79081],[136.20423,35.79083],[136.20394,35.79098],[136.20435,35.79154]]]}},{"type":"Feature","properties":{"pid":"f1e5c09f-f1a4-4271-8558-0daf5470aa28","full":12.3},"geometry":{"type":"Polygon","coordinates":[[[136.20426,35.79074],[136.20396,35.79034],[136.20358,35.7905],[136.20389,35.79091],[136.20426,35.79074]]]}},{"type":"Feature","properties":{"pid":"f0a2ee01-8039-4e87-9c5d-cbf12561bf91","full":9.3},"geometry":{"type":"Polygon","coordinates":[[[136.20315,35.79126],[136.20318,35.79127],[136.20345,35.79114],[136.20314,35.79072],[136.20312,35.79071],[136.20284,35.79084],[136.20315,35.79126]]]}},{"type":"Feature","properties":{"pid":"f19cbb11-a67f-40d8-8fd3-74fbdd63e913","full":13.1},"geometry":{"type":"Polygon","coordinates":[[[136.2035,35.79111],[136.20387,35.79092],[136.20357,35.79051],[136.20347,35.79056],[136.20344,35.79056],[136.20319,35.79068],[136.20323,35.79075],[136.2035,35.79111]]]}},{"type":"Feature","properties":{"pid":"578a132e-fafe-4c8b-8d5f-caab14625a6c","full":3.1},"geometry":{"type":"Polygon","coordinates":[[[136.20285,35.79143],[136.20314,35.79128],[136.20302,35.7911],[136.20299,35.7911],[136.20272,35.79125],[136.20272,35.79127],[136.20283,35.79142],[136.20285,35.79143]]]}},{"type":"Feature","properties":{"pid":"9828cb36-0cf4-4414-815d-3e0b081f281a","full":26.7},"geometry":{"type":"Polygon","coordinates":[[[136.2026,35.7924],[136.20309,35.79216],[136.2031,35.79213],[136.2027,35.7916],[136.2022,35.79185],[136.2026,35.7924]]]}},{"type":"Feature","properties":{"pid":"a1acea94-d6b8-4895-95f5-3be9bcf30841","full":10.3},"geometry":{"type":"Polygon","coordinates":[[[136.20173,35.79199],[136.20206,35.79183],[136.20174,35.79142],[136.20145,35.79157],[136.20144,35.7916],[136.20173,35.79199]]]}},{"type":"Feature","properties":{"pid":"47c0e840-da29-48bc-bd4d-d79c9c67a49d","full":8.6},"geometry":{"type":"Polygon","coordinates":[[[136.20215,35.79179],[136.20242,35.79165],[136.20211,35.79123],[136.2021,35.79123],[136.20185,35.79136],[136.20184,35.79138],[136.20215,35.79179]]]}},{"type":"Feature","properties":{"pid":"1f1fbe67-cdef-4d7a-8777-404eefea3708","full":4.1},"geometry":{"type":"Polygon","coordinates":[[[136.20243,35.79165],[136.2026,35.79157],[136.20229,35.79113],[136.20214,35.79121],[136.20212,35.79123],[136.20243,35.79165]]]}},{"type":"Feature","properties":{"pid":"5aaa7e58-5470-4d30-8d0c-03f5ad992dc0","full":5.2},"geometry":{"type":"Polygon","coordinates":[[[136.20083,35.79242],[136.20105,35.79231],[136.20076,35.79192],[136.20054,35.79201],[136.20083,35.79242]]]}},{"type":"Feature","properties":{"pid":"5a599c3e-cfe3-4758-8c9d-736b2164ad22","full":9.3},"geometry":{"type":"Polygon","coordinates":[[[136.20105,35.7923],[136.20107,35.7923],[136.20136,35.79216],[136.20137,35.79215],[136.20109,35.79179],[136.20107,35.79177],[136.20077,35.79191],[136.20105,35.7923]]]}},{"type":"Feature","properties":{"pid":"07606080-f4f8-4394-9ace-64367301a225","full":17.1},"geometry":{"type":"Polygon","coordinates":[[[136.20147,35.79296],[136.20183,35.79278],[136.20142,35.79223],[136.20106,35.7924],[136.20147,35.79296]]]}},{"type":"Feature","properties":{"pid":"99aac9ce-e1ea-4b61-9ab2-c8e45639178f","full":1.8},"geometry":{"type":"Polygon","coordinates":[[[136.20039,35.79207],[136.2007,35.79248],[136.20083,35.79242],[136.20053,35.79201],[136.20039,35.79207]]]}},{"type":"Feature","properties":{"pid":"3200a6e6-6e0e-4369-b13d-4bdffa311fe9","full":18.0},"geometry":{"type":"Polygon","coordinates":[[[136.20107,35.79312],[136.2011,35.79313],[136.20146,35.79296],[136.20105,35.79242],[136.20068,35.79258],[136.20067,35.7926],[136.20107,35.79312]]]}},{"type":"Feature","properties":{"pid":"5ec4b556-6538-404a-a6a9-c2347c6245d3","full":6.3},"geometry":{"type":"Polygon","coordinates":[[[136.20071,35.79333],[136.20091,35.79323],[136.2005,35.79269],[136.20031,35.79278],[136.20071,35.79333]]]}},{"type":"Feature","properties":{"pid":"5ebd6875-8125-42b8-b8a2-fed6b5b83476","full":4.3},"geometry":{"type":"Polygon","coordinates":[[[136.20091,35.79322],[136.20093,35.79322],[136.20108,35.79315],[136.20066,35.79261],[136.20064,35.79261],[136.20052,35.79267],[136.20051,35.79268],[136.20091,35.79322]]]}},{"type":"Feature","properties":{"pid":"3ff9ada5-9ae1-4305-b276-a46ac8c1797e","full":6.0},"geometry":{"type":"Polygon","coordinates":[[[136.20188,35.79276],[136.20206,35.79267],[136.20165,35.79211],[136.20146,35.79221],[136.20188,35.79276]]]}},{"type":"Feature","properties":{"pid":"818a3fad-fe2c-4103-a3ad-c2dbb193647c","full":27.9},"geometry":{"type":"Polygon","coordinates":[[[136.20207,35.79266],[136.20259,35.79241],[136.20219,35.79185],[136.20166,35.79211],[136.20207,35.79266]]]}},{"type":"Feature","properties":{"pid":"b719417e-d557-4b14-858d-ca4355a743f2","full":12.9},"geometry":{"type":"Polygon","coordinates":[[[136.20306,35.79319],[136.20331,35.79305],[136.20282,35.79239],[136.20279,35.79239],[136.20258,35.79249],[136.20256,35.79251],[136.20306,35.79319]]]}},{"type":"Feature","properties":{"pid":"e26d81d9-cd9d-4407-9aad-d79b4ba2bc07","full":15.6},"geometry":{"type":"Polygon","coordinates":[[[136.20278,35.79334],[136.20306,35.79319],[136.20255,35.79252],[136.20252,35.79252],[136.20228,35.79264],[136.20227,35.79265],[136.20278,35.79334]]]}},{"type":"Feature","properties":{"pid":"8ab1cde7-f050-4ad4-9cc1-fdcef4778c88","full":15.8},"geometry":{"type":"Polygon","coordinates":[[[136.20332,35.79305],[136.20361,35.79291],[136.20312,35.79224],[136.20283,35.79238],[136.20332,35.79305]]]}},{"type":"Feature","properties":{"pid":"50ceefaf-eb7d-4a8c-92e8-959700d84fe9","full":13.8},"geometry":{"type":"Polygon","coordinates":[[[136.20421,35.79264],[136.20445,35.79255],[136.20447,35.79253],[136.20396,35.79183],[136.20369,35.79195],[136.20421,35.79264]]]}},{"type":"Feature","properties":{"pid":"d091d292-35e7-44c1-9a0f-fb1b8c2f4a06","full":14.2},"geometry":{"type":"Polygon","coordinates":[[[136.20368,35.79196],[136.20342,35.79209],[136.20392,35.79277],[136.20419,35.79265],[136.20368,35.79196]]]}},{"type":"Feature","properties":{"pid":"06c660eb-7188-414d-b600-deb0339e76a6","full":14.6},"geometry":{"type":"Polygon","coordinates":[[[136.20362,35.7929],[136.20391,35.79278],[136.2034,35.7921],[136.20313,35.79223],[136.20362,35.7929]]]}},{"type":"Feature","properties":{"pid":"dbf25ad6-cef9-47b2-b2cc-c37a104b11dd","full":9.6},"geometry":{"type":"Polygon","coordinates":[[[136.20311,35.79213],[136.20314,35.79213],[136.20337,35.79202],[136.20295,35.79148],[136.20272,35.79159],[136.20311,35.79213]]]}},{"type":"Feature","properties":{"pid":"4fec3e6c-a457-4f8b-b886-6a1b3c132c50","full":10.5},"geometry":{"type":"Polygon","coordinates":[[[136.20337,35.792],[136.20339,35.79199],[136.20341,35.792],[136.20364,35.79189],[136.20322,35.79134],[136.20296,35.79147],[136.20337,35.792]]]}},{"type":"Feature","properties":{"pid":"f4d0a15f-36ef-4b65-b44f-612136fb8b0c","full":5.4},"geometry":{"type":"Polygon","coordinates":[[[136.20345,35.79163],[136.20373,35.7915],[136.20349,35.7912],[136.20323,35.79133],[136.20345,35.79163]]]}},{"type":"Feature","properties":{"pid":"43e79b5f-eacc-497d-a2a2-96dc645c61e4","full":18.4},"geometry":{"type":"Polygon","coordinates":[[[136.20395,35.7917],[136.20401,35.79171],[136.20434,35.79154],[136.20394,35.79099],[136.20392,35.79098],[136.20356,35.79116],[136.20395,35.7917]]]}},{"type":"Feature","properties":{"pid":"6534251a-1820-428e-9757-7e4f5eef0ce6","full":26.3},"geometry":{"type":"Polygon","coordinates":[[[136.20457,35.79254],[136.20498,35.7924],[136.2044,35.79162],[136.20407,35.79177],[136.20403,35.79181],[136.20457,35.79254]]]}},{"type":"Feature","properties":{"pid":"a22c990e-5918-43a8-9857-a15ec616b417","full":17.6},"geometry":{"type":"Polygon","coordinates":[[[136.20499,35.7924],[136.20529,35.7923],[136.2047,35.79151],[136.20466,35.79151],[136.20464,35.79149],[136.20441,35.79161],[136.20499,35.7924]]]}},{"type":"Feature","properties":{"pid":"a841ac6a-accc-42ca-befc-362647cc90d5","full":18.2},"geometry":{"type":"Polygon","coordinates":[[[136.20561,35.79219],[136.2059,35.79209],[136.20523,35.79119],[136.205,35.79131],[136.20502,35.79134],[136.205,35.79136],[136.20561,35.79219]]]}},{"type":"Feature","properties":{"pid":"0949ce94-0bdf-4162-929c-97c8b3abfd9c","full":19.3},"geometry":{"type":"Polygon","coordinates":[[[136.2053,35.79229],[136.2056,35.79219],[136.20497,35.79133],[136.20472,35.79146],[136.2047,35.79149],[136.2053,35.79229]]]}},{"type":"Feature","properties":{"pid":"2243b59d-bcf9-48f2-9104-bfc8f8029134","full":11.0},"geometry":{"type":"Polygon","coordinates":[[[136.20759,35.7934],[136.20784,35.79321],[136.20745,35.79271],[136.2072,35.79289],[136.20759,35.7934]]]}},{"type":"Feature","properties":{"pid":"5f6ac12f-20a8-4cf1-a85b-6d547fe86748","full":19.1},"geometry":{"type":"Polygon","coordinates":[[[136.20784,35.79321],[136.20809,35.79299],[136.208,35.79291],[136.2082,35.79274],[136.2082,35.79273],[136.20781,35.79243],[136.20777,35.79245],[136.20746,35.79271],[136.20784,35.79321]]]}},{"type":"Feature","properties":{"pid":"48386cf2-afd4-47ba-9735-ac65cb9cfd7b","full":15.2},"geometry":{"type":"Polygon","coordinates":[[[136.20642,35.7918],[136.20652,35.79173],[136.20671,35.79155],[136.20596,35.79088],[136.20592,35.79085],[136.20582,35.79091],[136.20583,35.79092],[136.20582,35.79094],[136.20642,35.7918]]]}},{"type":"Feature","properties":{"pid":"c75b5c24-b8ed-4134-b748-aefe2362ba19","full":18.5},"geometry":{"type":"Polygon","coordinates":[[[136.20586,35.79202],[136.20595,35.79197],[136.206,35.79205],[136.20603,35.79204],[136.20617,35.79196],[136.20554,35.79109],[136.20551,35.7911],[136.20549,35.79107],[136.20526,35.79118],[136.20527,35.7912],[136.20525,35.79121],[136.20586,35.79202]]]}},{"type":"Feature","properties":{"pid":"e9228a81-d567-4e99-b274-6ab24f968264","full":18.5},"geometry":{"type":"Polygon","coordinates":[[[136.20618,35.79196],[136.20631,35.79188],[136.20641,35.7918],[136.20581,35.79095],[136.20578,35.79096],[136.20576,35.79094],[136.20553,35.79106],[136.20618,35.79196]]]}},{"type":"Feature","properties":{"pid":"9b59b58c-3afe-49ef-bd71-2b3ace79637c","full":7.9},"geometry":{"type":"Polygon","coordinates":[[[136.2064,35.79111],[136.20705,35.79063],[136.20689,35.79049],[136.20624,35.79096],[136.2064,35.79111]]]}},{"type":"Feature","properties":{"pid":"3616ce8d-a3c6-4bfa-9700-52b813fe5a20","full":11.6},"geometry":{"type":"Polygon","coordinates":[[[136.20624,35.79096],[136.20688,35.79048],[136.20668,35.7903],[136.20605,35.79077],[136.20605,35.79079],[136.20624,35.79096]]]}},{"type":"Feature","properties":{"pid":"2a81e872-ea66-4f1a-bbc8-dcfd93b85862","full":21.0},"geometry":{"type":"Polygon","coordinates":[[[136.20732,35.79082],[136.20734,35.7908],[136.20743,35.79063],[136.20751,35.79035],[136.20714,35.79002],[136.2071,35.79002],[136.20673,35.79027],[136.20732,35.79082]]]}},{"type":"Feature","properties":{"pid":"0afe6090-1358-4e9e-87e8-7bb059926887","full":24.5},"geometry":{"type":"Polygon","coordinates":[[[136.20678,35.79144],[136.2068,35.79143],[136.20681,35.79144],[136.20695,35.79135],[136.20713,35.79113],[136.20731,35.79087],[136.20706,35.79064],[136.20642,35.79111],[136.20642,35.79114],[136.20678,35.79144]]]}},{"type":"Feature","properties":{"pid":"236f5336-31aa-4f34-b05c-7dae19c778b8","full":2.5},"geometry":{"type":"Polygon","coordinates":[[[136.21006,35.79071],[136.21025,35.79068],[136.21009,35.7902],[136.20998,35.79032],[136.20996,35.79036],[136.21006,35.79071]]]}},{"type":"Feature","properties":{"pid":"db2cc224-0da6-4333-abe7-fa3260ef0018","full":19.9},"geometry":{"type":"Polygon","coordinates":[[[136.2101,35.79149],[136.21022,35.79143],[136.21022,35.7914],[136.21025,35.7914],[136.21006,35.7908],[136.21003,35.79078],[136.20948,35.7909],[136.20944,35.79091],[136.20942,35.79097],[136.20942,35.79099],[136.2101,35.79149]]]}},{"type":"Feature","properties":{"pid":"2458c122-c8b7-49e3-acbe-6451e31d8d8f","full":15.6},"geometry":{"type":"Polygon","coordinates":[[[136.21041,35.79147],[136.21069,35.79142],[136.21047,35.79073],[136.21045,35.79073],[136.21043,35.7907],[136.21013,35.79076],[136.21012,35.79077],[136.21032,35.7914],[136.21037,35.79139],[136.21041,35.79147]]]}},{"type":"Feature","properties":{"pid":"f01a8d59-4b9f-4527-bcac-0c0520f4868b","full":18.3},"geometry":{"type":"Polygon","coordinates":[[[136.20977,35.79172],[136.20989,35.79165],[136.2099,35.79158],[136.21006,35.79148],[136.2094,35.791],[136.20925,35.79118],[136.20915,35.79128],[136.20977,35.79172]]]}},{"type":"Feature","properties":{"pid":"fa573433-1de4-4fc7-a2f5-4e882687f374","full":19.7},"geometry":{"type":"Polygon","coordinates":[[[136.20957,35.79207],[136.20975,35.79195],[136.2096,35.79182],[136.20975,35.79173],[136.20918,35.79131],[136.20912,35.79131],[136.20884,35.79154],[136.20957,35.79207]]]}},{"type":"Feature","properties":{"pid":"33a70593-b123-48ab-a68c-0cb4f11ddf84","full":16.3},"geometry":{"type":"Polygon","coordinates":[[[136.20876,35.79244],[136.20916,35.79227],[136.20859,35.79186],[136.20857,35.79187],[136.20854,35.79185],[136.20825,35.79207],[136.20876,35.79244]]]}},{"type":"Feature","properties":{"pid":"3cb0ad9a-577d-4c77-84c1-f4a6a0df5b00","full":20.5},"geometry":{"type":"Polygon","coordinates":[[[136.2092,35.79228],[136.20955,35.79208],[136.20883,35.79155],[136.20863,35.79172],[136.20859,35.79183],[136.2092,35.79228]]]}},{"type":"Feature","properties":{"pid":"14134e60-d6af-468e-bece-9558311d5a92","full":15.3},"geometry":{"type":"Polygon","coordinates":[[[136.2083,35.79266],[136.20871,35.79247],[136.20873,35.79244],[136.20823,35.79207],[136.2081,35.79218],[136.20807,35.79221],[136.20792,35.79232],[136.20792,35.79235],[136.2083,35.79266]]]}},{"type":"Feature","properties":{"pid":"c9071d3c-eda9-44b6-86fe-a29adb5b824b","full":0.8},"geometry":{"type":"Polygon","coordinates":[[[136.20855,35.79292],[136.20873,35.79279],[136.2087,35.79271],[136.20867,35.7927],[136.20866,35.79267],[136.20844,35.7928],[136.20844,35.79284],[136.20855,35.79292]]]}},{"type":"Feature","properties":{"pid":"154a62ac-dae0-4b25-a54c-bb098cafb6ca","full":0.7},"geometry":{"type":"Polygon","coordinates":[[[136.20845,35.7931],[136.20858,35.793],[136.2084,35.79287],[136.20835,35.79287],[136.20828,35.79293],[136.20841,35.79308],[136.20845,35.7931]]]}},{"type":"Feature","properties":{"pid":"372b11ce-af11-41aa-85af-33ca45c8991e","full":2.4},"geometry":{"type":"Polygon","coordinates":[[[136.20877,35.79286],[136.20884,35.79283],[136.2089,35.79281],[136.20895,35.79279],[136.20912,35.7927],[136.20913,35.79267],[136.20898,35.79254],[136.20896,35.79254],[136.20895,35.79253],[136.20879,35.79261],[136.20884,35.79267],[136.20873,35.79272],[136.20871,35.79271],[136.20874,35.79279],[136.20877,35.79286]]]}},{"type":"Feature","properties":{"pid":"2d1fae03-8998-43a3-9d93-25d9db4a5d79","full":16.7},"geometry":{"type":"Polygon","coordinates":[[[136.21073,35.79152],[136.21106,35.79152],[136.21078,35.79062],[136.21051,35.79068],[136.2105,35.7907],[136.21048,35.79072],[136.21073,35.79152]]]}},{"type":"Feature","properties":{"pid":"412d6790-fdbe-4ef4-8a5a-345367a07f6e","full":17.4},"geometry":{"type":"Polygon","coordinates":[[[136.21107,35.79152],[136.21139,35.7915],[136.21111,35.7906],[136.21108,35.79057],[136.21079,35.79062],[136.21107,35.79152]]]}},{"type":"Feature","properties":{"pid":"8c93c067-fab5-47b0-a29f-c0ccf41a035d","full":19.0},"geometry":{"type":"Polygon","coordinates":[[[136.21174,35.79146],[136.21204,35.79138],[136.21176,35.79046],[136.21174,35.79046],[136.21172,35.79045],[136.21172,35.79043],[136.21144,35.79049],[136.21144,35.79051],[136.21174,35.79146]]]}},{"type":"Feature","properties":{"pid":"20107f43-9e28-4100-8642-c116c40049a0","full":18.9},"geometry":{"type":"Polygon","coordinates":[[[136.21141,35.7915],[136.21158,35.79149],[136.21172,35.79146],[136.21143,35.79051],[136.21142,35.7905],[136.21112,35.79056],[136.21141,35.7915]]]}},{"type":"Feature","properties":{"pid":"1b228830-a061-45ca-8ecb-6c5828bf5c49","full":16.1},"geometry":{"type":"Polygon","coordinates":[[[136.21299,35.79107],[136.21312,35.79105],[136.2133,35.79103],[136.21304,35.79019],[136.21302,35.79019],[136.21301,35.79017],[136.21273,35.79022],[136.21299,35.79107]]]}},{"type":"Feature","properties":{"pid":"5c9b11c7-87f5-49d8-8cb6-811483113a32","full":16.8},"geometry":{"type":"Polygon","coordinates":[[[136.21268,35.79117],[136.21298,35.79107],[136.21271,35.79023],[136.21242,35.79029],[136.21241,35.79031],[136.21268,35.79117]]]}},{"type":"Feature","properties":{"pid":"dfe42ea9-8427-4ed7-b512-c3ec4769ce52","full":17.4},"geometry":{"type":"Polygon","coordinates":[[[136.21237,35.79129],[136.21266,35.79118],[136.2124,35.79031],[136.21238,35.7903],[136.2121,35.79035],[136.21209,35.79037],[136.21237,35.79129]]]}},{"type":"Feature","properties":{"pid":"cf0a67d8-86d5-4ba8-a3fa-c2771d83c14f","full":18.7},"geometry":{"type":"Polygon","coordinates":[[[136.21205,35.79138],[136.21236,35.79129],[136.21208,35.79038],[136.21206,35.79037],[136.21176,35.79042],[136.21205,35.79138]]]}},{"type":"Feature","properties":{"pid":"ef246f8d-3455-43db-9141-7b20d39cc59b","full":17.7},"geometry":{"type":"Polygon","coordinates":[[[136.21399,35.79098],[136.21415,35.791],[136.21424,35.79102],[136.21435,35.79106],[136.21446,35.79111],[136.21451,35.79103],[136.21449,35.79099],[136.2138,35.79002],[136.21377,35.79001],[136.21369,35.79003],[136.21399,35.79098]]]}},{"type":"Feature","properties":{"pid":"ac70112b-8f41-4896-b175-4be020b4f3ba","full":18.1},"geometry":{"type":"Polygon","coordinates":[[[136.21364,35.791],[136.21386,35.79098],[136.21398,35.79098],[136.21369,35.79007],[136.21366,35.79006],[136.21365,35.79004],[136.21337,35.79009],[136.21364,35.791]]]}},{"type":"Feature","properties":{"pid":"43c9a998-e6b5-4c59-b490-a4276fe20918","full":17.2},"geometry":{"type":"Polygon","coordinates":[[[136.21331,35.79103],[136.21363,35.791],[136.21336,35.7901],[136.2131,35.79015],[136.21305,35.79019],[136.21331,35.79103]]]}},{"type":"Feature","properties":{"pid":"84d900e9-11db-47ee-b04f-88d38ae18e91","full":9.5},"geometry":{"type":"Polygon","coordinates":[[[136.21668,35.7929],[136.21669,35.79294],[136.21681,35.79306],[136.2169,35.79312],[136.21713,35.79246],[136.21712,35.79245],[136.21686,35.79239],[136.21668,35.7929]]]}},{"type":"Feature","properties":{"pid":"be15bf37-c789-49ea-a368-8674acfd2b06","full":3.7},"geometry":{"type":"Polygon","coordinates":[[[136.21652,35.79266],[136.21667,35.7929],[136.21685,35.7924],[136.21685,35.79238],[136.21665,35.79234],[136.21652,35.79266]]]}},{"type":"Feature","properties":{"pid":"43796959-44b3-4015-a392-20c804aae04f","full":17.3},"geometry":{"type":"Polygon","coordinates":[[[136.2173,35.79244],[136.21758,35.7925],[136.21787,35.79166],[136.21786,35.79164],[136.21757,35.79158],[136.21755,35.79158],[136.21728,35.79242],[136.21729,35.79242],[136.2173,35.79244]]]}},{"type":"Feature","properties":{"pid":"7d73544b-0f1e-4ac8-afa4-d64baa7e8d60","full":15.7},"geometry":{"type":"Polygon","coordinates":[[[136.21691,35.79234],[136.21694,35.79236],[136.21719,35.79241],[136.21721,35.7924],[136.21749,35.79157],[136.21748,35.79156],[136.2172,35.79149],[136.21691,35.79234]]]}},{"type":"Feature","properties":{"pid":"de9be19e-e838-4ec6-ac8c-553105034e1e","full":26.6},"geometry":{"type":"Polygon","coordinates":[[[136.21758,35.79151],[136.2176,35.79153],[136.21862,35.79177],[136.21874,35.79143],[136.21873,35.79141],[136.21771,35.79119],[136.21769,35.7912],[136.21758,35.79151]]]}},{"type":"Feature","properties":{"pid":"25153778-2f15-4072-abe5-062115fd6d32","full":16.7},"geometry":{"type":"Polygon","coordinates":[[[136.21759,35.79251],[136.21787,35.79256],[136.21788,35.79255],[136.21791,35.79255],[136.21819,35.79171],[136.2179,35.79165],[136.21788,35.79165],[136.21759,35.79251]]]}},{"type":"Feature","properties":{"pid":"06eaf803-128e-4a75-9210-3b053ed423f1","full":16.8},"geometry":{"type":"Polygon","coordinates":[[[136.21792,35.79256],[136.21795,35.79259],[136.21822,35.79264],[136.21851,35.79178],[136.21822,35.79172],[136.2182,35.79172],[136.21792,35.79256]]]}},{"type":"Feature","properties":{"pid":"e36b5494-41fc-4813-a88b-c367ef51334b","full":21.0},"geometry":{"type":"Polygon","coordinates":[[[136.21691,35.79313],[136.2171,35.79323],[136.2173,35.79331],[136.21755,35.79256],[136.21755,35.79254],[136.21717,35.79245],[136.21715,35.79246],[136.21691,35.79313]]]}},{"type":"Feature","properties":{"pid":"b3524c3d-dd4f-452a-9d30-1144f7a3d019","full":16.0},"geometry":{"type":"Polygon","coordinates":[[[136.21731,35.79332],[136.21745,35.79339],[136.21758,35.79344],[136.2176,35.79344],[136.21787,35.79264],[136.21787,35.79261],[136.21757,35.79255],[136.21731,35.79332]]]}},{"type":"Feature","properties":{"pid":"711c1f07-5d41-4488-9beb-352522f64845","full":16.7},"geometry":{"type":"Polygon","coordinates":[[[136.21761,35.79345],[136.21767,35.79348],[136.21792,35.79353],[136.2182,35.79269],[136.21819,35.79268],[136.2179,35.79261],[136.21761,35.79345]]]}},{"type":"Feature","properties":{"pid":"5934e0e4-2722-4d93-8a60-9a5271fa26ae","full":15.6},"geometry":{"type":"Polygon","coordinates":[[[136.21824,35.79265],[136.21851,35.79271],[136.21852,35.79267],[136.21855,35.79266],[136.21882,35.79185],[136.21853,35.79178],[136.21824,35.79265]]]}},{"type":"Feature","properties":{"pid":"0dda6330-3caf-4ce6-be2d-3c8ddfb812da","full":4.7},"geometry":{"type":"Polygon","coordinates":[[[136.21856,35.79266],[136.21857,35.7927],[136.21856,35.79272],[136.2187,35.79275],[136.219,35.7919],[136.21883,35.79186],[136.21856,35.79266]]]}},{"type":"Feature","properties":{"pid":"a0d0635d-b219-43c3-8374-b9d28a8f7d81","full":3.6},"geometry":{"type":"Polygon","coordinates":[[[136.21871,35.79275],[136.21885,35.79279],[136.21885,35.79276],[136.21886,35.79276],[136.21915,35.79193],[136.219,35.7919],[136.21871,35.79275]]]}},{"type":"Feature","properties":{"pid":"ef1b49cb-27ec-45a5-8e65-0f8ac4d41e5b","full":16.8},"geometry":{"type":"Polygon","coordinates":[[[136.21887,35.7928],[136.21916,35.79286],[136.21917,35.79284],[136.21918,35.79284],[136.21947,35.792],[136.21916,35.79193],[136.21887,35.7928]]]}},{"type":"Feature","properties":{"pid":"011e4c92-d838-42b6-a89c-3b59e31ccd8c","full":16.4},"geometry":{"type":"Polygon","coordinates":[[[136.2192,35.79284],[136.2192,35.79286],[136.21932,35.7929],[136.21933,35.79287],[136.2195,35.79291],[136.21977,35.7921],[136.21976,35.79208],[136.21975,35.79206],[136.21949,35.792],[136.21948,35.79201],[136.2192,35.79284]]]}},{"type":"Feature","properties":{"pid":"d1aca0a9-e31a-454a-b094-812cb4145f10","full":20.0},"geometry":{"type":"Polygon","coordinates":[[[136.22043,35.79314],[136.22086,35.79323],[136.22109,35.7926],[136.22103,35.79257],[136.22066,35.79248],[136.22043,35.79314]]]}},{"type":"Feature","properties":{"pid":"5d3b94d1-55ac-4732-9c01-ab8a97128634","full":20.9},"geometry":{"type":"Polygon","coordinates":[[[136.22001,35.79305],[136.22041,35.79313],[136.22041,35.79311],[136.22043,35.79311],[136.22065,35.79247],[136.22054,35.79243],[136.22032,35.79227],[136.22028,35.79224],[136.22001,35.79305]]]}},{"type":"Feature","properties":{"pid":"0c28fc4f-fd0e-4d8a-ac21-9d2b2b5c64eb","full":28.3},"geometry":{"type":"Polygon","coordinates":[[[136.21958,35.79295],[136.21999,35.79305],[136.22027,35.79223],[136.22024,35.79219],[136.22021,35.79214],[136.21997,35.79185],[136.21995,35.79186],[136.21991,35.79206],[136.21987,35.79208],[136.21958,35.79295]]]}},{"type":"Feature","properties":{"pid":"209e71df-7677-4780-a61f-20b8c14146b5","full":9.3},"geometry":{"type":"Polygon","coordinates":[[[136.21943,35.79195],[136.21975,35.79203],[136.21977,35.79201],[136.21981,35.79202],[136.21988,35.79184],[136.21988,35.79177],[136.21974,35.79153],[136.21963,35.79142],[136.21961,35.79141],[136.21943,35.79195]]]}},{"type":"Feature","properties":{"pid":"39a6a6d4-f8ff-4a1a-a423-7b61316de409","full":20.7},"geometry":{"type":"Polygon","coordinates":[[[136.21868,35.79178],[136.21869,35.79179],[136.21903,35.79187],[136.2191,35.79187],[136.21935,35.79117],[136.21933,35.79115],[136.2193,35.79118],[136.21891,35.7911],[136.21868,35.79178]]]}},{"type":"Feature","properties":{"pid":"7624b3f9-a1d8-45ee-af05-161db498f8ef","full":11.5},"geometry":{"type":"Polygon","coordinates":[[[136.21912,35.79188],[136.21942,35.79195],[136.2196,35.79139],[136.21939,35.79117],[136.21935,35.79119],[136.21912,35.79188]]]}},{"type":"Feature","properties":{"pid":"f15fcf4d-0526-4f42-9d77-20903bd5996d","full":4.2},"geometry":{"type":"Polygon","coordinates":[[[136.21823,35.79067],[136.21851,35.79074],[136.21859,35.79049],[136.21835,35.79032],[136.21833,35.79033],[136.21823,35.79064],[136.21823,35.79067]]]}},{"type":"Feature","properties":{"pid":"fa2e5d3b-e32e-4d22-a06e-a1fa7c5eb00f","full":2.5},"geometry":{"type":"Polygon","coordinates":[[[136.21852,35.79073],[136.21855,35.79076],[136.21893,35.79084],[136.21896,35.7908],[136.21895,35.79074],[136.2186,35.7905],[136.21852,35.79073]]]}},{"type":"Feature","properties":{"pid":"1d4ffbf4-f661-41cf-ae35-0ac28829c4df","full":17.2},"geometry":{"type":"Polygon","coordinates":[[[136.21779,35.79089],[136.2178,35.79092],[136.21883,35.79115],[136.21884,35.79114],[136.21893,35.7909],[136.21787,35.79065],[136.21779,35.79089]]]}},{"type":"Feature","properties":{"pid":"eccdde7e-1ba9-4a5e-b806-db74db7a3c62","full":17.3},"geometry":{"type":"Polygon","coordinates":[[[136.21769,35.79117],[136.2177,35.79118],[136.21874,35.79141],[136.21883,35.79117],[136.21882,35.79116],[136.2178,35.79093],[136.21778,35.79093],[136.21769,35.79117]]]}},{"type":"Feature","properties":{"pid":"b2bdfdcd-f03b-47b5-9cb9-dab0b584580b","full":53.1},"geometry":{"type":"Polygon","coordinates":[[[136.21752,35.7915],[136.21772,35.79092],[136.21771,35.7909],[136.21668,35.79067],[136.21666,35.79068],[136.21647,35.79126],[136.21749,35.79151],[136.21752,35.7915]]]}},{"type":"Feature","properties":{"pid":"1528510e-c10c-4298-acb9-ae65b6b05f2d","full":15.6},"geometry":{"type":"Polygon","coordinates":[[[136.21772,35.79088],[136.2178,35.79067],[136.2178,35.79065],[136.21679,35.79041],[136.21677,35.79041],[136.21668,35.79066],[136.21772,35.79088]]]}},{"type":"Feature","properties":{"pid":"44025579-b8ee-4537-94fd-775a3fc916b1","full":33.1},"geometry":{"type":"Polygon","coordinates":[[[136.21607,35.79119],[136.21634,35.79038],[136.21632,35.79036],[136.21634,35.79032],[136.21561,35.79015],[136.21563,35.79028],[136.2156,35.79029],[136.21572,35.79073],[136.21575,35.79074],[136.21579,35.79092],[136.2158,35.79113],[136.21607,35.79119]]]}},{"type":"Feature","properties":{"pid":"c4fe0996-904c-4c1b-814f-ffa15272c078","full":17.9},"geometry":{"type":"Polygon","coordinates":[[[136.22087,35.79324],[136.22111,35.79329],[136.22129,35.79331],[136.2215,35.79272],[136.22149,35.7927],[136.2211,35.7926],[136.22087,35.79324]]]}},{"type":"Feature","properties":{"pid":"d4d83090-b4f8-47be-87d8-1bdbd8576aa8","full":16.6},"geometry":{"type":"Polygon","coordinates":[[[136.22134,35.79331],[136.22175,35.79333],[136.22197,35.79268],[136.22192,35.79267],[136.22156,35.7927],[136.22153,35.79271],[136.22134,35.79331]]]}},{"type":"Feature","properties":{"pid":"6af88d4e-fbd2-40f3-a289-ef22b1ed9b7a","full":17.6},"geometry":{"type":"Polygon","coordinates":[[[136.22175,35.79333],[136.22217,35.79335],[136.2222,35.79335],[136.22239,35.79278],[136.2223,35.79274],[136.22199,35.79267],[136.22175,35.79333]]]}},{"type":"Feature","properties":{"pid":"6cae9e96-3f8a-44ba-b3ea-aeb732a874c2","full":14.1},"geometry":{"type":"Polygon","coordinates":[[[136.22454,35.7972],[136.22457,35.79721],[136.22467,35.79722],[136.22478,35.79722],[136.22487,35.79717],[136.22495,35.79714],[136.22501,35.79713],[136.22518,35.79672],[136.22479,35.79663],[136.22477,35.79663],[136.22454,35.7972]]]}},{"type":"Feature","properties":{"pid":"75f6aef5-7f56-488a-a209-c0a53df916a5","full":16.6},"geometry":{"type":"Polygon","coordinates":[[[136.2241,35.79711],[136.22414,35.79712],[136.22451,35.79719],[136.22454,35.79716],[136.22475,35.79663],[136.22436,35.79652],[136.2241,35.79711]]]}},{"type":"Feature","properties":{"pid":"f1c132c6-adf1-429b-8ae3-a340c09df41d","full":16.8},"geometry":{"type":"Polygon","coordinates":[[[136.22371,35.79694],[136.22394,35.79706],[136.22405,35.7971],[136.22408,35.7971],[136.22434,35.79651],[136.22393,35.79638],[136.22371,35.79694]]]}},{"type":"Feature","properties":{"pid":"a208ab9b-f718-49c9-bbf3-629dfb1f47ca","full":19.1},"geometry":{"type":"Polygon","coordinates":[[[136.22164,35.79632],[136.22202,35.79642],[136.22205,35.79641],[136.22233,35.7958],[136.22193,35.79565],[136.22164,35.79632]]]}},{"type":"Feature","properties":{"pid":"a0c71137-82c5-44b8-8629-655797ae2405","full":21.5},"geometry":{"type":"Polygon","coordinates":[[[136.22119,35.79628],[136.2212,35.79629],[136.22161,35.79632],[136.22163,35.79631],[136.22192,35.79565],[136.22154,35.7955],[136.22119,35.79628]]]}},{"type":"Feature","properties":{"pid":"e4ced2ae-4ecc-4f99-9d9c-ce803afbb994","full":27.0},"geometry":{"type":"Polygon","coordinates":[[[136.22081,35.79602],[136.22082,35.79604],[136.22079,35.7962],[136.22087,35.79627],[136.221,35.79629],[136.22117,35.79629],[136.22152,35.7955],[136.22112,35.79534],[136.22081,35.79602]]]}},{"type":"Feature","properties":{"pid":"757ed329-b352-49d9-897c-53126e68dbfa","full":18.1},"geometry":{"type":"Polygon","coordinates":[[[136.22206,35.79642],[136.22208,35.79644],[136.22221,35.79649],[136.22247,35.79654],[136.22273,35.79596],[136.22234,35.79581],[136.22206,35.79642]]]}},{"type":"Feature","properties":{"pid":"ef3aa458-6dea-44b7-894f-9d5cd1f39796","full":7.5},"geometry":{"type":"Polygon","coordinates":[[[136.22248,35.79655],[136.22257,35.79655],[136.22269,35.79654],[136.22277,35.79651],[136.22299,35.79606],[136.22274,35.79596],[136.22248,35.79655]]]}},{"type":"Feature","properties":{"pid":"bb248ace-7bef-4596-9f9f-3dba0219ebda","full":2.7},"geometry":{"type":"Polygon","coordinates":[[[136.22279,35.79651],[136.22287,35.79649],[136.22293,35.79637],[136.22312,35.79636],[136.22314,35.79634],[136.22323,35.79615],[136.223,35.79606],[136.22279,35.79651]]]}},{"type":"Feature","properties":{"pid":"1c415682-f96e-4023-9aa3-ae4b879b12ef","full":1.4},"geometry":{"type":"Polygon","coordinates":[[[136.22315,35.79636],[136.22331,35.79639],[136.22336,35.79641],[136.22338,35.79641],[136.22346,35.79622],[136.22325,35.79615],[136.22315,35.79636]]]}},{"type":"Feature","properties":{"pid":"88398add-3bff-4868-9658-e0500144bba4","full":13.2},"geometry":{"type":"Polygon","coordinates":[[[136.22342,35.79682],[136.22357,35.79691],[136.22366,35.79694],[136.22369,35.79694],[136.22392,35.79638],[136.22357,35.79626],[136.22354,35.79627],[136.22344,35.79652],[136.22345,35.79655],[136.22345,35.7966],[136.22342,35.79675],[136.22342,35.79682]]]}},{"type":"Feature","properties":{"pid":"c41ef962-d6c0-482b-a97f-d2b624939fcd","full":11.7},"geometry":{"type":"Polygon","coordinates":[[[136.22436,35.79524],[136.22477,35.79534],[136.22478,35.79533],[136.22489,35.79501],[136.22473,35.79486],[136.22454,35.7947],[136.22436,35.79524]]]}},{"type":"Feature","properties":{"pid":"67f4f8ac-ec0b-4675-8b0d-541c1e469ea9","full":21.6},"geometry":{"type":"Polygon","coordinates":[[[136.2235,35.79503],[136.22392,35.79514],[136.22417,35.79442],[136.22413,35.79439],[136.22372,35.79435],[136.2235,35.79503]]]}},{"type":"Feature","properties":{"pid":"0ea69384-e2f6-442f-a95d-38fe3dbb5e5e","full":18.2},"geometry":{"type":"Polygon","coordinates":[[[136.22393,35.79514],[136.22435,35.79524],[136.22453,35.79469],[136.22417,35.79442],[136.22393,35.79514]]]}},{"type":"Feature","properties":{"pid":"a07d2f86-bd46-4fbd-821b-3f75e8576b2b","full":16.0},"geometry":{"type":"Polygon","coordinates":[[[136.22432,35.79442],[136.22445,35.79454],[136.22474,35.79475],[136.22507,35.79505],[136.2253,35.79457],[136.22529,35.79455],[136.22528,35.79452],[136.22432,35.79442]]]}},{"type":"Feature","properties":{"pid":"9cb463c4-438b-4dc9-b0a8-348e2b56105b","full":4.6},"geometry":{"type":"Polygon","coordinates":[[[136.22268,35.79337],[136.2227,35.79339],[136.22308,35.7934],[136.2231,35.79339],[136.22309,35.79334],[136.22295,35.79309],[136.22283,35.793],[136.2228,35.79298],[136.22268,35.79337]]]}},{"type":"Feature","properties":{"pid":"a98df366-1994-46d3-8f3d-44dbaa1866ab","full":12.7},"geometry":{"type":"Polygon","coordinates":[[[136.22222,35.79335],[136.22223,35.79336],[136.22264,35.79338],[136.22265,35.79337],[136.22276,35.793],[136.22275,35.79296],[136.2227,35.79292],[136.22243,35.79281],[136.2224,35.79282],[136.22222,35.79335]]]}},{"type":"Feature","properties":{"pid":"61284ea8-09ec-490a-a980-b301328c1d90","full":19.1},"geometry":{"type":"Polygon","coordinates":[[[136.22197,35.79405],[136.22241,35.7941],[136.22263,35.79343],[136.2222,35.7934],[136.22197,35.79405]]]}},{"type":"Feature","properties":{"pid":"15d2ff87-7141-4cc3-af81-441297d1e337","full":12.6},"geometry":{"type":"Polygon","coordinates":[[[136.22242,35.7941],[136.2227,35.79412],[136.22274,35.79411],[136.22295,35.79348],[136.22292,35.79346],[136.22264,35.79343],[136.22242,35.7941]]]}},{"type":"Feature","properties":{"pid":"3c7909ed-f14b-457a-8e0f-e83d88ea97ad","full":7.6},"geometry":{"type":"Polygon","coordinates":[[[136.22276,35.79412],[136.22296,35.79414],[136.22301,35.79399],[136.22307,35.79401],[136.2232,35.79356],[136.22319,35.79353],[136.22309,35.79345],[136.22298,35.79345],[136.22276,35.79412]]]}},{"type":"Feature","properties":{"pid":"1fca469b-c30a-4de3-ac5b-1d8bb33495dd","full":6.9},"geometry":{"type":"Polygon","coordinates":[[[136.22357,35.7941],[136.22341,35.79381],[136.22334,35.79366],[136.22329,35.79365],[136.22313,35.79417],[136.22371,35.79423],[136.22357,35.7941]]]}},{"type":"Feature","properties":{"pid":"2b57930a-88c5-44e6-80f5-ccdd93f17f1d","full":19.7},"geometry":{"type":"Polygon","coordinates":[[[136.22305,35.79493],[136.22349,35.79503],[136.22371,35.79435],[136.22326,35.79431],[136.22305,35.79493]]]}},{"type":"Feature","properties":{"pid":"5065f9fa-5aa4-4de3-9571-9d3ce6b99651","full":17.0},"geometry":{"type":"Polygon","coordinates":[[[136.22263,35.79482],[136.22305,35.79492],[136.22326,35.79431],[136.22282,35.79426],[136.22263,35.79482]]]}},{"type":"Feature","properties":{"pid":"0502b67d-fee2-4dfc-84b3-d1035357c458","full":14.8},"geometry":{"type":"Polygon","coordinates":[[[136.22221,35.79471],[136.22262,35.79482],[136.22281,35.79426],[136.22238,35.79421],[136.22221,35.79471]]]}},{"type":"Feature","properties":{"pid":"82c276b7-c105-40a9-af9f-0308a11ac3a3","full":9.0},"geometry":{"type":"Polygon","coordinates":[[[136.22135,35.79444],[136.22178,35.79458],[136.22192,35.79418],[136.22145,35.79417],[136.22135,35.79444]]]}},{"type":"Feature","properties":{"pid":"878685e8-b6cc-43fb-a014-8ad245d7b80d","full":12.2},"geometry":{"type":"Polygon","coordinates":[[[136.22179,35.79458],[136.2222,35.79471],[136.22237,35.79421],[136.22193,35.79418],[136.22179,35.79458]]]}},{"type":"Feature","properties":{"pid":"a4866dad-4acb-45c2-adc3-1c71eb19a114","full":1.8},"geometry":{"type":"Polygon","coordinates":[[[136.22112,35.79437],[136.22135,35.79444],[136.22144,35.79418],[136.2212,35.79419],[136.22117,35.79421],[136.22112,35.79437]]]}},{"type":"Feature","properties":{"pid":"8f847156-81a1-4471-9700-05c87d228707","full":21.6},"geometry":{"type":"Polygon","coordinates":[[[136.22058,35.79408],[136.22087,35.79405],[136.22104,35.79406],[136.22127,35.79335],[136.2211,35.79333],[136.22085,35.79328],[136.22058,35.79408]]]}},{"type":"Feature","properties":{"pid":"8d1b9f4c-f97a-42c4-ba28-1dea0f4c5eea","full":20.8},"geometry":{"type":"Polygon","coordinates":[[[136.22105,35.79405],[136.22106,35.79406],[136.22151,35.79405],[136.22173,35.79338],[136.22171,35.79337],[136.22128,35.79335],[136.22105,35.79405]]]}},{"type":"Feature","properties":{"pid":"f1b7b373-9514-458a-9f02-04d039cad32f","full":13.1},"geometry":{"type":"Polygon","coordinates":[[[136.22152,35.79405],[136.22187,35.79404],[136.22208,35.79339],[136.22175,35.79338],[136.22152,35.79405]]]}},{"type":"Feature","properties":{"pid":"3cfb0699-24c6-4013-abe6-4a6309d347ff","full":25.1},"geometry":{"type":"Polygon","coordinates":[[[136.22013,35.79405],[136.22033,35.79409],[136.22051,35.79409],[136.22057,35.79408],[136.22084,35.79328],[136.22043,35.79319],[136.22013,35.79405]]]}},{"type":"Feature","properties":{"pid":"d8c8005d-5422-49ff-95af-76df06c738e8","full":25.6},"geometry":{"type":"Polygon","coordinates":[[[136.21971,35.79396],[136.22006,35.79404],[136.22012,35.79405],[136.22041,35.79319],[136.22,35.7931],[136.21971,35.79396]]]}},{"type":"Feature","properties":{"pid":"799792ae-ba2c-4ecd-a06c-22229b877501","full":26.8},"geometry":{"type":"Polygon","coordinates":[[[136.21932,35.79388],[136.21935,35.79391],[136.21962,35.79395],[136.2197,35.79396],[136.21999,35.79309],[136.21959,35.793],[136.21956,35.793],[136.21939,35.79353],[136.21932,35.7938],[136.21932,35.79388]]]}},{"type":"Feature","properties":{"pid":"88123cd4-a597-43d8-8f46-010c0916c042","full":16.7},"geometry":{"type":"Polygon","coordinates":[[[136.21888,35.79379],[136.21916,35.79386],[136.21948,35.79299],[136.21947,35.79298],[136.21917,35.79291],[136.21888,35.79379]]]}},{"type":"Feature","properties":{"pid":"91d45a67-d453-47cb-ba44-68fc917a0659","full":16.6},"geometry":{"type":"Polygon","coordinates":[[[136.21824,35.79362],[136.21854,35.7937],[136.21884,35.79284],[136.21854,35.79277],[136.21824,35.79362]]]}},{"type":"Feature","properties":{"pid":"95ea1c6e-08b0-4742-8923-293e7ee3238f","full":17.4},"geometry":{"type":"Polygon","coordinates":[[[136.21855,35.79371],[136.21886,35.79378],[136.21916,35.79291],[136.21886,35.79284],[136.21855,35.79371]]]}},{"type":"Feature","properties":{"pid":"a0d5c88a-19ed-4122-91ca-d7a70e5b9542","full":6.9},"geometry":{"type":"Polygon","coordinates":[[[136.2197,35.79518],[136.22008,35.79529],[136.22011,35.79529],[136.22024,35.79503],[136.21983,35.79489],[136.2197,35.79518]]]}},{"type":"Feature","properties":{"pid":"9a935586-cb52-445c-8f9d-9514f4e4de77","full":13.8},"geometry":{"type":"Polygon","coordinates":[[[136.22054,35.79545],[136.2206,35.79547],[136.22062,35.79551],[136.22065,35.79569],[136.22081,35.796],[136.2211,35.79535],[136.22067,35.79517],[136.22054,35.79545]]]}},{"type":"Feature","properties":{"pid":"0d5dad35-8449-4d85-bf04-99eaaf515860","full":3.4},"geometry":{"type":"Polygon","coordinates":[[[136.21945,35.7951],[136.21969,35.79517],[136.21983,35.79488],[136.21958,35.7948],[136.21945,35.7951]]]}},{"type":"Feature","properties":{"pid":"8ccf45c0-3ba7-4321-94f9-0acde72b0b63","full":9.1},"geometry":{"type":"Polygon","coordinates":[[[136.2189,35.79488],[136.21892,35.7949],[136.21919,35.79499],[136.21944,35.79509],[136.21958,35.7948],[136.219,35.79466],[136.2189,35.79488]]]}},{"type":"Feature","properties":{"pid":"949b0ce5-514c-4a93-9236-f0f67365dee2","full":17.0},"geometry":{"type":"Polygon","coordinates":[[[136.21793,35.79354],[136.21796,35.79356],[136.21804,35.79359],[136.21822,35.79362],[136.21853,35.79276],[136.21821,35.79269],[136.21793,35.79354]]]}}],"precision":5}