{"type":"FeatureCollection","features":[{"type":"Feature","properties":{"pid":"8ca51764-ac87-4186-84ff-331c22364862"},"geometry":{"type":"Polygon","coordinates":[[[136.2268125965811,36.207716617812714],[136.22712591260006,36.207718564548905],[136.22714145555815,36.20740039066736],[136.22682049969376,36.20740681303562],[136.2268125965811,36.207716617812714]]]}},{"type":"Feature","properties":{"pid":"9b2119a4-7c9a-45e1-9842-eeaa49f33305"},"geometry":{"type":"Polygon","coordinates":[[[136.22662606026464,36.207589200235866],[136.22662883355403,36.20749455471349],[136.22656861406247,36.207494101352054],[136.2265579303023,36.20758792834435],[136.22662606026464,36.207589200235866]]]}},{"type":"Feature","properties":{"pid":"577d4b21-fea9-4bd6-a9ab-fd0018a8bac2"},"geometry":{"type":"Polygon","coordinates":[[[136.22637079861622,36.20754866670696],[136.22643979219012,36.20754723576642],[136.22644882208252,36.207432577411524],[136.22646311720473,36.20740836308031],[136.2264973895208,36.207394274872456],[136.22661551071278,36.2073925281187],[136.22664193945718,36.20737693053568],[136.22664496888868,36.207318611848166],[136.2263529904161,36.207317908579626],[136.2263482013073,36.20752855230991],[136.22637079861622,36.20754866670696]]]}},{"type":"Feature","properties":{"pid":"682254ab-8b32-4a6c-ac09-53b8f57f83c4"},"geometry":{"type":"Polygon","coordinates":[[[136.22545382540125,36.207901305156405],[136.2253331997189,36.20790351396396],[136.22532769723375,36.20803814362227],[136.22546732928004,36.208038840131344],[136.22546777476953,36.207919466781554],[136.22545382540125,36.207901305156405]]]}},{"type":"Feature","properties":{"pid":"8cd20050-c78e-4f85-bd1d-33e8933938be"},"geometry":{"type":"Polygon","coordinates":[[[136.2259985130809,36.20947713769099],[136.22587776108458,36.20947532631783],[136.22587684902305,36.20962726780472],[136.2260033475901,36.20962702851413],[136.2259985130809,36.20947713769099]]]}},{"type":"Feature","properties":{"pid":"01947e9a-9d5f-420a-b86c-4930d807e6de"},"geometry":{"type":"Polygon","coordinates":[[[136.224984206178,36.210286250571016],[136.2250023441721,36.21030427349599],[136.22510549035226,36.210305074279304],[136.22510654752287,36.2101769358266],[136.22498640965148,36.210177161693274],[136.224984206178,36.210286250571016]]]}},{"type":"Feature","properties":{"pid":"ea2f4651-a962-4840-905a-ce540c39c864"},"geometry":{"type":"Polygon","coordinates":[[[136.22729257972557,36.209762243427605],[136.227619078765,36.20975558459323],[136.22762371784458,36.209484700367945],[136.22727278541606,36.20948257205257],[136.2272668300879,36.209743781340435],[136.22729257972557,36.209762243427605]]]}},{"type":"Feature","properties":{"pid":"63c42e0e-33b7-4e7b-af1e-aade86d1c2dc"},"geometry":{"type":"Polygon","coordinates":[[[136.22624993571173,36.210243738521854],[136.22658958670476,36.21024309594925],[136.22658520161218,36.210121078063565],[136.22654715034702,36.210080781682656],[136.22655238600868,36.210024642213774],[136.22658610179633,36.20999744157645],[136.22658329087886,36.20994161547078],[136.2262614987868,36.209937074833654],[136.22624993571173,36.210243738521854]]]}},{"type":"Feature","properties":{"pid":"d962c1bc-97e8-435e-994b-9a7d024f1cd7"},"geometry":{"type":"Polygon","coordinates":[[[136.22645312847314,36.20904604164864],[136.22630163394345,36.20905140883363],[136.2262883548625,36.2090633022205],[136.2262856248791,36.20928767623742],[136.2264501232248,36.20928843573094],[136.22645312847314,36.20904604164864]]]}},{"type":"Feature","properties":{"pid":"449e272a-09fa-4d37-8580-7b0a8853243d"},"geometry":{"type":"Polygon","coordinates":[[[136.2268684040949,36.20880212533096],[136.2270528865574,36.20879981853863],[136.2270614632453,36.20872021318395],[136.22686894675,36.20871987375241],[136.2268684040949,36.20880212533096]]]}},{"type":"Feature","properties":{"pid":"90b33ec9-1bd1-486c-a06e-81c934f27688"},"geometry":{"type":"Polygon","coordinates":[[[136.22668472165142,36.20791442617028],[136.2266849700762,36.208000696255596],[136.22711380400995,36.20799498699757],[136.22711868999826,36.207866065196214],[136.22671623151936,36.207872621669],[136.22668472165142,36.20791442617028]]]}},{"type":"Feature","properties":{"pid":"30ab2aba-22ac-4de8-8152-0527256f124f"},"geometry":{"type":"Polygon","coordinates":[[[136.2269484240671,36.208501406665924],[136.2269519798656,36.2083819217962],[136.22687586495252,36.208384089076844],[136.22687620354188,36.20850154343653],[136.2269484240671,36.208501406665924]]]}},{"type":"Feature","properties":{"pid":"b1c91198-690b-47e3-89a5-d5ce4347e05a"},"geometry":{"type":"Polygon","coordinates":[[[136.22892166947278,36.221445952414896],[136.22881740613713,36.22152346685108],[136.22872335257193,36.22156123066668],[136.2286449644737,36.22162483047155],[136.22876321448203,36.221720194610775],[136.22900329356978,36.22151852855596],[136.22892166947278,36.221445952414896]]]}},{"type":"Feature","properties":{"pid":"1c8f8a24-34c7-4d73-b2d2-81ed97b4adc8"},"geometry":{"type":"Polygon","coordinates":[[[136.22859696649513,36.22188053298291],[136.2286707218414,36.22179447239486],[136.22852331371277,36.22168007908726],[136.22838574861862,36.221730198427025],[136.2283588594724,36.22175860194779],[136.22859696649513,36.22188053298291]]]}},{"type":"Feature","properties":{"pid":"e1e81aa7-a337-4404-b473-e4f4c5a9b4d4"},"geometry":{"type":"Polygon","coordinates":[[[136.2278267511888,36.22333198823845],[136.22790396180977,36.22336511596292],[136.22803512506704,36.223256369688315],[136.2279251121513,36.2232097093453],[136.2278267511888,36.22333198823845]]]}},{"type":"Feature","properties":{"pid":"c688ee1b-1fff-4592-a091-ff6a6c061508"},"geometry":{"type":"Polygon","coordinates":[[[136.22735357452294,36.22392587563369],[136.22751559989558,36.224016019420056],[136.22759381424694,36.22384373869522],[136.22746817667792,36.22378058915161],[136.22735357452294,36.22392587563369]]]}},{"type":"Feature","properties":{"pid":"e5235037-eac4-43d1-845a-747693ab3c64"},"geometry":{"type":"Polygon","coordinates":[[[136.22781506094466,36.22344933598465],[136.22775427012436,36.22342209480941],[136.2276186604538,36.223590679459576],[136.22769773669486,36.22362078799438],[136.22773235658963,36.22355013437401],[136.22781506094466,36.22344933598465]]]}},{"type":"Feature","properties":{"pid":"61a6ac9d-8243-4e03-b5d2-aa0e8f31afb0"},"geometry":{"type":"Polygon","coordinates":[[[136.24263369577412,36.223724272761665],[136.24270386146756,36.223762225692184],[136.24280401447695,36.22359680762954],[136.24275572251196,36.22357667543448],[136.24263369577412,36.223724272761665]]]}},{"type":"Feature","properties":{"pid":"03ecc8f0-6262-4894-8611-bd8668ae0d09"},"geometry":{"type":"Polygon","coordinates":[[[136.24764615557882,36.2238492409547],[136.2479155305071,36.22394497373423],[136.2479549860241,36.223614892107015],[136.24775552974873,36.223564659511446],[136.24764615557882,36.2238492409547]]]}},{"type":"Feature","properties":{"pid":"6abbd8f8-3440-40bf-aac1-936258322ec4"},"geometry":{"type":"Polygon","coordinates":[[[136.24737394021253,36.22168109403895],[136.24745758235545,36.22169130779971],[136.24753057813768,36.22143024909162],[136.2475779500051,36.22118852792679],[136.24741826675296,36.221166707276325],[136.24738211983248,36.2211746854764],[136.24737394021253,36.22168109403895]]]}},{"type":"Feature","properties":{"pid":"819b6122-63bd-46b0-aac3-b6bb6f2be39f"},"geometry":{"type":"Polygon","coordinates":[[[136.24741344273608,36.221036817233184],[136.24757739645614,36.22106258566146],[136.24761522570176,36.22094853339778],[136.2474328503477,36.2209130922318],[136.24741344273608,36.221036817233184]]]}},{"type":"Feature","properties":{"pid":"c9690bc0-2a25-4265-bee2-a9f60d14894b"},"geometry":{"type":"Polygon","coordinates":[[[136.24722277908012,36.220254665423916],[136.2478249442821,36.22022087054478],[136.247888084766,36.21997503194614],[136.247799926083,36.219971869787535],[136.24776508276904,36.21993201495475],[136.24711828012352,36.21997204656318],[136.24715965491657,36.22013265409766],[136.24722277908012,36.220254665423916]]]}},{"type":"Feature","properties":{"pid":"80c0f28b-6bcd-4bb8-840c-1155acea61cd"},"geometry":{"type":"Polygon","coordinates":[[[136.24736723346973,36.22049515342454],[136.24748302035195,36.22081936846975],[136.24764343564956,36.22084981236518],[136.24779397585183,36.22032901184935],[136.24728598477742,36.22035777097997],[136.24736723346973,36.22049515342454]]]}},{"type":"Feature","properties":{"pid":"6913af64-5716-4e8e-861c-e48402f3bd0f"},"geometry":{"type":"Polygon","coordinates":[[[136.2486771323472,36.21992421253454],[136.24875123049526,36.219987587961946],[136.2491703646849,36.22020307470986],[136.2489712385664,36.21988492452509],[136.2486771323472,36.21992421253454]]]}},{"type":"Feature","properties":{"pid":"bce0782d-6d04-4343-8fe2-f9befdd8530f"},"geometry":{"type":"Polygon","coordinates":[[[136.25011092547916,36.21855322699331],[136.25028243874357,36.218221133235],[136.249828768734,36.21809512768704],[136.24961592856656,36.218502651241224],[136.25003633354956,36.218532466573734],[136.25011092547916,36.21855322699331]]]}},{"type":"Feature","properties":{"pid":"d64ab0d0-9354-410b-925c-22cb89caf297"},"geometry":{"type":"Polygon","coordinates":[[[136.24947589297312,36.2185053765191],[136.24970709828975,36.21805965396912],[136.24966663915973,36.21804587331124],[136.24958760113594,36.21804957057823],[136.2491007852625,36.21817070560033],[136.2492549607836,36.218540281921356],[136.24947589297312,36.2185053765191]]]}},{"type":"Feature","properties":{"pid":"54e826f1-c27f-4018-9f13-7c72405eabde"},"geometry":{"type":"Polygon","coordinates":[[[136.2491363781355,36.2185861168723],[136.24898398553444,36.21821879183367],[136.24883695810826,36.218285299170454],[136.24863904858321,36.21840660220395],[136.24843187124583,36.21856060574545],[136.2485578181019,36.218855036378095],[136.24882250259577,36.21883198273121],[136.2491363781355,36.2185861168723]]]}},{"type":"Feature","properties":{"pid":"40c04557-3cd3-492f-900d-594120288e63"},"geometry":{"type":"Polygon","coordinates":[[[136.2479652479448,36.21889321140409],[136.24842376700124,36.218864374511725],[136.2483277995105,36.21863482366447],[136.2479652479448,36.21889321140409]]]}},{"type":"Feature","properties":{"pid":"d235fdc7-8a2a-439e-90c6-806002843c0a"},"geometry":{"type":"Polygon","coordinates":[[[136.24830568638157,36.21974720930621],[136.24859222248458,36.21973298186385],[136.24855497214364,36.219365445552086],[136.24852677520173,36.2192892032371],[136.24854966870907,36.21910696660977],[136.24859725085508,36.219026708086375],[136.24863259043613,36.2189994124715],[136.2482410214981,36.21902440657302],[136.24830568638157,36.21974720930621]]]}},{"type":"Feature","properties":{"pid":"a09aadbb-c414-4a67-b2d7-b18248cb7c05"},"geometry":{"type":"Polygon","coordinates":[[[136.24877584096822,36.21976656510926],[136.24890760613596,36.21976103942305],[136.24889085062438,36.219716726992814],[136.24892035599626,36.21955077979177],[136.24882879162487,36.219466730405486],[136.24874651910645,36.219460701460974],[136.24877584096822,36.21976656510926]]]}},{"type":"Feature","properties":{"pid":"934092aa-b36d-4a99-bcc6-1fc07591c3a2"},"geometry":{"type":"Polygon","coordinates":[[[136.2479263310452,36.219765246974774],[136.248173482216,36.21975353811947],[136.2481089830558,36.21903489376429],[136.2478733802673,36.219048897937135],[136.2479263310452,36.219765246974774]]]}},{"type":"Feature","properties":{"pid":"1eac0b9a-c866-459a-8658-4c28b12fcc8c"},"geometry":{"type":"Polygon","coordinates":[[[136.24705254671483,36.21928525590619],[136.2470333691962,36.219312258392854],[136.24708285195055,36.21948943313606],[136.24773507412928,36.21946792013095],[136.24771502379497,36.2192598715328],[136.24705254671483,36.21928525590619]]]}},{"type":"Feature","properties":{"pid":"355a80e1-bbeb-4849-aae4-ace5673ad8df"},"geometry":{"type":"Polygon","coordinates":[[[136.247124107043,36.219594283366156],[136.24710280928952,36.21962173510938],[136.24711826499484,36.21981094168228],[136.2477644572145,36.21977468428255],[136.24774708873292,36.21957145056422],[136.247124107043,36.219594283366156]]]}},{"type":"Feature","properties":{"pid":"c07b89de-47b4-4c1e-8a44-63bb9a4cc22c"},"geometry":{"type":"Polygon","coordinates":[[[136.2468580166864,36.21893603469715],[136.24697831902694,36.21918592755256],[136.24770468227675,36.219157334261475],[136.24769049337294,36.21895820380722],[136.2468580166864,36.21893603469715]]]}},{"type":"Feature","properties":{"pid":"945e3625-1833-404c-81e5-a6a1a88ebc85"},"geometry":{"type":"Polygon","coordinates":[[[136.24548082556646,36.218385798943864],[136.24565573010173,36.218738558079814],[136.24643064303422,36.21875574501235],[136.24625878764897,36.21836601100426],[136.24548082556646,36.218385798943864]]]}},{"type":"Feature","properties":{"pid":"f4fd4ec8-ddfe-4952-8ef5-c5f52de3aa33"},"geometry":{"type":"Polygon","coordinates":[[[136.24557245637124,36.21896977178882],[136.24570796631326,36.2190912718802],[136.24598370409257,36.21890471079065],[136.24562145162176,36.218901676405444],[136.24561531846777,36.21893299563236],[136.24557245637124,36.21896977178882]]]}},{"type":"Feature","properties":{"pid":"a37fa856-f3a5-4229-b590-c069a610881c"},"geometry":{"type":"Polygon","coordinates":[[[136.24382293546853,36.21842541700039],[136.24382769461144,36.218548575874735],[136.24416837935837,36.218624217384566],[136.24416511792975,36.21854916402362],[136.24412415396867,36.21839200629177],[136.24386304766952,36.21833374445],[136.24385253923555,36.218398444611104],[136.24382293546853,36.21842541700039]]]}},{"type":"Feature","properties":{"pid":"d4ca3cfe-27e6-4d2d-a8bc-c1337315e051"},"geometry":{"type":"Polygon","coordinates":[[[136.24516725500183,36.219525219685266],[136.2452356825441,36.219537553385564],[136.24560891082356,36.21915421408621],[136.24548000778444,36.219038080071144],[136.24530842352766,36.21916534246438],[136.24516725500183,36.219525219685266]]]}},{"type":"Feature","properties":{"pid":"209533dd-03a2-4304-8d42-a8f64c1687b3"},"geometry":{"type":"Polygon","coordinates":[[[136.24156788424594,36.219877391481205],[136.24162793653986,36.219872059572026],[136.24177986938122,36.219795135748534],[136.24194747404056,36.21978877095109],[136.24187773166952,36.2195768504643],[136.24156861848834,36.21974033988544],[136.24156788424594,36.219877391481205]]]}},{"type":"Feature","properties":{"pid":"37717045-3f7d-4392-9da1-8bda016a2400"},"geometry":{"type":"Polygon","coordinates":[[[136.24238399844728,36.21971925492672],[136.24240449611287,36.21971475936805],[136.24229117106407,36.219359981138474],[136.24226961286575,36.21937110869857],[136.24238399844728,36.21971925492672]]]}},{"type":"Feature","properties":{"pid":"bda1bc13-762c-44e4-be11-8548561681f8"},"geometry":{"type":"Polygon","coordinates":[[[136.24200532486302,36.21933784880775],[136.24218875749304,36.21923348030949],[136.2420032290407,36.21894619712848],[136.24188845907594,36.21902472574347],[136.24200532486302,36.21933784880775]]]}},{"type":"Feature","properties":{"pid":"a71409b4-4e74-4b91-8b13-28b3892cb453"},"geometry":{"type":"Polygon","coordinates":[[[136.24252186318836,36.2196828769778],[136.24259223476417,36.21965131843698],[136.2424687468931,36.21926429242041],[136.2424021354404,36.21930498501272],[136.24252186318836,36.2196828769778]]]}},{"type":"Feature","properties":{"pid":"805b8131-305a-40c5-8c50-7392318a73ac"},"geometry":{"type":"Polygon","coordinates":[[[136.24374099383522,36.219769672920464],[136.24377951625817,36.21977067937568],[136.2438524025315,36.21972436818993],[136.24384675319513,36.21944354030662],[136.24350774817478,36.21898823711276],[136.2433987003425,36.21901412404603],[136.24374099383522,36.219769672920464]]]}},{"type":"Feature","properties":{"pid":"802487cb-ab07-4424-837e-1f70c85d4859"},"geometry":{"type":"Polygon","coordinates":[[[136.24376654866705,36.21884035932139],[136.24371769393494,36.21889581039087],[136.24361714425453,36.21894438063018],[136.24391780369584,36.21934923218811],[136.24416394585256,36.21910533283185],[136.24376654866705,36.21884035932139]]]}},{"type":"Feature","properties":{"pid":"8039c337-8af4-46db-865d-171aeb541723"},"geometry":{"type":"Polygon","coordinates":[[[136.24292448772388,36.219065817595784],[136.24307734013843,36.21951769115387],[136.2433220657142,36.21975928741131],[136.24360022325294,36.219765659665555],[136.24326988415834,36.21903180104894],[136.24292448772388,36.219065817595784]]]}},{"type":"Feature","properties":{"pid":"a92390b9-9303-4835-a44e-660347232631"},"geometry":{"type":"Polygon","coordinates":[[[136.2427015450206,36.21959885846668],[136.24282749931078,36.219540054583476],[136.24271248608633,36.219120086730506],[136.2425757469272,36.21919832550891],[136.2427015450206,36.21959885846668]]]}},{"type":"Feature","properties":{"pid":"f73d7b29-1ecb-47ee-9d19-42558139cd49"},"geometry":{"type":"Polygon","coordinates":[[[136.24262957074313,36.21898665258668],[136.24240289191374,36.21870920524399],[136.24211929853433,36.21889864128968],[136.24229878838182,36.21917133511005],[136.24262957074313,36.21898665258668]]]}},{"type":"Feature","properties":{"pid":"f4bc78a0-8e74-439c-a292-be0e2e622e3d"},"geometry":{"type":"Polygon","coordinates":[[[136.23741127474275,36.220333606237894],[136.2374139354724,36.220285866858795],[136.23736823086378,36.22022640277308],[136.23734276381256,36.22014848754418],[136.2372927412795,36.22009205900787],[136.23722971683193,36.22005051134592],[136.23707030869073,36.220023558342284],[136.23724527129806,36.220483258321465],[136.2372843900717,36.22050592339951],[136.23735547653905,36.220449524407805],[136.23741127474275,36.220333606237894]]]}},{"type":"Feature","properties":{"pid":"9bf5d541-8db3-4cb7-93d6-e64daea2b9d8"},"geometry":{"type":"Polygon","coordinates":[[[136.23681207650856,36.22003320138257],[136.2369806803502,36.220468575729804],[136.23711042757898,36.220464328538256],[136.2369412404137,36.22001780850383],[136.23681207650856,36.22003320138257]]]}},{"type":"Feature","properties":{"pid":"9cd18992-bae2-4a03-a1e3-0d218f9eff85"},"geometry":{"type":"Polygon","coordinates":[[[136.23636964455662,36.22017807550322],[136.2366578873937,36.22010532203376],[136.23662808404393,36.22002106904128],[136.2362961253688,36.21998230565836],[136.23636964455662,36.22017807550322]]]}},{"type":"Feature","properties":{"pid":"7499e0c7-535e-4ab3-8d5a-e91ab045a7fb"},"geometry":{"type":"Polygon","coordinates":[[[136.23647499637627,36.22046606885679],[136.23676656973603,36.22039140474048],[136.23669633724577,36.22020321825264],[136.23640590157143,36.22027845245979],[136.23647499637627,36.22046606885679]]]}},{"type":"Feature","properties":{"pid":"412a7b7f-c089-4980-8f5f-50e0dcd1f8b7"},"geometry":{"type":"Polygon","coordinates":[[[136.23660873962774,36.22081894653343],[136.2366940189307,36.22064571781447],[136.23681384462444,36.22051635784126],[136.2368028635315,36.22048666558791],[136.2365115124152,36.22056065767709],[136.23660873962774,36.22081894653343]]]}},{"type":"Feature","properties":{"pid":"d94b5f68-ee14-4257-b69d-1e2652cc127e"},"geometry":{"type":"Polygon","coordinates":[[[136.2368991233966,36.22147278670705],[136.23697658016772,36.22165734579106],[136.23713545882018,36.22160548624139],[136.23699865470866,36.221499451970786],[136.2368991233966,36.22147278670705]]]}},{"type":"Feature","properties":{"pid":"9d570431-af58-4cab-972b-7cf2fe89aeaf"},"geometry":{"type":"Polygon","coordinates":[[[136.24038557742563,36.222683864898535],[136.24056072359315,36.22268593494733],[136.24064184821788,36.22270883446624],[136.24073559706875,36.22258808976594],[136.2407304073887,36.22241577728929],[136.24071699100378,36.22240611921898],[136.24052885771556,36.22243433112461],[136.2404083098109,36.22261094132877],[136.24038557742563,36.222683864898535]]]}},{"type":"Feature","properties":{"pid":"f77e746f-36d4-4b0b-b52c-69db46126699"},"geometry":{"type":"Polygon","coordinates":[[[136.2401156587438,36.223342314747896],[136.24054020257284,36.22337848341229],[136.24059193442807,36.22319637806157],[136.24022102870978,36.2231606824403],[136.2401156587438,36.223342314747896]]]}},{"type":"Feature","properties":{"pid":"e72fb80f-b07a-4d97-bf22-1cfffd523790"},"geometry":{"type":"Polygon","coordinates":[[[136.2402774877641,36.223055768760055],[136.24060123806288,36.22308950239994],[136.24054622739385,36.222856365779236],[136.24057232850706,36.22280363213426],[136.24036434977742,36.22279878091613],[136.2402774877641,36.223055768760055]]]}},{"type":"Feature","properties":{"pid":"9de899af-7f8b-428c-80b1-c954478c7d37"},"geometry":{"type":"Polygon","coordinates":[[[136.23983963559223,36.223588176277936],[136.24052981006315,36.22394815348641],[136.24064943653696,36.223890556259406],[136.2407030539616,36.22366030209428],[136.24055653210942,36.22348878152518],[136.24003717229022,36.22344058806077],[136.23983963559223,36.223588176277936]]]}},{"type":"Feature","properties":{"pid":"4e213296-10c8-4b92-9d0d-79b7530fe6dd"},"geometry":{"type":"Polygon","coordinates":[[[136.239535066496,36.223751317672395],[136.24024088414026,36.22410688682104],[136.2404131004389,36.22401058841651],[136.23973504508024,36.22365617224794],[136.239535066496,36.223751317672395]]]}},{"type":"Feature","properties":{"pid":"31fe98e9-fc9a-4a51-b46c-494f241fd454"},"geometry":{"type":"Polygon","coordinates":[[[136.23709988620496,36.223603825010024],[136.23748675606893,36.22388641781582],[136.23803260478687,36.2242163509159],[136.2381111838958,36.22414359632566],[136.23756503534761,36.22381200444431],[136.23716690390526,36.22354227531209],[136.23709988620496,36.223603825010024]]]}},{"type":"Feature","properties":{"pid":"14dfb332-c425-486c-90e3-686d95a7ca67"},"geometry":{"type":"Polygon","coordinates":[[[136.23637648250173,36.22302432889937],[136.23650132749356,36.22317994921104],[136.23686756940373,36.22344917649187],[136.23695299984695,36.22336772291895],[136.2367586802575,36.223206205272355],[136.23650202334318,36.22294701052069],[136.23637648250173,36.22302432889937]]]}},{"type":"Feature","properties":{"pid":"9085080d-e113-4229-8054-206eb607721b"},"geometry":{"type":"Polygon","coordinates":[[[136.23613612505713,36.22269564126298],[136.23631439370502,36.2229381352697],[136.2364292264495,36.22286773438468],[136.23623525868834,36.22263999422613],[136.23613612505713,36.22269564126298]]]}},{"type":"Feature","properties":{"pid":"56b10491-f2bc-4677-8746-aab038733729"},"geometry":{"type":"Polygon","coordinates":[[[136.2370131862048,36.22174655045327],[136.23720475467334,36.22224697216716],[136.23727930369805,36.22213952954757],[136.2373744893267,36.222040337877736],[136.23756661061591,36.22189747509726],[136.23722768506698,36.2216759891106],[136.2370131862048,36.22174655045327]]]}},{"type":"Feature","properties":{"pid":"b50dda6d-e6a4-4ce8-be99-7455fb9b59f5"},"geometry":{"type":"Polygon","coordinates":[[[136.23679675851506,36.22277324031245],[136.237034489924,36.2223937690445],[136.23700505987938,36.22231585132084],[136.23652801983783,36.22245996509452],[136.23679675851506,36.22277324031245]]]}},{"type":"Feature","properties":{"pid":"28814ce7-7f02-4b08-bdaa-7ea0e73f94e5"},"geometry":{"type":"Polygon","coordinates":[[[136.23644676020797,36.22235872192821],[136.23696357247292,36.22221212852785],[136.23685913980103,36.22196235089541],[136.23627256540752,36.222115939030395],[136.2362864950896,36.2221599940635],[136.23644676020797,36.22235872192821]]]}},{"type":"Feature","properties":{"pid":"1f7bee1d-c4fe-4334-932f-01b86ed47822"},"geometry":{"type":"Polygon","coordinates":[[[136.2361059893193,36.22167530683602],[136.23625012076255,36.221973630869556],[136.23666988660955,36.22187318992011],[136.23654644431656,36.22156876046631],[136.2361059893193,36.22167530683602]]]}},{"type":"Feature","properties":{"pid":"d465494a-876a-4754-8092-7d2fa245242d"},"geometry":{"type":"Polygon","coordinates":[[[136.23606367098276,36.22241774285213],[136.2360515176372,36.22245584781694],[136.23600032302247,36.22248109132304],[136.23609307030543,36.22258421676301],[136.23616271884788,36.22254639552042],[136.23606367098276,36.22241774285213]]]}},{"type":"Feature","properties":{"pid":"c795bb2f-127c-40ba-a828-9dbebe87cc10"},"geometry":{"type":"Polygon","coordinates":[[[136.23478572464154,36.22231026891266],[136.23525892120261,36.22208472046568],[136.23512555159277,36.22191336636686],[136.23466373483134,36.22214296791028],[136.23470746123218,36.22225467595607],[136.23478572464154,36.22231026891266]]]}},{"type":"Feature","properties":{"pid":"865bb881-2508-48b4-ac8d-10c0fab02f9d"},"geometry":{"type":"Polygon","coordinates":[[[136.23448867676194,36.22179044882713],[136.23455656281521,36.22194531246881],[136.23483668330832,36.22182135617763],[136.2348597256191,36.22178946920641],[136.234838386868,36.22176907738769],[136.23448867676194,36.22179044882713]]]}},{"type":"Feature","properties":{"pid":"469e0d9d-f92b-4c15-ae82-41283d5db996"},"geometry":{"type":"Polygon","coordinates":[[[136.23536620827133,36.22337626536991],[136.23562214480222,36.223193241879024],[136.23553601734486,36.22249841210116],[136.2354716202315,36.22252217794527],[136.23542750064422,36.222509812159736],[136.23529194246967,36.222319546078104],[136.23529847946267,36.22227393574289],[136.23538233539344,36.22223003933636],[136.235348755231,36.22218029860522],[136.23486792778664,36.22240760384532],[136.23540214353375,36.22287090285132],[136.23539155576924,36.22291684852684],[136.23510939834966,36.223126733853434],[136.23536620827133,36.22337626536991]]]}},{"type":"Feature","properties":{"pid":"8d2e414b-d04a-4c59-99b5-901413a141b5"},"geometry":{"type":"Polygon","coordinates":[[[136.23590840108062,36.22297020560486],[136.23593355161887,36.22315548515388],[136.2359718300612,36.2231672721952],[136.23598940656987,36.22319469982268],[136.23614021509866,36.22407705547957],[136.23657870611615,36.22366195380107],[136.236255569853,36.223427859719024],[136.23608490734472,36.22324529303736],[136.23590840108062,36.22297020560486]]]}},{"type":"Feature","properties":{"pid":"d7a11d58-b181-4454-a81b-4a3e5a785df4"},"geometry":{"type":"Polygon","coordinates":[[[136.2342141073337,36.22113000800131],[136.23426324693293,36.22125337994618],[136.23480655600517,36.221172108771846],[136.23478585888427,36.22104896062908],[136.2342141073337,36.22113000800131]]]}},{"type":"Feature","properties":{"pid":"030852e6-54a9-4db4-87d3-f5f1064dc305"},"geometry":{"type":"Polygon","coordinates":[[[136.23413294866154,36.22092095899194],[136.23416654492615,36.22100107357729],[136.23474587945287,36.22092372753407],[136.23472708256554,36.22083332442267],[136.23413294866154,36.22092095899194]]]}},{"type":"Feature","properties":{"pid":"a0a4f2fc-bfef-4890-9e8f-b4d03b9ab04e"},"geometry":{"type":"Polygon","coordinates":[[[136.23431678324275,36.2213617648627],[136.23442713830303,36.22168009483911],[136.23485875217702,36.22165812202468],[136.23494868217065,36.22161371199583],[136.23491708246775,36.22155827566611],[136.23482626837236,36.22128671328771],[136.23431678324275,36.2213617648627]]]}},{"type":"Feature","properties":{"pid":"a5662509-7656-42a9-ad5a-47e72b48ac7c"},"geometry":{"type":"Polygon","coordinates":[[[136.23524612440104,36.2212526009683],[136.235309968869,36.22145727414188],[136.23544719077674,36.22170560869888],[136.2355712474151,36.22165499393011],[136.23548876680218,36.22151002872015],[136.23538507064683,36.22149711914275],[136.23535119753012,36.221469718941734],[136.23534618301963,36.22134253046972],[136.2353713538724,36.22131891734338],[136.23541764862608,36.221313292803],[136.23539359243486,36.22122785133677],[136.23524612440104,36.2212526009683]]]}},{"type":"Feature","properties":{"pid":"a613fa76-682d-4c45-b647-8a52e7aa5a5a"},"geometry":{"type":"Polygon","coordinates":[[[136.23592829858072,36.2213008859391],[136.23595173877825,36.22132758379886],[136.2359579434369,36.221401158677345],[136.2360347044894,36.221571428325596],[136.23632398488817,36.22149647856033],[136.23622391922157,36.221226029506084],[136.23592829858072,36.2213008859391]]]}},{"type":"Feature","properties":{"pid":"c2a73ef0-7646-4a1f-b04e-ca5c0f959316"},"geometry":{"type":"Polygon","coordinates":[[[136.23567694097008,36.220714893025125],[136.23568119489696,36.22075318010509],[136.23577965957932,36.220818096720365],[136.23579613336256,36.220974246731664],[136.23576638211907,36.221015214132194],[136.2358626927615,36.22119482096054],[136.2364806796016,36.22104263049928],[136.23632183348155,36.2205509629284],[136.23567694097008,36.220714893025125]]]}},{"type":"Feature","properties":{"pid":"162f3291-8b2a-4556-b116-d6f5551de7e9"},"geometry":{"type":"MultiPolygon","coordinates":[[[[136.23506196911245,36.220484396152095],[136.23516568462873,36.220864052382964],[136.23519825060248,36.220832015715054],[136.23526263984303,36.220828426804495],[136.23516171981265,36.22046819701547],[136.23506196911245,36.220484396152095]]],[[[136.23521287700015,36.22103680127798],[136.23523306614618,36.22111070391636],[136.23533855448574,36.221100066520144],[136.2353271201636,36.22103679626845],[136.23521287700015,36.22103680127798]]]]}},{"type":"Feature","properties":{"pid":"53dbb875-d8a5-42ca-86e4-9dce4918ee2d"},"geometry":{"type":"Polygon","coordinates":[[[136.2356724108651,36.22060356846377],[136.23629063848597,36.220455350234786],[136.23621649752636,36.220257893134416],[136.23566669311379,36.22040072134324],[136.2356724108651,36.22060356846377]]]}},{"type":"Feature","properties":{"pid":"1c23f61a-e099-4b73-a3d7-3088bace7cfa"},"geometry":{"type":"Polygon","coordinates":[[[136.23407150878015,36.220778165659674],[136.23408892212325,36.2208135203902],[136.23470384033186,36.22072105146066],[136.23469624791846,36.220671067521415],[136.23407150878015,36.220778165659674]]]}},{"type":"Feature","properties":{"pid":"5b61c57e-e85f-4923-ad06-7cce078d1441"},"geometry":{"type":"Polygon","coordinates":[[[136.2340070882673,36.22066053697366],[136.23466532122046,36.22056273417894],[136.23459401050437,36.220238340897325],[136.23384095736338,36.22035619681903],[136.2340070882673,36.22066053697366]]]}},{"type":"Feature","properties":{"pid":"ccd5b837-7a63-4d06-8c61-ded006e62d30"},"geometry":{"type":"Polygon","coordinates":[[[136.23374025827522,36.220207803416564],[136.23377138504537,36.22022009823697],[136.23455050919637,36.22010822456711],[136.23449657977184,36.2198730438501],[136.23365025228713,36.22000274059768],[136.23374025827522,36.220207803416564]]]}},{"type":"Feature","properties":{"pid":"1e1800b3-e1df-4b5f-9b6d-e6fd1ff37f2c"},"geometry":{"type":"Polygon","coordinates":[[[136.23447111268953,36.2197700306233],[136.23445180647172,36.219677309297225],[136.23391015833195,36.21976558081946],[136.2339315070053,36.21985144812756],[136.23447111268953,36.2197700306233]]]}},{"type":"Feature","properties":{"pid":"2a898012-42a9-4a95-ba39-ffd2a50bf7a7"},"geometry":{"type":"Polygon","coordinates":[[[136.23393193902078,36.21964273218333],[136.23442778414176,36.21956350526387],[136.2343530766699,36.2195585255439],[136.2339799385598,36.219616953894324],[136.23393193902078,36.21964273218333]]]}},{"type":"Feature","properties":{"pid":"4996a860-9bd6-482a-9a97-98a3b75eff4a"},"geometry":{"type":"Polygon","coordinates":[[[136.23484189352482,36.21951472773975],[136.23503264793464,36.220372427479425],[136.23514412731413,36.22035339414143],[136.23510752340417,36.22016950741302],[136.2350553363524,36.21948694241077],[136.23484189352482,36.21951472773975]]]}},{"type":"Feature","properties":{"pid":"ea5ab1a8-af63-4a59-b705-dc95acb9a9a5"},"geometry":{"type":"Polygon","coordinates":[[[136.23562849059397,36.21974030765553],[136.2356534398329,36.22026399380361],[136.2361797125835,36.22012355074387],[136.236106359747,36.21993673184418],[136.23583047759672,36.21986836058099],[136.23562849059397,36.21974030765553]]]}},{"type":"Feature","properties":{"pid":"b707742a-03e7-48f4-8fb8-2646b018a267"},"geometry":{"type":"Polygon","coordinates":[[[136.2336063367289,36.21989847556833],[136.23381394190855,36.219872669229545],[136.23379398722747,36.21979056946114],[136.23366469797793,36.21980987893199],[136.2335882115013,36.219850907093424],[136.2336063367289,36.21989847556833]]]}},{"type":"Feature","properties":{"pid":"415d6e0c-3fdb-45e1-a84f-8fa17df6e92e"},"geometry":{"type":"Polygon","coordinates":[[[136.2344052469668,36.21783015686271],[136.23448517643536,36.21817300861112],[136.23459869842307,36.218150261838105],[136.2345627163091,36.21778488335107],[136.2344052469668,36.21783015686271]]]}},{"type":"Feature","properties":{"pid":"b3efe795-5105-4dc1-a8a6-4c2886191f14"},"geometry":{"type":"Polygon","coordinates":[[[136.2355468915493,36.20726563323408],[136.23555325739048,36.2079519725659],[136.23562299835638,36.207948150809365],[136.23565427404552,36.207773204452955],[136.23569758451538,36.20724570397591],[136.2355659655227,36.2072463898374],[136.2355468915493,36.20726563323408]]]}},{"type":"Feature","properties":{"pid":"267b78e8-4de6-4bb3-8a38-193c85ec1e51"},"geometry":{"type":"Polygon","coordinates":[[[136.23511680690373,36.20800212036844],[136.23539567994325,36.20799946381935],[136.23538157823268,36.207250951932956],[136.23508495152691,36.20726733569621],[136.23511680690373,36.20800212036844]]]}},{"type":"Feature","properties":{"pid":"8a1d70f1-3fee-4f83-9c5f-2a0e26f3d92a"},"geometry":{"type":"Polygon","coordinates":[[[136.23242026963914,36.207680768402476],[136.232574059343,36.20767916253752],[136.23256980774445,36.207544247420586],[136.23242277289253,36.20754563939897],[136.23242026963914,36.207680768402476]]]}},{"type":"Feature","properties":{"pid":"0a6bf51e-d2ee-4374-acc4-143ea9b2e3b8"},"geometry":{"type":"Polygon","coordinates":[[[136.23213826831423,36.20784873755268],[136.23170105148307,36.207854847291564],[136.23170517676022,36.208206537273554],[136.2321357433691,36.20820958300739],[136.23213826831423,36.20784873755268]]]}},{"type":"Feature","properties":{"pid":"99e1eb03-aee7-4a18-9cd1-1cc2b6419cb9"},"geometry":{"type":"Polygon","coordinates":[[[136.23221366792555,36.20768116908064],[136.2322937327971,36.20768113007095],[136.23229400455472,36.20754765530053],[136.2322159273879,36.20754984042592],[136.23221366792555,36.20768116908064]]]}},{"type":"Feature","properties":{"pid":"b0fdbf88-ea0d-4ac8-88e0-d6afda11b8db"},"geometry":{"type":"Polygon","coordinates":[[[136.23695791577796,36.20752175415045],[136.23700146765637,36.20716739252757],[136.23690912282956,36.20716065930787],[136.23685728903268,36.20751282229612],[136.23695791577796,36.20752175415045]]]}},{"type":"Feature","properties":{"pid":"e423b6bf-a53b-46c6-afad-10b05059ca2a"},"geometry":{"type":"Polygon","coordinates":[[[136.23736372680438,36.20755336312838],[136.23740734231876,36.20720184532673],[136.23712559513845,36.207178687033654],[136.2370806595755,36.20753217502721],[136.23736372680438,36.20755336312838]]]}},{"type":"Feature","properties":{"pid":"99fc70d2-2576-4356-a802-d89428284e9b"},"geometry":{"type":"Polygon","coordinates":[[[136.23756912821653,36.20756899213862],[136.23761133076937,36.207220547023226],[136.23753284569364,36.20721325569265],[136.2374866817206,36.20756212397419],[136.23756912821653,36.20756899213862]]]}},{"type":"Feature","properties":{"pid":"4caa9785-482f-4e21-aa6a-fce52a71bfb0"},"geometry":{"type":"Polygon","coordinates":[[[136.23776511435085,36.20758523972016],[136.23781254836757,36.20723917759772],[136.23773572737494,36.20723372237788],[136.2376949286038,36.207579478051585],[136.23776511435085,36.20758523972016]]]}},{"type":"Feature","properties":{"pid":"8a076b73-3ac4-4546-b87f-7d86e24434f6"},"geometry":{"type":"Polygon","coordinates":[[[136.23797935753788,36.2076035255942],[136.2380281347134,36.207258589349806],[136.2379334333915,36.20725053407624],[136.2378859299259,36.20759487996529],[136.23797935753788,36.2076035255942]]]}},{"type":"Feature","properties":{"pid":"af0655c1-7208-480b-b8fe-e75aa23de4d7"},"geometry":{"type":"Polygon","coordinates":[[[136.23825128063328,36.207634602798],[136.23829221306954,36.2072764234439],[136.23820580820455,36.207271163456774],[136.23816204963276,36.207628041104826],[136.23825128063328,36.207634602798]]]}},{"type":"Feature","properties":{"pid":"42865a3b-1f86-4398-b93b-bffee6760621"},"geometry":{"type":"Polygon","coordinates":[[[136.23888627305533,36.20768912316471],[136.23892599146038,36.20732737224021],[136.23842135992828,36.20728320072659],[136.23837755780005,36.207646097439024],[136.23888627305533,36.20768912316471]]]}},{"type":"Feature","properties":{"pid":"d70641c6-103e-4ee3-94e3-09c22dba36f2"},"geometry":{"type":"Polygon","coordinates":[[[136.23907493908067,36.20770895839438],[136.23911600437953,36.20734278870361],[136.23904875795336,36.20733773380443],[136.2390102708263,36.20770298353816],[136.23907493908067,36.20770895839438]]]}},{"type":"Feature","properties":{"pid":"b7752d96-3caa-489b-a828-c3a043cfe337"},"geometry":{"type":"Polygon","coordinates":[[[136.23927903133736,36.207726975078735],[136.23932292535153,36.20736215611994],[136.23923990075411,36.20735465112156],[136.23919607003882,36.207720065385715],[136.23927903133736,36.207726975078735]]]}},{"type":"Feature","properties":{"pid":"c5a4db53-4910-4fae-ac5a-4d2fea0ee0fd"},"geometry":{"type":"Polygon","coordinates":[[[136.23940500440872,36.20773719404905],[136.2397112535402,36.20776078901059],[136.23974825466877,36.20740237903395],[136.23944872914413,36.20737377776908],[136.23940500440872,36.20773719404905]]]}},{"type":"Feature","properties":{"pid":"6aca03e2-cd55-48ed-98aa-1fc039019659"},"geometry":{"type":"Polygon","coordinates":[[[136.2411256043546,36.20884534668316],[136.24160274875854,36.208855162261415],[136.24155804834032,36.208729653144815],[136.2411336306208,36.208784862009516],[136.2411256043546,36.20884534668316]]]}},{"type":"Feature","properties":{"pid":"88e0ee80-d03d-4596-af2d-080593daad1a"},"geometry":{"type":"Polygon","coordinates":[[[136.2411114322735,36.208962427251855],[136.24164542564844,36.20898764128598],[136.24164977027198,36.208958387743294],[136.24111448262593,36.208945876381904],[136.2411114322735,36.208962427251855]]]}},{"type":"Feature","properties":{"pid":"8eefe888-3e51-4f9a-b6ad-22e2a2f8873e"},"geometry":{"type":"Polygon","coordinates":[[[136.24109315510339,36.209087922135566],[136.2414910871676,36.209120860045154],[136.24150458101485,36.2090847148631],[136.24109644145875,36.20906394780889],[136.24109315510339,36.209087922135566]]]}},{"type":"Feature","properties":{"pid":"67adb079-54b4-4cb2-b085-962fe479b8e9"},"geometry":{"type":"Polygon","coordinates":[[[136.23930922321776,36.208562652699],[136.23940874881322,36.20848939509919],[136.23946164836585,36.2084431599143],[136.23933520918766,36.20843305338048],[136.23931567569755,36.20844508448684],[136.23930922321776,36.208562652699]]]}},{"type":"Feature","properties":{"pid":"0e13b710-fb10-43a4-b951-fad2819d7426"},"geometry":{"type":"Polygon","coordinates":[[[136.23901422866675,36.208418553639085],[136.23896594158546,36.20879317246205],[136.23901818011072,36.20877608173156],[136.23917994413694,36.20865115482518],[136.23919228158906,36.20844180236423],[136.239159374547,36.20841584707655],[136.23903869498332,36.20840638010671],[136.23901422866675,36.208418553639085]]]}},{"type":"Feature","properties":{"pid":"05b53377-5754-48df-b10f-283fd4f8ee56"},"geometry":{"type":"Polygon","coordinates":[[[136.23890095353494,36.20825887266603],[136.2389424736517,36.20787529951727],[136.23885091323103,36.20786939245237],[136.238806805923,36.20825120868638],[136.23890095353494,36.20825887266603]]]}},{"type":"Feature","properties":{"pid":"d6b149b7-acef-4e12-a618-9ee2ddada386"},"geometry":{"type":"Polygon","coordinates":[[[136.2395457765395,36.208275114572444],[136.2395686927104,36.20830422837239],[136.239592824419,36.208305501157035],[136.23966455657126,36.20821065364125],[136.23969507786057,36.2079423942396],[136.23959072921738,36.207933672255024],[136.2395457765395,36.208275114572444]]]}},{"type":"Feature","properties":{"pid":"81af196d-fb88-4478-b7b6-01c6c294f27c"},"geometry":{"type":"Polygon","coordinates":[[[136.23993308664305,36.207777337912155],[136.2399783128011,36.20768364474697],[136.24006487683678,36.20743457659645],[136.23987101266587,36.20741694431138],[136.23983699237195,36.20777038741754],[136.23993308664305,36.207777337912155]]]}},{"type":"Feature","properties":{"pid":"6745e904-1e3b-4fde-b71c-c0e6b047df9e"},"geometry":{"type":"Polygon","coordinates":[[[136.2382856090164,36.20819875089164],[136.2383271286333,36.207823329436124],[136.23812191530052,36.207803055511285],[136.2380768227737,36.20818081384928],[136.2382856090164,36.20819875089164]]]}},{"type":"Feature","properties":{"pid":"f1cb9308-1932-4d0a-85c9-d1b53be0679f"},"geometry":{"type":"Polygon","coordinates":[[[136.23868415821687,36.2082366543533],[136.23872803881844,36.207858827203154],[136.23844870143932,36.20783579028264],[136.2384108551877,36.208211046698636],[136.23868415821687,36.2082366543533]]]}},{"type":"Feature","properties":{"pid":"ae9b9ae2-e16a-45be-b120-7466640df085"},"geometry":{"type":"Polygon","coordinates":[[[136.2378298554015,36.20815910672543],[136.2378750761078,36.207783325915145],[136.23766528380867,36.20776244195961],[136.2376192663471,36.20814190239011],[136.2378298554015,36.20815910672543]]]}},{"type":"Feature","properties":{"pid":"921cfcfc-33c3-421b-abd4-a9a31a6eec9c"},"geometry":{"type":"Polygon","coordinates":[[[136.23749652369997,36.20813182697968],[136.23754261296725,36.20775279323372],[136.23725181641046,36.20773093483902],[136.2372127212899,36.20810948326938],[136.23749652369997,36.20813182697968]]]}},{"type":"Feature","properties":{"pid":"15cdae2d-dcb3-4288-be96-0dba73815d2a"},"geometry":{"type":"Polygon","coordinates":[[[136.23722273277295,36.208649345015985],[136.23727033324684,36.20827203940527],[136.23718953188236,36.208266013331155],[136.23714193118096,36.20864331937709],[136.23722273277295,36.208649345015985]]]}},{"type":"Feature","properties":{"pid":"7c9f693e-4f51-4184-ad7a-362048abe037"},"geometry":{"type":"Polygon","coordinates":[[[136.23725067193197,36.20916846750985],[136.23729497747527,36.20878899005389],[136.23690714990417,36.20876932670114],[136.2368643303917,36.20914525960063],[136.23725067193197,36.20916846750985]]]}},{"type":"Feature","properties":{"pid":"73b94f05-72b3-4ebc-aa43-1f45a2539919"},"geometry":{"type":"Polygon","coordinates":[[[136.23804036676287,36.20921997318167],[136.23807109218643,36.20883978641191],[136.2379904074711,36.20883347415689],[136.23794305455968,36.20921312714928],[136.23804036676287,36.20921997318167]]]}},{"type":"Feature","properties":{"pid":"69a56ecd-9fff-45ff-8af0-4ad372783268"},"geometry":{"type":"Polygon","coordinates":[[[136.23738155674562,36.209180828232256],[136.23777400102028,36.20921403058852],[136.23782057390696,36.20883367216676],[136.23742593282122,36.208800742870864],[136.23738155674562,36.209180828232256]]]}},{"type":"Feature","properties":{"pid":"4fbe3ef9-b83c-4515-90c2-266d3b177fa2"},"geometry":{"type":"Polygon","coordinates":[[[136.23774822030163,36.20869339955947],[136.23779943388337,36.20831909530214],[136.23739472205943,36.20828346506507],[136.23734838591463,36.20865969001507],[136.23774822030163,36.20869339955947]]]}},{"type":"Feature","properties":{"pid":"51ca6e0c-d7b7-4ff3-9aca-678313e389ea"},"geometry":{"type":"Polygon","coordinates":[[[136.23841427331308,36.20874952921785],[136.23845814864916,36.208374801091985],[136.23805360087488,36.208339081811665],[136.23800363665447,36.20871284538682],[136.23841427331308,36.20874952921785]]]}},{"type":"Feature","properties":{"pid":"195c0967-bff4-446b-99f7-97b43d147234"},"geometry":{"type":"Polygon","coordinates":[[[136.23883676851625,36.208785044611304],[136.23888185086895,36.20841643196942],[136.23885582438197,36.208403082778425],[136.23858537067434,36.208385659674406],[136.23854016345646,36.208763384430185],[136.23883676851625,36.208785044611304]]]}},{"type":"Feature","properties":{"pid":"290c9119-9e49-4915-9b0e-64caab0f646a"},"geometry":{"type":"Polygon","coordinates":[[[136.2382938511372,36.2090072804532],[136.2381843483246,36.20898425975251],[136.23816292686658,36.209226301511016],[136.23828269873385,36.209231542030295],[136.2382938511372,36.2090072804532]]]}},{"type":"Feature","properties":{"pid":"3e6565b7-05a2-46af-ae19-15f51abd2c79"},"geometry":{"type":"Polygon","coordinates":[[[136.24098968054957,36.20951209489483],[136.24141410038746,36.20955737668301],[136.24144722151092,36.209523598309666],[136.24148111527595,36.209365476122144],[136.24104651889965,36.20931758571558],[136.24098968054957,36.20951209489483]]]}},{"type":"Feature","properties":{"pid":"4d27c731-2d14-4ec4-a542-1a05ea178165"},"geometry":{"type":"Polygon","coordinates":[[[136.24094834829143,36.20971138334784],[136.24127668393513,36.20974989886657],[136.24134202928468,36.209652855413076],[136.24096811098045,36.20961347319235],[136.24094834829143,36.20971138334784]]]}},{"type":"Feature","properties":{"pid":"4b94145f-3d39-4064-8c53-1e95d584ea74"},"geometry":{"type":"Polygon","coordinates":[[[136.24094393235876,36.209916611533785],[136.24114771970292,36.21001032655117],[136.2412120229956,36.209999266994274],[136.241222866162,36.20984539104564],[136.24092666190109,36.209811891562474],[136.24094393235876,36.209916611533785]]]}},{"type":"Feature","properties":{"pid":"d1001307-7db3-478a-848d-1e91c786437d"},"geometry":{"type":"Polygon","coordinates":[[[136.24192043014784,36.21096313451771],[136.24203481381292,36.21091061367695],[136.24192673160675,36.21085793307648],[136.24186033643034,36.21089076223242],[136.24192043014784,36.21096313451771]]]}},{"type":"Feature","properties":{"pid":"200d5b62-16e3-4b29-9e59-ca72755454b2"},"geometry":{"type":"Polygon","coordinates":[[[136.2423766621585,36.211511473499485],[136.24262038700104,36.211386569410855],[136.2426302750712,36.211356628593954],[136.2426079834856,36.2113424005098],[136.2423378105512,36.21146491466527],[136.2423766621585,36.211511473499485]]]}},{"type":"Feature","properties":{"pid":"52398a46-5880-4350-9b02-ddde4ca5d8e3"},"geometry":{"type":"Polygon","coordinates":[[[136.24227208070153,36.211380162028135],[136.2424668292187,36.211293249837645],[136.2424085013788,36.21127401008568],[136.24232826391955,36.21119943321611],[136.24229746484656,36.21114290485475],[136.2422978026046,36.21106363462297],[136.242242424071,36.21102967488578],[136.24205366733668,36.21111769253791],[136.24227208070153,36.211380162028135]]]}},{"type":"Feature","properties":{"pid":"27fc942d-d0e7-4579-acea-57a06b053c43"},"geometry":{"type":"Polygon","coordinates":[[[136.24263051083886,36.212117707146646],[136.24267981346134,36.21223029145834],[136.24288705626648,36.21241274499506],[136.24311217961255,36.21267256244959],[136.24311069028215,36.212711524109025],[136.24301829963835,36.21282682629966],[136.24334118807863,36.21267793825663],[136.24263051083886,36.212117707146646]]]}},{"type":"Feature","properties":{"pid":"8ac18da6-15f5-4c1c-9b35-6558623f067a"},"geometry":{"type":"Polygon","coordinates":[[[136.24369402580544,36.21363239403794],[136.24379788868592,36.21358687163084],[136.24331346991372,36.212879732215384],[136.24321202876726,36.212922347028794],[136.24369402580544,36.21363239403794]]]}},{"type":"Feature","properties":{"pid":"16d5eca7-41a8-4a61-bece-17394d9f2829"},"geometry":{"type":"Polygon","coordinates":[[[136.24398327395014,36.21350601880527],[136.24414393937133,36.2134371699983],[136.24390587862825,36.21309326466385],[136.2435017609775,36.21280022414932],[136.24398327395014,36.21350601880527]]]}},{"type":"Feature","properties":{"pid":"77df7dc0-f9fb-4b19-90b7-e5f1b87c92f4"},"geometry":{"type":"Polygon","coordinates":[[[136.24322577616454,36.21352847703455],[136.24315960762038,36.2135813290524],[136.24331465576563,36.21379993357217],[136.2433889647932,36.213768310628865],[136.24322577616454,36.21352847703455]]]}},{"type":"Feature","properties":{"pid":"8c1c1662-8870-42ce-b91d-59748cd9b0cb"},"geometry":{"type":"Polygon","coordinates":[[[136.2440346195445,36.21455297652268],[136.24404967541574,36.214546635296905],[136.2435802897299,36.21383856795466],[136.24356824397438,36.21384381164194],[136.2440346195445,36.21455297652268]]]}},{"type":"Feature","properties":{"pid":"900c7d8a-3291-4326-a231-5bc54b669bac"},"geometry":{"type":"Polygon","coordinates":[[[136.24384096329604,36.214638397352196],[136.24392420347303,36.21460169119774],[136.24345820849845,36.21389574052613],[136.24338111031537,36.21393499316232],[136.24338222941813,36.213964914526215],[136.24373971241684,36.21449533779307],[136.24379592031102,36.21454586076541],[136.24384096329604,36.214638397352196]]]}},{"type":"Feature","properties":{"pid":"23828d27-5288-4644-8e1b-43558cb1e0ba"},"geometry":{"type":"Polygon","coordinates":[[[136.24421422391157,36.21465089982278],[136.24474463663338,36.21446902441433],[136.24473291066087,36.214429287590036],[136.24421422391157,36.21465089982278]]]}},{"type":"Feature","properties":{"pid":"e1c9379f-59d1-4baa-8153-3f3079944432"},"geometry":{"type":"Polygon","coordinates":[[[136.24492206214362,36.21418981030865],[136.2450928662468,36.2140952742085],[136.24505012098675,36.213989435177716],[136.24484623280833,36.2140779674222],[136.24492206214362,36.21418981030865]]]}},{"type":"Feature","properties":{"pid":"187cb4d9-f648-4256-b279-4c1ef5e53ecd"},"geometry":{"type":"Polygon","coordinates":[[[136.24478663154733,36.213990302844294],[136.24499940597292,36.21389856254175],[136.24493839138103,36.21379503577872],[136.2447193981683,36.213891471208946],[136.24478663154733,36.213990302844294]]]}},{"type":"Feature","properties":{"pid":"6eaa163c-71f4-4216-b72b-b41e284c2734"},"geometry":{"type":"Polygon","coordinates":[[[136.24430427568714,36.21443484273754],[136.24434852174545,36.21441694454577],[136.2438780061367,36.213708644019604],[136.24383226253,36.21372859848502],[136.24430427568714,36.21443484273754]]]}},{"type":"Feature","properties":{"pid":"c387fdc2-ce12-45fd-8078-baad8d3c0bbf"},"geometry":{"type":"Polygon","coordinates":[[[136.2444578613816,36.21436685606039],[136.2445238093503,36.21433779218742],[136.24405411007373,36.213631684406806],[136.2439900834107,36.21365965248154],[136.2444578613816,36.21436685606039]]]}},{"type":"Feature","properties":{"pid":"4c2c68e8-c2c5-4690-9c9f-55f16c0d1ae0"},"geometry":{"type":"Polygon","coordinates":[[[136.2445532120222,36.2136359989819],[136.24478929872097,36.21353323112891],[136.24472463262714,36.21342689563735],[136.2447032173838,36.21341177513073],[136.2446589135946,36.21344491833698],[136.24468174537444,36.213490615677195],[136.24466320011805,36.21353772250004],[136.24453565602423,36.21360433703898],[136.2445532120222,36.2136359989819]]]}},{"type":"Feature","properties":{"pid":"1420b97e-7c74-4da4-b177-a658803b07f1"},"geometry":{"type":"Polygon","coordinates":[[[136.24466139616158,36.213805550274195],[136.24488953057082,36.21370582324426],[136.24484384256832,36.2136228498882],[136.24460592700518,36.21372382948911],[136.24466139616158,36.213805550274195]]]}},{"type":"Feature","properties":{"pid":"0fcd3776-40fb-4ffc-ba62-1e7ee76c9db2"},"geometry":{"type":"Polygon","coordinates":[[[136.24497884043413,36.21447538625105],[136.2450207844464,36.214615953809385],[136.2455668811951,36.21460162394331],[136.24497884043413,36.21447538625105]]]}},{"type":"Feature","properties":{"pid":"93c38e04-fcb6-49f4-9baa-b4c2928e24ad"},"geometry":{"type":"Polygon","coordinates":[[[136.24507576722087,36.21480157685453],[136.24615113164498,36.21477072524939],[136.2461454785824,36.214757716641735],[136.2450711012826,36.214787408387785],[136.24507576722087,36.21480157685453]]]}},{"type":"Feature","properties":{"pid":"49061e05-ed6f-4b4d-baa7-0b59bfee1c6d"},"geometry":{"type":"Polygon","coordinates":[[[136.2451461147329,36.21505885990181],[136.24626579683564,36.21503328578155],[136.24621799594584,36.214872141355535],[136.24510358153776,36.21490466925277],[136.2451461147329,36.21505885990181]]]}},{"type":"Feature","properties":{"pid":"038dcaa8-d1d3-4762-9559-0bbcaa800a68"},"geometry":{"type":"Polygon","coordinates":[[[136.24524311316839,36.215386976334045],[136.24630362562954,36.21535578959819],[136.24629157437136,36.21513767217357],[136.24517882440503,36.21516495345218],[136.24524311316839,36.215386976334045]]]}},{"type":"Feature","properties":{"pid":"d72aaa80-38b7-4c68-ac54-6752440a038c"},"geometry":{"type":"Polygon","coordinates":[[[136.24531049459966,36.21562360595747],[136.246269183883,36.21559755247559],[136.2462861459225,36.21545928822803],[136.24527347573016,36.215492796821756],[136.24531049459966,36.21562360595747]]]}},{"type":"Feature","properties":{"pid":"6ba58011-054e-4f0b-843e-a4ba61a03743"},"geometry":{"type":"Polygon","coordinates":[[[136.24545938133872,36.21629611117581],[136.24604523793215,36.21628201981499],[136.24614147362493,36.21601684677583],[136.24543198070523,36.216041874770205],[136.24545938133872,36.21629611117581]]]}},{"type":"Feature","properties":{"pid":"d81fbe47-de55-40c3-be4a-73a0fb0fcfaa"},"geometry":{"type":"Polygon","coordinates":[[[136.2454032560735,36.21592884900063],[136.24617938221152,36.215903668069096],[136.2462417780943,36.21570183911574],[136.2453417379967,36.215726429511385],[136.2454032560735,36.21592884900063]]]}},{"type":"Feature","properties":{"pid":"6c9931de-19df-4f46-bb64-ba05894aee9e"},"geometry":{"type":"Polygon","coordinates":[[[136.24421416121143,36.21582461714337],[136.24509028539086,36.215659092115715],[136.2450228877892,36.21542484547178],[136.24418331806217,36.21559110082595],[136.24421416121143,36.21582461714337]]]}},{"type":"Feature","properties":{"pid":"a8ad4139-e449-47c2-bcbb-5dba1513272f"},"geometry":{"type":"Polygon","coordinates":[[[136.24408645664357,36.21625010071631],[136.24448170248007,36.216233127242106],[136.24468505088868,36.215837877684294],[136.24417324101861,36.21593811550137],[136.24411297641473,36.21607952983882],[136.24408645664357,36.21625010071631]]]}},{"type":"Feature","properties":{"pid":"ef187e66-49ba-4bcc-b672-e703fe432e6b"},"geometry":{"type":"Polygon","coordinates":[[[136.24406006954527,36.21642322275245],[136.24442385583944,36.216457063084974],[136.24442850875596,36.21633411981671],[136.24407202958196,36.21635072506851],[136.24406006954527,36.21642322275245]]]}},{"type":"Feature","properties":{"pid":"c37686a5-7e6d-4487-9048-52e46955da54"},"geometry":{"type":"Polygon","coordinates":[[[136.2441659013802,36.21548879858036],[136.24499251841553,36.21532054946205],[136.2449435884475,36.21515141836346],[136.24411426222915,36.21530729285708],[136.2441477114041,36.21537961682545],[136.2441659013802,36.21548879858036]]]}},{"type":"Feature","properties":{"pid":"437ecda7-ef27-4515-a340-2af826e407a2"},"geometry":{"type":"Polygon","coordinates":[[[136.24393558126735,36.21491980398753],[136.24482759020833,36.21474820437213],[136.24477419203745,36.21456593768596],[136.24390699485878,36.21486446896881],[136.24393558126735,36.21491980398753]]]}},{"type":"Feature","properties":{"pid":"9300fdb5-f7f0-4523-bab1-bb1fdffad385"},"geometry":{"type":"Polygon","coordinates":[[[136.24407308670104,36.21521435168042],[136.24491549676512,36.215054938458266],[136.24489438111914,36.21498166879914],[136.24404570195742,36.21514917415182],[136.24407308670104,36.21521435168042]]]}},{"type":"Feature","properties":{"pid":"86d00875-c76a-4ac7-bea1-456e76860dd3"},"geometry":{"type":"Polygon","coordinates":[[[136.2439997275635,36.21504751815069],[136.2448634613324,36.21487784614901],[136.24485456493966,36.21484810760452],[136.24398288296834,36.21501248752994],[136.2439997275635,36.21504751815069]]]}},{"type":"Feature","properties":{"pid":"0e232e2c-2bb9-4011-a0c0-213efd9a75f7"},"geometry":{"type":"Polygon","coordinates":[[[136.24350509560648,36.21708937968982],[136.24369813483787,36.217088987239734],[136.24380019943342,36.2164472004479],[136.2438176467902,36.21641983567294],[136.24385546661406,36.216407834444894],[136.24388399597316,36.216239057527424],[136.24359604440852,36.21642202989641],[136.24359873960688,36.216645554837456],[136.2435466930231,36.216742224439635],[136.24349830298823,36.21677981082111],[136.24350509560648,36.21708937968982]]]}},{"type":"Feature","properties":{"pid":"4f2e99e7-72b1-46e5-bb29-32d40c7e672f"},"geometry":{"type":"Polygon","coordinates":[[[136.2430507376146,36.217096369113115],[136.24337216462715,36.217089336823356],[136.2433654036817,36.21688645240378],[136.2432870492463,36.21694504102631],[136.2430494150863,36.21705918651496],[136.2430507376146,36.217096369113115]]]}},{"type":"Feature","properties":{"pid":"684bd514-20dd-421e-b890-bb1981eebe4c"},"geometry":{"type":"Polygon","coordinates":[[[136.24389046466115,36.21814946438094],[136.24410749420758,36.21819653861924],[136.2441159077816,36.218165219042994],[136.2438939507445,36.21812931147101],[136.24389046466115,36.21814946438094]]]}},{"type":"Feature","properties":{"pid":"27c8a069-f5a7-4d5e-99ac-fc2023c9ddf8"},"geometry":{"type":"Polygon","coordinates":[[[136.2439114912193,36.21803058822947],[136.244168432693,36.21807344818311],[136.24420020639198,36.2179925608539],[136.2439213113508,36.21796322863385],[136.2439114912193,36.21803058822947]]]}},{"type":"Feature","properties":{"pid":"4fd58b2c-6cb4-4f8a-965f-8c0128c73781"},"geometry":{"type":"Polygon","coordinates":[[[136.24386025713207,36.217751126413276],[136.24428268729204,36.21779947721386],[136.24430905113385,36.217766358016846],[136.24386136204765,36.217717168429424],[136.24386025713207,36.217751126413276]]]}},{"type":"Feature","properties":{"pid":"51274c86-10f8-4885-96fe-939f246eff2d"},"geometry":{"type":"Polygon","coordinates":[[[136.24386529630084,36.21761600458761],[136.24427162862432,36.217660739407194],[136.24420293059356,36.21754310470662],[136.2442168003359,36.217385572180476],[136.24389876958216,36.217356259165086],[136.2438743773691,36.21746273766184],[136.24386529630084,36.21761600458761]]]}},{"type":"Feature","properties":{"pid":"5826a959-5ae7-4dda-b4fd-2ef07531f8cc"},"geometry":{"type":"Polygon","coordinates":[[[136.24394661357226,36.2171300046488],[136.24419869133976,36.21715391140197],[136.24417231858166,36.21703608314331],[136.24418502438496,36.216966234141125],[136.244285369347,36.216776466405534],[136.24400239504857,36.21675237364047],[136.24394661357226,36.2171300046488]]]}},{"type":"Feature","properties":{"pid":"edeaad02-5409-4e52-9c01-d66722b387e6"},"geometry":{"type":"Polygon","coordinates":[[[136.24401616480907,36.21664918137859],[136.24433755359004,36.2166799035127],[136.24438346483456,36.216599728467905],[136.24402962700046,36.21656657484911],[136.24401616480907,36.21664918137859]]]}},{"type":"Feature","properties":{"pid":"86a5d9a2-61df-4077-b0a6-810647b12fc3"},"geometry":{"type":"Polygon","coordinates":[[[136.24538801863127,36.21722164632779],[136.2459251282123,36.21720517749171],[136.2459091557246,36.2169275323271],[136.24538167718728,36.21694369572605],[136.2453687257181,36.21704048446889],[136.24538801863127,36.21722164632779]]]}},{"type":"Feature","properties":{"pid":"e1978692-de25-4a74-817b-de4bf51ab218"},"geometry":{"type":"Polygon","coordinates":[[[136.2454802698149,36.216695238489784],[136.2455018898176,36.216719410391214],[136.24593908134582,36.216718601516035],[136.2459421642138,36.21664481320593],[136.24600976059807,36.21639623095329],[136.24546152147315,36.21641099486849],[136.2454802698149,36.216695238489784]]]}},{"type":"Feature","properties":{"pid":"52c5f634-176f-46d5-a969-17cba15f6144"},"geometry":{"type":"Polygon","coordinates":[[[136.2454450479058,36.217584420256976],[136.24596482379752,36.21756376010642],[136.2459342586851,36.217304776182274],[136.24540753102877,36.2173213018213],[136.2454501954504,36.21751623339513],[136.2454450479058,36.217584420256976]]]}},{"type":"Feature","properties":{"pid":"478c7336-d54c-40ba-84a3-a95b40912b68"},"geometry":{"type":"Polygon","coordinates":[[[136.24543696464627,36.21795372916406],[136.2460638067109,36.21793579229483],[136.2459824361623,36.21766851946914],[136.2454405272362,36.21769063499589],[136.24543696464627,36.21795372916406]]]}},{"type":"Feature","properties":{"pid":"22a93c35-ab36-4468-b523-1d44bc628847"},"geometry":{"type":"Polygon","coordinates":[[[136.2454542337193,36.218284596820006],[136.2462129158582,36.21826642264043],[136.2461026816229,36.21803614682008],[136.24543752722954,36.21805567198458],[136.2454542337193,36.218284596820006]]]}},{"type":"Feature","properties":{"pid":"80524458-ac83-4a02-be94-8f6e53731c86"},"geometry":{"type":"Polygon","coordinates":[[[136.2471211672662,36.215439511602895],[136.24722393749903,36.215380443701555],[136.24713799898072,36.21480858603872],[136.24703118750347,36.2148286285517],[136.2471211672662,36.215439511602895]]]}},{"type":"Feature","properties":{"pid":"960cb00e-709b-46c4-bc37-e11d8b73c8aa"},"geometry":{"type":"Polygon","coordinates":[[[136.2469637163877,36.21551538863327],[136.24700668943348,36.21549585188902],[136.2469056844902,36.214839318732686],[136.24686543689793,36.214846669893404],[136.2469637163877,36.21551538863327]]]}},{"type":"Feature","properties":{"pid":"98701f20-6998-4f9f-9fc6-9002d23f2990"},"geometry":{"type":"Polygon","coordinates":[[[136.24660239480963,36.215647777443806],[136.24684066059913,36.2155651295745],[136.24673789382166,36.214825781836275],[136.24654509814602,36.214803898587604],[136.24662440733877,36.21513717680394],[136.2466252922582,36.215533777744305],[136.24660239480963,36.215647777443806]]]}},{"type":"Feature","properties":{"pid":"6e6b4bee-43d2-4042-909e-94d06bd031f9"},"geometry":{"type":"Polygon","coordinates":[[[136.24734557212128,36.215294439724815],[136.2473676833115,36.215277631008135],[136.24729006811776,36.21475006159159],[136.24726137881825,36.21476077705471],[136.24734557212128,36.215294439724815]]]}},{"type":"Feature","properties":{"pid":"82ec6515-fd78-4e0f-a962-f987316f131e"},"geometry":{"type":"Polygon","coordinates":[[[136.24780677191228,36.215061783221635],[136.2478226028568,36.21506158584766],[136.24775770913615,36.2146505275928],[136.24773575776905,36.21464815894875],[136.24780677191228,36.215061783221635]]]}},{"type":"Feature","properties":{"pid":"96c488e2-d422-427b-8e6e-c8242035e0af"},"geometry":{"type":"Polygon","coordinates":[[[136.2474791615399,36.21520886819135],[136.2476814614678,36.215087243753786],[136.2476176993519,36.21464309100549],[136.24752140833223,36.21465763472441],[136.2473997563666,36.214704561509286],[136.2474791615399,36.21520886819135]]]}},{"type":"Feature","properties":{"pid":"1ebbd421-214d-4aaf-a621-50ab2fba676b"},"geometry":{"type":"Polygon","coordinates":[[[136.24794329368814,36.215063856301185],[136.2481559980451,36.21507155898523],[136.2481637061656,36.21470518283691],[136.24788315751786,36.21466739407914],[136.24794329368814,36.215063856301185]]]}},{"type":"Feature","properties":{"pid":"15c289bd-1f83-4f92-b66f-c83e6d4b19de"},"geometry":{"type":"Polygon","coordinates":[[[136.2482785750434,36.21507436835969],[136.24832316220187,36.21507536456564],[136.24834279076907,36.21472397370229],[136.2482810673143,36.21471781187839],[136.2482785750434,36.21507436835969]]]}},{"type":"Feature","properties":{"pid":"9ea7be2b-5ebc-46cc-8961-b156d9a629e2"},"geometry":{"type":"Polygon","coordinates":[[[136.24845219372025,36.215090835108406],[136.24870150988897,36.2150976237993],[136.24881878628432,36.21516242026787],[136.24881907941975,36.21472699612418],[136.24846021670487,36.21473436346784],[136.24845219372025,36.215090835108406]]]}},{"type":"Feature","properties":{"pid":"aaf93d74-605a-462e-ab2e-5a69a0d651d7"},"geometry":{"type":"Polygon","coordinates":[[[136.24927239624085,36.21554197998711],[136.249338702044,36.21567531206293],[136.24944383120635,36.21572189276319],[136.24952105522283,36.21578383955455],[136.24975532587328,36.2158607677098],[136.24985885866226,36.215692605951226],[136.24944275932606,36.21548213005445],[136.24927239624085,36.21554197998711]]]}},{"type":"Feature","properties":{"pid":"b95a1fac-dbe2-49e6-b5a1-0912d7eac069"},"geometry":{"type":"Polygon","coordinates":[[[136.24893905219815,36.215223320839826],[136.2491630237914,36.215345153151446],[136.2492338606496,36.21543797903291],[136.2493403682903,36.2153987083471],[136.24931748168422,36.21536810685129],[136.24922268597754,36.2150810062112],[136.24913873985636,36.214942569345965],[136.248945932817,36.21479004351991],[136.24893905219815,36.215223320839826]]]}}]}