{"type":"FeatureCollection","features":[{"type":"Feature","properties":{"pid":"37869186-c121-40e9-93a6-f6c45d1df5d3","full":2.1},"geometry":{"type":"Polygon","coordinates":[[[136.68663,35.92414],[136.68668,35.92415],[136.68694,35.9241],[136.68711,35.92409],[136.68711,35.92395],[136.68658,35.924],[136.68663,35.92414]]]}},{"type":"Feature","properties":{"pid":"00ec08f9-2066-4e18-8336-75ab87d44bbb","full":3.4},"geometry":{"type":"Polygon","coordinates":[[[136.68722,35.9239],[136.68778,35.92396],[136.68785,35.92381],[136.68716,35.92373],[136.68722,35.9239]]]}},{"type":"Feature","properties":{"pid":"d7b45fc5-eabc-4b14-9e01-5abcfac98fcf","full":1.4},"geometry":{"type":"Polygon","coordinates":[[[136.68726,35.9241],[136.68747,35.92413],[136.68749,35.92403],[136.68773,35.92406],[136.68774,35.92397],[136.68729,35.92392],[136.68723,35.92393],[136.68726,35.9241]]]}},{"type":"Feature","properties":{"pid":"c1ca30ac-95dc-46ea-b75e-7f09ae9c0eef","full":1.3},"geometry":{"type":"Polygon","coordinates":[[[136.6881,35.92419],[136.68834,35.92427],[136.68841,35.92407],[136.68823,35.92401],[136.6881,35.92419]]]}},{"type":"Feature","properties":{"pid":"7d59546a-c6ab-487b-a590-e1396331c6fa","full":3.0},"geometry":{"type":"Polygon","coordinates":[[[136.68861,35.92402],[136.68899,35.92406],[136.689,35.92395],[136.68898,35.9239],[136.68847,35.92384],[136.68845,35.92397],[136.68846,35.92401],[136.6886,35.92403],[136.68861,35.92402]]]}},{"type":"Feature","properties":{"pid":"bf6054ec-1a7f-48bc-8174-e29aedaaa2c6","full":1.4},"geometry":{"type":"Polygon","coordinates":[[[136.68918,35.92395],[136.68962,35.92399],[136.68966,35.92382],[136.6894,35.9238],[136.6894,35.92385],[136.68928,35.92384],[136.68928,35.92388],[136.68919,35.92387],[136.68918,35.92395]]]}},{"type":"Feature","properties":{"pid":"e463ab56-218e-4dd5-8a4e-9ec7d480a59c","full":1.2},"geometry":{"type":"Polygon","coordinates":[[[136.6897,35.9242],[136.68996,35.92423],[136.69,35.9242],[136.69004,35.9241],[136.68974,35.92405],[136.6897,35.92408],[136.6897,35.9242]]]}},{"type":"Feature","properties":{"pid":"7426be30-00bc-4086-ba4a-444245c776ff","full":0.5},"geometry":{"type":"Polygon","coordinates":[[[136.69027,35.92501],[136.69036,35.92501],[136.69049,35.92498],[136.69049,35.92486],[136.69032,35.92487],[136.69026,35.9249],[136.69027,35.92501]]]}},{"type":"Feature","properties":{"pid":"b0bf2191-27b6-4712-891a-4fece26d3ffd","full":3.1},"geometry":{"type":"Polygon","coordinates":[[[136.69038,35.92443],[136.69003,35.9244],[136.68998,35.92443],[136.68995,35.92454],[136.68999,35.92458],[136.6901,35.92459],[136.69013,35.92461],[136.69036,35.92462],[136.6904,35.92452],[136.69038,35.92443]]]}},{"type":"Feature","properties":{"pid":"933a55e1-1a81-4fc0-9b8d-faf831e547fd","full":0.9},"geometry":{"type":"Polygon","coordinates":[[[136.68963,35.92454],[136.68979,35.92458],[136.68985,35.92457],[136.68988,35.92456],[136.68992,35.92443],[136.68966,35.9244],[136.68963,35.92454]]]}},{"type":"Feature","properties":{"pid":"95a09d20-ece8-40ae-ba06-d83da388c428","full":1.3},"geometry":{"type":"Polygon","coordinates":[[[136.68967,35.92439],[136.68992,35.92441],[136.68998,35.92425],[136.68969,35.92422],[136.68967,35.92439]]]}},{"type":"Feature","properties":{"pid":"2285c791-40cc-4eb6-952b-eaf55ae86e42","full":2.5},"geometry":{"type":"Polygon","coordinates":[[[136.68911,35.92434],[136.68961,35.92439],[136.68961,35.92429],[136.68932,35.92421],[136.68929,35.92418],[136.68907,35.92416],[136.68906,35.92422],[136.68907,35.92429],[136.68911,35.92434]]]}},{"type":"Feature","properties":{"pid":"518e708c-0759-4174-b9ee-70969fb298d8","full":1.9},"geometry":{"type":"Polygon","coordinates":[[[136.68928,35.92454],[136.68957,35.92457],[136.6896,35.9244],[136.68913,35.92435],[136.68914,35.92438],[136.68918,35.92445],[136.68926,35.92445],[136.68926,35.92452],[136.68928,35.92454]]]}},{"type":"Feature","properties":{"pid":"c6f022f7-66b2-4dbb-bd5a-39739a2aba83","full":1.7},"geometry":{"type":"Polygon","coordinates":[[[136.68931,35.92475],[136.68962,35.92477],[136.68965,35.92459],[136.68935,35.92458],[136.68931,35.92475]]]}},{"type":"Feature","properties":{"pid":"aa1d7e7e-5c0f-478c-8d72-c365ef29bc12","full":3.6},"geometry":{"type":"Polygon","coordinates":[[[136.68963,35.9248],[136.6893,35.92477],[136.68925,35.92478],[136.6892,35.92486],[136.68934,35.92495],[136.68957,35.92505],[136.68962,35.92505],[136.68966,35.92502],[136.68966,35.92487],[136.68963,35.9248]]]}},{"type":"Feature","properties":{"pid":"dd369a8a-8b7d-4325-bb1d-dd8f3f66f16a","full":0.8},"geometry":{"type":"Polygon","coordinates":[[[136.69005,35.92505],[136.69025,35.92504],[136.69023,35.92492],[136.69014,35.92488],[136.69003,35.92488],[136.69,35.92491],[136.69,35.92493],[136.69005,35.92505]]]}},{"type":"Feature","properties":{"pid":"aafc292f-d473-483d-bf5f-e51c858a76c1","full":2.3},"geometry":{"type":"Polygon","coordinates":[[[136.68976,35.9249],[136.68972,35.92498],[136.68971,35.92511],[136.68998,35.92521],[136.69003,35.92507],[136.68997,35.92497],[136.68976,35.9249]]]}},{"type":"Feature","properties":{"pid":"bf9dd8de-690c-49d7-948d-a698cb60f03c","full":4.7},"geometry":{"type":"Polygon","coordinates":[[[136.68868,35.92447],[136.68898,35.9247],[136.68903,35.92466],[136.68912,35.92453],[136.68912,35.92448],[136.68898,35.92428],[136.68877,35.92438],[136.68868,35.92447]]]}},{"type":"Feature","properties":{"pid":"52719859-9cf8-41bf-a835-7c8789f5d28a","full":2.1},"geometry":{"type":"Polygon","coordinates":[[[136.68642,35.92403],[136.68592,35.92408],[136.68594,35.92423],[136.68646,35.92417],[136.68642,35.92403]]]}},{"type":"Feature","properties":{"pid":"7e071838-01aa-45f4-be78-6226a00f5a6e","full":1.6},"geometry":{"type":"Polygon","coordinates":[[[136.68595,35.92406],[136.68614,35.92405],[136.6865,35.92399],[136.68646,35.92381],[136.68623,35.92387],[136.68619,35.92393],[136.68594,35.92403],[136.68595,35.92406]]]}}],"precision":5}