{"type":"FeatureCollection","features":[{"type":"Feature","properties":{"pid":"b2126516-44e3-4d5d-88ee-1e73b492dffd","full":5.2},"geometry":{"type":"Polygon","coordinates":[[[136.23951,35.72397],[136.23974,35.72406],[136.24007,35.72367],[136.24008,35.72365],[136.24002,35.72356],[136.23998,35.72359],[136.23984,35.72373],[136.23982,35.72373],[136.23973,35.72366],[136.23971,35.72366],[136.23951,35.72395],[136.23951,35.72397]]]}},{"type":"Feature","properties":{"pid":"a6658e7f-ec59-461e-8680-110de7bf00b2","full":1.2},"geometry":{"type":"Polygon","coordinates":[[[136.24098,35.72396],[136.24132,35.7242],[136.24133,35.7242],[136.24134,35.72417],[136.24136,35.72412],[136.24136,35.72406],[136.24111,35.72387],[136.24107,35.72387],[136.24105,35.72388],[136.24098,35.72396]]]}},{"type":"Feature","properties":{"pid":"007237b1-e18c-4d6e-b744-134168f42b24","full":1.9},"geometry":{"type":"Polygon","coordinates":[[[136.24088,35.72406],[136.24125,35.72436],[136.24128,35.72436],[136.24133,35.72423],[136.24132,35.72421],[136.24098,35.72396],[136.24089,35.72404],[136.24088,35.72406]]]}},{"type":"Feature","properties":{"pid":"68daa7ce-c93d-4f3f-ba1a-4796faa58cca","full":13.1},"geometry":{"type":"Polygon","coordinates":[[[136.24033,35.72454],[136.241,35.72508],[136.24104,35.72504],[136.24107,35.72499],[136.24107,35.72496],[136.24114,35.72487],[136.24114,35.72484],[136.24053,35.72436],[136.24033,35.72454]]]}},{"type":"Feature","properties":{"pid":"1e54a979-9453-4237-87a0-c23e25cf1ad0","full":15.8},"geometry":{"type":"Polygon","coordinates":[[[136.24055,35.72434],[136.24116,35.72483],[136.24124,35.72474],[136.24125,35.72458],[136.24125,35.72451],[136.24123,35.72443],[136.24122,35.72441],[136.24083,35.72409],[136.24055,35.72434]]]}},{"type":"Feature","properties":{"pid":"a5d64383-4b22-4b99-8ee3-e25730f9127b","full":13.6},"geometry":{"type":"Polygon","coordinates":[[[136.24013,35.72476],[136.24072,35.72523],[136.24083,35.7252],[136.24096,35.72512],[136.24099,35.72508],[136.24031,35.72455],[136.24012,35.72472],[136.24013,35.72476]]]}},{"type":"Feature","properties":{"pid":"e429e173-4470-4395-8066-f3b8b5fe1cad","full":11.8},"geometry":{"type":"Polygon","coordinates":[[[136.23987,35.72494],[136.24042,35.72537],[136.24048,35.72537],[136.24052,35.72533],[136.24058,35.72532],[136.24069,35.72525],[136.2407,35.72524],[136.24011,35.72477],[136.24009,35.72476],[136.23987,35.72494]]]}},{"type":"Feature","properties":{"pid":"412281ac-7d5b-4a24-bb72-ec9596b65e95","full":8.4},"geometry":{"type":"Polygon","coordinates":[[[136.23964,35.72514],[136.2397,35.72521],[136.23975,35.72524],[136.23983,35.72527],[136.23988,35.72532],[136.23992,35.72534],[136.23998,35.72534],[136.2401,35.72541],[136.24019,35.72544],[136.24026,35.72543],[136.24036,35.72538],[136.24037,35.72536],[136.23986,35.72495],[136.23965,35.72512],[136.23964,35.72514]]]}},{"type":"Feature","properties":{"pid":"a0484694-3824-44cb-9e47-5921b765cb10","full":5.9},"geometry":{"type":"Polygon","coordinates":[[[136.23897,35.72486],[136.239,35.72487],[136.23937,35.72473],[136.23939,35.72472],[136.23924,35.72448],[136.23919,35.72448],[136.23889,35.72461],[136.23888,35.72464],[136.23897,35.72486]]]}},{"type":"Feature","properties":{"pid":"596e3cdf-2623-4a90-bf61-33be5c78c915","full":4.6},"geometry":{"type":"Polygon","coordinates":[[[136.23943,35.72468],[136.23946,35.72469],[136.23975,35.72451],[136.2399,35.72439],[136.2399,35.72437],[136.23973,35.72428],[136.2397,35.72429],[136.23964,35.72436],[136.2396,35.72439],[136.23932,35.72445],[136.23931,35.72447],[136.23943,35.72468]]]}},{"type":"Feature","properties":{"pid":"d2ed8499-a46b-4eb0-9868-ad72261ba789","full":10.1},"geometry":{"type":"Polygon","coordinates":[[[136.23992,35.72435],[136.23995,35.72435],[136.24019,35.72412],[136.24031,35.72396],[136.24037,35.72383],[136.24018,35.72373],[136.24016,35.72373],[136.24005,35.72384],[136.2398,35.72413],[136.23973,35.72422],[136.23974,35.72424],[136.23992,35.72435]]]}},{"type":"Feature","properties":{"pid":"d1aeb6df-eff1-48d5-8551-6b6a20baf81d","full":7.9},"geometry":{"type":"Polygon","coordinates":[[[136.23926,35.72436],[136.23944,35.72434],[136.23955,35.72429],[136.23972,35.7241],[136.23973,35.72408],[136.2395,35.72398],[136.23946,35.72401],[136.23945,35.72401],[136.23933,35.72397],[136.23929,35.724],[136.23918,35.72417],[136.23915,35.72422],[136.2392,35.7243],[136.23926,35.72436]]]}},{"type":"Feature","properties":{"pid":"bf7916de-79b9-4ace-bbb7-6ae380180260","full":1.8},"geometry":{"type":"Polygon","coordinates":[[[136.23885,35.72457],[136.23892,35.72455],[136.23919,35.72443],[136.2392,35.72442],[136.23915,35.72432],[136.23911,35.72425],[136.23908,35.72425],[136.23885,35.72445],[136.23883,35.72451],[136.23883,35.72456],[136.23885,35.72457]]]}},{"type":"Feature","properties":{"pid":"61a39b34-35f1-4dcd-ab6c-b1350d8890ce","full":13.1},"geometry":{"type":"Polygon","coordinates":[[[136.23834,35.72515],[136.2386,35.72505],[136.23878,35.72498],[136.23879,35.72496],[136.23867,35.7247],[136.23845,35.72464],[136.23813,35.72471],[136.23834,35.72515]]]}},{"type":"Feature","properties":{"pid":"9a00b85b-f5dc-432e-b5c4-210340cd6e71","full":12.6},"geometry":{"type":"Polygon","coordinates":[[[136.23751,35.72541],[136.23753,35.72541],[136.23789,35.72529],[136.2379,35.72528],[136.2377,35.72485],[136.23768,35.72484],[136.2373,35.72492],[136.23729,35.72494],[136.23751,35.72541]]]}},{"type":"Feature","properties":{"pid":"0065583b-3ed7-4c07-adb6-099c2d865048","full":11.5},"geometry":{"type":"Polygon","coordinates":[[[136.23792,35.72526],[136.23795,35.72526],[136.23831,35.72515],[136.23813,35.72475],[136.23801,35.72475],[136.23773,35.72482],[136.23772,35.72484],[136.23792,35.72526]]]}},{"type":"Feature","properties":{"pid":"01e998ac-2d70-42b1-8420-99545229604d","full":2.0},"geometry":{"type":"Polygon","coordinates":[[[136.2371,35.7255],[136.23712,35.72551],[136.23724,35.72549],[136.23703,35.72499],[136.23691,35.725],[136.23686,35.72501],[136.2371,35.7255]]]}},{"type":"Feature","properties":{"pid":"e1f836f0-fea3-4a43-adff-8ca04292fdf4","full":6.0},"geometry":{"type":"Polygon","coordinates":[[[136.23725,35.72548],[136.23749,35.72541],[136.23727,35.72494],[136.23723,35.72494],[136.23703,35.72499],[136.23725,35.72548]]]}},{"type":"Feature","properties":{"pid":"c9cb0084-6fd4-43b4-a09c-eaeaa2a5d4b1","full":10.8},"geometry":{"type":"Polygon","coordinates":[[[136.23613,35.72547],[136.23615,35.72548],[136.23649,35.72555],[136.23658,35.72555],[136.2366,35.72554],[136.23638,35.72507],[136.236,35.72512],[136.23597,35.72513],[136.23613,35.72547]]]}},{"type":"Feature","properties":{"pid":"57005a60-fdd1-4a45-a6e0-3ed2c8251ea7","full":14.3},"geometry":{"type":"Polygon","coordinates":[[[136.23664,35.72556],[136.2367,35.72557],[136.23707,35.72551],[136.23683,35.72502],[136.2368,35.72501],[136.23669,35.72502],[136.2364,35.72506],[136.23664,35.72556]]]}},{"type":"Feature","properties":{"pid":"35e5eadd-ebf7-41a3-980a-ace23ef21669","full":8.9},"geometry":{"type":"Polygon","coordinates":[[[136.23647,35.7249],[136.23651,35.7249],[136.237,35.72485],[136.23733,35.72478],[136.23733,35.72474],[136.23731,35.72473],[136.23681,35.72464],[136.23648,35.72461],[136.23642,35.72462],[136.23641,35.72465],[136.23642,35.72476],[136.23647,35.7249]]]}},{"type":"Feature","properties":{"pid":"b7860e10-8553-4613-9452-dbe618b0f5a6","full":5.8},"geometry":{"type":"Polygon","coordinates":[[[136.23261,35.726],[136.23276,35.72591],[136.23277,35.72589],[136.23235,35.72538],[136.23227,35.72539],[136.23216,35.72546],[136.23261,35.726]]]}},{"type":"Feature","properties":{"pid":"93b85c65-db2d-46db-85b2-5918c942bb90","full":16.0},"geometry":{"type":"Polygon","coordinates":[[[136.23279,35.72589],[136.23314,35.72571],[136.23316,35.7257],[136.23279,35.72526],[136.23263,35.72529],[136.23248,35.72535],[136.23236,35.72537],[136.23279,35.72589]]]}},{"type":"Feature","properties":{"pid":"1fdf663e-a2ae-4534-86be-6a307e724335","full":18.1},"geometry":{"type":"Polygon","coordinates":[[[136.23351,35.7255],[136.23358,35.72551],[136.23383,35.72541],[136.23383,35.72539],[136.23385,35.72538],[136.23371,35.72491],[136.23363,35.72492],[136.23316,35.72496],[136.23314,35.72498],[136.2331,35.72501],[136.23351,35.7255]]]}},{"type":"Feature","properties":{"pid":"8051536b-5196-4b69-978f-b0f8477c3b8b","full":12.1},"geometry":{"type":"Polygon","coordinates":[[[136.23316,35.72569],[136.23319,35.72569],[136.23348,35.72555],[136.23348,35.72552],[136.23308,35.72505],[136.23298,35.72515],[136.2329,35.72522],[136.2328,35.72526],[136.23316,35.72569]]]}},{"type":"Feature","properties":{"pid":"98e5b1b6-28ca-4bfa-b071-22b840d4ddc7","full":13.0},"geometry":{"type":"Polygon","coordinates":[[[136.23468,35.72514],[136.23473,35.72516],[136.23475,35.72518],[136.23508,35.7251],[136.2351,35.72508],[136.23497,35.72464],[136.23473,35.72465],[136.23464,35.72468],[136.23454,35.72471],[136.23468,35.72514]]]}},{"type":"Feature","properties":{"pid":"6368735d-1a88-4ef2-acb2-02b65b2fba35","full":11.2},"geometry":{"type":"Polygon","coordinates":[[[136.2343,35.72528],[136.23465,35.72519],[136.23466,35.72517],[136.23453,35.72472],[136.23415,35.72481],[136.2343,35.72528]]]}},{"type":"Feature","properties":{"pid":"84c9a43e-7b79-4ef7-8e43-3d4a80c4598f","full":12.6},"geometry":{"type":"Polygon","coordinates":[[[136.23386,35.72537],[136.23389,35.72538],[136.23391,35.72539],[136.23428,35.72529],[136.23414,35.72482],[136.23403,35.72486],[136.23395,35.72488],[136.23373,35.72491],[136.23386,35.72537]]]}},{"type":"Feature","properties":{"pid":"dff0a742-5854-4892-ad65-6f669c194b12","full":11.5},"geometry":{"type":"Polygon","coordinates":[[[136.23514,35.72509],[136.23516,35.7251],[136.23555,35.72503],[136.23556,35.72501],[136.23545,35.72466],[136.2352,35.72462],[136.23508,35.72461],[136.23501,35.72463],[136.23514,35.72509]]]}},{"type":"Feature","properties":{"pid":"afeeec01-cbbc-4826-a8ba-2f9466bdcddd","full":1.2},"geometry":{"type":"Polygon","coordinates":[[[136.23558,35.72503],[136.23572,35.72501],[136.23562,35.72466],[136.23546,35.72466],[136.23557,35.72501],[136.23558,35.72503]]]}},{"type":"Feature","properties":{"pid":"b30fa89d-9606-4b9e-8259-acfca2378633","full":3.7},"geometry":{"type":"Polygon","coordinates":[[[136.23574,35.72501],[136.23596,35.72498],[136.23596,35.72495],[136.23599,35.72495],[136.2359,35.7247],[136.23587,35.72468],[136.23581,35.72467],[136.23563,35.72466],[136.23574,35.72501]]]}},{"type":"Feature","properties":{"pid":"0ace897e-788d-4229-a1be-e67c4c7d3661","full":3.7},"geometry":{"type":"Polygon","coordinates":[[[136.23602,35.72497],[136.23609,35.72497],[136.23636,35.72493],[136.23641,35.7249],[136.23639,35.7248],[136.23637,35.72478],[136.23594,35.72469],[136.23594,35.72472],[136.23602,35.72497]]]}},{"type":"Feature","properties":{"pid":"dcf2bb8b-b239-40ec-bd1f-1fd2b6e14b52","full":1.9},"geometry":{"type":"Polygon","coordinates":[[[136.23587,35.72543],[136.23608,35.72546],[136.23609,35.72546],[136.23594,35.72514],[136.2359,35.72513],[136.23575,35.72516],[136.23587,35.72543]]]}},{"type":"Feature","properties":{"pid":"2e7d2a24-4067-40ae-b886-f7a233ca5843","full":4.7},"geometry":{"type":"Polygon","coordinates":[[[136.23506,35.72528],[136.23511,35.72532],[136.23518,35.72534],[136.23587,35.72544],[136.23574,35.72516],[136.23508,35.72526],[136.23506,35.72528]]]}},{"type":"Feature","properties":{"pid":"3c896774-6fc4-444b-976f-6a149bb98ca6","full":4.0},"geometry":{"type":"Polygon","coordinates":[[[136.23601,35.72628],[136.23606,35.72628],[136.23615,35.72624],[136.23628,35.72615],[136.23645,35.726],[136.23647,35.72595],[136.23609,35.72592],[136.23607,35.72593],[136.23601,35.72628]]]}},{"type":"Feature","properties":{"pid":"d38d07d8-d205-4b3c-a5f4-e9ce8dc40d6a","full":9.9},"geometry":{"type":"Polygon","coordinates":[[[136.23558,35.72621],[136.2358,35.72628],[136.23596,35.72628],[136.23599,35.72627],[136.23605,35.72592],[136.23605,35.72591],[136.23585,35.72587],[136.23567,35.72583],[136.23564,35.72585],[136.23556,35.7262],[136.23558,35.72621]]]}},{"type":"Feature","properties":{"pid":"ff7a4982-a02a-4d69-b0e5-6b1c7768d3d3","full":9.6},"geometry":{"type":"Polygon","coordinates":[[[136.23513,35.72618],[136.23543,35.72617],[136.23555,35.7262],[136.23561,35.72585],[136.23559,35.72584],[136.23558,35.72581],[136.23522,35.72573],[136.2352,35.72574],[136.23513,35.72617],[136.23513,35.72618]]]}},{"type":"Feature","properties":{"pid":"e163ecb4-57c7-4585-bdb5-7df4508efab0","full":14.8},"geometry":{"type":"Polygon","coordinates":[[[136.23448,35.7263],[136.23485,35.72619],[136.23487,35.72618],[136.23457,35.72571],[136.23447,35.7257],[136.23434,35.72572],[136.23415,35.72578],[136.23448,35.7263]]]}},{"type":"Feature","properties":{"pid":"9678fbec-5cf6-4100-8034-48ad694aa951","full":11.6},"geometry":{"type":"Polygon","coordinates":[[[136.23491,35.72618],[136.23511,35.72618],[136.23518,35.72577],[136.23516,35.72575],[136.23515,35.72573],[136.23494,35.72569],[136.23479,35.72568],[136.23459,35.72569],[136.23457,35.72569],[136.23491,35.72618]]]}},{"type":"Feature","properties":{"pid":"9b091137-be7e-4532-91cc-9679a36f573d","full":15.0},"geometry":{"type":"Polygon","coordinates":[[[136.23406,35.72642],[136.23444,35.72632],[136.23446,35.72631],[136.23413,35.72579],[136.2341,35.72579],[136.23375,35.72593],[136.23406,35.72642]]]}},{"type":"Feature","properties":{"pid":"78cc568d-f8f3-4b9d-bdc1-759a572ece1b","full":12.5},"geometry":{"type":"Polygon","coordinates":[[[136.23366,35.72657],[136.23368,35.72657],[136.23382,35.72646],[136.23387,35.72644],[136.23393,35.72642],[136.23401,35.72641],[136.23402,35.72641],[136.23373,35.72596],[136.23369,35.72596],[136.23346,35.72605],[136.23337,35.72612],[136.23366,35.72657]]]}},{"type":"Feature","properties":{"pid":"f36c6aa4-87c8-4924-a0df-98ada4eb6042","full":12.9},"geometry":{"type":"Polygon","coordinates":[[[136.2331,35.72671],[136.23316,35.72672],[136.23331,35.72674],[136.23338,35.72674],[136.23362,35.72663],[136.23363,35.72659],[136.23335,35.72614],[136.23331,35.72616],[136.2332,35.72628],[136.23313,35.7264],[136.2331,35.7265],[136.23307,35.72662],[136.2331,35.72671]]]}},{"type":"Feature","properties":{"pid":"b98868ba-5c98-4b4a-bdd5-e55ce0f19d36","full":5.7},"geometry":{"type":"Polygon","coordinates":[[[136.23244,35.72611],[136.23261,35.726],[136.23215,35.72547],[136.23199,35.72557],[136.23244,35.72611]]]}},{"type":"Feature","properties":{"pid":"3f75c779-e7e2-4086-bc38-c493da00f0de","full":19.0},"geometry":{"type":"Polygon","coordinates":[[[136.23211,35.72633],[136.2324,35.72612],[136.23237,35.72609],[136.23238,35.72607],[136.23198,35.72557],[136.23189,35.72561],[136.23183,35.72561],[136.23177,35.72564],[136.23168,35.7257],[136.2316,35.72573],[136.23161,35.72576],[136.23208,35.72631],[136.23211,35.72633]]]}},{"type":"Feature","properties":{"pid":"af5996cf-1490-47ee-88bf-81c2952d5202","full":3.1},"geometry":{"type":"Polygon","coordinates":[[[136.23198,35.72642],[136.2321,35.72634],[136.23158,35.72574],[136.2315,35.72573],[136.23142,35.72577],[136.23198,35.72642]]]}},{"type":"Feature","properties":{"pid":"a857e9b9-826a-4f6b-9864-ff829f44ad0e","full":10.3},"geometry":{"type":"Polygon","coordinates":[[[136.23177,35.72657],[136.23196,35.72643],[136.23196,35.72641],[136.23142,35.72577],[136.23141,35.72577],[136.23137,35.7258],[136.23134,35.72585],[136.23133,35.7259],[136.23133,35.72606],[136.23177,35.72657]]]}},{"type":"Feature","properties":{"pid":"b9b2cdf2-e7d7-4edc-883d-e2d490972fc8","full":5.5},"geometry":{"type":"Polygon","coordinates":[[[136.23161,35.72666],[136.23171,35.72658],[136.23169,35.72655],[136.23171,35.72654],[136.23133,35.72608],[136.2313,35.72617],[136.23115,35.7263],[136.23161,35.72666]]]}},{"type":"Feature","properties":{"pid":"d33b525c-4764-4108-bcd9-4a23a965c698","full":13.4},"geometry":{"type":"Polygon","coordinates":[[[136.23075,35.72656],[136.23139,35.72686],[136.23161,35.72667],[136.23114,35.72631],[136.23097,35.72646],[136.23085,35.72642],[136.23078,35.7265],[136.23075,35.72656]]]}},{"type":"Feature","properties":{"pid":"d0de300d-534a-4d02-a5f6-07c11566a559","full":5.7},"geometry":{"type":"Polygon","coordinates":[[[136.23195,35.72662],[136.23212,35.72676],[136.23214,35.72676],[136.2323,35.72661],[136.23246,35.72639],[136.23267,35.72615],[136.23263,35.72611],[136.23199,35.72653],[136.23198,35.72655],[136.23201,35.72658],[136.23195,35.72662]]]}},{"type":"Feature","properties":{"pid":"00648a4e-d18d-497b-84bf-1973db48d4a4","full":15.1},"geometry":{"type":"Polygon","coordinates":[[[136.23135,35.72716],[136.2317,35.72734],[136.23204,35.72683],[136.23204,35.72679],[136.23188,35.72666],[136.23183,35.72667],[136.23164,35.7268],[136.23152,35.72692],[136.23142,35.72703],[136.23134,35.72713],[136.23135,35.72716]]]}},{"type":"Feature","properties":{"pid":"35d4d9b0-c23c-457f-af5f-91c1d1b9efc0","full":16.8},"geometry":{"type":"Polygon","coordinates":[[[136.23103,35.72764],[136.23151,35.72788],[136.23163,35.72755],[136.23168,35.72735],[136.23134,35.72718],[136.23132,35.72719],[136.23103,35.72764]]]}},{"type":"Feature","properties":{"pid":"864d24d4-e9d8-4159-862a-1e8e7c9e85b5","full":14.0},"geometry":{"type":"Polygon","coordinates":[[[136.2308,35.72795],[136.23144,35.72827],[136.23145,35.72825],[136.23146,35.72809],[136.23147,35.72803],[136.2315,35.72789],[136.23103,35.72765],[136.231,35.72767],[136.2308,35.72795]]]}},{"type":"Feature","properties":{"pid":"7887c3ef-a14c-4b7c-809f-f766ab22d63a","full":1.5},"geometry":{"type":"Polygon","coordinates":[[[136.22671,35.73152],[136.22675,35.73152],[136.22746,35.73126],[136.22745,35.73118],[136.22737,35.73118],[136.22728,35.7312],[136.22667,35.73144],[136.22671,35.73152]]]}},{"type":"Feature","properties":{"pid":"45f60974-3cba-42ed-99d7-8178e00b6f29","full":0.6},"geometry":{"type":"Polygon","coordinates":[[[136.22731,35.7318],[136.22746,35.73179],[136.22751,35.73176],[136.22753,35.73167],[136.22715,35.73168],[136.22722,35.73177],[136.22731,35.7318]]]}},{"type":"Feature","properties":{"pid":"f05b20b7-3a75-47ae-a42c-9406270e6a13","full":2.3},"geometry":{"type":"Polygon","coordinates":[[[136.22715,35.73167],[136.22752,35.73167],[136.22754,35.73166],[136.22752,35.73151],[136.22748,35.7315],[136.22739,35.73148],[136.22738,35.73146],[136.22711,35.73157],[136.22715,35.73167]]]}},{"type":"Feature","properties":{"pid":"fdc82204-f9eb-474e-b9d7-c10df3ed71b2","full":0.6},"geometry":{"type":"Polygon","coordinates":[[[136.2292,35.73221],[136.22931,35.73227],[136.22941,35.7323],[136.22947,35.73217],[136.22925,35.7321],[136.2292,35.73221]]]}},{"type":"Feature","properties":{"pid":"0b65c3f9-284c-4ed8-8a06-896387cfc26d","full":3.0},"geometry":{"type":"Polygon","coordinates":[[[136.22964,35.73235],[136.22976,35.73237],[136.22995,35.73238],[136.23,35.73235],[136.22998,35.73215],[136.22966,35.73217],[136.22961,35.73229],[136.22964,35.73235]]]}},{"type":"Feature","properties":{"pid":"6458a007-99cf-4c02-918b-652028027990","full":20.1},"geometry":{"type":"Polygon","coordinates":[[[136.2288,35.7311],[136.22897,35.73127],[136.22901,35.73125],[136.22907,35.73128],[136.22938,35.73104],[136.22888,35.73059],[136.22885,35.7306],[136.22867,35.73073],[136.22853,35.73086],[136.22851,35.73088],[136.2288,35.7311]]]}},{"type":"Feature","properties":{"pid":"ecfde194-56aa-49ce-bc87-b95732979fbd","full":15.1},"geometry":{"type":"Polygon","coordinates":[[[136.22921,35.73034],[136.22969,35.73076],[136.22971,35.73075],[136.22976,35.73068],[136.22985,35.73062],[136.22988,35.73053],[136.22993,35.73046],[136.22951,35.73009],[136.22949,35.73009],[136.22935,35.73018],[136.22922,35.7303],[136.22922,35.73032],[136.22921,35.73034]]]}},{"type":"Feature","properties":{"pid":"2d36b182-1537-48bd-803b-96d46a1073e0","full":17.1},"geometry":{"type":"Polygon","coordinates":[[[136.2289,35.73059],[136.22939,35.73103],[136.2297,35.73081],[136.2297,35.73078],[136.22919,35.73034],[136.22917,35.73034],[136.2289,35.73057],[136.2289,35.73059]]]}},{"type":"Feature","properties":{"pid":"7380b35c-a248-4fe0-8851-d9e78eb60bfa","full":11.1},"geometry":{"type":"Polygon","coordinates":[[[136.22954,35.73008],[136.22954,35.7301],[136.22994,35.73045],[136.23004,35.73036],[136.23014,35.7303],[136.23029,35.73026],[136.22995,35.72995],[136.22993,35.72994],[136.22979,35.72998],[136.22958,35.73005],[136.22954,35.73008]]]}},{"type":"Feature","properties":{"pid":"72946e94-f447-483c-8a47-8bb1eff623c6","full":9.9},"geometry":{"type":"Polygon","coordinates":[[[136.2303,35.73025],[136.23033,35.73025],[136.23043,35.73019],[136.23061,35.73005],[136.23062,35.73002],[136.23034,35.72977],[136.23018,35.72984],[136.22997,35.72992],[136.22995,35.72994],[136.2303,35.73025]]]}},{"type":"Feature","properties":{"pid":"e62d50e6-d738-474d-9794-7b26e500969f","full":2.9},"geometry":{"type":"Polygon","coordinates":[[[136.22688,35.72952],[136.22699,35.72961],[136.22705,35.72961],[136.2271,35.72958],[136.22721,35.72943],[136.22724,35.72928],[136.22704,35.72926],[136.22703,35.72937],[136.22692,35.72934],[136.22692,35.72942],[136.22688,35.72952]]]}},{"type":"Feature","properties":{"pid":"0b1d88ce-6f82-4f44-9789-363368c65cdb","full":2.1},"geometry":{"type":"Polygon","coordinates":[[[136.22493,35.73114],[136.22504,35.73115],[136.22511,35.73112],[136.22515,35.73111],[136.22516,35.73109],[136.22517,35.73098],[136.22523,35.73095],[136.2252,35.7308],[136.22498,35.73083],[136.22499,35.73105],[136.22498,35.73108],[136.22494,35.73109],[136.22493,35.73114]]]}},{"type":"Feature","properties":{"pid":"e7a28c66-4c9e-4ad2-9b4c-590b6d38c369","full":8.7},"geometry":{"type":"Polygon","coordinates":[[[136.2253,35.73087],[136.22539,35.73087],[136.2257,35.73084],[136.22571,35.73068],[136.22573,35.73059],[136.22572,35.73058],[136.22559,35.73058],[136.22557,35.73054],[136.22538,35.73055],[136.22536,35.73052],[136.22519,35.73054],[136.22518,35.73063],[136.22524,35.73083],[136.2253,35.73087]]]}},{"type":"Feature","properties":{"pid":"74c7bf26-09f6-40bd-a911-4e79c0967788","full":0.8},"geometry":{"type":"Polygon","coordinates":[[[136.22488,35.73132],[136.22522,35.73129],[136.22521,35.73126],[136.22514,35.73114],[136.22505,35.73117],[136.22494,35.73116],[136.22488,35.73129],[136.22488,35.73132]]]}},{"type":"Feature","properties":{"pid":"19a52fa8-2c6b-4494-a01c-8cc07d6ca050","full":0.9},"geometry":{"type":"Polygon","coordinates":[[[136.22574,35.72896],[136.22584,35.72873],[136.22576,35.72869],[136.22561,35.7288],[136.2255,35.72887],[136.22574,35.72896]]]}},{"type":"Feature","properties":{"pid":"69e97d77-bb71-469f-bc00-81d811db9bcb","full":6.1},"geometry":{"type":"Polygon","coordinates":[[[136.22519,35.72937],[136.22521,35.72938],[136.22541,35.72942],[136.22566,35.72908],[136.22567,35.72905],[136.22541,35.72897],[136.22534,35.72901],[136.22528,35.72908],[136.22526,35.72916],[136.22525,35.72927],[136.22519,35.72937]]]}},{"type":"Feature","properties":{"pid":"9d2b4de1-19e1-48ab-ae08-4b9de2953e7a","full":8.7},"geometry":{"type":"Polygon","coordinates":[[[136.22672,35.72915],[136.22702,35.72921],[136.22725,35.72923],[136.22727,35.72922],[136.22733,35.72912],[136.22736,35.72901],[136.22736,35.72898],[136.22679,35.72889],[136.22677,35.7289],[136.22672,35.72915]]]}},{"type":"Feature","properties":{"pid":"13319bf2-7414-412f-8367-00b91f6b7990","full":7.9},"geometry":{"type":"Polygon","coordinates":[[[136.22683,35.72863],[136.22678,35.72888],[136.22737,35.72897],[136.22739,35.72886],[136.2274,35.72874],[136.22739,35.72872],[136.22683,35.72863]]]}},{"type":"Feature","properties":{"pid":"c141ac72-bf0b-4bf7-8dcf-627a4c49d918","full":8.2},"geometry":{"type":"Polygon","coordinates":[[[136.22684,35.72861],[136.22741,35.7287],[136.22743,35.72869],[136.22746,35.7286],[136.22746,35.72856],[136.22745,35.72845],[136.22744,35.72845],[136.22689,35.72837],[136.22687,35.72838],[136.22683,35.7286],[136.22684,35.72861]]]}},{"type":"Feature","properties":{"pid":"efa8f2a9-cf30-4168-9b28-68939f2e68cf","full":4.8},"geometry":{"type":"Polygon","coordinates":[[[136.22661,35.72915],[136.22672,35.72864],[136.22671,35.72862],[136.22651,35.72859],[136.22646,35.72867],[136.22632,35.72885],[136.22649,35.72893],[136.22651,35.72895],[136.22648,35.72901],[136.22651,35.72905],[136.2265,35.72913],[136.22661,35.72915]]]}},{"type":"Feature","properties":{"pid":"b40462b7-9462-4410-b7c0-195c56528536","full":10.9},"geometry":{"type":"Polygon","coordinates":[[[136.22621,35.728],[136.22658,35.72789],[136.2267,35.72783],[136.22681,35.72772],[136.22642,35.72747],[136.22639,35.72756],[136.22613,35.72779],[136.22616,35.72783],[136.22616,35.72785],[136.22613,35.72792],[136.22613,35.72801],[136.22621,35.728]]]}},{"type":"Feature","properties":{"pid":"c964cafb-f9c4-48b2-a06f-c324ca558b62","full":3.5},"geometry":{"type":"Polygon","coordinates":[[[136.22696,35.72809],[136.22735,35.72815],[136.22739,35.72814],[136.22733,35.72805],[136.22731,35.728],[136.22733,35.72784],[136.22735,35.72779],[136.2272,35.72778],[136.22719,35.72779],[136.22706,35.72794],[136.22696,35.72809]]]}},{"type":"Feature","properties":{"pid":"5cf1e3f7-412c-429d-90c4-ae2ccb865964","full":7.8},"geometry":{"type":"Polygon","coordinates":[[[136.2269,35.72834],[136.22692,35.72835],[136.22745,35.72843],[136.22749,35.72833],[136.22749,35.72829],[136.22748,35.72824],[136.22743,35.72817],[136.22695,35.72809],[136.22693,35.72813],[136.2269,35.72834]]]}},{"type":"Feature","properties":{"pid":"086cb8c8-0a54-47e0-89fa-b408c9696631","full":9.6},"geometry":{"type":"Polygon","coordinates":[[[136.2302,35.72918],[136.2303,35.72924],[136.23034,35.72924],[136.23084,35.72896],[136.23086,35.72893],[136.23055,35.72875],[136.23047,35.72871],[136.23044,35.72874],[136.23043,35.7288],[136.23039,35.72886],[136.23033,35.72892],[136.23024,35.72902],[136.23021,35.72907],[136.2302,35.72918]]]}},{"type":"Feature","properties":{"pid":"326dba4b-e565-4c1c-a8fd-811c2f0c1696","full":12.2},"geometry":{"type":"Polygon","coordinates":[[[136.23055,35.72866],[136.23089,35.72886],[136.23091,35.72887],[136.23094,35.72887],[136.23103,35.72879],[136.23118,35.72864],[136.23122,35.72859],[136.23061,35.72828],[136.23057,35.72836],[136.23061,35.72838],[136.23063,35.72841],[136.23063,35.72845],[136.23055,35.72864],[136.23055,35.72866]]]}},{"type":"Feature","properties":{"pid":"a6425ff2-4011-46ee-bccd-3adc5d092e43","full":10.9},"geometry":{"type":"Polygon","coordinates":[[[136.2304,35.72836],[136.2306,35.728],[136.23056,35.72799],[136.23057,35.72796],[136.23012,35.72775],[136.23007,35.7279],[136.23007,35.72794],[136.23013,35.72808],[136.23014,35.72815],[136.23017,35.72821],[136.23021,35.72825],[136.23027,35.72833],[136.23036,35.72836],[136.2304,35.72836]]]}},{"type":"Feature","properties":{"pid":"de9546cf-983f-4d0e-827b-2e71f62957a2","full":16.4},"geometry":{"type":"Polygon","coordinates":[[[136.23062,35.72828],[136.23123,35.72859],[136.23125,35.72858],[136.23137,35.7284],[136.23143,35.72828],[136.2308,35.72797],[136.23072,35.72808],[136.23062,35.72828]]]}},{"type":"Feature","properties":{"pid":"da1b5c82-3802-4f49-9d0f-43954228a75b","full":12.8},"geometry":{"type":"Polygon","coordinates":[[[136.23012,35.72774],[136.23058,35.72795],[136.2306,35.72794],[136.23063,35.72795],[136.23079,35.72767],[136.23076,35.72765],[136.23075,35.72764],[136.23024,35.7274],[136.23019,35.7275],[136.23012,35.72774]]]}},{"type":"Feature","properties":{"pid":"5002ceba-287b-4d5d-af29-aa22fce691a4","full":14.2},"geometry":{"type":"Polygon","coordinates":[[[136.23025,35.72738],[136.2308,35.72765],[136.231,35.72736],[136.23094,35.72733],[136.23094,35.7273],[136.23049,35.72709],[136.23044,35.72715],[136.23038,35.72718],[136.23027,35.72729],[136.23025,35.72738]]]}},{"type":"Feature","properties":{"pid":"2f8ecb1a-096d-4191-aa1c-6def856efbde","full":14.1},"geometry":{"type":"Polygon","coordinates":[[[136.23049,35.72708],[136.23094,35.72729],[136.23096,35.72728],[136.23103,35.7273],[136.23122,35.72702],[136.23064,35.72675],[136.23052,35.72694],[136.23049,35.72708]]]}},{"type":"Feature","properties":{"pid":"292c9f1e-3722-4202-9b10-a51b37e47095","full":5.4},"geometry":{"type":"Polygon","coordinates":[[[136.23066,35.72674],[136.23124,35.72702],[136.23134,35.72688],[136.23131,35.72687],[136.23133,35.72685],[136.23074,35.72657],[136.23072,35.72659],[136.2307,35.72662],[136.23068,35.72666],[136.23066,35.72674]]]}},{"type":"Feature","properties":{"pid":"e0feb557-b5d5-4176-a876-39e42a7241e2","full":1.8},"geometry":{"type":"Polygon","coordinates":[[[136.22738,35.72743],[136.22754,35.72745],[136.22756,35.72743],[136.22761,35.7273],[136.22761,35.7272],[136.22737,35.72717],[136.22738,35.72734],[136.22738,35.72743]]]}},{"type":"Feature","properties":{"pid":"768028a2-ba1d-4205-93db-9c2eb401467d","full":7.8},"geometry":{"type":"Polygon","coordinates":[[[136.22643,35.72746],[136.22682,35.72771],[136.22701,35.72755],[136.22702,35.72751],[136.22657,35.72723],[136.22646,35.72731],[136.22643,35.72735],[136.22642,35.7274],[136.22643,35.72746]]]}},{"type":"Feature","properties":{"pid":"1d39c47f-2901-48e1-a7c6-71fbbc5960fc","full":5.2},"geometry":{"type":"Polygon","coordinates":[[[136.22659,35.72722],[136.22703,35.7275],[136.22705,35.72744],[136.22705,35.72724],[136.22704,35.72709],[136.22701,35.72694],[136.22693,35.72692],[136.2269,35.72701],[136.22694,35.72702],[136.22692,35.72706],[136.22689,35.72709],[136.22678,35.72713],[136.22659,35.72722]]]}}],"precision":5}