{"type":"FeatureCollection","features":[{"type":"Feature","properties":{"pid":"4fb8a894-0a59-4b16-99bc-beaa1cf75ac8","full":1.1},"geometry":{"type":"Polygon","coordinates":[[[136.28723,35.8541],[136.28712,35.85415],[136.28712,35.85417],[136.28731,35.85441],[136.28733,35.85441],[136.28745,35.85435],[136.28725,35.8541],[136.28723,35.8541]]]}},{"type":"Feature","properties":{"pid":"ff6aeaad-b7a9-42bb-bee1-903a7cf5ba6f","full":1.1},"geometry":{"type":"Polygon","coordinates":[[[136.28692,35.854],[136.28699,35.85405],[136.28702,35.85409],[136.2871,35.85414],[136.28724,35.85407],[136.2871,35.85389],[136.28691,35.85398],[136.28692,35.854]]]}},{"type":"Feature","properties":{"pid":"6c4a7a2c-3bc8-4207-ab0e-4a7b9a348732","full":1.6},"geometry":{"type":"Polygon","coordinates":[[[136.28715,35.85386],[136.28726,35.85402],[136.28729,35.85403],[136.28749,35.85393],[136.28735,35.85376],[136.28715,35.85386]]]}},{"type":"Feature","properties":{"pid":"39c3d345-67a7-4b43-b7f0-c3e7f86b923a","full":0.9},"geometry":{"type":"Polygon","coordinates":[[[136.28679,35.85382],[136.28678,35.85384],[136.28689,35.85396],[136.28691,35.85396],[136.28708,35.85388],[136.28698,35.85376],[136.28697,35.85376],[136.28695,35.85374],[136.28679,35.85382]]]}},{"type":"Feature","properties":{"pid":"b4538a85-2d22-40f1-ba2e-21afd305ae28","full":1.1},"geometry":{"type":"Polygon","coordinates":[[[136.28693,35.85358],[136.28693,35.85359],[136.28704,35.85373],[136.28706,35.85373],[136.28724,35.85363],[136.28724,35.85362],[136.28713,35.85349],[136.28693,35.85358]]]}},{"type":"Feature","properties":{"pid":"ade9f1b7-aa56-4ce8-bf48-f7fbfdc892b6","full":0.5},"geometry":{"type":"Polygon","coordinates":[[[136.28706,35.85374],[136.28706,35.85376],[136.28712,35.85384],[136.28714,35.85385],[136.28735,35.85374],[136.28726,35.85364],[136.28706,35.85374]]]}},{"type":"Feature","properties":{"pid":"0c6bb98c-7580-406b-962a-8b242f3d47e7","full":1.4},"geometry":{"type":"Polygon","coordinates":[[[136.28713,35.85329],[136.28696,35.85339],[136.28691,35.85335],[136.2868,35.8534],[136.28679,35.85342],[136.28691,35.85356],[136.28715,35.85345],[136.28718,35.85349],[136.28722,35.85347],[136.28717,35.85341],[136.2872,35.85338],[136.28713,35.85329]]]}},{"type":"Feature","properties":{"pid":"01dc6687-979c-4659-a271-dac4a94e29c3","full":1.5},"geometry":{"type":"Polygon","coordinates":[[[136.28637,35.85337],[136.2865,35.85353],[136.28672,35.85341],[136.28661,35.85327],[136.28658,35.85328],[136.28657,35.85327],[136.28637,35.85337]]]}},{"type":"Feature","properties":{"pid":"68d418fe-a08e-4852-8dfe-a700d3c3871f","full":1.2},"geometry":{"type":"Polygon","coordinates":[[[136.28648,35.85362],[136.28649,35.85364],[136.28659,35.85372],[136.28663,35.85372],[136.28686,35.8536],[136.28686,35.85359],[136.28678,35.85349],[136.28675,35.85349],[136.28648,35.85362]]]}},{"type":"Feature","properties":{"pid":"3dde2477-aad7-4404-911b-23c35bd879ec","full":0.6},"geometry":{"type":"Polygon","coordinates":[[[136.28661,35.85375],[136.28663,35.85377],[136.28671,35.85379],[136.28676,35.85382],[136.28678,35.85382],[136.28695,35.85373],[136.28696,35.85372],[136.28688,35.85362],[136.28687,35.85362],[136.28661,35.85375]]]}},{"type":"Feature","properties":{"pid":"fa6c780d-49e2-4d3c-af5c-8e7dadfb6825","full":0.8},"geometry":{"type":"Polygon","coordinates":[[[136.28391,35.8504],[136.28375,35.85031],[136.28374,35.85032],[136.28366,35.85053],[136.28367,35.85054],[136.28374,35.85058],[136.28375,35.85055],[136.28384,35.85054],[136.28391,35.8504]]]}},{"type":"Feature","properties":{"pid":"9eb480ec-e275-410f-aa8b-b2aa180e55ea","full":3.6},"geometry":{"type":"Polygon","coordinates":[[[136.2838,35.85022],[136.28381,35.85025],[136.28403,35.85039],[136.28406,35.85037],[136.28419,35.85023],[136.28419,35.8502],[136.28407,35.85006],[136.28392,35.85008],[136.28389,35.85009],[136.2838,35.85022]]]}},{"type":"Feature","properties":{"pid":"8a6cc3ac-1be1-4abb-96c5-7ce5a6c6c0db","full":0.8},"geometry":{"type":"Polygon","coordinates":[[[136.28351,35.85001],[136.28353,35.85005],[136.28361,35.85013],[136.28376,35.85021],[136.28385,35.85007],[136.28362,35.84998],[136.28351,35.85001]]]}},{"type":"Feature","properties":{"pid":"f58c4c89-a940-4bb9-a035-16e9b68ca045","full":1.2},"geometry":{"type":"Polygon","coordinates":[[[136.28606,35.85207],[136.28606,35.85208],[136.28623,35.85229],[136.28626,35.85231],[136.28638,35.85224],[136.28638,35.85222],[136.28629,35.8521],[136.28632,35.85207],[136.28625,35.852],[136.28614,35.85206],[136.28612,35.85204],[136.2861,35.85204],[136.28606,35.85207]]]}},{"type":"Feature","properties":{"pid":"594d19cc-56cc-4fc0-85ce-20c86bac1132","full":1.4},"geometry":{"type":"Polygon","coordinates":[[[136.28621,35.85186],[136.28627,35.85196],[136.2863,35.85195],[136.28638,35.85192],[136.2864,35.85189],[136.28657,35.8518],[136.28657,35.85177],[136.28648,35.85165],[136.28629,35.85176],[136.2863,35.85181],[136.28621,35.85185],[136.28621,35.85186]]]}},{"type":"Feature","properties":{"pid":"2d119343-4693-4e7b-8350-edee4706cb33","full":2.2},"geometry":{"type":"Polygon","coordinates":[[[136.28541,35.85223],[136.28542,35.85225],[136.28551,35.85232],[136.28552,35.85233],[136.28558,35.85237],[136.2856,35.85237],[136.28578,35.85226],[136.2858,35.8523],[136.28584,35.85227],[136.2858,35.85224],[136.2858,35.8522],[136.28573,35.8521],[136.28569,35.85209],[136.28541,35.85223]]]}},{"type":"Feature","properties":{"pid":"68e2bb63-1d01-474b-979d-0643a0073448","full":2.4},"geometry":{"type":"Polygon","coordinates":[[[136.28574,35.85195],[136.28577,35.852],[136.28574,35.85201],[136.28574,35.85203],[136.28582,35.85213],[136.28584,35.85214],[136.28589,35.85223],[136.28591,35.85224],[136.28609,35.85215],[136.28586,35.85186],[136.28573,35.85191],[136.28574,35.85195]]]}},{"type":"Feature","properties":{"pid":"5584e15d-9e2c-488d-8824-792479ea1151","full":1.5},"geometry":{"type":"Polygon","coordinates":[[[136.2861,35.85297],[136.28619,35.85316],[136.28644,35.85304],[136.28638,35.85298],[136.28635,35.85297],[136.28632,35.85291],[136.28627,35.85289],[136.28612,35.85296],[136.2861,35.85297]]]}},{"type":"Feature","properties":{"pid":"c979beda-803f-4aa0-b9b6-dacb02a31274","full":0.9},"geometry":{"type":"Polygon","coordinates":[[[136.28674,35.85287],[136.28698,35.85295],[136.28709,35.85287],[136.28711,35.85284],[136.28693,35.85276],[136.28689,35.85278],[136.28675,35.85286],[136.28674,35.85287]]]}},{"type":"Feature","properties":{"pid":"ced7b325-24b4-4cfc-95c7-a651e7638125","full":2.4},"geometry":{"type":"Polygon","coordinates":[[[136.28666,35.85325],[136.28677,35.85339],[136.28708,35.85323],[136.28694,35.85308],[136.28672,35.85319],[136.28667,35.85322],[136.28666,35.85325]]]}},{"type":"Feature","properties":{"pid":"81986584-66cd-4a50-a786-a89077a4c776","full":0.9},"geometry":{"type":"Polygon","coordinates":[[[136.28808,35.85256],[136.28816,35.85263],[136.28831,35.85272],[136.28838,35.85264],[136.28846,35.85257],[136.28831,35.85252],[136.2881,35.85254],[136.28808,35.85256]]]}},{"type":"Feature","properties":{"pid":"a6756f83-672c-46c3-8c26-ef2198463f7a","full":1.4},"geometry":{"type":"Polygon","coordinates":[[[136.28843,35.85291],[136.28858,35.85282],[136.28858,35.8528],[136.28858,35.85277],[136.28856,35.85276],[136.28855,35.85269],[136.28852,35.85263],[136.28849,35.85261],[136.28833,35.85272],[136.28832,35.85277],[136.28837,35.85284],[136.28843,35.85291]]]}},{"type":"Feature","properties":{"pid":"d6b5627e-f001-4238-992e-8232d0589284","full":0.6},"geometry":{"type":"Polygon","coordinates":[[[136.28816,35.85309],[136.28817,35.85312],[136.28827,35.85318],[136.2884,35.85311],[136.28847,35.85302],[136.28839,35.85296],[136.28816,35.85309]]]}},{"type":"Feature","properties":{"pid":"8e38d4ba-df14-4ca1-b826-d6be7cb89f7d","full":1.4},"geometry":{"type":"Polygon","coordinates":[[[136.28921,35.85304],[136.28932,35.8529],[136.28932,35.85288],[136.28918,35.85277],[136.28913,35.85276],[136.289,35.85285],[136.28901,35.85287],[136.28921,35.85304]]]}},{"type":"Feature","properties":{"pid":"f3558811-0ba5-4ef7-8492-e8d2f0032be1","full":3.1},"geometry":{"type":"Polygon","coordinates":[[[136.28935,35.85287],[136.28953,35.85274],[136.28955,35.8527],[136.28956,35.85251],[136.28953,35.85251],[136.28944,35.85254],[136.28927,35.85265],[136.28919,35.85271],[136.28916,35.85274],[136.28935,35.85287]]]}},{"type":"Feature","properties":{"pid":"73e6e296-04d0-442f-82ce-a4e8de89012f","full":4.9},"geometry":{"type":"Polygon","coordinates":[[[136.28875,35.85284],[136.28884,35.85276],[136.28892,35.85271],[136.28895,35.8527],[136.2888,35.85234],[136.28872,35.85235],[136.28872,35.85243],[136.28871,35.85247],[136.28867,35.85251],[136.2886,35.85254],[136.28853,35.85259],[136.28861,35.85271],[136.28862,35.85277],[136.28866,35.85281],[136.28873,35.85285],[136.28875,35.85284]]]}},{"type":"Feature","properties":{"pid":"6bacadae-a5d5-4a41-8e9a-fa49034205c1","full":10.3},"geometry":{"type":"Polygon","coordinates":[[[136.28909,35.85206],[136.28903,35.85208],[136.2889,35.85216],[136.28872,35.85229],[136.28871,35.85234],[136.28879,35.85231],[136.28898,35.85269],[136.28919,35.85255],[136.28929,35.85248],[136.28909,35.85206]]]}},{"type":"Feature","properties":{"pid":"8ecb1ad2-ecf5-4a91-a68e-5eb75b412ed2","full":6.3},"geometry":{"type":"Polygon","coordinates":[[[136.28927,35.85197],[136.28909,35.85205],[136.28931,35.85248],[136.28962,35.85233],[136.28927,35.85197]]]}},{"type":"Feature","properties":{"pid":"6617626a-cf88-4d89-b6df-e03e83487069","full":15.8},"geometry":{"type":"Polygon","coordinates":[[[136.28967,35.8517],[136.28931,35.85193],[136.28931,35.85194],[136.28963,35.85229],[136.28974,35.85228],[136.28987,35.85219],[136.28996,35.85211],[136.29005,35.85198],[136.28967,35.8517]]]}},{"type":"Feature","properties":{"pid":"d33d24f0-d6d8-4f5c-8abd-0b638b63d678","full":5.3},"geometry":{"type":"Polygon","coordinates":[[[136.2897,35.85167],[136.29005,35.85194],[136.29008,35.85192],[136.29019,35.85172],[136.29017,35.8517],[136.28991,35.8515],[136.28988,35.85151],[136.2897,35.85167]]]}},{"type":"Feature","properties":{"pid":"49b16c76-05b7-4bc8-943c-885a1d161e28","full":11.7},"geometry":{"type":"Polygon","coordinates":[[[136.2902,35.85164],[136.29021,35.85164],[136.2903,35.85153],[136.29045,35.85142],[136.29057,35.85131],[136.29059,35.85127],[136.29057,35.85124],[136.29016,35.85109],[136.29014,35.85109],[136.28993,35.85141],[136.28993,35.85143],[136.2902,35.85164]]]}},{"type":"Feature","properties":{"pid":"9d404795-fa2a-4950-85f0-3dd6433385fe","full":4.3},"geometry":{"type":"Polygon","coordinates":[[[136.29028,35.85078],[136.29029,35.85081],[136.2907,35.85095],[136.29072,35.85094],[136.29075,35.85074],[136.29044,35.85062],[136.29038,35.85061],[136.29036,35.85061],[136.29028,35.85078]]]}},{"type":"Feature","properties":{"pid":"bd36ff7d-6688-45c6-8e0e-8498a1455b66","full":5.5},"geometry":{"type":"Polygon","coordinates":[[[136.29016,35.85104],[136.29017,35.85106],[136.2906,35.85121],[136.29067,35.85113],[136.29072,35.85101],[136.29071,35.85101],[136.29029,35.85084],[136.29026,35.85085],[136.29016,35.85104]]]}},{"type":"Feature","properties":{"pid":"0fdba136-78c9-4cb6-92fd-05fe1bcbe919","full":3.1},"geometry":{"type":"Polygon","coordinates":[[[136.2904,35.85057],[136.29076,35.85069],[136.2908,35.85054],[136.29081,35.85048],[136.29046,35.8504],[136.29044,35.85041],[136.29039,35.85053],[136.2904,35.85057]]]}},{"type":"Feature","properties":{"pid":"3140853b-1f9a-493a-ac44-5e2b19f5be0e","full":11.9},"geometry":{"type":"Polygon","coordinates":[[[136.29054,35.85008],[136.29056,35.85011],[136.29093,35.85019],[136.29095,35.85019],[136.29107,35.85011],[136.29111,35.85007],[136.29113,35.84998],[136.29113,35.84988],[136.29111,35.84983],[136.29066,35.84974],[136.29054,35.85008]]]}},{"type":"Feature","properties":{"pid":"6c3624d2-698c-4226-a3d3-57ed3cc39256","full":4.3},"geometry":{"type":"Polygon","coordinates":[[[136.29046,35.85034],[136.29047,35.85037],[136.29081,35.85045],[136.29085,35.85038],[136.29087,35.8503],[136.29093,35.85026],[136.29093,35.85024],[136.29093,35.85022],[136.29054,35.85013],[136.29053,35.85014],[136.29046,35.85034]]]}},{"type":"Feature","properties":{"pid":"e0fa1515-1707-499a-8f89-b3bef246d725","full":3.8},"geometry":{"type":"Polygon","coordinates":[[[136.29166,35.85013],[136.29169,35.85001],[136.29144,35.84991],[136.29131,35.84989],[136.29125,35.84989],[136.29124,35.84999],[136.29119,35.85011],[136.29114,35.85018],[136.29121,35.85017],[136.29132,35.85013],[136.29153,35.85012],[136.29166,35.85013]]]}},{"type":"Feature","properties":{"pid":"d67a03a5-c160-4d65-a0a0-a40503c74875","full":4.0},"geometry":{"type":"Polygon","coordinates":[[[136.28745,35.85424],[136.28761,35.85447],[136.28763,35.85447],[136.28786,35.85436],[136.28787,35.85421],[136.28781,35.85413],[136.2877,35.85418],[136.28768,35.85418],[136.28765,35.85414],[136.28745,35.85424]]]}},{"type":"Feature","properties":{"pid":"9ef89f37-6fe2-4a6c-8e5b-9fb142b90a24","full":0.8},"geometry":{"type":"Polygon","coordinates":[[[136.28886,35.85565],[136.28864,35.85577],[136.28864,35.85581],[136.28871,35.85582],[136.28887,35.85583],[136.28894,35.85581],[136.28902,35.85577],[136.28902,35.85576],[136.28886,35.85565]]]}},{"type":"Feature","properties":{"pid":"a1390961-fca3-4a47-9d2e-431d806b99d1","full":13.9},"geometry":{"type":"Polygon","coordinates":[[[136.28812,35.85562],[136.28852,35.85541],[136.2884,35.85533],[136.28822,35.85519],[136.28813,35.85509],[136.28773,35.8553],[136.28774,35.85533],[136.2877,35.85535],[136.28776,35.85542],[136.28812,35.85562]]]}},{"type":"Feature","properties":{"pid":"452d482e-ceff-4e9d-958b-6dab1c10e798","full":7.7},"geometry":{"type":"Polygon","coordinates":[[[136.2875,35.85498],[136.28764,35.8553],[136.28766,35.85531],[136.28812,35.85507],[136.28801,35.85492],[136.28798,35.85493],[136.28796,35.85491],[136.2878,35.85499],[136.28771,35.85487],[136.28764,35.85485],[136.28753,35.85493],[136.2875,35.85498]]]}},{"type":"Feature","properties":{"pid":"cdcb1504-b998-4382-857c-7df80e2034eb","full":7.1},"geometry":{"type":"Polygon","coordinates":[[[136.28856,35.8558],[136.28884,35.85564],[136.28853,35.85542],[136.28817,35.85562],[136.28818,35.85564],[136.28818,35.85565],[136.28819,35.85566],[136.28851,35.8558],[136.28856,35.8558]]]}},{"type":"Feature","properties":{"pid":"aa29f88b-948d-4ebf-a21a-12ed475e5868","full":1.4},"geometry":{"type":"Polygon","coordinates":[[[136.29045,35.85661],[136.29066,35.85664],[136.29072,35.8565],[136.29062,35.85647],[136.29036,35.85648],[136.29033,35.85658],[136.29034,35.8566],[136.29045,35.85661]]]}},{"type":"Feature","properties":{"pid":"644e2810-8e2b-4e02-9940-c64a870146db","full":1.7},"geometry":{"type":"Polygon","coordinates":[[[136.29479,35.85715],[136.29486,35.85719],[136.29499,35.85722],[136.29507,35.85723],[136.29512,35.85721],[136.29514,35.85718],[136.29515,35.85712],[136.29513,35.85708],[136.29507,35.85707],[136.29476,35.85703],[136.29474,35.85704],[136.29475,35.85709],[136.29479,35.85715]]]}},{"type":"Feature","properties":{"pid":"48e594be-e8f3-467a-a674-a30b74d0e2aa","full":9.8},"geometry":{"type":"Polygon","coordinates":[[[136.29891,35.85504],[136.2989,35.85512],[136.29894,35.8554],[136.29895,35.85553],[136.2994,35.8555],[136.29939,35.85546],[136.29929,35.85531],[136.29921,35.85514],[136.2992,35.85511],[136.29921,35.85502],[136.29919,35.855],[136.29893,35.85503],[136.29891,35.85504]]]}},{"type":"Feature","properties":{"pid":"03b1b918-4309-4857-a94c-10e3e8ebcbe0","full":18.3},"geometry":{"type":"Polygon","coordinates":[[[136.29944,35.85572],[136.2995,35.85635],[136.29998,35.85632],[136.30001,35.85631],[136.29998,35.85589],[136.29973,35.85577],[136.29959,35.85577],[136.29944,35.85572]]]}},{"type":"Feature","properties":{"pid":"0fb0e7bf-6189-49fe-b1b3-2aab7e734eff","full":22.4},"geometry":{"type":"Polygon","coordinates":[[[136.29916,35.85645],[136.29922,35.85707],[136.29975,35.85703],[136.29969,35.85642],[136.29916,35.85645]]]}},{"type":"Feature","properties":{"pid":"d987e445-9cb1-434c-b909-e79199faf9f1","full":2.0},"geometry":{"type":"Polygon","coordinates":[[[136.299,35.85647],[136.29905,35.85707],[136.29907,35.85708],[136.2992,35.85707],[136.29915,35.85645],[136.299,35.85647]]]}},{"type":"Feature","properties":{"pid":"459e05be-1745-475f-8d52-17109aee2fdb","full":17.3},"geometry":{"type":"Polygon","coordinates":[[[136.29948,35.85636],[136.29942,35.8557],[136.29934,35.85561],[136.29904,35.85564],[136.2991,35.85636],[136.29911,35.85638],[136.29948,35.85636]]]}},{"type":"Feature","properties":{"pid":"c7ad4e6c-f05c-4b58-92aa-f7063fa9a8c8","full":0.7},"geometry":{"type":"Polygon","coordinates":[[[136.2989,35.85566],[136.29896,35.85638],[136.29897,35.85639],[136.29908,35.85638],[136.29902,35.85564],[136.29895,35.85565],[136.29893,35.85566],[136.2989,35.85566]]]}},{"type":"Feature","properties":{"pid":"91a42e52-f7b1-4a92-8574-9b5c91b73722","full":3.1},"geometry":{"type":"Polygon","coordinates":[[[136.29882,35.85647],[136.2988,35.85648],[136.29886,35.85708],[136.29888,35.85709],[136.29903,35.85708],[136.29897,35.85646],[136.29882,35.85647]]]}},{"type":"Feature","properties":{"pid":"8b883309-bd55-4cfe-a9ec-46fc1267174e","full":15.6},"geometry":{"type":"Polygon","coordinates":[[[136.29837,35.85651],[136.29843,35.8571],[136.29846,35.85711],[136.29884,35.85708],[136.29879,35.85649],[136.29876,35.85648],[136.29837,35.85651]]]}},{"type":"Feature","properties":{"pid":"4432bb9e-a657-4583-9a90-50eb1e3eec13","full":15.9},"geometry":{"type":"Polygon","coordinates":[[[136.29788,35.85704],[136.29791,35.85709],[136.29818,35.85711],[136.29839,35.85711],[136.29842,35.8571],[136.29835,35.85651],[136.29804,35.85653],[136.29788,35.85704]]]}},{"type":"Feature","properties":{"pid":"9186c1b2-cc6d-4e35-b9cf-3d96df84323d","full":3.1},"geometry":{"type":"Polygon","coordinates":[[[136.29767,35.85701],[136.29784,35.85704],[136.29799,35.85653],[136.29784,35.85651],[136.2978,35.85651],[136.29767,35.85701]]]}},{"type":"Feature","properties":{"pid":"d36fdf48-5d9e-4eb7-8487-299ad05f3bb7","full":81.0},"geometry":{"type":"Polygon","coordinates":[[[136.29784,35.8564],[136.29789,35.85644],[136.29803,35.85644],[136.29893,35.85639],[136.29887,35.85563],[136.29882,35.85563],[136.2988,35.85551],[136.29876,35.8555],[136.29875,35.85548],[136.29785,35.85549],[136.29784,35.85551],[136.2978,35.85553],[136.29784,35.8564]]]}},{"type":"Feature","properties":{"pid":"ce1ca33b-588f-4bfa-85a4-ec98b21697ad","full":1.0},"geometry":{"type":"Polygon","coordinates":[[[136.29888,35.85474],[136.29917,35.8547],[136.29913,35.85462],[136.29913,35.85454],[136.29889,35.85459],[136.29888,35.85474]]]}},{"type":"Feature","properties":{"pid":"32a4c5bb-a702-447f-991b-6dd8645425bc","full":0.6},"geometry":{"type":"Polygon","coordinates":[[[136.29888,35.85455],[136.29892,35.85455],[136.2991,35.8545],[136.29912,35.85448],[136.29912,35.85445],[136.29908,35.85437],[136.29883,35.85443],[136.29886,35.85448],[136.29888,35.85455]]]}},{"type":"Feature","properties":{"pid":"9242817b-9ae6-4663-934f-050080dc2cbb","full":3.3},"geometry":{"type":"Polygon","coordinates":[[[136.29636,35.85612],[136.29641,35.85616],[136.29652,35.85617],[136.2967,35.85551],[136.29662,35.85551],[136.29656,35.85552],[136.29653,35.85557],[136.29647,35.85571],[136.29636,35.85612]]]}},{"type":"Feature","properties":{"pid":"b29fb4a0-acd5-4d68-ac8d-15537b0db833","full":34.1},"geometry":{"type":"Polygon","coordinates":[[[136.29655,35.85617],[136.29723,35.85631],[136.29727,35.8563],[136.29732,35.8556],[136.2973,35.85559],[136.29729,35.85557],[136.29724,35.85556],[136.29678,35.85552],[136.29673,35.85553],[136.29655,35.85617]]]}},{"type":"Feature","properties":{"pid":"211905b8-432d-44c9-82b3-cc4565356b24","full":25.0},"geometry":{"type":"Polygon","coordinates":[[[136.2973,35.85632],[136.2978,35.85641],[136.29776,35.85554],[136.29773,35.85554],[136.29773,35.85552],[136.29748,35.85556],[136.29738,35.85556],[136.29734,35.85558],[136.2973,35.85632]]]}},{"type":"Feature","properties":{"pid":"f74750bd-afae-4a0c-a758-c5cf270cdeea","full":5.1},"geometry":{"type":"Polygon","coordinates":[[[136.29741,35.85695],[136.29762,35.857],[136.29763,35.857],[136.29777,35.85651],[136.29777,35.85649],[136.29757,35.85645],[136.29755,35.85645],[136.29741,35.85695]]]}},{"type":"Feature","properties":{"pid":"67fc8621-7ae4-41cd-be46-9e3275eeff4b","full":7.8},"geometry":{"type":"Polygon","coordinates":[[[136.29711,35.8569],[136.29713,35.85691],[136.2974,35.85695],[136.29754,35.85644],[136.29729,35.8564],[136.29725,35.85641],[136.29711,35.8569]]]}},{"type":"Feature","properties":{"pid":"1b2cc76f-cc70-4f42-a247-9cb006387599","full":13.5},"geometry":{"type":"Polygon","coordinates":[[[136.29668,35.85682],[136.2967,35.85683],[136.29709,35.8569],[136.29723,35.85642],[136.29721,35.85638],[136.29683,35.85632],[136.29668,35.85682]]]}},{"type":"Feature","properties":{"pid":"6e661219-28fc-4012-b062-e3fc88371c84","full":2.9},"geometry":{"type":"Polygon","coordinates":[[[136.29648,35.85679],[136.29664,35.85682],[136.29665,35.85682],[136.2968,35.85631],[136.29665,35.85628],[136.29663,35.85631],[136.29662,35.85631],[136.29648,35.85679]]]}},{"type":"Feature","properties":{"pid":"fc1990d9-77de-431e-bfef-e1e487f03317","full":7.4},"geometry":{"type":"Polygon","coordinates":[[[136.29619,35.85671],[136.29622,35.85674],[136.29643,35.85678],[136.29645,35.85677],[136.29661,35.85628],[136.29659,35.85626],[136.29634,35.85623],[136.29632,35.85623],[136.29619,35.85671]]]}},{"type":"Feature","properties":{"pid":"fa608b04-bfe7-4970-b7e0-f2562855e8ed","full":35.8},"geometry":{"type":"Polygon","coordinates":[[[136.29571,35.85666],[136.29603,35.85672],[136.29603,35.85671],[136.29606,35.85669],[136.29623,35.85611],[136.29624,35.85611],[136.29626,35.85602],[136.29624,35.85601],[136.29569,35.856],[136.29566,35.85623],[136.29535,35.8562],[136.29534,35.8562],[136.29523,35.8566],[136.29525,35.8566],[136.29567,35.85668],[136.2957,35.85668],[136.29571,35.85666]]]}},{"type":"Feature","properties":{"pid":"d92e05bc-6af2-480b-84bc-515ee1b91553","full":4.0},"geometry":{"type":"Polygon","coordinates":[[[136.29625,35.85595],[136.29627,35.85595],[136.29631,35.85582],[136.2963,35.85581],[136.29597,35.85579],[136.29558,35.8558],[136.29558,35.85581],[136.29561,35.85586],[136.29561,35.85593],[136.29566,35.85595],[136.29577,35.85596],[136.29609,35.85596],[136.29625,35.85595]]]}},{"type":"Feature","properties":{"pid":"e3552a14-94b9-47f3-82b0-372f725837cb","full":9.5},"geometry":{"type":"Polygon","coordinates":[[[136.29551,35.85575],[136.29553,35.85576],[136.29632,35.85577],[136.29638,35.85557],[136.29637,35.85551],[136.29619,35.85547],[136.29614,35.85547],[136.29607,35.85548],[136.29604,35.85554],[136.29598,35.85558],[136.2957,35.85558],[136.29566,35.85559],[136.29557,35.8556],[136.29538,35.85558],[136.29535,35.85559],[136.29535,35.85561],[136.29535,35.85563],[136.29538,35.85566],[136.29546,35.8557],[136.29551,35.85575]]]}},{"type":"Feature","properties":{"pid":"9f4791ad-8d17-4d71-9a2c-3a9ea9bc7b8c","full":15.6},"geometry":{"type":"Polygon","coordinates":[[[136.29497,35.8561],[136.29559,35.85617],[136.2956,35.85616],[136.29561,35.85598],[136.29553,35.85596],[136.29545,35.85589],[136.29539,35.85586],[136.29481,35.85584],[136.29467,35.85582],[136.29465,35.85581],[136.29463,35.85578],[136.2946,35.85579],[136.29455,35.85605],[136.29457,35.85605],[136.29497,35.8561]]]}},{"type":"Feature","properties":{"pid":"7a98e333-ef77-47f8-bdde-bffe1c84c71a","full":3.5},"geometry":{"type":"Polygon","coordinates":[[[136.29444,35.85645],[136.29447,35.85647],[136.29464,35.8565],[136.29466,35.85649],[136.2947,35.8565],[136.29472,35.85649],[136.29478,35.85614],[136.29462,35.85611],[136.2946,35.85612],[136.2946,35.85621],[136.29457,35.85622],[136.2945,35.85623],[136.29444,35.85645]]]}},{"type":"Feature","properties":{"pid":"8d2cecde-ee40-43c9-b564-650d7ed4c661","full":12.1},"geometry":{"type":"Polygon","coordinates":[[[136.29474,35.85651],[136.29517,35.85659],[136.29518,35.85658],[136.29523,35.85657],[136.29533,35.8562],[136.29483,35.85614],[136.29481,35.85614],[136.29474,35.85651]]]}},{"type":"Feature","properties":{"pid":"10105e04-d9c2-48fc-b154-bdf8cb504eb0","full":29.2},"geometry":{"type":"Polygon","coordinates":[[[136.2938,35.85633],[136.29381,35.85635],[136.29395,35.8564],[136.29414,35.85642],[136.29434,35.85647],[136.29436,35.85646],[136.29453,35.85578],[136.29449,35.85574],[136.29421,35.8557],[136.2941,35.85571],[136.29396,35.85574],[136.2938,35.85633]]]}},{"type":"Feature","properties":{"pid":"b982745b-f4dd-4689-b96c-8830badd2d48","full":27.7},"geometry":{"type":"Polygon","coordinates":[[[136.29277,35.8562],[136.2932,35.85628],[136.29321,35.85626],[136.29342,35.85558],[136.29333,35.85555],[136.29321,35.85544],[136.29304,35.85532],[136.29302,35.85532],[136.29301,35.85535],[136.29273,35.8561],[136.29273,35.85614],[136.29275,35.85615],[136.29275,35.85619],[136.29277,35.8562]]]}},{"type":"Feature","properties":{"pid":"2e88719b-50db-4b29-9458-df175c3c86ca","full":24.9},"geometry":{"type":"Polygon","coordinates":[[[136.29323,35.85626],[136.29326,35.85626],[136.29327,35.85629],[136.29348,35.85629],[136.29367,35.8563],[136.29378,35.85634],[136.29394,35.85573],[136.29375,35.85568],[136.29371,35.85565],[136.29346,35.85558],[136.29343,35.85559],[136.29323,35.85626]]]}},{"type":"Feature","properties":{"pid":"9a83c19a-1851-4d58-8b3b-fdb9182c0ac0","full":3.4},"geometry":{"type":"Polygon","coordinates":[[[136.29284,35.85555],[136.29287,35.85553],[136.29291,35.85543],[136.29292,35.8554],[136.29296,35.8553],[136.29295,35.85529],[136.29269,35.85526],[136.29267,35.8553],[136.29258,35.85537],[136.29251,35.85544],[136.29257,35.85548],[136.29284,35.85555]]]}},{"type":"Feature","properties":{"pid":"aa100883-5cbe-4604-952d-7c1f892617fe","full":1.4},"geometry":{"type":"Polygon","coordinates":[[[136.29092,35.84607],[136.29093,35.84609],[136.29113,35.8461],[136.29117,35.84606],[136.29117,35.84591],[136.29113,35.8459],[136.29095,35.8459],[136.29094,35.84592],[136.29092,35.84607]]]}},{"type":"Feature","properties":{"pid":"da37b88c-be8a-43d6-b02e-f02e0879054e","full":4.0},"geometry":{"type":"Polygon","coordinates":[[[136.29096,35.84583],[136.2911,35.84582],[136.29115,35.84576],[136.29122,35.8457],[136.29125,35.84563],[136.29118,35.84561],[136.29115,35.84558],[136.29099,35.84559],[136.29094,35.84558],[136.29092,35.84556],[136.29082,35.84553],[136.29078,35.84555],[136.29075,35.84561],[136.29077,35.84567],[136.29094,35.84582],[136.29096,35.84583]]]}},{"type":"Feature","properties":{"pid":"6e22feb4-0ada-4284-ab5c-76ea4486c690","full":2.3},"geometry":{"type":"Polygon","coordinates":[[[136.29092,35.84635],[136.29095,35.84638],[136.29119,35.84638],[136.2912,35.84635],[136.2912,35.84616],[136.29095,35.84616],[136.29093,35.84617],[136.29092,35.84635]]]}},{"type":"Feature","properties":{"pid":"aadd62e5-c50c-4022-93c9-342d6509efcf","full":2.1},"geometry":{"type":"Polygon","coordinates":[[[136.29095,35.84665],[136.29118,35.84666],[136.29119,35.84652],[136.29119,35.8465],[136.29121,35.84648],[136.29121,35.84644],[136.29093,35.84643],[136.29092,35.84645],[136.29091,35.84663],[136.29093,35.84663],[136.29095,35.84665]]]}},{"type":"Feature","properties":{"pid":"366f95eb-64ff-44d8-802e-96e292944c9b","full":2.8},"geometry":{"type":"Polygon","coordinates":[[[136.29091,35.84671],[136.29091,35.8469],[136.29092,35.84693],[136.29124,35.84693],[136.29121,35.84682],[136.2912,35.8467],[136.29092,35.84669],[136.29091,35.84671]]]}},{"type":"Feature","properties":{"pid":"c7d6da69-81cb-4dd2-b854-54f24768ed23","full":2.9},"geometry":{"type":"Polygon","coordinates":[[[136.2909,35.84698],[136.2909,35.84716],[136.29092,35.84718],[136.29122,35.84718],[136.29125,35.84713],[136.29124,35.84698],[136.29122,35.84697],[136.29093,35.84696],[136.2909,35.84698]]]}},{"type":"Feature","properties":{"pid":"5f0aed64-cb17-4a4a-a8df-f805f25daea1","full":2.6},"geometry":{"type":"Polygon","coordinates":[[[136.29091,35.84724],[136.2909,35.84743],[136.29123,35.84745],[136.29125,35.84738],[136.29125,35.84725],[136.29123,35.84724],[136.29093,35.84723],[136.29091,35.84724]]]}},{"type":"Feature","properties":{"pid":"37e2c4c9-4ae3-4fca-bbb3-b0ad137a3638","full":3.2},"geometry":{"type":"Polygon","coordinates":[[[136.29091,35.84752],[136.29092,35.84768],[136.29093,35.84772],[136.29127,35.84774],[136.29126,35.84756],[136.29123,35.84751],[136.29093,35.8475],[136.29091,35.84752]]]}},{"type":"Feature","properties":{"pid":"a800cc52-ea0b-4785-aa49-0ab8d99128a0","full":3.6},"geometry":{"type":"Polygon","coordinates":[[[136.29093,35.84779],[136.29094,35.84799],[136.29097,35.84799],[136.29098,35.848],[136.2913,35.84801],[136.29131,35.84788],[136.29129,35.84778],[136.29094,35.84777],[136.29093,35.84779]]]}},{"type":"Feature","properties":{"pid":"4b9471a5-25fe-4870-8357-7f23d3de5f91","full":6.0},"geometry":{"type":"Polygon","coordinates":[[[136.29126,35.8489],[136.29125,35.84886],[136.29085,35.84879],[136.29082,35.8488],[136.29077,35.84891],[136.29077,35.84901],[136.2908,35.84903],[136.2908,35.84904],[136.29117,35.84911],[136.2912,35.84911],[136.29126,35.8489]]]}},{"type":"Feature","properties":{"pid":"5547eed1-4b4b-4990-95e9-4641e95673d3","full":4.6},"geometry":{"type":"Polygon","coordinates":[[[136.29123,35.84918],[136.2908,35.8491],[136.29079,35.8491],[136.29078,35.84932],[136.2912,35.84941],[136.29123,35.84918]]]}},{"type":"Feature","properties":{"pid":"af74136a-a960-47a5-ac98-ffcdeeb656d5","full":8.1},"geometry":{"type":"Polygon","coordinates":[[[136.2907,35.84967],[136.29114,35.84977],[136.29116,35.84975],[136.2912,35.8495],[136.29119,35.84946],[136.29117,35.84945],[136.29081,35.84937],[136.29079,35.84937],[136.29077,35.8494],[136.29068,35.84964],[136.2907,35.84967]]]}},{"type":"Feature","properties":{"pid":"8e470f1e-4829-40e9-ba8f-ab1bb419d847","full":2.4},"geometry":{"type":"Polygon","coordinates":[[[136.29087,35.8487],[136.29126,35.84878],[136.29128,35.84858],[136.29093,35.84856],[136.2909,35.84858],[136.29086,35.84867],[136.29087,35.8487]]]}},{"type":"Feature","properties":{"pid":"7d22e543-fe86-4e02-8563-3db242158fa2","full":2.6},"geometry":{"type":"Polygon","coordinates":[[[136.29094,35.84849],[136.29095,35.8485],[136.29123,35.84853],[136.29129,35.84851],[136.2913,35.84833],[136.29106,35.84831],[136.29098,35.84832],[136.29097,35.84833],[136.29096,35.8484],[136.29094,35.84849]]]}},{"type":"Feature","properties":{"pid":"e621ac36-9aee-4874-b1e1-04bed172e872","full":2.5},"geometry":{"type":"Polygon","coordinates":[[[136.29096,35.84823],[136.291,35.84826],[136.29128,35.84826],[136.2913,35.84823],[136.29131,35.84808],[136.29128,35.84806],[136.29099,35.84805],[136.29096,35.84807],[136.29096,35.84823]]]}},{"type":"Feature","properties":{"pid":"8a051774-a67b-4aed-9c85-25db55059536","full":6.4},"geometry":{"type":"Polygon","coordinates":[[[136.28279,35.84895],[136.2828,35.84897],[136.28309,35.84917],[136.28313,35.84912],[136.28325,35.84879],[136.28324,35.84877],[136.28313,35.84872],[136.28311,35.84871],[136.28309,35.84873],[136.28305,35.84874],[136.28298,35.84871],[136.28279,35.84895]]]}},{"type":"Feature","properties":{"pid":"079de6eb-ed11-46a3-8c5c-d324a5a52e75","full":0.8},"geometry":{"type":"Polygon","coordinates":[[[136.28232,35.84933],[136.28253,35.84942],[136.28257,35.84938],[136.28262,35.84926],[136.28262,35.84924],[136.2826,35.84922],[136.28238,35.84925],[136.28237,35.84925],[136.28232,35.84932],[136.28232,35.84933]]]}},{"type":"Feature","properties":{"pid":"52cee297-fec1-4a20-88b4-59dc8801336a","full":1.0},"geometry":{"type":"Polygon","coordinates":[[[136.28142,35.84877],[136.28134,35.84893],[136.28149,35.84904],[136.28151,35.84904],[136.2816,35.84883],[136.28142,35.84877]]]}},{"type":"Feature","properties":{"pid":"9d0f5757-16ce-4704-8efc-e01d2cdae743","full":1.0},"geometry":{"type":"Polygon","coordinates":[[[136.28088,35.84859],[136.28077,35.84872],[136.28076,35.84874],[136.28088,35.84878],[136.28095,35.84876],[136.28109,35.84857],[136.28102,35.84855],[136.28092,35.84856],[136.28088,35.84859]]]}}],"precision":5}