{"type":"FeatureCollection","features":[{"type":"Feature","properties":{"pid":"327294b7-44dd-4684-a28c-c406df60ea71","full":1.6},"geometry":{"type":"Polygon","coordinates":[[[136.57539,36.02369],[136.57543,36.02362],[136.57542,36.02359],[136.57554,36.02324],[136.57542,36.02318],[136.57524,36.02362],[136.57539,36.02369]]]}},{"type":"Feature","properties":{"pid":"8d049342-5994-46b6-bfbd-3c919bbea889","full":3.9},"geometry":{"type":"Polygon","coordinates":[[[136.5752,36.0236],[136.57539,36.02318],[136.57538,36.02315],[136.57518,36.02307],[136.57513,36.02321],[136.57513,36.02329],[136.57502,36.02347],[136.57516,36.02359],[136.5752,36.0236]]]}},{"type":"Feature","properties":{"pid":"ab2c11d3-b684-4019-b18f-2558badd7d93","full":3.3},"geometry":{"type":"Polygon","coordinates":[[[136.57599,36.00922],[136.57613,36.00903],[136.57606,36.00894],[136.57586,36.00887],[136.57564,36.00886],[136.57555,36.00881],[136.57552,36.00884],[136.57552,36.00887],[136.57556,36.00892],[136.5757,36.00894],[136.57576,36.00899],[136.57589,36.00914],[136.57593,36.00921],[136.57595,36.00922],[136.57599,36.00922]]]}},{"type":"Feature","properties":{"pid":"f9c22212-c43d-41a6-a3b7-3c7f9434494a","full":3.2},"geometry":{"type":"Polygon","coordinates":[[[136.5755,36.00876],[136.57555,36.00875],[136.57555,36.00867],[136.57557,36.00857],[136.57558,36.00854],[136.57549,36.00851],[136.57534,36.00841],[136.57531,36.00837],[136.57526,36.00834],[136.57523,36.00833],[136.57512,36.00828],[136.5751,36.00828],[136.57512,36.00834],[136.57515,36.00835],[136.57513,36.00837],[136.57516,36.00846],[136.5752,36.00852],[136.57535,36.00864],[136.5755,36.00876]]]}},{"type":"Feature","properties":{"pid":"983defc6-78d6-498c-b7f8-d4d5e1caef28","full":3.6},"geometry":{"type":"Polygon","coordinates":[[[136.57521,36.00782],[136.57568,36.00799],[136.57578,36.00804],[136.57578,36.00785],[136.57576,36.00783],[136.57572,36.00781],[136.57536,36.00769],[136.57532,36.00774],[136.57523,36.0078],[136.57521,36.00782]]]}},{"type":"Feature","properties":{"pid":"016cddea-4b70-4255-aaac-8aee7650595e","full":2.3},"geometry":{"type":"Polygon","coordinates":[[[136.57512,36.0079],[136.57513,36.00793],[136.57542,36.00809],[136.57565,36.00817],[136.57576,36.0082],[136.5758,36.0082],[136.57579,36.00808],[136.57519,36.00784],[136.57512,36.0079]]]}},{"type":"Feature","properties":{"pid":"0ce1f406-9bb4-4c0d-960e-801b3888ba7a","full":0.8},"geometry":{"type":"Polygon","coordinates":[[[136.57625,36.00835],[136.57639,36.00841],[136.57647,36.00841],[136.57647,36.00825],[136.57648,36.00821],[136.57646,36.00808],[136.57645,36.00807],[136.5764,36.00808],[136.57639,36.0081],[136.57637,36.00818],[136.57631,36.00824],[136.57625,36.00835]]]}},{"type":"Feature","properties":{"pid":"1e90bc80-a977-4834-ad10-eabad99ec3c9","full":5.6},"geometry":{"type":"Polygon","coordinates":[[[136.57595,36.00809],[136.57605,36.0081],[136.57637,36.00766],[136.57627,36.00754],[136.57622,36.00752],[136.57605,36.00768],[136.57593,36.0079],[136.57595,36.00809]]]}},{"type":"Feature","properties":{"pid":"7021ac26-7ab9-4c11-8259-1aac440e3a2e","full":1.0},"geometry":{"type":"Polygon","coordinates":[[[136.57658,36.0079],[136.57637,36.00769],[136.57625,36.00787],[136.57629,36.00795],[136.57658,36.0079]]]}},{"type":"Feature","properties":{"pid":"e5617a97-1ff2-4660-b376-63fe001becbc","full":6.5},"geometry":{"type":"Polygon","coordinates":[[[136.57588,36.00766],[136.57588,36.00787],[136.57591,36.00789],[136.57593,36.00787],[136.57603,36.00767],[136.57626,36.00745],[136.57628,36.00741],[136.57628,36.00737],[136.57626,36.00733],[136.57608,36.00713],[136.57606,36.00712],[136.57602,36.00712],[136.57601,36.00714],[136.57588,36.00766]]]}},{"type":"Feature","properties":{"pid":"2deb63c1-93ed-464e-aa2c-6a2543e4ee09","full":2.7},"geometry":{"type":"Polygon","coordinates":[[[136.57539,36.00758],[136.57572,36.0077],[136.5757,36.00757],[136.57566,36.00741],[136.57551,36.00735],[136.57544,36.00743],[136.57539,36.00758]]]}},{"type":"Feature","properties":{"pid":"b4f5aa54-aad1-49a6-907c-6a4e6228f3df","full":1.8},"geometry":{"type":"Polygon","coordinates":[[[136.57502,36.00817],[136.57526,36.00829],[136.57529,36.00826],[136.57542,36.00819],[136.5754,36.00817],[136.57537,36.00817],[136.57532,36.00815],[136.57504,36.00797],[136.57498,36.00805],[136.57502,36.00817]]]}},{"type":"Feature","properties":{"pid":"d7692566-45a7-4b8f-aa4d-b937d45393d3","full":3.0},"geometry":{"type":"Polygon","coordinates":[[[136.57848,36.00762],[136.57863,36.00765],[136.57865,36.00764],[136.5788,36.00736],[136.5788,36.00734],[136.57854,36.00726],[136.57852,36.00729],[136.57853,36.00736],[136.57853,36.00741],[136.57847,36.00759],[136.57847,36.00761],[136.57848,36.00762]]]}},{"type":"Feature","properties":{"pid":"58ec772d-6d6d-4fb0-ae02-281aa07b360f","full":2.4},"geometry":{"type":"Polygon","coordinates":[[[136.5784,36.00798],[136.57846,36.008],[136.57857,36.00801],[136.57863,36.00801],[136.57866,36.00801],[136.57866,36.00796],[136.57864,36.00776],[136.57865,36.00771],[136.57864,36.00768],[136.57848,36.00766],[136.57846,36.00768],[136.57844,36.00791],[136.5784,36.00798]]]}},{"type":"Feature","properties":{"pid":"4a47dbcd-31e6-488a-b243-6ef6c04a76d6","full":4.7},"geometry":{"type":"Polygon","coordinates":[[[136.57836,36.00832],[136.5784,36.00834],[136.57861,36.00836],[136.5787,36.00832],[136.57872,36.00822],[136.57871,36.00816],[136.57868,36.00809],[136.57866,36.00807],[136.57836,36.00807],[136.57835,36.00808],[136.57835,36.00813],[136.57833,36.00813],[136.57834,36.00827],[136.57836,36.00832]]]}},{"type":"Feature","properties":{"pid":"4ad0409d-b366-4f8e-bd39-5f03793fe506","full":1.8},"geometry":{"type":"Polygon","coordinates":[[[136.577,36.00734],[136.57697,36.00736],[136.57698,36.0076],[136.577,36.00761],[136.57701,36.00774],[136.57705,36.00777],[136.5771,36.00777],[136.57713,36.00774],[136.57712,36.00765],[136.57721,36.0076],[136.5772,36.00747],[136.577,36.00734]]]}},{"type":"Feature","properties":{"pid":"698f9eab-f88a-46a3-a7c8-aac45cf057d9","full":7.8},"geometry":{"type":"Polygon","coordinates":[[[136.57655,36.00771],[136.57692,36.00755],[136.57692,36.00735],[136.57687,36.00732],[136.57673,36.00731],[136.57668,36.00732],[136.57643,36.00744],[136.5764,36.0075],[136.5764,36.00752],[136.57643,36.00758],[136.57647,36.00761],[136.57655,36.00771]]]}},{"type":"Feature","properties":{"pid":"23244a4a-4afc-42c5-b9ea-3acac1839a60","full":3.2},"geometry":{"type":"Polygon","coordinates":[[[136.57659,36.00776],[136.57685,36.00797],[136.57689,36.00801],[136.57691,36.00806],[136.57693,36.00806],[136.57704,36.00801],[136.57705,36.00799],[136.57696,36.00787],[136.5769,36.00762],[136.57677,36.00767],[136.5766,36.00775],[136.57659,36.00776]]]}},{"type":"Feature","properties":{"pid":"96109fd4-781a-4869-acf1-8bbe49364cd2","full":2.2},"geometry":{"type":"Polygon","coordinates":[[[136.5765,36.00823],[136.5765,36.00836],[136.57651,36.00843],[136.5767,36.00841],[136.57676,36.00839],[136.57677,36.00816],[136.57676,36.00815],[136.57666,36.00817],[136.5765,36.00823]]]}},{"type":"Feature","properties":{"pid":"68f06448-4c70-4511-872e-3d7ca654d98b","full":3.2},"geometry":{"type":"Polygon","coordinates":[[[136.57691,36.00836],[136.57694,36.00837],[136.57704,36.00834],[136.57721,36.00828],[136.57731,36.00821],[136.57723,36.00809],[136.5772,36.00808],[136.57701,36.00812],[136.57689,36.00817],[136.57691,36.00836]]]}},{"type":"Feature","properties":{"pid":"b4b8782e-a1bc-4345-aeb3-a2f3bbd54972","full":7.3},"geometry":{"type":"Polygon","coordinates":[[[136.57787,36.00878],[136.5779,36.00878],[136.57792,36.00877],[136.57793,36.00868],[136.57797,36.00865],[136.57795,36.00857],[136.57788,36.00847],[136.57787,36.00843],[136.57786,36.00819],[136.57785,36.00817],[136.57784,36.00816],[136.57774,36.00817],[136.57764,36.00816],[136.57759,36.00816],[136.57755,36.0082],[136.57752,36.00821],[136.57749,36.00823],[136.57749,36.00828],[136.57787,36.00878]]]}},{"type":"Feature","properties":{"pid":"de7eea12-20b1-451d-a072-1fa69f20ce95","full":5.5},"geometry":{"type":"Polygon","coordinates":[[[136.57785,36.00917],[136.57788,36.00918],[136.5779,36.00916],[136.57793,36.00901],[136.57737,36.0083],[136.57736,36.00829],[136.57733,36.00829],[136.57721,36.00837],[136.57785,36.00917]]]}},{"type":"Feature","properties":{"pid":"df62ea48-f7cb-4a4c-8634-a587d0674295","full":5.3},"geometry":{"type":"Polygon","coordinates":[[[136.57772,36.00925],[136.57778,36.00923],[136.57779,36.00921],[136.57778,36.00917],[136.57716,36.00839],[136.57706,36.00846],[136.57706,36.00851],[136.57709,36.00859],[136.57713,36.00868],[136.57718,36.00869],[136.57733,36.00888],[136.57732,36.00889],[136.57738,36.00896],[136.57736,36.00899],[136.57736,36.00901],[136.57741,36.00904],[136.57761,36.00911],[136.57772,36.00925]]]}},{"type":"Feature","properties":{"pid":"5f147c74-e680-4637-ae6d-89296b5b6a59","full":1.8},"geometry":{"type":"Polygon","coordinates":[[[136.57833,36.00854],[136.57834,36.00861],[136.57833,36.00866],[136.57825,36.00881],[136.57825,36.00888],[136.57826,36.00896],[136.57831,36.00896],[136.57834,36.00889],[136.57842,36.0088],[136.57852,36.0087],[136.57854,36.00866],[136.57849,36.00851],[136.57848,36.0085],[136.57833,36.00854]]]}},{"type":"Feature","properties":{"pid":"c4c6b2c9-9b1d-4813-b4bd-3e3cbedfcc89","full":5.7},"geometry":{"type":"Polygon","coordinates":[[[136.57686,36.01041],[136.57745,36.01041],[136.57752,36.0104],[136.57748,36.01027],[136.57746,36.01024],[136.57738,36.01022],[136.57686,36.01022],[136.57686,36.01041]]]}},{"type":"Feature","properties":{"pid":"dec4f906-fbbb-4d81-96bb-98f467659621","full":6.3},"geometry":{"type":"Polygon","coordinates":[[[136.57687,36.01085],[136.57763,36.01085],[136.57762,36.01078],[136.5776,36.01078],[136.57759,36.01074],[136.57761,36.01071],[136.5776,36.01066],[136.57687,36.01067],[136.57687,36.01085]]]}},{"type":"Feature","properties":{"pid":"d3b2b3a1-50e5-4551-a9d5-bf9e971079db","full":6.9},"geometry":{"type":"Polygon","coordinates":[[[136.57686,36.01064],[136.57759,36.01063],[136.57753,36.01043],[136.57686,36.01043],[136.57686,36.01064]]]}},{"type":"Feature","properties":{"pid":"76d9be8e-c582-477c-acff-e006b4284eb6","full":2.4},"geometry":{"type":"Polygon","coordinates":[[[136.57673,36.01095],[136.57673,36.01067],[136.57627,36.01068],[136.57626,36.0107],[136.57644,36.0108],[136.57644,36.01082],[136.57661,36.01089],[136.57669,36.01096],[136.57673,36.01095]]]}},{"type":"Feature","properties":{"pid":"3dc25a1c-12ee-4df9-a103-4d4ff8367633","full":3.6},"geometry":{"type":"Polygon","coordinates":[[[136.57686,36.01017],[136.57688,36.01018],[136.57732,36.01018],[136.57734,36.01016],[136.57723,36.01007],[136.57709,36.01],[136.57707,36.00998],[136.57706,36.00993],[136.57688,36.00978],[136.57686,36.00979],[136.57686,36.01017]]]}},{"type":"Feature","properties":{"pid":"b74cd1f8-af88-4fb8-b431-74cf078456c6","full":0.9},"geometry":{"type":"Polygon","coordinates":[[[136.57718,36.00983],[136.57726,36.0097],[136.57721,36.00958],[136.57715,36.00954],[136.57709,36.0096],[136.577,36.00963],[136.57701,36.00968],[136.57718,36.00983]]]}},{"type":"Feature","properties":{"pid":"26b286d1-553e-4929-9f40-e0be01f25462","full":5.7},"geometry":{"type":"Polygon","coordinates":[[[136.57605,36.00969],[136.57633,36.00969],[136.57626,36.00948],[136.57615,36.00935],[136.57613,36.00934],[136.57582,36.00937],[136.57585,36.00943],[136.57591,36.00952],[136.57605,36.00969]]]}},{"type":"Feature","properties":{"pid":"b986654c-c854-4b57-a645-be63e1d468b5","full":1.1},"geometry":{"type":"Polygon","coordinates":[[[136.57641,36.00969],[136.5766,36.0097],[136.5765,36.00945],[136.57647,36.00943],[136.57647,36.00941],[136.57644,36.00939],[136.57637,36.00945],[136.57634,36.00951],[136.57641,36.00969]]]}},{"type":"Feature","properties":{"pid":"904019d4-2bd3-4c82-ae49-42a3ed5c403f","full":4.1},"geometry":{"type":"Polygon","coordinates":[[[136.57612,36.00994],[136.57671,36.00994],[136.57671,36.00984],[136.57668,36.00982],[136.57668,36.00979],[136.57667,36.00976],[136.57614,36.00977],[136.57612,36.00978],[136.57611,36.0098],[136.57611,36.00986],[136.57612,36.00987],[136.5761,36.00992],[136.57612,36.00994]]]}},{"type":"Feature","properties":{"pid":"5fdb7e09-f6d0-4d4c-9549-bbd984112f7b","full":6.9},"geometry":{"type":"Polygon","coordinates":[[[136.57515,36.01067],[136.57516,36.01068],[136.57531,36.01069],[136.5754,36.01073],[136.57563,36.01088],[136.57588,36.01103],[136.57606,36.01094],[136.57604,36.01092],[136.57563,36.01067],[136.5756,36.01062],[136.57538,36.01049],[136.57534,36.01049],[136.57529,36.01052],[136.57522,36.01057],[136.57515,36.01067]]]}},{"type":"Feature","properties":{"pid":"2028a3d3-8921-4a4c-8658-ab99ceaffc86","full":4.7},"geometry":{"type":"Polygon","coordinates":[[[136.57608,36.01017],[136.57674,36.01018],[136.57673,36.01011],[136.57676,36.01004],[136.57673,36.01001],[136.57607,36.01],[136.57599,36.01007],[136.57608,36.01017]]]}},{"type":"Feature","properties":{"pid":"2514401f-8069-45a6-8b84-95b0785590be","full":4.5},"geometry":{"type":"Polygon","coordinates":[[[136.57617,36.01039],[136.57673,36.01041],[136.57677,36.01023],[136.57675,36.01022],[136.57611,36.01021],[136.5761,36.01023],[136.57613,36.01028],[136.57617,36.01036],[136.57617,36.01039]]]}},{"type":"Feature","properties":{"pid":"cca8e40e-27c8-4d6e-beb8-2aeed8ffd1d7","full":4.3},"geometry":{"type":"Polygon","coordinates":[[[136.57618,36.01063],[136.57674,36.01063],[136.57673,36.01047],[136.57672,36.01045],[136.57616,36.01044],[136.57618,36.01063]]]}},{"type":"Feature","properties":{"pid":"7899d680-11f6-4c33-8f4d-7ab80c4a48d2","full":2.6},"geometry":{"type":"Polygon","coordinates":[[[136.5757,36.01066],[136.57605,36.01088],[136.57618,36.01087],[136.57621,36.01082],[136.57604,36.01071],[136.57601,36.01065],[136.57599,36.01053],[136.57594,36.01048],[136.5757,36.01066]]]}},{"type":"Feature","properties":{"pid":"582ec6e2-1964-4fb7-b7a6-a097420b953c","full":2.8},"geometry":{"type":"Polygon","coordinates":[[[136.57743,36.01223],[136.57746,36.01236],[136.57751,36.01244],[136.57753,36.01246],[136.57756,36.0125],[136.57769,36.0125],[136.57769,36.01226],[136.57762,36.01214],[136.57752,36.01213],[136.5775,36.01213],[136.57749,36.01219],[136.57743,36.01223]]]}},{"type":"Feature","properties":{"pid":"ccb16edd-2452-48fa-93dd-cd1ce748da5c","full":4.1},"geometry":{"type":"Polygon","coordinates":[[[136.57687,36.01119],[136.5771,36.01131],[136.57735,36.01131],[136.57758,36.01125],[136.5776,36.01113],[136.57759,36.01113],[136.57689,36.01113],[136.57687,36.01119]]]}},{"type":"Feature","properties":{"pid":"ce6862b5-8d27-4584-8053-59135530e9d1","full":8.0},"geometry":{"type":"Polygon","coordinates":[[[136.57687,36.01109],[136.57763,36.01109],[136.57765,36.01089],[136.57764,36.01086],[136.57732,36.01087],[136.57732,36.01088],[136.57726,36.01088],[136.57689,36.01089],[136.57687,36.01092],[136.57687,36.01109]]]}},{"type":"Feature","properties":{"pid":"cd97f4ce-01c1-4155-aa52-a1d60e7a14f3","full":8.8},"geometry":{"type":"Polygon","coordinates":[[[136.57778,36.0124],[136.57777,36.01248],[136.57778,36.01259],[136.5778,36.01266],[136.57817,36.01305],[136.57835,36.01295],[136.57823,36.01277],[136.5782,36.01272],[136.57819,36.0127],[136.57786,36.01234],[136.57778,36.0124]]]}},{"type":"Feature","properties":{"pid":"00599317-df4a-4c5f-826a-d6ded2e0efbd","full":3.9},"geometry":{"type":"Polygon","coordinates":[[[136.57867,36.01354],[136.57882,36.01346],[136.57855,36.01312],[136.57849,36.01303],[136.57846,36.01302],[136.57829,36.01311],[136.5783,36.01314],[136.57832,36.01315],[136.57852,36.01338],[136.57854,36.0134],[136.57854,36.01342],[136.57859,36.01345],[136.57867,36.01354]]]}},{"type":"Feature","properties":{"pid":"4798ce02-6aeb-4ed4-8287-cd36a77a2135","full":6.0},"geometry":{"type":"Polygon","coordinates":[[[136.57803,36.01462],[136.57829,36.01462],[136.5784,36.0146],[136.57871,36.01451],[136.57867,36.01437],[136.57864,36.01435],[136.57861,36.01434],[136.57802,36.01447],[136.57801,36.01448],[136.57803,36.01462]]]}},{"type":"Feature","properties":{"pid":"1282f26e-98fe-48d4-a73d-89cc42eaa435","full":4.9},"geometry":{"type":"Polygon","coordinates":[[[136.57793,36.01419],[136.57877,36.01392],[136.57876,36.01389],[136.57858,36.01368],[136.57854,36.0137],[136.57846,36.01379],[136.5784,36.01384],[136.57832,36.01389],[136.57831,36.01391],[136.57826,36.01395],[136.57825,36.01396],[136.57821,36.01396],[136.57792,36.01412],[136.57793,36.01419]]]}},{"type":"Feature","properties":{"pid":"7ca88bbd-403c-4de8-83a1-b534f860da3b","full":5.9},"geometry":{"type":"Polygon","coordinates":[[[136.57908,36.01415],[136.57909,36.01415],[136.57912,36.01409],[136.57914,36.01406],[136.57916,36.01402],[136.57915,36.01393],[136.57914,36.01391],[136.57921,36.01389],[136.57923,36.01387],[136.57922,36.01385],[136.57909,36.01373],[136.57908,36.01369],[136.57888,36.01348],[136.57886,36.0135],[136.57871,36.01358],[136.5787,36.01359],[136.57873,36.01363],[136.57888,36.0138],[136.57908,36.01415]]]}},{"type":"Feature","properties":{"pid":"cae1c733-e9a9-437b-a908-a893b17b691d","full":14.6},"geometry":{"type":"Polygon","coordinates":[[[136.57799,36.01445],[136.57865,36.01431],[136.57868,36.01429],[136.5788,36.01419],[136.5789,36.01414],[136.5788,36.01395],[136.57794,36.01421],[136.57799,36.01445]]]}},{"type":"Feature","properties":{"pid":"899118b8-ebc2-4211-8f9d-966d1804d47e","full":6.0},"geometry":{"type":"Polygon","coordinates":[[[136.57808,36.01549],[136.57811,36.01551],[136.57853,36.01551],[136.57854,36.0155],[136.57852,36.01507],[136.57842,36.0151],[136.57826,36.01525],[136.5781,36.01544],[136.57808,36.01549]]]}},{"type":"Feature","properties":{"pid":"45a375fc-c556-4871-a3cd-d7dc4b909c7c","full":8.4},"geometry":{"type":"Polygon","coordinates":[[[136.57861,36.01527],[136.57899,36.01526],[136.57901,36.01524],[136.57919,36.01505],[136.57919,36.01504],[136.57922,36.015],[136.57924,36.01496],[136.57925,36.0149],[136.57932,36.01481],[136.57928,36.01472],[136.57922,36.01474],[136.57925,36.01482],[136.57924,36.01484],[136.57915,36.01488],[136.57912,36.01487],[136.57911,36.01485],[136.57907,36.01487],[136.57909,36.0149],[136.57909,36.01492],[136.5789,36.015],[136.57885,36.01494],[136.57859,36.01506],[136.57859,36.01524],[136.57861,36.01527]]]}},{"type":"Feature","properties":{"pid":"e23c8e62-a0db-4a2e-90f2-afa7e2e1740a","full":1.0},"geometry":{"type":"Polygon","coordinates":[[[136.57861,36.01622],[136.57866,36.01626],[136.57884,36.01633],[136.57893,36.01635],[136.57896,36.01633],[136.57898,36.01631],[136.57896,36.01616],[136.57893,36.01615],[136.57862,36.01621],[136.57861,36.01622]]]}},{"type":"Feature","properties":{"pid":"b944ea90-3020-4da5-b432-3c855bce6aff","full":11.8},"geometry":{"type":"Polygon","coordinates":[[[136.5781,36.01606],[136.57817,36.01614],[136.5782,36.01617],[136.57823,36.01618],[136.57825,36.01619],[136.57846,36.01615],[136.5785,36.01617],[136.57887,36.01611],[136.57888,36.01611],[136.5789,36.01603],[136.5789,36.01599],[136.57887,36.01585],[136.5784,36.01586],[136.57839,36.01586],[136.5781,36.01606]]]}},{"type":"Feature","properties":{"pid":"c36ce586-857c-461e-98fc-b235959e2fa0","full":1.7},"geometry":{"type":"Polygon","coordinates":[[[136.57815,36.01578],[136.57821,36.01581],[136.57833,36.01574],[136.57858,36.01574],[136.57859,36.01573],[136.57859,36.01561],[136.57814,36.01561],[136.57813,36.01562],[136.57816,36.01571],[136.57816,36.01575],[136.57815,36.01578]]]}},{"type":"Feature","properties":{"pid":"3cdcdbb8-6d63-4194-8ad9-9e3e8ff76a20","full":4.7},"geometry":{"type":"Polygon","coordinates":[[[136.57733,36.01595],[136.57734,36.01598],[136.57775,36.01601],[136.57782,36.01599],[136.57784,36.01597],[136.5779,36.01585],[136.57796,36.01581],[136.57798,36.01574],[136.57801,36.01573],[136.57802,36.01571],[136.57798,36.01564],[136.57795,36.01564],[136.57775,36.01573],[136.57768,36.01575],[136.57757,36.01584],[136.57752,36.01587],[136.57746,36.01588],[136.57733,36.01595]]]}},{"type":"Feature","properties":{"pid":"5705e238-dc75-4f56-9d84-8bd1578a71ff","full":3.6},"geometry":{"type":"Polygon","coordinates":[[[136.57719,36.0162],[136.57771,36.01624],[136.57779,36.01614],[136.57777,36.01609],[136.57733,36.01604],[136.5773,36.01604],[136.57725,36.01598],[136.57723,36.01597],[136.5772,36.01598],[136.57714,36.01602],[136.57719,36.0162]]]}},{"type":"Feature","properties":{"pid":"507c005a-2ec0-4cf9-894a-69a3652868d9","full":11.6},"geometry":{"type":"Polygon","coordinates":[[[136.57654,36.01595],[136.57656,36.016],[136.57694,36.01641],[136.57712,36.01626],[136.57714,36.01624],[136.57716,36.01622],[136.57703,36.01586],[136.577,36.01584],[136.57697,36.01584],[136.57654,36.01595]]]}},{"type":"Feature","properties":{"pid":"f84cf5de-ad26-4a70-87e5-0afdf3d9e2ba","full":2.3},"geometry":{"type":"Polygon","coordinates":[[[136.57496,36.01765],[136.57532,36.0177],[136.57535,36.01747],[136.57526,36.01746],[136.57518,36.01747],[136.57509,36.01749],[136.57506,36.01752],[136.57496,36.01765]]]}},{"type":"Feature","properties":{"pid":"bd7b5be2-f767-4684-b0be-2e1fb402dc7e","full":6.4},"geometry":{"type":"Polygon","coordinates":[[[136.57464,36.01652],[136.57512,36.01689],[136.57529,36.01675],[136.57526,36.01672],[136.57528,36.01669],[136.57527,36.01666],[136.57501,36.01647],[136.57493,36.01649],[136.57488,36.0165],[136.57476,36.01647],[136.57465,36.01651],[136.57464,36.01652]]]}},{"type":"Feature","properties":{"pid":"5a439a4d-332a-4c29-b9e6-07aae46d5a48","full":5.7},"geometry":{"type":"Polygon","coordinates":[[[136.575,36.01712],[136.57515,36.01724],[136.5757,36.01679],[136.57561,36.01664],[136.575,36.01712]]]}},{"type":"Feature","properties":{"pid":"2ea25fbe-3f94-40ed-a227-a3b1818eb09b","full":3.3},"geometry":{"type":"Polygon","coordinates":[[[136.57521,36.01728],[136.57532,36.01737],[136.57537,36.01736],[136.57543,36.01728],[136.57565,36.01712],[136.5758,36.01706],[136.57574,36.01697],[136.5757,36.01684],[136.57566,36.01688],[136.57521,36.01728]]]}},{"type":"Feature","properties":{"pid":"e694d793-2e44-4246-bf45-37dbb9535d14","full":15.6},"geometry":{"type":"Polygon","coordinates":[[[136.57571,36.01656],[136.57576,36.01668],[136.57589,36.01691],[136.5759,36.01691],[136.57633,36.01691],[136.57636,36.01691],[136.57644,36.01685],[136.57588,36.01628],[136.57578,36.01632],[136.57577,36.01651],[136.57575,36.01653],[136.57571,36.01656]]]}},{"type":"Feature","properties":{"pid":"2f322da9-8232-43aa-bbba-ae832ede212d","full":11.5},"geometry":{"type":"Polygon","coordinates":[[[136.57593,36.01621],[136.57649,36.01681],[136.57651,36.01681],[136.5767,36.01665],[136.5767,36.01664],[136.5762,36.0161],[136.57611,36.01614],[136.5761,36.01616],[136.57594,36.0162],[136.57593,36.01621]]]}},{"type":"Feature","properties":{"pid":"7d715f24-93bc-443c-8fae-1eacc45a7bc8","full":10.9},"geometry":{"type":"Polygon","coordinates":[[[136.57617,36.01603],[136.57673,36.01663],[136.57692,36.01645],[136.57692,36.01643],[136.57649,36.01597],[136.57647,36.01596],[136.57644,36.01596],[136.57617,36.01603]]]}},{"type":"Feature","properties":{"pid":"8bfb9d3f-8294-419d-ac08-72671da98fb6","full":5.8},"geometry":{"type":"Polygon","coordinates":[[[136.57907,36.01618],[136.57907,36.01623],[136.57913,36.01623],[136.57916,36.01624],[136.5793,36.01637],[136.57935,36.01643],[136.57948,36.01639],[136.57958,36.01638],[136.57974,36.01634],[136.57976,36.01633],[136.5798,36.01622],[136.5798,36.01617],[136.57949,36.01616],[136.57907,36.01618]]]}},{"type":"Feature","properties":{"pid":"0de6409d-30a9-44d4-9691-e7e5e71f149f","full":0.8},"geometry":{"type":"Polygon","coordinates":[[[136.58272,36.01826],[136.58277,36.01826],[136.58283,36.01824],[136.58285,36.01819],[136.58286,36.01812],[136.58289,36.01799],[136.5829,36.01794],[136.58293,36.01782],[136.58293,36.01779],[136.5829,36.01775],[136.58281,36.01763],[136.58272,36.01826]]]}},{"type":"Feature","properties":{"pid":"c7993b52-4f7a-4cf8-8b1f-b194e8a148c2","full":0.7},"geometry":{"type":"Polygon","coordinates":[[[136.58271,36.01826],[136.5828,36.01763],[136.58277,36.01759],[136.58269,36.01754],[136.58268,36.01754],[136.58264,36.01792],[136.58262,36.0181],[136.5826,36.01813],[136.5826,36.0182],[136.58262,36.01822],[136.58271,36.01826]]]}},{"type":"Feature","properties":{"pid":"9f3c1683-6ae2-414b-b896-3091b4dce0f5","full":6.1},"geometry":{"type":"Polygon","coordinates":[[[136.58239,36.01809],[136.58243,36.01816],[136.58248,36.01816],[136.58251,36.01815],[136.58256,36.01816],[136.5826,36.01808],[136.5826,36.01797],[136.58262,36.01785],[136.58265,36.01763],[136.58267,36.0175],[136.58253,36.01732],[136.58251,36.01731],[136.58248,36.01732],[136.58246,36.01733],[136.58245,36.01739],[136.58245,36.01754],[136.58239,36.01809]]]}},{"type":"Feature","properties":{"pid":"8286b8c0-ca39-4c11-8c0b-a80f7f071239","full":15.7},"geometry":{"type":"Polygon","coordinates":[[[136.58425,36.0182],[136.58429,36.01839],[136.58434,36.01849],[136.58447,36.01852],[136.58462,36.01852],[136.58466,36.01846],[136.58474,36.01836],[136.58481,36.01831],[136.58482,36.01826],[136.5848,36.0182],[136.5847,36.01809],[136.58459,36.01791],[136.58454,36.01789],[136.58431,36.01804],[136.58425,36.0182]]]}},{"type":"Feature","properties":{"pid":"919b69f9-e34e-413c-8251-79bd3dd83083","full":0.5},"geometry":{"type":"Polygon","coordinates":[[[136.58538,36.01913],[136.58542,36.0191],[136.58537,36.01902],[136.58532,36.01895],[136.58534,36.01887],[136.58532,36.01872],[136.58536,36.01868],[136.58555,36.01853],[136.5855,36.01847],[136.58524,36.01862],[136.58519,36.01872],[136.5852,36.01885],[136.58538,36.01913]]]}},{"type":"Feature","properties":{"pid":"bc03a3ad-b28c-44c6-b70d-693c46d57e59","full":1.8},"geometry":{"type":"Polygon","coordinates":[[[136.58542,36.01903],[136.58542,36.01899],[136.58543,36.01895],[136.58551,36.01891],[136.58553,36.01879],[136.5856,36.01874],[136.58573,36.01867],[136.58574,36.01864],[136.5856,36.01858],[136.58555,36.01858],[136.58542,36.01865],[136.58536,36.01874],[136.5854,36.01884],[136.58537,36.01893],[136.58542,36.01903]]]}},{"type":"Feature","properties":{"pid":"6075b579-c460-4051-9b1e-c151c845ccba","full":3.6},"geometry":{"type":"Polygon","coordinates":[[[136.58839,36.01953],[136.58858,36.01973],[136.5886,36.01972],[136.58881,36.01959],[136.58871,36.01948],[136.58856,36.01938],[136.58853,36.01938],[136.58841,36.01948],[136.58839,36.01953]]]}},{"type":"Feature","properties":{"pid":"3bfbbbc5-37fd-4e63-bfca-a90cbd147150","full":1.0},"geometry":{"type":"Polygon","coordinates":[[[136.58872,36.01975],[136.58879,36.01982],[136.58882,36.01984],[136.5889,36.01984],[136.58894,36.01983],[136.589,36.01983],[136.58902,36.01982],[136.58903,36.01977],[136.58903,36.01975],[136.58897,36.0197],[136.58889,36.01964],[136.58872,36.01975]]]}},{"type":"Feature","properties":{"pid":"f9bab8df-d6f2-4766-8a69-00831d9d5976","full":4.0},"geometry":{"type":"Polygon","coordinates":[[[136.58744,36.01827],[136.58748,36.01834],[136.58751,36.01834],[136.58753,36.01836],[136.58754,36.0184],[136.58757,36.01843],[136.58793,36.01817],[136.5879,36.01812],[136.58794,36.01801],[136.58786,36.01796],[136.58744,36.01827]]]}},{"type":"Feature","properties":{"pid":"87505c02-eb9b-4d7b-9c60-520acbb12780","full":3.6},"geometry":{"type":"Polygon","coordinates":[[[136.58755,36.01848],[136.58765,36.01857],[136.58775,36.01857],[136.58779,36.01853],[136.58782,36.01852],[136.58789,36.0185],[136.58795,36.01851],[136.58806,36.01844],[136.58808,36.01841],[136.58804,36.0184],[136.58799,36.01834],[136.58797,36.01829],[136.58797,36.01824],[136.58796,36.01822],[136.58794,36.01821],[136.58791,36.01821],[136.58762,36.01844],[136.58755,36.01848]]]}},{"type":"Feature","properties":{"pid":"46b277aa-af19-4292-afd4-46b73e3be65f","full":6.3},"geometry":{"type":"Polygon","coordinates":[[[136.58674,36.01793],[136.58676,36.01795],[136.58679,36.01795],[136.58715,36.01785],[136.58729,36.01785],[136.58755,36.01765],[136.58755,36.01764],[136.58738,36.01749],[136.58735,36.01748],[136.58674,36.01793]]]}},{"type":"Feature","properties":{"pid":"da546c4a-00e5-4f20-b622-d932b2d52fe1","full":7.7},"geometry":{"type":"Polygon","coordinates":[[[136.58654,36.0178],[136.58662,36.01787],[136.58664,36.01787],[136.58669,36.0179],[136.58671,36.01791],[136.58675,36.01789],[136.58733,36.01746],[136.58717,36.01732],[136.58656,36.01777],[136.58654,36.0178]]]}},{"type":"Feature","properties":{"pid":"1dfb85d1-4918-4b52-9150-d2dd1ec13bd0","full":7.2},"geometry":{"type":"Polygon","coordinates":[[[136.58648,36.01771],[136.58651,36.01773],[136.58655,36.01773],[136.58715,36.01728],[136.58698,36.01712],[136.58696,36.01712],[136.58663,36.01738],[136.58648,36.01768],[136.58648,36.01771]]]}},{"type":"Feature","properties":{"pid":"25941dc1-ebc2-4f5a-814a-0449e44abbd5","full":6.4},"geometry":{"type":"Polygon","coordinates":[[[136.58744,36.01744],[136.58746,36.01747],[136.58758,36.01756],[136.5882,36.0171],[136.58805,36.01699],[136.58803,36.01699],[136.58744,36.01744]]]}},{"type":"Feature","properties":{"pid":"5352e699-35af-4748-a86c-31684221028d","full":8.4},"geometry":{"type":"Polygon","coordinates":[[[136.58729,36.01792],[136.58736,36.01812],[136.58739,36.01818],[136.58744,36.01822],[136.58786,36.01792],[136.58775,36.01782],[136.58771,36.01781],[136.58759,36.0177],[136.58729,36.01792]]]}},{"type":"Feature","properties":{"pid":"3d1090e6-3c48-401d-8b45-8500bf525b78","full":5.1},"geometry":{"type":"Polygon","coordinates":[[[136.58799,36.01795],[136.58805,36.018],[136.58807,36.01799],[136.58813,36.01803],[136.58818,36.01804],[136.58832,36.01804],[136.58836,36.01802],[136.58838,36.01802],[136.58841,36.018],[136.58844,36.01795],[136.58846,36.01791],[136.58842,36.01779],[136.58842,36.01766],[136.5884,36.01762],[136.58799,36.01793],[136.58799,36.01795]]]}},{"type":"Feature","properties":{"pid":"ed414226-2636-43ad-b849-ef01f1f3aa92","full":6.8},"geometry":{"type":"Polygon","coordinates":[[[136.5878,36.01777],[136.58793,36.01788],[136.58794,36.01791],[136.58796,36.01791],[136.58835,36.01763],[136.58836,36.01754],[136.58838,36.0175],[136.5885,36.01738],[136.5885,36.01737],[136.58841,36.0173],[136.58839,36.01731],[136.58783,36.01774],[136.5878,36.01777]]]}},{"type":"Feature","properties":{"pid":"492f94ea-c58f-4b9a-a082-d3a8ceee544c","full":7.2},"geometry":{"type":"Polygon","coordinates":[[[136.58761,36.0176],[136.58776,36.01773],[136.58778,36.01773],[136.58839,36.01728],[136.58823,36.01713],[136.58817,36.01719],[136.58761,36.0176]]]}},{"type":"Feature","properties":{"pid":"c82fc23c-47de-45d1-ba1c-e4cf7471f5cc","full":4.4},"geometry":{"type":"Polygon","coordinates":[[[136.58846,36.01719],[136.58847,36.01678],[136.58802,36.01678],[136.58804,36.01683],[136.58811,36.01691],[136.58841,36.01717],[136.58846,36.01719]]]}},{"type":"Feature","properties":{"pid":"377b1031-b9e5-4f00-ade8-037ca19e6b92","full":4.4},"geometry":{"type":"Polygon","coordinates":[[[136.58848,36.01724],[136.58852,36.0173],[136.58861,36.01737],[136.58877,36.01736],[136.58883,36.0173],[136.58885,36.01723],[136.58886,36.01713],[136.58875,36.0171],[136.58868,36.01705],[136.58861,36.01695],[136.58859,36.01687],[136.58859,36.01682],[136.5886,36.0168],[136.58859,36.01679],[136.58856,36.01679],[136.58853,36.01683],[136.58852,36.01721],[136.58846,36.01724],[136.58848,36.01724]]]}},{"type":"Feature","properties":{"pid":"864228ea-a179-4989-9ea7-bd44b0b1514c","full":9.2},"geometry":{"type":"Polygon","coordinates":[[[136.58858,36.01652],[136.58831,36.01642],[136.5883,36.01603],[136.58815,36.01602],[136.58809,36.01605],[136.58809,36.0165],[136.58816,36.01649],[136.58818,36.01653],[136.58818,36.01656],[136.58809,36.01656],[136.58809,36.01669],[136.58862,36.0167],[136.58858,36.01652]]]}},{"type":"Feature","properties":{"pid":"14343d8a-01dd-4ce0-9496-a17b07b4978f","full":8.8},"geometry":{"type":"Polygon","coordinates":[[[136.58778,36.01668],[136.58789,36.01668],[136.58794,36.01669],[136.58798,36.01672],[136.58804,36.01671],[136.58804,36.01604],[136.58791,36.01602],[136.58778,36.01602],[136.58778,36.01668]]]}},{"type":"Feature","properties":{"pid":"73bcae7d-7e87-4cf1-9593-4ce2529a42ea","full":9.4},"geometry":{"type":"Polygon","coordinates":[[[136.58776,36.01668],[136.58776,36.01601],[136.5875,36.01601],[136.58749,36.01603],[136.58748,36.01624],[136.5875,36.01658],[136.58751,36.01662],[136.58758,36.01667],[136.58776,36.01668]]]}},{"type":"Feature","properties":{"pid":"8fe1a6bb-5d28-4ba7-9870-8bf5eb2bb442","full":19.0},"geometry":{"type":"Polygon","coordinates":[[[136.58707,36.01711],[136.58739,36.0174],[136.588,36.01696],[136.58788,36.01683],[136.58756,36.01682],[136.5875,36.01684],[136.58746,36.01683],[136.58707,36.01711]]]}},{"type":"Feature","properties":{"pid":"1db506a5-1970-4efb-97ce-265c028d551f","full":10.1},"geometry":{"type":"Polygon","coordinates":[[[136.58638,36.01718],[136.58638,36.0172],[136.58644,36.01722],[136.58649,36.01725],[136.58654,36.01732],[136.58656,36.01734],[136.58731,36.01678],[136.5873,36.01674],[136.58714,36.01676],[136.58709,36.01674],[136.58703,36.0167],[136.58638,36.01718]]]}},{"type":"Feature","properties":{"pid":"be41a0db-6ffa-4701-9823-8f7f057c42db","full":11.5},"geometry":{"type":"Polygon","coordinates":[[[136.58697,36.016],[136.58695,36.01624],[136.58697,36.01628],[136.58702,36.01633],[136.58716,36.01638],[136.58719,36.0164],[136.58719,36.01647],[136.5873,36.01656],[136.58732,36.01654],[136.5874,36.01655],[136.58743,36.01651],[136.5874,36.01603],[136.58738,36.016],[136.58697,36.016]]]}},{"type":"Feature","properties":{"pid":"bae2f4ee-d65e-48a8-8124-55ef0de84677","full":7.6},"geometry":{"type":"Polygon","coordinates":[[[136.58575,36.01673],[136.58576,36.01683],[136.58587,36.01695],[136.58589,36.01695],[136.58589,36.01689],[136.58595,36.01688],[136.58644,36.01651],[136.5864,36.01646],[136.58624,36.01638],[136.58575,36.01673]]]}},{"type":"Feature","properties":{"pid":"5cf3777b-11f5-465b-abee-1f8e337929cb","full":4.8},"geometry":{"type":"Polygon","coordinates":[[[136.58527,36.01634],[136.58539,36.01645],[136.58547,36.01653],[136.58549,36.01654],[136.58582,36.01633],[136.58585,36.01629],[136.58584,36.01626],[136.58579,36.01624],[136.58543,36.01625],[136.58535,36.01624],[136.58533,36.01624],[136.58527,36.01632],[136.58527,36.01634]]]}},{"type":"Feature","properties":{"pid":"fb80a7df-43f8-40c0-9194-dfcfdd4bf39f","full":5.4},"geometry":{"type":"Polygon","coordinates":[[[136.58558,36.01658],[136.58569,36.01676],[136.58624,36.01636],[136.58623,36.0163],[136.58622,36.01629],[136.58594,36.01631],[136.58558,36.01658]]]}},{"type":"Feature","properties":{"pid":"0e7a8d6a-c6e3-4fd4-b599-a9542b97f82e","full":2.8},"geometry":{"type":"Polygon","coordinates":[[[136.58544,36.01693],[136.58553,36.01701],[136.58566,36.01717],[136.58571,36.01718],[136.58587,36.01709],[136.58583,36.01706],[136.58577,36.017],[136.58575,36.01696],[136.58557,36.01678],[136.58544,36.01693]]]}},{"type":"Feature","properties":{"pid":"8b56d188-e4c2-4875-ac62-3530601b5f20","full":8.2},"geometry":{"type":"Polygon","coordinates":[[[136.58592,36.01693],[136.58593,36.01698],[136.58598,36.01703],[136.58607,36.01709],[136.58671,36.01662],[136.58665,36.01658],[136.58651,36.01653],[136.58647,36.01652],[136.58592,36.01693]]]}},{"type":"Feature","properties":{"pid":"40fe8f60-ad99-4d53-b569-9e9815de1763","full":8.0},"geometry":{"type":"Polygon","coordinates":[[[136.58609,36.0171],[136.58614,36.0171],[136.58621,36.01715],[136.5863,36.01718],[136.58634,36.01718],[136.587,36.01669],[136.58697,36.01666],[136.58692,36.01665],[136.58674,36.01663],[136.58609,36.0171]]]}},{"type":"Feature","properties":{"pid":"a4b24c60-5daf-4d19-a8c6-871a92e23a60","full":5.4},"geometry":{"type":"Polygon","coordinates":[[[136.58422,36.01737],[136.58438,36.01772],[136.58444,36.01779],[136.58452,36.01775],[136.58452,36.01761],[136.58467,36.0174],[136.58479,36.01716],[136.58474,36.0172],[136.58465,36.01722],[136.58456,36.01727],[136.58447,36.01735],[136.58437,36.01737],[136.58422,36.01737]]]}},{"type":"Feature","properties":{"pid":"00748900-e8e7-4d15-8015-2544ba97f07d","full":0.9},"geometry":{"type":"Polygon","coordinates":[[[136.58526,36.01686],[136.58528,36.01689],[136.58542,36.01687],[136.58544,36.01685],[136.58552,36.01677],[136.58554,36.01674],[136.58537,36.01663],[136.58533,36.0167],[136.58526,36.01686]]]}},{"type":"Feature","properties":{"pid":"aa2dd09f-17a9-452d-9e5e-4d548ff4d29b","full":8.6},"geometry":{"type":"Polygon","coordinates":[[[136.5848,36.01663],[136.58491,36.01688],[136.58512,36.01692],[136.58521,36.01676],[136.58524,36.01667],[136.58529,36.0166],[136.58533,36.01656],[136.58532,36.01654],[136.58527,36.01647],[136.58521,36.01642],[136.58517,36.01642],[136.5848,36.01663]]]}},{"type":"Feature","properties":{"pid":"52647e24-ad64-45e6-a126-da39d119dff4","full":5.0},"geometry":{"type":"Polygon","coordinates":[[[136.58465,36.01641],[136.58466,36.01655],[136.58469,36.01664],[136.58474,36.01665],[136.5848,36.01662],[136.58516,36.01636],[136.58491,36.01624],[136.58465,36.01641]]]}},{"type":"Feature","properties":{"pid":"7dc0c9b4-dac4-4900-9010-d7cd9b48b264","full":2.2},"geometry":{"type":"Polygon","coordinates":[[[136.58448,36.01614],[136.58447,36.01628],[136.58456,36.01638],[136.58463,36.01636],[136.58486,36.01623],[136.58474,36.01616],[136.58464,36.01613],[136.58449,36.01613],[136.58448,36.01614]]]}},{"type":"Feature","properties":{"pid":"f73e8575-bdb8-413a-9528-073eddcaabcc","full":3.7},"geometry":{"type":"Polygon","coordinates":[[[136.5846,36.01602],[136.58463,36.01606],[136.58509,36.0162],[136.58521,36.01621],[136.58527,36.01614],[136.58526,36.0161],[136.5852,36.01609],[136.5851,36.01605],[136.5849,36.01595],[136.58487,36.01592],[136.58471,36.01593],[136.58467,36.01595],[136.5846,36.01602]]]}},{"type":"Feature","properties":{"pid":"f8745d86-11eb-4a3c-8ff6-06604ecb9d7e","full":1.3},"geometry":{"type":"Polygon","coordinates":[[[136.58433,36.01547],[136.58429,36.01559],[136.58433,36.01566],[136.58439,36.0157],[136.58448,36.0157],[136.58459,36.01565],[136.58462,36.01558],[136.58433,36.01547]]]}},{"type":"Feature","properties":{"pid":"c0990bce-f9a7-4be4-961c-73192065fbf6","full":0.5},"geometry":{"type":"Polygon","coordinates":[[[136.5849,36.01509],[136.58494,36.01513],[136.58498,36.0152],[136.585,36.01521],[136.58516,36.01502],[136.58514,36.01499],[136.58505,36.01494],[136.5849,36.01509]]]}},{"type":"Feature","properties":{"pid":"c3159c0a-06e1-45dd-81cc-876c11e47096","full":4.4},"geometry":{"type":"Polygon","coordinates":[[[136.58519,36.01545],[136.58522,36.01548],[136.58532,36.01554],[136.58532,36.01556],[136.58537,36.01558],[136.58541,36.01558],[136.58562,36.01513],[136.58558,36.01509],[136.5855,36.01508],[136.58544,36.01509],[136.58539,36.01514],[136.58538,36.01519],[136.58533,36.01524],[136.58519,36.01545]]]}},{"type":"Feature","properties":{"pid":"3c5dc8c0-62d8-4a1f-ba7a-cd12e1bc6220","full":2.4},"geometry":{"type":"Polygon","coordinates":[[[136.58569,36.01539],[136.58595,36.01539],[136.58594,36.01507],[136.58588,36.01504],[136.58578,36.01502],[136.58572,36.01504],[136.5857,36.01506],[136.58575,36.01511],[136.58577,36.01517],[136.58575,36.01525],[136.58571,36.01533],[136.58569,36.01539]]]}},{"type":"Feature","properties":{"pid":"fb299806-5e1d-4536-afc1-d0af6807ed8e","full":6.7},"geometry":{"type":"Polygon","coordinates":[[[136.58636,36.01591],[136.58637,36.01594],[136.58657,36.01591],[136.58657,36.01524],[136.58655,36.01523],[136.58635,36.01522],[136.58634,36.01524],[136.58636,36.01591]]]}},{"type":"Feature","properties":{"pid":"170b5e57-1e0e-480b-8b57-8ebd203e3691","full":7.2},"geometry":{"type":"Polygon","coordinates":[[[136.58608,36.0159],[136.58611,36.01593],[136.58615,36.01593],[136.58631,36.01591],[136.58628,36.01522],[136.58609,36.0152],[136.58606,36.01522],[136.58608,36.0159]]]}},{"type":"Feature","properties":{"pid":"ab23201c-680c-4e1e-9cb1-f40ed0275d85","full":9.2},"geometry":{"type":"Polygon","coordinates":[[[136.5857,36.01545],[136.58559,36.01568],[136.5856,36.01573],[136.58563,36.01579],[136.58569,36.01583],[136.58576,36.01585],[136.58603,36.0159],[136.58602,36.01547],[136.5857,36.01545]]]}},{"type":"Feature","properties":{"pid":"a94a7083-d3f7-4851-a084-26f3be9e608a","full":1.6},"geometry":{"type":"Polygon","coordinates":[[[136.58643,36.01601],[136.58658,36.01619],[136.58666,36.01627],[136.58666,36.01629],[136.5867,36.01629],[136.58675,36.01628],[136.58675,36.01601],[136.58654,36.016],[136.58644,36.016],[136.58643,36.01601]]]}},{"type":"Feature","properties":{"pid":"3be4a862-1a27-4de9-9bf6-47601c58722d","full":6.5},"geometry":{"type":"Polygon","coordinates":[[[136.58664,36.01593],[136.58686,36.01592],[136.58686,36.01526],[136.58683,36.01521],[136.58664,36.01521],[136.58664,36.01593]]]}},{"type":"Feature","properties":{"pid":"fd5b00cd-631a-4255-8f85-d07d43b4360d","full":7.7},"geometry":{"type":"Polygon","coordinates":[[[136.58692,36.01591],[136.58713,36.01591],[136.58714,36.01513],[136.58709,36.01512],[136.58701,36.0151],[136.58695,36.01511],[136.58688,36.01514],[136.58685,36.01517],[136.58692,36.01522],[136.58692,36.01591]]]}},{"type":"Feature","properties":{"pid":"ee5e2f90-04b0-4454-87ed-e9ea94b033c2","full":9.8},"geometry":{"type":"Polygon","coordinates":[[[136.58717,36.0159],[136.58742,36.01591],[136.58742,36.01511],[136.5872,36.01512],[136.58718,36.01515],[136.58717,36.01524],[136.58717,36.0159]]]}},{"type":"Feature","properties":{"pid":"7b7734bf-7ebe-487b-a32a-28f19c752efe","full":8.6},"geometry":{"type":"Polygon","coordinates":[[[136.5877,36.01592],[136.58767,36.0151],[136.58746,36.01511],[136.58745,36.01517],[136.58745,36.01592],[136.5877,36.01592]]]}},{"type":"Feature","properties":{"pid":"936d912e-332f-495e-8690-4a1cef0d69de","full":11.7},"geometry":{"type":"Polygon","coordinates":[[[136.58769,36.01512],[136.5877,36.01537],[136.58771,36.01591],[136.58794,36.01591],[136.58798,36.0159],[136.58798,36.01514],[136.58778,36.01511],[136.58769,36.01512]]]}},{"type":"Feature","properties":{"pid":"c1418b47-f9b0-44c1-b52b-ef76b94eb4c9","full":2.5},"geometry":{"type":"Polygon","coordinates":[[[136.58839,36.01601],[136.58839,36.01637],[136.58841,36.01639],[136.58861,36.01631],[136.58861,36.01604],[136.58839,36.01601]]]}},{"type":"Feature","properties":{"pid":"b85ccbc0-8615-4dd8-89ba-f3d187ae42cc","full":1.9},"geometry":{"type":"Polygon","coordinates":[[[136.5887,36.01607],[136.58869,36.01627],[136.5889,36.01629],[136.58893,36.01627],[136.58899,36.01626],[136.58901,36.01614],[136.58884,36.01608],[136.5887,36.01607]]]}},{"type":"Feature","properties":{"pid":"9acfadab-19cd-40bb-8ba7-1f3d05232158","full":1.0},"geometry":{"type":"Polygon","coordinates":[[[136.58846,36.01553],[136.58836,36.01552],[136.58833,36.01591],[136.58846,36.01592],[136.58847,36.01587],[136.58849,36.01572],[136.5885,36.01557],[136.58849,36.01554],[136.58846,36.01553]]]}},{"type":"Feature","properties":{"pid":"98848903-0d89-4b17-9140-6039fe1ba6f0","full":1.4},"geometry":{"type":"Polygon","coordinates":[[[136.58831,36.01541],[136.58824,36.01541],[136.58821,36.01544],[136.58818,36.01552],[136.5882,36.01557],[136.58817,36.01591],[136.58831,36.01591],[136.58834,36.01542],[136.58831,36.01541]]]}},{"type":"Feature","properties":{"pid":"1a5caf5c-18e0-4c56-a45e-5ca0b6b685d9","full":5.1},"geometry":{"type":"Polygon","coordinates":[[[136.588,36.01589],[136.58801,36.0159],[136.58812,36.01589],[136.58815,36.0156],[136.58814,36.01553],[136.58813,36.01549],[136.58816,36.01546],[136.58823,36.01538],[136.58831,36.01538],[136.58827,36.01517],[136.58811,36.01514],[136.58799,36.01515],[136.588,36.01589]]]}},{"type":"Feature","properties":{"pid":"468173d4-76fe-4c06-8ebc-bbec4506baaf","full":2.2},"geometry":{"type":"Polygon","coordinates":[[[136.58682,36.0129],[136.58689,36.01295],[136.58691,36.01295],[136.58695,36.01294],[136.58706,36.01287],[136.58723,36.01272],[136.58724,36.01269],[136.5871,36.01259],[136.58708,36.01259],[136.58705,36.01262],[136.58682,36.0129]]]}},{"type":"Feature","properties":{"pid":"3f6fe1ee-4c25-4b20-9b0f-5114035684f6","full":1.3},"geometry":{"type":"Polygon","coordinates":[[[136.58628,36.01297],[136.58645,36.01299],[136.5865,36.01296],[136.58667,36.01296],[136.58668,36.01292],[136.58662,36.01291],[136.58648,36.01283],[136.58642,36.01278],[136.58631,36.0128],[136.58628,36.01297]]]}},{"type":"Feature","properties":{"pid":"dbc9ac65-f933-44ab-ae37-aeba956a38e5","full":5.1},"geometry":{"type":"Polygon","coordinates":[[[136.58577,36.013],[136.58606,36.01296],[136.58626,36.01294],[136.58628,36.01276],[136.58585,36.01269],[136.58577,36.013]]]}},{"type":"Feature","properties":{"pid":"ed6115f2-f8ff-49ab-a051-a8af77181985","full":3.2},"geometry":{"type":"Polygon","coordinates":[[[136.58577,36.01355],[136.58589,36.01356],[136.58594,36.01308],[136.58585,36.01307],[136.58569,36.01316],[136.58567,36.01319],[136.58577,36.01355]]]}},{"type":"Feature","properties":{"pid":"ac004439-aac0-4417-a529-bb40039a15f3","full":2.3},"geometry":{"type":"Polygon","coordinates":[[[136.58534,36.01448],[136.58543,36.01451],[136.58553,36.01451],[136.58578,36.01434],[136.58582,36.01421],[136.58575,36.01413],[136.58534,36.01448]]]}},{"type":"Feature","properties":{"pid":"f5b7c836-95ab-4b8d-bb60-9026d9e38f48","full":5.5},"geometry":{"type":"Polygon","coordinates":[[[136.58535,36.01405],[136.58553,36.01394],[136.58553,36.01365],[136.58549,36.01357],[136.58544,36.01355],[136.5853,36.01353],[136.58525,36.0136],[136.58529,36.01399],[136.58532,36.01403],[136.58534,36.01405],[136.58535,36.01405]]]}},{"type":"Feature","properties":{"pid":"b2abe672-7305-4856-966b-7cbca0140804","full":3.5},"geometry":{"type":"Polygon","coordinates":[[[136.58493,36.01365],[136.58495,36.01384],[136.58514,36.01391],[136.58524,36.01393],[136.58521,36.01358],[136.58523,36.01354],[136.58517,36.01353],[136.58493,36.01365]]]}},{"type":"Feature","properties":{"pid":"7528f39d-0131-43a9-8a42-8b8e578133bd","full":3.0},"geometry":{"type":"Polygon","coordinates":[[[136.58533,36.01441],[136.58538,36.01438],[136.58569,36.01408],[136.58559,36.01403],[136.58495,36.0144],[136.58495,36.01443],[136.58497,36.01444],[136.58523,36.0144],[136.58527,36.01442],[136.58533,36.01441]]]}},{"type":"Feature","properties":{"pid":"3e15fa57-9e4c-460a-9727-432f62356d8a","full":1.0},"geometry":{"type":"Polygon","coordinates":[[[136.5848,36.01438],[136.58527,36.01412],[136.58527,36.01411],[136.58529,36.01408],[136.58523,36.014],[136.58507,36.01407],[136.58493,36.01417],[136.58488,36.01423],[136.58476,36.01431],[136.58477,36.01437],[136.5848,36.01438]]]}},{"type":"Feature","properties":{"pid":"5309fd9e-87a7-42e2-a58e-97e2bf9c609a","full":5.9},"geometry":{"type":"Polygon","coordinates":[[[136.58481,36.01356],[136.58486,36.01357],[136.58496,36.01355],[136.58501,36.01352],[136.58521,36.01274],[136.58504,36.01269],[136.58481,36.01356]]]}},{"type":"Feature","properties":{"pid":"00646168-487f-4f4d-b6f7-8ed7dd39290e","full":6.1},"geometry":{"type":"Polygon","coordinates":[[[136.58505,36.01348],[136.58509,36.01349],[136.58528,36.0134],[136.58538,36.01329],[136.5854,36.01284],[136.58525,36.01277],[136.58505,36.01348]]]}},{"type":"Feature","properties":{"pid":"ca9394de-5cf8-4486-bc75-edc96e03f0c3","full":7.2},"geometry":{"type":"Polygon","coordinates":[[[136.58434,36.01259],[136.58434,36.01277],[136.58436,36.01294],[136.5846,36.013],[136.58469,36.01295],[136.58477,36.01265],[136.58434,36.01259]]]}},{"type":"Feature","properties":{"pid":"fc32c27a-e74f-4ef0-b56d-b94c7501d837","full":5.2},"geometry":{"type":"Polygon","coordinates":[[[136.58455,36.01356],[136.58476,36.01356],[136.58498,36.01271],[136.58481,36.01267],[136.58465,36.01333],[136.58456,36.01351],[136.58455,36.01356]]]}},{"type":"Feature","properties":{"pid":"177d386e-1747-4cb7-9474-dc37df175c11","full":2.3},"geometry":{"type":"Polygon","coordinates":[[[136.58439,36.01297],[136.58433,36.01324],[136.58457,36.01328],[136.58462,36.01303],[136.58439,36.01297]]]}},{"type":"Feature","properties":{"pid":"327f32b6-34e9-49b0-9f61-4fc567b8ee24","full":0.6},"geometry":{"type":"Polygon","coordinates":[[[136.58411,36.01372],[136.5841,36.01367],[136.58413,36.01364],[136.58411,36.01356],[136.58402,36.01349],[136.58389,36.01357],[136.58402,36.01372],[136.58411,36.01372]]]}},{"type":"Feature","properties":{"pid":"d744cc74-b08d-49c5-a9aa-9d472661ba38","full":1.3},"geometry":{"type":"Polygon","coordinates":[[[136.58153,36.01359],[136.58178,36.01356],[136.58182,36.01342],[136.58178,36.0134],[136.58163,36.01338],[136.58158,36.01339],[136.58155,36.01349],[136.58153,36.01359]]]}},{"type":"Feature","properties":{"pid":"c3ea6162-b00f-4858-ac7e-0b63baa083d9","full":1.2},"geometry":{"type":"Polygon","coordinates":[[[136.58359,36.01378],[136.58345,36.01368],[136.58329,36.01375],[136.58328,36.01378],[136.5834,36.01392],[136.58354,36.01385],[136.58359,36.01378]]]}},{"type":"Feature","properties":{"pid":"4fab66d6-1923-4f84-8665-837cb6bfd4b9","full":2.3},"geometry":{"type":"Polygon","coordinates":[[[136.58383,36.01491],[136.58391,36.0149],[136.58408,36.0149],[136.58423,36.01493],[136.5843,36.01486],[136.58431,36.01481],[136.58423,36.01476],[136.58407,36.01474],[136.58397,36.01467],[136.58381,36.0149],[136.58383,36.01491]]]}},{"type":"Feature","properties":{"pid":"c18c3e16-9797-48af-8025-c55188c9e91b","full":0.5},"geometry":{"type":"Polygon","coordinates":[[[136.58373,36.01489],[136.58389,36.01458],[136.58377,36.01456],[136.58373,36.01456],[136.58371,36.01458],[136.58368,36.01468],[136.58368,36.0148],[136.58366,36.01485],[136.58366,36.01486],[136.58373,36.01489]]]}},{"type":"Feature","properties":{"pid":"71724629-2bd8-4ed7-9dec-2d9ec011df00","full":1.5},"geometry":{"type":"Polygon","coordinates":[[[136.58402,36.01516],[136.58404,36.01506],[136.58416,36.01506],[136.58421,36.01496],[136.58408,36.01492],[136.58392,36.01491],[136.58386,36.01492],[136.58385,36.01496],[136.58387,36.01499],[136.58387,36.01511],[136.58402,36.01516]]]}},{"type":"Feature","properties":{"pid":"f18114c1-a7da-494c-9aab-67c3eeca457e","full":7.5},"geometry":{"type":"Polygon","coordinates":[[[136.58055,36.01497],[136.58058,36.01499],[136.5806,36.01498],[136.58069,36.01503],[136.58074,36.01505],[136.58078,36.01504],[136.5808,36.01505],[136.58086,36.01505],[136.58115,36.01473],[136.58117,36.0147],[136.58117,36.01466],[136.58085,36.01462],[136.58055,36.01497]]]}},{"type":"Feature","properties":{"pid":"5d439af5-18d1-4a8a-a339-50b38127bfe0","full":2.1},"geometry":{"type":"Polygon","coordinates":[[[136.58011,36.01493],[136.58037,36.0152],[136.5804,36.01521],[136.58054,36.01505],[136.58041,36.01494],[136.58035,36.01493],[136.58015,36.01491],[136.58011,36.01493]]]}},{"type":"Feature","properties":{"pid":"6013eba9-e748-405b-80fb-ae7bfa15ddd2","full":8.2},"geometry":{"type":"Polygon","coordinates":[[[136.57976,36.01603],[136.5798,36.01608],[136.5803,36.01611],[136.5804,36.01613],[136.58066,36.0162],[136.58074,36.01621],[136.58077,36.0162],[136.58081,36.01619],[136.58091,36.01622],[136.58078,36.01608],[136.58069,36.01595],[136.58067,36.01594],[136.58027,36.01593],[136.57986,36.01595],[136.57984,36.01596],[136.57976,36.01603]]]}},{"type":"Feature","properties":{"pid":"57abd647-6d77-4221-a663-cfa6c3b9ed2f","full":4.6},"geometry":{"type":"Polygon","coordinates":[[[136.57977,36.01551],[136.58038,36.0155],[136.58038,36.01548],[136.58042,36.01548],[136.58037,36.01537],[136.58032,36.01532],[136.57976,36.01533],[136.57975,36.01534],[136.57974,36.01546],[136.57974,36.0155],[136.57977,36.01551]]]}},{"type":"Feature","properties":{"pid":"918d6452-23a2-4753-86e3-a6cfc679b278","full":5.8},"geometry":{"type":"Polygon","coordinates":[[[136.57977,36.01573],[136.58058,36.01572],[136.58061,36.0157],[136.58055,36.01561],[136.58051,36.01558],[136.58045,36.01555],[136.57976,36.01555],[136.57974,36.01569],[136.57977,36.01573]]]}},{"type":"Feature","properties":{"pid":"592aa673-b72e-4b87-8a20-c360adb72f3d","full":4.6},"geometry":{"type":"Polygon","coordinates":[[[136.5798,36.01591],[136.5806,36.0159],[136.58063,36.01589],[136.58066,36.01588],[136.58066,36.01586],[136.58063,36.01576],[136.58062,36.01575],[136.5806,36.01575],[136.57977,36.01577],[136.57975,36.01578],[136.57976,36.01587],[136.5798,36.01591]]]}},{"type":"Feature","properties":{"pid":"8c562ba1-46af-445a-a964-83ad3e1f52e3","full":7.9},"geometry":{"type":"Polygon","coordinates":[[[136.57902,36.01609],[136.57966,36.0161],[136.57968,36.01602],[136.57965,36.01585],[136.57904,36.01586],[136.57902,36.016],[136.57902,36.01609]]]}},{"type":"Feature","properties":{"pid":"7b3a43fa-e874-43fd-b23c-c1a3734af8f0","full":4.8},"geometry":{"type":"Polygon","coordinates":[[[136.57864,36.01569],[136.57866,36.01571],[136.57899,36.01571],[136.57899,36.01574],[136.57902,36.01575],[136.57959,36.01574],[136.57963,36.01572],[136.57964,36.01569],[136.57966,36.01559],[136.57965,36.01557],[136.57869,36.0156],[136.57865,36.01562],[136.57864,36.01569]]]}},{"type":"Feature","properties":{"pid":"617758f5-82c5-43c5-9963-ca4d38e4be29","full":7.3},"geometry":{"type":"Polygon","coordinates":[[[136.57867,36.01552],[136.57959,36.01551],[136.57961,36.0155],[136.57962,36.01546],[136.57963,36.01534],[136.57961,36.01533],[136.57868,36.01535],[136.57867,36.01535],[136.57867,36.01552]]]}},{"type":"Feature","properties":{"pid":"fc49982b-dbba-48cb-acb8-82bea81b9cb8","full":3.7},"geometry":{"type":"Polygon","coordinates":[[[136.57907,36.01528],[136.57909,36.0153],[136.5796,36.01529],[136.57963,36.01511],[136.57962,36.01509],[136.57925,36.0151],[136.57924,36.0151],[136.57907,36.01528]]]}},{"type":"Feature","properties":{"pid":"f4baab55-e4f9-48e0-bff1-1e25bc02fb77","full":0.6},"geometry":{"type":"Polygon","coordinates":[[[136.57926,36.01505],[136.57963,36.01504],[136.57965,36.01506],[136.57975,36.01505],[136.57987,36.01502],[136.57992,36.01499],[136.5799,36.01495],[136.57958,36.01494],[136.57954,36.01494],[136.57934,36.01494],[136.57931,36.01495],[136.57926,36.01505]]]}},{"type":"Feature","properties":{"pid":"6ebd9b70-cc96-493c-96c3-cec391347cf7","full":3.4},"geometry":{"type":"Polygon","coordinates":[[[136.57973,36.01528],[136.57974,36.01529],[136.58029,36.01528],[136.58014,36.01512],[136.57999,36.0151],[136.57994,36.01507],[136.5799,36.01508],[136.57987,36.0151],[136.57974,36.01513],[136.57973,36.01528]]]}},{"type":"Feature","properties":{"pid":"dc57bb9b-c004-4a80-990e-19d2de58e4a1","full":0.6},"geometry":{"type":"Polygon","coordinates":[[[136.58021,36.01475],[136.5802,36.01471],[136.58023,36.01468],[136.58022,36.01468],[136.58024,36.01467],[136.58028,36.01462],[136.58029,36.01457],[136.58012,36.01456],[136.58013,36.01449],[136.58005,36.01448],[136.58004,36.01449],[136.58007,36.01469],[136.58003,36.01483],[136.58006,36.01483],[136.58013,36.01478],[136.5802,36.01476],[136.58021,36.01475]]]}},{"type":"Feature","properties":{"pid":"19d41686-a6c5-4b9f-b589-af96853c3adf","full":1.1},"geometry":{"type":"Polygon","coordinates":[[[136.57919,36.01435],[136.57926,36.01433],[136.57927,36.01421],[136.57931,36.01405],[136.57928,36.01392],[136.57926,36.01389],[136.57917,36.01392],[136.57918,36.014],[136.57917,36.01405],[136.57915,36.01409],[136.57913,36.01411],[136.57911,36.01415],[136.57914,36.01427],[136.57919,36.01435]]]}},{"type":"Feature","properties":{"pid":"5590f27d-5745-435e-afb9-68c27d1db057","full":0.9},"geometry":{"type":"Polygon","coordinates":[[[136.58129,36.01365],[136.5814,36.01364],[136.58144,36.01338],[136.58141,36.01336],[136.58125,36.01335],[136.58128,36.01362],[136.58129,36.01365]]]}},{"type":"Feature","properties":{"pid":"f8ae85b2-631b-416f-8cc1-f2a1e3f2686f","full":10.3},"geometry":{"type":"Polygon","coordinates":[[[136.57988,36.01254],[136.57998,36.01267],[136.58003,36.01274],[136.58007,36.01278],[136.58023,36.01269],[136.58025,36.01267],[136.58024,36.01263],[136.58025,36.01261],[136.58029,36.01261],[136.58036,36.01263],[136.5806,36.01246],[136.5806,36.01245],[136.58033,36.01224],[136.57988,36.01254]]]}},{"type":"Feature","properties":{"pid":"ae791cef-b550-4200-8c2f-af89ead7f961","full":6.1},"geometry":{"type":"Polygon","coordinates":[[[136.57961,36.0124],[136.57986,36.01251],[136.5803,36.01221],[136.58014,36.01208],[136.58012,36.01207],[136.5801,36.01207],[136.58006,36.01211],[136.57961,36.0124]]]}},{"type":"Feature","properties":{"pid":"7062b789-7944-48b2-87d6-a5c3683a6d35","full":10.7},"geometry":{"type":"Polygon","coordinates":[[[136.57952,36.01241],[136.57976,36.01225],[136.57993,36.01214],[136.58007,36.01203],[136.57992,36.01191],[136.5798,36.01191],[136.57977,36.01189],[136.57966,36.0118],[136.57953,36.01189],[136.57955,36.01193],[136.57953,36.01199],[136.57949,36.01204],[136.57942,36.01204],[136.57938,36.01199],[136.57936,36.01202],[136.57934,36.01223],[136.57931,36.01224],[136.5793,36.01227],[136.57936,36.01232],[136.5794,36.01233],[136.57952,36.01241]],[[136.57957,36.01218],[136.57953,36.01215],[136.57952,36.01212],[136.57952,36.01208],[136.57954,36.01205],[136.57957,36.01205],[136.57959,36.01206],[136.57959,36.01208],[136.57962,36.0121],[136.57962,36.01211],[136.57962,36.01216],[136.57959,36.01218],[136.57957,36.01218]]]}},{"type":"Feature","properties":{"pid":"3a27c404-4e0e-4f33-bca6-dd838354028a","full":3.9},"geometry":{"type":"Polygon","coordinates":[[[136.57916,36.01179],[136.57922,36.01182],[136.57928,36.01188],[136.57935,36.01197],[136.57966,36.01174],[136.57962,36.0117],[136.57957,36.01169],[136.57943,36.01157],[136.57916,36.01179]]]}},{"type":"Feature","properties":{"pid":"5cfe623d-074d-435b-8c40-3ae64da872c0","full":5.2},"geometry":{"type":"Polygon","coordinates":[[[136.57904,36.01173],[136.57937,36.01147],[136.57937,36.01146],[136.57933,36.01143],[136.57921,36.01133],[136.57911,36.01132],[136.57901,36.01141],[136.57889,36.01158],[136.5789,36.01162],[136.57892,36.01165],[136.57895,36.01168],[136.57904,36.01173]]]}},{"type":"Feature","properties":{"pid":"3739d927-2876-4ca7-9888-a4c5b1ce85d5","full":7.6},"geometry":{"type":"Polygon","coordinates":[[[136.57931,36.01134],[136.57934,36.01138],[136.57941,36.01143],[136.57999,36.01094],[136.57999,36.01093],[136.57984,36.01079],[136.57982,36.01079],[136.57934,36.01119],[136.57938,36.01126],[136.57938,36.01127],[136.57931,36.01134]]]}},{"type":"Feature","properties":{"pid":"51644e1e-c609-4957-892c-c9f0f5898cf4","full":11.0},"geometry":{"type":"Polygon","coordinates":[[[136.57946,36.01146],[136.57964,36.01163],[136.58023,36.01114],[136.58014,36.01103],[136.58005,36.01095],[136.57949,36.01141],[136.57946,36.01146]]]}},{"type":"Feature","properties":{"pid":"25b79aff-1068-49e5-bb55-0717b1f64177","full":5.6},"geometry":{"type":"Polygon","coordinates":[[[136.57969,36.01165],[136.57986,36.01178],[136.57991,36.01174],[136.57987,36.01166],[136.57986,36.01158],[136.57987,36.01155],[136.57989,36.01154],[136.57995,36.01154],[136.58001,36.01152],[136.58006,36.01152],[136.58011,36.01152],[136.58017,36.01153],[136.58019,36.01155],[136.58045,36.01134],[136.58031,36.01118],[136.58027,36.01115],[136.5797,36.01162],[136.57969,36.01165]]]}},{"type":"Feature","properties":{"pid":"42625aec-b07f-4abb-b51e-0ef9ade4f8e4","full":7.4},"geometry":{"type":"Polygon","coordinates":[[[136.57994,36.01184],[136.58012,36.012],[136.58071,36.01152],[136.58062,36.01142],[136.58054,36.01136],[136.5802,36.01164],[136.58019,36.01172],[136.58013,36.01178],[136.58004,36.0118],[136.57999,36.01179],[136.57994,36.01184]]]}},{"type":"Feature","properties":{"pid":"d801ea5f-d90f-42c3-ad6d-39f9fa1b2c08","full":10.8},"geometry":{"type":"Polygon","coordinates":[[[136.58063,36.01127],[136.58076,36.01141],[136.58087,36.01149],[136.58091,36.0115],[136.58102,36.01133],[136.58108,36.01121],[136.58131,36.01102],[136.58136,36.01096],[136.58126,36.01086],[136.5812,36.01082],[136.58117,36.01082],[136.58063,36.01127]]]}},{"type":"Feature","properties":{"pid":"a711e7be-c671-47ec-b85b-a8e901dfc406","full":3.1},"geometry":{"type":"Polygon","coordinates":[[[136.58124,36.01159],[136.58165,36.01136],[136.58155,36.01124],[136.58151,36.01123],[136.58128,36.01132],[136.58124,36.01138],[136.58122,36.01148],[136.58121,36.01155],[136.58124,36.01159]]]}},{"type":"Feature","properties":{"pid":"05c3a74e-5c58-4c0c-b6fe-03368f9bc472","full":7.7},"geometry":{"type":"Polygon","coordinates":[[[136.5812,36.01166],[136.58124,36.01187],[136.58127,36.0119],[136.58183,36.01159],[136.58171,36.01141],[136.58169,36.01139],[136.5812,36.01166]]]}},{"type":"Feature","properties":{"pid":"d879a3ef-4afb-46b6-be16-1a22b314f5be","full":7.3},"geometry":{"type":"Polygon","coordinates":[[[136.58037,36.01215],[136.58064,36.01196],[136.58088,36.01175],[136.58085,36.01166],[136.58076,36.01157],[136.58023,36.012],[136.58022,36.01203],[136.58037,36.01215]]]}},{"type":"Feature","properties":{"pid":"b7162406-f5eb-466b-b04f-775f7ab9f6dd","full":5.2},"geometry":{"type":"Polygon","coordinates":[[[136.58044,36.01219],[136.58062,36.01233],[136.58095,36.01208],[136.58094,36.01198],[136.58088,36.01183],[136.58044,36.01219]]]}},{"type":"Feature","properties":{"pid":"9bc6f278-0e0a-416d-83fd-24855a93c9c7","full":4.3},"geometry":{"type":"Polygon","coordinates":[[[136.58088,36.01251],[136.58114,36.01231],[136.58097,36.01211],[136.58066,36.01234],[136.58088,36.01251]]]}},{"type":"Feature","properties":{"pid":"6ac9851e-581a-4af7-83c2-75bef3a9b8cf","full":4.2},"geometry":{"type":"Polygon","coordinates":[[[136.58009,36.01281],[136.58029,36.01292],[136.5805,36.01278],[136.58053,36.01271],[136.58056,36.01269],[136.58063,36.0127],[136.58078,36.0126],[136.58063,36.01248],[136.58009,36.01281]]]}},{"type":"Feature","properties":{"pid":"644240bf-2c92-4e89-9078-35370c9cd001","full":4.0},"geometry":{"type":"Polygon","coordinates":[[[136.58089,36.01253],[136.5811,36.01269],[136.58114,36.01269],[136.58134,36.01254],[136.58135,36.01253],[136.58115,36.01232],[136.58089,36.01253]]]}},{"type":"Feature","properties":{"pid":"de662ce8-be46-471e-a073-b654965c5d5e","full":2.6},"geometry":{"type":"Polygon","coordinates":[[[136.58114,36.01272],[136.58133,36.01289],[136.58137,36.01289],[136.58151,36.01268],[136.5815,36.01266],[136.58137,36.01255],[136.58114,36.01271],[136.58114,36.01272]]]}},{"type":"Feature","properties":{"pid":"3a233cf8-7aaf-4748-9c8a-94587cc6527c","full":8.5},"geometry":{"type":"Polygon","coordinates":[[[136.58174,36.01232],[136.58187,36.01226],[136.58222,36.01206],[136.58208,36.01187],[136.58195,36.01194],[136.5819,36.01192],[136.58154,36.01208],[136.58154,36.01211],[136.58156,36.01214],[136.58174,36.01232]]]}},{"type":"Feature","properties":{"pid":"8ef263be-5c3b-4a42-ac3a-5a0074ba7260","full":4.6},"geometry":{"type":"Polygon","coordinates":[[[136.58237,36.01203],[136.5825,36.01219],[136.58297,36.01195],[136.58291,36.01188],[136.5828,36.0118],[136.58237,36.01203]]]}},{"type":"Feature","properties":{"pid":"3887dbb9-7e6c-4634-9ee8-075b02203deb","full":5.0},"geometry":{"type":"Polygon","coordinates":[[[136.58252,36.01221],[136.58266,36.01238],[136.58275,36.01233],[136.58293,36.01227],[136.58299,36.01223],[136.58301,36.01215],[136.58306,36.01208],[136.583,36.01202],[136.58296,36.012],[136.58293,36.01199],[136.58252,36.01221]]]}},{"type":"Feature","properties":{"pid":"30e82040-2387-4fb7-bee7-11f5872ab4f9","full":3.6},"geometry":{"type":"Polygon","coordinates":[[[136.58224,36.01215],[136.58207,36.01224],[136.58207,36.01225],[136.5821,36.01228],[136.58226,36.01238],[136.58228,36.01243],[136.58228,36.01249],[136.58234,36.01258],[136.58238,36.01263],[136.58258,36.01257],[136.58258,36.01256],[136.58246,36.01237],[136.58224,36.01215]]]}},{"type":"Feature","properties":{"pid":"b00959c9-37ff-4c18-890a-72a550aed021","full":3.5},"geometry":{"type":"Polygon","coordinates":[[[136.58389,36.0124],[136.58401,36.01237],[136.58403,36.01235],[136.58403,36.01233],[136.58396,36.0122],[136.58395,36.0121],[136.58392,36.01202],[136.58382,36.01189],[136.58381,36.01186],[136.58376,36.01186],[136.58366,36.01191],[136.58362,36.01194],[136.58362,36.01195],[136.58368,36.01199],[136.58373,36.01208],[136.58383,36.01236],[136.58385,36.01239],[136.58389,36.0124]]]}},{"type":"Feature","properties":{"pid":"edd2b1c9-424e-4df2-a638-b3988012a3d4","full":2.3},"geometry":{"type":"Polygon","coordinates":[[[136.58386,36.01159],[136.58349,36.01178],[136.58345,36.01182],[136.58345,36.01183],[136.58359,36.01192],[136.58379,36.01184],[136.58381,36.01184],[136.58391,36.01162],[136.58394,36.01156],[136.58393,36.01155],[136.58386,36.01159]]]}},{"type":"Feature","properties":{"pid":"42f1ff17-b7cb-4172-ad87-ae3ce6a92832","full":9.4},"geometry":{"type":"Polygon","coordinates":[[[136.58319,36.01155],[136.58319,36.01159],[136.58321,36.01163],[136.58335,36.01173],[136.58338,36.01177],[136.5834,36.01178],[136.58368,36.01165],[136.58393,36.01151],[136.58392,36.01147],[136.5837,36.01134],[136.58319,36.01155]]]}},{"type":"Feature","properties":{"pid":"720378f2-3eb7-4aaf-aa3a-c0396b6a6411","full":0.7},"geometry":{"type":"Polygon","coordinates":[[[136.5831,36.01125],[136.58351,36.01109],[136.58344,36.01101],[136.58314,36.01111],[136.58313,36.01109],[136.58301,36.01116],[136.5831,36.01125]]]}},{"type":"Feature","properties":{"pid":"3720960b-707c-4dcd-9e9a-49927e683aeb","full":3.2},"geometry":{"type":"Polygon","coordinates":[[[136.58312,36.01134],[136.58314,36.01139],[136.58316,36.0115],[136.58317,36.01151],[136.58367,36.01131],[136.58367,36.01129],[136.58364,36.01127],[136.58358,36.01118],[136.58312,36.01134]]]}},{"type":"Feature","properties":{"pid":"4eeff3e7-5b05-418a-bb7f-94b7f33667e2","full":4.1},"geometry":{"type":"Polygon","coordinates":[[[136.58233,36.01197],[136.58278,36.01173],[136.58269,36.01157],[136.58269,36.01156],[136.58267,36.01156],[136.58226,36.01179],[136.58229,36.01183],[136.58225,36.01187],[136.58233,36.01197]]]}},{"type":"Feature","properties":{"pid":"d15e4cd9-0b2e-4cc6-98de-e7ad08e33209","full":5.7},"geometry":{"type":"Polygon","coordinates":[[[136.58219,36.01174],[136.58268,36.01145],[136.58265,36.01141],[136.58253,36.0113],[136.58251,36.0113],[136.58221,36.01146],[136.5822,36.01149],[136.58207,36.01158],[136.58207,36.0116],[136.58213,36.01169],[136.58219,36.01174]]]}},{"type":"Feature","properties":{"pid":"56422758-a828-4916-bbdd-7260b30a7138","full":5.4},"geometry":{"type":"Polygon","coordinates":[[[136.58152,36.01204],[136.58199,36.01183],[136.58198,36.0118],[136.58185,36.01162],[136.58166,36.01173],[136.5814,36.01188],[136.58152,36.01204]]]}},{"type":"Feature","properties":{"pid":"7ec6770b-519b-4332-9aa8-97a5c6507735","full":6.8},"geometry":{"type":"Polygon","coordinates":[[[136.58202,36.01148],[136.58254,36.0112],[136.58253,36.01109],[136.58255,36.011],[136.58254,36.01096],[136.58188,36.01132],[136.58202,36.01148]]]}},{"type":"Feature","properties":{"pid":"cb7d2b57-74ad-41a7-9cfb-7789c4eb6e6b","full":1.7},"geometry":{"type":"Polygon","coordinates":[[[136.58175,36.011],[136.58212,36.01079],[136.58201,36.01064],[136.5819,36.01073],[136.58188,36.01073],[136.58185,36.01075],[136.58178,36.01082],[136.58176,36.01085],[136.58178,36.01086],[136.5817,36.01093],[136.58172,36.01093],[136.58173,36.01097],[136.58175,36.011]]]}},{"type":"Feature","properties":{"pid":"0745168b-0c11-4202-9f5f-8ec8578adda7","full":11.1},"geometry":{"type":"Polygon","coordinates":[[[136.58187,36.01124],[136.58189,36.01124],[136.58266,36.01082],[136.58265,36.0107],[136.58261,36.01063],[136.58259,36.01062],[136.58218,36.01086],[136.58213,36.01081],[136.58175,36.01103],[136.58172,36.01106],[136.58176,36.01111],[136.58177,36.01114],[136.58184,36.01123],[136.58187,36.01124]]]}},{"type":"Feature","properties":{"pid":"64056d71-2691-4e17-92ee-2610c8a92b4a","full":11.8},"geometry":{"type":"Polygon","coordinates":[[[136.58219,36.01078],[136.58257,36.01057],[136.58257,36.01054],[136.58237,36.01015],[136.5822,36.01014],[136.5822,36.01018],[136.58216,36.01032],[136.58208,36.0105],[136.58202,36.01057],[136.58219,36.01078]]]}},{"type":"Feature","properties":{"pid":"dc453d7b-0733-4d9d-a666-8983cb9a95ba","full":3.2},"geometry":{"type":"Polygon","coordinates":[[[136.58247,36.01003],[136.58246,36.01005],[136.58259,36.01025],[136.58277,36.01023],[136.58277,36.01018],[136.58278,36.01012],[136.58281,36.01008],[136.58286,36.01005],[136.58279,36.00991],[136.58247,36.01003]]]}},{"type":"Feature","properties":{"pid":"48c18b0d-1942-457d-bbd2-590777500e7c","full":0.9},"geometry":{"type":"Polygon","coordinates":[[[136.58313,36.01104],[136.58316,36.01105],[136.58345,36.01094],[136.58336,36.01084],[136.58329,36.01072],[136.58322,36.01073],[136.58323,36.01082],[136.58313,36.01104]]]}},{"type":"Feature","properties":{"pid":"028fc61f-73d8-49c6-a39d-8c6a7f97e9c7","full":6.1},"geometry":{"type":"Polygon","coordinates":[[[136.58273,36.00962],[136.58293,36.01005],[136.58295,36.01006],[136.583,36.01003],[136.58302,36.00998],[136.583,36.00995],[136.58301,36.0099],[136.58317,36.00971],[136.5831,36.00963],[136.58308,36.0096],[136.58307,36.00956],[136.58307,36.0095],[136.58291,36.00953],[136.58273,36.00962]]]}},{"type":"Feature","properties":{"pid":"68971d0a-f8b0-41c1-8380-aceb55db64ac","full":7.6},"geometry":{"type":"Polygon","coordinates":[[[136.58276,36.00947],[136.58298,36.00942],[136.58301,36.0094],[136.58328,36.00909],[136.58271,36.0091],[136.58273,36.00913],[136.58271,36.00916],[136.58269,36.00916],[136.58271,36.00934],[136.58273,36.00943],[136.58276,36.00947]]]}},{"type":"Feature","properties":{"pid":"d74c5568-9e6c-46c1-ac8c-5cab3999b4ec","full":2.6},"geometry":{"type":"Polygon","coordinates":[[[136.58219,36.00932],[136.58257,36.00931],[136.58255,36.00914],[136.58214,36.00914],[136.58209,36.00915],[136.58219,36.00932]]]}},{"type":"Feature","properties":{"pid":"2738bc01-b987-4269-b5e7-7cbf8b16e860","full":3.0},"geometry":{"type":"Polygon","coordinates":[[[136.58227,36.00962],[136.58258,36.00953],[136.58258,36.00943],[136.58256,36.00938],[136.58252,36.00936],[136.58224,36.00938],[136.5822,36.0094],[136.58223,36.00952],[136.58226,36.0096],[136.58227,36.00959],[136.58227,36.00962]]]}},{"type":"Feature","properties":{"pid":"e2650943-9ea4-48b4-ac12-0620920fe076","full":5.2},"geometry":{"type":"Polygon","coordinates":[[[136.58246,36.01003],[136.58278,36.00991],[136.58265,36.00964],[136.58263,36.00963],[136.58254,36.00966],[136.58231,36.00978],[136.58235,36.00986],[136.58237,36.00988],[136.58246,36.01003]]]}},{"type":"Feature","properties":{"pid":"97f4dceb-5045-44fe-ba79-055ab0150d9e","full":4.5},"geometry":{"type":"Polygon","coordinates":[[[136.58145,36.00986],[136.58194,36.01026],[136.58197,36.01023],[136.58201,36.01009],[136.58155,36.0097],[136.58152,36.00972],[136.58151,36.00977],[136.58146,36.00983],[136.58145,36.00986]]]}},{"type":"Feature","properties":{"pid":"70c5ddbb-3bce-4024-a822-255b080e7161","full":14.7},"geometry":{"type":"Polygon","coordinates":[[[136.58154,36.00963],[136.58198,36.00999],[136.582,36.01],[136.58202,36.00998],[136.58204,36.00986],[136.58204,36.00976],[136.58202,36.00958],[136.58199,36.00955],[136.58196,36.00938],[136.58191,36.00936],[136.58188,36.00929],[136.58186,36.00928],[136.58184,36.00926],[136.58182,36.0092],[136.5818,36.00919],[136.5816,36.00934],[136.58161,36.00935],[136.58156,36.00941],[136.58154,36.0095],[136.58154,36.00963]]]}},{"type":"Feature","properties":{"pid":"473b121b-daf7-49c1-bd8d-75d4a91f382b","full":7.2},"geometry":{"type":"Polygon","coordinates":[[[136.58033,36.01],[136.58049,36.01015],[136.58107,36.00965],[136.58099,36.00959],[136.58088,36.00954],[136.58033,36.01]]]}},{"type":"Feature","properties":{"pid":"9b4800e5-003b-4976-b9e3-f01fe5fb1e3a","full":11.3},"geometry":{"type":"Polygon","coordinates":[[[136.58005,36.00979],[136.58025,36.00996],[136.58085,36.00948],[136.58082,36.00944],[136.58067,36.00932],[136.58065,36.00931],[136.58062,36.00931],[136.58005,36.00979]]]}},{"type":"Feature","properties":{"pid":"af96bbfd-a3aa-4426-aec8-254394a83a52","full":7.0},"geometry":{"type":"Polygon","coordinates":[[[136.58053,36.01016],[136.58063,36.01026],[136.58068,36.0103],[136.5807,36.01029],[136.58126,36.00984],[136.58109,36.0097],[136.58053,36.01016]]]}},{"type":"Feature","properties":{"pid":"62a47860-086d-4d48-b808-806b59754c89","full":7.7},"geometry":{"type":"Polygon","coordinates":[[[136.58078,36.01036],[136.58092,36.01048],[136.58094,36.0105],[136.58096,36.01049],[136.58152,36.01003],[136.5814,36.00991],[136.58136,36.00989],[136.58078,36.01036]]]}},{"type":"Feature","properties":{"pid":"c6e403a8-ac77-4e34-b48a-d0c6008e9f19","full":10.6},"geometry":{"type":"Polygon","coordinates":[[[136.58099,36.01053],[136.58119,36.0107],[136.58176,36.01023],[136.58155,36.01006],[136.581,36.01051],[136.58099,36.01053]]]}},{"type":"Feature","properties":{"pid":"933117e3-63d8-494d-b15b-85b2b47c1d13","full":8.2},"geometry":{"type":"Polygon","coordinates":[[[136.58125,36.01074],[136.58138,36.01082],[136.58142,36.01083],[136.58147,36.01083],[136.58152,36.01079],[136.58169,36.01066],[136.58179,36.01057],[136.58185,36.01038],[136.58184,36.01031],[136.58178,36.01025],[136.58172,36.0103],[136.58126,36.01068],[136.58126,36.01069],[136.58128,36.01071],[136.58125,36.01074]]]}},{"type":"Feature","properties":{"pid":"da5d623d-820e-464f-af7f-3250ad90d155","full":8.1},"geometry":{"type":"Polygon","coordinates":[[[136.5804,36.01108],[136.58051,36.01122],[136.58056,36.01124],[136.58112,36.01078],[136.58104,36.01069],[136.58096,36.01064],[136.58094,36.01064],[136.5804,36.01108]]]}},{"type":"Feature","properties":{"pid":"e99ebdd0-6669-4512-a094-55a6fb41de85","full":8.9},"geometry":{"type":"Polygon","coordinates":[[[136.58011,36.01091],[136.58032,36.01105],[136.58087,36.01059],[136.5807,36.01043],[136.58011,36.01091]]]}},{"type":"Feature","properties":{"pid":"f671e9e2-854b-46c4-9e4c-61b6bd25ec58","full":5.5},"geometry":{"type":"Polygon","coordinates":[[[136.57949,36.01041],[136.57965,36.01051],[136.5802,36.01006],[136.58008,36.00992],[136.57949,36.01041]]]}},{"type":"Feature","properties":{"pid":"4dfcd167-0817-4730-ba07-1bfdec3058b8","full":7.3},"geometry":{"type":"Polygon","coordinates":[[[136.57968,36.01056],[136.57985,36.01068],[136.58041,36.01022],[136.58026,36.01006],[136.57968,36.01054],[136.57968,36.01056]]]}},{"type":"Feature","properties":{"pid":"31acc255-e90d-4e84-b55a-0ef7aa08e82a","full":8.7},"geometry":{"type":"Polygon","coordinates":[[[136.57989,36.01073],[136.58009,36.01086],[136.58064,36.0104],[136.58047,36.01023],[136.57989,36.01073]]]}},{"type":"Feature","properties":{"pid":"38125fe5-51c1-4277-bb10-d40af5c733d1","full":10.4},"geometry":{"type":"Polygon","coordinates":[[[136.57895,36.01112],[136.579,36.01123],[136.57901,36.01123],[136.57909,36.01119],[136.57911,36.01119],[136.57913,36.0112],[136.57929,36.01114],[136.57974,36.01077],[136.57959,36.0106],[136.57955,36.0106],[136.57898,36.01107],[136.57899,36.01109],[136.57895,36.01112]]]}},{"type":"Feature","properties":{"pid":"a4b6525c-c583-4114-aa6d-9d2947ff62d9","full":3.7},"geometry":{"type":"Polygon","coordinates":[[[136.579,36.0102],[136.57904,36.01033],[136.57917,36.01055],[136.57918,36.01061],[136.57919,36.01066],[136.57917,36.0107],[136.57911,36.01076],[136.57914,36.01078],[136.5792,36.01074],[136.57943,36.01054],[136.57943,36.01052],[136.57928,36.01034],[136.5792,36.01028],[136.57904,36.01019],[136.579,36.0102]]]}},{"type":"Feature","properties":{"pid":"b3ba4066-5b4a-40d5-8ce2-92cb78c9b00f","full":4.2},"geometry":{"type":"Polygon","coordinates":[[[136.57893,36.00993],[136.57895,36.00996],[136.57906,36.01004],[136.57961,36.00957],[136.57949,36.00946],[136.57893,36.00993]]]}},{"type":"Feature","properties":{"pid":"e32a4f11-8d56-4d3a-9f0d-a64fb3a204dc","full":5.1},"geometry":{"type":"Polygon","coordinates":[[[136.57911,36.01008],[136.57926,36.01018],[136.57981,36.00974],[136.57968,36.0096],[136.57911,36.01008]]]}},{"type":"Feature","properties":{"pid":"878a06ee-f8ed-4973-a981-04285aff78eb","full":6.0},"geometry":{"type":"Polygon","coordinates":[[[136.57929,36.01024],[136.57946,36.01035],[136.58002,36.0099],[136.57988,36.00976],[136.57985,36.00977],[136.57929,36.01024]]]}},{"type":"Feature","properties":{"pid":"e2862c53-5678-435e-9622-7f8dfac3a2a3","full":4.1},"geometry":{"type":"Polygon","coordinates":[[[136.57986,36.00965],[136.5799,36.00968],[136.57992,36.00969],[136.57998,36.00975],[136.5806,36.00926],[136.58054,36.00921],[136.5805,36.00921],[136.58043,36.00918],[136.57986,36.00965]]]}},{"type":"Feature","properties":{"pid":"933e3f6b-6aca-47cb-b2a7-4385b85e9e17","full":8.1},"geometry":{"type":"Polygon","coordinates":[[[136.57964,36.00944],[136.57971,36.00952],[136.57981,36.00959],[136.58039,36.00912],[136.58018,36.00902],[136.58014,36.00902],[136.57964,36.00944]]]}},{"type":"Feature","properties":{"pid":"371fdd5d-b561-4c9a-808b-eeef92a346a1","full":3.6},"geometry":{"type":"Polygon","coordinates":[[[136.57898,36.00973],[136.579,36.00975],[136.57939,36.00942],[136.57926,36.00926],[136.57911,36.00914],[136.57911,36.00919],[136.57912,36.00929],[136.57908,36.00938],[136.57905,36.00942],[136.57904,36.00946],[136.57905,36.00953],[136.57898,36.00973]]]}},{"type":"Feature","properties":{"pid":"5a1e07de-cc68-43e4-a405-291314c7ccfc","full":2.9},"geometry":{"type":"Polygon","coordinates":[[[136.57927,36.00915],[136.57936,36.00925],[136.57937,36.00925],[136.5799,36.00883],[136.57992,36.00881],[136.5798,36.00875],[136.57978,36.00874],[136.57975,36.00876],[136.57927,36.00915]]]}},{"type":"Feature","properties":{"pid":"c80d061a-0e35-45a1-a07b-7ff9b72685a3","full":4.1},"geometry":{"type":"Polygon","coordinates":[[[136.5791,36.00906],[136.57922,36.00915],[136.57976,36.00871],[136.57975,36.00864],[136.57955,36.00854],[136.5795,36.00869],[136.57946,36.00878],[136.57941,36.00883],[136.57935,36.00888],[136.57922,36.00892],[136.5791,36.00903],[136.5791,36.00906]]]}},{"type":"Feature","properties":{"pid":"317a4328-9ed7-430c-a6e7-c2e83dc4f6f6","full":5.0},"geometry":{"type":"Polygon","coordinates":[[[136.57991,36.0086],[136.57993,36.00862],[136.58005,36.00867],[136.58007,36.00867],[136.58012,36.00863],[136.58058,36.00827],[136.5806,36.00823],[136.58045,36.00815],[136.58043,36.00815],[136.57991,36.00858],[136.57991,36.0086]]]}},{"type":"Feature","properties":{"pid":"d60c9e4d-81ea-403f-944e-b6b575b4ea98","full":4.9},"geometry":{"type":"Polygon","coordinates":[[[136.57944,36.00929],[136.57954,36.00939],[136.57956,36.0094],[136.57958,36.0094],[136.57963,36.00937],[136.58014,36.00895],[136.57997,36.00887],[136.57944,36.00929]]]}},{"type":"Feature","properties":{"pid":"4e1fcfec-0ae8-4d7d-b637-99eba037438b","full":5.4},"geometry":{"type":"Polygon","coordinates":[[[136.58033,36.00893],[136.58037,36.00896],[136.58039,36.009],[136.58046,36.00904],[136.58049,36.00904],[136.58102,36.00861],[136.58101,36.0086],[136.58084,36.00851],[136.58033,36.00893]]]}},{"type":"Feature","properties":{"pid":"08711fbc-03bf-4588-b850-c15d19a4de43","full":1.0},"geometry":{"type":"Polygon","coordinates":[[[136.58056,36.00911],[136.58063,36.00918],[136.58066,36.00919],[136.58088,36.00901],[136.58112,36.00874],[136.58107,36.00871],[136.58102,36.00874],[136.58061,36.00906],[136.58056,36.00911]]]}},{"type":"Feature","properties":{"pid":"a8c98b8b-e802-49d0-89a2-bf856417c6bb","full":10.0},"geometry":{"type":"Polygon","coordinates":[[[136.58073,36.00924],[136.58076,36.00928],[136.58097,36.00941],[136.58102,36.00941],[136.58119,36.00923],[136.5812,36.00919],[136.5812,36.00918],[136.58155,36.00888],[136.58151,36.00876],[136.58148,36.00873],[136.58135,36.00883],[136.58104,36.00901],[136.58093,36.00909],[136.58076,36.00921],[136.58073,36.00924]]]}},{"type":"Feature","properties":{"pid":"98e1a756-1cb6-4227-9186-d8dea111255d","full":5.3},"geometry":{"type":"Polygon","coordinates":[[[136.58122,36.00919],[136.58127,36.00921],[136.58133,36.00926],[136.58139,36.00927],[136.58151,36.00927],[136.58155,36.00927],[136.58162,36.00922],[136.58176,36.0091],[136.58173,36.00904],[136.58167,36.00902],[136.5816,36.00887],[136.58155,36.0089],[136.58122,36.00919]]]}},{"type":"Feature","properties":{"pid":"ae574e9c-171f-4fcc-b6b8-f92e2c240924","full":6.5},"geometry":{"type":"Polygon","coordinates":[[[136.581,36.00837],[136.58118,36.00855],[136.5812,36.00855],[136.58127,36.0086],[136.5813,36.0086],[136.58142,36.00849],[136.58138,36.00806],[136.58135,36.00806],[136.581,36.00835],[136.581,36.00837]]]}},{"type":"Feature","properties":{"pid":"fa1b39af-cb73-47b3-a929-9b3630ff873f","full":4.3},"geometry":{"type":"Polygon","coordinates":[[[136.58011,36.00875],[136.58016,36.00881],[136.58024,36.00884],[136.5808,36.00842],[136.5808,36.00841],[136.58065,36.00832],[136.58064,36.00832],[136.58011,36.00875]]]}},{"type":"Feature","properties":{"pid":"fa95e7b3-1191-4f6b-b354-e083110676b6","full":5.1},"geometry":{"type":"Polygon","coordinates":[[[136.5807,36.00816],[136.5808,36.00809],[136.5813,36.00767],[136.58116,36.00758],[136.58114,36.00757],[136.58059,36.00803],[136.58058,36.00804],[136.58064,36.00812],[136.5807,36.00816]]]}},{"type":"Feature","properties":{"pid":"50943db4-4868-4854-b211-5eb582a1aee3","full":4.0},"geometry":{"type":"Polygon","coordinates":[[[136.58079,36.00821],[136.5809,36.00832],[136.58141,36.0079],[136.58145,36.00781],[136.58132,36.00776],[136.58081,36.00819],[136.58079,36.00821]]]}},{"type":"Feature","properties":{"pid":"62a48e91-1a14-46c1-b923-984a99cf5630","full":6.1},"geometry":{"type":"Polygon","coordinates":[[[136.58051,36.008],[136.58109,36.00752],[136.58108,36.0075],[136.58094,36.0074],[136.58036,36.00787],[136.58043,36.00794],[136.58051,36.008]]]}},{"type":"Feature","properties":{"pid":"fc8bc36f-538b-4018-ad83-983ed61eff99","full":5.2},"geometry":{"type":"Polygon","coordinates":[[[136.58031,36.00784],[136.58043,36.00775],[136.58089,36.00737],[136.58089,36.00735],[136.58076,36.00725],[136.58075,36.00725],[136.58019,36.00772],[136.58018,36.00773],[136.58027,36.00782],[136.58031,36.00784]]]}},{"type":"Feature","properties":{"pid":"336926a7-68ab-4554-a318-0effd9be367a","full":6.3},"geometry":{"type":"Polygon","coordinates":[[[136.57969,36.00842],[136.57977,36.00851],[136.57985,36.00855],[136.58042,36.0081],[136.58024,36.00799],[136.58023,36.00799],[136.57969,36.00842]]]}},{"type":"Feature","properties":{"pid":"f4c34354-f2fe-4ef3-9673-cb0b7de82978","full":4.6},"geometry":{"type":"Polygon","coordinates":[[[136.57953,36.00827],[136.57958,36.00834],[136.57964,36.00839],[136.57966,36.00838],[136.58021,36.00795],[136.58004,36.00786],[136.57953,36.00827]]]}},{"type":"Feature","properties":{"pid":"b276d2ba-0c78-48cd-96a6-2a407070bbba","full":3.7},"geometry":{"type":"Polygon","coordinates":[[[136.57942,36.00806],[136.57943,36.00814],[136.57947,36.00821],[136.57949,36.00821],[136.57952,36.00819],[136.57952,36.00818],[136.58001,36.00779],[136.58,36.00777],[136.57987,36.0077],[136.57985,36.0077],[136.57942,36.00806]]]}},{"type":"Feature","properties":{"pid":"1c260dc5-943e-4715-ba23-eec838142c17","full":5.4},"geometry":{"type":"Polygon","coordinates":[[[136.5793,36.00784],[136.57932,36.0079],[136.57936,36.00793],[136.57936,36.00794],[136.57938,36.00795],[136.5794,36.00795],[136.57982,36.00761],[136.57981,36.00759],[136.57956,36.00747],[136.57949,36.00753],[136.5793,36.00782],[136.5793,36.00784]]]}},{"type":"Feature","properties":{"pid":"be01b3eb-bbb7-45d7-9155-5f0f6aee985e","full":3.0},"geometry":{"type":"Polygon","coordinates":[[[136.58001,36.00758],[136.58001,36.0076],[136.58008,36.00766],[136.58012,36.00765],[136.58023,36.0076],[136.58061,36.00728],[136.58068,36.00719],[136.58058,36.00711],[136.58001,36.00758]]]}},{"type":"Feature","properties":{"pid":"a886b997-4448-405b-8440-33b993c1bf54","full":7.8},"geometry":{"type":"Polygon","coordinates":[[[136.58147,36.00772],[136.58159,36.0075],[136.58181,36.0072],[136.58183,36.00711],[136.5818,36.00707],[136.58174,36.00705],[136.58123,36.00747],[136.58123,36.00751],[136.58125,36.00753],[136.58132,36.00758],[136.58139,36.00766],[136.58141,36.0077],[136.58147,36.00772]]]}},{"type":"Feature","properties":{"pid":"05e857c7-3648-488f-adb6-3a7ec8fddccb","full":0.9},"geometry":{"type":"Polygon","coordinates":[[[136.58299,36.00736],[136.58302,36.00738],[136.58316,36.00738],[136.5833,36.0074],[136.58331,36.0074],[136.58332,36.00738],[136.58328,36.00728],[136.58326,36.00725],[136.58323,36.00724],[136.58304,36.00723],[136.58302,36.00732],[136.58299,36.00735],[136.58299,36.00736]]]}},{"type":"Feature","properties":{"pid":"6709cf39-6020-4183-9ce2-0467b2e1501b","full":7.1},"geometry":{"type":"Polygon","coordinates":[[[136.58267,36.00828],[136.58332,36.00827],[136.58342,36.00811],[136.58342,36.00806],[136.58265,36.00808],[136.58265,36.00813],[136.58266,36.00817],[136.58264,36.00819],[136.58267,36.00828]]]}},{"type":"Feature","properties":{"pid":"e4c4408b-f597-4c87-abfe-0bb2ebb56538","full":2.4},"geometry":{"type":"Polygon","coordinates":[[[136.58344,36.00787],[136.58271,36.00788],[136.58269,36.00792],[136.58266,36.00795],[136.58267,36.008],[136.58348,36.008],[136.58344,36.00787]]]}},{"type":"Feature","properties":{"pid":"d8661c7a-9f4a-4bb7-a337-46054f7712e0","full":0.5},"geometry":{"type":"Polygon","coordinates":[[[136.58272,36.00787],[136.58344,36.00786],[136.58345,36.00776],[136.58277,36.00777],[136.58272,36.00787]]]}},{"type":"Feature","properties":{"pid":"de16d795-2fac-4f00-a6ea-34e62248ccea","full":3.2},"geometry":{"type":"Polygon","coordinates":[[[136.58281,36.0077],[136.58283,36.00771],[136.58348,36.00772],[136.5835,36.00771],[136.58347,36.00767],[136.58337,36.00759],[136.58332,36.00756],[136.58316,36.00754],[136.58301,36.00754],[136.58293,36.00759],[136.58284,36.00765],[136.58281,36.00767],[136.58281,36.0077]]]}},{"type":"Feature","properties":{"pid":"0e4dcb08-ab1f-46d3-af57-27966f67cfdf","full":2.0},"geometry":{"type":"Polygon","coordinates":[[[136.58216,36.0083],[136.58252,36.00828],[136.58252,36.00809],[136.58224,36.0081],[136.58216,36.0083]]]}},{"type":"Feature","properties":{"pid":"4e26b809-4800-47c5-9aaf-c42b7ee0c9d4","full":0.7},"geometry":{"type":"Polygon","coordinates":[[[136.58218,36.00801],[136.58249,36.008],[136.58252,36.00788],[136.58214,36.0079],[136.58218,36.00801]]]}},{"type":"Feature","properties":{"pid":"2797494e-8a28-4767-9b26-8274e2c97ff8","full":11.1},"geometry":{"type":"Polygon","coordinates":[[[136.58252,36.0083],[136.58214,36.00832],[136.58209,36.00835],[136.58184,36.00837],[136.5816,36.00832],[136.5816,36.00837],[136.58163,36.00845],[136.58167,36.00853],[136.58171,36.00858],[136.58254,36.00856],[136.58254,36.00853],[136.58252,36.0083]]]}},{"type":"Feature","properties":{"pid":"82c80a03-09b8-4906-b061-aae5e53ff0ff","full":9.3},"geometry":{"type":"Polygon","coordinates":[[[136.58256,36.00883],[136.58253,36.00859],[136.58172,36.0086],[136.58175,36.00867],[136.58188,36.00883],[136.58256,36.00883]]]}},{"type":"Feature","properties":{"pid":"65054764-3469-434f-8edf-dcf1af2014f3","full":7.8},"geometry":{"type":"Polygon","coordinates":[[[136.58255,36.00884],[136.58189,36.00885],[136.58197,36.009],[136.58205,36.0091],[136.58256,36.00909],[136.58255,36.00884]]]}},{"type":"Feature","properties":{"pid":"c9bbd8d8-8d74-499e-a42c-28fadf262231","full":8.7},"geometry":{"type":"Polygon","coordinates":[[[136.58268,36.00885],[136.58268,36.00906],[136.58271,36.00909],[136.58331,36.00908],[136.58335,36.00906],[136.58342,36.00892],[136.58337,36.00885],[136.58268,36.00885]]]}},{"type":"Feature","properties":{"pid":"23565fba-a402-4bc7-b03b-9dd676adaf16","full":8.3},"geometry":{"type":"Polygon","coordinates":[[[136.58267,36.00858],[136.58268,36.00881],[136.58269,36.00882],[136.58335,36.00881],[136.58333,36.00866],[136.58331,36.00856],[136.58267,36.00858]]]}},{"type":"Feature","properties":{"pid":"885984b7-c206-47be-940e-8c1d88064fc4","full":0.7},"geometry":{"type":"Polygon","coordinates":[[[136.58266,36.00844],[136.58265,36.00852],[136.58267,36.00854],[136.5833,36.00854],[136.5833,36.00843],[136.58266,36.00844]]]}},{"type":"Feature","properties":{"pid":"9dea79d5-9530-4d1a-a627-c3195b2a35d3","full":0.6},"geometry":{"type":"Polygon","coordinates":[[[136.5833,36.00832],[136.58267,36.00833],[136.58266,36.00844],[136.5833,36.00843],[136.5833,36.00832]]]}},{"type":"Feature","properties":{"pid":"50131c4c-db57-4ed9-89bb-a54567e92928","full":0.9},"geometry":{"type":"Polygon","coordinates":[[[136.58642,36.01256],[136.58646,36.01272],[136.58653,36.01276],[136.58669,36.01255],[136.58662,36.01254],[136.58648,36.0125],[136.58642,36.01256]]]}},{"type":"Feature","properties":{"pid":"7a60b49a-cdb4-4a88-8ddf-17b64b37a7ed","full":6.3},"geometry":{"type":"Polygon","coordinates":[[[136.58657,36.01275],[136.58656,36.01277],[136.58665,36.01283],[136.5868,36.0129],[136.58707,36.01256],[136.58685,36.01241],[136.58681,36.01243],[136.58657,36.01275]]]}},{"type":"Feature","properties":{"pid":"995d6d3a-bc96-4879-b861-429dcb26c1c5","full":11.7},"geometry":{"type":"Polygon","coordinates":[[[136.58699,36.01226],[136.58697,36.01232],[136.58732,36.01262],[136.58767,36.01226],[136.58739,36.01207],[136.58735,36.01208],[136.5872,36.01218],[136.58711,36.01222],[136.58699,36.01226]]]}},{"type":"Feature","properties":{"pid":"2056d070-0dfe-462a-a472-252a22bd3a25","full":8.3},"geometry":{"type":"Polygon","coordinates":[[[136.58753,36.0121],[136.58771,36.01223],[136.58787,36.01211],[136.58789,36.01206],[136.58795,36.01196],[136.58795,36.01186],[136.58794,36.01171],[136.58795,36.01165],[136.58783,36.01162],[136.58776,36.01163],[136.5877,36.01177],[136.58753,36.0121]]]}},{"type":"Feature","properties":{"pid":"cded6046-04e4-4e65-9492-f0da5e643421","full":5.8},"geometry":{"type":"Polygon","coordinates":[[[136.5931,36.01355],[136.5929,36.01345],[136.59286,36.01346],[136.59273,36.0136],[136.5926,36.01372],[136.59269,36.01384],[136.59281,36.01391],[136.59311,36.01358],[136.5931,36.01355]]]}},{"type":"Feature","properties":{"pid":"e1e38cac-9c4d-40a1-bd22-60e0dbbce628","full":1.4},"geometry":{"type":"Polygon","coordinates":[[[136.58976,36.01301],[136.58982,36.01305],[136.58992,36.01313],[136.59006,36.01321],[136.59013,36.0131],[136.59007,36.01307],[136.59003,36.01302],[136.59002,36.01299],[136.59002,36.01296],[136.58996,36.01295],[136.58993,36.01291],[136.58989,36.01291],[136.58977,36.01299],[136.58976,36.01301]]]}},{"type":"Feature","properties":{"pid":"8e8797ae-3ade-48ca-ad55-5b04e30a367d","full":1.9},"geometry":{"type":"Polygon","coordinates":[[[136.58857,36.02006],[136.58862,36.02019],[136.58865,36.02021],[136.58869,36.0202],[136.58896,36.01998],[136.58897,36.01992],[136.58887,36.01993],[136.58875,36.01992],[136.58857,36.02006]]]}},{"type":"Feature","properties":{"pid":"e6098437-dddc-434d-ba0a-03a57f7af344","full":2.7},"geometry":{"type":"Polygon","coordinates":[[[136.58882,36.0202],[136.58883,36.02022],[136.58887,36.02023],[136.58892,36.02024],[136.58904,36.02027],[136.58917,36.02019],[136.58926,36.02009],[136.58929,36.02005],[136.58927,36.02004],[136.58914,36.02001],[136.58907,36.01999],[136.58904,36.02001],[136.58882,36.0202]]]}}],"precision":5}