{"type":"FeatureCollection","features":[{"type":"Feature","properties":{"pid":"1a7d4c2c-6651-458d-8ea3-61c329ff960b","full":3.7},"geometry":{"type":"Polygon","coordinates":[[[135.97375,35.99971],[135.97367,35.9997],[135.97358,35.99972],[135.97359,35.99976],[135.97361,35.99978],[135.97365,35.99988],[135.97368,35.9999],[135.97371,35.99997],[135.97375,36.0],[135.97385,36.00003],[135.97398,36.00001],[135.97409,35.99997],[135.9741,35.99991],[135.97376,35.99974],[135.97375,35.99971]]]}},{"type":"Feature","properties":{"pid":"9052f41a-e27d-49ec-b38c-4bf344e36a0e","full":0.5},"geometry":{"type":"Polygon","coordinates":[[[135.9738,35.99953],[135.97375,35.99951],[135.97361,35.99957],[135.97353,35.99957],[135.97349,35.99962],[135.97343,35.9997],[135.97351,35.99971],[135.97358,35.99971],[135.97371,35.99964],[135.97381,35.99956],[135.9738,35.99953]]]}},{"type":"Feature","properties":{"pid":"ea06f258-0631-411b-9f72-4f8e5ebea9b6","full":2.8},"geometry":{"type":"Polygon","coordinates":[[[135.97526,36.0003],[135.97476,36.00025],[135.97473,36.00029],[135.97474,36.00033],[135.97478,36.00041],[135.97516,36.00047],[135.97526,36.0003]]]}},{"type":"Feature","properties":{"pid":"a57ffbd0-05dd-45d4-a210-26fd93747042","full":0.9},"geometry":{"type":"Polygon","coordinates":[[[135.97491,36.00113],[135.97475,36.00108],[135.97459,36.00112],[135.97456,36.00111],[135.97451,36.00107],[135.97449,36.00111],[135.97448,36.00116],[135.97453,36.00126],[135.97455,36.00128],[135.97463,36.00124],[135.97471,36.00122],[135.97483,36.00121],[135.97499,36.00119],[135.97499,36.00114],[135.97498,36.00113],[135.97491,36.00113]]]}},{"type":"Feature","properties":{"pid":"a5e59514-a14c-47bb-8d65-c370af79d28a","full":4.9},"geometry":{"type":"Polygon","coordinates":[[[135.97509,36.00105],[135.97509,36.00083],[135.97476,36.00077],[135.9747,36.00078],[135.97467,36.00089],[135.97461,36.00102],[135.97464,36.00104],[135.97469,36.00102],[135.97476,36.00102],[135.97482,36.00102],[135.9749,36.00105],[135.97497,36.00106],[135.97509,36.00105]]]}},{"type":"Feature","properties":{"pid":"02e4390c-7162-4f9c-92cd-8ca9a9ec9acd","full":0.7},"geometry":{"type":"Polygon","coordinates":[[[135.97439,36.00112],[135.97394,36.00107],[135.97392,36.00112],[135.97401,36.00115],[135.97405,36.00118],[135.97409,36.00121],[135.97441,36.00123],[135.97439,36.00112]]]}},{"type":"Feature","properties":{"pid":"be90ce3e-20af-43ff-b2df-e1b46ed6fc52","full":4.8},"geometry":{"type":"Polygon","coordinates":[[[135.97463,36.00073],[135.97395,36.00067],[135.97397,36.00071],[135.97398,36.00077],[135.97399,36.00086],[135.97455,36.00091],[135.9746,36.00083],[135.97463,36.00073]]]}},{"type":"Feature","properties":{"pid":"82572789-c0ed-47b1-bd4f-00d9653d86fc","full":0.7},"geometry":{"type":"Polygon","coordinates":[[[135.97459,36.0004],[135.97393,36.00033],[135.97391,36.00033],[135.97391,36.00038],[135.97398,36.00044],[135.97463,36.00051],[135.97459,36.0004]]]}},{"type":"Feature","properties":{"pid":"1f8ed6f9-83e9-462b-b4ec-d5620af4968b","full":7.1},"geometry":{"type":"Polygon","coordinates":[[[135.97472,36.00189],[135.97467,36.00183],[135.97449,36.00173],[135.97434,36.00169],[135.97428,36.00172],[135.97422,36.00183],[135.97425,36.00184],[135.97431,36.00184],[135.97436,36.0019],[135.97435,36.00205],[135.97437,36.00207],[135.97473,36.00212],[135.97474,36.00209],[135.97477,36.00202],[135.97472,36.00189]]]}},{"type":"Feature","properties":{"pid":"e5305834-2b17-4023-a1e3-70390fc81588","full":5.5},"geometry":{"type":"Polygon","coordinates":[[[135.97494,36.00156],[135.9748,36.00136],[135.97472,36.00138],[135.97468,36.00143],[135.97462,36.00146],[135.97447,36.00146],[135.97432,36.00153],[135.97436,36.0016],[135.9744,36.00163],[135.97461,36.0017],[135.97493,36.00158],[135.97494,36.00156]]]}},{"type":"Feature","properties":{"pid":"4ff58e63-dba3-405b-9f1b-ea2996686dd1","full":2.3},"geometry":{"type":"Polygon","coordinates":[[[135.97472,36.00213],[135.9744,36.00208],[135.97441,36.00212],[135.97439,36.00222],[135.97439,36.00226],[135.97437,36.00231],[135.97462,36.00234],[135.97472,36.00213]]]}},{"type":"Feature","properties":{"pid":"fca41d36-4153-42b9-9697-d1be418f137c","full":0.7},"geometry":{"type":"Polygon","coordinates":[[[135.97459,36.00421],[135.97445,36.00417],[135.97438,36.00431],[135.97442,36.00433],[135.97443,36.00437],[135.97456,36.00436],[135.97459,36.00432],[135.97463,36.00425],[135.97459,36.00421]]]}}],"precision":5}