{"type":"FeatureCollection","features":[{"type":"Feature","properties":{"pid":"1d85477d-c582-488e-a78c-a3c5d825e269","full":2.5},"geometry":{"type":"Polygon","coordinates":[[[136.32269,35.85807],[136.32323,35.85774],[136.32313,35.85768],[136.32303,35.85768],[136.32269,35.85788],[136.32268,35.85804],[136.32269,35.85807]]]}},{"type":"Feature","properties":{"pid":"2f0620b7-46f9-4721-aa41-b9075a658ca2","full":3.3},"geometry":{"type":"Polygon","coordinates":[[[136.32262,35.85831],[136.32336,35.85787],[136.32326,35.85776],[136.32269,35.85809],[136.32269,35.85811],[136.32261,35.85821],[136.3226,35.85823],[136.32258,35.85825],[136.32258,35.85827],[136.32262,35.85831]]]}},{"type":"Feature","properties":{"pid":"a266b318-3f33-4f50-b64c-8927aa8391bd","full":4.9},"geometry":{"type":"Polygon","coordinates":[[[136.3227,35.85836],[136.32319,35.85888],[136.32335,35.85879],[136.32285,35.85826],[136.3227,35.85836]]]}},{"type":"Feature","properties":{"pid":"d8cca040-200d-4c76-af3f-b5349e9b5a58","full":5.3},"geometry":{"type":"Polygon","coordinates":[[[136.32287,35.85825],[136.32336,35.85877],[136.32337,35.85877],[136.32353,35.85867],[136.32304,35.85815],[136.32287,35.85825]]]}},{"type":"Feature","properties":{"pid":"fd7fc83c-add8-47b9-904c-2bc1dd86c555","full":4.9},"geometry":{"type":"Polygon","coordinates":[[[136.32235,35.85858],[136.32285,35.8591],[136.32299,35.85901],[136.32252,35.85849],[136.3225,35.85848],[136.32235,35.85856],[136.32235,35.85858]]]}},{"type":"Feature","properties":{"pid":"75f98acd-e6aa-4e40-bf91-6cd3a1a422c5","full":5.2},"geometry":{"type":"Polygon","coordinates":[[[136.32254,35.85848],[136.32301,35.859],[136.32317,35.8589],[136.32269,35.85837],[136.32254,35.85846],[136.32254,35.85848]]]}},{"type":"Feature","properties":{"pid":"08d518f0-f547-4f68-a026-146a93c171b6","full":16.5},"geometry":{"type":"Polygon","coordinates":[[[136.32203,35.85884],[136.32204,35.85886],[136.32247,35.85932],[136.32251,35.85931],[136.3228,35.85914],[136.32232,35.85863],[136.3223,35.85862],[136.32207,35.85875],[136.32203,35.85884]]]}},{"type":"Feature","properties":{"pid":"893f30fa-c4de-4749-aa01-cde0bd2c3ca9","full":14.8},"geometry":{"type":"Polygon","coordinates":[[[136.32199,35.85886],[136.3217,35.85904],[136.3217,35.85905],[136.32213,35.85954],[136.32216,35.85955],[136.32242,35.85938],[136.32244,35.85936],[136.32201,35.85887],[136.32199,35.85886]]]}},{"type":"Feature","properties":{"pid":"751e84a6-04a6-42e5-b5c6-1f88e52ea8a5","full":15.9},"geometry":{"type":"Polygon","coordinates":[[[136.32253,35.85937],[136.323,35.85986],[136.32302,35.85986],[136.32332,35.85969],[136.32285,35.85917],[136.32282,35.85918],[136.32254,35.85935],[136.32253,35.85937]]]}},{"type":"Feature","properties":{"pid":"a64f98c8-258a-4ca3-abd8-566fc6310845","full":5.4},"geometry":{"type":"Polygon","coordinates":[[[136.32232,35.85947],[136.32282,35.86],[136.32299,35.85991],[136.32249,35.85937],[136.32232,35.85947]]]}},{"type":"Feature","properties":{"pid":"3e02b3a7-111d-4696-a17d-bea2cad9344c","full":0.6},"geometry":{"type":"Polygon","coordinates":[[[136.32307,35.85995],[136.32319,35.8601],[136.32323,35.86008],[136.32336,35.85978],[136.32335,35.85977],[136.32307,35.85995]]]}},{"type":"Feature","properties":{"pid":"f3b431e6-a53e-440c-89df-ae64ebd450bc","full":4.1},"geometry":{"type":"Polygon","coordinates":[[[136.32269,35.86015],[136.32289,35.86034],[136.32297,35.86032],[136.32302,35.86029],[136.32312,35.86022],[136.32314,35.86018],[136.32314,35.86016],[136.323,35.86],[136.32296,35.85999],[136.32269,35.86015]]]}},{"type":"Feature","properties":{"pid":"21670c88-de70-4d51-9fc8-f091f9aeead4","full":7.0},"geometry":{"type":"Polygon","coordinates":[[[136.32182,35.85978],[136.32182,35.8598],[136.32228,35.86032],[136.32232,35.86032],[136.32248,35.86022],[136.32199,35.85968],[136.32182,35.85978]]]}},{"type":"Feature","properties":{"pid":"d7c677a7-a4f6-4e25-bb10-77caae7fc981","full":3.7},"geometry":{"type":"Polygon","coordinates":[[[136.32201,35.85967],[136.32249,35.86021],[136.32264,35.86012],[136.32215,35.85959],[136.32201,35.85967]]]}},{"type":"Feature","properties":{"pid":"53ff955e-17d7-4d13-a171-ae752fc67ae4","full":5.0},"geometry":{"type":"Polygon","coordinates":[[[136.32216,35.85958],[136.32266,35.86011],[136.32281,35.86002],[136.32232,35.85948],[136.32216,35.85958]]]}},{"type":"Feature","properties":{"pid":"05c4feb3-8151-4c34-8327-8767cdc01b5a","full":21.8},"geometry":{"type":"Polygon","coordinates":[[[136.32137,35.86006],[136.32174,35.86046],[136.32182,35.86056],[136.32192,35.8606],[136.32223,35.86037],[136.32174,35.85982],[136.32172,35.85982],[136.32139,35.86003],[136.32137,35.86006]]]}},{"type":"Feature","properties":{"pid":"485a63e9-a625-4689-8f92-db617bc82552","full":10.9},"geometry":{"type":"Polygon","coordinates":[[[136.32108,35.86025],[136.32109,35.86027],[136.3212,35.86043],[136.32125,35.86048],[136.32152,35.86065],[136.32155,35.86066],[136.32174,35.8605],[136.32135,35.86008],[136.32108,35.86025]]]}},{"type":"Feature","properties":{"pid":"4c942d58-0b75-4d1c-92ca-9a96a8153232","full":16.5},"geometry":{"type":"Polygon","coordinates":[[[136.32056,35.85968],[136.32102,35.86021],[136.32135,35.86001],[136.32087,35.85949],[136.32057,35.85966],[136.32056,35.85968]]]}},{"type":"Feature","properties":{"pid":"4e0724b0-53ed-4f87-b0d4-a01c4afb91b5","full":17.6},"geometry":{"type":"Polygon","coordinates":[[[136.32089,35.85948],[136.32137,35.86],[136.32171,35.85979],[136.32124,35.85927],[136.32089,35.85948]]]}},{"type":"Feature","properties":{"pid":"f6f67aad-c88b-4cc7-a3f6-2576a2c9859d","full":12.1},"geometry":{"type":"Polygon","coordinates":[[[136.32085,35.8594],[136.32117,35.85922],[136.32119,35.8592],[136.32095,35.85894],[136.32079,35.85892],[136.32063,35.85889],[136.32047,35.85884],[136.32043,35.85883],[136.32037,35.85887],[136.32062,35.85912],[136.32085,35.8594]]]}},{"type":"Feature","properties":{"pid":"b85db6a3-f247-4f5b-a3f1-9fa7a2e5c3fd","full":2.9},"geometry":{"type":"Polygon","coordinates":[[[136.32129,35.85923],[136.3213,35.85925],[136.32177,35.85976],[136.3219,35.85967],[136.32142,35.85916],[136.3214,35.85916],[136.32129,35.85923]]]}},{"type":"Feature","properties":{"pid":"c5cee252-cff0-4a9b-8c27-4d5669a6266c","full":6.3},"geometry":{"type":"Polygon","coordinates":[[[136.32192,35.85965],[136.3221,35.85955],[136.32166,35.85907],[136.32153,35.85909],[136.32145,35.85913],[136.32145,35.85916],[136.32192,35.85965]]]}},{"type":"Feature","properties":{"pid":"142400ec-05e6-409e-bb47-1f389d446278","full":0.7},"geometry":{"type":"Polygon","coordinates":[[[136.32103,35.85895],[136.32121,35.85915],[136.32125,35.85917],[136.32128,35.85917],[136.32145,35.85906],[136.32146,35.85905],[136.32103,35.85895]]]}},{"type":"Feature","properties":{"pid":"76d3b670-38a9-4abb-b926-636f52c7f4ab","full":11.1},"geometry":{"type":"Polygon","coordinates":[[[136.31914,35.85867],[136.31914,35.85869],[136.31937,35.85892],[136.3194,35.85894],[136.31974,35.85872],[136.32005,35.85855],[136.32,35.85851],[136.31975,35.85854],[136.31956,35.85852],[136.31946,35.85848],[136.31914,35.85867]]]}},{"type":"Feature","properties":{"pid":"c5040a50-75a1-49e7-8043-d534aa6fb760","full":11.5},"geometry":{"type":"Polygon","coordinates":[[[136.31941,35.85896],[136.31941,35.85898],[136.31957,35.85916],[136.31959,35.85916],[136.32026,35.85874],[136.32006,35.85856],[136.31941,35.85896]]]}},{"type":"Feature","properties":{"pid":"df6ef9e7-e152-4de2-8445-821b370efcd0","full":17.2},"geometry":{"type":"Polygon","coordinates":[[[136.31967,35.85926],[136.31993,35.85954],[136.32056,35.85915],[136.32032,35.85888],[136.31967,35.85926]]]}},{"type":"Feature","properties":{"pid":"c9394525-c598-4ae8-a045-018f9b701b2e","full":17.2},"geometry":{"type":"Polygon","coordinates":[[[136.3202,35.85982],[136.32081,35.85946],[136.32082,35.85944],[136.32057,35.85917],[136.31994,35.85955],[136.32017,35.85981],[136.3202,35.85982]]]}},{"type":"Feature","properties":{"pid":"b2c258c4-bf36-48a0-bac7-e8f260245a3f","full":15.0},"geometry":{"type":"Polygon","coordinates":[[[136.32022,35.85989],[136.32072,35.86041],[136.321,35.86024],[136.32052,35.85969],[136.32051,35.8597],[136.32023,35.85986],[136.32022,35.85989]]]}},{"type":"Feature","properties":{"pid":"a163175f-a9b0-4fda-bef0-771ed492d6df","full":8.6},"geometry":{"type":"Polygon","coordinates":[[[136.31932,35.86009],[136.31946,35.86025],[136.3195,35.86024],[136.32015,35.85986],[136.31998,35.85969],[136.31932,35.86009]]]}},{"type":"Feature","properties":{"pid":"e8df9f75-2f82-44fb-8131-612d71706701","full":17.4},"geometry":{"type":"Polygon","coordinates":[[[136.31978,35.86056],[136.32042,35.86018],[136.32017,35.8599],[136.31956,35.86027],[136.31954,35.86031],[136.31978,35.86056]]]}},{"type":"Feature","properties":{"pid":"5745491f-8a81-47f7-bd0a-e994cda059ac","full":1.8},"geometry":{"type":"Polygon","coordinates":[[[136.31925,35.85998],[136.31933,35.86008],[136.31997,35.85968],[136.31988,35.85959],[136.31925,35.85998]]]}},{"type":"Feature","properties":{"pid":"f38b86eb-6065-4901-bd3a-efff7e3f1c9a","full":17.8},"geometry":{"type":"Polygon","coordinates":[[[136.31898,35.85969],[136.31897,35.85971],[136.31917,35.85992],[136.31924,35.85995],[136.31987,35.85957],[136.31962,35.85929],[136.31898,35.85969]]]}},{"type":"Feature","properties":{"pid":"bd6267a9-79fc-4cbc-9f85-91a8e3bf0ddb","full":12.3},"geometry":{"type":"Polygon","coordinates":[[[136.31855,35.86049],[136.31854,35.86051],[136.31869,35.86067],[136.31874,35.86069],[136.31934,35.86033],[136.31936,35.86031],[136.31936,35.8603],[136.31935,35.86027],[136.31919,35.86009],[136.31855,35.86049]]]}},{"type":"Feature","properties":{"pid":"8f6c587e-99af-4b65-b20e-3fc191daf7df","full":17.6},"geometry":{"type":"Polygon","coordinates":[[[136.31822,35.86015],[136.31847,35.86042],[136.31913,35.86003],[136.31887,35.85976],[136.31822,35.86015]]]}},{"type":"Feature","properties":{"pid":"05a1b01c-1b03-4ffd-b18c-6f1eb6762a7a","full":17.8},"geometry":{"type":"Polygon","coordinates":[[[136.31795,35.85986],[136.31821,35.86014],[136.31883,35.85974],[136.31883,35.85971],[136.3186,35.85945],[136.31795,35.85986]]]}},{"type":"Feature","properties":{"pid":"a4e1d3ef-28fd-4bcf-a326-1fba5ea02ddb","full":3.1},"geometry":{"type":"Polygon","coordinates":[[[136.31773,35.85997],[136.31858,35.85944],[136.31848,35.85934],[136.31777,35.85978],[136.31772,35.85992],[136.31773,35.85997]]]}},{"type":"Feature","properties":{"pid":"2c77d0ce-fe1d-4686-ac9b-f8740a8916fc","full":2.2},"geometry":{"type":"Polygon","coordinates":[[[136.31784,35.85964],[136.31843,35.85929],[136.31833,35.85918],[136.31791,35.85942],[136.31784,35.85964]]]}},{"type":"Feature","properties":{"pid":"6de90c64-69b9-4c5b-b604-05d0cd63dcc3","full":18.6},"geometry":{"type":"Polygon","coordinates":[[[136.31871,35.8594],[136.3187,35.85943],[136.31892,35.85966],[136.31896,35.85967],[136.31961,35.85928],[136.31934,35.85899],[136.31871,35.8594]]]}},{"type":"Feature","properties":{"pid":"17433d46-f99f-4cee-9fc2-19d850547977","full":17.7},"geometry":{"type":"Polygon","coordinates":[[[136.31844,35.85911],[136.31843,35.85912],[136.31866,35.85937],[136.31868,35.85937],[136.31933,35.85898],[136.31907,35.8587],[136.31844,35.85911]]]}},{"type":"Feature","properties":{"pid":"fe254be9-6780-4952-aa2e-4c717175f4c5","full":4.2},"geometry":{"type":"Polygon","coordinates":[[[136.31815,35.85883],[136.31829,35.85894],[136.31892,35.85854],[136.3188,35.85843],[136.31815,35.85883]]]}},{"type":"Feature","properties":{"pid":"4d8a2ea3-b271-4bca-93af-c66dcdaace4b","full":6.6},"geometry":{"type":"Polygon","coordinates":[[[136.31842,35.85909],[136.31906,35.8587],[136.31892,35.85854],[136.3183,35.85894],[136.3183,35.85896],[136.31839,35.85909],[136.31842,35.85909]]]}},{"type":"Feature","properties":{"pid":"1250d68c-0aec-4fb3-8f7b-899169853a0c","full":4.9},"geometry":{"type":"Polygon","coordinates":[[[136.31803,35.85868],[136.31803,35.85871],[136.31814,35.85881],[136.31879,35.85841],[136.31868,35.8583],[136.31864,35.8583],[136.31803,35.85868]]]}},{"type":"Feature","properties":{"pid":"d4aa6cf7-2383-4358-a5ba-0de0aff84fec","full":7.4},"geometry":{"type":"Polygon","coordinates":[[[136.31803,35.8586],[136.31862,35.85824],[136.31809,35.85809],[136.31805,35.8581],[136.31803,35.8586]]]}},{"type":"Feature","properties":{"pid":"0a959661-05a4-43d9-8199-6fccd4e5891e","full":10.2},"geometry":{"type":"Polygon","coordinates":[[[136.31824,35.85803],[136.31823,35.85806],[136.31825,35.85808],[136.31849,35.85815],[136.31853,35.85814],[136.3191,35.85773],[136.31899,35.85766],[136.31897,35.85763],[136.31894,35.85756],[136.31824,35.85803]]]}},{"type":"Feature","properties":{"pid":"cc55749b-9805-4ec6-85a1-2050729778bc","full":3.9},"geometry":{"type":"Polygon","coordinates":[[[136.31874,35.85824],[136.31885,35.85835],[136.31888,35.85836],[136.31931,35.85804],[136.3193,35.85802],[136.31924,35.85794],[136.31921,35.85792],[136.31918,35.85792],[136.31914,35.85794],[136.31874,35.85824]]]}},{"type":"Feature","properties":{"pid":"59df0154-8e94-4363-a025-c0f2d1454b9e","full":0.9},"geometry":{"type":"Polygon","coordinates":[[[136.31866,35.85819],[136.31921,35.85782],[136.31912,35.85774],[136.31854,35.85815],[136.31855,35.85816],[136.31866,35.85819]]]}},{"type":"Feature","properties":{"pid":"0bd782e2-f150-4538-b953-04de38185965","full":7.7},"geometry":{"type":"Polygon","coordinates":[[[136.3193,35.85808],[136.31888,35.85837],[136.31891,35.85843],[136.31908,35.8586],[136.3194,35.85842],[136.31938,35.85838],[136.31937,35.85833],[136.31935,35.85813],[136.31933,35.85808],[136.3193,35.85808]]]}},{"type":"Feature","properties":{"pid":"28b9f224-ff51-49b3-a2d1-34fc191b6350","full":5.8},"geometry":{"type":"Polygon","coordinates":[[[136.31958,35.85843],[136.31967,35.85845],[136.31985,35.85845],[136.3199,35.85844],[136.31994,35.85842],[136.31996,35.85838],[136.31991,35.85836],[136.3199,35.8583],[136.31955,35.85804],[136.31949,35.85801],[136.31945,35.85802],[136.31943,35.85806],[136.31946,35.85811],[136.3195,35.85824],[136.3195,35.85833],[136.31952,35.85838],[136.31958,35.85843]]]}},{"type":"Feature","properties":{"pid":"9eaef348-b00d-4e08-97ea-328f54d0e6a4","full":21.6},"geometry":{"type":"Polygon","coordinates":[[[136.31804,35.85799],[136.31807,35.85802],[136.31816,35.85804],[136.31824,35.85802],[136.31893,35.85754],[136.31878,35.85723],[136.31875,35.85723],[136.31805,35.85772],[136.31804,35.85799]]]}},{"type":"Feature","properties":{"pid":"2b103526-6cd0-486b-95a1-1aef3ad121c1","full":15.5},"geometry":{"type":"Polygon","coordinates":[[[136.31806,35.85767],[136.31807,35.85768],[136.31877,35.8572],[136.31871,35.85709],[136.31865,35.857],[136.31862,35.85695],[136.31857,35.85691],[136.31808,35.85726],[136.31806,35.85767]]]}},{"type":"Feature","properties":{"pid":"443f0a07-1991-4b09-a93d-5da22088215c","full":17.5},"geometry":{"type":"Polygon","coordinates":[[[136.31647,35.85757],[136.31648,35.8576],[136.31674,35.85779],[136.31678,35.8578],[136.31733,35.85731],[136.31717,35.8572],[136.31702,35.85714],[136.31697,35.85713],[136.31647,35.85757]]]}},{"type":"Feature","properties":{"pid":"8d22710a-1f1c-4785-8d3b-75a9ca752e24","full":17.4},"geometry":{"type":"Polygon","coordinates":[[[136.3168,35.85781],[136.31682,35.85785],[136.31695,35.85795],[136.31706,35.85803],[136.31711,35.85804],[136.31758,35.85762],[136.31753,35.85751],[136.31746,35.8574],[136.31735,35.85732],[136.3168,35.85781]]]}},{"type":"Feature","properties":{"pid":"2051fbe4-f383-46e8-9d68-60c279e7ca36","full":12.8},"geometry":{"type":"Polygon","coordinates":[[[136.31647,35.85862],[136.31646,35.85864],[136.3166,35.85885],[136.31662,35.85886],[136.31725,35.8583],[136.31703,35.85812],[136.31647,35.85862]]]}},{"type":"Feature","properties":{"pid":"a2f8f013-43cd-4c2b-8996-3949123742ec","full":6.0},"geometry":{"type":"Polygon","coordinates":[[[136.31724,35.85815],[136.31726,35.85817],[136.3176,35.85843],[136.31762,35.8584],[136.31765,35.85811],[136.31764,35.85795],[136.31762,35.85782],[136.31724,35.85815]]]}},{"type":"Feature","properties":{"pid":"42ec837c-2e1d-4632-a983-1e8a247f6c0d","full":1.5},"geometry":{"type":"Polygon","coordinates":[[[136.31711,35.85806],[136.31722,35.85815],[136.31761,35.8578],[136.31762,35.85777],[136.31759,35.85765],[136.31711,35.85806]]]}},{"type":"Feature","properties":{"pid":"2de23c2f-c0fa-4c38-a14a-6b4938017065","full":17.6},"geometry":{"type":"Polygon","coordinates":[[[136.31586,35.85796],[136.3161,35.85816],[136.31619,35.85828],[136.31622,35.85828],[136.31667,35.85787],[136.31631,35.8576],[136.31586,35.85796]]]}},{"type":"Feature","properties":{"pid":"cda8016c-02a7-4e3c-9b04-f8073c5a2bcd","full":16.4},"geometry":{"type":"Polygon","coordinates":[[[136.31622,35.85831],[136.31643,35.8586],[136.31646,35.8586],[136.31699,35.85813],[136.31698,35.8581],[136.31669,35.85789],[136.31622,35.85831]]]}},{"type":"Feature","properties":{"pid":"97667bdd-05da-46bf-8653-91aa7fb149f2","full":19.7},"geometry":{"type":"Polygon","coordinates":[[[136.31529,35.85754],[136.31549,35.85766],[136.31574,35.85784],[136.31617,35.85749],[136.31573,35.85717],[136.31571,35.85718],[136.31529,35.85754]]]}},{"type":"Feature","properties":{"pid":"91e10aee-8af1-474a-bc6c-482df1ea6bbf","full":1.5},"geometry":{"type":"Polygon","coordinates":[[[136.31576,35.85786],[136.31584,35.85794],[136.31586,35.85794],[136.3163,35.85759],[136.31619,35.85751],[136.31576,35.85786]]]}},{"type":"Feature","properties":{"pid":"06d7d012-bb76-4ca9-8917-febae44c9f26","full":17.1},"geometry":{"type":"Polygon","coordinates":[[[136.31485,35.85733],[136.31514,35.85746],[136.31528,35.85753],[136.3157,35.85716],[136.31555,35.85704],[136.31535,35.85691],[136.31528,35.85695],[136.31485,35.85732],[136.31485,35.85733]]]}},{"type":"Feature","properties":{"pid":"21693fd7-dcae-44c4-a7d4-6eb1d21248a0","full":20.2},"geometry":{"type":"Polygon","coordinates":[[[136.31264,35.85783],[136.31264,35.85784],[136.31295,35.85801],[136.31298,35.85801],[136.31354,35.85731],[136.31348,35.8573],[136.31331,35.8573],[136.31308,35.85727],[136.31264,35.85783]]]}},{"type":"Feature","properties":{"pid":"04417b40-44e9-4d6f-aab8-e84ba6bc7e66","full":25.2},"geometry":{"type":"Polygon","coordinates":[[[136.31381,35.85843],[136.31381,35.85844],[136.31413,35.85861],[136.31415,35.85862],[136.31476,35.85785],[136.31458,35.85776],[136.31438,35.8577],[136.31381,35.85843]]]}},{"type":"Feature","properties":{"pid":"56abf093-b6c0-4308-ace7-6dab1d9c0b3b","full":24.6},"geometry":{"type":"Polygon","coordinates":[[[136.31343,35.85824],[136.31343,35.85826],[136.31376,35.85842],[136.31378,35.85842],[136.31437,35.85768],[136.314,35.85753],[136.31398,35.85753],[136.31343,35.85824]]]}},{"type":"Feature","properties":{"pid":"6e6510ed-21cd-4223-bd0a-165e208cbd99","full":25.1},"geometry":{"type":"Polygon","coordinates":[[[136.313,35.85802],[136.31301,35.85804],[136.31336,35.85822],[136.31391,35.85753],[136.31393,35.85749],[136.31355,35.85732],[136.313,35.85802]]]}},{"type":"Feature","properties":{"pid":"64c0e292-6493-4fda-bb24-2ccdf32b1d50","full":25.1},"geometry":{"type":"Polygon","coordinates":[[[136.31419,35.85862],[136.31419,35.85864],[136.31451,35.85881],[136.31454,35.85881],[136.31512,35.85807],[136.31508,35.85805],[136.31508,35.85803],[136.31478,35.85786],[136.31419,35.85862]]]}},{"type":"Feature","properties":{"pid":"4a108836-dc6c-4ac5-afd2-ab49640cd689","full":15.1},"geometry":{"type":"Polygon","coordinates":[[[136.31456,35.85881],[136.31459,35.85884],[136.31474,35.85891],[136.31479,35.85889],[136.31541,35.85831],[136.31513,35.85808],[136.31456,35.85881]]]}},{"type":"Feature","properties":{"pid":"0b86c6f7-aef8-4db2-8b06-654ae5f865c3","full":2.9},"geometry":{"type":"Polygon","coordinates":[[[136.31492,35.85899],[136.31552,35.85842],[136.31541,35.85832],[136.31479,35.85893],[136.31481,35.85896],[136.31489,35.859],[136.31492,35.85899]]]}},{"type":"Feature","properties":{"pid":"17f9574e-e3d7-4b4b-ab18-4b250e007f98","full":20.0},"geometry":{"type":"Polygon","coordinates":[[[136.31497,35.85903],[136.31498,35.85905],[136.31527,35.85926],[136.3153,35.85926],[136.31583,35.85875],[136.31572,35.85862],[136.31559,35.85849],[136.31556,35.85847],[136.31497,35.85903]]]}},{"type":"Feature","properties":{"pid":"3ccfacba-4997-4260-a41b-61e7948c69ca","full":16.6},"geometry":{"type":"Polygon","coordinates":[[[136.31444,35.85955],[136.31471,35.85975],[136.31475,35.85975],[136.31479,35.85976],[136.31525,35.8593],[136.31491,35.85908],[136.31444,35.85955]]]}},{"type":"Feature","properties":{"pid":"28a82786-c429-482e-a23a-d0332d2b45fc","full":12.8},"geometry":{"type":"Polygon","coordinates":[[[136.31441,35.8595],[136.31487,35.85905],[136.31451,35.85888],[136.31415,35.85933],[136.31415,35.85937],[136.31436,35.8595],[136.31441,35.8595]]]}},{"type":"Feature","properties":{"pid":"14c64321-8724-43fb-98a1-0053f1c70096","full":12.1},"geometry":{"type":"Polygon","coordinates":[[[136.3138,35.85912],[136.31381,35.85914],[136.31394,35.85915],[136.31398,35.85916],[136.31402,35.85918],[136.31405,35.85922],[136.3141,35.85933],[136.31411,35.85934],[136.31449,35.85887],[136.31414,35.85868],[136.3138,35.85912]]]}},{"type":"Feature","properties":{"pid":"22b43205-90e2-463e-8158-55e7868668ab","full":14.8},"geometry":{"type":"Polygon","coordinates":[[[136.31339,35.85897],[136.31341,35.85899],[136.31369,35.85914],[136.31372,35.85915],[136.31412,35.85866],[136.31376,35.85849],[136.31339,35.85897]]]}},{"type":"Feature","properties":{"pid":"15181b30-bd61-4fca-8ce8-14c5c10f12e7","full":15.7},"geometry":{"type":"Polygon","coordinates":[[[136.313,35.85878],[136.31301,35.8588],[136.31333,35.85896],[136.31335,35.85895],[136.31338,35.85895],[136.31374,35.85848],[136.31338,35.8583],[136.313,35.85878]]]}},{"type":"Feature","properties":{"pid":"2a040bbd-ecd1-41d8-8098-f08d28f4a8ea","full":6.1},"geometry":{"type":"Polygon","coordinates":[[[136.31478,35.85979],[136.31493,35.85989],[136.31496,35.85987],[136.31498,35.85988],[136.31544,35.85943],[136.31526,35.85931],[136.31478,35.85979]]]}},{"type":"Feature","properties":{"pid":"cc673069-8c3a-4ff4-ac46-35f6ebac21c3","full":14.6},"geometry":{"type":"Polygon","coordinates":[[[136.31496,35.85991],[136.31524,35.86012],[136.31574,35.85964],[136.31546,35.85943],[136.31496,35.85991]]]}},{"type":"Feature","properties":{"pid":"49ac24ad-1729-47ff-8364-3c255648faf1","full":10.3},"geometry":{"type":"Polygon","coordinates":[[[136.31557,35.86025],[136.31584,35.86043],[136.31624,35.86001],[136.31624,35.85999],[136.31601,35.85983],[136.31557,35.86025]]]}},{"type":"Feature","properties":{"pid":"b2d14ac2-eb2a-4524-9880-2993ed8f54d9","full":15.7},"geometry":{"type":"Polygon","coordinates":[[[136.31651,35.85994],[136.31648,35.85992],[136.31632,35.86006],[136.31591,35.86047],[136.31598,35.86053],[136.31615,35.86065],[136.3162,35.86067],[136.31665,35.86024],[136.31665,35.86021],[136.31651,35.85994]]]}},{"type":"Feature","properties":{"pid":"1881b1c8-b68b-4911-9113-2b0903ac7889","full":4.1},"geometry":{"type":"Polygon","coordinates":[[[136.316,35.85972],[136.31601,35.85974],[136.31623,35.85991],[136.31642,35.85973],[136.31626,35.85948],[136.316,35.85972]]]}},{"type":"Feature","properties":{"pid":"deb33b0c-9c5b-466e-9c84-0f0b018f5b3c","full":1.1},"geometry":{"type":"Polygon","coordinates":[[[136.31586,35.85963],[136.31587,35.85966],[136.31594,35.8597],[136.31598,35.85971],[136.31625,35.85946],[136.31618,35.85934],[136.31586,35.85963]]]}},{"type":"Feature","properties":{"pid":"5fc408ac-1c36-4eac-b92c-5556417cab07","full":5.7},"geometry":{"type":"Polygon","coordinates":[[[136.31545,35.85995],[136.31568,35.86011],[136.31598,35.85981],[136.31576,35.85964],[136.31545,35.85995]]]}},{"type":"Feature","properties":{"pid":"9a0f81e4-4fca-42bd-8b29-b7b334c908ec","full":5.4},"geometry":{"type":"Polygon","coordinates":[[[136.31565,35.8595],[136.31567,35.85952],[136.31582,35.85962],[136.31584,35.85963],[136.31618,35.85933],[136.31605,35.85912],[136.31565,35.8595]]]}},{"type":"Feature","properties":{"pid":"fd909b35-551f-4ee4-ab6a-24b59096e3f1","full":15.4},"geometry":{"type":"Polygon","coordinates":[[[136.31532,35.85927],[136.31533,35.85929],[136.31559,35.85948],[136.31563,35.85949],[136.31604,35.8591],[136.31588,35.85884],[136.31583,35.85878],[136.31532,35.85927]]]}},{"type":"Feature","properties":{"pid":"de68e9f7-865c-47c7-a32f-e4f3598e775c","full":4.5},"geometry":{"type":"Polygon","coordinates":[[[136.31693,35.85941],[136.31694,35.85944],[136.31701,35.85955],[136.31703,35.85956],[136.31754,35.85912],[136.31756,35.85888],[136.31693,35.85941]]]}},{"type":"Feature","properties":{"pid":"860107e9-1099-4e01-b282-c2267bfd854c","full":2.8},"geometry":{"type":"Polygon","coordinates":[[[136.31661,35.85888],[136.31668,35.859],[136.31738,35.85839],[136.31728,35.85831],[136.31661,35.85888]]]}},{"type":"Feature","properties":{"pid":"b171a796-869b-4139-a6b0-ca6215c83bcd","full":3.9},"geometry":{"type":"Polygon","coordinates":[[[136.3167,35.85901],[136.31671,35.85903],[136.31676,35.8591],[136.31679,35.85912],[136.3175,35.85849],[136.31741,35.85843],[136.31735,35.85842],[136.3167,35.85901]]]}},{"type":"Feature","properties":{"pid":"f8ca6c4a-ee5d-41e8-8a8c-6de15cdf81b0","full":13.5},"geometry":{"type":"Polygon","coordinates":[[[136.31679,35.85917],[136.31679,35.8592],[136.31689,35.85937],[136.31693,35.85939],[136.31756,35.85884],[136.31758,35.85858],[136.31756,35.85856],[136.31749,35.85855],[136.31679,35.85917]]]}},{"type":"Feature","properties":{"pid":"2af5b8e9-dc7f-4e38-913b-069bd2bb4852","full":4.1},"geometry":{"type":"Polygon","coordinates":[[[136.31791,35.85941],[136.31832,35.85917],[136.31815,35.85897],[136.318,35.85887],[136.31797,35.85909],[136.31791,35.85941]]]}},{"type":"Feature","properties":{"pid":"1ae4ba75-0e82-4102-971f-d29bdcd1ecd1","full":4.0},"geometry":{"type":"Polygon","coordinates":[[[136.31753,35.85932],[136.31709,35.85968],[136.31724,35.85995],[136.31726,35.85995],[136.3173,35.8599],[136.31742,35.85967],[136.31753,35.85937],[136.31753,35.85932]]]}},{"type":"Feature","properties":{"pid":"0e8532ca-4f18-4860-b7cf-d3ce4e7e09ee","full":4.6},"geometry":{"type":"Polygon","coordinates":[[[136.31775,35.85998],[136.31775,35.86],[136.31786,35.86031],[136.31788,35.86033],[136.31817,35.86016],[136.31792,35.85988],[136.31775,35.85998]]]}},{"type":"Feature","properties":{"pid":"ecd71318-a598-4a8a-9664-7715ed678db4","full":0.7},"geometry":{"type":"Polygon","coordinates":[[[136.31782,35.86103],[136.31801,35.86096],[136.31796,35.86082],[136.31781,35.86087],[136.31776,35.8609],[136.31775,35.86094],[136.31782,35.86103]]]}},{"type":"Feature","properties":{"pid":"6c34eb68-7451-4fee-96d2-9ffd00c8d1d3","full":0.8},"geometry":{"type":"Polygon","coordinates":[[[136.31754,35.86152],[136.31741,35.86161],[136.3174,35.86163],[136.31752,35.86171],[136.31755,35.8617],[136.31757,35.86171],[136.31772,35.86162],[136.31758,35.86152],[136.31754,35.86152]]]}},{"type":"Feature","properties":{"pid":"df2bf43f-fd1b-43d9-81d9-3663fdc26282","full":1.1},"geometry":{"type":"Polygon","coordinates":[[[136.31777,35.86188],[136.31796,35.86189],[136.31806,35.86179],[136.31787,35.86169],[136.31768,35.86182],[136.3177,35.86183],[136.31773,35.86181],[136.31776,35.86183],[136.31773,35.86185],[136.31777,35.86188]]]}},{"type":"Feature","properties":{"pid":"ebc10e1f-0573-4d5d-811a-9b2da1988399","full":3.6},"geometry":{"type":"Polygon","coordinates":[[[136.31749,35.86145],[136.31747,35.86142],[136.31725,35.86121],[136.31723,35.8612],[136.31704,35.86136],[136.31703,35.86138],[136.31728,35.86155],[136.31734,35.86154],[136.31749,35.86145]]]}},{"type":"Feature","properties":{"pid":"febf877d-1d67-4b9f-8fea-b436fba1473e","full":1.1},"geometry":{"type":"Polygon","coordinates":[[[136.31612,35.86144],[136.31607,35.86146],[136.31596,35.86149],[136.31596,35.86151],[136.31615,35.86169],[136.31625,35.86163],[136.31632,35.86163],[136.31633,35.86162],[136.31615,35.86144],[136.31612,35.86144]]]}},{"type":"Feature","properties":{"pid":"c21725b8-5f29-47bc-b024-39ccf28666a5","full":10.4},"geometry":{"type":"Polygon","coordinates":[[[136.31666,35.86024],[136.31622,35.86068],[136.3163,35.86074],[136.31643,35.86073],[136.31649,35.86077],[136.31688,35.86067],[136.31691,35.86065],[136.31668,35.86025],[136.31666,35.86024]]]}},{"type":"Feature","properties":{"pid":"0b04e654-ec8d-457a-9c04-1b8cde8fb170","full":2.0},"geometry":{"type":"Polygon","coordinates":[[[136.3164,35.86374],[136.31638,35.86375],[136.31637,35.86387],[136.31638,35.86389],[136.3164,35.8639],[136.31685,35.86394],[136.31689,35.8639],[136.31693,35.86387],[136.31701,35.86385],[136.3164,35.86374]]]}},{"type":"Feature","properties":{"pid":"ad75faa9-1fd6-4342-858b-817da3ca43d7","full":7.4},"geometry":{"type":"Polygon","coordinates":[[[136.31649,35.86348],[136.3164,35.86359],[136.3164,35.8637],[136.31706,35.86383],[136.3172,35.86378],[136.31724,35.86371],[136.31649,35.86348]]]}},{"type":"Feature","properties":{"pid":"c7b1436f-c83a-4042-af2b-906db1f5958e","full":1.3},"geometry":{"type":"Polygon","coordinates":[[[136.31758,35.8633],[136.31784,35.86328],[136.31782,35.86321],[136.31799,35.86319],[136.31798,35.86311],[136.31794,35.86306],[136.31779,35.86306],[136.31766,35.86316],[136.3176,35.86324],[136.31758,35.8633]]]}},{"type":"Feature","properties":{"pid":"d95ef68a-5ef9-4d19-97b5-21e18e34b793","full":0.9},"geometry":{"type":"Polygon","coordinates":[[[136.31712,35.86321],[136.31748,35.86334],[136.31749,35.86322],[136.31743,35.86312],[136.31739,35.86312],[136.31715,35.86318],[136.31712,35.86321]]]}},{"type":"Feature","properties":{"pid":"9270b4e4-1cab-4616-b218-219752d4eada","full":8.6},"geometry":{"type":"Polygon","coordinates":[[[136.31678,35.8633],[136.31661,35.86337],[136.31654,35.86345],[136.31654,35.86347],[136.31728,35.86369],[136.31729,35.86368],[136.31744,35.86355],[136.31745,35.86353],[136.31681,35.8633],[136.31678,35.8633]]]}},{"type":"Feature","properties":{"pid":"f2613178-c92a-4270-85db-d3666713e4a7","full":0.7},"geometry":{"type":"Polygon","coordinates":[[[136.31687,35.86328],[136.31747,35.86351],[136.3175,35.86344],[136.3175,35.8634],[136.31704,35.86323],[136.3169,35.86326],[136.31687,35.86328]]]}},{"type":"Feature","properties":{"pid":"7de2a418-0487-4817-92f6-f89558fccc2d","full":3.2},"geometry":{"type":"Polygon","coordinates":[[[136.32014,35.86332],[136.32028,35.86341],[136.32034,35.86334],[136.32041,35.86337],[136.32044,35.86335],[136.3205,35.86338],[136.32053,35.86332],[136.32055,35.86324],[136.32056,35.86313],[136.32041,35.86305],[136.32014,35.86332]]]}},{"type":"Feature","properties":{"pid":"b0d86aa2-5236-4c65-a2ed-f9a9acf6efc0","full":1.7},"geometry":{"type":"Polygon","coordinates":[[[136.31931,35.86271],[136.31966,35.86289],[136.31983,35.86266],[136.31951,35.86266],[136.31946,35.86272],[136.31935,35.86268],[136.31931,35.86271]]]}},{"type":"Feature","properties":{"pid":"db7cf179-e797-4bd2-b77b-2ef8e6fff5ac","full":5.0},"geometry":{"type":"Polygon","coordinates":[[[136.32034,35.86306],[136.31982,35.86271],[136.31966,35.8629],[136.32025,35.86317],[136.32034,35.86306]]]}},{"type":"Feature","properties":{"pid":"5aa3b0a5-57a3-47c7-a0b3-7102be2516e7","full":8.5},"geometry":{"type":"Polygon","coordinates":[[[136.31863,35.86232],[136.31887,35.86243],[136.31909,35.86261],[136.31912,35.86261],[136.31938,35.86249],[136.31939,35.86246],[136.31838,35.86197],[136.31829,35.86206],[136.31866,35.86225],[136.31867,35.86227],[136.31863,35.86231],[136.31863,35.86232]]]}},{"type":"Feature","properties":{"pid":"91452af7-416c-4040-b318-dac0a48728e6","full":2.8},"geometry":{"type":"Polygon","coordinates":[[[136.31893,35.86271],[136.3191,35.86264],[136.31886,35.86244],[136.31861,35.86232],[136.31851,35.86241],[136.31893,35.86271]]]}},{"type":"Feature","properties":{"pid":"3a178c47-107b-4261-8e7e-00efcd2335cc","full":8.9},"geometry":{"type":"Polygon","coordinates":[[[136.31885,35.86162],[136.31935,35.86181],[136.31957,35.86166],[136.31952,35.86161],[136.31928,35.86135],[136.31885,35.86162]]]}},{"type":"Feature","properties":{"pid":"4383b00a-bcf7-4009-8e27-793adb83d3d2","full":13.4},"geometry":{"type":"Polygon","coordinates":[[[136.31841,35.86144],[136.3188,35.86162],[136.31882,35.86162],[136.31926,35.86135],[136.319,35.86108],[136.31841,35.86144]]]}},{"type":"Feature","properties":{"pid":"25b8c645-71a2-43d6-a60f-41185a57743f","full":18.1},"geometry":{"type":"Polygon","coordinates":[[[136.3184,35.86142],[136.31899,35.86106],[136.31874,35.86079],[136.31805,35.8612],[136.31812,35.86129],[136.31837,35.86142],[136.3184,35.86142]]]}},{"type":"Feature","properties":{"pid":"9fbba914-5ec2-4920-9af7-802f4969b715","full":11.9},"geometry":{"type":"Polygon","coordinates":[[[136.318,35.86075],[136.3181,35.86102],[136.31814,35.86105],[136.31816,35.86105],[136.31867,35.86072],[136.31844,35.86047],[136.31801,35.86072],[136.318,35.86075]]]}},{"type":"Feature","properties":{"pid":"51fe2be5-49bc-48d8-86f3-69c9e38d622e","full":8.3},"geometry":{"type":"Polygon","coordinates":[[[136.31789,35.86036],[136.31799,35.86069],[136.31802,35.86068],[136.31843,35.86045],[136.31818,35.86018],[136.3179,35.86034],[136.31789,35.86036]]]}},{"type":"Feature","properties":{"pid":"8f59d60c-7bc5-4c47-8fd3-b9b927ed9cf8","full":17.3},"geometry":{"type":"Polygon","coordinates":[[[136.31879,35.86076],[136.31903,35.86104],[136.31968,35.86064],[136.31946,35.8604],[136.31941,35.86039],[136.31879,35.86076]]]}},{"type":"Feature","properties":{"pid":"6a39fdc3-668f-4fd6-be84-34cf427a1f11","full":5.8},"geometry":{"type":"Polygon","coordinates":[[[136.31996,35.86094],[136.31931,35.86134],[136.31944,35.86148],[136.32009,35.86108],[136.31996,35.86094]]]}},{"type":"Feature","properties":{"pid":"6b047f42-7707-4030-9967-cce63ae529ec","full":17.4},"geometry":{"type":"Polygon","coordinates":[[[136.31904,35.86105],[136.31928,35.86132],[136.3193,35.86132],[136.31994,35.86094],[136.31969,35.86066],[136.31904,35.86105]]]}},{"type":"Feature","properties":{"pid":"5f28cc4f-d89d-4ec9-a8ab-155108540d86","full":17.4},"geometry":{"type":"Polygon","coordinates":[[[136.32068,35.86048],[136.32043,35.8602],[136.3198,35.86059],[136.3198,35.8606],[136.32001,35.86084],[136.32005,35.86085],[136.32068,35.86048]]]}},{"type":"Feature","properties":{"pid":"945957cc-8e25-430e-8db7-395497066de8","full":16.3},"geometry":{"type":"Polygon","coordinates":[[[136.32006,35.86089],[136.32028,35.86113],[136.32031,35.86114],[136.32094,35.86076],[136.3207,35.8605],[136.32006,35.86089]]]}},{"type":"Feature","properties":{"pid":"a4cd1d50-1f08-4e85-86c7-5211e5d67a2e","full":4.6},"geometry":{"type":"Polygon","coordinates":[[[136.31945,35.8615],[136.31956,35.86162],[136.32021,35.86122],[136.3201,35.86109],[136.31945,35.8615]]]}},{"type":"Feature","properties":{"pid":"64f71df5-279b-417e-a0ae-a878973f1cca","full":17.1},"geometry":{"type":"Polygon","coordinates":[[[136.31982,35.8619],[136.32047,35.86151],[136.32046,35.86147],[136.32025,35.86127],[136.32022,35.86125],[136.31958,35.86163],[136.31982,35.8619]]]}},{"type":"Feature","properties":{"pid":"62827588-924a-4462-9d24-ce0d3b767d7c","full":1.4},"geometry":{"type":"Polygon","coordinates":[[[136.31935,35.86182],[136.31971,35.86194],[136.31988,35.86199],[136.31959,35.86167],[136.31935,35.86182]]]}},{"type":"Feature","properties":{"pid":"5190ec04-b8b0-435d-894c-afc60531a156","full":5.5},"geometry":{"type":"Polygon","coordinates":[[[136.32024,35.86168],[136.31984,35.86192],[136.31992,35.86199],[136.32014,35.86205],[136.32044,35.86186],[136.32024,35.86168]]]}},{"type":"Feature","properties":{"pid":"9806ef5c-25a8-445b-868d-862f56622c40","full":1.7},"geometry":{"type":"Polygon","coordinates":[[[136.32045,35.86215],[136.32076,35.86195],[136.32079,35.86192],[136.32077,35.8619],[136.32082,35.86186],[136.32076,35.8618],[136.32073,35.86181],[136.32028,35.86208],[136.32028,35.8621],[136.32045,35.86215]]]}},{"type":"Feature","properties":{"pid":"34cd9ec6-4218-4fff-97f1-0e929ca5fa0d","full":3.3},"geometry":{"type":"Polygon","coordinates":[[[136.32091,35.86206],[136.32079,35.86194],[136.32045,35.86215],[136.32075,35.86231],[136.32091,35.86206]]]}},{"type":"Feature","properties":{"pid":"19a37a04-d346-4a15-9a6c-d7df4ee66f21","full":4.9},"geometry":{"type":"Polygon","coordinates":[[[136.32176,35.86138],[136.3217,35.8614],[136.32166,35.86147],[136.3216,35.8615],[136.32153,35.86164],[136.32154,35.86166],[136.32167,35.86178],[136.32174,35.86178],[136.3218,35.86174],[136.32193,35.86161],[136.32196,35.86155],[136.32187,35.86149],[136.32178,35.86138],[136.32176,35.86138]]]}},{"type":"Feature","properties":{"pid":"e1789f2f-6259-44da-9d84-0bdb88bce455","full":3.5},"geometry":{"type":"Polygon","coordinates":[[[136.32077,35.8616],[136.32078,35.86165],[136.32081,35.86168],[136.32087,35.86171],[136.3214,35.86139],[136.32132,35.86125],[136.32077,35.8616]]]}},{"type":"Feature","properties":{"pid":"21dd72f1-5171-46ef-9424-2d7c94d6b766","full":4.1},"geometry":{"type":"Polygon","coordinates":[[[136.32091,35.86174],[136.32101,35.8618],[136.32116,35.86187],[136.32121,35.86184],[136.32129,35.86174],[136.32141,35.86145],[136.32142,35.86142],[136.32141,35.8614],[136.3209,35.86171],[136.32093,35.86173],[136.32091,35.86174]]]}},{"type":"Feature","properties":{"pid":"e94f628e-12d7-4d47-ac00-21a38eb9192b","full":7.4},"geometry":{"type":"Polygon","coordinates":[[[136.32132,35.86123],[136.32128,35.86117],[136.32128,35.86112],[136.32122,35.86105],[136.32059,35.86143],[136.32058,35.86146],[136.32069,35.86158],[136.32074,35.86159],[136.32132,35.86123]]]}},{"type":"Feature","properties":{"pid":"a03b3faa-d723-4909-a600-4173b1a1292a","full":15.6},"geometry":{"type":"Polygon","coordinates":[[[136.3212,35.86104],[136.32122,35.8609],[136.32097,35.86082],[136.32035,35.86119],[136.32035,35.86122],[136.32056,35.86143],[136.32058,35.86143],[136.3212,35.86104]]]}},{"type":"Feature","properties":{"pid":"2429a2da-2794-4f3a-a610-f5a346fadc62","full":3.6},"geometry":{"type":"Polygon","coordinates":[[[136.32103,35.86027],[136.32075,35.86044],[136.32097,35.8607],[136.32099,35.86069],[136.321,35.86063],[136.32115,35.86047],[136.32115,35.86043],[136.32103,35.86027]]]}},{"type":"Feature","properties":{"pid":"5b765ab5-53d2-4ac5-a148-6f0ccf46d604","full":7.0},"geometry":{"type":"Polygon","coordinates":[[[136.32252,35.86109],[136.32249,35.86104],[136.32245,35.861],[136.32243,35.86097],[136.32243,35.86087],[136.3224,35.86086],[136.32236,35.86087],[136.32235,35.86092],[136.32223,35.86118],[136.32217,35.86125],[136.32223,35.86135],[136.32239,35.86147],[136.32241,35.86147],[136.32244,35.86146],[136.32248,35.86142],[136.32258,35.86129],[136.32258,35.8612],[136.32252,35.86109]]]}},{"type":"Feature","properties":{"pid":"3ae32fcc-2a49-4128-b43c-445aff8aecf1","full":2.4},"geometry":{"type":"Polygon","coordinates":[[[136.32253,35.86051],[136.32237,35.86036],[136.32207,35.86055],[136.32207,35.8606],[136.32217,35.86062],[136.32225,35.86065],[136.32235,35.86062],[136.32244,35.86055],[136.32253,35.86051]]]}},{"type":"Feature","properties":{"pid":"665f47b6-0172-40d8-ad03-5cdf267db683","full":0.9},"geometry":{"type":"Polygon","coordinates":[[[136.32269,35.86073],[136.32276,35.86077],[136.3228,35.86078],[136.32283,35.86077],[136.32284,35.86074],[136.32287,35.86063],[136.32283,35.86063],[136.32281,35.86057],[136.32278,35.86053],[136.32259,35.86063],[136.32269,35.86073]]]}},{"type":"Feature","properties":{"pid":"583af004-99de-4a58-891a-2055188e992d","full":2.8},"geometry":{"type":"Polygon","coordinates":[[[136.32269,35.86114],[136.32291,35.86125],[136.323,35.86118],[136.32305,35.86111],[136.32307,35.86101],[136.32276,35.86097],[136.32269,35.86114]]]}},{"type":"Feature","properties":{"pid":"f0ab3159-eb8a-42b4-9205-3973ce687d2d","full":2.0},"geometry":{"type":"Polygon","coordinates":[[[136.32282,35.86132],[136.3226,35.8612],[136.3226,35.86123],[136.32261,35.86126],[136.3226,35.8613],[136.32256,35.86137],[136.32247,35.86148],[136.32258,35.8616],[136.32261,35.86162],[136.32264,35.86161],[136.32265,35.8616],[136.32268,35.86156],[136.32274,35.86141],[136.32282,35.86132]]]}},{"type":"Feature","properties":{"pid":"4ae0b6aa-5e1a-45d0-9d19-0fe97d299677","full":1.4},"geometry":{"type":"Polygon","coordinates":[[[136.32248,35.86195],[136.32244,35.8619],[136.32226,35.8618],[136.32224,35.8618],[136.32213,35.86187],[136.32214,35.86189],[136.32218,35.86191],[136.32222,35.86192],[136.32224,35.86196],[136.32222,35.86198],[136.32224,35.86204],[136.32229,35.86209],[136.32233,35.86208],[136.32248,35.86195]]]}},{"type":"Feature","properties":{"pid":"299337eb-7490-480b-9c63-aec82902010f","full":7.4},"geometry":{"type":"Polygon","coordinates":[[[136.32224,35.86225],[136.32225,35.86227],[136.3229,35.86279],[136.32293,35.86279],[136.32307,35.86268],[136.32237,35.86212],[136.32229,35.86218],[136.32224,35.86225]]]}},{"type":"Feature","properties":{"pid":"5c2a19e3-1325-4454-9edc-120da387cbe3","full":8.3},"geometry":{"type":"Polygon","coordinates":[[[136.32342,35.86248],[136.32286,35.86293],[136.32287,35.86296],[136.32305,35.86309],[136.3236,35.86262],[136.32342,35.86248]]]}},{"type":"Feature","properties":{"pid":"89cd29b9-c9c7-4971-aa28-6fd8aa1b9dce","full":21.6},"geometry":{"type":"Polygon","coordinates":[[[136.32115,35.86263],[136.32116,35.86266],[136.32149,35.86291],[136.32152,35.86291],[136.32207,35.86248],[136.32174,35.86223],[136.32167,35.86222],[136.32115,35.86263]]]}},{"type":"Feature","properties":{"pid":"2dfc35e9-0ad2-44ad-acd5-437a750b2072","full":1.6},"geometry":{"type":"Polygon","coordinates":[[[136.32109,35.86222],[136.32122,35.86231],[136.32144,35.86214],[136.32145,35.86209],[136.3213,35.86203],[136.32128,35.86203],[136.32109,35.86222]]]}},{"type":"Feature","properties":{"pid":"2e0cdae3-553d-4c95-bc1b-bb1a897c27f9","full":16.5},"geometry":{"type":"Polygon","coordinates":[[[136.32154,35.86292],[136.32156,35.86295],[136.32177,35.86314],[136.32183,35.86316],[136.32238,35.86272],[136.32208,35.86249],[136.32154,35.86292]]]}},{"type":"Feature","properties":{"pid":"23069a21-7f19-4071-9a1e-4f69b68630a0","full":2.6},"geometry":{"type":"Polygon","coordinates":[[[136.32068,35.86302],[136.32065,35.86319],[136.3207,35.86322],[136.3207,35.86325],[136.32103,35.86347],[136.32105,35.86347],[136.32116,35.86339],[136.32116,35.86338],[136.32068,35.86302]]]}},{"type":"Feature","properties":{"pid":"30b18db8-1fcc-437d-8ddb-260db8424681","full":3.8},"geometry":{"type":"Polygon","coordinates":[[[136.32118,35.86341],[136.32097,35.86358],[136.32086,35.86381],[136.32086,35.86384],[136.32088,35.86387],[136.3209,35.86387],[136.32137,35.86355],[136.3212,35.86341],[136.32118,35.86341]]]}},{"type":"Feature","properties":{"pid":"3736f3ca-a135-4b23-bc0a-5bf1a571823c","full":17.5},"geometry":{"type":"Polygon","coordinates":[[[136.32185,35.86317],[136.32187,35.86321],[136.32214,35.86343],[136.32271,35.86297],[136.3224,35.86274],[136.32185,35.86317]]]}},{"type":"Feature","properties":{"pid":"e841bb92-7f6b-4c9a-a7d4-d3bf08a858f7","full":16.4},"geometry":{"type":"Polygon","coordinates":[[[136.32225,35.86351],[136.32252,35.86371],[136.32309,35.86327],[136.3228,35.86304],[136.32277,35.86304],[136.32224,35.86349],[136.32225,35.86351]]]}},{"type":"Feature","properties":{"pid":"d2ca98b2-77a5-472a-b246-9f27b9c45c37","full":17.0},"geometry":{"type":"Polygon","coordinates":[[[136.32252,35.86374],[136.32282,35.86398],[136.32338,35.86352],[136.32336,35.86351],[136.32336,35.86349],[136.32313,35.8633],[136.32309,35.8633],[136.32252,35.86374]]]}},{"type":"Feature","properties":{"pid":"93643335-b342-4f50-8632-7ba1feaacc2d","full":10.3},"geometry":{"type":"Polygon","coordinates":[[[136.32285,35.86399],[136.32305,35.86418],[136.32363,35.8637],[136.32352,35.86362],[136.32348,35.86363],[136.32343,35.86361],[136.32347,35.86357],[136.32341,35.86353],[136.32285,35.86399]]]}},{"type":"Feature","properties":{"pid":"c75c5925-c284-4388-9a82-3714d7a1d196","full":17.3},"geometry":{"type":"Polygon","coordinates":[[[136.32381,35.8637],[136.32413,35.86395],[136.32467,35.86349],[136.32438,35.86325],[136.32381,35.8637]]]}},{"type":"Feature","properties":{"pid":"e95b8925-c38c-426c-b480-48eb6fcd2c43","full":2.0},"geometry":{"type":"Polygon","coordinates":[[[136.32371,35.86362],[136.3238,35.86369],[136.32436,35.86325],[136.32425,35.86315],[136.32371,35.86362]]]}},{"type":"Feature","properties":{"pid":"70a8ad4a-5524-4225-a469-4b2d6e934c64","full":15.4},"geometry":{"type":"Polygon","coordinates":[[[136.32321,35.86322],[136.3235,35.86344],[136.32403,35.863],[136.32403,35.86296],[136.32377,35.86277],[136.32321,35.86322]]]}},{"type":"Feature","properties":{"pid":"82955246-faf5-4387-ad0f-6b79f02aa028","full":8.1},"geometry":{"type":"Polygon","coordinates":[[[136.32351,35.86345],[136.3237,35.8636],[136.32424,35.86314],[136.32406,35.86299],[136.32351,35.86345]]]}},{"type":"Feature","properties":{"pid":"40ab2cfb-1a7a-4bf9-8c19-60de55415eb4","full":4.5},"geometry":{"type":"Polygon","coordinates":[[[136.32306,35.8631],[136.32317,35.8632],[136.32319,35.86319],[136.32375,35.86275],[136.32361,35.86263],[136.32306,35.8631]]]}},{"type":"Feature","properties":{"pid":"5acabeb7-3496-4789-bfed-60601878fec5","full":10.0},"geometry":{"type":"Polygon","coordinates":[[[136.32414,35.8624],[136.32385,35.86219],[136.32378,35.86216],[136.32376,35.86217],[136.32374,35.8622],[136.3235,35.86244],[136.32353,35.86247],[136.3238,35.86269],[136.32414,35.8624]]]}},{"type":"Feature","properties":{"pid":"34bf5090-9650-4b94-aee1-6fcf8ef97f71","full":10.3},"geometry":{"type":"Polygon","coordinates":[[[136.32381,35.86269],[136.32411,35.86293],[136.32451,35.8626],[136.32418,35.86243],[136.32412,35.86244],[136.32381,35.86269]]]}},{"type":"Feature","properties":{"pid":"92daa8a2-66ba-4b25-8b25-b12df1bbda54","full":10.5},"geometry":{"type":"Polygon","coordinates":[[[136.32412,35.86294],[136.32442,35.86318],[136.32477,35.8629],[136.32453,35.86261],[136.32412,35.86294]]]}},{"type":"Feature","properties":{"pid":"06388caa-e58d-4481-b29d-fccac45e5b8b","full":8.6},"geometry":{"type":"Polygon","coordinates":[[[136.32443,35.86318],[136.32473,35.86343],[136.32503,35.86319],[136.32493,35.8631],[136.32478,35.86291],[136.32443,35.86318]]]}},{"type":"Feature","properties":{"pid":"37a7c4ee-497e-42fd-8dae-f974d649dbd1","full":13.4},"geometry":{"type":"Polygon","coordinates":[[[136.32414,35.86395],[136.32439,35.86416],[136.3249,35.86375],[136.32492,35.86373],[136.32467,35.86351],[136.32414,35.86395]]]}},{"type":"Feature","properties":{"pid":"afc24dd6-e468-4e95-aa6f-613940de01bc","full":3.4},"geometry":{"type":"Polygon","coordinates":[[[136.3249,35.86159],[136.32496,35.86155],[136.32508,35.8615],[136.32487,35.86145],[136.32478,35.86136],[136.32474,35.86138],[136.32461,35.86147],[136.32459,35.86154],[136.32454,35.86159],[136.32447,35.86162],[136.3247,35.86168],[136.3249,35.86159]]]}},{"type":"Feature","properties":{"pid":"efce2d74-a383-4c2b-bd12-3917f4e2042b","full":3.3},"geometry":{"type":"Polygon","coordinates":[[[136.32426,35.8622],[136.32429,35.86217],[136.32434,35.86215],[136.32427,35.86192],[136.32417,35.86182],[136.32417,35.86181],[136.3242,35.86181],[136.32427,35.86177],[136.32423,35.86171],[136.32419,35.86172],[136.32401,35.86186],[136.32395,35.86195],[136.32426,35.8622]]]}},{"type":"Feature","properties":{"pid":"dca65772-81d7-4ea0-8372-53bd764d2caf","full":1.7},"geometry":{"type":"Polygon","coordinates":[[[136.32383,35.86209],[136.32406,35.86226],[136.3241,35.86228],[136.32414,35.86228],[136.32425,35.86221],[136.32394,35.86197],[136.32391,35.86198],[136.32383,35.86209]]]}},{"type":"Feature","properties":{"pid":"affb4e8f-19cd-48bf-85e0-cd4f9177f01d","full":1.4},"geometry":{"type":"Polygon","coordinates":[[[136.32386,35.86179],[136.3238,35.86177],[136.32378,35.86179],[136.32368,35.86189],[136.32363,35.86196],[136.32376,35.86203],[136.3238,35.86203],[136.32396,35.86187],[136.32386,35.86179]]]}},{"type":"Feature","properties":{"pid":"7062555f-495b-4ca1-8f1f-16fb67097b55","full":0.5},"geometry":{"type":"Polygon","coordinates":[[[136.32349,35.86012],[136.32367,35.85976],[136.32367,35.85971],[136.32366,35.8597],[136.32359,35.85972],[136.32355,35.85977],[136.32331,35.86015],[136.32331,35.86017],[136.32334,35.86018],[136.32338,35.86016],[136.32349,35.86012]]]}},{"type":"Feature","properties":{"pid":"2ab34a70-f16f-4d2b-8e89-6a82328babd9","full":4.9},"geometry":{"type":"Polygon","coordinates":[[[136.32489,35.85898],[136.32513,35.85884],[136.32525,35.85876],[136.32509,35.85873],[136.32497,35.85868],[136.3249,35.85867],[136.32484,35.85867],[136.32476,35.85868],[136.32471,35.85871],[136.32463,35.85878],[136.32489,35.85898]]]}},{"type":"Feature","properties":{"pid":"02dd3c54-2206-4e75-87b3-36447853664f","full":2.1},"geometry":{"type":"Polygon","coordinates":[[[136.32464,35.85918],[136.32468,35.85917],[136.32482,35.85901],[136.32467,35.8589],[136.32459,35.85884],[136.32457,35.85884],[136.3245,35.85894],[136.3245,35.85895],[136.32454,35.85902],[136.32456,35.85908],[136.32455,35.85912],[136.32457,35.85914],[136.32464,35.85918]]]}},{"type":"Feature","properties":{"pid":"db8e7534-5eb8-4603-a9a6-f6e9c03a6a08","full":6.1},"geometry":{"type":"Polygon","coordinates":[[[136.32435,35.85887],[136.32437,35.85886],[136.32458,35.85862],[136.32458,35.85861],[136.3244,35.8584],[136.32409,35.85858],[136.32435,35.85887]]]}},{"type":"Feature","properties":{"pid":"997e84af-c119-4858-ac09-41c457b5c1f8","full":13.4},"geometry":{"type":"Polygon","coordinates":[[[136.32364,35.85869],[136.32409,35.85917],[136.32418,35.85908],[136.3243,35.85893],[136.32432,35.85891],[136.32418,35.85875],[136.32402,35.8586],[136.32394,35.85849],[136.32364,35.85868],[136.32364,35.85869]]]}},{"type":"Feature","properties":{"pid":"75454a57-a703-4656-9370-8bea424ee3bd","full":4.3},"geometry":{"type":"Polygon","coordinates":[[[136.3243,35.85915],[136.32428,35.85921],[136.32429,35.85924],[136.32431,35.85926],[136.32434,35.85932],[136.32432,35.85941],[136.32428,35.85947],[136.3243,35.85949],[136.32441,35.85946],[136.3245,35.85942],[136.32454,35.85939],[136.32457,35.85937],[136.32461,35.8593],[136.32464,35.85923],[136.32462,35.85921],[136.32457,35.85919],[136.32454,35.85916],[136.32452,35.85911],[136.3245,35.85903],[136.32447,35.85899],[136.32445,35.85899],[136.3243,35.85915]]]}},{"type":"Feature","properties":{"pid":"52300a1c-ad7e-4a9f-99f0-efddb50211b2","full":1.2},"geometry":{"type":"Polygon","coordinates":[[[136.32398,35.85958],[136.32421,35.85951],[136.32426,35.85944],[136.32428,35.85933],[136.32428,35.8593],[136.32422,35.85926],[136.3242,35.85927],[136.32411,35.85936],[136.32406,35.85942],[136.32393,35.85952],[136.32398,35.85958]]]}},{"type":"Feature","properties":{"pid":"25a37816-5601-4eb9-8583-7665a1e8335b","full":20.7},"geometry":{"type":"Polygon","coordinates":[[[136.32323,35.85893],[136.32371,35.85945],[136.32387,35.85935],[136.324,35.85924],[136.32406,35.85918],[136.32362,35.8587],[136.3236,35.8587],[136.32323,35.85893]]]}},{"type":"Feature","properties":{"pid":"a30f5b8e-50c1-479a-ac19-6b97cf34bf74","full":17.0},"geometry":{"type":"Polygon","coordinates":[[[136.32288,35.85915],[136.32336,35.85967],[136.32368,35.85947],[136.32321,35.85894],[136.32289,35.85913],[136.32288,35.85915]]]}},{"type":"Feature","properties":{"pid":"7dd74188-f54b-4255-a51b-26f0d4140dc8","full":17.3},"geometry":{"type":"Polygon","coordinates":[[[136.32354,35.85864],[136.32356,35.85864],[136.32388,35.85845],[136.32342,35.85794],[136.3234,35.85794],[136.32307,35.85813],[136.32308,35.85816],[136.32354,35.85864]]]}},{"type":"Feature","properties":{"pid":"3df74ac2-ad86-43e0-a3fa-ce9cd0003ddb","full":2.9},"geometry":{"type":"Polygon","coordinates":[[[136.32406,35.85854],[136.3241,35.85853],[136.32449,35.8583],[136.3245,35.85828],[136.3244,35.85816],[136.32395,35.85842],[136.32406,35.85854]]]}},{"type":"Feature","properties":{"pid":"27ab0074-e5d0-4c73-af00-d950abfc8eea","full":2.7},"geometry":{"type":"Polygon","coordinates":[[[136.32383,35.85828],[136.32394,35.85841],[136.32438,35.85814],[136.32427,35.85802],[136.32383,35.85828]]]}},{"type":"Feature","properties":{"pid":"986bcdf0-ef9a-41dd-8dee-15d8d499805a","full":3.3},"geometry":{"type":"Polygon","coordinates":[[[136.3237,35.85813],[136.32382,35.85826],[136.32425,35.858],[136.32413,35.85787],[136.3237,35.85813]]]}},{"type":"Feature","properties":{"pid":"8190d128-153d-4273-9475-6b98616b32e2","full":2.7},"geometry":{"type":"Polygon","coordinates":[[[136.3242,35.85784],[136.32431,35.85796],[136.3247,35.85774],[136.32473,35.8577],[136.32469,35.85766],[136.32465,35.85761],[136.32461,35.85759],[136.3242,35.85784]]]}},{"type":"Feature","properties":{"pid":"e8ad4e3d-56f5-49a6-a01d-35e7cbac5803","full":3.2},"geometry":{"type":"Polygon","coordinates":[[[136.32356,35.85798],[136.32369,35.85811],[136.32411,35.85786],[136.32399,35.85773],[136.32356,35.85798]]]}},{"type":"Feature","properties":{"pid":"0376943b-94dd-4a57-8737-78717b8f9da8","full":2.7},"geometry":{"type":"Polygon","coordinates":[[[136.32372,35.85783],[136.32352,35.85756],[136.3235,35.85757],[136.3233,35.85767],[136.3233,35.8577],[136.32341,35.85781],[136.32347,35.85781],[136.32353,35.85788],[136.32357,35.8579],[136.32372,35.85783]]]}},{"type":"Feature","properties":{"pid":"10ad5b64-cbd4-4d56-a2c8-0eb699dc79a4","full":1.5},"geometry":{"type":"Polygon","coordinates":[[[136.32375,35.85779],[136.32396,35.85767],[136.32396,35.85766],[136.32388,35.85758],[136.32383,35.85752],[136.3238,35.85752],[136.32368,35.85757],[136.32363,35.85757],[136.32361,35.85758],[136.32375,35.85779]]]}},{"type":"Feature","properties":{"pid":"2008401e-12d1-4903-88de-edd7f6a02866","full":5.5},"geometry":{"type":"Polygon","coordinates":[[[136.32387,35.85746],[136.32401,35.85764],[136.32405,35.85767],[136.3244,35.85745],[136.32439,35.8574],[136.32438,35.85738],[136.3243,35.8573],[136.32421,35.85731],[136.32394,35.8574],[136.32387,35.85743],[136.32387,35.85746]]]}},{"type":"Feature","properties":{"pid":"671c16ab-df89-4b3e-aeb4-acd44a3a184d","full":2.9},"geometry":{"type":"Polygon","coordinates":[[[136.32405,35.85769],[136.32419,35.85782],[136.32458,35.85757],[136.32459,35.85756],[136.32446,35.85746],[136.32444,35.85746],[136.32405,35.85769]]]}},{"type":"Feature","properties":{"pid":"98d0832d-78f5-43b6-912f-3ec12a13a4d3","full":2.2},"geometry":{"type":"Polygon","coordinates":[[[136.32434,35.85798],[136.32446,35.85809],[136.32484,35.85786],[136.32484,35.85784],[136.32483,35.85781],[136.32478,35.85773],[136.32476,35.85773],[136.32434,35.85798]]]}},{"type":"Feature","properties":{"pid":"733234c2-d527-4953-8db8-50dcde61faa8","full":2.0},"geometry":{"type":"Polygon","coordinates":[[[136.32447,35.85813],[136.32457,35.85823],[136.32498,35.858],[136.32496,35.85798],[136.325,35.85796],[136.32489,35.85788],[136.32447,35.85813]]]}},{"type":"Feature","properties":{"pid":"c133af1a-e75a-4f4b-b5cc-b915f4caad2e","full":3.6},"geometry":{"type":"Polygon","coordinates":[[[136.32476,35.85843],[136.325,35.85824],[136.3251,35.85811],[136.3251,35.85808],[136.32503,35.85801],[136.32501,35.85802],[136.32463,35.85824],[136.32462,35.85826],[136.32462,35.85828],[136.32476,35.85843]]]}},{"type":"Feature","properties":{"pid":"d8266e00-bb39-4331-a207-bdcff13b6e92","full":7.9},"geometry":{"type":"Polygon","coordinates":[[[136.3244,35.86954],[136.32474,35.86988],[136.32492,35.87005],[136.32505,35.86999],[136.32469,35.8694],[136.32442,35.86952],[136.3244,35.86954]]]}},{"type":"Feature","properties":{"pid":"3e7d7186-58d8-4972-b706-6df5f7d74721","full":19.8},"geometry":{"type":"Polygon","coordinates":[[[136.32426,35.86874],[136.32384,35.86893],[136.32384,35.86895],[136.3243,35.86945],[136.32435,35.86947],[136.32467,35.86933],[136.32428,35.86874],[136.32426,35.86874]]]}},{"type":"Feature","properties":{"pid":"080ebfc8-ef36-4287-83d0-2b3bdc9de3cd","full":12.6},"geometry":{"type":"Polygon","coordinates":[[[136.32371,35.86837],[136.32404,35.86875],[136.32408,35.86875],[136.32441,35.86859],[136.324,35.86815],[136.32379,35.8683],[136.32371,35.86837]]]}},{"type":"Feature","properties":{"pid":"1d9a1c89-e3a8-4631-b354-21cde0c4eb25","full":7.1},"geometry":{"type":"Polygon","coordinates":[[[136.32344,35.86854],[136.32374,35.86888],[136.32399,35.8688],[136.32402,35.86878],[136.32367,35.86839],[136.32364,35.86838],[136.32345,35.86852],[136.32344,35.86854]]]}},{"type":"Feature","properties":{"pid":"cd49ad52-6eaa-40c0-9080-1f4bd56291a1","full":20.1},"geometry":{"type":"Polygon","coordinates":[[[136.32308,35.86808],[136.32338,35.86845],[136.32394,35.8681],[136.32361,35.86775],[136.32308,35.86808]]]}},{"type":"Feature","properties":{"pid":"6ff6a27b-19a7-4a00-a388-faea59523604","full":5.6},"geometry":{"type":"Polygon","coordinates":[[[136.32419,35.86795],[136.32386,35.8676],[136.32364,35.86774],[136.32397,35.86808],[136.32419,35.86795]]]}},{"type":"Feature","properties":{"pid":"9658b78b-2937-4d07-ae89-cec15603feed","full":6.2},"geometry":{"type":"Polygon","coordinates":[[[136.3243,35.8673],[136.324,35.86752],[136.32401,35.86755],[136.3243,35.86787],[136.32434,35.86787],[136.3244,35.86782],[136.32442,35.86779],[136.32442,35.86775],[136.32432,35.86731],[136.3243,35.8673]]]}},{"type":"Feature","properties":{"pid":"a416c5c6-a144-4735-9671-e9bfea45bece","full":12.4},"geometry":{"type":"Polygon","coordinates":[[[136.32404,35.86813],[136.32406,35.86818],[136.32443,35.86857],[136.32447,35.86858],[136.32459,35.86853],[136.32462,35.8685],[136.32447,35.86792],[136.32443,35.8679],[136.32439,35.86791],[136.32404,35.86813]]]}},{"type":"Feature","properties":{"pid":"985a990c-6be1-40cb-8276-5c36a41ccbe5","full":6.4},"geometry":{"type":"Polygon","coordinates":[[[136.3238,35.86674],[136.32427,35.86723],[136.32428,35.86722],[136.32424,35.86701],[136.32418,35.86669],[136.32413,35.86656],[136.32409,35.86655],[136.32381,35.86672],[136.3238,35.86674]]]}},{"type":"Feature","properties":{"pid":"472f9b2d-5778-4f68-a81a-9628d33db1d1","full":9.4},"geometry":{"type":"Polygon","coordinates":[[[136.32356,35.8669],[136.32403,35.86741],[136.32408,35.86739],[136.32424,35.86729],[136.32425,35.86727],[136.32378,35.86676],[136.32375,35.86676],[136.32357,35.86688],[136.32356,35.8669]]]}},{"type":"Feature","properties":{"pid":"514a1802-cbd7-407a-85de-a527e7170265","full":16.1},"geometry":{"type":"Polygon","coordinates":[[[136.32312,35.86718],[136.3236,35.86768],[136.32391,35.86749],[136.32344,35.86698],[136.32341,35.86698],[136.32313,35.86715],[136.32312,35.86718]]]}},{"type":"Feature","properties":{"pid":"83c8251f-26ee-4600-a2ff-a9bc873b4492","full":18.1},"geometry":{"type":"Polygon","coordinates":[[[136.32288,35.86639],[136.32337,35.8669],[136.32371,35.86668],[136.3232,35.86616],[136.32288,35.86638],[136.32288,35.86639]]]}},{"type":"Feature","properties":{"pid":"83d5f48a-b29e-4ff6-abcc-a5fa64c3953b","full":23.3},"geometry":{"type":"Polygon","coordinates":[[[136.32324,35.86614],[136.32325,35.86616],[136.32373,35.86666],[136.32375,35.86666],[136.32403,35.86648],[136.32405,35.86645],[136.32374,35.86586],[136.32372,35.86584],[136.32324,35.86614]]]}},{"type":"Feature","properties":{"pid":"8dde34be-b8de-49b1-a638-c117582a0115","full":9.1},"geometry":{"type":"Polygon","coordinates":[[[136.3231,35.86541],[136.32356,35.8659],[136.32373,35.8658],[136.32372,35.86574],[136.32352,35.86548],[136.32341,35.86537],[136.32328,35.86525],[136.32324,35.86525],[136.32309,35.86536],[136.32309,35.86539],[136.3231,35.86541]]]}},{"type":"Feature","properties":{"pid":"eec9ce39-f290-4eac-a37c-ac9e96547788","full":22.2},"geometry":{"type":"Polygon","coordinates":[[[136.32487,35.86562],[136.3249,35.86561],[136.32494,35.8655],[136.32495,35.86517],[136.32442,35.86476],[136.32412,35.86503],[136.32487,35.86562]]]}},{"type":"Feature","properties":{"pid":"0f4cce35-e2f7-4a09-a1ef-e6b6eb386c3d","full":6.7},"geometry":{"type":"Polygon","coordinates":[[[136.32422,35.86449],[136.32423,35.86452],[136.32478,35.86492],[136.32487,35.86487],[136.32478,35.86471],[136.32469,35.86459],[136.32457,35.86446],[136.32446,35.86438],[136.32439,35.86436],[136.32434,35.86437],[136.32422,35.86449]]]}},{"type":"Feature","properties":{"pid":"ed9e9c60-cc33-4ca8-bdfd-943edafd3c58","full":3.8},"geometry":{"type":"Polygon","coordinates":[[[136.32512,35.86487],[136.32516,35.86482],[136.32519,35.86473],[136.32517,35.86467],[136.32459,35.86422],[136.32456,35.86421],[136.32449,35.86425],[136.32448,35.86427],[136.32474,35.86449],[136.3249,35.8647],[136.32512,35.86487]]]}},{"type":"Feature","properties":{"pid":"c67b6780-2364-4570-a2f7-5743085c32be","full":3.8},"geometry":{"type":"Polygon","coordinates":[[[136.32459,35.86419],[136.32477,35.86434],[136.32518,35.86466],[136.32522,35.86448],[136.3247,35.86409],[136.32459,35.86419]]]}},{"type":"Feature","properties":{"pid":"44c614de-542b-46ae-82a4-d57b9bc1e8dd","full":7.4},"geometry":{"type":"Polygon","coordinates":[[[136.3241,35.86501],[136.32441,35.86475],[136.32416,35.86455],[136.32414,35.86454],[136.32383,35.86482],[136.3241,35.86501]]]}},{"type":"Feature","properties":{"pid":"bca21034-d154-4738-9f7c-d984af6e6c50","full":16.3},"geometry":{"type":"Polygon","coordinates":[[[136.32344,35.86453],[136.3237,35.86475],[136.32374,35.86474],[136.32421,35.86434],[136.32424,35.86431],[136.32426,35.86425],[136.32422,35.86419],[136.32406,35.86405],[136.32402,35.86408],[136.32401,35.86407],[136.32344,35.86453]]]}},{"type":"Feature","properties":{"pid":"eef3a2bb-c38a-42c4-807f-ca43ff09d02f","full":19.7},"geometry":{"type":"Polygon","coordinates":[[[136.32312,35.86426],[136.32341,35.86451],[136.32403,35.86403],[136.32374,35.8638],[136.32368,35.8638],[136.32312,35.86426]]]}},{"type":"Feature","properties":{"pid":"9d403b79-706a-43e9-b36b-0ff2baf0c428","full":19.3},"geometry":{"type":"Polygon","coordinates":[[[136.32167,35.86478],[136.32189,35.86504],[136.32193,35.86506],[136.32258,35.86465],[136.32258,35.86463],[136.32229,35.86437],[136.32167,35.86478]]]}},{"type":"Feature","properties":{"pid":"61df7a85-acf1-4bec-bb35-a6aaed0a65ac","full":6.1},"geometry":{"type":"Polygon","coordinates":[[[136.3225,35.86478],[136.32295,35.86526],[136.32299,35.86527],[136.32316,35.86516],[136.32296,35.86496],[136.32264,35.86469],[136.3225,35.86478]]]}},{"type":"Feature","properties":{"pid":"6cb345c0-1678-431a-a8db-5327a01490f5","full":5.3},"geometry":{"type":"Polygon","coordinates":[[[136.32178,35.86523],[136.32228,35.86573],[136.32231,35.86572],[136.32242,35.86566],[136.32244,35.86563],[136.32194,35.86512],[136.32178,35.86523]]]}},{"type":"Feature","properties":{"pid":"8383feeb-64b8-4f94-9f79-37e3b10224c9","full":4.1},"geometry":{"type":"Polygon","coordinates":[[[136.32196,35.86511],[136.32245,35.86561],[136.32247,35.86561],[136.32258,35.86555],[136.32259,35.86552],[136.3221,35.86502],[136.32196,35.86511]]]}},{"type":"Feature","properties":{"pid":"6bbbf082-0a42-4d72-9dff-2e5528da6f5c","full":17.9},"geometry":{"type":"Polygon","coordinates":[[[136.32213,35.865],[136.32262,35.86551],[136.32267,35.8655],[136.32289,35.86536],[136.32294,35.86532],[136.32295,35.86529],[136.32247,35.86478],[136.32213,35.865]]]}},{"type":"Feature","properties":{"pid":"8137207f-6234-4121-aeba-ced3bfc17c44","full":12.5},"geometry":{"type":"Polygon","coordinates":[[[136.3213,35.86543],[136.32135,35.86543],[136.32183,35.86513],[136.32184,35.8651],[136.32163,35.86484],[136.3216,35.86484],[136.3212,35.8651],[136.32126,35.86515],[136.3212,35.86519],[136.3213,35.86543]]]}},{"type":"Feature","properties":{"pid":"f4cf3b8a-821e-419c-abb4-7e485e590d49","full":18.1},"geometry":{"type":"Polygon","coordinates":[[[136.32143,35.86544],[136.32143,35.86546],[136.32192,35.86596],[136.32196,35.86595],[136.32224,35.86577],[136.32225,35.86574],[136.32176,35.86524],[136.32143,35.86544]]]}},{"type":"Feature","properties":{"pid":"e894844e-428f-4cff-a2a9-23ef126bdc2c","full":1.6},"geometry":{"type":"Polygon","coordinates":[[[136.32086,35.86524],[136.32097,35.86547],[136.32116,35.86542],[136.32106,35.86518],[136.32086,35.86524]]]}},{"type":"Feature","properties":{"pid":"6f332322-d623-471d-b54a-9a1a6e9c823a","full":5.5},"geometry":{"type":"Polygon","coordinates":[[[136.32066,35.86533],[136.32092,35.86592],[136.32111,35.86587],[136.32109,35.86582],[136.32084,35.86525],[136.32067,35.86531],[136.32066,35.86533]]]}},{"type":"Feature","properties":{"pid":"82c85d2b-9939-4c53-9167-ca57968e7f63","full":2.1},"geometry":{"type":"Polygon","coordinates":[[[136.32115,35.86509],[136.32119,35.86509],[136.32145,35.86491],[136.32146,35.86489],[136.32136,35.86475],[136.32107,35.86495],[136.32115,35.86509]]]}},{"type":"Feature","properties":{"pid":"1ff374f1-7cd6-4542-a4a9-bac663157587","full":0.8},"geometry":{"type":"Polygon","coordinates":[[[136.32106,35.86446],[136.32117,35.86462],[136.32119,35.86461],[136.32134,35.86451],[136.32123,35.86438],[136.32107,35.86444],[136.32106,35.86446]]]}},{"type":"Feature","properties":{"pid":"dd6127b4-a782-4e72-a8a8-2c7a358ab175","full":3.2},"geometry":{"type":"Polygon","coordinates":[[[136.32156,35.86465],[136.32167,35.86476],[136.32225,35.86436],[136.32214,35.86426],[136.32156,35.86465]]]}},{"type":"Feature","properties":{"pid":"392276a7-3113-4dcb-8026-11782cd7ce06","full":6.5},"geometry":{"type":"Polygon","coordinates":[[[136.32141,35.86448],[136.32155,35.86464],[136.32212,35.86425],[136.32197,35.8641],[136.32141,35.86448]]]}},{"type":"Feature","properties":{"pid":"c9dc4190-620e-41c2-b89f-2a539725419c","full":10.7},"geometry":{"type":"Polygon","coordinates":[[[136.3219,35.86404],[136.32167,35.86384],[136.32116,35.86419],[136.32135,35.86441],[136.3219,35.86404]]]}},{"type":"Feature","properties":{"pid":"a50e26e0-57a8-4606-a159-fd3d39064fa2","full":4.9},"geometry":{"type":"Polygon","coordinates":[[[136.3207,35.86436],[136.3208,35.86453],[136.32122,35.86438],[136.32102,35.86414],[136.3207,35.86435],[136.3207,35.86436]]]}},{"type":"Feature","properties":{"pid":"5f0bda2b-1ad7-4131-acef-d0c0459cda3f","full":1.2},"geometry":{"type":"Polygon","coordinates":[[[136.32068,35.86427],[136.32071,35.86429],[136.32096,35.86411],[136.32096,35.86408],[136.32085,35.86396],[136.32082,35.86396],[136.32076,35.86401],[136.32069,35.86416],[136.32068,35.86427]]]}},{"type":"Feature","properties":{"pid":"f97d26e9-0ac1-4671-8f77-3a53314cff24","full":7.3},"geometry":{"type":"Polygon","coordinates":[[[136.32037,35.86545],[136.3207,35.86597],[136.32074,35.86598],[136.32089,35.86593],[136.32064,35.86534],[136.32061,35.86533],[136.3204,35.86543],[136.32037,35.86545]]]}},{"type":"Feature","properties":{"pid":"8fc52b93-3ca4-4306-98ce-f79e8f639abb","full":6.4},"geometry":{"type":"Polygon","coordinates":[[[136.32136,35.86553],[136.32156,35.8661],[136.32158,35.86613],[136.32164,35.8661],[136.32168,35.86612],[136.3219,35.86598],[136.32145,35.86552],[136.32141,35.8655],[136.32137,35.8655],[136.32136,35.86553]]]}},{"type":"Feature","properties":{"pid":"1976aa49-497d-48ad-964a-19f3d29b2ec4","full":1.2},"geometry":{"type":"Polygon","coordinates":[[[136.32171,35.86632],[136.32204,35.8663],[136.32206,35.86628],[136.32187,35.86611],[136.32163,35.86627],[136.32171,35.86632]]]}},{"type":"Feature","properties":{"pid":"5856da22-82d7-4288-a834-60c71fdf8e79","full":0.8},"geometry":{"type":"Polygon","coordinates":[[[136.32187,35.86634],[136.3219,35.86641],[136.322,35.8664],[136.32202,35.8665],[136.32205,35.86654],[136.32209,35.86655],[136.32213,35.86654],[136.32222,35.86651],[136.32214,35.86634],[136.32211,35.86632],[136.32187,35.86634]]]}},{"type":"Feature","properties":{"pid":"60cb248e-6669-468e-af6a-5c8cc541f840","full":17.2},"geometry":{"type":"Polygon","coordinates":[[[136.32203,35.86605],[136.32237,35.86641],[136.32239,35.86642],[136.32248,35.86655],[136.32285,35.86634],[136.32234,35.86584],[136.32231,35.86584],[136.32203,35.86602],[136.32203,35.86605]]]}},{"type":"Feature","properties":{"pid":"549af521-3256-4c9f-b358-a6c89eb48202","full":15.6},"geometry":{"type":"Polygon","coordinates":[[[136.32235,35.86579],[136.32285,35.86631],[136.32316,35.86612],[136.32269,35.86563],[136.32266,35.86562],[136.32235,35.86579]]]}},{"type":"Feature","properties":{"pid":"70da05cc-3d6b-4254-b035-66e6519d3d37","full":17.3},"geometry":{"type":"Polygon","coordinates":[[[136.32272,35.8656],[136.32317,35.86608],[136.32323,35.86608],[136.32352,35.8659],[136.32352,35.86588],[136.32307,35.86542],[136.32303,35.8654],[136.323,35.8654],[136.32273,35.86556],[136.32272,35.8656]]]}},{"type":"Feature","properties":{"pid":"b2e9eac7-bd17-4d49-be99-fdc7f69c139e","full":9.4},"geometry":{"type":"Polygon","coordinates":[[[136.32263,35.86652],[136.32314,35.86705],[136.32336,35.86691],[136.32287,35.86641],[136.32285,35.8664],[136.32263,35.86652]]]}},{"type":"Feature","properties":{"pid":"57a27b52-f416-4406-948f-6cba13f8f241","full":1.1},"geometry":{"type":"Polygon","coordinates":[[[136.32253,35.86659],[136.32253,35.8666],[136.32302,35.86712],[136.32313,35.86705],[136.32262,35.86653],[136.32253,35.86659]]]}},{"type":"Feature","properties":{"pid":"926e1cca-6ad3-4718-a667-fc2460a0c63c","full":1.9},"geometry":{"type":"Polygon","coordinates":[[[136.32279,35.86689],[136.32253,35.86664],[136.32251,35.86664],[136.32252,35.8667],[136.32244,35.86688],[136.32245,35.8669],[136.32249,35.86692],[136.32256,35.86693],[136.32266,35.86698],[136.32279,35.86689]]]}},{"type":"Feature","properties":{"pid":"57d3a97a-079b-4c1a-add8-064a970476df","full":0.9},"geometry":{"type":"Polygon","coordinates":[[[136.32267,35.86699],[136.32275,35.86705],[136.32279,35.8671],[136.32277,35.86715],[136.32274,35.86718],[136.32272,35.86724],[136.32275,35.86727],[136.32299,35.86713],[136.32299,35.86711],[136.3228,35.86691],[136.32267,35.86699]]]}},{"type":"Feature","properties":{"pid":"1ac5bb21-86d3-4c7e-87bc-6516c517e791","full":8.3},"geometry":{"type":"Polygon","coordinates":[[[136.32286,35.86735],[136.32286,35.86737],[136.32295,35.86744],[136.32314,35.8676],[136.3234,35.86779],[136.32343,35.86779],[136.32358,35.8677],[136.32309,35.8672],[136.32307,35.8672],[136.32286,35.86735]]]}},{"type":"Feature","properties":{"pid":"00a580fa-265f-40fe-883a-82602366ab04","full":2.3},"geometry":{"type":"Polygon","coordinates":[[[136.32302,35.86793],[136.32308,35.86801],[136.32311,35.86801],[136.32335,35.86785],[136.32309,35.86763],[136.32305,35.86761],[136.32304,35.86769],[136.32308,35.86771],[136.32307,35.86778],[136.32303,35.86782],[136.32301,35.86789],[136.32302,35.86793]]]}},{"type":"Feature","properties":{"pid":"9bc31100-4c4e-4cf6-bde2-b5b4d00829e5","full":2.3},"geometry":{"type":"Polygon","coordinates":[[[136.31545,35.86595],[136.31558,35.86596],[136.31569,35.86592],[136.31575,35.86583],[136.31583,35.8658],[136.31587,35.86574],[136.31552,35.86571],[136.3155,35.86574],[136.31544,35.8659],[136.31545,35.86595]]]}},{"type":"Feature","properties":{"pid":"8dc680d6-f66e-4df9-810a-594a3513c9a3","full":3.3},"geometry":{"type":"Polygon","coordinates":[[[136.31552,35.86569],[136.31608,35.86573],[136.3161,35.86569],[136.31612,35.86559],[136.31607,35.86557],[136.31564,35.86554],[136.31555,35.86557],[136.31552,35.86569]]]}},{"type":"Feature","properties":{"pid":"492fd43c-e542-4bd4-aa9d-8146e679b9e5","full":1.8},"geometry":{"type":"Polygon","coordinates":[[[136.31627,35.86487],[136.31626,35.86506],[136.31626,35.86516],[136.31627,35.8652],[136.31629,35.8652],[136.31632,35.86519],[136.31639,35.86511],[136.31653,35.86496],[136.31655,35.86492],[136.31629,35.86483],[136.31627,35.86487]]]}},{"type":"Feature","properties":{"pid":"8bdaffce-712e-4d1c-8921-49bf51c2cb0e","full":0.9},"geometry":{"type":"Polygon","coordinates":[[[136.31634,35.86413],[136.31635,35.86415],[136.31654,35.86406],[136.31678,35.86399],[136.3168,35.86397],[136.31636,35.86393],[136.31634,35.86413]]]}},{"type":"Feature","properties":{"pid":"f247591d-40df-43dd-8c06-0a95b9edc136","full":4.4},"geometry":{"type":"Polygon","coordinates":[[[136.31665,35.86413],[136.31636,35.86425],[136.31634,35.86427],[136.31639,35.8644],[136.31641,35.86443],[136.31648,35.86443],[136.31676,35.86442],[136.31674,35.86424],[136.31676,35.86411],[136.31671,35.86411],[136.31665,35.86413]]]}},{"type":"Feature","properties":{"pid":"ededbc81-b965-4444-b142-bd7279536293","full":5.4},"geometry":{"type":"Polygon","coordinates":[[[136.31662,35.86486],[136.31668,35.86478],[136.31675,35.86453],[136.31674,35.86449],[136.3164,35.8645],[136.31639,35.86459],[136.31632,35.86477],[136.31662,35.86486]]]}},{"type":"Feature","properties":{"pid":"01e9ec04-ce80-49c7-bc56-37de763a90e6","full":5.3},"geometry":{"type":"Polygon","coordinates":[[[136.31598,35.86374],[136.31608,35.86425],[136.31617,35.86423],[136.31623,35.86418],[136.31628,35.86363],[136.3162,35.86364],[136.31612,35.86366],[136.31602,35.86371],[136.31598,35.86374]]]}},{"type":"Feature","properties":{"pid":"d1940b58-dfbd-48cb-807e-413cda3d5c5e","full":2.8},"geometry":{"type":"Polygon","coordinates":[[[136.31588,35.86428],[136.31591,35.86428],[136.31605,35.86426],[136.31596,35.86377],[136.31591,35.86377],[136.31578,35.86381],[136.31588,35.86428]]]}},{"type":"Feature","properties":{"pid":"855f0f91-f283-4c2d-a45a-823e05c2998f","full":6.7},"geometry":{"type":"Polygon","coordinates":[[[136.31545,35.864],[136.31544,35.86402],[136.31547,35.86414],[136.31549,35.86431],[136.31552,35.86434],[136.31556,35.86435],[136.31581,35.8643],[136.31584,35.86429],[136.31575,35.86388],[136.31574,35.86387],[136.31563,35.86393],[136.31552,35.86398],[136.31545,35.864]]]}},{"type":"Feature","properties":{"pid":"3edaf926-1adc-48e9-b958-f6da10b20d36","full":11.0},"geometry":{"type":"Polygon","coordinates":[[[136.31478,35.86439],[136.3149,35.86442],[136.31499,35.86442],[136.31545,35.86434],[136.31539,35.86403],[136.31537,35.86402],[136.3151,35.86411],[136.31486,35.86414],[136.31476,35.86414],[136.31478,35.86439]]]}},{"type":"Feature","properties":{"pid":"3204e8ab-19c3-493e-af11-1b2a79722f43","full":3.3},"geometry":{"type":"Polygon","coordinates":[[[136.31457,35.86416],[136.31424,35.86439],[136.31428,35.8644],[136.31472,35.86442],[136.31475,35.8644],[136.3147,35.86418],[136.31467,35.86416],[136.31457,35.86416]]]}},{"type":"Feature","properties":{"pid":"5b8abaaa-4039-4cac-ab23-7a9c6f416392","full":0.6},"geometry":{"type":"Polygon","coordinates":[[[136.31301,35.86446],[136.31313,35.86444],[136.31318,35.86443],[136.31334,35.86441],[136.31335,35.8644],[136.31331,35.86432],[136.313,35.86433],[136.31295,35.86435],[136.31301,35.86446]]]}},{"type":"Feature","properties":{"pid":"9624de0e-1a1e-44aa-a325-7c026ca30190","full":2.8},"geometry":{"type":"Polygon","coordinates":[[[136.31373,35.8643],[136.3138,35.86445],[136.31393,35.86446],[136.314,35.86444],[136.31432,35.86421],[136.31422,35.86419],[136.31403,35.86423],[136.31373,35.8643]]]}},{"type":"Feature","properties":{"pid":"73e96302-3487-4dc6-a9a9-7b7b3249c7ba","full":1.5},"geometry":{"type":"Polygon","coordinates":[[[136.31193,35.86491],[136.31212,35.86494],[136.31231,35.86479],[136.3123,35.86474],[136.31224,35.86469],[136.3122,35.86468],[136.31203,35.8648],[136.3119,35.86486],[136.31188,35.86489],[136.31193,35.86491]]]}},{"type":"Feature","properties":{"pid":"758b9892-5d41-4f94-8801-c332e9ce1e84","full":2.1},"geometry":{"type":"Polygon","coordinates":[[[136.31224,35.86461],[136.31238,35.86473],[136.31266,35.86459],[136.31254,35.86446],[136.31243,35.8645],[136.31238,35.86449],[136.31234,35.86451],[136.31232,35.86455],[136.31224,35.86461]]]}},{"type":"Feature","properties":{"pid":"90b8e6ff-27e5-4bb7-9006-794c3dc51bfc","full":1.2},"geometry":{"type":"Polygon","coordinates":[[[136.3127,35.86456],[136.31274,35.86456],[136.31286,35.86449],[136.31295,35.86447],[136.31293,35.86439],[136.31289,35.86437],[136.31277,35.86435],[136.31266,35.86439],[136.3126,35.86445],[136.3127,35.86456]]]}},{"type":"Feature","properties":{"pid":"5385421a-e8f6-45ed-a798-b71f50c80c3d","full":3.3},"geometry":{"type":"Polygon","coordinates":[[[136.31143,35.86532],[136.31134,35.86509],[136.3113,35.86509],[136.31107,35.86512],[136.31104,35.86516],[136.31119,35.8654],[136.31141,35.86534],[136.31143,35.86532]]]}},{"type":"Feature","properties":{"pid":"03786684-2976-4777-88b5-3f449d22e2de","full":3.3},"geometry":{"type":"Polygon","coordinates":[[[136.31141,35.86506],[136.31139,35.86508],[136.31142,35.86512],[136.31151,35.86534],[136.31167,35.86528],[136.31175,35.86523],[136.31186,35.86516],[136.31194,35.86508],[136.31141,35.86506]]]}},{"type":"Feature","properties":{"pid":"8b299ad1-2a58-4552-9e68-d180b4ad1352","full":12.5},"geometry":{"type":"Polygon","coordinates":[[[136.30299,35.86682],[136.30307,35.86642],[136.30305,35.8664],[136.3026,35.86631],[136.30257,35.86632],[136.30258,35.86661],[136.3026,35.8667],[136.30262,35.86677],[136.30267,35.8668],[136.30296,35.86682],[136.30299,35.86682]]]}},{"type":"Feature","properties":{"pid":"c96e71e4-2e98-4cfe-9d27-2cf4ae5f1493","full":2.8},"geometry":{"type":"Polygon","coordinates":[[[136.30259,35.86618],[136.30306,35.86628],[136.3031,35.86617],[136.30268,35.866],[136.30265,35.86599],[136.30257,35.86606],[136.30256,35.86615],[136.30259,35.86618]]]}},{"type":"Feature","properties":{"pid":"34dfb316-5fdc-4ccb-8371-20009714c320","full":5.1},"geometry":{"type":"Polygon","coordinates":[[[136.30271,35.86596],[136.30311,35.86615],[136.30312,35.8661],[136.30315,35.86602],[136.30324,35.8659],[136.30307,35.86583],[136.30291,35.86577],[136.30287,35.86578],[136.30271,35.86595],[136.30271,35.86596]]]}},{"type":"Feature","properties":{"pid":"298f99cf-55db-465b-92a5-33559edae046","full":5.6},"geometry":{"type":"Polygon","coordinates":[[[136.30322,35.86505],[136.30324,35.86507],[136.30368,35.86523],[136.30372,35.86523],[136.30372,35.86514],[136.30375,35.865],[136.30333,35.86485],[136.30331,35.86487],[136.30324,35.86501],[136.30322,35.86505]]]}},{"type":"Feature","properties":{"pid":"d68fb062-6749-43b4-bc37-63f773c84393","full":10.1},"geometry":{"type":"Polygon","coordinates":[[[136.30306,35.8654],[136.30308,35.86542],[136.30354,35.86562],[136.30357,35.86561],[136.30361,35.86547],[136.30362,35.86542],[136.30365,35.8654],[136.30367,35.86532],[136.30366,35.86529],[136.30321,35.86513],[136.30306,35.8654]]]}},{"type":"Feature","properties":{"pid":"82f50936-958c-455b-95cd-922a45ef9778","full":4.7},"geometry":{"type":"Polygon","coordinates":[[[136.30304,35.86546],[136.30293,35.86564],[136.30294,35.86566],[136.30334,35.86583],[136.30337,35.86583],[136.30351,35.86572],[136.30352,35.86569],[136.30304,35.86546]]]}},{"type":"Feature","properties":{"pid":"a19812ea-369c-48ca-8692-ba2dd8f991c2","full":3.8},"geometry":{"type":"Polygon","coordinates":[[[136.30333,35.86481],[136.30375,35.86496],[136.30377,35.86496],[136.30379,35.86482],[136.30376,35.86475],[136.30375,35.86473],[136.30344,35.86463],[136.30343,35.86465],[136.3034,35.86466],[136.30333,35.86481]]]}},{"type":"Feature","properties":{"pid":"ff482d29-3c29-40f2-bfb9-fa055ee7bfba","full":2.3},"geometry":{"type":"Polygon","coordinates":[[[136.30344,35.86457],[136.30375,35.86469],[136.30378,35.86469],[136.30379,35.86449],[136.30343,35.86438],[136.30345,35.86441],[136.30347,35.86446],[136.30344,35.86457]]]}},{"type":"Feature","properties":{"pid":"bd8833f7-50c7-4f80-b401-65f68d809cae","full":5.0},"geometry":{"type":"Polygon","coordinates":[[[136.30336,35.86425],[136.30341,35.8643],[136.30379,35.86444],[136.3038,35.86444],[136.30372,35.86416],[136.30327,35.86401],[136.30325,35.86401],[136.30327,35.86411],[136.30336,35.86425]]]}},{"type":"Feature","properties":{"pid":"cd72dc58-ba5d-40e6-8f4e-5d7810dd5552","full":4.2},"geometry":{"type":"Polygon","coordinates":[[[136.30334,35.86378],[136.30328,35.8638],[136.30325,35.86384],[136.30323,35.86389],[136.30323,35.86396],[136.30369,35.86412],[136.3037,35.86412],[136.30368,35.86394],[136.30366,35.86387],[136.30334,35.86378]]]}},{"type":"Feature","properties":{"pid":"568cd1cf-9b6a-4cc7-a539-7837aa7f4d80","full":4.1},"geometry":{"type":"Polygon","coordinates":[[[136.30337,35.86333],[136.30341,35.86335],[136.30346,35.86334],[136.30356,35.86324],[136.30368,35.86307],[136.30366,35.86305],[136.3035,35.86303],[136.30339,35.86301],[136.30333,35.86301],[136.30324,35.86316],[136.30325,35.86318],[136.30337,35.86333]]]}},{"type":"Feature","properties":{"pid":"f344f935-0532-41a3-97ee-3532ca259a4a","full":0.7},"geometry":{"type":"Polygon","coordinates":[[[136.30356,35.86338],[136.3038,35.86341],[136.30384,35.86313],[136.3038,35.86312],[136.30356,35.86338]]]}},{"type":"Feature","properties":{"pid":"fe1e1df5-e30a-437f-9c2d-ab066193a98e","full":6.2},"geometry":{"type":"Polygon","coordinates":[[[136.3033,35.86373],[136.30366,35.86382],[136.30367,35.86382],[136.30368,35.86376],[136.30377,35.8635],[136.30344,35.86346],[136.3034,35.86347],[136.30336,35.86351],[136.30331,35.86358],[136.3033,35.86364],[136.3033,35.86373]]]}},{"type":"Feature","properties":{"pid":"a1a70fb2-f48f-434a-983a-9e42f68d5ed6","full":1.9},"geometry":{"type":"Polygon","coordinates":[[[136.30437,35.86313],[136.30401,35.86306],[136.30398,35.86308],[136.30397,35.86313],[136.30393,35.86329],[136.30394,35.86333],[136.30395,35.86334],[136.30398,35.86334],[136.30411,35.86328],[136.30437,35.86313]]]}},{"type":"Feature","properties":{"pid":"13301103-3fe0-4284-81cf-4648b4665dce","full":12.6},"geometry":{"type":"Polygon","coordinates":[[[136.30402,35.86304],[136.30439,35.86311],[136.30444,35.86306],[136.30461,35.86288],[136.30468,35.86278],[136.30464,35.86277],[136.30464,35.86274],[136.30411,35.86264],[136.30406,35.86282],[136.30402,35.86304]]]}},{"type":"Feature","properties":{"pid":"5bf84845-27c1-4a4c-81d3-8c439f13de5d","full":8.1},"geometry":{"type":"Polygon","coordinates":[[[136.30408,35.86223],[136.30411,35.86225],[136.30472,35.86238],[136.30475,35.86236],[136.30479,35.86219],[136.30477,35.86218],[136.30477,35.86216],[136.30402,35.862],[136.304,35.86202],[136.30408,35.86223]]]}},{"type":"Feature","properties":{"pid":"8f267b4d-6e0a-45a2-8335-f143a4bdc187","full":7.9},"geometry":{"type":"Polygon","coordinates":[[[136.30413,35.86261],[136.30469,35.86272],[136.30474,35.86251],[136.3047,35.8625],[136.30471,35.86248],[136.30412,35.86234],[136.30413,35.8624],[136.30411,35.86259],[136.30413,35.86261]]]}},{"type":"Feature","properties":{"pid":"fe344527-9507-453b-92d1-21f97a041ea4","full":1.7},"geometry":{"type":"Polygon","coordinates":[[[136.30321,35.86315],[136.3033,35.863],[136.30331,35.86295],[136.3031,35.8629],[136.303,35.8629],[136.30296,35.86294],[136.30304,35.86306],[136.30321,35.86315]]]}},{"type":"Feature","properties":{"pid":"d0e94ab4-5689-418a-9f74-9b52deae29c0","full":2.7},"geometry":{"type":"Polygon","coordinates":[[[136.30422,35.86085],[136.30418,35.86084],[136.30411,35.86084],[136.30402,35.86085],[136.30395,35.86087],[136.30386,35.86107],[136.30404,35.86118],[136.30407,35.86117],[136.30422,35.86085]]]}},{"type":"Feature","properties":{"pid":"e91427ce-b770-4f0e-b967-50a9378ca5ff","full":2.1},"geometry":{"type":"Polygon","coordinates":[[[136.3035,35.86104],[136.30355,35.86108],[136.3036,35.86104],[136.30364,35.86103],[136.3038,35.86104],[136.30381,35.86103],[136.30388,35.86087],[136.30385,35.86085],[136.30371,35.86083],[136.30363,35.86083],[136.30359,35.86085],[136.30355,35.86093],[136.3035,35.86104]]]}},{"type":"Feature","properties":{"pid":"febb96c9-0e4b-4d1e-9bc8-2fcde8f90499","full":16.8},"geometry":{"type":"Polygon","coordinates":[[[136.30418,35.86122],[136.3042,35.86124],[136.30489,35.86137],[136.30495,35.86121],[136.30505,35.86105],[136.30504,35.86104],[136.30501,35.86102],[136.30435,35.86089],[136.30433,35.8609],[136.30418,35.86122]]]}},{"type":"Feature","properties":{"pid":"03abfbbc-bfaa-4305-a182-fe46883a94e0","full":8.1},"geometry":{"type":"Polygon","coordinates":[[[136.30437,35.8608],[136.30439,35.86082],[136.30503,35.86097],[136.30508,35.86096],[136.3052,35.86079],[136.30518,35.86077],[136.30446,35.86062],[136.30442,35.86066],[136.30442,35.86073],[136.30437,35.8608]]]}},{"type":"Feature","properties":{"pid":"1f5da5c8-bbe2-4507-a9e5-774a8e07979a","full":2.6},"geometry":{"type":"Polygon","coordinates":[[[136.30444,35.8606],[136.30446,35.86062],[136.3052,35.86077],[136.30521,35.86076],[136.30525,35.86067],[136.30523,35.86064],[136.3045,35.86049],[136.30444,35.8606]]]}},{"type":"Feature","properties":{"pid":"29fba0d5-6744-4420-80da-75a20e6ab1f0","full":4.6},"geometry":{"type":"Polygon","coordinates":[[[136.30451,35.86046],[136.30526,35.86062],[136.30527,35.86058],[136.30527,35.86056],[136.30522,35.86052],[136.30519,35.86047],[136.30515,35.86044],[136.30457,35.86028],[136.3045,35.86045],[136.30451,35.86046]]]}},{"type":"Feature","properties":{"pid":"31995dcc-262d-4182-aedf-573fb2df8676","full":19.8},"geometry":{"type":"Polygon","coordinates":[[[136.30402,35.8616],[136.30403,35.86162],[136.30485,35.86179],[136.30488,35.86166],[136.30489,35.86144],[136.30485,35.86141],[136.30415,35.86127],[136.30402,35.8616]]]}},{"type":"Feature","properties":{"pid":"9fa11b68-1f3a-4a3e-848d-49eb1a56180a","full":4.2},"geometry":{"type":"Polygon","coordinates":[[[136.30396,35.86177],[136.30397,35.86179],[136.30477,35.86196],[136.3048,35.86196],[136.30481,35.86194],[136.30482,35.86188],[136.30484,35.86182],[136.304,35.86164],[136.30396,35.86177]]]}},{"type":"Feature","properties":{"pid":"bc82a317-0324-4d97-b52b-6e2e0f681803","full":4.6},"geometry":{"type":"Polygon","coordinates":[[[136.30395,35.86196],[136.30476,35.86213],[136.3048,35.86213],[136.30482,35.86204],[136.30482,35.86201],[136.30481,35.86199],[136.30395,35.8618],[136.30394,35.86188],[136.30395,35.86196]]]}},{"type":"Feature","properties":{"pid":"8e17e179-1cd2-4f0b-a658-575107bca59f","full":14.8},"geometry":{"type":"Polygon","coordinates":[[[136.31293,35.85875],[136.31295,35.85875],[136.31332,35.85827],[136.3133,35.85824],[136.31301,35.8581],[136.31298,35.85809],[136.31261,35.85856],[136.31261,35.85858],[136.31293,35.85875]]]}},{"type":"Feature","properties":{"pid":"07df26ee-24a5-497e-af61-381153e2be77","full":14.4},"geometry":{"type":"Polygon","coordinates":[[[136.31223,35.85837],[136.31255,35.85854],[136.31257,35.85852],[136.31259,35.85853],[136.31295,35.85807],[136.31261,35.85789],[136.31223,35.85837]]]}},{"type":"Feature","properties":{"pid":"26e4540f-d561-4ba6-b662-fa0c5933b703","full":14.5},"geometry":{"type":"Polygon","coordinates":[[[136.31186,35.85817],[136.31217,35.85834],[136.3122,35.85833],[136.31223,35.85833],[136.31258,35.85788],[136.31223,35.85771],[136.31186,35.85817]]]}},{"type":"Feature","properties":{"pid":"18d69b04-b151-415a-8c9b-b7356d8b7716","full":14.8},"geometry":{"type":"Polygon","coordinates":[[[136.31146,35.85802],[136.31178,35.85815],[136.3118,35.85813],[136.31184,35.85815],[136.3122,35.85768],[136.31185,35.85751],[136.31146,35.85802]]]}},{"type":"Feature","properties":{"pid":"02ff38a1-68e8-4088-a0fb-5305320cc887","full":16.2},"geometry":{"type":"Polygon","coordinates":[[[136.31226,35.85765],[136.3126,35.85783],[136.31305,35.85726],[136.31293,35.85723],[136.3127,35.85711],[136.31226,35.85765]]]}},{"type":"Feature","properties":{"pid":"80f53ff8-a719-4b3e-a680-60b94e67ef27","full":17.4},"geometry":{"type":"Polygon","coordinates":[[[136.31189,35.85746],[136.31221,35.85762],[136.31224,35.85763],[136.31268,35.85709],[136.31237,35.85691],[136.31232,35.85691],[136.31189,35.85746]]]}},{"type":"Feature","properties":{"pid":"6f26035a-aec1-493d-b651-8bf3c0f754ff","full":16.9},"geometry":{"type":"Polygon","coordinates":[[[136.31106,35.85788],[136.31139,35.85799],[136.31144,35.858],[136.31184,35.85749],[136.31148,35.85732],[136.31145,35.85734],[136.31106,35.85786],[136.31106,35.85788]]]}},{"type":"Feature","properties":{"pid":"a08cfe35-648f-475a-b208-e4282d84d32b","full":18.6},"geometry":{"type":"Polygon","coordinates":[[[136.31061,35.85768],[136.31084,35.85781],[136.31097,35.85784],[136.31141,35.85728],[136.31105,35.8571],[136.31061,35.85768]]]}},{"type":"Feature","properties":{"pid":"b5512664-465e-4544-bbb2-1228e0f19ed3","full":1.3},"geometry":{"type":"Polygon","coordinates":[[[136.31045,35.85764],[136.31053,35.85765],[136.31059,35.85767],[136.31103,35.8571],[136.31099,35.85706],[136.31091,35.85706],[136.31089,35.85708],[136.31045,35.85764]]]}},{"type":"Feature","properties":{"pid":"bf757525-4bcb-475f-86c0-e9b3ccd2f45d","full":7.5},"geometry":{"type":"Polygon","coordinates":[[[136.31016,35.85758],[136.31017,35.8576],[136.31036,35.85765],[136.3104,35.85765],[136.31084,35.8571],[136.31085,35.85707],[136.3105,35.85713],[136.31016,35.85758]]]}},{"type":"Feature","properties":{"pid":"fc1b4918-8ab2-4165-9ec1-bf0d83bfb882","full":4.4},"geometry":{"type":"Polygon","coordinates":[[[136.30988,35.85749],[136.31009,35.85721],[136.31003,35.85719],[136.30954,35.85729],[136.30931,35.85735],[136.30929,35.85737],[136.30931,35.85738],[136.30958,35.85742],[136.30988,35.85749]]]}},{"type":"Feature","properties":{"pid":"78a56919-64fe-4a04-af91-13007b9d5ee3","full":4.8},"geometry":{"type":"Polygon","coordinates":[[[136.3099,35.85751],[136.31013,35.85757],[136.31049,35.85712],[136.31046,35.85711],[136.31017,35.85716],[136.3099,35.85751]]]}},{"type":"Feature","properties":{"pid":"741be76e-d079-450e-97d8-03584c902815","full":3.7},"geometry":{"type":"Polygon","coordinates":[[[136.30605,35.85805],[136.30614,35.85779],[136.30606,35.85776],[136.30587,35.85778],[136.30585,35.85783],[136.3058,35.85784],[136.30574,35.85788],[136.30573,35.85791],[136.30574,35.85796],[136.30579,35.85803],[136.30599,35.85805],[136.30604,35.85805],[136.30605,35.85805]]]}},{"type":"Feature","properties":{"pid":"cb3c34fa-135e-4e6e-9c86-97abdb82b274","full":4.7},"geometry":{"type":"Polygon","coordinates":[[[136.30664,35.858],[136.30664,35.85803],[136.30662,35.85805],[136.30663,35.85824],[136.30676,35.85825],[136.3069,35.85825],[136.30697,35.85818],[136.30703,35.85817],[136.3071,35.85814],[136.30708,35.85801],[136.30702,35.858],[136.30664,35.858]]]}},{"type":"Feature","properties":{"pid":"fb03c9d2-abb4-443a-aa9a-448521c83dc4","full":9.0},"geometry":{"type":"Polygon","coordinates":[[[136.30783,35.85767],[136.30738,35.85773],[136.3074,35.85777],[136.30738,35.85787],[136.30742,35.85798],[136.30752,35.858],[136.30764,35.85799],[136.30776,35.85797],[136.30788,35.85792],[136.30795,35.85782],[136.30809,35.85775],[136.30814,35.85768],[136.30783,35.85767]]]}},{"type":"Feature","properties":{"pid":"cf811e04-1532-4f69-b5d3-15ead3b5ab4c","full":0.9},"geometry":{"type":"Polygon","coordinates":[[[136.30526,35.86026],[136.30525,35.86034],[136.30525,35.86038],[136.30529,35.86043],[136.30534,35.86045],[136.30539,35.86044],[136.30542,35.86038],[136.30541,35.86017],[136.3053,35.86015],[136.30526,35.86026]]]}},{"type":"Feature","properties":{"pid":"42801c80-0c0a-4a87-aa22-61f1f5eb281e","full":1.1},"geometry":{"type":"Polygon","coordinates":[[[136.3048,35.86032],[136.30513,35.86042],[136.30513,35.86033],[136.30513,35.86025],[136.305,35.86024],[136.30496,35.86022],[136.30494,35.86021],[136.30485,35.8602],[136.30482,35.86021],[136.3048,35.86032]]]}},{"type":"Feature","properties":{"pid":"e58e348d-544c-4220-a7ed-d1263ee50004","full":3.5},"geometry":{"type":"Polygon","coordinates":[[[136.30312,35.85805],[136.30319,35.85822],[136.30374,35.85826],[136.30375,35.8581],[136.30312,35.85805]]]}},{"type":"Feature","properties":{"pid":"a2e89d73-de3a-4c01-937b-7c82c8dff348","full":11.9},"geometry":{"type":"Polygon","coordinates":[[[136.30312,35.85804],[136.30375,35.85809],[136.30378,35.85778],[136.30313,35.85773],[136.30311,35.85796],[136.30312,35.85804]]]}},{"type":"Feature","properties":{"pid":"7a2c3cb5-3e94-4fc8-b33a-bee75258731b","full":3.1},"geometry":{"type":"Polygon","coordinates":[[[136.30326,35.85841],[136.30372,35.85845],[136.30374,35.85827],[136.3032,35.85823],[136.30326,35.85841]]]}},{"type":"Feature","properties":{"pid":"4618ecdd-922f-4e16-a8fa-69b26f684eba","full":1.6},"geometry":{"type":"Polygon","coordinates":[[[136.30334,35.85849],[136.30351,35.8586],[136.30363,35.85863],[136.30369,35.85863],[136.30371,35.85858],[136.30372,35.85845],[136.30327,35.85842],[136.30334,35.85849]]]}},{"type":"Feature","properties":{"pid":"451cbba8-0cd0-4871-9481-8c7f4d5af0b9","full":2.0},"geometry":{"type":"Polygon","coordinates":[[[136.30377,35.8585],[136.30381,35.85852],[136.30404,35.85852],[136.3041,35.85846],[136.30412,35.85841],[136.30411,35.85834],[136.30394,35.85834],[136.30379,35.85834],[136.30377,35.8585]]]}},{"type":"Feature","properties":{"pid":"7fe66803-c230-4755-ad29-5ee7dc853892","full":3.1},"geometry":{"type":"Polygon","coordinates":[[[136.30509,35.8584],[136.30539,35.85842],[136.3054,35.85821],[136.30501,35.85818],[136.30499,35.85833],[136.30506,35.85835],[136.30508,35.85836],[136.30509,35.8584]]]}},{"type":"Feature","properties":{"pid":"b80b2aa6-7f18-4799-985e-6d8eed3b3498","full":8.6},"geometry":{"type":"Polygon","coordinates":[[[136.30314,35.85772],[136.30378,35.85777],[136.3038,35.85753],[136.30377,35.85752],[136.30321,35.85747],[136.3032,35.8575],[136.30316,35.85752],[136.30314,35.85772]]]}}],"precision":5}