{"type":"FeatureCollection","features":[{"type":"Feature","properties":{"pid":"fa3d55b4-bd8e-442b-ad07-bdd5d39f2a2c"},"geometry":{"type":"Polygon","coordinates":[[[136.07681378551865,35.8222816008378],[136.07685616762086,35.822297878247994],[136.07707122854706,35.82196290937694],[136.0769940908412,35.82194546716057],[136.07681378551865,35.8222816008378]]]}},{"type":"Feature","properties":{"pid":"f829435c-718a-4c8f-af86-d91144e7f9a1"},"geometry":{"type":"Polygon","coordinates":[[[136.07668362669503,35.82225022094773],[136.0768713081588,35.82191451403056],[136.07659142699202,35.82187469662435],[136.07641638323904,35.8219079679834],[136.0760311796177,35.82206382709972],[136.07637977881245,35.82217478669469],[136.07668362669503,35.82225022094773]]]}},{"type":"Feature","properties":{"pid":"a50893f9-4a1a-447c-bdf4-43182f8f65c0"},"geometry":{"type":"Polygon","coordinates":[[[136.0769742043595,35.82233394666258],[136.07697437525007,35.82235625982045],[136.07707512669307,35.82242309116187],[136.07735622205786,35.822062222791914],[136.07718905387642,35.82199088478861],[136.0769742043595,35.82233394666258]]]}},{"type":"Feature","properties":{"pid":"f7c4a31c-f642-427b-bf08-cd78fbf719e1"},"geometry":{"type":"Polygon","coordinates":[[[136.07718847307393,35.82245992105602],[136.07719143298633,35.82248748467056],[136.0773025344493,35.82256564622213],[136.07737498362798,35.822652172127846],[136.07744651508276,35.822146904702194],[136.07718847307393,35.82245992105602]]]}},{"type":"Feature","properties":{"pid":"dcdd9f80-3cfa-4e31-9b7d-48dc66a96b99"},"geometry":{"type":"Polygon","coordinates":[[[136.0768985507826,35.82265187880233],[136.0769981503255,35.82292684791022],[136.07730112642972,35.82292409719136],[136.0768985507826,35.82265187880233]]]}},{"type":"Feature","properties":{"pid":"e0a511f1-dc52-46ab-9d66-3c3636212c7f"},"geometry":{"type":"Polygon","coordinates":[[[136.07699312887408,35.823433166736514],[136.07736006861427,35.82344162799236],[136.07734451587106,35.82301955007198],[136.07700220072343,35.82302364121489],[136.07699347391267,35.823090824727345],[136.07702588201758,35.82319712172948],[136.07703007449413,35.82330052803543],[136.07699310013663,35.82336943773717],[136.07699312887408,35.823433166736514]]]}},{"type":"Feature","properties":{"pid":"aed31d62-fd07-4ce1-bd2c-96fcc32fd424"},"geometry":{"type":"Polygon","coordinates":[[[136.07703211967623,35.823537671162974],[136.07709197125575,35.82360797286736],[136.07710051839624,35.82370917258388],[136.07712012817387,35.823738974386536],[136.0774855127844,35.82409331842834],[136.07736858814596,35.82367524643354],[136.07735967530778,35.823543004013224],[136.07703211967623,35.823537671162974]]]}},{"type":"Feature","properties":{"pid":"e7b00b95-f5f8-4e18-a12e-e84245458efd"},"geometry":{"type":"Polygon","coordinates":[[[136.07798784204954,35.823557958360794],[136.0783817445876,35.823860788293494],[136.07851183435392,35.82373618371907],[136.07842751602774,35.82366841455514],[136.07809549268697,35.82346100897147],[136.07798784204954,35.823557958360794]]]}},{"type":"Feature","properties":{"pid":"8be372c5-3a8d-44ed-952a-ca569c746dbb"},"geometry":{"type":"Polygon","coordinates":[[[136.07772268795284,35.82394759241674],[136.07803619949647,35.823772234298154],[136.07782338723004,35.823610382321995],[136.07767571444035,35.823707032826604],[136.07769329300808,35.82386314068486],[136.07772268795284,35.82394759241674]]]}},{"type":"Feature","properties":{"pid":"be40095f-cdbb-4e94-99bb-abd8cf17235e"},"geometry":{"type":"Polygon","coordinates":[[[136.07761860432817,35.823135176800406],[136.0776519624196,35.82351426299442],[136.0776795478866,35.82354837713079],[136.07782579041861,35.823450567835216],[136.07787485896284,35.823447375949335],[136.0779545471498,35.82337039668733],[136.07761860432817,35.823135176800406]]]}},{"type":"Feature","properties":{"pid":"9a12548a-e9c8-41db-9ef1-7dbec2c8e47e"},"geometry":{"type":"Polygon","coordinates":[[[136.0776297825919,35.8226006982534],[136.07761413879192,35.82273528768933],[136.07763049016782,35.82287232974119],[136.0777698113093,35.82295624958341],[136.0778048531775,35.82279087127168],[136.07789622711232,35.82270444157314],[136.0779115429345,35.822659513859755],[136.07789217618176,35.822642087428534],[136.0776297825919,35.8226006982534]]]}},{"type":"Feature","properties":{"pid":"7858aa47-8df5-4aab-b1af-3e4e3cb00596"},"geometry":{"type":"Polygon","coordinates":[[[136.07764444789498,35.82250293035221],[136.07790006158498,35.8225419673127],[136.0778207188944,35.822345800909666],[136.0777069076013,35.82224497113405],[136.07764444789498,35.82250293035221]]]}},{"type":"Feature","properties":{"pid":"9e38ea22-b352-429f-805e-34c6e7be8a95"},"geometry":{"type":"Polygon","coordinates":[[[136.0825670042911,35.82176425889724],[136.08269900503868,35.8216007126213],[136.08237827765677,35.821445425546244],[136.0823338168068,35.82164226133465],[136.0825670042911,35.82176425889724]]]}},{"type":"Feature","properties":{"pid":"6b8a60e6-6cc1-4dc4-b272-88a75b886f32"},"geometry":{"type":"Polygon","coordinates":[[[136.0824885131072,35.82185914686875],[136.0823118255276,35.82176338781192],[136.08229190488058,35.82186914039977],[136.0820819626132,35.82232227988966],[136.08211220880875,35.82233066836715],[136.0824885131072,35.82185914686875]]]}},{"type":"Feature","properties":{"pid":"cd005a1a-6c24-4efb-b676-d528cff62688"},"geometry":{"type":"Polygon","coordinates":[[[136.08422357308945,35.82329796467578],[136.08450510319167,35.823411558612044],[136.08456224089812,35.82340627430353],[136.08443762620598,35.823304963117245],[136.08426072242503,35.82322660624168],[136.08422357308945,35.82329796467578]]]}},{"type":"Feature","properties":{"pid":"be9dbfe9-1616-4df0-b029-c6eaee36dd9e"},"geometry":{"type":"Polygon","coordinates":[[[136.08328129502522,35.823575059566004],[136.08335371015983,35.8235963410869],[136.08360790870464,35.823215890478984],[136.08355503309446,35.823191082199756],[136.08328129502522,35.823575059566004]]]}},{"type":"Feature","properties":{"pid":"0c390b4b-10d1-403e-9993-950510fd5d94"},"geometry":{"type":"Polygon","coordinates":[[[136.08349522850708,35.82361425170435],[136.08354864003883,35.8236256593565],[136.0839268697779,35.82354516445264],[136.08411893345271,35.82349921226663],[136.08413349179457,35.82346812423029],[136.08372827445154,35.82327547527711],[136.08349522850708,35.82361425170435]]]}},{"type":"Feature","properties":{"pid":"e9f86c30-7b40-40a5-9a39-e064fca1c700"},"geometry":{"type":"Polygon","coordinates":[[[136.0829476243014,35.82344757394563],[136.083046431094,35.823510973747425],[136.08315366894962,35.82354441974055],[136.08343746641933,35.82313909400832],[136.08322423200318,35.823042733513056],[136.0829476243014,35.82344757394563]]]}},{"type":"Feature","properties":{"pid":"0e122d76-6855-4780-aaa2-e9bac48ae639"},"geometry":{"type":"Polygon","coordinates":[[[136.08283957516804,35.823375521058864],[136.08311104553354,35.8229894403719],[136.08281654156067,35.82285900242284],[136.08266074131137,35.82282584096839],[136.08262907440545,35.82296010352832],[136.08263584943074,35.823120456637504],[136.08273842304888,35.823298613276485],[136.08283957516804,35.823375521058864]]]}},{"type":"Feature","properties":{"pid":"849ead68-a25f-4773-b656-2b190c046005"},"geometry":{"type":"MultiPolygon","coordinates":[[[[136.08379426964447,35.82301104264107],[136.08375940329626,35.82306762111514],[136.08385598619432,35.82311530103408],[136.08382957470124,35.82305450823993],[136.08379426964447,35.82301104264107]]],[[[136.08395764284347,35.82316548555596],[136.08411903003244,35.82324515675728],[136.08413785471953,35.823208951214156],[136.08408756213078,35.823200821542976],[136.08395764284347,35.82316548555596]]]]}},{"type":"Feature","properties":{"pid":"74976d84-4811-4ea6-b7e0-ec03d3e8b4a9"},"geometry":{"type":"Polygon","coordinates":[[[136.08362359978847,35.82299848772014],[136.0836909154655,35.822916609019174],[136.08342687256686,35.822789824517976],[136.0833653164592,35.822871928882556],[136.08362359978847,35.82299848772014]]]}},{"type":"Feature","properties":{"pid":"09d82c37-d26b-41f5-9685-f67c0cac1a0b"},"geometry":{"type":"Polygon","coordinates":[[[136.08348929730715,35.82269435080355],[136.08379882648106,35.82283200477843],[136.08382956837713,35.822822496836324],[136.08390694157794,35.8226342424601],[136.08393019777472,35.82248487243306],[136.0836129370591,35.82252603329587],[136.08348929730715,35.82269435080355]]]}},{"type":"Feature","properties":{"pid":"c3933bf7-0c56-4a4c-bfc1-0e879edd9075"},"geometry":{"type":"Polygon","coordinates":[[[136.08288295462097,35.822495123345995],[136.082921755059,35.822546848872705],[136.08288043233267,35.822616876639316],[136.08324159493654,35.822791450394895],[136.0834580169065,35.822513546337035],[136.08303846869143,35.82244093134185],[136.08299142248794,35.822444631649475],[136.08288295462097,35.822495123345995]]]}},{"type":"Feature","properties":{"pid":"73143232-c82a-4b0a-b74b-f49e06e966a0"},"geometry":{"type":"Polygon","coordinates":[[[136.08489500621639,35.8233623954681],[136.08537602994863,35.82329449191322],[136.08561005569277,35.82330217187764],[136.08564529909725,35.823217651813515],[136.08557110105681,35.82310107242587],[136.08540660438348,35.82298673728827],[136.08532091144806,35.822986798416586],[136.08511832412083,35.82304782587342],[136.08487835046125,35.82305899148305],[136.08470735099996,35.823163024424574],[136.08489500621639,35.8233623954681]]]}},{"type":"Feature","properties":{"pid":"afbd9a88-72a3-426a-bc8c-71cf9f2c5ddc"},"geometry":{"type":"Polygon","coordinates":[[[136.0825729626849,35.821183469537836],[136.08288332512052,35.82135057326792],[136.0830439281251,35.821150368104384],[136.08273649684207,35.820982378657504],[136.0825729626849,35.821183469537836]]]}},{"type":"Feature","properties":{"pid":"e8555bb9-843a-4623-bbe7-744df8b943e8"},"geometry":{"type":"Polygon","coordinates":[[[136.08286431785672,35.82090727923875],[136.08311656383356,35.8210569285449],[136.08314278398814,35.82105957968007],[136.08328078528743,35.820896505185374],[136.08326410097376,35.82087540695425],[136.08314065038414,35.820887154207476],[136.08298376250903,35.82087800554518],[136.08286431785672,35.82090727923875]]]}},{"type":"Feature","properties":{"pid":"55b31d44-ba89-40c3-8cb6-0e006a8f5181"},"geometry":{"type":"Polygon","coordinates":[[[136.08242589893268,35.82124612659426],[136.08239976069802,35.82134173867575],[136.08276415950854,35.82151780322605],[136.08280935757946,35.82145664935148],[136.08242589893268,35.82124612659426]]]}}]}