{"type":"FeatureCollection","features":[{"type":"Feature","properties":{"pid":"8307f246-4be3-4c03-b707-94291651bee5","full":1.5},"geometry":{"type":"Polygon","coordinates":[[[136.61565,35.88866],[136.61572,35.88863],[136.61576,35.88858],[136.6159,35.88852],[136.61575,35.88843],[136.61557,35.88847],[136.6155,35.88859],[136.61565,35.88866]]]}},{"type":"Feature","properties":{"pid":"4a802321-f359-401c-900c-5aad183ab25c","full":16.9},"geometry":{"type":"Polygon","coordinates":[[[136.62014,35.8864],[136.62019,35.88583],[136.62016,35.88583],[136.62015,35.88581],[136.61979,35.88577],[136.61976,35.88577],[136.61972,35.88625],[136.61972,35.88639],[136.61975,35.88641],[136.62014,35.8864]]]}},{"type":"Feature","properties":{"pid":"12640d16-c600-4521-8d8e-7230a75cfc5f","full":0.6},"geometry":{"type":"Polygon","coordinates":[[[136.6191,35.88581],[136.61908,35.88575],[136.61861,35.88582],[136.6184,35.88586],[136.61848,35.88598],[136.61865,35.88592],[136.6191,35.88581]]]}},{"type":"Feature","properties":{"pid":"2474f2e6-0cad-4cef-b798-5cd427e00757","full":12.9},"geometry":{"type":"Polygon","coordinates":[[[136.62071,35.88663],[136.62106,35.88625],[136.62103,35.88621],[136.62073,35.88603],[136.62036,35.88643],[136.62039,35.88646],[136.62071,35.88663]]]}},{"type":"Feature","properties":{"pid":"52016f2e-b311-4cde-85c8-e419da518bdd","full":9.9},"geometry":{"type":"Polygon","coordinates":[[[136.62015,35.88639],[136.62031,35.88642],[136.62069,35.88604],[136.6202,35.88583],[136.62015,35.88639]]]}},{"type":"Feature","properties":{"pid":"69fc1f97-e009-49ee-b97b-752193bddfa3","full":0.9},"geometry":{"type":"Polygon","coordinates":[[[136.62034,35.88682],[136.62085,35.88699],[136.62088,35.88693],[136.62041,35.88668],[136.62037,35.88673],[136.62034,35.88682]]]}},{"type":"Feature","properties":{"pid":"9b2faa77-22e1-4aaa-a8b0-fe90137b795b","full":11.3},"geometry":{"type":"Polygon","coordinates":[[[136.62072,35.88664],[136.62105,35.88681],[136.62139,35.88647],[136.62137,35.88645],[136.62138,35.88644],[136.62109,35.88625],[136.62072,35.88664]]]}},{"type":"Feature","properties":{"pid":"69938552-c6b2-40ec-b521-516658247d10","full":12.2},"geometry":{"type":"Polygon","coordinates":[[[136.62146,35.88704],[136.62177,35.88671],[136.62174,35.88669],[136.62176,35.88667],[136.62144,35.88646],[136.62109,35.88683],[136.62146,35.88704]]]}},{"type":"Feature","properties":{"pid":"9024c345-4dd0-47e0-b2e6-aca03e93dcd8","full":9.5},"geometry":{"type":"Polygon","coordinates":[[[136.62146,35.88704],[136.62165,35.88714],[136.62188,35.88721],[136.62199,35.88696],[136.62207,35.88686],[136.62182,35.88671],[136.6218,35.88672],[136.62177,35.88671],[136.62146,35.88704]]]}},{"type":"Feature","properties":{"pid":"1b41bc8f-d190-430d-955d-e3243461db7c","full":0.8},"geometry":{"type":"Polygon","coordinates":[[[136.62027,35.88695],[136.62075,35.88709],[136.62079,35.88699],[136.62033,35.88684],[136.62027,35.88695]]]}},{"type":"Feature","properties":{"pid":"e66689d6-6637-44b9-8c7e-f527ca5b14ba","full":0.6},"geometry":{"type":"Polygon","coordinates":[[[136.62017,35.88717],[136.62027,35.88722],[136.6203,35.88725],[136.62034,35.88726],[136.6205,35.88725],[136.62056,35.88718],[136.6202,35.88708],[136.62017,35.88717]]]}}],"precision":5}