{"type":"FeatureCollection","features":[{"type":"Feature","properties":{"pid":"fcf43f18-2238-425d-87bd-37e997381a0a"},"geometry":{"type":"Polygon","coordinates":[[[136.11985739126456,35.60855792270145],[136.11957051628326,35.608698260581114],[136.11989230704447,35.60879242647522],[136.1200973773258,35.60880589182054],[136.12007355996408,35.60876623004283],[136.11985739126456,35.60855792270145]]]}},{"type":"Feature","properties":{"pid":"ab466bf4-0258-4049-bb63-cd8d709b6d91"},"geometry":{"type":"Polygon","coordinates":[[[136.11794043285215,35.609673058074335],[136.11795861502634,35.60969368698635],[136.11808116810158,35.60960408683384],[136.11802907606258,35.609559668467675],[136.11800449298377,35.609566118933884],[136.11795817884615,35.60959245132925],[136.11794043285215,35.609673058074335]]]}},{"type":"Feature","properties":{"pid":"04488ccf-c17b-4e20-bf65-368a05b7fa8a"},"geometry":{"type":"Polygon","coordinates":[[[136.11778954528415,35.60966726606562],[136.11767731743663,35.60973613527246],[136.11761187560197,35.6098054665024],[136.11761077989274,35.60984813755079],[136.11770027980418,35.60985042195004],[136.11778534196918,35.60981791929605],[136.1178692568424,35.60975938684141],[136.11778954528415,35.60966726606562]]]}},{"type":"Feature","properties":{"pid":"53f796b9-599c-4fbf-b237-69935a970872"},"geometry":{"type":"Polygon","coordinates":[[[136.11419286240854,35.6094781286819],[136.1143648771649,35.60941208093797],[136.1144873480876,35.609389814981256],[136.1143918565663,35.60930780943383],[136.11424186825454,35.609407358088916],[136.11419286240854,35.6094781286819]]]}},{"type":"Feature","properties":{"pid":"3db76398-bf76-4ca8-9ad2-eac209c7e7af"},"geometry":{"type":"Polygon","coordinates":[[[136.10011537117202,35.61954662286024],[136.10017071132134,35.619574531888254],[136.10023224857915,35.6196031761045],[136.10022230929167,35.619525939297155],[136.1001889949286,35.619520596464774],[136.10012437051216,35.619476660107054],[136.10011537117202,35.61954662286024]]]}},{"type":"Feature","properties":{"pid":"73f4d5bf-ed55-40ac-9eb0-d187265650a5"},"geometry":{"type":"Polygon","coordinates":[[[136.10206655413623,35.61987859389206],[136.10214496982022,35.619900992976106],[136.1021909802849,35.61993613398242],[136.10239428492764,35.61997966091801],[136.10242355748497,35.61988778422709],[136.10238205375512,35.61986937683629],[136.1022760458178,35.619725401715975],[136.1021264699452,35.61965367649703],[136.10206655413623,35.61987859389206]]]}},{"type":"Feature","properties":{"pid":"c5c71af9-b58c-41f6-84c7-eb781b188b24"},"geometry":{"type":"Polygon","coordinates":[[[136.10279868721577,35.61990017489943],[136.10286090746428,35.61990987088184],[136.1029136261673,35.61980020835569],[136.10284570994486,35.619792377082256],[136.10279868721577,35.61990017489943]]]}},{"type":"Feature","properties":{"pid":"32444080-ca9e-45e2-949b-ffca24f88c4c"},"geometry":{"type":"Polygon","coordinates":[[[136.10277600323272,35.620088682657375],[136.10296701443798,35.62015512833062],[136.10299141398139,35.62016337377305],[136.10294693217077,35.62009420185913],[136.10285779497406,35.62004772831197],[136.1027998441101,35.620030942393385],[136.10277600323272,35.620088682657375]]]}},{"type":"Feature","properties":{"pid":"028fec77-09f9-46aa-a2a6-1fc0474afff3"},"geometry":{"type":"Polygon","coordinates":[[[136.10269695211662,35.620574358131634],[136.10278476408612,35.62058487924379],[136.10282819041865,35.620553584081776],[136.10280570344736,35.62052406729352],[136.10270201669775,35.62050706900144],[136.10269695211662,35.620574358131634]]]}},{"type":"Feature","properties":{"pid":"d0cdc6b2-9a5b-4a8a-b237-9898f82a4313"},"geometry":{"type":"Polygon","coordinates":[[[136.1020442615953,35.62075698969449],[136.102097020105,35.62077340840709],[136.10228285140158,35.62059471666959],[136.1024504465285,35.62050826452812],[136.10239897157052,35.62049993185439],[136.1022185381844,35.620599934336106],[136.1020442615953,35.62075698969449]]]}},{"type":"Feature","properties":{"pid":"0e5fe72e-aaf4-44a4-8a9d-d74a903e86e6"},"geometry":{"type":"Polygon","coordinates":[[[136.1025422364753,35.620587809961926],[136.10233314771858,35.62070372058442],[136.10225113505342,35.62079946715754],[136.10233764841752,35.62080461416626],[136.10246605567067,35.62073441092309],[136.1025631319805,35.62071134963159],[136.1025422364753,35.620587809961926]]]}},{"type":"Feature","properties":{"pid":"348f7d40-d8c2-4673-b834-996ef17de4b6"},"geometry":{"type":"Polygon","coordinates":[[[136.10230103104664,35.61937558471536],[136.10223554089868,35.61931239334381],[136.1022115960082,35.61931723590785],[136.10233459763398,35.61948616787979],[136.10245787805903,35.61955735983364],[136.10265308187567,35.619595089919656],[136.10271855889889,35.61964239872712],[136.10273344622442,35.619624123615935],[136.10230103104664,35.61937558471536]]]}},{"type":"Feature","properties":{"pid":"6dbf8719-055c-4e8f-9568-4478d7688bb2"},"geometry":{"type":"Polygon","coordinates":[[[136.10197932955958,35.619402371127954],[136.10201645268972,35.61948681243287],[136.1021445108357,35.619520089559366],[136.10205021190447,35.619382045558574],[136.10197932955958,35.619402371127954]]]}},{"type":"Feature","properties":{"pid":"dd3c8d7b-5a93-4f96-88d1-93b8d627c2eb"},"geometry":{"type":"Polygon","coordinates":[[[136.1020181489537,35.619086826814986],[136.1020748984906,35.61920078567828],[136.10208028368012,35.61924628903665],[136.10219894831172,35.619216075701814],[136.10219360282773,35.619088733795024],[136.1021365448714,35.619027322963156],[136.1020181489537,35.619086826814986]]]}},{"type":"Feature","properties":{"pid":"b2618fc8-e958-48bd-8982-1365b466a6c0"},"geometry":{"type":"Polygon","coordinates":[[[136.10022548270405,35.61932576693172],[136.1003708949333,35.61931402489898],[136.10035789105453,35.61922087132951],[136.10028818817045,35.619207274055626],[136.10022548270405,35.61932576693172]]]}},{"type":"Feature","properties":{"pid":"9a412d38-fcfd-4acf-a060-0a925274e0af"},"geometry":{"type":"Polygon","coordinates":[[[136.10742378302052,35.609388034137275],[136.10756847618867,35.60939844560253],[136.10749812304644,35.609317278157626],[136.1074984603226,35.60925597149398],[136.107452034867,35.60925616331866],[136.10742378302052,35.609388034137275]]]}},{"type":"Feature","properties":{"pid":"1f6fc159-4909-4911-b307-294b1f741682"},"geometry":{"type":"Polygon","coordinates":[[[136.10681363410973,35.60911050437739],[136.10720860185376,35.60913268864008],[136.10723707498843,35.60905519413714],[136.10683177430548,35.60893797893864],[136.10681363410973,35.60911050437739]]]}},{"type":"Feature","properties":{"pid":"ac9db84c-2020-405f-b011-9c69ee49b642"},"geometry":{"type":"Polygon","coordinates":[[[136.1064156011128,35.60888910678033],[136.10640255515995,35.60906480220473],[136.1065959106849,35.60908467939326],[136.1066218736747,35.608910784906136],[136.1064156011128,35.60888910678033]]]}},{"type":"Feature","properties":{"pid":"9b272b6e-8881-433d-8f3b-c690c964f8f5"},"geometry":{"type":"Polygon","coordinates":[[[136.1067919055344,35.60933868129854],[136.10712681965228,35.609348052666924],[136.1071465111315,35.60926226543927],[136.1068029835528,35.60924463761552],[136.1067919055344,35.60933868129854]]]}},{"type":"Feature","properties":{"pid":"da6d1007-f48b-43d7-b39c-6398ca696d8e"},"geometry":{"type":"Polygon","coordinates":[[[136.10702003579593,35.60971917873748],[136.10708520374135,35.609479872682925],[136.10678124046493,35.609466283975465],[136.10676959799707,35.60964836917209],[136.10702003579593,35.60971917873748]]]}},{"type":"Feature","properties":{"pid":"33e1e339-dd1d-4307-b415-60a1fb4a435a"},"geometry":{"type":"Polygon","coordinates":[[[136.10615126024538,35.60954585947905],[136.10640442985576,35.609618699638006],[136.1065685181344,35.60962094030405],[136.1065826072122,35.60945538956689],[136.10608868231998,35.60942034914891],[136.10610271088774,35.6094993030145],[136.1061370218337,35.60951807219349],[136.10615126024538,35.60954585947905]]]}},{"type":"Feature","properties":{"pid":"043f82c3-3535-49c6-98da-84d159f8de5e"},"geometry":{"type":"Polygon","coordinates":[[[136.1059983348562,35.60917936987907],[136.10602065103478,35.60923893733708],[136.1060639045603,35.609280636853114],[136.1065762493354,35.6093113848536],[136.1065928397798,35.609221823746644],[136.10631971973612,35.60918808369356],[136.1059983348562,35.60917936987907]]]}},{"type":"Feature","properties":{"pid":"a688b42b-3561-4d21-ba8a-23a388ee5bae"},"geometry":{"type":"Polygon","coordinates":[[[136.1048284078247,35.60779946068179],[136.10503841400268,35.60789225937139],[136.10513438512882,35.60779778086841],[136.1049214526195,35.60763594212552],[136.1047890607005,35.60770631195732],[136.10481602444148,35.60774444558106],[136.1048284078247,35.60779946068179]]]}},{"type":"Feature","properties":{"pid":"2d559941-5bf3-4b1a-90aa-ee631f597917"},"geometry":{"type":"Polygon","coordinates":[[[136.1051486627266,35.60745621185041],[136.1052925856015,35.607537715791416],[136.10540675580447,35.607411193896986],[136.10534641513252,35.607341228699426],[136.10527703660986,35.60731058920913],[136.10520189169551,35.607413395399085],[136.1051486627266,35.60745621185041]]]}},{"type":"Feature","properties":{"pid":"ff615c58-9644-4ba0-9e11-8e190cb84414"},"geometry":{"type":"Polygon","coordinates":[[[136.10553036067094,35.60716815148341],[136.10565675166006,35.60730907860328],[136.1058801454871,35.607305731445884],[136.1058790363293,35.60725633965084],[136.1058089797118,35.60716132551273],[136.10553036067094,35.60716815148341]]]}},{"type":"Feature","properties":{"pid":"63aa6ddb-16ed-4513-9990-dfdf566a3df7"},"geometry":{"type":"Polygon","coordinates":[[[136.1064476567125,35.60771566562432],[136.10647736815025,35.60774261494295],[136.10657926619564,35.607773332826966],[136.10657054186427,35.607143069994805],[136.10653205702124,35.60713933352475],[136.10649240679416,35.60717015827307],[136.10643894144053,35.60717327847353],[136.1064476567125,35.60771566562432]]]}},{"type":"Feature","properties":{"pid":"6ddb1287-37bc-41df-a659-87de86c8463d"},"geometry":{"type":"Polygon","coordinates":[[[136.10613751844642,35.607613051354654],[136.10630757355048,35.607681944388894],[136.1062922415663,35.60717484906091],[136.10618898059613,35.60717766035713],[136.10618349592264,35.60720912249017],[136.10613579209365,35.60727342830221],[136.10613751844642,35.607613051354654]]]}}]}