{"type":"FeatureCollection","features":[{"type":"Feature","properties":{"pid":"b1d2abe1-5d01-46a0-9e64-149ede0f7ef4"},"geometry":{"type":"Polygon","coordinates":[[[136.54991525500995,35.948700809639625],[136.55049664040996,35.94878525028926],[136.5505667522435,35.948489585274054],[136.54999300511997,35.94840463706295],[136.54991525500995,35.948700809639625]]]}},{"type":"Feature","properties":{"pid":"e0f15f18-eac4-4656-b877-e305805d78a7"},"geometry":{"type":"Polygon","coordinates":[[[136.54985569885395,35.94895355210195],[136.55043032738186,35.94904144181186],[136.5504689682262,35.94889659171019],[136.5498889571622,35.9488174424767],[136.54985569885395,35.94895355210195]]]}},{"type":"Feature","properties":{"pid":"6e7d34af-3398-4508-8126-c53ba51a07e5"},"geometry":{"type":"Polygon","coordinates":[[[136.55002206650119,35.94829482532033],[136.55058884983947,35.9483828428024],[136.55060808507713,35.9482923047302],[136.5500449893238,35.94820696791774],[136.55002206650119,35.94829482532033]]]}},{"type":"Feature","properties":{"pid":"b0a6da9b-ea9c-473d-8672-2e4400ce14ee"},"geometry":{"type":"Polygon","coordinates":[[[136.55008226253867,35.948091304909774],[136.55062975560054,35.94815897186389],[136.55064044234138,35.94810385943597],[136.55009936042697,35.94802030765708],[136.55008226253867,35.948091304909774]]]}},{"type":"Feature","properties":{"pid":"5df4602a-f846-4fac-9a59-8dd286984c27"},"geometry":{"type":"Polygon","coordinates":[[[136.55014225396036,35.94788512629805],[136.5506841646734,35.947966212300784],[136.55073518547533,35.94774784104739],[136.55022422574172,35.947677597506726],[136.55014225396036,35.94788512629805]]]}},{"type":"Feature","properties":{"pid":"c6d37d43-555b-49a5-9209-f3fbdcbd8569"},"geometry":{"type":"Polygon","coordinates":[[[136.55027943796955,35.94757741964024],[136.55075947387502,35.947644273128454],[136.55081402516308,35.947399460462776],[136.55038667795407,35.94733747346288],[136.55027943796955,35.94757741964024]]]}},{"type":"Feature","properties":{"pid":"5d02bbe2-e621-4995-8db6-38d1be973de1"},"geometry":{"type":"Polygon","coordinates":[[[136.55003085541648,35.94741732486279],[136.55009346630092,35.94742619286027],[136.55021102122492,35.947121704550305],[136.5500948486328,35.94710283016346],[136.55003085541648,35.94741732486279]]]}},{"type":"Feature","properties":{"pid":"5a491602-a27f-4c63-919f-ba930b4b10e9"},"geometry":{"type":"Polygon","coordinates":[[[136.55051519773068,35.94556128505182],[136.55084581269833,35.945640175740664],[136.55086263841545,35.94559239322862],[136.55053079182755,35.94551186873645],[136.55051519773068,35.94556128505182]]]}},{"type":"Feature","properties":{"pid":"9f2f86eb-f1ca-40b9-8962-6c98fb0bc404"},"geometry":{"type":"Polygon","coordinates":[[[136.55037345989896,35.94605431781478],[136.55065619528955,35.94612120770274],[136.5507564846637,35.94584840505898],[136.55045530203427,35.94577373466861],[136.55037345989896,35.94605431781478]]]}},{"type":"Feature","properties":{"pid":"6dcad306-0ea0-4263-b873-36650ae0a80f"},"geometry":{"type":"Polygon","coordinates":[[[136.55029211672786,35.946315216342],[136.55055364474694,35.946371759230786],[136.55061344248512,35.94621806118806],[136.5503400809136,35.94615538456757],[136.55029211672786,35.946315216342]]]}},{"type":"Feature","properties":{"pid":"b0a29ad9-d4e8-4893-97d1-fb2964de3381"},"geometry":{"type":"Polygon","coordinates":[[[136.55018371586124,35.94674316922809],[136.55035726615847,35.94676785223138],[136.55041273789178,35.946630751700354],[136.55022292534778,35.94660191017297],[136.55018371586124,35.94674316922809]]]}},{"type":"Feature","properties":{"pid":"11c3e59c-280f-4d80-a42e-e5728e463f4f"},"geometry":{"type":"Polygon","coordinates":[[[136.55026017583504,35.94641533756115],[136.55024549924062,35.94645929364858],[136.55047225114396,35.946488406460176],[136.5504958289484,35.946466952802126],[136.55026017583504,35.94641533756115]]]}},{"type":"Feature","properties":{"pid":"67599c6d-d1e6-482c-a9ba-d2481256e750"},"geometry":{"type":"Polygon","coordinates":[[[136.5501235104894,35.94699319679138],[136.55025811645308,35.94701218651638],[136.5503078681792,35.94688044238642],[136.55016236932957,35.94685045200578],[136.5501235104894,35.94699319679138]]]}},{"type":"Feature","properties":{"pid":"dc303712-38bb-455d-aa50-9381948dce6a"},"geometry":{"type":"Polygon","coordinates":[[[136.5505757255171,35.946907526336304],[136.55090722303441,35.946956014699],[136.55096546504464,35.94671688918956],[136.5506610229516,35.946673059178984],[136.5505757255171,35.946907526336304]]]}},{"type":"Feature","properties":{"pid":"8ce77c96-31eb-4a0e-a8b0-05ed51777e8a"},"geometry":{"type":"Polygon","coordinates":[[[136.55042923349612,35.94722697858145],[136.55084166391808,35.947289736741915],[136.55088697685903,35.94706070159796],[136.55052361533734,35.947007271236046],[136.55042923349612,35.94722697858145]]]}},{"type":"Feature","properties":{"pid":"a37877bc-b9c4-4096-bf3e-522734e98100"},"geometry":{"type":"Polygon","coordinates":[[[136.551110755062,35.94698174839344],[136.55184228058513,35.94709594261069],[136.55185491516457,35.947088502953875],[136.55186130386159,35.946866380945124],[136.55117165430164,35.94675467568763],[136.551110755062,35.94698174839344]]]}},{"type":"Feature","properties":{"pid":"09489136-f905-4012-8a13-d54e959e2c43"},"geometry":{"type":"Polygon","coordinates":[[[136.55157562653386,35.946672091981874],[136.55185059291313,35.94671127203026],[136.55183708690896,35.94643689193981],[136.55163425437735,35.94641095701408],[136.55157562653386,35.946672091981874]]]}},{"type":"Feature","properties":{"pid":"a7bf5395-a404-46e4-b3ab-039ef598662b"},"geometry":{"type":"Polygon","coordinates":[[[136.55120514806757,35.94661127462876],[136.55139501291652,35.94664916681339],[136.5514233823159,35.946623674671315],[136.55146279591702,35.946620622846815],[136.55150871158875,35.94639424314239],[136.55125357446593,35.94635666755315],[136.55120514806757,35.94661127462876]]]}},{"type":"Feature","properties":{"pid":"03202ba7-1374-46c8-b54c-1a4871554d5a"},"geometry":{"type":"Polygon","coordinates":[[[136.5509113271538,35.946179884442415],[136.55110591265594,35.94621695973845],[136.55115638552246,35.946196545887105],[136.55162627969239,35.94626170107656],[136.55158814939855,35.94608629428524],[136.55098719368638,35.94599127223587],[136.5509113271538,35.946179884442415]]]}},{"type":"Feature","properties":{"pid":"a8870019-fa9f-4f4d-a1c3-f43310fbff8d"},"geometry":{"type":"Polygon","coordinates":[[[136.55115949697793,35.94556126953445],[136.55149853889625,35.94560710832572],[136.5514748815075,35.9454925363206],[136.5514722332001,35.94538207724741],[136.5512473933244,35.94535164817024],[136.55115949697793,35.94556126953445]]]}},{"type":"Feature","properties":{"pid":"3aa82d11-e30a-42b3-8c12-3a49efa72dfe"},"geometry":{"type":"Polygon","coordinates":[[[136.55102434488762,35.945883024542],[136.55156788818474,35.945963191981015],[136.55151901951209,35.94572867287335],[136.55111200371317,35.945664421116966],[136.55102434488762,35.945883024542]]]}},{"type":"Feature","properties":{"pid":"c7a01a03-101e-4f3d-be3d-24b3b80c7734"},"geometry":{"type":"Polygon","coordinates":[[[136.55169314097458,35.94555266357379],[136.5517451111289,35.94581738193248],[136.55179327634949,35.94582187624413],[136.55182267868378,35.94580428137073],[136.55190326109968,35.94557989518201],[136.55169314097458,35.94555266357379]]]}},{"type":"Feature","properties":{"pid":"e57dbab7-c642-4749-8291-c5050aaa9b6c"},"geometry":{"type":"Polygon","coordinates":[[[136.55203137074062,35.94592080434324],[136.5520400041201,35.946018389481885],[136.55240921438485,35.94607686931627],[136.55242718919837,35.94598600102413],[136.55203137074062,35.94592080434324]]]}},{"type":"Feature","properties":{"pid":"9bd21e9b-60c0-456a-a8b3-36487167eae4"},"geometry":{"type":"Polygon","coordinates":[[[136.5520720471286,35.94580136103934],[136.55242350263813,35.94586942362902],[136.55245637176145,35.94582405556812],[136.55245476857917,35.945743018750065],[136.55216324743003,35.945615812608374],[136.5520720471286,35.94580136103934]]]}},{"type":"Feature","properties":{"pid":"503caaee-6e2e-4fbb-a520-c9ac8721442d"},"geometry":{"type":"Polygon","coordinates":[[[136.5520419083392,35.94616518686945],[136.55206387434814,35.946491738138334],[136.5523797250037,35.946482145285565],[136.55239925411007,35.94621554886513],[136.5520419083392,35.94616518686945]]]}},{"type":"Feature","properties":{"pid":"15c1eb32-829f-4e12-a207-23e01d1fbe0f"},"geometry":{"type":"Polygon","coordinates":[[[136.5520724621783,35.94660212091773],[136.55208947073882,35.946818183355894],[136.5522975122207,35.94682133251716],[136.55223602154044,35.94667172591901],[136.5521772834334,35.94660092301796],[136.5520724621783,35.94660212091773]]]}},{"type":"Feature","properties":{"pid":"34aa54cd-369b-41a8-9b1e-6d9b80e64104"},"geometry":{"type":"Polygon","coordinates":[[[136.55214256543078,35.9469258675753],[136.55216600242966,35.94707659516062],[136.55225522207775,35.94709058486681],[136.5522876184847,35.947118474251695],[136.55225792313675,35.94723356413072],[136.5522183083939,35.94726127904795],[136.55226883057108,35.94726358912655],[136.55234346038554,35.9469881746568],[136.55233014324412,35.946927464387],[136.55214256543078,35.9469258675753]]]}},{"type":"Feature","properties":{"pid":"da8a6582-c50b-49bd-9f85-c1835739a0ad"},"geometry":{"type":"Polygon","coordinates":[[[136.55102869032532,35.94732138438955],[136.5517760404803,35.94742570110239],[136.55179450437984,35.947415515388265],[136.55184009604824,35.947201488450425],[136.5510853419756,35.94709512777422],[136.55102869032532,35.94732138438955]]]}},{"type":"Feature","properties":{"pid":"dd5bcbaf-e166-4fde-bc79-38add7be868f"},"geometry":{"type":"Polygon","coordinates":[[[136.55095415995066,35.94765844941699],[136.55170468415335,35.947762033845734],[136.55172159219748,35.94775215447416],[136.55176941484612,35.947537767056886],[136.55100640445465,35.94743024341569],[136.55095415995066,35.94765844941699]]]}},{"type":"Feature","properties":{"pid":"b474b511-eb0a-4787-af28-66e945e53117"},"geometry":{"type":"Polygon","coordinates":[[[136.55087425877738,35.947991638765245],[136.5516057838176,35.94809896424107],[136.55165465317305,35.94807685093736],[136.5517011012112,35.94786293241579],[136.55092686013006,35.94776021218204],[136.55087425877738,35.947991638765245]]]}},{"type":"Feature","properties":{"pid":"fc84d931-2cb5-4d26-8989-934e554bca84"},"geometry":{"type":"Polygon","coordinates":[[[136.5519470623573,35.947784328863676],[136.5520150957036,35.94778930469282],[136.55198579831162,35.94761009836143],[136.5519470623573,35.947784328863676]]]}},{"type":"Feature","properties":{"pid":"70b3ee6c-cac7-4b2e-bc62-8d2fced7d778"},"geometry":{"type":"Polygon","coordinates":[[[136.55186182051435,35.94813609868293],[136.55204063365304,35.94815817272703],[136.55202513331426,35.94790833207608],[136.55191953830905,35.94789714949287],[136.55186182051435,35.94813609868293]]]}},{"type":"Feature","properties":{"pid":"9c887948-25d7-4e91-b95f-953d0c186971"},"geometry":{"type":"Polygon","coordinates":[[[136.5517789157282,35.94852708723856],[136.55194308612616,35.948548828025615],[136.55199695924946,35.94834630083961],[136.5518258527999,35.948324192573395],[136.5517789157282,35.94852708723856]]]}},{"type":"Feature","properties":{"pid":"108cd046-92e6-4830-b05c-44b274561a34"},"geometry":{"type":"Polygon","coordinates":[[[136.55077243460843,35.94840976663982],[136.55149555999327,35.94852749837471],[136.55154344664564,35.94851193935752],[136.55159259587603,35.94829615839685],[136.5508270477581,35.948179181784944],[136.55077243460843,35.94840976663982]]]}},{"type":"Feature","properties":{"pid":"ee1d2da7-7878-4d77-815a-e4569b412ee4"},"geometry":{"type":"Polygon","coordinates":[[[136.55069878480788,35.94873565860174],[136.55146446656994,35.94885992100653],[136.55150580516607,35.94865206721385],[136.551469737578,35.948628377492085],[136.55075098595847,35.94852435282112],[136.55069878480788,35.94873565860174]]]}},{"type":"Feature","properties":{"pid":"c33717fc-0159-44ab-9919-14945f6cfe39"},"geometry":{"type":"Polygon","coordinates":[[[136.5506563838065,35.94894630131205],[136.55141697702462,35.949067208130785],[136.55142965512692,35.948995363416884],[136.55139455852702,35.948983740420275],[136.55137673802108,35.94895742219912],[136.5506749610223,35.94884393323423],[136.5506563838065,35.94894630131205]]]}},{"type":"Feature","properties":{"pid":"37096510-e07b-4099-bced-33aa4bd21190"},"geometry":{"type":"Polygon","coordinates":[[[136.55169048356433,35.94890562154467],[136.55186269324935,35.9489296106938],[136.55192393379338,35.94865721877942],[136.55175325687668,35.9486322094159],[136.55169048356433,35.94890562154467]]]}},{"type":"Feature","properties":{"pid":"5687dd79-8d8f-4f4c-8af4-a664ce7dd1aa"},"geometry":{"type":"Polygon","coordinates":[[[136.55457176082308,35.944666621343025],[136.55462604054946,35.944676837530096],[136.5546709646313,35.94453847896565],[136.55459141142666,35.944526034529474],[136.55457176082308,35.944666621343025]]]}},{"type":"Feature","properties":{"pid":"e6518e5c-a83f-422b-96f0-75e930f2ab82"},"geometry":{"type":"Polygon","coordinates":[[[136.55311920326196,35.94456707986781],[136.55395004236317,35.944541597030934],[136.55408988541694,35.94434890782033],[136.55408740750974,35.944257074166586],[136.55369504551854,35.944275131193535],[136.55331251839348,35.94431836037991],[136.55311920326196,35.94456707986781]]]}},{"type":"Feature","properties":{"pid":"86d2cf47-08e2-4a1c-b2f9-1b21db4fa632"},"geometry":{"type":"Polygon","coordinates":[[[136.55353031808465,35.94383402196395],[136.55380485348385,35.94383099014531],[136.5538106962625,35.943699845555045],[136.55376976346832,35.943683140150036],[136.55375761127752,35.94364337619744],[136.55360940764518,35.943629484944125],[136.55353031808465,35.94383402196395]]]}},{"type":"Feature","properties":{"pid":"eb8c33ee-a021-4992-a25e-6d4d0412f9f7"},"geometry":{"type":"Polygon","coordinates":[[[136.55339267538977,35.944167636953104],[136.55420902518176,35.944114971849224],[136.5542161469941,35.943918477946944],[136.55343474964184,35.944072921419725],[136.55339267538977,35.944167636953104]]]}},{"type":"Feature","properties":{"pid":"795ca251-a639-43a1-b841-38677b4c4fc4"},"geometry":{"type":"Polygon","coordinates":[[[136.55408974154298,35.943824813321534],[136.5542683305012,35.94378562910433],[136.5542783223949,35.94368688228219],[136.55411035320705,35.943669616252905],[136.55408974154298,35.943824813321534]]]}},{"type":"Feature","properties":{"pid":"63a9c847-2352-43f0-96cf-dcfa40da338b"},"geometry":{"type":"Polygon","coordinates":[[[136.55485181392166,35.94443253331384],[136.55496499428247,35.9444525885709],[136.55499301322087,35.94436949073744],[136.55487664151158,35.94434657629071],[136.55485181392166,35.94443253331384]]]}},{"type":"Feature","properties":{"pid":"1c4db4b2-8120-43da-8e8f-2d0efd4ad4d2"},"geometry":{"type":"Polygon","coordinates":[[[136.55495670677874,35.94412648832453],[136.5550684396149,35.94415318311778],[136.55516446401967,35.943896534295035],[136.5550449824041,35.943868794756156],[136.55495670677874,35.94412648832453]]]}},{"type":"Feature","properties":{"pid":"97800f2f-a198-4fb9-bdc7-53ebc580f2da"},"geometry":{"type":"Polygon","coordinates":[[[136.55477457433656,35.94412369008395],[136.55479536864158,35.944129373676866],[136.55490112096027,35.94384080812311],[136.55482307622725,35.94382573780403],[136.55477457433656,35.94412369008395]]]}},{"type":"Feature","properties":{"pid":"5a209334-f61c-4ff9-86ea-60f2a0fc8f59"},"geometry":{"type":"Polygon","coordinates":[[[136.55475668755284,35.94469057331825],[136.5548607344988,35.94470514125824],[136.55491226511185,35.94458117722683],[136.5548036593805,35.94455722098962],[136.55475668755284,35.94469057331825]]]}},{"type":"Feature","properties":{"pid":"ab8aa6d8-dd73-451a-b0a9-f3a40edec163"},"geometry":{"type":"Polygon","coordinates":[[[136.55519489838477,35.942690219399324],[136.5552976298291,35.94270503383674],[136.55532131196463,35.94254269118594],[136.5552307962402,35.942551494151274],[136.55519489838477,35.942690219399324]]]}},{"type":"Feature","properties":{"pid":"591f9894-0510-4776-ac22-e35f02921b3f"},"geometry":{"type":"Polygon","coordinates":[[[136.55542644799345,35.942727696994716],[136.5555242655104,35.94273895095515],[136.55552281636741,35.94253194205858],[136.55545725719801,35.942543022610224],[136.55542644799345,35.942727696994716]]]}},{"type":"Feature","properties":{"pid":"c4c125c0-a265-48fb-9d43-e670ae6c2e91"},"geometry":{"type":"Polygon","coordinates":[[[136.55536355802937,35.94313924751616],[136.55545728349168,35.94314349188861],[136.55556098948088,35.942871872042666],[136.55541985844704,35.94285072193321],[136.55536355802937,35.94313924751616]]]}},{"type":"Feature","properties":{"pid":"92222412-4692-413a-85b0-b20613c9a60e"},"geometry":{"type":"Polygon","coordinates":[[[136.55519704985159,35.9434032410463],[136.55534022717768,35.943437597618036],[136.55539304673746,35.94328875135437],[136.55524000012335,35.943271693768274],[136.55519704985159,35.9434032410463]]]}},{"type":"Feature","properties":{"pid":"3473cbaf-6136-421a-8129-8b415077422d"},"geometry":{"type":"Polygon","coordinates":[[[136.5550837408979,35.943727149398015],[136.55522400033925,35.94375065856352],[136.55530951551063,35.94354439109591],[136.55515743277337,35.94351141785241],[136.5550837408979,35.943727149398015]]]}},{"type":"Feature","properties":{"pid":"85bdca38-07b5-46fb-87f1-8e05bc9bb79c"},"geometry":{"type":"Polygon","coordinates":[[[136.55487563577142,35.943645750701215],[136.55494652866682,35.943657721852844],[136.55502044197922,35.94347911338221],[136.55490800194926,35.943463387536276],[136.55487563577142,35.943645750701215]]]}},{"type":"Feature","properties":{"pid":"2d6d3adc-0908-42f4-a370-96bdfd64b23a"},"geometry":{"type":"Polygon","coordinates":[[[136.55505308552438,35.9430096641236],[136.55521096173632,35.943027374727954],[136.55525020231275,35.94282706079511],[136.55507982207064,35.942809687891746],[136.5550524405678,35.94292663227057],[136.55505308552438,35.9430096641236]]]}},{"type":"Feature","properties":{"pid":"9845d141-16fd-43b2-9102-fe8062d49b50"},"geometry":{"type":"Polygon","coordinates":[[[136.55461961974112,35.94280520788363],[136.5547646948675,35.94281559203775],[136.55477131239505,35.942737225295936],[136.5546488655911,35.942725997739565],[136.55461961974112,35.94280520788363]]]}},{"type":"Feature","properties":{"pid":"e5a58a36-ae31-402c-bc40-ce27d132f71c"},"geometry":{"type":"Polygon","coordinates":[[[136.55429112495256,35.94294224018358],[136.55429537347348,35.943123935652594],[136.5544386630121,35.943104707661846],[136.55443083403196,35.94295730248142],[136.55429112495256,35.94294224018358]]]}},{"type":"Feature","properties":{"pid":"826b3350-ba7e-4ba0-b2aa-0c61ce1fdb4d"},"geometry":{"type":"Polygon","coordinates":[[[136.55467647742532,35.94354914188116],[136.55471970511275,35.94356674746662],[136.5547343825874,35.94361158424755],[136.5547944357871,35.94324855167352],[136.55469145158236,35.94325567164187],[136.55467647742532,35.94354914188116]]]}},{"type":"Feature","properties":{"pid":"20094c46-c8f2-47f9-a5cc-5ac473bfec38"},"geometry":{"type":"Polygon","coordinates":[[[136.55427998191607,35.94354875484469],[136.55432831339525,35.943551406221914],[136.5543212903288,35.9434346268684],[136.55427832430595,35.94343648928017],[136.55427998191607,35.94354875484469]]]}},{"type":"Feature","properties":{"pid":"64e5d034-841f-49f2-a864-0ee65f1ea3cc"},"geometry":{"type":"Polygon","coordinates":[[[136.5536853576477,35.94346948089462],[136.55372648634813,35.94350386370576],[136.5538307100942,35.9435199727157],[136.55386149960964,35.943247583335676],[136.5537451156862,35.94323619848365],[136.5536853576477,35.94346948089462]]]}},{"type":"Feature","properties":{"pid":"beb3e716-6306-4ef7-8c91-3b0f44833a99"},"geometry":{"type":"Polygon","coordinates":[[[136.5540328671543,35.9431142888762],[136.55415841492902,35.94312320313034],[136.55415158973898,35.942935430383784],[136.55405724412927,35.94292464739299],[136.5540328671543,35.9431142888762]]]}},{"type":"Feature","properties":{"pid":"6d73e861-d95c-401f-9354-9da5779289f6"},"geometry":{"type":"Polygon","coordinates":[[[136.55380674681393,35.943093703484145],[136.55390352054752,35.94310912267799],[136.55396508841523,35.94262020016622],[136.55382890139234,35.94282427328277],[136.55380674681393,35.943093703484145]]]}},{"type":"Feature","properties":{"pid":"29b82313-d5f0-40b8-a883-7a0a4c8c762b"},"geometry":{"type":"Polygon","coordinates":[[[136.55421535592316,35.942214513377245],[136.55431086292194,35.94223266355219],[136.55432707789308,35.941995836880785],[136.5542409291134,35.94199204425818],[136.55421535592316,35.942214513377245]]]}},{"type":"Feature","properties":{"pid":"d078a5ad-47a9-40b4-be9e-6b53b175e7e9"},"geometry":{"type":"Polygon","coordinates":[[[136.55444158328072,35.942275933200214],[136.55446010500145,35.942283000639925],[136.55450258525255,35.94216792973718],[136.55457986624793,35.94215060056435],[136.55458327760817,35.94201042256903],[136.55446958607848,35.94200341796362],[136.55444158328072,35.942275933200214]]]}},{"type":"Feature","properties":{"pid":"6fb34abe-bb0c-487c-8985-5f7a5556bf34"},"geometry":{"type":"Polygon","coordinates":[[[136.55347223993908,35.94226090818444],[136.55370314330636,35.94229680923077],[136.5537614273857,35.94204146466321],[136.55352354941527,35.9420119525672],[136.55347223993908,35.94226090818444]]]}},{"type":"Feature","properties":{"pid":"4183f9b5-542e-4b7f-a5fe-bab412a23ede"},"geometry":{"type":"Polygon","coordinates":[[[136.5532093767904,35.94222975728025],[136.55334524603649,35.94225032760749],[136.55340075809272,35.94196906640328],[136.55338731756515,35.94193899790825],[136.5534066389024,35.941801389884034],[136.55330145971877,35.941790219723806],[136.5532093767904,35.94222975728025]]]}},{"type":"Feature","properties":{"pid":"499a249c-34a5-46fc-9151-f45977fd3a2c"},"geometry":{"type":"Polygon","coordinates":[[[136.5531635239411,35.94257631374893],[136.55350851913423,35.942597383805385],[136.55355940186598,35.94241188729445],[136.5532069975112,35.94236643367375],[136.5531635239411,35.94257631374893]]]}},{"type":"Feature","properties":{"pid":"90e10356-cac1-4e9d-99a8-3849900cb78c"},"geometry":{"type":"Polygon","coordinates":[[[136.55278835412838,35.94257847841075],[136.55301090030753,35.94260100518636],[136.5530606983786,35.942353102443406],[136.55282972899792,35.9423276006493],[136.55278835412838,35.94257847841075]]]}},{"type":"Feature","properties":{"pid":"4c4b3e3d-58c5-4bae-971a-d696be9e820b"},"geometry":{"type":"Polygon","coordinates":[[[136.55236610511685,35.94295248212325],[136.55256073916584,35.94297973263687],[136.55270186122544,35.94229700087282],[136.5525287574658,35.9422693683198],[136.55250760653578,35.94228876085387],[136.55236610511685,35.94295248212325]]]}},{"type":"Feature","properties":{"pid":"5d17533b-edf7-4bd3-8906-98e86a75d2ab"},"geometry":{"type":"Polygon","coordinates":[[[136.55207981230157,35.94262541114329],[136.5522786898693,35.94265630395677],[136.5523598039665,35.94225247435101],[136.55215552362188,35.94222747992529],[136.55212575696856,35.942256352420436],[136.55207981230157,35.94262541114329]]]}},{"type":"Feature","properties":{"pid":"d11f877d-7107-4188-92e1-ce9a131449e8"},"geometry":{"type":"Polygon","coordinates":[[[136.55165174044583,35.94226268055222],[136.55193461872872,35.94231969134356],[136.55194526512895,35.942234337738064],[136.55169038249517,35.94219522423129],[136.55165174044583,35.94226268055222]]]}},{"type":"Feature","properties":{"pid":"c6c87d88-8779-493e-aa8d-835cf269a2fa"},"geometry":{"type":"Polygon","coordinates":[[[136.5515881582201,35.942849616340915],[136.551827734331,35.94289930129563],[136.551858776222,35.942575229884326],[136.5516787829263,35.94253891166975],[136.5515881582201,35.942849616340915]]]}},{"type":"Feature","properties":{"pid":"483a16e9-c219-485e-847c-d2c334665fe5"},"geometry":{"type":"Polygon","coordinates":[[[136.55158988709456,35.942400987839285],[136.55191095634083,35.94246933990032],[136.5519169083329,35.94241899664104],[136.55160778926816,35.942357419627484],[136.55158988709456,35.942400987839285]]]}},{"type":"Feature","properties":{"pid":"137e8621-7779-4fe4-b69f-d6461885d984"},"geometry":{"type":"Polygon","coordinates":[[[136.55203875817645,35.94290662800049],[136.5522243195557,35.942928904278546],[136.55225839030777,35.94276015984654],[136.5520660115749,35.942729468091706],[136.55203875817645,35.94290662800049]]]}},{"type":"Feature","properties":{"pid":"9437ea76-2dcd-43e0-94be-a736aa01308f"},"geometry":{"type":"Polygon","coordinates":[[[136.5512999946151,35.94305443864232],[136.55179286073476,35.943150253992265],[136.55181726858072,35.943008660273144],[136.5513676094913,35.9429276352012],[136.5512999946151,35.94305443864232]]]}},{"type":"Feature","properties":{"pid":"3fe0004c-92a7-4e28-89db-8183e35947c6"},"geometry":{"type":"Polygon","coordinates":[[[136.55120276665812,35.943277213657794],[136.55175191191435,35.94338819908371],[136.55175903746752,35.94336189095872],[136.5512108641239,35.94325210419367],[136.55120276665812,35.943277213657794]]]}},{"type":"Feature","properties":{"pid":"67547460-1989-4ce8-8554-79071a5bccbc"},"geometry":{"type":"Polygon","coordinates":[[[136.55186752949106,35.943857036644516],[136.5520211314981,35.943879493260646],[136.5521812524508,35.94309790307118],[136.55202384026086,35.94307460253896],[136.5519583106241,35.94363136770809],[136.55186752949106,35.943857036644516]]]}},{"type":"Feature","properties":{"pid":"c0748f55-65e3-46a3-9fc0-0d9332210932"},"geometry":{"type":"Polygon","coordinates":[[[136.55215746634855,35.94390105671802],[136.5523460489718,35.943925866216475],[136.55251334678746,35.94314117570761],[136.55232185504448,35.94311805638845],[136.55215746634855,35.94390105671802]]]}},{"type":"Feature","properties":{"pid":"5a647384-5a9c-4245-b0ad-eca4eaf2f006"},"geometry":{"type":"Polygon","coordinates":[[[136.55248821019936,35.943932903079315],[136.5525046085814,35.943949526955386],[136.5526681778807,35.9439690999565],[136.55284541960532,35.9431925294495],[136.55265399485182,35.943172346769806],[136.55248821019936,35.943932903079315]]]}},{"type":"Feature","properties":{"pid":"aca814a9-4b60-4446-b368-223d559952aa"},"geometry":{"type":"Polygon","coordinates":[[[136.55270520502773,35.94300046360103],[136.5529748504868,35.94303364461041],[136.5529945332592,35.94289476857877],[136.55303621549515,35.94286606957806],[136.5531026767773,35.94286151998279],[136.55312101333953,35.94268292747737],[136.5530665815865,35.94271266561308],[136.5527661522928,35.94268151395805],[136.55270520502773,35.94300046360103]]]}},{"type":"Feature","properties":{"pid":"1d5ca65c-e708-4776-be29-1e949b6d3d52"},"geometry":{"type":"Polygon","coordinates":[[[136.5529864778376,35.943295350554536],[136.55345999912078,35.943371958446605],[136.55347682734185,35.943364499090684],[136.5535131655139,35.943223480550074],[136.553052967962,35.94321121080824],[136.55300372862138,35.943223234347535],[136.5529864778376,35.943295350554536]]]}},{"type":"Feature","properties":{"pid":"aa56ce4a-6dac-440c-98f3-f6ef41adbf16"},"geometry":{"type":"Polygon","coordinates":[[[136.55281405695672,35.94398408226338],[136.55319095872173,35.94403620329743],[136.55337039070912,35.943626163617836],[136.5533427575835,35.94360275678774],[136.5529113768408,35.9435379982956],[136.55281405695672,35.94398408226338]]]}},{"type":"Feature","properties":{"pid":"2aebb6c8-1ed5-4c7e-b3f3-3f0cd6fb3db7"},"geometry":{"type":"Polygon","coordinates":[[[136.5522825280485,35.94488713825078],[136.55236939377,35.94490210553865],[136.55257018349633,35.944709424109135],[136.5526923358034,35.9441276948563],[136.5524472648076,35.944094347846104],[136.5522825280485,35.94488713825078]]]}},{"type":"Feature","properties":{"pid":"5996f4cf-73c7-4047-b4f4-33f238746b08"},"geometry":{"type":"Polygon","coordinates":[[[136.55274717098047,35.94455038227913],[136.55279609530265,35.94451620864733],[136.552858091702,35.94450615400336],[136.55302713593335,35.944328565194766],[136.55311297774102,35.9441921808445],[136.5528271127368,35.94415240337747],[136.55274717098047,35.94455038227913]]]}},{"type":"Feature","properties":{"pid":"8f1ab836-ca17-40b7-a253-1c42e63fd992"},"geometry":{"type":"Polygon","coordinates":[[[136.55318640365206,35.94473618216586],[136.55351701401426,35.94471374856892],[136.55352276208464,35.94469199254466],[136.5531884858669,35.94470775094893],[136.55318640365206,35.94473618216586]]]}},{"type":"Feature","properties":{"pid":"c3be5c66-3487-48bb-8488-bd910b723342"},"geometry":{"type":"Polygon","coordinates":[[[136.55314584898466,35.944927477965756],[136.55323060060394,35.94493015674941],[136.5532787685372,35.94488481950759],[136.55328427880895,35.94484599617687],[136.55317234839742,35.94485133987996],[136.55314584898466,35.944927477965756]]]}},{"type":"Feature","properties":{"pid":"fdcb7d89-ef90-4ff4-800b-3d4cbc0e386e"},"geometry":{"type":"Polygon","coordinates":[[[136.55316556941338,35.94521320682064],[136.5532012834251,35.94522890630352],[136.55329810216202,35.94507778873935],[136.55325386588854,35.94507177134479],[136.55316556941338,35.94521320682064]]]}},{"type":"Feature","properties":{"pid":"058adf20-471b-4a43-aa0a-c10dd815f631"},"geometry":{"type":"Polygon","coordinates":[[[136.55332866184503,35.9452591908841],[136.5533659571453,35.94526751791993],[136.55353615115513,35.94503762775612],[136.55345823129124,35.94505212230167],[136.55332866184503,35.9452591908841]]]}},{"type":"Feature","properties":{"pid":"6295a29b-c18b-4ad3-b5c4-27207bf22e78"},"geometry":{"type":"Polygon","coordinates":[[[136.55287276813547,35.94507441906212],[136.5529244988658,35.94510055606394],[136.55298512599296,35.94499556854717],[136.55292650669125,35.944978312991125],[136.55287276813547,35.94507441906212]]]}},{"type":"Feature","properties":{"pid":"b6c887c1-9574-45b1-9224-7102a0705cd5"},"geometry":{"type":"Polygon","coordinates":[[[136.55237058464954,35.94546071238099],[136.55253940399635,35.94554338976202],[136.55257912120058,35.94552501652258],[136.55283790230627,35.945210316142095],[136.5527407135683,35.94515619437672],[136.5526259757179,35.94512380312344],[136.55237058464954,35.94546071238099]]]}},{"type":"Feature","properties":{"pid":"eb32a969-15b1-4c25-b064-d0d6883b49c0"},"geometry":{"type":"Polygon","coordinates":[[[136.5514103057449,35.94491753637709],[136.55153632957735,35.944935988527156],[136.55152620742217,35.94481715646395],[136.55154281527194,35.944701101323545],[136.55169736225943,35.9443641700344],[136.5516459212684,35.9443592880643],[136.5514103057449,35.94491753637709]]]}},{"type":"Feature","properties":{"pid":"828cfd03-fcbe-456c-a2cf-77cab60965e2"},"geometry":{"type":"Polygon","coordinates":[[[136.55173308533338,35.94518485705455],[136.55210904314293,35.94523667468919],[136.5522813412427,35.945038517418105],[136.55174684458171,35.944968918588664],[136.55175471967172,35.945110562349015],[136.55173308533338,35.94518485705455]]]}},{"type":"Feature","properties":{"pid":"f9c82dfd-4b8b-497e-92eb-57a606f6878e"},"geometry":{"type":"Polygon","coordinates":[[[136.5516802452182,35.94542580204643],[136.55195462204333,35.945468503559376],[136.55199290821244,35.94544542462767],[136.55204878694332,35.94534141435277],[136.5516964511889,35.945286502528084],[136.5516802452182,35.94542580204643]]]}},{"type":"Feature","properties":{"pid":"4f5c8add-2455-4154-bae8-10b4f29feb3e"},"geometry":{"type":"Polygon","coordinates":[[[136.55128713387273,35.94523917087353],[136.5514877882315,35.94527243449121],[136.5514902572714,35.94522805355942],[136.5515510106494,35.945075303221216],[136.55154277264438,35.9450563415606],[136.55136802637116,35.94502909514706],[136.55128713387273,35.94523917087353]]]}},{"type":"Feature","properties":{"pid":"32764709-630f-455e-b849-85fe1ef08233"},"geometry":{"type":"Polygon","coordinates":[[[136.5507231252789,35.94485614163644],[136.55112223366473,35.94495001727116],[136.55113133749924,35.94492766687618],[136.55073116115554,35.94483292059856],[136.5507231252789,35.94485614163644]]]}},{"type":"Feature","properties":{"pid":"20d7ed68-9a64-462f-89a6-c5f9501d1686"},"geometry":{"type":"Polygon","coordinates":[[[136.55076074577073,35.94473162092792],[136.55117196438277,35.944827567445415],[136.55118228112906,35.94480223928818],[136.5507694875039,35.944703502988084],[136.55076074577073,35.94473162092792]]]}},{"type":"Feature","properties":{"pid":"4bd636b4-a220-48e5-886b-8c9078dcf5e4"},"geometry":{"type":"Polygon","coordinates":[[[136.5508021962732,35.9445917692326],[136.55122622301323,35.94468934108832],[136.5512787670463,35.94455234855948],[136.5508411372537,35.944450931509905],[136.5508021962732,35.9445917692326]]]}},{"type":"Feature","properties":{"pid":"527cca4f-1d7a-41c9-9456-4d2bb72a450d"},"geometry":{"type":"Polygon","coordinates":[[[136.55087969016807,35.94434240368725],[136.55132027705008,35.94444983793687],[136.5514163574427,35.94421187872773],[136.55095318314895,35.94410495484378],[136.55087969016807,35.94434240368725]]]}},{"type":"Feature","properties":{"pid":"e704d6fb-f48b-4295-99d0-9d783b8bbd63"},"geometry":{"type":"Polygon","coordinates":[[[136.5520469244694,35.944853160891505],[136.55215049918706,35.944868165383646],[136.55231354290083,35.94407719834816],[136.55221075100042,35.94406507730707],[136.5520469244694,35.944853160891505]]]}},{"type":"Feature","properties":{"pid":"7c920193-8ebf-45ac-9ae2-0af3de44cd2d"},"geometry":{"type":"Polygon","coordinates":[[[136.55173463499418,35.94422398292185],[136.55187482287994,35.94424970104474],[136.55189719449706,35.944274506833594],[136.55190248604623,35.94431747998499],[136.5517269680577,35.94471052592586],[136.55171913143022,35.94480766121161],[136.5519034798938,35.94483467492549],[136.55204986153035,35.94404310789676],[136.55184113777412,35.944005220633755],[136.55180418405988,35.944033235381056],[136.55173463499418,35.94422398292185]]]}},{"type":"Feature","properties":{"pid":"09dfdfd3-6a7f-4c45-9195-7ddf205f29f7"},"geometry":{"type":"Polygon","coordinates":[[[136.55105830858813,35.94368395198438],[136.55104885939076,35.94370672723447],[136.55158790494863,35.94381964769374],[136.55159794053188,35.943795299750654],[136.55105830858813,35.94368395198438]]]}},{"type":"Feature","properties":{"pid":"4a3de2f7-62d0-45dd-be05-fdaf2e5451ff"},"geometry":{"type":"Polygon","coordinates":[[[136.55098765181472,35.943979934579055],[136.55145249674786,35.944092238955825],[136.55150891208697,35.94395117210067],[136.55102056336952,35.94385155853343],[136.55098765181472,35.943979934579055]]]}},{"type":"Feature","properties":{"pid":"dac3b02d-e4ce-47ca-8fd1-e610e0950a51"},"geometry":{"type":"Polygon","coordinates":[[[136.5506917581693,35.94496498204232],[136.5506858840302,35.94498734467451],[136.5510645359636,35.94507741711736],[136.5510777568128,35.945054928026316],[136.5506917581693,35.94496498204232]]]}},{"type":"Feature","properties":{"pid":"8cb67e6d-d4db-4e92-92bf-74918bee62db"},"geometry":{"type":"Polygon","coordinates":[[[136.5506418338376,35.94512472553242],[136.5510123844406,35.94521616903772],[136.55103282185925,35.945171556115035],[136.55065176807304,35.94508397192259],[136.5506418338376,35.94512472553242]]]}},{"type":"Feature","properties":{"pid":"3013173b-788b-4797-99c1-e61a0ab022ef"},"geometry":{"type":"Polygon","coordinates":[[[136.5505582649486,35.94541528170313],[136.55090185287767,35.9454921537697],[136.5509714883725,35.94531115506396],[136.55061380006825,35.94522372514794],[136.5505582649486,35.94541528170313]]]}},{"type":"Feature","properties":{"pid":"0c3e74ae-a571-4ef5-8ed2-d473e35b2f11"},"geometry":{"type":"Polygon","coordinates":[[[136.55323248325865,35.94106402057977],[136.55331803398846,35.941074223788064],[136.5533412648214,35.941003485416985],[136.5533168484752,35.94098123169742],[136.55330447882272,35.940923070237034],[136.55323248325865,35.94106402057977]]]}},{"type":"Feature","properties":{"pid":"e27b73c8-b130-4419-bef0-cc92eca7aa80"},"geometry":{"type":"Polygon","coordinates":[[[136.55273605567615,35.94117775919039],[136.55297226852173,35.941202727946795],[136.55307314498387,35.94071051980116],[136.5529868959203,35.94064207354319],[136.55286808508797,35.94057927530146],[136.55273605567615,35.94117775919039]]]}},{"type":"Feature","properties":{"pid":"5cb30f9b-a147-4561-af1f-d401048a0a61"},"geometry":{"type":"Polygon","coordinates":[[[136.55231889620157,35.94082786324483],[136.5526654774134,35.94087335174688],[136.55274296221154,35.94051580150399],[136.552729751434,35.94046624674321],[136.5526465408344,35.94041062878598],[136.55254012644323,35.94038015767166],[136.55245560510676,35.94052344571087],[136.55231889620157,35.94082786324483]]]}},{"type":"Feature","properties":{"pid":"c2cefd94-6296-481b-8831-01d98d74fa87"},"geometry":{"type":"Polygon","coordinates":[[[136.5517550991817,35.9419970619237],[136.5520749086492,35.942042890407286],[136.55224956263734,35.94126694252489],[136.55212532408208,35.941245638640915],[136.55189715078942,35.94175995570605],[136.55185738751052,35.94178909738559],[136.5517550991817,35.9419970619237]]]}},{"type":"Feature","properties":{"pid":"c8f42524-1638-4f76-97fb-42e7c6611a06"},"geometry":{"type":"Polygon","coordinates":[[[136.55221199558716,35.942062014963675],[136.55241176974076,35.94209204579407],[136.55257700859562,35.94131237533658],[136.55237919707722,35.941285520207785],[136.55221199558716,35.942062014963675]]]}},{"type":"Feature","properties":{"pid":"1fabccfb-4a68-4d82-94a9-757c2d6b2cf0"},"geometry":{"type":"Polygon","coordinates":[[[136.55254443427683,35.94211887631301],[136.5527352942144,35.942150981504554],[136.5528991900031,35.94136424060726],[136.55271212748255,35.9413345276435],[136.55254443427683,35.94211887631301]]]}},{"type":"Feature","properties":{"pid":"fe4041a6-9b10-41d4-9b20-b235670be32b"},"geometry":{"type":"Polygon","coordinates":[[[136.55219191080286,35.941084958977086],[136.5525023781318,35.941130135241615],[136.55252302308008,35.94106024485864],[136.55257137775308,35.94101952187524],[136.5526283954548,35.94101658726445],[136.5526340051651,35.940982930706554],[136.55226255774994,35.94094096842882],[136.55219191080286,35.941084958977086]]]}},{"type":"Feature","properties":{"pid":"c8a7c706-7ac5-48aa-bf9c-b562d4e25181"},"geometry":{"type":"Polygon","coordinates":[[[136.55319903638298,35.941237951362965],[136.55329129795524,35.941252648077196],[136.55329710027183,35.94117776589992],[136.5532169675984,35.941164392873304],[136.55319903638298,35.941237951362965]]]}},{"type":"Feature","properties":{"pid":"8d5fc772-0ced-4d72-b04d-6a0ce327cc7c"},"geometry":{"type":"Polygon","coordinates":[[[136.5528749034993,35.94217662903378],[136.5530751396444,35.94220911480425],[136.55324483577448,35.94142326344568],[136.5530301590243,35.94139504470746],[136.5528749034993,35.94217662903378]]]}},{"type":"Feature","properties":{"pid":"fca0fc2d-7092-41f1-9c93-7f74373299ac"},"geometry":{"type":"Polygon","coordinates":[[[136.5535518791733,35.94181021301209],[136.55353611936332,35.94190040385425],[136.5537569404034,35.941935938723915],[136.55378665767861,35.941923932769576],[136.55380272726842,35.94183641089972],[136.5535518791733,35.94181021301209]]]}},{"type":"Feature","properties":{"pid":"ec6984b9-f7ef-4fab-80e7-fea7ff1a1a1f"},"geometry":{"type":"Polygon","coordinates":[[[136.55336651870425,35.9416133462235],[136.55335650930417,35.941673312960944],[136.5538029732768,35.941731045532805],[136.5538227914636,35.94172035252678],[136.55383131014295,35.94167922558863],[136.55336651870425,35.9416133462235]]]}},{"type":"Feature","properties":{"pid":"98fd5178-cfc0-4e6d-9eef-52eb8f14c728"},"geometry":{"type":"Polygon","coordinates":[[[136.5533904608642,35.94150948439299],[136.55381793000439,35.94156874113753],[136.5537904378304,35.941454322122134],[136.55341124594295,35.941404399985736],[136.5533904608642,35.94150948439299]]]}},{"type":"Feature","properties":{"pid":"4a78a774-e343-49ac-9fb1-9403202df232"},"geometry":{"type":"Polygon","coordinates":[[[136.5540490325099,35.94148119383776],[136.55404750511593,35.94158570269403],[136.55411630968482,35.94160340268861],[136.5541401070766,35.94146964979916],[136.55406714045304,35.94146561647563],[136.5540490325099,35.94148119383776]]]}},{"type":"Feature","properties":{"pid":"26e400b4-8738-44e8-9095-d60ff8678755"},"geometry":{"type":"Polygon","coordinates":[[[136.5543998353285,35.94186614938527],[136.55460096829876,35.94188446133292],[136.5546471717658,35.94183280718798],[136.55441167243524,35.941807498242554],[136.5543998353285,35.94186614938527]]]}},{"type":"Feature","properties":{"pid":"d5baa2e7-4662-4edc-bf8e-40ae49ca8707"},"geometry":{"type":"Polygon","coordinates":[[[136.5538015029113,35.94112638488403],[136.55387900237557,35.94120444941552],[136.5538975587054,35.94122944272554],[136.55392353684974,35.94113642304016],[136.5538015029113,35.94112638488403]]]}},{"type":"Feature","properties":{"pid":"4b49dcb6-7f17-41d4-ab82-83580e900421"},"geometry":{"type":"Polygon","coordinates":[[[136.5537442635126,35.94101094685428],[136.5539493469088,35.941030023783576],[136.55400414323307,35.94085161749597],[136.55382918331597,35.94081346001511],[136.5537442635126,35.94101094685428]]]}},{"type":"Feature","properties":{"pid":"9e55a3d4-10b9-4a62-9aac-1fabe29540fa"},"geometry":{"type":"Polygon","coordinates":[[[136.55388754104493,35.9406991115983],[136.55404696557758,35.94073273708531],[136.55410298546263,35.94058944078932],[136.55393602793708,35.94055729403137],[136.55388754104493,35.9406991115983]]]}},{"type":"Feature","properties":{"pid":"62be7644-bb82-4a53-9812-d480a26f26a4"},"geometry":{"type":"Polygon","coordinates":[[[136.5532862577957,35.94061985807324],[136.5537439036874,35.94069176745588],[136.55380612912467,35.94053342793804],[136.55347768881452,35.94041763297769],[136.5532862577957,35.94061985807324]]]}},{"type":"Feature","properties":{"pid":"e6582fb1-0430-4a50-9905-54251331bc92"},"geometry":{"type":"Polygon","coordinates":[[[136.55421595746202,35.94095838679268],[136.55446493901704,35.941006779936245],[136.55447153564074,35.940961444931226],[136.55437353218448,35.94094653787599],[136.5543408677073,35.940918235303016],[136.55437482281917,35.94074240036618],[136.5543198975258,35.94088518515528],[136.55428625981722,35.940905800993214],[136.5542323221183,35.94090331014764],[136.55421595746202,35.94095838679268]]]}},{"type":"Feature","properties":{"pid":"807230ee-4e0e-4be1-beb5-6cf18751401c"},"geometry":{"type":"Polygon","coordinates":[[[136.5546482443857,35.94091935710017],[136.5547491165362,35.94091106877781],[136.55474302644242,35.94084265251786],[136.55466072811882,35.94084941064143],[136.5546482443857,35.94091935710017]]]}},{"type":"Feature","properties":{"pid":"ce25caa1-7f06-4702-9c67-60a17df53290"},"geometry":{"type":"Polygon","coordinates":[[[136.55043220697172,35.9542916724435],[136.55044123020096,35.95427961941654],[136.55056967086622,35.9541312233041],[136.5504749671403,35.9541181955647],[136.55043220697172,35.9542916724435]]]}},{"type":"Feature","properties":{"pid":"7f19407b-c592-4233-9f5a-e99858f50717"},"geometry":{"type":"Polygon","coordinates":[[[136.54966385950783,35.953209292945324],[136.55038902244826,35.95330470892859],[136.55043812861058,35.953293964713005],[136.55048508416652,35.953089272868],[136.54971436320753,35.95299007706363],[136.54966385950783,35.953209292945324]]]}},{"type":"Feature","properties":{"pid":"3368265e-1869-46bb-b8bd-06120dc21665"},"geometry":{"type":"Polygon","coordinates":[[[136.54974345586857,35.952875356562366],[136.5504656137858,35.95298075423777],[136.55050594799232,35.952966719897475],[136.55055827803517,35.95276357501317],[136.54979606180171,35.952661383847115],[136.54974345586857,35.952875356562366]]]}},{"type":"Feature","properties":{"pid":"928fa0d7-d858-4f74-a8fd-4555e8c3594c"},"geometry":{"type":"Polygon","coordinates":[[[136.55091463960613,35.953743053304684],[136.55107925570513,35.95351883023236],[136.55062416194855,35.95345184342826],[136.55057550315917,35.953687904263376],[136.55091463960613,35.953743053304684]]]}},{"type":"Feature","properties":{"pid":"4dfe9190-f421-4877-94a1-bc78fc8e469a"},"geometry":{"type":"Polygon","coordinates":[[[136.55065225357467,35.95404740637517],[136.55083384020423,35.95383102023611],[136.55055182946506,35.95378586631904],[136.5504954296917,35.95402437815504],[136.55065225357467,35.95404740637517]]]}},{"type":"Feature","properties":{"pid":"b15096b6-c4e5-48e8-8c45-5f489e58d921"},"geometry":{"type":"Polygon","coordinates":[[[136.55081467289557,35.954135067373926],[136.55120623993645,35.954246077230124],[136.55159221525193,35.95363449810956],[136.55184074910318,35.95299390484349],[136.5515426459455,35.95290358534959],[136.55147912400656,35.95310584633431],[136.5511831453199,35.95367866645131],[136.5508934683594,35.9540137241064],[136.55081467289557,35.954135067373926]]]}},{"type":"Feature","properties":{"pid":"65c51894-f3f2-452c-9232-1e756e61e4cb"},"geometry":{"type":"Polygon","coordinates":[[[136.55112923377328,35.95342410553669],[136.55124595198168,35.95319770985331],[136.55070225640605,35.95311763235537],[136.55064548853636,35.95334906539485],[136.55112923377328,35.95342410553669]]]}},{"type":"Feature","properties":{"pid":"378b2eef-7163-413d-b5e6-78ceaeb660ec"},"geometry":{"type":"Polygon","coordinates":[[[136.55072332882528,35.953017723991096],[136.5512952404889,35.95310270674144],[136.5513362048956,35.953035141093345],[136.55136536415526,35.95287880256043],[136.55077530298558,35.95279771009786],[136.55072332882528,35.953017723991096]]]}},{"type":"Feature","properties":{"pid":"1300e283-7050-44ad-a80e-7c65d9497b8d"},"geometry":{"type":"Polygon","coordinates":[[[136.5523996721872,35.94962865564877],[136.55268242449458,35.94963788211922],[136.55263702629892,35.94944036544357],[136.55242175911567,35.949452795333755],[136.5523996721872,35.94962865564877]]]}},{"type":"Feature","properties":{"pid":"cb357a70-5009-4dc8-ab92-d53f36a7d4cf"},"geometry":{"type":"Polygon","coordinates":[[[136.55204801117912,35.94931901324975],[136.55232807263312,35.94931772448112],[136.55233131716867,35.94929463639163],[136.55206370524533,35.949253796668245],[136.55204801117912,35.94931901324975]]]}},{"type":"Feature","properties":{"pid":"db7bbe40-f73d-49b0-8806-e51559629fe8"},"geometry":{"type":"Polygon","coordinates":[[[136.55250992219572,35.94930530293849],[136.5526483699825,35.949298827992855],[136.55254709228848,35.94907643175185],[136.55250992219572,35.94930530293849]]]}},{"type":"Feature","properties":{"pid":"e0aa2e7f-81c1-4ef8-9c59-380cd3e9644b"},"geometry":{"type":"Polygon","coordinates":[[[136.5521020007444,35.94912734039013],[136.55236279759924,35.949175648588486],[136.55238221074887,35.94910649641548],[136.55217662053929,35.94901039745512],[136.5521020007444,35.94912734039013]]]}},{"type":"Feature","properties":{"pid":"e619380e-271e-4384-b7e1-3e19bad0b3a3"},"geometry":{"type":"Polygon","coordinates":[[[136.5516066006148,35.949270723717916],[136.55177199631157,35.949295589957096],[136.55183281275237,35.949039919673844],[136.55166398318167,35.949022768272165],[136.5516066006148,35.949270723717916]]]}},{"type":"Feature","properties":{"pid":"34205fcd-812e-4854-a25f-a2b6526e353d"},"geometry":{"type":"Polygon","coordinates":[[[136.5505462456492,35.94945275805086],[136.55128532492634,35.94956628352787],[136.55130004474518,35.94956122605206],[136.55138477160713,35.949179950079],[136.55063115685925,35.94906512270524],[136.5505462456492,35.94945275805086]]]}},{"type":"Feature","properties":{"pid":"f19b2c3d-820f-46fd-b931-434a2448fe13"},"geometry":{"type":"Polygon","coordinates":[[[136.55145746065708,35.94989972877442],[136.55180107140527,35.949955395112184],[136.55173946572893,35.949709461961426],[136.55150270078335,35.94967682372439],[136.55145746065708,35.94989972877442]]]}},{"type":"Feature","properties":{"pid":"ef82a72e-61a0-4619-beab-ec9602a0f770"},"geometry":{"type":"Polygon","coordinates":[[[136.55152435868712,35.9495784091357],[136.55171763294095,35.949599287914985],[136.55171137850158,35.949542829255236],[136.55173299795595,35.94943153288371],[136.5515576213208,35.94941198315895],[136.55152435868712,35.9495784091357]]]}},{"type":"Feature","properties":{"pid":"df812393-6c0f-440a-870f-218a9efdf6f4"},"geometry":{"type":"Polygon","coordinates":[[[136.55192710157306,35.949513975951795],[136.55200739554328,35.94949515049079],[136.55207599173727,35.94950735948826],[136.5522352125738,35.94963353323915],[136.55226217296178,35.949453467224494],[136.5519383977163,35.94945028933398],[136.55192710157306,35.949513975951795]]]}},{"type":"Feature","properties":{"pid":"6c811312-70aa-4ae5-81bf-ec5bd5c96eeb"},"geometry":{"type":"Polygon","coordinates":[[[136.55193137957409,35.94966190508483],[136.55197641894136,35.949850476828985],[136.5521786053071,35.94975654254708],[136.55201478537876,35.949631042026155],[136.55193137957409,35.94966190508483]]]}},{"type":"Feature","properties":{"pid":"ac4c4398-dead-49de-969a-4b481efd1d37"},"geometry":{"type":"Polygon","coordinates":[[[136.55201017384044,35.9499613220715],[136.55202603050157,35.950012217735704],[136.55216398783986,35.949988184718876],[136.55217246536614,35.94988941010382],[136.55201017384044,35.9499613220715]]]}},{"type":"Feature","properties":{"pid":"0988096b-809b-4b1d-80f4-23c0583964e4"},"geometry":{"type":"Polygon","coordinates":[[[136.551371691977,35.95022473405779],[136.55189961059577,35.95030063183913],[136.55183118525218,35.95006119606774],[136.55142700144378,35.94999699065143],[136.551371691977,35.95022473405779]]]}},{"type":"Feature","properties":{"pid":"c154767c-21ff-4faa-8ea1-28465bfd1ce3"},"geometry":{"type":"Polygon","coordinates":[[[136.55127844864666,35.95058754169467],[136.55196864308087,35.950691971703264],[136.55199678236332,35.950620942114945],[136.55197625222118,35.95056360945409],[136.55130655626238,35.95046158166234],[136.55127844864666,35.95058754169467]]]}},{"type":"Feature","properties":{"pid":"fc19f128-8695-4eb6-84ea-f3d85f989486"},"geometry":{"type":"Polygon","coordinates":[[[136.55133344337113,35.95036556594701],[136.55194256648304,35.950456343109835],[136.55193237160412,35.950414589533125],[136.55134656229995,35.950323189773265],[136.55133344337113,35.95036556594701]]]}},{"type":"Feature","properties":{"pid":"63228d91-d482-4ac8-b15e-d3442970bd5f"},"geometry":{"type":"Polygon","coordinates":[[[136.55215055356493,35.95046448888217],[136.55219972524924,35.95064100028283],[136.55217049809093,35.95073802515468],[136.5522548162567,35.95077281972235],[136.55240936045365,35.95018411182302],[136.55222161302478,35.95014226475708],[136.5521869890365,35.95011900835507],[136.5521772512737,35.95043136799806],[136.55215055356493,35.95046448888217]]]}},{"type":"Feature","properties":{"pid":"c719790e-089c-4c0f-8617-a59527765390"},"geometry":{"type":"Polygon","coordinates":[[[136.5523086917164,35.950036767965585],[136.5524670223813,35.950078341712896],[136.55247235256843,35.9497821536019],[136.55248886326126,35.94974528301515],[136.55235470592297,35.94973532838488],[136.5523086917164,35.950036767965585]]]}},{"type":"Feature","properties":{"pid":"be930871-618b-4605-a1d5-c5a856c2c63e"},"geometry":{"type":"Polygon","coordinates":[[[136.55080494334933,35.952649060988904],[136.55140094692922,35.9527374882188],[136.55146165428494,35.952320462485595],[136.55090664257412,35.95222516103925],[136.55080494334933,35.952649060988904]]]}},{"type":"Feature","properties":{"pid":"0b76886c-01ce-4381-bacd-1370499743ef"},"geometry":{"type":"Polygon","coordinates":[[[136.5509340807605,35.95212336417497],[136.55148470091368,35.952216067470815],[136.55149950082455,35.95215985790369],[136.5509724437519,35.95206625315884],[136.5509423804815,35.95208366894101],[136.5509340807605,35.95212336417497]]]}},{"type":"Feature","properties":{"pid":"45156be3-0a63-4fd7-a52b-b4479f6cdbae"},"geometry":{"type":"Polygon","coordinates":[[[136.55097136908128,35.951926427238064],[136.5515196386617,35.95202249174609],[136.55158108727687,35.95182322934877],[136.55101966977657,35.95172505680419],[136.55097136908128,35.951926427238064]]]}},{"type":"Feature","properties":{"pid":"b2a47167-b3e3-4cc2-848a-45dc8c1205ea"},"geometry":{"type":"Polygon","coordinates":[[[136.55112260912836,35.95130184941315],[136.551722357626,35.951397362001224],[136.55180171793464,35.9511547519862],[136.55117655945676,35.951062668841814],[136.55112260912836,35.95130184941315]]]}},{"type":"Feature","properties":{"pid":"b362b32e-bec5-48a5-b930-d4961b6fd077"},"geometry":{"type":"Polygon","coordinates":[[[136.5510512315531,35.95161408976322],[136.5516191578831,35.95172082556125],[136.55168056455645,35.951498138643835],[136.55109848695002,35.95140258087927],[136.5510512315531,35.95161408976322]]]}},{"type":"Feature","properties":{"pid":"757be2c9-3e71-4c66-8621-eafdb7eb32a4"},"geometry":{"type":"Polygon","coordinates":[[[136.5520815872127,35.95148223354545],[136.5522041944261,35.95150154922381],[136.55226140836098,35.951369539200705],[136.55226502056107,35.95093827208788],[136.5520815872127,35.95148223354545]]]}},{"type":"Feature","properties":{"pid":"c9310c7b-626c-4acf-a02d-ca2b2354181c"},"geometry":{"type":"Polygon","coordinates":[[[136.55185367047278,35.951588367522554],[136.5519250629514,35.95151919188104],[136.55214670593728,35.95088421496908],[136.5520965300232,35.95086265531414],[136.55185367047278,35.951588367522554]]]}},{"type":"Feature","properties":{"pid":"e5980596-8525-470a-921c-e1de58322d00"},"geometry":{"type":"Polygon","coordinates":[[[136.55119921423986,35.95096378002513],[136.5518332956621,35.951058935735595],[136.55191473302577,35.95083096752122],[136.55125818292217,35.95073275504345],[136.55119921423986,35.95096378002513]]]}},{"type":"Feature","properties":{"pid":"112982df-5041-460b-b4ee-b2cad459c552"},"geometry":{"type":"Polygon","coordinates":[[[136.5502295961656,35.95081500288032],[136.5509693194884,35.95092641394554],[136.55099339856258,35.95091361209048],[136.5510465866246,35.9506918129779],[136.55028651007868,35.950575498089286],[136.5502295961656,35.95081500288032]]]}},{"type":"Feature","properties":{"pid":"28fb4d46-a917-4a36-b1c9-1fafa5f6abd5"},"geometry":{"type":"Polygon","coordinates":[[[136.5502023855632,35.95091801157557],[136.55017948158363,35.951026035307905],[136.55091809122504,35.95114997515813],[136.5509404447733,35.951134870024326],[136.55095581449848,35.95103158113589],[136.5502023855632,35.95091801157557]]]}},{"type":"Feature","properties":{"pid":"f1f5ac8a-dee1-42cd-8512-47c9f3f523cb"},"geometry":{"type":"Polygon","coordinates":[[[136.55007468604734,35.95149071834581],[136.55080913459966,35.95159746957809],[136.55082766111875,35.95158279696256],[136.55088472506262,35.951365476657806],[136.55012547680786,35.951252798523875],[136.55007468604734,35.95149071834581]]]}},{"type":"Feature","properties":{"pid":"6a1c5385-5133-4a22-a041-40b5304aa85a"},"geometry":{"type":"Polygon","coordinates":[[[136.55014873250886,35.951152895672585],[136.5508902061421,35.95125497870668],[136.5509136644933,35.95124375226854],[136.55015796947586,35.9511178944168],[136.55014873250886,35.951152895672585]]]}},{"type":"Feature","properties":{"pid":"70e07c38-c11a-4fdf-9364-8980f4fe8091"},"geometry":{"type":"Polygon","coordinates":[[[136.5500062672411,35.951782668251454],[136.55074239161917,35.951896259064824],[136.5508003311733,35.951697026497975],[136.55005285324728,35.9515962735396],[136.5500062672411,35.951782668251454]]]}},{"type":"Feature","properties":{"pid":"95122b60-c785-4a97-80fd-f57ad7ad7282"},"geometry":{"type":"Polygon","coordinates":[[[136.54991876984872,35.95215595606185],[136.55064215810674,35.952249876308244],[136.55066841106384,35.95223625144077],[136.55072712180527,35.95202739778712],[136.5499769000982,35.95191344956082],[136.54991876984872,35.95215595606185]]]}},{"type":"Feature","properties":{"pid":"46ac1541-f1da-46e0-94c3-36c71da58cd0"},"geometry":{"type":"Polygon","coordinates":[[[136.54983198479852,35.95250647133977],[136.55058118211718,35.95261612735895],[136.5506286562415,35.95235593244969],[136.5498894611067,35.952253609589846],[136.54983198479852,35.95250647133977]]]}},{"type":"Feature","properties":{"pid":"ab7adfdf-5cb8-400b-b52e-2278df6d8905"},"geometry":{"type":"Polygon","coordinates":[[[136.55031057902374,35.950437294431275],[136.55106978280244,35.95055996204917],[136.55113138068,35.95029803910397],[136.55037023486875,35.950184535979425],[136.55031057902374,35.950437294431275]]]}},{"type":"Feature","properties":{"pid":"d779d1ad-8956-48b5-8937-81cbe0ddd38f"},"geometry":{"type":"Polygon","coordinates":[[[136.5503886750876,35.950076936556236],[136.55112962101086,35.950183949593786],[136.55115612529826,35.95017125690488],[136.550393806804,35.9500513438876],[136.5503886750876,35.950076936556236]]]}},{"type":"Feature","properties":{"pid":"f0d5f3e2-c2a1-4d8d-af06-d50c324f7646"},"geometry":{"type":"Polygon","coordinates":[[[136.5496785798581,35.94961401367105],[136.55027084023064,35.94970835130786],[136.55032634284134,35.949486188920496],[136.5497355469776,35.94939898124591],[136.5496785798581,35.94961401367105]]]}},{"type":"Feature","properties":{"pid":"73d859c3-4017-49ce-9224-db4d7c2d7a05"},"geometry":{"type":"Polygon","coordinates":[[[136.55042282604367,35.94995049349847],[136.5511561099817,35.95006843746499],[136.551189809532,35.95005429560824],[136.55127266607676,35.94967485805679],[136.5505120224661,35.94956191267195],[136.55042282604367,35.94995049349847]]]}},{"type":"Feature","properties":{"pid":"fb6c07fa-8760-48f8-bd60-8bcf036be1ce"},"geometry":{"type":"Polygon","coordinates":[[[136.54976452358088,35.94928345468742],[136.55035393841024,35.94937503591926],[136.55040350088328,35.949155377074455],[136.5498226536501,35.94906679080868],[136.54976452358088,35.94928345468742]]]}}]}