{"type":"FeatureCollection","features":[{"type":"Feature","properties":{"pid":"1c0c0b82-7040-4cc7-b57d-a46e358f29b0"},"geometry":{"type":"Polygon","coordinates":[[[136.0479197466213,35.98460804529471],[136.04838407554996,35.9850591695494],[136.04845393066685,35.98500790768421],[136.0479948825426,35.98455106719801],[136.0479197466213,35.98460804529471]]]}},{"type":"Feature","properties":{"pid":"74fbc93e-a17f-4d43-964b-f269e47ab3ee"},"geometry":{"type":"Polygon","coordinates":[[[136.04776162148914,35.984727978786246],[136.04819957014044,35.98518446438567],[136.04827763396486,35.985139833782675],[136.04782019560284,35.98468198066611],[136.04776162148914,35.984727978786246]]]}},{"type":"Feature","properties":{"pid":"1539f631-6775-4fce-aa79-f41c1334fcf7"},"geometry":{"type":"Polygon","coordinates":[[[136.049063961486,35.98530162700151],[136.0490941084484,35.985256760126205],[136.048600472039,35.985099089182135],[136.04856428168497,35.98512885167324],[136.04856839420555,35.9851427805691],[136.049063961486,35.98530162700151]]]}},{"type":"Feature","properties":{"pid":"3b7a3907-36b8-40ad-b06b-f9e7d3b05ac7"},"geometry":{"type":"Polygon","coordinates":[[[136.04833280012247,35.98472395905673],[136.04854293928588,35.98493785054378],[136.04862969886707,35.98487125071362],[136.04842330472763,35.9847798239194],[136.04833280012247,35.98472395905673]]]}},{"type":"Feature","properties":{"pid":"fa87da4b-091d-4e17-ba4b-d62545504b9c"},"geometry":{"type":"Polygon","coordinates":[[[136.04824787702165,35.98438124915407],[136.04845112348883,35.984561860009364],[136.04871459767494,35.98469943518519],[136.0483209176322,35.98433393322826],[136.04824787702165,35.98438124915407]]]}},{"type":"Feature","properties":{"pid":"efbb0a83-6827-445e-91c9-0b98c5c5d389"},"geometry":{"type":"Polygon","coordinates":[[[136.04894460898058,35.98464598921323],[136.04848749464796,35.984205873312696],[136.04843337754502,35.9842497483881],[136.04889291341917,35.984679636534004],[136.04894460898058,35.98464598921323]]]}},{"type":"Feature","properties":{"pid":"805ec1b4-c0ab-456e-a9ca-c8c59ebc8536"},"geometry":{"type":"Polygon","coordinates":[[[136.0490467126556,35.984775515629856],[136.04920284264247,35.984808504799226],[136.04920787351583,35.98471858105597],[136.0491502577688,35.98468624170108],[136.0490467126556,35.984775515629856]]]}},{"type":"Feature","properties":{"pid":"091aa66f-458e-4a77-adce-585675df6844"},"geometry":{"type":"Polygon","coordinates":[[[136.04883890716158,35.98435461838807],[136.04904879312778,35.984553889006186],[136.04907905766234,35.98453501686114],[136.04896970089692,35.98427961164493],[136.04883890716158,35.98435461838807]]]}},{"type":"Feature","properties":{"pid":"eb29c8d0-e865-4dcf-86be-1f52faa0755e"},"geometry":{"type":"Polygon","coordinates":[[[136.04869995011182,35.98500896640021],[136.0491604658995,35.98516565504917],[136.04925180022232,35.98502987598031],[136.04891394957053,35.98499670298912],[136.04877450581745,35.984951037178625],[136.04869995011182,35.98500896640021]]]}},{"type":"Feature","properties":{"pid":"55b0f5bd-824c-4e7a-85af-0aef67f6ced5"},"geometry":{"type":"Polygon","coordinates":[[[136.04934143910697,35.985206447590414],[136.0495242000193,35.985278268422185],[136.04956327176362,35.98521187014625],[136.04938166093942,35.98514118031285],[136.04934143910697,35.985206447590414]]]}},{"type":"Feature","properties":{"pid":"7889978d-3587-4cbc-9f47-6cbd9fe793b0"},"geometry":{"type":"Polygon","coordinates":[[[136.04913263947014,35.9855168422439],[136.04976191325102,35.985738265651676],[136.04991800523587,35.98553032554978],[136.04927387387482,35.98530170857148],[136.04913263947014,35.9855168422439]]]}},{"type":"Feature","properties":{"pid":"de87eb84-dd45-4b1a-95c2-95b3a1ea9cbb"},"geometry":{"type":"Polygon","coordinates":[[[136.04927293258183,35.98574847137315],[136.04948104206753,35.985903320319636],[136.04952335864533,35.98584937917568],[136.0493845684721,35.98579267981544],[136.04927293258183,35.98574847137315]]]}},{"type":"Feature","properties":{"pid":"c3a1bd5d-c4ad-4803-a95d-ea59f9657d72"},"geometry":{"type":"Polygon","coordinates":[[[136.04959735808097,35.98597672899427],[136.04970522466644,35.98603519297709],[136.04988115211538,35.986061913173344],[136.04992149776112,35.986011483144665],[136.04965805729066,35.985902575570584],[136.04959735808097,35.98597672899427]]]}},{"type":"Feature","properties":{"pid":"c4695e44-7515-4a4c-840a-9783690f0398"},"geometry":{"type":"Polygon","coordinates":[[[136.0498363654848,35.985386398740204],[136.0499888411815,35.98544152454737],[136.05003170111632,35.98538231841263],[136.04987881764814,35.98532306852305],[136.0498363654848,35.985386398740204]]]}},{"type":"Feature","properties":{"pid":"b037434b-b916-4625-908f-898127d8a0b9"},"geometry":{"type":"Polygon","coordinates":[[[136.04964325015914,35.98531802694625],[136.04973120017544,35.98534699336628],[136.0497714444618,35.98528575948848],[136.0496800447446,35.98525158455136],[136.04964325015914,35.98531802694625]]]}},{"type":"Feature","properties":{"pid":"d23b2c20-216a-421c-86e4-9448dd7e8fa0"},"geometry":{"type":"Polygon","coordinates":[[[136.05008469820987,35.985289401071505],[136.0499025258906,35.985119384488335],[136.04976364015243,35.98503043369645],[136.0496123799799,35.9849938184679],[136.04947808375215,35.98500624008662],[136.04945054279855,35.98504763787072],[136.05008469820987,35.985289401071505]]]}},{"type":"Feature","properties":{"pid":"c7ff3721-8ba4-42f0-85e3-edd20a0620ec"},"geometry":{"type":"Polygon","coordinates":[[[136.0487597736113,35.984275944809276],[136.04891080509802,35.98418773140201],[136.04880839978372,35.98400739341816],[136.04861894150358,35.98413898277005],[136.0487597736113,35.984275944809276]]]}},{"type":"Feature","properties":{"pid":"146dc8cb-2c33-4cff-9c0f-64e11ee883eb"},"geometry":{"type":"Polygon","coordinates":[[[136.04817036698483,35.983722841242006],[136.0484858081929,35.98402552687321],[136.04852892147485,35.98399608819051],[136.04821216215413,35.98369900822428],[136.04817036698483,35.983722841242006]]]}},{"type":"Feature","properties":{"pid":"1a6fdf84-276f-4835-bf8e-1325a7e7fd9b"},"geometry":{"type":"Polygon","coordinates":[[[136.04863258458906,35.98392213976786],[136.048725355753,35.983864482212375],[136.0487065484767,35.98381807665267],[136.04862890596215,35.983730702575414],[136.04849379943647,35.983612385874544],[136.0482322621037,35.983448343438276],[136.04818393075928,35.98347929461033],[136.04863258458906,35.98392213976786]]]}},{"type":"Feature","properties":{"pid":"7c7e899c-bb97-4d53-bdc3-1481eaba5c1d"},"geometry":{"type":"Polygon","coordinates":[[[136.04837415006816,35.984095650383],[136.04792055516413,35.98366624409353],[136.047851099012,35.98371111815546],[136.04830101410306,35.9841424024118],[136.04837415006816,35.984095650383]]]}},{"type":"Feature","properties":{"pid":"8ce829cf-d9b9-4fc5-9aab-a0d63f46a1cd"},"geometry":{"type":"Polygon","coordinates":[[[136.04804831142047,35.98408895787965],[136.0481312093711,35.98425977987453],[136.04818590607823,35.984220651936646],[136.04804831142047,35.98408895787965]]]}},{"type":"Feature","properties":{"pid":"3bb4fb6f-8845-4aa0-9b0e-1fda168b4c29"},"geometry":{"type":"Polygon","coordinates":[[[136.04787356365438,35.984428525062896],[136.04795694104274,35.98437169288436],[136.04750486674382,35.983956753309414],[136.04749186990054,35.98396703321061],[136.04759908371082,35.98415848834479],[136.04787356365438,35.984428525062896]]]}},{"type":"Feature","properties":{"pid":"5d9e4cc3-2381-4e77-ba57-1a23c1660087"},"geometry":{"type":"Polygon","coordinates":[[[136.0478078238405,35.98405916520733],[136.04774684650639,35.983914625268255],[136.0476772773645,35.98383172576422],[136.0476159914192,35.9838730161639],[136.0478078238405,35.98405916520733]]]}},{"type":"Feature","properties":{"pid":"2cafc367-ce55-4e07-bb07-474b0e2f78d1"},"geometry":{"type":"Polygon","coordinates":[[[136.04732327046008,35.9842066826499],[136.04763366317098,35.98459230366236],[136.0477605029078,35.984505579901516],[136.04731435217033,35.9840712071583],[136.04726815796607,35.984099045710614],[136.04732327046008,35.9842066826499]]]}},{"type":"Feature","properties":{"pid":"e12a57ec-5966-4a04-a8dc-e1b818c8a33b"},"geometry":{"type":"Polygon","coordinates":[[[136.04714115709513,35.98396153662677],[136.04723801204557,35.98389657114994],[136.04692602391648,35.98360956217151],[136.04685610862398,35.98365230135256],[136.04714115709513,35.98396153662677]]]}},{"type":"Feature","properties":{"pid":"112eaadd-6185-4e1e-a80f-bcdf5033d802"},"geometry":{"type":"Polygon","coordinates":[[[136.04749612404973,35.983739335328416],[136.04755136118186,35.98369895593669],[136.04721438547273,35.98342263351455],[136.04718304611086,35.983442315217104],[136.04749612404973,35.983739335328416]]]}},{"type":"Feature","properties":{"pid":"b709e0c8-3267-427c-a78f-0a9f3243e431"},"geometry":{"type":"Polygon","coordinates":[[[136.0470289990002,35.98353685574748],[136.04734885730488,35.98383020963368],[136.04739003849068,35.98380701415313],[136.04707328411754,35.983512118844025],[136.0470289990002,35.98353685574748]]]}},{"type":"Feature","properties":{"pid":"3ed15616-0fb3-490b-8bc6-41e331ad11db"},"geometry":{"type":"Polygon","coordinates":[[[136.04781727362789,35.983525485779566],[136.0474662472986,35.98325412645671],[136.04739204705487,35.983300156343354],[136.04774300321208,35.9835743669688],[136.04781727362789,35.983525485779566]]]}},{"type":"Feature","properties":{"pid":"bea643d1-54e9-4cbf-b43b-c7c04aa518ff"},"geometry":{"type":"Polygon","coordinates":[[[136.0476653621977,35.9831197598653],[136.04759292712362,35.983165911487646],[136.04796701041087,35.98344104871203],[136.04813787138747,35.98334598616472],[136.0476653621977,35.9831197598653]]]}},{"type":"Feature","properties":{"pid":"954aaff0-3fc9-4773-9950-8396e890897d"},"geometry":{"type":"Polygon","coordinates":[[[136.04696323028952,35.98282067987881],[136.04744753202715,35.98306880171878],[136.0475146711902,35.98301866942114],[136.04723737813967,35.98285908432474],[136.04700136800383,35.9827632693009],[136.04696323028952,35.98282067987881]]]}},{"type":"Feature","properties":{"pid":"2a129c80-46dc-438c-b53a-89e3b6b355fc"},"geometry":{"type":"Polygon","coordinates":[[[136.0468572559661,35.98294369228726],[136.04724890720848,35.98319445258798],[136.04731776605112,35.983155069148744],[136.0468843369838,35.98291141132979],[136.0468572559661,35.98294369228726]]]}},{"type":"Feature","properties":{"pid":"cc53dfc9-e01b-4ca8-9ed3-800f4f01d9dc"},"geometry":{"type":"Polygon","coordinates":[[[136.03684672442168,35.97954823148297],[136.03758171684422,35.97974108040379],[136.03797426236238,35.979724820791844],[136.03794070235583,35.97963993670444],[136.03791607919334,35.97962888348602],[136.03758081610943,35.979611768875465],[136.03741856983865,35.97962994870635],[136.03700476756242,35.97955964410629],[136.03684672442168,35.97954823148297]]]}},{"type":"Feature","properties":{"pid":"80afa8e6-6bcb-4e59-b8ea-15d4fdc8cb49"},"geometry":{"type":"Polygon","coordinates":[[[136.0400818272977,35.98014477978914],[136.04009034157687,35.98015415441306],[136.04039123814002,35.98011992572733],[136.04016496416605,35.980099797314075],[136.0400818272977,35.98014477978914]]]}},{"type":"Feature","properties":{"pid":"32d81b24-752e-4805-a379-1f0e4aa4e38b"},"geometry":{"type":"Polygon","coordinates":[[[136.04060616502395,35.980156350951304],[136.04061973248014,35.980233953583465],[136.0407926578213,35.9802593667083],[136.04079240459475,35.980186843538085],[136.04071480060423,35.98011031177247],[136.04060616502395,35.980156350951304]]]}},{"type":"Feature","properties":{"pid":"b1c46946-6d06-4983-a50f-abe24821aafa"},"geometry":{"type":"Polygon","coordinates":[[[136.0415728859603,35.980761180660366],[136.04187232886932,35.98088268593206],[136.0418414895601,35.98085555439188],[136.04160697066095,35.98075042246639],[136.0415728859603,35.980761180660366]]]}},{"type":"Feature","properties":{"pid":"a3aade99-92df-4958-b90e-1ade43f2ef23"},"geometry":{"type":"Polygon","coordinates":[[[136.04148678192556,35.98088129607267],[136.04182797719497,35.9810550165393],[136.04199605122128,35.981111536996806],[136.04200098746733,35.98109983314224],[136.04148678192556,35.98088129607267]]]}},{"type":"Feature","properties":{"pid":"9ff813fe-9659-45a3-adf4-7afa06af6a93"},"geometry":{"type":"Polygon","coordinates":[[[136.04194569121557,35.981754500524616],[136.04199630141494,35.98160036069482],[136.04175988241516,35.98152712691875],[136.0417137365574,35.981588337507944],[136.04184896319953,35.981716137237605],[136.04194569121557,35.981754500524616]]]}},{"type":"Feature","properties":{"pid":"c69e45f2-18aa-4610-be84-91cfeefb03cd"},"geometry":{"type":"Polygon","coordinates":[[[136.04424947611832,35.98263150622915],[136.04426686016427,35.9827897398603],[136.0443789232551,35.98278672607947],[136.04430392501692,35.98262214480452],[136.04424947611832,35.98263150622915]]]}},{"type":"Feature","properties":{"pid":"27890012-e648-4725-af60-fb3f0b58f460"},"geometry":{"type":"Polygon","coordinates":[[[136.04370590495037,35.982610523740036],[136.04403026125502,35.98274461399559],[136.04410339436228,35.982763782634976],[136.04413138603329,35.98273247000535],[136.04411795010196,35.98264500826058],[136.04370590495037,35.982610523740036]]]}},{"type":"Feature","properties":{"pid":"00c1c7fb-3fd2-4d1e-8032-64cb7ffa960f"},"geometry":{"type":"Polygon","coordinates":[[[136.04218950269882,35.98195630302189],[136.04218591953983,35.98198188378952],[136.04249336607347,35.98211126757773],[136.04259509881422,35.98195721940282],[136.04253085419066,35.98190376007418],[136.04247839409675,35.98198152816363],[136.0424419557922,35.98200053463408],[136.04235301973065,35.98197592232916],[136.0422960221171,35.981993507841345],[136.04218950269882,35.98195630302189]]]}},{"type":"Feature","properties":{"pid":"54ea760c-ae6a-4234-b0d4-3bf200990a6d"},"geometry":{"type":"Polygon","coordinates":[[[136.04208273964704,35.98143423585753],[136.04220137997348,35.98147455251259],[136.04221643499022,35.98140073542117],[136.04210064223105,35.98139463142488],[136.04208273964704,35.98143423585753]]]}},{"type":"Feature","properties":{"pid":"0172c636-36cc-49be-91c0-11586d913c65"},"geometry":{"type":"Polygon","coordinates":[[[136.04366840685975,35.98242395988587],[136.04375901677034,35.982441703195335],[136.04409002256563,35.982459161050826],[136.044213328937,35.982435809620306],[136.04438202504514,35.98237707804109],[136.04427337483435,35.98222759178118],[136.04366840685975,35.98242395988587]]]}},{"type":"Feature","properties":{"pid":"0b53a736-7d3b-426e-95b1-5a8c7df4f9bf"},"geometry":{"type":"Polygon","coordinates":[[[136.04445014686578,35.98218236604416],[136.04454022181721,35.982326471656144],[136.04477995953934,35.982276646450075],[136.04472138429833,35.98211952900125],[136.04445014686578,35.98218236604416]]]}},{"type":"Feature","properties":{"pid":"b46a35e7-0720-4f43-9ba7-746dbeaa498a"},"geometry":{"type":"Polygon","coordinates":[[[136.04470429586905,35.98255951446763],[136.0451603017405,35.982495323809324],[136.0451829028511,35.982462023990855],[136.0450650401197,35.98245846020744],[136.04472696677456,35.98248795046868],[136.04466706846367,35.982506260048744],[136.04470429586905,35.98255951446763]]]}},{"type":"Feature","properties":{"pid":"eed571eb-a8cf-44ed-a825-1d773e3ba3fa"},"geometry":{"type":"Polygon","coordinates":[[[136.04487372285777,35.98211077226101],[136.04491612180345,35.98224376676791],[136.0452956941447,35.98223117205286],[136.0453870958267,35.982099913718805],[136.04487372285777,35.98211077226101]]]}},{"type":"Feature","properties":{"pid":"49984376-92bd-4f06-a620-d9d1d6108941"},"geometry":{"type":"Polygon","coordinates":[[[136.04550236389684,35.9823163290232],[136.04565869073122,35.98234405471702],[136.04593247390807,35.98243065286368],[136.04598992686593,35.98233785359209],[136.04588629270754,35.98227328652212],[136.04575889515087,35.98227640016732],[136.04554005717412,35.98224856729082],[136.04550236389684,35.9823163290232]]]}},{"type":"Feature","properties":{"pid":"5bbdd02a-871e-420b-932b-c60553000841"},"geometry":{"type":"Polygon","coordinates":[[[136.04558692712553,35.98256469114409],[136.0457957649456,35.982638674413025],[136.04581308393082,35.98261219844957],[136.0455987691571,35.98254001759843],[136.04558692712553,35.98256469114409]]]}},{"type":"Feature","properties":{"pid":"f0d05b19-b278-4511-816c-0a960631ac2e"},"geometry":{"type":"Polygon","coordinates":[[[136.0461149454452,35.98248074236708],[136.04657285707214,35.982724164535774],[136.0466533099599,35.98261337380158],[136.04615896899475,35.98241977242771],[136.0461149454452,35.98248074236708]]]}},{"type":"Feature","properties":{"pid":"9a04eaff-19ce-4482-813d-dae4056eea0d"},"geometry":{"type":"Polygon","coordinates":[[[136.04675989531916,35.98271245862853],[136.0468554938885,35.982763195119965],[136.0468843759873,35.982716925481384],[136.0467862370031,35.982676321539785],[136.04675989531916,35.98271245862853]]]}},{"type":"Feature","properties":{"pid":"d489f52b-890f-4bf2-95c9-63b3ccf821e5"},"geometry":{"type":"Polygon","coordinates":[[[136.04658060678008,35.98300553033018],[136.04703578000252,35.9833431081096],[136.04707256154484,35.983318975887535],[136.04658764265682,35.98299108901369],[136.04658060678008,35.98300553033018]]]}},{"type":"Feature","properties":{"pid":"8f409bca-6389-4b05-a773-fa973242ce12"},"geometry":{"type":"Polygon","coordinates":[[[136.0465006694405,35.98313518904602],[136.04690586146836,35.9834228908264],[136.04692349692482,35.9834109288548],[136.046517765357,35.983103885509],[136.0465006694405,35.98313518904602]]]}},{"type":"Feature","properties":{"pid":"06b5ee8b-d283-495c-9b48-c6350f780102"},"geometry":{"type":"Polygon","coordinates":[[[136.0463976676084,35.983243722938404],[136.04638692334885,35.983259333995136],[136.0465516502146,35.98338946260792],[136.04658333621308,35.98336552594585],[136.0463976676084,35.983243722938404]]]}},{"type":"Feature","properties":{"pid":"4a4c80c7-0f50-489c-af03-f2734d1c0e6b"},"geometry":{"type":"Polygon","coordinates":[[[136.04585223409006,35.982941488020366],[136.04584707679246,35.98299022354148],[136.04602221046122,35.98306236862745],[136.04605018551666,35.98302091280314],[136.04585223409006,35.982941488020366]]]}},{"type":"Feature","properties":{"pid":"69c6444e-b02c-4b8c-bab4-0ec204c1f374"},"geometry":{"type":"Polygon","coordinates":[[[136.0458801271067,35.982836942727346],[136.0463591594073,35.98303042431195],[136.04637304543945,35.98301170203716],[136.04589261310556,35.982818748206434],[136.0458801271067,35.982836942727346]]]}},{"type":"Feature","properties":{"pid":"f325791b-e9f1-4860-9512-9f209393171a"},"geometry":{"type":"Polygon","coordinates":[[[136.04596631419452,35.98272549681789],[136.0464338946511,35.98290585960234],[136.04643423602803,35.982905063008765],[136.0459996480109,35.98267410475769],[136.04596631419452,35.98272549681789]]]}},{"type":"Feature","properties":{"pid":"ca2c9447-b3d5-4787-aee0-7fb61245bf40"},"geometry":{"type":"Polygon","coordinates":[[[136.0452656809493,35.98261333743257],[136.04548482892054,35.982693633055106],[136.0455083355347,35.98265293684245],[136.0452899040648,35.98257518002226],[136.0452656809493,35.98261333743257]]]}},{"type":"Feature","properties":{"pid":"f0a0118c-1f48-4f5f-b127-2bf68c2671bf"},"geometry":{"type":"Polygon","coordinates":[[[136.0445020413576,35.9827568190854],[136.0445798396957,35.982729325631546],[136.04450132742824,35.98257110371162],[136.04442907016792,35.98259364907846],[136.0445020413576,35.9827568190854]]]}},{"type":"Feature","properties":{"pid":"d9a8a8d8-7690-4f63-b9e5-901b0730d344"},"geometry":{"type":"Polygon","coordinates":[[[136.03196902129193,35.97921495452166],[136.0320010359917,35.97930305470672],[136.03206138603355,35.979362872478376],[136.03207185673992,35.979434670156095],[136.03220892216106,35.979568226043725],[136.03230162532265,35.97941462725057],[136.03211258379466,35.9793179667028],[136.03196902129193,35.97921495452166]]]}},{"type":"Feature","properties":{"pid":"2d8cb3e1-5302-4747-ada6-bc174f625bbd"},"geometry":{"type":"Polygon","coordinates":[[[136.0328712752256,35.97951575258623],[136.03287365825406,35.97947035898846],[136.03264675400348,35.9794853132263],[136.03248874585185,35.97946693105918],[136.03247658032564,35.97948589880307],[136.0328712752256,35.97951575258623]]]}},{"type":"Feature","properties":{"pid":"c9795c99-308d-447f-a64a-3e48f4c36085"},"geometry":{"type":"Polygon","coordinates":[[[136.03240469322262,35.97962284553681],[136.0324986332364,35.97961804584749],[136.0327086490522,35.97964703295385],[136.0329700217935,35.979710269684446],[136.03298190346368,35.979657367305094],[136.03241795595795,35.979598973494284],[136.03240469322262,35.97962284553681]]]}},{"type":"Feature","properties":{"pid":"9fbd549f-83e1-4652-b162-2a2546b877b4"},"geometry":{"type":"Polygon","coordinates":[[[136.03315673793583,35.97977196142923],[136.03351420129624,35.97982378558038],[136.03351645795075,35.9798160440649],[136.03315918003904,35.97975235310379],[136.03315673793583,35.97977196142923]]]}},{"type":"Feature","properties":{"pid":"49a592d8-9bc1-4fe6-9fe1-d261804b0490"},"geometry":{"type":"Polygon","coordinates":[[[136.03318988909228,35.97963501732248],[136.0335648824631,35.97969986441662],[136.0335831854543,35.97963416771661],[136.03319795127987,35.97957189984809],[136.03318988909228,35.97963501732248]]]}},{"type":"Feature","properties":{"pid":"cab572fd-e160-4ffe-a57a-028bcfcf8379"},"geometry":{"type":"Polygon","coordinates":[[[136.03320709968042,35.97943984140209],[136.0336101536996,35.97949814280705],[136.03343203317417,35.97940916624279],[136.03337538902792,35.97940068781273],[136.03320935484476,35.97941083974388],[136.03320709968042,35.97943984140209]]]}},{"type":"Feature","properties":{"pid":"9bbc7807-40f7-44f6-9a93-d98700c68647"},"geometry":{"type":"Polygon","coordinates":[[[136.03381329483273,35.97963608837523],[136.0341899883274,35.97970606353044],[136.03420704339229,35.97960468640357],[136.03391177558794,35.97960261721105],[136.0338236403716,35.979587778773464],[136.03381329483273,35.97963608837523]]]}},{"type":"Feature","properties":{"pid":"77e77e55-eeb3-47f2-b39e-b858c0f422c4"},"geometry":{"type":"Polygon","coordinates":[[[136.03373323144797,35.97975912204836],[136.03370574089962,35.979836620672444],[136.0338985956709,35.97984729995983],[136.03410799013741,35.97982511865327],[136.03373323144797,35.97975912204836]]]}},{"type":"Feature","properties":{"pid":"0717b638-625f-43d3-9a27-80850609b42f"},"geometry":{"type":"Polygon","coordinates":[[[136.03565926697746,35.980125348231205],[136.0357290430959,35.980149169496435],[136.03579111997024,35.979826185983],[136.0356976300758,35.979846265542655],[136.03565926697746,35.980125348231205]]]}},{"type":"Feature","properties":{"pid":"ab357949-35e5-45fa-82f3-cecfcee78b29"},"geometry":{"type":"Polygon","coordinates":[[[136.03592008230385,35.980060408039975],[136.03601134988602,35.979928513464365],[136.03605359335978,35.97976178169864],[136.0359731598992,35.979781019610144],[136.03592008230385,35.980060408039975]]]}},{"type":"Feature","properties":{"pid":"5de9dcf0-a8db-4e7a-928f-b3924a255053"},"geometry":{"type":"Polygon","coordinates":[[[136.03664936419037,35.9798990652461],[136.03633942648258,35.97978649372884],[136.03632981858576,35.97981727887189],[136.03664523371674,35.979916592255464],[136.03664936419037,35.9798990652461]]]}},{"type":"Feature","properties":{"pid":"8e4b936a-b887-4e03-a288-447f5b042f71"},"geometry":{"type":"Polygon","coordinates":[[[136.03533610165374,35.97992556882859],[136.03551607057437,35.979965894961786],[136.03553662504456,35.97980171583904],[136.03542077758644,35.979783443414796],[136.03533610165374,35.97992556882859]]]}},{"type":"Feature","properties":{"pid":"f95a3d58-4a18-4552-a9b1-cab5cecd54a6"},"geometry":{"type":"Polygon","coordinates":[[[136.0350038849693,35.97967626675697],[136.0350192893825,35.979775534244496],[136.0350399290711,35.97980288373368],[136.03516719868335,35.97984463598255],[136.03522081739786,35.97976378865297],[136.0350038849693,35.97967626675697]]]}},{"type":"Feature","properties":{"pid":"5c7a9bc5-abf4-4051-a1ef-0e727c246d3b"},"geometry":{"type":"Polygon","coordinates":[[[136.0343657882331,35.9796246351688],[136.0343347106167,35.97976172277555],[136.03453856106023,35.97977320422739],[136.03470213977417,35.97982440298627],[136.03470294218633,35.979734762699756],[136.0346414042157,35.97967241005805],[136.03452462429283,35.97963536219922],[136.0343657882331,35.9796246351688]]]}},{"type":"Feature","properties":{"pid":"7b98b1fe-06de-4a2a-86e9-3b612c214929"},"geometry":{"type":"Polygon","coordinates":[[[136.03234112531985,35.97891916252362],[136.03226744250986,35.979034353940186],[136.03237409977285,35.979095578900456],[136.03237217962572,35.9789858777656],[136.03234112531985,35.97891916252362]]]}},{"type":"Feature","properties":{"pid":"8033ed60-7c96-4dd0-b424-b31cd8c2858a"},"geometry":{"type":"Polygon","coordinates":[[[136.032230558846,35.978741523282395],[136.0322053109257,35.97868215379569],[136.03213521846376,35.97866241272247],[136.0321164778008,35.97870865330839],[136.032230558846,35.978741523282395]]]}},{"type":"Feature","properties":{"pid":"f31ac327-fec7-4c05-bfdc-17cb5650d4bc"},"geometry":{"type":"Polygon","coordinates":[[[136.03216566747093,35.97885423971977],[136.03192231019926,35.978770972314805],[136.03195647481567,35.97884793011017],[136.03209174595258,35.97892927403368],[136.03216566747093,35.97885423971977]]]}},{"type":"Feature","properties":{"pid":"067d835e-d1cc-428f-8b84-975a4591cbb9"},"geometry":{"type":"Polygon","coordinates":[[[136.0320056840522,35.97867324849111],[136.03202159983286,35.97863069226848],[136.0318394154796,35.978580401156094],[136.031860829762,35.97862510082884],[136.0320056840522,35.97867324849111]]]}},{"type":"Feature","properties":{"pid":"8e5cfb3e-5e97-436a-b4d9-41ad794a8dc3"},"geometry":{"type":"Polygon","coordinates":[[[136.0299745655704,35.97783736230684],[136.030388387595,35.97795563600529],[136.03040486263677,35.977916379022375],[136.03039321566627,35.97789006293308],[136.03000491495987,35.97778237328516],[136.0299745655704,35.97783736230684]]]}},{"type":"Feature","properties":{"pid":"7855c344-7057-4af4-a8e6-20b403aac37f"},"geometry":{"type":"Polygon","coordinates":[[[136.03091900939796,35.97857681798819],[136.03092009173764,35.97859699268988],[136.03119069151325,35.9786231057097],[136.03125902020642,35.97856135052466],[136.03110145660028,35.978532322154685],[136.03091900939796,35.97857681798819]]]}}]}