{"type":"FeatureCollection","features":[{"type":"Feature","properties":{"pid":"0e3d9a83-b6bd-463e-9465-59646c9c7ea3","full":2.1},"geometry":{"type":"Polygon","coordinates":[[[136.44801,35.99151],[136.44819,35.99148],[136.44818,35.99136],[136.4482,35.99125],[136.44807,35.99123],[136.44797,35.99124],[136.44787,35.9913],[136.44797,35.99139],[136.44801,35.99151]]]}},{"type":"Feature","properties":{"pid":"bbc27ea7-822b-415b-bf3e-9678eb8a5d58","full":3.5},"geometry":{"type":"Polygon","coordinates":[[[136.44818,35.99155],[136.44847,35.99158],[136.44854,35.99128],[136.44834,35.99121],[136.44827,35.99131],[136.44825,35.99142],[136.44818,35.99155]]]}},{"type":"Feature","properties":{"pid":"bd9f98d9-2208-4776-8b7b-7467328fea92","full":7.3},"geometry":{"type":"Polygon","coordinates":[[[136.44674,35.99317],[136.44671,35.99309],[136.44664,35.9931],[136.44658,35.99315],[136.4465,35.99318],[136.44635,35.9932],[136.44603,35.99332],[136.44614,35.99354],[136.44669,35.99331],[136.44674,35.99317]]]}},{"type":"Feature","properties":{"pid":"9f9a9f34-270c-4765-9a6a-af9f25252714","full":0.7},"geometry":{"type":"Polygon","coordinates":[[[136.44982,35.9915],[136.44969,35.99146],[136.44959,35.99149],[136.44971,35.99155],[136.44981,35.99164],[136.44991,35.99176],[136.44998,35.99174],[136.45007,35.99172],[136.45007,35.99169],[136.44997,35.99162],[136.4499,35.99156],[136.44982,35.9915]]]}},{"type":"Feature","properties":{"pid":"c8d054fb-ea99-4a1c-a542-740f3406a221","full":1.1},"geometry":{"type":"Polygon","coordinates":[[[136.44974,35.99159],[136.44967,35.99155],[136.44954,35.99155],[136.44953,35.99156],[136.44963,35.99169],[136.44971,35.99182],[136.4498,35.9918],[136.4499,35.99177],[136.44974,35.99159]]]}},{"type":"Feature","properties":{"pid":"0249eac7-a910-44e6-84d1-3f0eb2f81207","full":0.6},"geometry":{"type":"Polygon","coordinates":[[[136.44966,35.99179],[136.44961,35.9917],[136.44942,35.99176],[136.44942,35.99178],[136.4494,35.99178],[136.44946,35.9919],[136.4497,35.99182],[136.44966,35.99179]]]}},{"type":"Feature","properties":{"pid":"83164721-9535-4151-aceb-af4ed6e4f703","full":2.2},"geometry":{"type":"Polygon","coordinates":[[[136.44879,35.99205],[136.44873,35.99187],[136.44866,35.99188],[136.44852,35.99195],[136.44852,35.992],[136.44849,35.99201],[136.44849,35.99204],[136.44853,35.99205],[136.44852,35.99211],[136.44866,35.99217],[136.44871,35.99217],[136.44874,35.99214],[136.44879,35.99205]]]}},{"type":"Feature","properties":{"pid":"c90d323a-09c1-41aa-a0d4-a1f0ec84a8d1","full":1.6},"geometry":{"type":"Polygon","coordinates":[[[136.44853,35.9917],[136.44869,35.99167],[136.44885,35.99164],[136.44877,35.9915],[136.44853,35.99148],[136.44852,35.99158],[136.44853,35.9917]]]}},{"type":"Feature","properties":{"pid":"f9813959-3915-42b4-91b1-ba45e980d9b5","full":1.3},"geometry":{"type":"Polygon","coordinates":[[[136.44719,35.99251],[136.44714,35.99232],[136.44698,35.99235],[136.44691,35.99235],[136.44691,35.99237],[136.44697,35.99255],[136.44719,35.99251]]]}},{"type":"Feature","properties":{"pid":"1837c585-177c-4d68-80fb-f788eb14a521","full":11.7},"geometry":{"type":"Polygon","coordinates":[[[136.44688,35.99236],[136.44668,35.99236],[136.44659,35.99238],[136.44655,35.99242],[136.4468,35.993],[136.44688,35.99301],[136.44694,35.99299],[136.44709,35.99292],[136.44688,35.99236]]]}},{"type":"Feature","properties":{"pid":"672da021-0a42-427e-8c5b-5de3eab31f3e","full":2.8},"geometry":{"type":"Polygon","coordinates":[[[136.44728,35.99272],[136.44719,35.99253],[136.44698,35.99257],[136.4471,35.99289],[136.44713,35.99289],[136.44716,35.99287],[136.44723,35.99285],[136.44727,35.99285],[136.44736,35.9928],[136.44736,35.99279],[136.44728,35.99272]]]}},{"type":"Feature","properties":{"pid":"286ebccf-4b05-4731-85f3-176b3f4c7d3b","full":0.8},"geometry":{"type":"Polygon","coordinates":[[[136.44698,35.9932],[136.44727,35.99308],[136.44718,35.99296],[136.44691,35.99309],[136.44698,35.9932]]]}},{"type":"Feature","properties":{"pid":"d38b9340-ceb4-4abc-8d75-c27b0c7e518a","full":3.5},"geometry":{"type":"Polygon","coordinates":[[[136.44647,35.99314],[136.44635,35.99286],[136.44605,35.99306],[136.44613,35.99323],[136.44634,35.99317],[136.44647,35.99314]]]}},{"type":"Feature","properties":{"pid":"0e4a1a34-838d-4517-835f-98e6240c75e7","full":8.9},"geometry":{"type":"Polygon","coordinates":[[[136.44655,35.99248],[136.44652,35.99244],[136.44632,35.99262],[136.44638,35.99275],[136.44638,35.99283],[136.44636,35.99285],[136.44649,35.99313],[136.44654,35.9931],[136.4466,35.99306],[136.44667,35.99303],[136.44678,35.99301],[136.44655,35.99248]]]}},{"type":"Feature","properties":{"pid":"22655794-af7f-4c2d-8373-3517c16e419c","full":4.9},"geometry":{"type":"Polygon","coordinates":[[[136.44612,35.99323],[136.44604,35.99306],[136.44571,35.99323],[136.44566,35.99328],[136.44541,35.99339],[136.44539,35.99342],[136.44542,35.99351],[136.44545,35.99352],[136.44555,35.99351],[136.44576,35.99345],[136.4459,35.99331],[136.44612,35.99323]]]}},{"type":"Feature","properties":{"pid":"999e107b-24a8-43f4-9a55-08d86c03ed5c","full":0.6},"geometry":{"type":"Polygon","coordinates":[[[136.44534,35.99356],[136.4453,35.99345],[136.44524,35.99347],[136.44508,35.99349],[136.44504,35.99351],[136.44506,35.99362],[136.44507,35.99364],[136.44534,35.99356]]]}},{"type":"Feature","properties":{"pid":"39cdbd7a-fb9e-4280-ba34-cce1c6d24737","full":1.3},"geometry":{"type":"Polygon","coordinates":[[[136.44548,35.99376],[136.44538,35.99361],[136.44515,35.99368],[136.44522,35.99385],[136.44548,35.99376]]]}},{"type":"Feature","properties":{"pid":"8d71adbc-972f-40c8-9055-2bdfa1eabf93","full":6.2},"geometry":{"type":"Polygon","coordinates":[[[136.44519,35.99395],[136.44507,35.99369],[136.44493,35.99371],[136.44491,35.99373],[136.44467,35.99373],[136.44482,35.99407],[136.44485,35.99408],[136.44519,35.99395]]]}},{"type":"Feature","properties":{"pid":"dd0eef3a-2f9e-43d8-ac53-df611e083d6f","full":0.9},"geometry":{"type":"Polygon","coordinates":[[[136.44422,35.99432],[136.44403,35.99391],[136.44391,35.99395],[136.4441,35.99437],[136.44412,35.99438],[136.44422,35.99432]]]}},{"type":"Feature","properties":{"pid":"186ad836-8eb9-4cac-9961-a0b00126c3e4","full":2.5},"geometry":{"type":"Polygon","coordinates":[[[136.44409,35.99437],[136.4439,35.99395],[136.44372,35.99399],[136.44392,35.99442],[136.44409,35.99437]]]}},{"type":"Feature","properties":{"pid":"09226dec-b5c4-4973-a877-cf949cd859f9","full":10.3},"geometry":{"type":"Polygon","coordinates":[[[136.44391,35.99442],[136.44372,35.99399],[136.44356,35.99402],[136.44349,35.99404],[136.4434,35.99415],[136.44358,35.99456],[136.44361,35.99456],[136.44384,35.99447],[136.44391,35.99442]]]}},{"type":"Feature","properties":{"pid":"8d3aa01b-f2b2-4a1e-a33c-08389b41af09","full":5.9},"geometry":{"type":"Polygon","coordinates":[[[136.44387,35.9936],[136.44383,35.99359],[136.4435,35.99368],[136.44349,35.9937],[136.4436,35.99395],[136.44387,35.9939],[136.44398,35.99386],[136.44387,35.9936]]]}},{"type":"Feature","properties":{"pid":"ab0c4026-5d95-4c12-ab3d-66c1c13b3ef9","full":7.5},"geometry":{"type":"Polygon","coordinates":[[[136.44453,35.99421],[136.44434,35.99379],[136.44424,35.99382],[136.44413,35.99388],[136.44405,35.9939],[136.44423,35.99432],[136.44427,35.99431],[136.44453,35.99421]]]}},{"type":"Feature","properties":{"pid":"34fe3c46-96d6-4daf-ac16-8385cc7a7b59","full":6.3},"geometry":{"type":"Polygon","coordinates":[[[136.44481,35.99408],[136.44464,35.99372],[136.44435,35.99379],[136.44453,35.99419],[136.44458,35.99419],[136.44481,35.99408]]]}},{"type":"Feature","properties":{"pid":"7336801c-aedf-4a97-b446-500f3586d0a6","full":5.1},"geometry":{"type":"Polygon","coordinates":[[[136.4446,35.99367],[136.44443,35.99335],[136.44431,35.99338],[136.44416,35.99345],[136.44429,35.99373],[136.44437,35.99373],[136.4445,35.9937],[136.4446,35.99367]]]}},{"type":"Feature","properties":{"pid":"177aaa39-716e-4bef-a24f-bb2c948f70a8","full":5.6},"geometry":{"type":"Polygon","coordinates":[[[136.44498,35.99349],[136.44492,35.99343],[136.44478,35.99344],[136.44477,35.99333],[136.4445,35.99336],[136.44447,35.99335],[136.44462,35.99366],[136.4449,35.99365],[136.44501,35.99364],[136.44498,35.99349]]]}},{"type":"Feature","properties":{"pid":"ac587ba3-3d01-46de-bc29-8e37072b342c","full":3.6},"geometry":{"type":"Polygon","coordinates":[[[136.44414,35.99346],[136.44412,35.99346],[136.44389,35.99356],[136.44402,35.99384],[136.44408,35.99382],[136.44427,35.99374],[136.44414,35.99346]]]}},{"type":"Feature","properties":{"pid":"c6f2f3f6-2e15-46b4-b0fc-8facd3d5fb70","full":0.7},"geometry":{"type":"Polygon","coordinates":[[[136.44364,35.99348],[136.44361,35.99344],[136.44338,35.99351],[136.44335,35.9936],[136.44337,35.99365],[136.44382,35.99352],[136.44381,35.9935],[136.44364,35.99348]]]}},{"type":"Feature","properties":{"pid":"f0fb7ccf-5483-49b4-a4d8-116c6563f603","full":4.8},"geometry":{"type":"Polygon","coordinates":[[[136.4433,35.99411],[136.44319,35.99387],[136.44305,35.99392],[136.44298,35.99391],[136.44292,35.99395],[136.44291,35.99397],[136.44307,35.9943],[136.44323,35.99422],[136.44332,35.99413],[136.4433,35.99411]]]}},{"type":"Feature","properties":{"pid":"8369b942-f586-4339-a2b4-62c5db6487b9","full":4.4},"geometry":{"type":"Polygon","coordinates":[[[136.4436,35.99395],[136.44347,35.9937],[136.44321,35.99376],[136.44316,35.99378],[136.44333,35.99412],[136.44346,35.994],[136.44351,35.99397],[136.4436,35.99395]]]}},{"type":"Feature","properties":{"pid":"56d32f9c-95f5-4348-b743-21200e01d5b2","full":1.5},"geometry":{"type":"Polygon","coordinates":[[[136.44327,35.99468],[136.44312,35.99433],[136.44297,35.9944],[136.44312,35.99472],[136.44327,35.99468]]]}},{"type":"Feature","properties":{"pid":"3d70c981-8791-4007-93e1-06188f850003","full":0.7},"geometry":{"type":"Polygon","coordinates":[[[136.44352,35.9946],[136.44334,35.9942],[136.44323,35.99426],[136.4434,35.99464],[136.44352,35.9946]]]}},{"type":"Feature","properties":{"pid":"db2707fe-d3df-4e8c-aaaf-5797625c866b","full":13.7},"geometry":{"type":"Polygon","coordinates":[[[136.44288,35.99445],[136.44284,35.99444],[136.44272,35.99446],[136.44242,35.99463],[136.4423,35.99473],[136.44204,35.995],[136.44206,35.99501],[136.44302,35.99475],[136.44288,35.99445]]]}},{"type":"Feature","properties":{"pid":"9b49dc4d-e436-4cbb-8727-66a90e98506c","full":7.0},"geometry":{"type":"Polygon","coordinates":[[[136.44246,35.99451],[136.44228,35.99417],[136.44218,35.99419],[136.44197,35.99426],[136.44219,35.99467],[136.44224,35.99467],[136.44237,35.99455],[136.44246,35.99451]]]}},{"type":"Feature","properties":{"pid":"ba3654f9-6eb0-4005-9987-8aca169fb4aa","full":5.1},"geometry":{"type":"Polygon","coordinates":[[[136.44274,35.99439],[136.44257,35.99405],[136.4423,35.99416],[136.44246,35.99451],[136.44265,35.99441],[136.44274,35.99439]]]}},{"type":"Feature","properties":{"pid":"9b1e2761-49ca-455c-b75d-99c1a40a8fdc","full":6.1},"geometry":{"type":"Polygon","coordinates":[[[136.44306,35.9943],[136.4429,35.99397],[136.44269,35.99401],[136.44259,35.99405],[136.44275,35.99439],[136.4429,35.99437],[136.44306,35.9943]]]}},{"type":"Feature","properties":{"pid":"4f89bcba-f991-43d2-a334-20ce631503a7","full":4.4},"geometry":{"type":"Polygon","coordinates":[[[136.44177,35.99468],[136.44094,35.99464],[136.44093,35.99479],[136.4418,35.99483],[136.4418,35.99469],[136.44177,35.99468]]]}},{"type":"Feature","properties":{"pid":"14068b98-5eff-4220-b1e9-ad0b9b0fd71a","full":5.4},"geometry":{"type":"Polygon","coordinates":[[[136.44172,35.99486],[136.44092,35.99483],[136.44091,35.99494],[136.44092,35.99499],[136.44166,35.99502],[136.44174,35.99502],[136.44175,35.99488],[136.44172,35.99486]]]}},{"type":"Feature","properties":{"pid":"9d84a011-f927-4716-bf7e-49b5c2af8499","full":4.1},"geometry":{"type":"Polygon","coordinates":[[[136.4411,35.99447],[136.44104,35.99444],[136.44095,35.99449],[136.44095,35.9946],[136.44098,35.99462],[136.44178,35.99465],[136.4418,35.9946],[136.44172,35.99451],[136.4411,35.99447]]]}},{"type":"Feature","properties":{"pid":"77c5616b-5f23-44ac-a2a5-7fe4bed69792","full":5.8},"geometry":{"type":"Polygon","coordinates":[[[136.44179,35.99425],[136.44141,35.99421],[136.44129,35.99432],[136.44112,35.99442],[136.44113,35.99444],[136.44182,35.99447],[136.44182,35.99426],[136.44179,35.99425]]]}},{"type":"Feature","properties":{"pid":"aa505a1e-1969-4a3b-aa76-164253c8ac80","full":2.3},"geometry":{"type":"Polygon","coordinates":[[[136.44182,35.99395],[136.44178,35.99392],[136.4417,35.99393],[136.44157,35.994],[136.44151,35.99401],[136.44143,35.99414],[136.44181,35.99417],[136.44182,35.99395]]]}},{"type":"Feature","properties":{"pid":"9d0b277f-09be-4ed0-89f6-429fb2792a1d","full":2.7},"geometry":{"type":"Polygon","coordinates":[[[136.4424,35.99407],[136.44234,35.99396],[136.44231,35.99394],[136.44221,35.99395],[136.44192,35.99402],[136.44192,35.99418],[136.44199,35.99419],[136.4424,35.99407]]]}},{"type":"Feature","properties":{"pid":"540e19ff-b3a0-4caa-a40d-dbe53b6b8e05","full":2.5},"geometry":{"type":"Polygon","coordinates":[[[136.43867,35.99484],[136.43835,35.99477],[136.43829,35.99481],[136.43829,35.99486],[136.4383,35.99492],[136.43856,35.99498],[136.43882,35.99503],[136.43885,35.99492],[136.43876,35.99491],[136.43871,35.99489],[136.43867,35.99484]]]}},{"type":"Feature","properties":{"pid":"82d2d3a5-da96-4358-a67a-aadfa9d30b29","full":3.2},"geometry":{"type":"Polygon","coordinates":[[[136.44082,35.99482],[136.4402,35.9948],[136.44017,35.99489],[136.44024,35.99495],[136.44081,35.99497],[136.44082,35.99482]]]}},{"type":"Feature","properties":{"pid":"189c25ec-8791-4594-a59a-393e55541565","full":4.0},"geometry":{"type":"Polygon","coordinates":[[[136.44083,35.99455],[136.44081,35.99455],[136.44047,35.99463],[136.44024,35.99463],[136.4402,35.99477],[136.44082,35.99479],[136.44083,35.99455]]]}},{"type":"Feature","properties":{"pid":"3960c1ee-78a7-4aee-917d-be81a8303b7c","full":2.7},"geometry":{"type":"Polygon","coordinates":[[[136.44082,35.99499],[136.44035,35.99497],[136.44036,35.99506],[136.44042,35.99514],[136.4408,35.99517],[136.44082,35.99516],[136.44082,35.99499]]]}},{"type":"Feature","properties":{"pid":"803b4910-3795-469a-85c4-4e66a4d7b14c","full":14.3},"geometry":{"type":"Polygon","coordinates":[[[136.4401,35.99492],[136.44001,35.99491],[136.43996,35.99492],[136.43992,35.99494],[136.43987,35.99506],[136.43973,35.99521],[136.43986,35.99542],[136.43991,35.99543],[136.44015,35.99539],[136.44018,35.99535],[136.44042,35.99532],[136.44044,35.99528],[136.4404,35.9952],[136.4401,35.99492]]]}},{"type":"Feature","properties":{"pid":"5c89040b-47b4-4791-b54d-f3843ac77d6c","full":3.1},"geometry":{"type":"Polygon","coordinates":[[[136.43875,35.99644],[136.4384,35.99638],[136.43835,35.99662],[136.43849,35.99663],[136.43863,35.99666],[136.4387,35.99657],[136.43875,35.99644]]]}},{"type":"Feature","properties":{"pid":"4e9228a6-bb7c-49bb-9b30-48790e4cb4c6","full":4.9},"geometry":{"type":"Polygon","coordinates":[[[136.43892,35.99619],[136.43847,35.99612],[136.4384,35.99637],[136.43875,35.99643],[136.43892,35.99619]]]}},{"type":"Feature","properties":{"pid":"31e28f20-7c61-48d9-9b01-7747a2011e12","full":2.8},"geometry":{"type":"Polygon","coordinates":[[[136.43919,35.99607],[136.43852,35.99595],[136.43848,35.99607],[136.4385,35.9961],[136.43895,35.99618],[136.43919,35.99607]]]}},{"type":"Feature","properties":{"pid":"876452fb-da77-4ba8-9821-505ae50e975f","full":1.1},"geometry":{"type":"Polygon","coordinates":[[[136.43944,35.99569],[136.43941,35.99569],[136.43938,35.99574],[136.43882,35.99581],[136.4388,35.99584],[136.43937,35.99593],[136.43937,35.99583],[136.43944,35.99569]]]}},{"type":"Feature","properties":{"pid":"cce6527a-dbc9-4f6a-83de-584f751f397f","full":5.8},"geometry":{"type":"Polygon","coordinates":[[[136.43945,35.99535],[136.4389,35.99526],[136.43881,35.99554],[136.4394,35.99549],[136.43945,35.99535]]]}},{"type":"Feature","properties":{"pid":"4f4fdbc3-5a20-471c-a334-0c3593360f5e","full":5.7},"geometry":{"type":"Polygon","coordinates":[[[136.4396,35.99522],[136.43968,35.99487],[136.43954,35.99492],[136.4394,35.99495],[136.43934,35.99497],[136.43925,35.99526],[136.43953,35.99531],[136.4396,35.99522]]]}},{"type":"Feature","properties":{"pid":"d8714ada-2f25-41da-95ea-69d984541b26","full":3.9},"geometry":{"type":"Polygon","coordinates":[[[136.43932,35.995],[136.43929,35.99497],[136.43902,35.99499],[136.43898,35.99503],[136.43892,35.99521],[136.43904,35.99524],[136.43924,35.99526],[136.43925,35.99525],[136.43932,35.995]]]}},{"type":"Feature","properties":{"pid":"75128cd5-6ddd-4b40-9c66-8c83174f5fb5","full":3.8},"geometry":{"type":"Polygon","coordinates":[[[136.43874,35.99542],[136.43817,35.99531],[136.43814,35.99538],[136.43814,35.9955],[136.43852,35.99554],[136.4387,35.99555],[136.43871,35.99553],[136.43874,35.99542]]]}},{"type":"Feature","properties":{"pid":"885be816-349f-4cbc-9626-45ce1e7e2998","full":2.5},"geometry":{"type":"Polygon","coordinates":[[[136.43878,35.99523],[136.43822,35.99515],[136.43817,35.99528],[136.43874,35.99538],[136.43878,35.99523]]]}},{"type":"Feature","properties":{"pid":"90411d6b-a1ef-4514-ba88-aae635ad95ab","full":3.6},"geometry":{"type":"Polygon","coordinates":[[[136.43882,35.99505],[136.43828,35.99496],[136.43823,35.99505],[136.43822,35.99512],[136.43877,35.99521],[136.43882,35.99505]]]}},{"type":"Feature","properties":{"pid":"f0504865-c7fb-4d55-83cf-b3b825de7401","full":2.8},"geometry":{"type":"Polygon","coordinates":[[[136.43835,35.99622],[136.43752,35.99608],[136.43754,35.99619],[136.43756,35.99621],[136.43832,35.99634],[136.43835,35.99622]]]}},{"type":"Feature","properties":{"pid":"1494e2de-e967-45cd-97df-a8eedd6e9654","full":10.8},"geometry":{"type":"Polygon","coordinates":[[[136.43843,35.99588],[136.4375,35.99593],[136.43752,35.99607],[136.43835,35.9962],[136.43843,35.99588]]]}},{"type":"Feature","properties":{"pid":"a549d132-6a35-4cc6-bec6-94fc99ea8a86","full":4.1},"geometry":{"type":"Polygon","coordinates":[[[136.4383,35.99645],[136.43759,35.99633],[136.43763,35.99639],[136.43763,35.99651],[136.43826,35.99661],[136.4383,35.99645]]]}},{"type":"Feature","properties":{"pid":"1dd862b7-c484-4833-b93f-33cebbeabf6d","full":1.9},"geometry":{"type":"Polygon","coordinates":[[[136.43822,35.99663],[136.43764,35.99654],[136.43762,35.99668],[136.43812,35.99674],[136.43821,35.99666],[136.43822,35.99663]]]}},{"type":"Feature","properties":{"pid":"d57949e9-9c52-4867-9b70-992952581d59","full":3.7},"geometry":{"type":"Polygon","coordinates":[[[136.43806,35.99675],[136.43763,35.9967],[136.43761,35.99671],[136.43754,35.99695],[136.43783,35.99693],[136.43793,35.99689],[136.43809,35.99679],[136.43806,35.99675]]]}},{"type":"Feature","properties":{"pid":"ebed6fbc-05d0-4f5a-8189-d711ddbe41e4","full":10.5},"geometry":{"type":"Polygon","coordinates":[[[136.43838,35.99672],[136.43827,35.99673],[136.43791,35.99698],[136.43788,35.99701],[136.43781,35.9975],[136.43786,35.99753],[136.43814,35.99761],[136.43808,35.9974],[136.43807,35.99724],[136.43811,35.99711],[136.43816,35.99705],[136.43839,35.99685],[136.43849,35.99678],[136.43847,35.99675],[136.43838,35.99672]]]}},{"type":"Feature","properties":{"pid":"d5bde41a-0890-4a68-b0e0-1803f19e9965","full":6.1},"geometry":{"type":"Polygon","coordinates":[[[136.43779,35.99749],[136.43784,35.99701],[136.43777,35.99701],[136.43758,35.99701],[136.43754,35.99703],[136.4375,35.9974],[136.43779,35.99749]]]}},{"type":"Feature","properties":{"pid":"59c7662a-9ee1-4f69-81cf-6a51c8ac63d1","full":1.1},"geometry":{"type":"Polygon","coordinates":[[[136.43749,35.99739],[136.43753,35.99703],[136.43729,35.99724],[136.43721,35.99727],[136.43719,35.99729],[136.43749,35.99739]]]}},{"type":"Feature","properties":{"pid":"b988388d-fa6c-4f89-bec2-ccca366d262b","full":6.9},"geometry":{"type":"Polygon","coordinates":[[[136.43714,35.99736],[136.4371,35.99734],[136.43704,35.99736],[136.43693,35.99744],[136.43676,35.9975],[136.43677,35.99756],[136.43673,35.99767],[136.43666,35.99781],[136.43647,35.99801],[136.43648,35.99805],[136.43668,35.99815],[136.43714,35.99736]]]}},{"type":"Feature","properties":{"pid":"179c84bb-8579-495b-9f43-4842a43f2e54","full":18.1},"geometry":{"type":"Polygon","coordinates":[[[136.4365,35.99749],[136.43624,35.9974],[136.43621,35.99741],[136.43598,35.99793],[136.43635,35.99807],[136.4364,35.99798],[136.43654,35.99784],[136.43662,35.99775],[136.43667,35.9976],[136.43666,35.99751],[136.4365,35.99749]]]}},{"type":"Feature","properties":{"pid":"fe04dc02-5cde-4c2f-94f3-8fc4ab922dde","full":3.8},"geometry":{"type":"Polygon","coordinates":[[[136.4358,35.99837],[136.43614,35.99836],[136.43617,35.99835],[136.43617,35.99819],[136.43587,35.9981],[136.43586,35.99812],[136.43582,35.99811],[136.43575,35.99836],[136.4358,35.99837]]]}},{"type":"Feature","properties":{"pid":"caee6bdc-8d37-4a61-9bf0-d2d20dc72395","full":0.8},"geometry":{"type":"Polygon","coordinates":[[[136.43593,35.99857],[136.43591,35.99841],[136.43572,35.9984],[136.43572,35.99861],[136.43593,35.99857]]]}},{"type":"Feature","properties":{"pid":"8c0c26ac-7019-49f2-b5e3-777e483a3bcf","full":5.4},"geometry":{"type":"Polygon","coordinates":[[[136.43785,35.99834],[136.43756,35.99824],[136.43738,35.99853],[136.43768,35.99867],[136.43785,35.99834]]]}},{"type":"Feature","properties":{"pid":"7120d6af-c978-4ee1-90b7-8e27bd9cd92a","full":27.6},"geometry":{"type":"Polygon","coordinates":[[[136.43755,35.9975],[136.43716,35.99737],[136.43671,35.99815],[136.43711,35.99834],[136.43756,35.99754],[136.43755,35.9975]]]}},{"type":"Feature","properties":{"pid":"e460d051-ead8-4cd0-b04d-5f3201710ea0","full":16.0},"geometry":{"type":"Polygon","coordinates":[[[136.43787,35.99763],[136.43784,35.99762],[136.43784,35.99761],[136.43758,35.99752],[136.43713,35.99834],[136.43738,35.99846],[136.43787,35.99763]]]}},{"type":"Feature","properties":{"pid":"b49b2af6-a408-4cbb-829c-1dcc154ba521","full":13.3},"geometry":{"type":"Polygon","coordinates":[[[136.43815,35.99773],[136.43789,35.99762],[136.43754,35.99822],[136.43785,35.99832],[136.43788,35.99825],[136.43816,35.99787],[136.43818,35.99777],[136.43815,35.99773]]]}},{"type":"Feature","properties":{"pid":"10bdf19f-0fab-4df6-b406-2ee65b40c4e0","full":4.8},"geometry":{"type":"Polygon","coordinates":[[[136.44173,35.99504],[136.44091,35.995],[136.4409,35.99516],[136.44092,35.99517],[136.44138,35.9952],[136.44172,35.99513],[136.44173,35.99504]]]}},{"type":"Feature","properties":{"pid":"470d9465-8795-404d-abc7-c81a92dc0c4a","full":17.8},"geometry":{"type":"Polygon","coordinates":[[[136.44585,36.00063],[136.4458,36.00062],[136.44567,36.00063],[136.44546,36.00057],[136.44534,36.00051],[136.44524,36.0005],[136.44498,36.00053],[136.44501,36.0009],[136.44586,36.00088],[136.44585,36.00063]]]}},{"type":"Feature","properties":{"pid":"944b97a1-1d6b-4fbb-86f2-9f6edc1b3774","full":4.1},"geometry":{"type":"Polygon","coordinates":[[[136.44558,36.00158],[136.44576,36.00132],[136.44566,36.00122],[136.44563,36.00122],[136.44548,36.00127],[136.44545,36.00139],[136.44521,36.00136],[136.44519,36.00145],[136.44521,36.00148],[136.44558,36.00158]]]}},{"type":"Feature","properties":{"pid":"2786b1bd-3f09-44fb-9c9d-d532c0614efb","full":1.6},"geometry":{"type":"Polygon","coordinates":[[[136.44592,36.00144],[136.44577,36.00133],[136.44576,36.00134],[136.44558,36.00159],[136.44567,36.00163],[136.44576,36.00165],[136.44592,36.00144]]]}},{"type":"Feature","properties":{"pid":"655d730a-fe28-471c-a2f5-2f7b05253a19","full":1.3},"geometry":{"type":"Polygon","coordinates":[[[136.44614,36.00154],[136.44598,36.00146],[136.44596,36.00146],[136.4458,36.00168],[136.446,36.00172],[136.44614,36.00154]]]}},{"type":"Feature","properties":{"pid":"68607036-4512-4b02-ae62-54a2c6f1123a","full":2.3},"geometry":{"type":"Polygon","coordinates":[[[136.44426,36.00073],[136.44416,36.0007],[136.44414,36.00072],[136.44413,36.00097],[136.44466,36.00094],[136.44465,36.00091],[136.44461,36.00088],[136.44449,36.00086],[136.4444,36.00082],[136.44426,36.00073]]]}},{"type":"Feature","properties":{"pid":"515a5ac3-2e12-4628-8060-6f0d3e0c6c69","full":9.9},"geometry":{"type":"Polygon","coordinates":[[[136.44497,36.00092],[136.44494,36.00052],[136.44474,36.00052],[136.44461,36.00051],[136.44451,36.00052],[136.4444,36.00055],[136.44443,36.00073],[136.44448,36.00078],[136.4446,36.00079],[136.44469,36.00083],[136.44474,36.0009],[136.44479,36.00093],[136.44497,36.00092]]]}},{"type":"Feature","properties":{"pid":"30350da2-017a-4529-bc3e-11aaff20fd89","full":7.6},"geometry":{"type":"Polygon","coordinates":[[[136.44374,36.00056],[136.4437,36.00056],[136.44367,36.00096],[136.44409,36.00094],[136.4441,36.00074],[136.44409,36.0007],[136.44395,36.0006],[136.44374,36.00056]]]}},{"type":"Feature","properties":{"pid":"05ad4759-4839-43af-b360-2b95e3f70a10","full":11.0},"geometry":{"type":"Polygon","coordinates":[[[136.44355,36.00053],[136.4433,36.00052],[136.44323,36.00054],[136.44322,36.00096],[136.44325,36.00096],[136.44365,36.00095],[136.44367,36.00056],[136.44355,36.00053]]]}},{"type":"Feature","properties":{"pid":"f07b77e7-d0dd-44b7-9ee8-a98beb925fa6","full":12.0},"geometry":{"type":"Polygon","coordinates":[[[136.44297,36.00047],[136.44287,36.00045],[136.44282,36.00047],[136.44278,36.00048],[136.44277,36.00093],[136.4428,36.00094],[136.44322,36.00096],[136.44322,36.00055],[136.44308,36.00053],[136.44297,36.00047]]]}},{"type":"Feature","properties":{"pid":"a1ffea2b-0a06-4cad-bcab-05318b3b64f4","full":11.7},"geometry":{"type":"Polygon","coordinates":[[[136.44239,36.00039],[136.44236,36.00039],[136.44233,36.00088],[136.44275,36.00094],[136.44276,36.00048],[136.44268,36.00047],[136.44239,36.00039]]]}},{"type":"Feature","properties":{"pid":"0be0668a-850f-453c-823b-d159785dfda7","full":2.8},"geometry":{"type":"Polygon","coordinates":[[[136.44166,36.0009],[136.44128,36.00079],[136.44125,36.00079],[136.44132,36.001],[136.44145,36.00105],[136.44164,36.00105],[136.44168,36.00095],[136.44166,36.0009]]]}},{"type":"Feature","properties":{"pid":"c8e76b4d-23e0-49b8-85c0-e049cc6f1a93","full":13.4},"geometry":{"type":"Polygon","coordinates":[[[136.44214,36.00031],[136.44191,36.0003],[136.4419,36.00079],[136.44191,36.00081],[136.44205,36.00085],[136.44231,36.00088],[136.44232,36.00038],[136.44214,36.00031]]]}},{"type":"Feature","properties":{"pid":"9ed6010f-5410-4350-8de4-54d1ae327997","full":11.6},"geometry":{"type":"Polygon","coordinates":[[[136.44159,36.00029],[136.44146,36.00025],[136.44145,36.00069],[136.4418,36.00078],[136.44187,36.00079],[136.44188,36.0003],[136.44159,36.00029]]]}},{"type":"Feature","properties":{"pid":"6fbaea92-729d-45df-9268-eff4247334f8","full":9.0},"geometry":{"type":"Polygon","coordinates":[[[136.44143,36.00024],[136.44129,36.0002],[136.44112,36.0002],[136.44102,36.00023],[136.44102,36.00052],[136.44103,36.00053],[136.44141,36.00067],[136.44142,36.00065],[136.44143,36.00024]]]}},{"type":"Feature","properties":{"pid":"e4d994ed-046e-439c-8b4e-69b51de2065f","full":3.8},"geometry":{"type":"Polygon","coordinates":[[[136.44061,35.99987],[136.44051,35.99983],[136.44042,35.99981],[136.4404,35.99981],[136.44054,36.00017],[136.4409,36.00014],[136.44092,36.00004],[136.44074,35.99998],[136.44061,35.99987]]]}},{"type":"Feature","properties":{"pid":"2ece62b7-5cdd-4b5c-a052-ce9ec97b60b7","full":5.3},"geometry":{"type":"Polygon","coordinates":[[[136.44009,35.99976],[136.43969,35.99979],[136.43969,35.9998],[136.43986,35.99993],[136.44038,36.00006],[136.4404,36.00008],[136.44041,36.00007],[136.44029,35.99979],[136.44022,35.99979],[136.44015,35.99976],[136.44009,35.99976]]]}},{"type":"Feature","properties":{"pid":"566199bf-6d0b-434e-8a50-a9a374c3893e","full":7.5},"geometry":{"type":"Polygon","coordinates":[[[136.43737,35.99874],[136.43713,35.99862],[136.43701,35.99865],[136.43701,35.99896],[136.43704,35.99897],[136.43734,35.99907],[136.43739,35.99907],[136.43745,35.99905],[136.43754,35.99894],[136.43735,35.99887],[136.43737,35.99874]]]}},{"type":"Feature","properties":{"pid":"00c2cfb2-b9d4-4d6d-9be3-69263bf8cb75","full":1.8},"geometry":{"type":"Polygon","coordinates":[[[136.44099,36.0005],[136.441,36.00024],[136.44073,36.00028],[136.44058,36.00028],[136.44056,36.00029],[136.44061,36.00034],[136.44065,36.00036],[136.44099,36.0005]]]}},{"type":"Feature","properties":{"pid":"a184ca4c-ebe7-4efe-96eb-5cd2c65ca179","full":2.1},"geometry":{"type":"Polygon","coordinates":[[[136.43625,36.00465],[136.43606,36.00449],[136.43599,36.00452],[136.43593,36.00445],[136.43584,36.00438],[136.43579,36.00439],[136.43571,36.00444],[136.43615,36.00477],[136.43618,36.00477],[136.43623,36.00473],[136.43626,36.00469],[136.43625,36.00465]]]}},{"type":"Feature","properties":{"pid":"6aa138fc-a9c0-4544-b532-47e3b42d44c0","full":1.5},"geometry":{"type":"Polygon","coordinates":[[[136.43614,36.00479],[136.43569,36.00446],[136.43555,36.0045],[136.43554,36.00451],[136.43604,36.00487],[136.43614,36.00479]]]}},{"type":"Feature","properties":{"pid":"e1c5c7bf-5c49-4657-a032-c01d89522c9f","full":2.7},"geometry":{"type":"Polygon","coordinates":[[[136.43655,36.00498],[136.43648,36.00492],[136.43632,36.00508],[136.43659,36.00529],[136.43666,36.00529],[136.43672,36.00526],[136.43673,36.00522],[136.43655,36.00498]]]}},{"type":"Feature","properties":{"pid":"d536336e-2d7f-4799-9332-856c5c2d1a2a","full":2.4},"geometry":{"type":"Polygon","coordinates":[[[136.4364,36.00484],[136.4363,36.00475],[136.43622,36.00478],[136.4361,36.00494],[136.43629,36.00507],[136.43647,36.00492],[136.4364,36.00484]]]}},{"type":"Feature","properties":{"pid":"6745228b-fd44-4253-b9eb-d0634c05bf29","full":7.1},"geometry":{"type":"Polygon","coordinates":[[[136.43655,36.0053],[136.43609,36.00495],[136.43593,36.00509],[136.43611,36.00525],[136.43619,36.00539],[136.43637,36.00547],[136.43655,36.0053]]]}},{"type":"Feature","properties":{"pid":"009e09ae-532c-4cf0-9393-9c94c8b972da","full":2.9},"geometry":{"type":"Polygon","coordinates":[[[136.43684,36.00547],[136.43663,36.00535],[136.4366,36.00536],[136.43646,36.00549],[136.43652,36.00564],[136.43658,36.0057],[136.4366,36.0057],[136.43684,36.00547]]]}},{"type":"Feature","properties":{"pid":"54dc5880-a515-4b51-a634-4d8792ff49f2","full":1.5},"geometry":{"type":"Polygon","coordinates":[[[136.44627,36.00178],[136.44637,36.00163],[136.44623,36.00157],[136.44615,36.00155],[136.44601,36.00174],[136.44602,36.00175],[136.44608,36.00176],[136.44614,36.00176],[136.44627,36.00178]]]}},{"type":"Feature","properties":{"pid":"0cbbf454-1422-4f8b-a6e0-2273baf90886","full":6.6},"geometry":{"type":"Polygon","coordinates":[[[136.44796,36.00052],[136.44793,36.00034],[136.44763,36.00036],[136.44767,36.00076],[136.44806,36.00071],[136.44804,36.00064],[136.44801,36.00058],[136.44797,36.00055],[136.44796,36.00052]]]}},{"type":"Feature","properties":{"pid":"18cf4508-918b-492a-84ff-c314467d0ecd","full":6.2},"geometry":{"type":"Polygon","coordinates":[[[136.44761,36.00073],[136.44759,36.00042],[136.44732,36.00046],[136.44721,36.0005],[136.44722,36.00078],[136.44727,36.00078],[136.44761,36.00073]]]}},{"type":"Feature","properties":{"pid":"44becdc3-4252-4a61-926c-d330eada1bc9","full":6.0},"geometry":{"type":"Polygon","coordinates":[[[136.44716,36.00052],[136.44696,36.00049],[136.44691,36.0005],[136.44676,36.00058],[136.4468,36.00082],[136.44685,36.00083],[136.44706,36.00081],[136.44718,36.00079],[136.44716,36.00052]]]}},{"type":"Feature","properties":{"pid":"d969ea16-9901-4610-b4b9-335786a13d21","full":4.3},"geometry":{"type":"Polygon","coordinates":[[[136.44599,36.00062],[136.44587,36.00062],[136.44588,36.00088],[136.44609,36.00086],[136.44629,36.00086],[136.44627,36.00063],[136.4461,36.00063],[136.44599,36.00062]]]}},{"type":"Feature","properties":{"pid":"cc2dc9ff-c53b-4d74-8b28-f90ef101bcf7","full":2.2},"geometry":{"type":"Polygon","coordinates":[[[136.44661,36.00084],[136.4466,36.00062],[136.44648,36.00063],[136.44633,36.00061],[136.44634,36.00085],[136.44651,36.00085],[136.44661,36.00084]]]}},{"type":"Feature","properties":{"pid":"4cbdd890-027c-4a9f-a3b5-eae056b8ee6c","full":0.7},"geometry":{"type":"Polygon","coordinates":[[[136.43743,36.00645],[136.43739,36.00634],[136.43715,36.00646],[136.43744,36.00659],[136.43746,36.00658],[136.43743,36.00645]]]}},{"type":"Feature","properties":{"pid":"25bdc45e-47d3-4e73-be36-4e5f4ad244a0","full":3.0},"geometry":{"type":"Polygon","coordinates":[[[136.43747,36.00606],[136.43746,36.00603],[136.43708,36.00623],[136.43708,36.00632],[136.4371,36.0064],[136.43713,36.00645],[136.43738,36.00632],[136.43739,36.00625],[136.43747,36.00606]]]}},{"type":"Feature","properties":{"pid":"0d99496c-c256-4e08-a62e-25c20e60ce29","full":4.3},"geometry":{"type":"Polygon","coordinates":[[[136.43743,36.00588],[136.43728,36.00586],[136.43698,36.00604],[136.43706,36.00623],[136.43746,36.00602],[136.43746,36.00593],[136.43743,36.00588]]]}},{"type":"Feature","properties":{"pid":"cdc02fb1-c4c0-4863-a49c-b1f2e67b5c8c","full":3.6},"geometry":{"type":"Polygon","coordinates":[[[136.43695,36.00557],[136.43686,36.00549],[136.43683,36.00551],[136.43661,36.00572],[136.43662,36.00575],[136.43682,36.00588],[136.43684,36.00588],[136.43701,36.00571],[136.43698,36.00568],[136.43695,36.00557]]]}},{"type":"Feature","properties":{"pid":"9bfbf58e-6cf5-4242-9d56-82c97cebc3bb","full":1.3},"geometry":{"type":"Polygon","coordinates":[[[136.43723,36.00585],[136.43707,36.00571],[136.43686,36.00591],[136.43696,36.00599],[136.43723,36.00585]]]}},{"type":"Feature","properties":{"pid":"f7d67c69-5571-45e0-af46-af0297ab5a57","full":1.2},"geometry":{"type":"Polygon","coordinates":[[[136.43677,36.006],[136.43669,36.00597],[136.43665,36.00599],[136.43671,36.00623],[136.43677,36.00628],[136.43692,36.00625],[136.43683,36.00606],[136.43677,36.006]]]}},{"type":"Feature","properties":{"pid":"b8217283-9cf6-4e89-a934-a51d0b1cbcb2","full":4.2},"geometry":{"type":"Polygon","coordinates":[[[136.43694,36.00637],[136.43689,36.00632],[136.4368,36.00636],[136.43681,36.0064],[136.43687,36.00648],[136.43689,36.00662],[136.43693,36.0068],[136.43696,36.00684],[136.43705,36.00688],[136.43732,36.00664],[136.4373,36.00663],[136.43705,36.00655],[136.437,36.0065],[136.43695,36.00644],[136.43694,36.00637]]]}},{"type":"Feature","properties":{"pid":"009771f9-9c65-407a-b066-eaede9a35682","full":5.0},"geometry":{"type":"Polygon","coordinates":[[[136.43749,36.0068],[136.43735,36.00668],[136.43707,36.00691],[136.43716,36.00693],[136.4372,36.00697],[136.43722,36.00702],[136.43757,36.00705],[136.43758,36.00702],[136.43753,36.00686],[136.43749,36.0068]]]}},{"type":"Feature","properties":{"pid":"badfddb4-b11c-4e95-8c47-6c5f02925cc9","full":2.8},"geometry":{"type":"Polygon","coordinates":[[[136.4287,36.0021],[136.42826,36.00211],[136.42823,36.00212],[136.4283,36.00219],[136.4283,36.0022],[136.42894,36.00234],[136.42894,36.00231],[136.42879,36.00214],[136.4287,36.0021]]]}},{"type":"Feature","properties":{"pid":"bb4d2a2a-c834-4616-9a0f-61c29ddb2ee7","full":5.6},"geometry":{"type":"Polygon","coordinates":[[[136.429,36.00238],[136.42833,36.00223],[136.42832,36.00224],[136.42844,36.00243],[136.4285,36.00246],[136.42917,36.00261],[136.42918,36.00257],[136.42916,36.00253],[136.429,36.00238]]]}},{"type":"Feature","properties":{"pid":"0899f1d2-ea3a-47dd-b900-6cfd2f014e69","full":5.8},"geometry":{"type":"Polygon","coordinates":[[[136.42935,36.00206],[136.42904,36.00205],[136.42888,36.00206],[136.42887,36.00207],[136.42907,36.00232],[136.4292,36.00243],[136.42924,36.00241],[136.42945,36.00208],[136.42935,36.00206]]]}},{"type":"Feature","properties":{"pid":"d9c79dba-3b51-42da-9d79-da503b3dc5b0","full":0.7},"geometry":{"type":"Polygon","coordinates":[[[136.42914,36.00277],[136.4286,36.00262],[136.42873,36.00276],[136.42879,36.00279],[136.42915,36.00289],[136.42919,36.00288],[136.42917,36.00279],[136.42914,36.00277]]]}},{"type":"Feature","properties":{"pid":"cacc3968-76a7-4904-9b0c-c4226c68f14a","full":7.8},"geometry":{"type":"Polygon","coordinates":[[[136.42955,36.0021],[136.42948,36.00209],[136.42923,36.00246],[136.42925,36.0025],[136.4294,36.0026],[136.42947,36.00262],[136.42974,36.00224],[136.42974,36.0022],[136.42955,36.0021]]]}},{"type":"Feature","properties":{"pid":"e2f97abc-f6a7-4270-aba2-d6d73a8573bb","full":7.3},"geometry":{"type":"Polygon","coordinates":[[[136.43001,36.00239],[136.42979,36.00223],[136.42976,36.00224],[136.42949,36.00263],[136.42976,36.00276],[136.43001,36.00239]]]}},{"type":"Feature","properties":{"pid":"83b8fbca-d43f-4c7e-b3bd-9984b3c0e141","full":4.3},"geometry":{"type":"Polygon","coordinates":[[[136.4305,36.00283],[136.43065,36.0027],[136.4306,36.00259],[136.43047,36.00255],[136.43031,36.00252],[136.43013,36.00278],[136.43027,36.00277],[136.43039,36.00278],[136.4305,36.00283]]]}},{"type":"Feature","properties":{"pid":"c8647849-41a4-491d-8207-4d4de85030ea","full":5.2},"geometry":{"type":"Polygon","coordinates":[[[136.43024,36.0025],[136.43006,36.00242],[136.43002,36.00242],[136.42979,36.00276],[136.42986,36.00279],[136.42999,36.00281],[136.43003,36.00279],[136.43011,36.00278],[136.4303,36.00251],[136.43024,36.0025]]]}},{"type":"Feature","properties":{"pid":"c39c0293-0564-4234-b3da-8cb5706466d5","full":2.0},"geometry":{"type":"Polygon","coordinates":[[[136.43031,36.00285],[136.43024,36.00286],[136.43015,36.00288],[136.43008,36.00304],[136.4303,36.00312],[136.43041,36.00292],[136.43039,36.00288],[136.43035,36.00286],[136.43031,36.00285]]]}},{"type":"Feature","properties":{"pid":"430ca103-699d-4acf-937a-72a918278aa6","full":2.1},"geometry":{"type":"Polygon","coordinates":[[[136.4307,36.00311],[136.43056,36.00301],[136.4305,36.00306],[136.43044,36.00301],[136.43037,36.00315],[136.43086,36.00333],[136.43087,36.00319],[136.4307,36.00311]]]}},{"type":"Feature","properties":{"pid":"f48f5fde-c435-4b21-968d-f5ffaabbcb6e","full":4.4},"geometry":{"type":"Polygon","coordinates":[[[136.43087,36.00335],[136.43038,36.00318],[136.43035,36.00318],[136.43027,36.00333],[136.43075,36.00351],[136.4308,36.00352],[136.43085,36.00343],[136.43087,36.00335]]]}},{"type":"Feature","properties":{"pid":"a455b63f-1a76-4ca1-a1b1-df9b4b7124eb","full":3.0},"geometry":{"type":"Polygon","coordinates":[[[136.43023,36.00313],[136.42981,36.00296],[136.4298,36.00297],[136.4298,36.00316],[136.43019,36.00329],[136.43027,36.00316],[136.43023,36.00313]]]}},{"type":"Feature","properties":{"pid":"207fbfcf-97d8-4658-b2c4-32c5fddfa8e1","full":2.3},"geometry":{"type":"Polygon","coordinates":[[[136.42961,36.00313],[136.42946,36.00313],[136.42942,36.00315],[136.4294,36.00317],[136.42939,36.00322],[136.42942,36.00325],[136.42962,36.00334],[136.42973,36.00345],[136.42983,36.00339],[136.42987,36.00336],[136.42979,36.00333],[136.42977,36.0033],[136.42977,36.00327],[136.42967,36.00316],[136.42961,36.00313]]]}},{"type":"Feature","properties":{"pid":"720f2869-ace2-49bd-81b1-c66f417fdece","full":1.1},"geometry":{"type":"Polygon","coordinates":[[[136.43017,36.00332],[136.42979,36.00319],[136.42978,36.0032],[136.42981,36.00325],[136.42982,36.0033],[136.42992,36.00335],[136.43005,36.0035],[136.43009,36.00348],[136.43013,36.00344],[136.43017,36.00332]]]}},{"type":"Feature","properties":{"pid":"a11b17a1-5bd7-4339-af2d-0fadb848830e","full":1.7},"geometry":{"type":"Polygon","coordinates":[[[136.42992,36.00377],[136.42984,36.00366],[136.42966,36.00366],[136.42965,36.00373],[136.42966,36.00382],[136.4297,36.00387],[136.42977,36.00392],[136.4298,36.00393],[136.42992,36.00377]]]}},{"type":"Feature","properties":{"pid":"476c8d82-9cac-43c9-a679-b545268c48b2","full":2.4},"geometry":{"type":"Polygon","coordinates":[[[136.43033,36.00382],[136.43008,36.00358],[136.42995,36.00368],[136.4302,36.00397],[136.43026,36.00394],[136.43032,36.00393],[136.43033,36.00382]]]}},{"type":"Feature","properties":{"pid":"65aab33a-430c-4e45-b880-0cd10cb570d8","full":1.2},"geometry":{"type":"Polygon","coordinates":[[[136.43043,36.0038],[136.43048,36.00365],[136.43017,36.00353],[136.43013,36.00353],[136.4301,36.00356],[136.43011,36.00358],[136.43034,36.0038],[136.4304,36.00379],[136.43043,36.0038]]]}},{"type":"Feature","properties":{"pid":"b101c04e-737c-4fd3-b665-7140579bb379","full":3.2},"geometry":{"type":"Polygon","coordinates":[[[136.43074,36.00366],[136.43077,36.00355],[136.43027,36.00336],[136.43024,36.00338],[136.43017,36.00351],[136.43047,36.00362],[136.43052,36.00362],[136.43074,36.00366]]]}},{"type":"Feature","properties":{"pid":"0c39bfac-e87b-4651-a2ca-bf4b22db3768","full":0.9},"geometry":{"type":"Polygon","coordinates":[[[136.43041,36.00385],[136.43036,36.00385],[136.43033,36.00408],[136.43054,36.00405],[136.43059,36.00395],[136.43051,36.00392],[136.43045,36.00386],[136.43041,36.00385]]]}},{"type":"Feature","properties":{"pid":"bccfafc7-fcc3-46e6-aa88-8d7ce5c6a82f","full":9.1},"geometry":{"type":"Polygon","coordinates":[[[136.43018,36.00447],[136.42958,36.00421],[136.42957,36.00423],[136.4296,36.00453],[136.43012,36.00474],[136.43012,36.00462],[136.43015,36.00455],[136.43018,36.00453],[136.43018,36.00447]]]}},{"type":"Feature","properties":{"pid":"e0aab2f1-75d8-41e0-9b7a-4c15476a68e6","full":10.2},"geometry":{"type":"Polygon","coordinates":[[[136.42978,36.00396],[136.42969,36.00391],[136.42958,36.00398],[136.42955,36.0041],[136.42956,36.00416],[136.43019,36.00444],[136.4302,36.00442],[136.4302,36.00416],[136.43018,36.00411],[136.42999,36.00407],[136.42978,36.00396]]]}},{"type":"Feature","properties":{"pid":"238a496b-f9d6-4c39-a143-3677893991a8","full":5.4},"geometry":{"type":"Polygon","coordinates":[[[136.43582,36.00507],[136.43595,36.00496],[136.43595,36.00492],[136.43568,36.00472],[136.43534,36.00505],[136.43536,36.00506],[136.43553,36.00505],[136.43582,36.00507]]]}},{"type":"Feature","properties":{"pid":"5d19345d-38fc-4146-8729-c894fec3ba26","full":1.5},"geometry":{"type":"Polygon","coordinates":[[[136.43564,36.00471],[136.43552,36.00464],[136.43518,36.00495],[136.4352,36.00501],[136.43528,36.00505],[136.43564,36.00471]]]}},{"type":"Feature","properties":{"pid":"5f04672a-7255-4ea8-9bf8-fe372d27a9f5","full":7.4},"geometry":{"type":"Polygon","coordinates":[[[136.43512,36.00437],[136.4349,36.00424],[136.43485,36.00426],[136.43455,36.00452],[136.43456,36.00455],[136.4346,36.00467],[136.43464,36.00471],[136.43476,36.00471],[136.43512,36.00437]]]}},{"type":"Feature","properties":{"pid":"cccb8938-65d7-4d49-8eeb-a206f4bfefd7","full":6.2},"geometry":{"type":"Polygon","coordinates":[[[136.43539,36.00454],[136.43517,36.00438],[136.43513,36.00439],[136.43479,36.00471],[136.43481,36.00472],[136.43498,36.00476],[136.43509,36.00481],[136.43539,36.00454]]]}},{"type":"Feature","properties":{"pid":"38983c87-32bb-4a6d-9fad-8ada84e7b3b7","full":1.3},"geometry":{"type":"Polygon","coordinates":[[[136.43542,36.00455],[136.43541,36.00454],[136.43511,36.00483],[136.43516,36.0049],[136.43518,36.00495],[136.43552,36.00463],[136.43542,36.00455]]]}},{"type":"Feature","properties":{"pid":"c8671fe2-b870-49c1-aba8-7341c343bcfd","full":1.6},"geometry":{"type":"Polygon","coordinates":[[[136.43554,36.00422],[136.43557,36.00445],[136.43559,36.00446],[136.43569,36.00444],[136.43573,36.0044],[136.43579,36.00437],[136.43579,36.00429],[136.43573,36.00421],[136.43566,36.00419],[136.43554,36.00422]]]}},{"type":"Feature","properties":{"pid":"7ebe5b02-2ab3-4395-a530-2f56c531fb6d","full":0.5},"geometry":{"type":"Polygon","coordinates":[[[136.43531,36.00413],[136.43518,36.00406],[136.43501,36.00422],[136.43514,36.0043],[136.43531,36.00413]]]}},{"type":"Feature","properties":{"pid":"7fc03fa5-6668-4e04-bec0-2d8efb08ae8f","full":3.5},"geometry":{"type":"Polygon","coordinates":[[[136.43507,36.00396],[136.43483,36.00382],[136.4348,36.00383],[136.43473,36.00391],[136.43466,36.00402],[136.43489,36.00416],[136.43491,36.00416],[136.43508,36.004],[136.43507,36.00396]]]}},{"type":"Feature","properties":{"pid":"dbda6eb8-2072-4418-bb30-d82ecd542c50","full":4.0},"geometry":{"type":"Polygon","coordinates":[[[136.43484,36.00422],[136.43459,36.00408],[136.43456,36.00409],[136.43439,36.00429],[136.43445,36.00434],[136.43456,36.00449],[136.43484,36.00422]]]}},{"type":"Feature","properties":{"pid":"fc4ab790-e6ae-4a59-832d-0f538235a9cb","full":1.7},"geometry":{"type":"Polygon","coordinates":[[[136.43414,36.00418],[136.4341,36.00403],[136.43387,36.00406],[136.43382,36.00421],[136.43398,36.00425],[136.43414,36.00418]]]}},{"type":"Feature","properties":{"pid":"979e9f92-91c7-4d00-a91b-d77ac47d8eb0","full":1.4},"geometry":{"type":"Polygon","coordinates":[[[136.43451,36.00406],[136.43441,36.004],[136.4342,36.00402],[136.43421,36.00412],[136.43433,36.00427],[136.43451,36.00406]]]}},{"type":"Feature","properties":{"pid":"bf5039a8-0071-47bb-bd9d-76f9fc5440e4","full":3.3},"geometry":{"type":"Polygon","coordinates":[[[136.43441,36.00446],[136.43433,36.00438],[136.43419,36.00447],[136.4342,36.00451],[136.43423,36.00454],[136.43424,36.00466],[136.43433,36.00477],[136.43445,36.00486],[136.43453,36.00487],[136.43452,36.00477],[136.43441,36.00446]]]}},{"type":"Feature","properties":{"pid":"317c4e1b-98bd-4deb-92b5-1873238af56a","full":2.5},"geometry":{"type":"Polygon","coordinates":[[[136.4335,36.00363],[136.43327,36.00361],[136.4331,36.00365],[136.43308,36.00368],[136.43311,36.00378],[136.43338,36.00384],[136.4335,36.00363]]]}},{"type":"Feature","properties":{"pid":"0e9c028d-aee6-4e27-9429-aa519fade95a","full":7.0},"geometry":{"type":"Polygon","coordinates":[[[136.43388,36.004],[136.43389,36.00388],[136.43396,36.00383],[136.43381,36.00372],[136.43353,36.00365],[136.43341,36.00389],[136.43347,36.00391],[136.43347,36.00398],[136.43382,36.00401],[136.43388,36.004]]]}},{"type":"Feature","properties":{"pid":"96c2e32e-78af-4e1f-b1e2-188f49eb0eb8","full":3.9},"geometry":{"type":"Polygon","coordinates":[[[136.43413,36.00358],[136.43367,36.00338],[136.4336,36.00358],[136.43382,36.00365],[136.43388,36.00368],[136.43403,36.00379],[136.43413,36.00358]]]}},{"type":"Feature","properties":{"pid":"9b7f21d5-c366-4c66-91ff-b8ef8aa220f0","full":4.2},"geometry":{"type":"Polygon","coordinates":[[[136.4334,36.00333],[136.43332,36.00335],[136.43308,36.0033],[136.43306,36.00354],[136.4331,36.00354],[136.4333,36.00351],[136.43349,36.00355],[136.43353,36.00355],[136.43356,36.0035],[136.43362,36.00337],[136.43348,36.00332],[136.4334,36.00333]]]}},{"type":"Feature","properties":{"pid":"ef614eec-2817-486c-b37c-271935a93c75","full":1.3},"geometry":{"type":"Polygon","coordinates":[[[136.43433,36.00381],[136.43422,36.00365],[136.43418,36.00361],[136.43409,36.00382],[136.43412,36.00386],[136.43418,36.00396],[136.43427,36.00396],[136.43433,36.00381]]]}},{"type":"Feature","properties":{"pid":"21decb92-73d8-4158-b1c6-36b3e40c2b3e","full":1.4},"geometry":{"type":"Polygon","coordinates":[[[136.4348,36.00354],[136.43473,36.0035],[136.43466,36.00352],[136.43464,36.00353],[136.43463,36.00358],[136.43456,36.00363],[136.43457,36.00366],[136.43457,36.00369],[136.43472,36.00375],[136.43485,36.0037],[136.43484,36.00366],[136.4348,36.00354]]]}},{"type":"Feature","properties":{"pid":"d3eb4150-1b8a-48a0-8083-147ed5733f31","full":1.6},"geometry":{"type":"Polygon","coordinates":[[[136.43511,36.00362],[136.43502,36.00343],[136.43488,36.00346],[136.4348,36.00349],[136.4348,36.00351],[136.43483,36.00354],[136.43488,36.00368],[136.43511,36.00362]]]}},{"type":"Feature","properties":{"pid":"297d59e8-f382-4807-a88b-9c9359337c2e","full":1.5},"geometry":{"type":"Polygon","coordinates":[[[136.43526,36.00366],[136.43524,36.00365],[136.43507,36.0037],[136.43483,36.00379],[136.43511,36.00395],[136.43517,36.00386],[136.43517,36.0038],[136.43521,36.0037],[136.43526,36.00366]]]}},{"type":"Feature","properties":{"pid":"7aa7c719-d331-4e96-a64d-5d59bcbf20f1","full":0.7},"geometry":{"type":"Polygon","coordinates":[[[136.43523,36.00344],[136.43518,36.00341],[136.4351,36.00341],[136.43506,36.00342],[136.43514,36.00361],[136.43533,36.00355],[136.43533,36.00347],[136.43529,36.00347],[136.43526,36.00345],[136.43523,36.00344]]]}},{"type":"Feature","properties":{"pid":"ac4c8bb4-1f13-478b-9144-29dc62521ebd","full":1.4},"geometry":{"type":"Polygon","coordinates":[[[136.43273,36.00325],[136.43247,36.0032],[136.43249,36.00331],[136.43251,36.00336],[136.43257,36.00342],[136.43263,36.00345],[136.43272,36.00347],[136.43273,36.00325]]]}},{"type":"Feature","properties":{"pid":"10a49dbf-4646-440c-90ce-a9574b5c5aab","full":2.8},"geometry":{"type":"Polygon","coordinates":[[[136.43303,36.00331],[136.43277,36.00325],[136.43274,36.00326],[136.43274,36.00349],[136.43296,36.00356],[136.43301,36.00354],[136.43303,36.00331]]]}},{"type":"Feature","properties":{"pid":"1a3f7292-93b1-4ba8-9c5b-b7a028598c66","full":3.6},"geometry":{"type":"Polygon","coordinates":[[[136.43238,36.00318],[136.43227,36.00316],[136.43232,36.00373],[136.43241,36.00372],[136.43246,36.00366],[136.43262,36.00363],[136.43277,36.00363],[136.43275,36.00357],[136.43267,36.00353],[136.43249,36.00345],[136.43243,36.0034],[136.43238,36.00318]]]}},{"type":"Feature","properties":{"pid":"308f590c-f9e5-4834-a46d-363147f739a7","full":6.5},"geometry":{"type":"Polygon","coordinates":[[[136.4323,36.00374],[136.43225,36.00316],[136.43217,36.00317],[136.43199,36.00313],[136.43205,36.00368],[136.43225,36.00374],[136.4323,36.00374]]]}},{"type":"Feature","properties":{"pid":"e5a977d7-ef28-44da-8a3d-58dce006e3d9","full":7.9},"geometry":{"type":"Polygon","coordinates":[[[136.43174,36.0037],[136.43169,36.00308],[136.43143,36.0031],[136.43148,36.00375],[136.43163,36.00371],[136.43174,36.0037]]]}},{"type":"Feature","properties":{"pid":"3b45924e-7dee-4195-a73d-1280400b4dc9","full":7.1},"geometry":{"type":"Polygon","coordinates":[[[136.43197,36.00313],[136.43171,36.00309],[136.43176,36.00369],[136.43202,36.00367],[136.43197,36.00313]]]}},{"type":"Feature","properties":{"pid":"8c625840-a12a-475b-914c-4be345d291c8","full":10.1},"geometry":{"type":"Polygon","coordinates":[[[136.43147,36.00375],[136.43141,36.0031],[136.43133,36.0031],[136.43116,36.00318],[136.43118,36.00353],[136.43113,36.00357],[136.43111,36.0036],[136.43108,36.00379],[136.43112,36.0038],[136.43126,36.00379],[136.43147,36.00375]]]}},{"type":"Feature","properties":{"pid":"b1b55ad6-ca05-48b9-aa15-b9a17a6d4658","full":1.1},"geometry":{"type":"Polygon","coordinates":[[[136.43117,36.00353],[136.43115,36.00317],[136.43109,36.00317],[136.43102,36.00318],[136.43099,36.0032],[136.43102,36.00352],[136.43114,36.00355],[136.43117,36.00353]]]}},{"type":"Feature","properties":{"pid":"30cf35a6-ece7-4bd1-aef0-f5d1211360df","full":2.2},"geometry":{"type":"Polygon","coordinates":[[[136.4311,36.00291],[136.43092,36.00287],[136.43081,36.00308],[136.43084,36.00309],[136.43093,36.00312],[136.43116,36.00305],[136.43125,36.00301],[136.43126,36.00298],[136.4311,36.00291]]]}},{"type":"Feature","properties":{"pid":"b5a2cfb9-80a7-450d-8043-1c9f93566ca7","full":1.8},"geometry":{"type":"Polygon","coordinates":[[[136.43086,36.00286],[136.4307,36.00275],[136.43057,36.00287],[136.4307,36.003],[136.43081,36.00307],[136.43091,36.00288],[136.43086,36.00286]]]}},{"type":"Feature","properties":{"pid":"f4512723-4877-4ac0-a761-73b72ed109c7","full":1.4},"geometry":{"type":"Polygon","coordinates":[[[136.42865,36.00193],[136.42859,36.00189],[136.42808,36.00192],[136.42806,36.00195],[136.42806,36.00198],[136.42808,36.00201],[136.42822,36.00203],[136.42851,36.00202],[136.42857,36.00201],[136.4287,36.002],[136.42871,36.00199],[136.42865,36.00193]]]}},{"type":"Feature","properties":{"pid":"a646e482-a17a-45e5-8b15-b31599be659b","full":4.1},"geometry":{"type":"Polygon","coordinates":[[[136.42856,36.00165],[136.42853,36.00159],[136.42801,36.00163],[136.42807,36.00176],[136.42809,36.00182],[136.42858,36.00178],[136.42856,36.00165]]]}},{"type":"Feature","properties":{"pid":"2a0c7b2b-a5cb-4786-9615-c90dc8b383c8","full":5.8},"geometry":{"type":"Polygon","coordinates":[[[136.42852,36.00157],[136.42838,36.00134],[136.42796,36.00137],[136.42801,36.00161],[136.42811,36.00161],[136.42847,36.00159],[136.42852,36.00157]]]}},{"type":"Feature","properties":{"pid":"ae667535-cb65-43d5-be08-bcf2e4d33133","full":0.6},"geometry":{"type":"Polygon","coordinates":[[[136.4283,36.00126],[136.42808,36.00119],[136.42805,36.00121],[136.42793,36.00121],[136.42796,36.00134],[136.42834,36.00132],[136.4283,36.00126]]]}},{"type":"Feature","properties":{"pid":"1c81dd83-1f47-4fae-ad92-e99375c34edf","full":9.4},"geometry":{"type":"Polygon","coordinates":[[[136.42726,36.00083],[136.4276,36.00065],[136.42756,36.00059],[136.42743,36.00057],[136.42722,36.00042],[136.42697,36.00039],[136.42695,36.00036],[136.4269,36.00038],[136.42693,36.00065],[136.42694,36.00069],[136.427,36.00076],[136.42715,36.00068],[136.42726,36.00083]]]}},{"type":"Feature","properties":{"pid":"7f0b3564-524c-4ed0-a520-903db59db686","full":2.1},"geometry":{"type":"Polygon","coordinates":[[[136.42741,36.00107],[136.42714,36.00073],[136.427,36.0008],[136.4271,36.00096],[136.4272,36.00107],[136.42731,36.00113],[136.42741,36.00107]]]}},{"type":"Feature","properties":{"pid":"7fa545ba-64c6-415f-883b-312b0f85ffc9","full":2.7},"geometry":{"type":"Polygon","coordinates":[[[136.42783,36.00089],[136.4278,36.00089],[136.42736,36.00112],[136.42736,36.00113],[136.42747,36.00117],[136.42755,36.00118],[136.42772,36.00114],[136.42784,36.00113],[136.42788,36.0011],[136.42783,36.00089]]]}},{"type":"Feature","properties":{"pid":"527fe9ec-f16d-4a27-ab5b-b2467d551035","full":6.4},"geometry":{"type":"Polygon","coordinates":[[[136.42773,36.00071],[136.42762,36.00065],[136.42726,36.00084],[136.42744,36.00106],[136.42783,36.00086],[136.4278,36.00077],[136.42773,36.00071]]]}},{"type":"Feature","properties":{"pid":"59547ac4-d067-4a18-838e-2eecb47b1e65","full":0.5},"geometry":{"type":"Polygon","coordinates":[[[136.42682,36.00043],[136.42679,36.00041],[136.42662,36.00051],[136.42679,36.00072],[136.42684,36.00069],[136.42682,36.00043]]]}},{"type":"Feature","properties":{"pid":"593a33d5-18d6-41f6-b735-e8077b849be1","full":1.1},"geometry":{"type":"Polygon","coordinates":[[[136.42639,35.99992],[136.42615,35.99969],[136.42605,35.99977],[136.42615,35.99988],[136.42625,36.00004],[136.42639,35.99992]]]}},{"type":"Feature","properties":{"pid":"564d05d6-c88d-430b-9fc0-60b5681135b9","full":0.9},"geometry":{"type":"Polygon","coordinates":[[[136.42679,36.00019],[136.42662,36.00007],[136.42658,36.00007],[136.42644,36.00001],[136.42639,35.99992],[136.42625,36.00005],[136.42627,36.00009],[136.42655,36.00016],[136.42672,36.00025],[136.42679,36.00019]]]}},{"type":"Feature","properties":{"pid":"bafeb7be-fc10-41e8-b866-071ceac0ce8f","full":4.3},"geometry":{"type":"Polygon","coordinates":[[[136.42604,35.99925],[136.42598,35.99918],[136.42578,35.99922],[136.42561,35.99924],[136.42565,35.99941],[136.42575,35.99946],[136.42607,35.99942],[136.42604,35.99925]]]}},{"type":"Feature","properties":{"pid":"8f457225-afde-4dff-98fd-e4a8d0e95c9d","full":5.0},"geometry":{"type":"Polygon","coordinates":[[[136.42589,35.99876],[136.42575,35.99876],[136.42551,35.9988],[136.42556,35.99905],[136.42584,35.99902],[136.42587,35.99898],[136.42594,35.99893],[136.42597,35.99882],[136.42596,35.99877],[136.42589,35.99876]]]}},{"type":"Feature","properties":{"pid":"c8eaf109-4819-4c73-94e1-c12be32b7652","full":14.1},"geometry":{"type":"Polygon","coordinates":[[[136.42599,35.99833],[136.42596,35.9982],[136.42515,35.99832],[136.42516,35.99835],[136.42526,35.9984],[136.4253,35.99859],[136.42589,35.99855],[136.42602,35.99853],[136.42599,35.99833]]]}},{"type":"Feature","properties":{"pid":"9f7701dd-4594-4166-8741-4e9f81741ce2","full":10.1},"geometry":{"type":"Polygon","coordinates":[[[136.42661,35.99792],[136.42652,35.9975],[136.42615,35.99755],[136.42595,35.99761],[136.42599,35.99772],[136.42603,35.99777],[136.42608,35.9978],[136.42624,35.99784],[136.42654,35.99789],[136.42661,35.99792]]]}},{"type":"Feature","properties":{"pid":"4bbfe67c-5222-4891-9439-14cf7e2ac016","full":13.4},"geometry":{"type":"Polygon","coordinates":[[[136.42687,35.99746],[136.42683,35.99745],[136.42654,35.9975],[136.42663,35.99794],[136.42671,35.99801],[136.42676,35.99811],[136.4268,35.99818],[136.42688,35.99821],[136.42697,35.99822],[136.42698,35.99819],[136.42704,35.99818],[136.42687,35.99746]]]}},{"type":"Feature","properties":{"pid":"0bf87c5d-f197-42ee-b42c-64a3046b9aa0","full":5.8},"geometry":{"type":"Polygon","coordinates":[[[136.42648,35.99796],[136.42641,35.99795],[136.42653,35.99846],[136.42668,35.99844],[136.42693,35.99839],[136.42692,35.99835],[136.42693,35.99835],[136.42693,35.99831],[136.42676,35.99825],[136.42672,35.99821],[136.42663,35.99805],[136.42658,35.998],[136.42648,35.99796]]]}},{"type":"Feature","properties":{"pid":"cfee3a51-95d8-4f5e-beeb-c6a62273da7a","full":3.5},"geometry":{"type":"Polygon","coordinates":[[[136.42652,35.99846],[136.42648,35.99825],[136.4261,35.9983],[136.42614,35.99851],[136.42652,35.99846]]]}},{"type":"Feature","properties":{"pid":"18ab1ca5-49ce-44a0-a950-4efad8ffaa0b","full":12.9},"geometry":{"type":"Polygon","coordinates":[[[136.42801,35.99797],[136.42787,35.99733],[136.42754,35.99736],[136.42769,35.99804],[136.42799,35.99799],[136.42801,35.99797]]]}},{"type":"Feature","properties":{"pid":"8d3fac63-01e4-4a26-af77-dda17f667a70","full":13.4},"geometry":{"type":"Polygon","coordinates":[[[136.42754,35.99738],[136.4275,35.99737],[136.42723,35.9974],[136.42722,35.99741],[136.42737,35.99813],[136.42751,35.99812],[136.42769,35.99805],[136.42754,35.99738]]]}},{"type":"Feature","properties":{"pid":"1327318d-9ea5-479a-8845-3a6126d2b7e2","full":13.7},"geometry":{"type":"Polygon","coordinates":[[[136.4272,35.99742],[136.42714,35.99741],[136.42689,35.99745],[136.42688,35.99746],[136.42705,35.99816],[136.4271,35.99817],[136.42737,35.99812],[136.4272,35.99742]]]}},{"type":"Feature","properties":{"pid":"6ffb4dee-285e-444e-b16f-6c32b86ce876","full":4.8},"geometry":{"type":"Polygon","coordinates":[[[136.42822,35.99733],[136.42814,35.99733],[136.42806,35.9973],[136.42798,35.99731],[136.42796,35.99732],[136.42807,35.99787],[136.42811,35.99788],[136.42827,35.99761],[136.42822,35.99733]]]}},{"type":"Feature","properties":{"pid":"0c339332-0af2-4645-b84b-44f0ecea1ed9","full":3.1},"geometry":{"type":"Polygon","coordinates":[[[136.42566,35.99744],[136.42573,35.99744],[136.42612,35.99739],[136.42619,35.99734],[136.42619,35.99732],[136.42617,35.99727],[136.42612,35.99725],[136.42601,35.99722],[136.4258,35.99724],[136.4258,35.9973],[136.42574,35.99731],[136.42567,35.99732],[136.42562,35.99734],[136.42561,35.99737],[136.42562,35.9974],[136.42566,35.99744]]]}},{"type":"Feature","properties":{"pid":"bef49efc-d725-43da-834e-080eef4911c4","full":4.1},"geometry":{"type":"Polygon","coordinates":[[[136.43054,35.99673],[136.43053,35.99668],[136.43006,35.99673],[136.43006,35.99689],[136.43062,35.99689],[136.43063,35.99679],[136.43058,35.99678],[136.43054,35.99673]]]}},{"type":"Feature","properties":{"pid":"fbbb0f47-30e7-4d4f-ae8f-20cf2c48f9f3","full":7.2},"geometry":{"type":"Polygon","coordinates":[[[136.43059,35.99712],[136.4303,35.99711],[136.43026,35.99711],[136.43042,35.99758],[136.43072,35.99751],[136.43059,35.99712]]]}},{"type":"Feature","properties":{"pid":"5e73d73f-9b1a-4b05-8d7b-15cfb7629676","full":0.7},"geometry":{"type":"Polygon","coordinates":[[[136.42996,35.99756],[136.42993,35.99743],[136.42964,35.99744],[136.42966,35.99757],[136.42996,35.99756]]]}},{"type":"Feature","properties":{"pid":"e25fbd5b-60bc-420a-ad51-b908e85ea5e0","full":12.7},"geometry":{"type":"Polygon","coordinates":[[[136.42964,35.9978],[136.42953,35.9971],[136.42925,35.99713],[136.42921,35.99715],[136.42938,35.99792],[136.4294,35.99793],[136.42964,35.9978]]]}},{"type":"Feature","properties":{"pid":"dbd654af-ad16-42e4-aecb-3b622f596440","full":3.1},"geometry":{"type":"Polygon","coordinates":[[[136.42997,35.99708],[136.42961,35.99709],[136.42959,35.99712],[136.42961,35.99731],[136.42993,35.9973],[136.42995,35.9972],[136.43,35.99709],[136.42997,35.99708]]]}},{"type":"Feature","properties":{"pid":"3c9fdf26-5528-4e71-a85d-fb419d935453","full":1.0},"geometry":{"type":"Polygon","coordinates":[[[136.42855,35.99732],[136.42853,35.99721],[136.42841,35.99723],[136.42832,35.99727],[136.42838,35.99755],[136.42841,35.99753],[136.42855,35.99732]]]}},{"type":"Feature","properties":{"pid":"99c6050d-0343-4e0b-9b83-7452e1fbbc50","full":2.8},"geometry":{"type":"Polygon","coordinates":[[[136.42887,35.99725],[136.42885,35.99724],[136.42874,35.9974],[136.42889,35.99803],[136.42904,35.99802],[136.42887,35.99725]]]}},{"type":"Feature","properties":{"pid":"58124b74-25c9-4343-9537-848c4e4482f4","full":16.7},"geometry":{"type":"Polygon","coordinates":[[[136.42937,35.99794],[136.42919,35.99713],[136.42892,35.99716],[136.42887,35.99722],[136.42905,35.998],[136.42907,35.99801],[136.42923,35.99799],[136.42937,35.99794]]]}},{"type":"Feature","properties":{"pid":"d41b7a01-9017-4ec2-8875-4765f9ac4f95","full":2.3},"geometry":{"type":"Polygon","coordinates":[[[136.42888,35.99803],[136.42874,35.99743],[136.42871,35.99743],[136.42863,35.99758],[136.42863,35.99762],[136.42864,35.9977],[136.42872,35.99805],[136.42876,35.99805],[136.42888,35.99803]]]}},{"type":"Feature","properties":{"pid":"c092f981-7eae-4a24-a221-8c970cb883dd","full":1.6},"geometry":{"type":"Polygon","coordinates":[[[136.42871,35.99805],[136.42863,35.9977],[136.42859,35.99771],[136.42847,35.99793],[136.4285,35.99808],[136.42871,35.99805]]]}},{"type":"Feature","properties":{"pid":"083f72e8-2908-486d-94f3-d5d7fa4cfc7a","full":5.7},"geometry":{"type":"Polygon","coordinates":[[[136.43095,35.99714],[136.43063,35.99712],[136.4306,35.99713],[136.43074,35.9975],[136.43105,35.99743],[136.43095,35.99714]]]}},{"type":"Feature","properties":{"pid":"cf19e27a-1fff-4cf0-9217-3ffb9c927aa1","full":8.7},"geometry":{"type":"Polygon","coordinates":[[[136.43273,35.99751],[136.43239,35.99742],[136.43238,35.99742],[136.4322,35.99783],[136.4322,35.99785],[136.43229,35.99788],[136.43237,35.99789],[136.43249,35.99788],[136.43258,35.99785],[136.43259,35.99782],[136.43273,35.99751]]]}},{"type":"Feature","properties":{"pid":"9610ab77-6f06-4d30-ba1c-c5fdd1a55774","full":5.1},"geometry":{"type":"Polygon","coordinates":[[[136.43291,35.99685],[136.43271,35.99684],[136.43263,35.99685],[136.4326,35.99693],[136.43255,35.99698],[136.43261,35.99716],[136.43271,35.99719],[136.4328,35.99717],[136.43298,35.9971],[136.43295,35.99709],[136.43291,35.99705],[136.43293,35.99695],[136.4329,35.99695],[136.43291,35.99685]]]}},{"type":"Feature","properties":{"pid":"9f99181f-7aac-4f91-a1ba-06d114a66297","full":1.5},"geometry":{"type":"Polygon","coordinates":[[[136.43323,35.99691],[136.43334,35.99691],[136.4333,35.99684],[136.43301,35.99679],[136.43299,35.99687],[136.43297,35.99702],[136.43298,35.99706],[136.43302,35.99707],[136.43317,35.99699],[136.43318,35.99693],[136.43323,35.99691]]]}},{"type":"Feature","properties":{"pid":"63ca579c-6b4a-4385-b455-ac7b3587bc5c","full":5.7},"geometry":{"type":"Polygon","coordinates":[[[136.43298,35.99771],[136.43308,35.99771],[136.43314,35.99751],[136.43307,35.99748],[136.43308,35.99746],[136.43281,35.9974],[136.43261,35.9978],[136.43262,35.99783],[136.43276,35.99775],[136.43298,35.99771]]]}},{"type":"Feature","properties":{"pid":"bedf497f-a317-4b55-b0f2-624f83aa1ad6","full":10.3},"geometry":{"type":"Polygon","coordinates":[[[136.43325,35.99753],[136.43316,35.99753],[136.43311,35.99768],[136.4331,35.99772],[136.43324,35.99784],[136.43327,35.99789],[136.43339,35.998],[136.43345,35.99801],[136.4335,35.998],[136.43355,35.99796],[136.43366,35.99766],[136.43362,35.99762],[136.43325,35.99753]]]}},{"type":"Feature","properties":{"pid":"0315ed7a-8de3-4853-95dc-309ef1382d00","full":2.3},"geometry":{"type":"Polygon","coordinates":[[[136.43393,35.99789],[136.43379,35.99786],[136.43362,35.99801],[136.43364,35.99807],[136.43378,35.99808],[136.434,35.99808],[136.43398,35.99792],[136.43393,35.9979],[136.43393,35.99789]]]}},{"type":"Feature","properties":{"pid":"2983c89a-0a2d-4ba8-9a84-6ace24809cc1","full":0.6},"geometry":{"type":"Polygon","coordinates":[[[136.43426,35.99796],[136.43404,35.99792],[136.43405,35.99808],[136.43413,35.99815],[136.4342,35.99809],[136.43424,35.99802],[136.43426,35.99796]]]}},{"type":"Feature","properties":{"pid":"efaf70c9-2818-4dbe-9d4f-bbb6e9299a17","full":3.1},"geometry":{"type":"Polygon","coordinates":[[[136.43464,35.99781],[136.43434,35.99774],[136.43428,35.99795],[136.43464,35.99803],[136.4347,35.99787],[136.43465,35.99785],[136.43464,35.99781]]]}},{"type":"Feature","properties":{"pid":"00ad09c0-6bbd-489b-90ea-42219b8efd4a","full":4.6},"geometry":{"type":"Polygon","coordinates":[[[136.43464,35.99803],[136.43427,35.99795],[136.43426,35.99801],[136.43421,35.99808],[136.43416,35.99814],[136.43418,35.99816],[136.43418,35.99817],[136.43427,35.9982],[136.43453,35.9983],[136.43456,35.99828],[136.43464,35.99803]]]}},{"type":"Feature","properties":{"pid":"40521760-8ccd-49aa-ab7b-a8e7df007358","full":3.2},"geometry":{"type":"Polygon","coordinates":[[[136.43504,35.99789],[136.43486,35.99786],[136.43469,35.99834],[136.43485,35.99838],[136.43488,35.99838],[136.43504,35.99789]]]}},{"type":"Feature","properties":{"pid":"043db8e0-7420-4c76-96de-c6bd8b5d0601","full":2.4},"geometry":{"type":"Polygon","coordinates":[[[136.43574,35.99835],[136.4358,35.9981],[136.43567,35.99805],[136.43558,35.99804],[136.43556,35.99807],[136.43548,35.99833],[136.43564,35.99832],[136.43574,35.99835]]]}},{"type":"Feature","properties":{"pid":"9809531d-7613-4e69-b32d-fd3ce5e9ff65","full":11.2},"geometry":{"type":"Polygon","coordinates":[[[136.43541,35.99799],[136.43507,35.9979],[136.4349,35.99837],[136.43494,35.99837],[136.43542,35.99832],[136.43551,35.99806],[136.43541,35.99803],[136.43541,35.99799]]]}},{"type":"Feature","properties":{"pid":"e3b04353-4944-4957-a8e5-2164d441774b","full":7.5},"geometry":{"type":"Polygon","coordinates":[[[136.43505,35.99737],[136.4348,35.99732],[136.43468,35.99755],[136.43521,35.99768],[136.43533,35.99741],[136.43531,35.99739],[136.43518,35.99739],[136.43505,35.99737]]]}},{"type":"Feature","properties":{"pid":"68fcabb0-fbc7-4382-81b5-c198477507b8","full":22.5},"geometry":{"type":"Polygon","coordinates":[[[136.43597,35.9979],[136.43622,35.99738],[136.43607,35.99735],[136.43578,35.99741],[136.43535,35.9974],[136.43523,35.99767],[136.43597,35.9979]]]}},{"type":"Feature","properties":{"pid":"df27c537-05fd-429a-b8e7-c0a3e151715c","full":2.1},"geometry":{"type":"Polygon","coordinates":[[[136.43418,35.99618],[136.43414,35.99606],[136.43377,35.99608],[136.43377,35.99623],[136.43419,35.99623],[136.43418,35.99618]]]}},{"type":"Feature","properties":{"pid":"4227db6e-8219-4cbc-bef3-a97b63829439","full":1.4},"geometry":{"type":"Polygon","coordinates":[[[136.43448,35.99574],[136.43417,35.99572],[136.4342,35.99588],[136.43443,35.99591],[136.43446,35.99589],[136.43449,35.99585],[136.43448,35.99574]]]}},{"type":"Feature","properties":{"pid":"b2c285ee-644a-48a2-bb94-122e3e440f0e","full":3.4},"geometry":{"type":"Polygon","coordinates":[[[136.4332,35.99655],[136.433,35.99657],[136.43298,35.99658],[136.43302,35.99676],[136.4333,35.99681],[136.43334,35.99677],[136.43338,35.99657],[136.4332,35.99655]]]}},{"type":"Feature","properties":{"pid":"4b4ae0fb-edd8-4591-a8e8-5f6ef09ca585","full":5.5},"geometry":{"type":"Polygon","coordinates":[[[136.43293,35.99656],[136.43292,35.99641],[136.43264,35.99644],[136.43263,35.99678],[136.43295,35.9968],[136.43298,35.99675],[136.43293,35.99656]]]}},{"type":"Feature","properties":{"pid":"0d0e5d10-411f-4e47-810b-93ed2c8d4523","full":8.6},"geometry":{"type":"Polygon","coordinates":[[[136.4253,35.99714],[136.42522,35.99714],[136.42509,35.99719],[136.42504,35.99723],[136.42501,35.99727],[136.425,35.99734],[136.42493,35.99749],[136.42487,35.99753],[136.42488,35.99757],[136.42552,35.99747],[136.4255,35.99742],[136.4253,35.99714]]]}},{"type":"Feature","properties":{"pid":"0dbdb9af-631e-4021-8c4c-2c26da08353a","full":5.4},"geometry":{"type":"Polygon","coordinates":[[[136.42573,35.99763],[136.42566,35.99762],[136.42508,35.99771],[136.42504,35.99772],[136.42508,35.99787],[136.42509,35.99788],[136.42586,35.99778],[136.42578,35.99764],[136.42573,35.99763]]]}},{"type":"Feature","properties":{"pid":"7f25ad46-5774-4f2d-87cc-044553ebf2a4","full":11.1},"geometry":{"type":"Polygon","coordinates":[[[136.4259,35.99781],[136.42583,35.9978],[136.42509,35.99789],[136.42514,35.99814],[136.42594,35.99804],[136.4259,35.99781]]]}},{"type":"Feature","properties":{"pid":"8ced60d3-8d81-463c-9ad8-492193c52432","full":4.2},"geometry":{"type":"Polygon","coordinates":[[[136.42596,35.99808],[136.42592,35.99805],[136.42512,35.99815],[136.42514,35.9983],[136.42598,35.99819],[136.42596,35.99808]]]}}],"precision":5}