{"type":"FeatureCollection","features":[{"type":"Feature","properties":{"pid":"62b198dc-3482-4978-be01-5d1af4282e59"},"geometry":{"type":"Polygon","coordinates":[[[136.03135903017449,36.0874194895423],[136.03138982323608,36.087412094401486],[136.031426863999,36.08737405841334],[136.0314197982622,36.08725812618686],[136.03145730057966,36.087206485614416],[136.03149357847687,36.08718972275442],[136.03148881855532,36.08716915389441],[136.03128324998002,36.087141752662276],[136.03113654456905,36.087174768989016],[136.03114741688745,36.08742028847078],[136.03131724325914,36.08740486165729],[136.03135903017449,36.0874194895423]]]}},{"type":"Feature","properties":{"pid":"e74d8ca0-f6ee-4eb8-bedc-4ffca5f0f251"},"geometry":{"type":"Polygon","coordinates":[[[136.03094677304927,36.08090880573744],[136.03098836883888,36.08090708866929],[136.03106194659304,36.0808585829191],[136.03063563536975,36.080399632413624],[136.03058718902412,36.08048090948169],[136.03048055386537,36.080589691153996],[136.03094677304927,36.08090880573744]]]}},{"type":"Feature","properties":{"pid":"d97a3166-2e69-4762-a3b5-657cb26b839f"},"geometry":{"type":"Polygon","coordinates":[[[136.03117667129075,36.08077116901583],[136.03124073142322,36.08074431357083],[136.0308108342357,36.080281358073044],[136.0307565987396,36.08032214227512],[136.03117667129075,36.08077116901583]]]}},{"type":"Feature","properties":{"pid":"25bb2021-fae4-4cda-8609-425606c4af31"},"geometry":{"type":"Polygon","coordinates":[[[136.03154603404988,36.080530801610514],[136.03159355916335,36.08053376557408],[136.03162819391025,36.08050593489195],[136.03119969413487,36.08003659813274],[136.03113226978866,36.080076552071525],[136.03154603404988,36.080530801610514]]]}},{"type":"Feature","properties":{"pid":"de8d3876-3ccc-43d6-b1fd-feec62e4490b"},"geometry":{"type":"Polygon","coordinates":[[[136.03176475505236,36.08041627731305],[136.0313344895245,36.079955085022],[136.03132463494612,36.07996183951382],[136.03174399361512,36.080419251757526],[136.03176475505236,36.08041627731305]]]}},{"type":"Feature","properties":{"pid":"768231ef-0d17-43a5-a276-37fe3628baad"},"geometry":{"type":"Polygon","coordinates":[[[136.03033937521883,36.08002281620634],[136.03031882444907,36.080035154412364],[136.0303381442206,36.08008058876398],[136.0304620296481,36.08027260655703],[136.03048980244338,36.080283165903715],[136.0305378050253,36.08023111923324],[136.03033937521883,36.08002281620634]]]}},{"type":"Feature","properties":{"pid":"cbb5c33c-4914-4256-ab03-09ea10d59c6c"},"geometry":{"type":"Polygon","coordinates":[[[136.0289529069182,36.079078432929876],[136.0289821180747,36.07908852009251],[136.02882455989337,36.0786105513014],[136.02880120168723,36.078615946199946],[136.0289529069182,36.079078432929876]]]}},{"type":"Feature","properties":{"pid":"f1ec96cb-c34b-4a09-8a6a-3f5cbdad6bdb"},"geometry":{"type":"Polygon","coordinates":[[[136.02846644238545,36.07867950831997],[136.02842795132466,36.07868869116608],[136.0285682762731,36.079065362613086],[136.02860150098084,36.07906243349946],[136.02846644238545,36.07867950831997]]]}},{"type":"Feature","properties":{"pid":"28185495-2547-4628-9e44-aa1c69d210db"},"geometry":{"type":"Polygon","coordinates":[[[136.02998060859665,36.07731497558479],[136.0298944668359,36.07728810078525],[136.0298928301584,36.07793936870727],[136.02999156454175,36.07800167001418],[136.02998060859665,36.07731497558479]]]}},{"type":"Feature","properties":{"pid":"a62db1d6-764d-4d3e-8fcd-f39bf118fe25"},"geometry":{"type":"Polygon","coordinates":[[[136.03019196737839,36.078096615494175],[136.03019512959844,36.07747948853433],[136.03012806075944,36.07744439086635],[136.03013205343564,36.07806968509106],[136.03019196737839,36.078096615494175]]]}},{"type":"Feature","properties":{"pid":"9ad3c8eb-30e6-41af-a5b9-e4fb80fdde06"},"geometry":{"type":"Polygon","coordinates":[[[136.02974294822178,36.077876680158965],[136.0297409581138,36.07729326384007],[136.02969682240465,36.07730462157845],[136.02969324709014,36.07784267707956],[136.02974294822178,36.077876680158965]]]}},{"type":"Feature","properties":{"pid":"f19c9902-d32d-4387-a573-2fdc0fda57fe"},"geometry":{"type":"Polygon","coordinates":[[[136.03139152652872,36.07687498097657],[136.03134374218905,36.07692698193241],[136.0313536739398,36.07704009101711],[136.03129674914436,36.07717779448819],[136.03123879709622,36.07725763863478],[136.03117569745268,36.07730761466684],[136.0311576127714,36.07734884501497],[136.03131874454513,36.077370375001976],[136.03137991481955,36.07739992457135],[136.03144399490787,36.07752404363747],[136.03139152652872,36.07687498097657]]]}},{"type":"Feature","properties":{"pid":"5c4d5de2-903c-4604-9a21-d98b5970dbb9"},"geometry":{"type":"Polygon","coordinates":[[[136.03080762924756,36.07766861587418],[136.03081221112367,36.07811076954436],[136.03081872082964,36.07829539403769],[136.03085774724707,36.07819482020919],[136.03085078904613,36.077686382180815],[136.03080762924756,36.07766861587418]]]}},{"type":"Feature","properties":{"pid":"0162684c-0f4f-4b83-a7b8-12654cd6d8b9"},"geometry":{"type":"Polygon","coordinates":[[[136.03042320389633,36.07757450236731],[136.03037789131386,36.077563111839126],[136.0303725714762,36.078189252698564],[136.0304424177208,36.078228672092216],[136.03042320389633,36.07757450236731]]]}},{"type":"Feature","properties":{"pid":"ec2c07c8-4333-45cf-a532-798559ca45c1"},"geometry":{"type":"Polygon","coordinates":[[[136.030647961257,36.07760988632192],[136.0305973745684,36.07760395449902],[136.03061078553534,36.07830206624873],[136.0306596015778,36.07833936202078],[136.030647961257,36.07760988632192]]]}},{"type":"Feature","properties":{"pid":"702d33d0-e9ec-4d6b-a06d-d105c2ad75ef"},"geometry":{"type":"Polygon","coordinates":[[[136.0313087608873,36.07808411997216],[136.0313874880237,36.07781278925396],[136.03136456109044,36.077828584976984],[136.03126647212574,36.07806657903518],[136.0313087608873,36.07808411997216]]]}},{"type":"Feature","properties":{"pid":"0fbd7721-9773-4fcf-929b-4c3e8e4851e5"},"geometry":{"type":"Polygon","coordinates":[[[136.03147988116925,36.07815870574313],[136.03157847766394,36.07780028983551],[136.03151877487178,36.07778988457018],[136.0314192370362,36.07813276384569],[136.03147988116925,36.07815870574313]]]}},{"type":"Feature","properties":{"pid":"1db44b21-ab76-43a0-8d93-c27d79f193a2"},"geometry":{"type":"Polygon","coordinates":[[[136.03033796859975,36.07837952583672],[136.0303417694962,36.07840376229445],[136.0305863719193,36.078553526715766],[136.03051851073943,36.078494028370216],[136.03033796859975,36.07837952583672]]]}},{"type":"Feature","properties":{"pid":"2faa3156-d54c-4848-b269-d79a64231c8e"},"geometry":{"type":"Polygon","coordinates":[[[136.0291695579222,36.079181444219934],[136.02897533017386,36.078577788018265],[136.0289440489443,36.07858480590193],[136.0291301478971,36.07914869212557],[136.0291695579222,36.079181444219934]]]}},{"type":"Feature","properties":{"pid":"3b9aa5d9-c886-4dcf-ba6a-bd786815f7af"},"geometry":{"type":"Polygon","coordinates":[[[136.02946094074696,36.07936158082124],[136.02917900851617,36.078528386913256],[136.02910908694523,36.07854251411468],[136.02935853443506,36.0793053684748],[136.02946094074696,36.07936158082124]]]}},{"type":"Feature","properties":{"pid":"19d7deb4-1853-4906-a96c-cde3f55ce94c"},"geometry":{"type":"Polygon","coordinates":[[[136.02939858564008,36.078479785934064],[136.02932541779873,36.07849938659507],[136.0296163718701,36.07938023784961],[136.02961715620134,36.07931646903147],[136.02959055447167,36.079250230960355],[136.02961087668467,36.07910838717874],[136.02939858564008,36.078479785934064]]]}},{"type":"Feature","properties":{"pid":"494f7002-a0de-4629-a9a2-4348afd815ba"},"geometry":{"type":"Polygon","coordinates":[[[136.03056788230896,36.079388907135225],[136.03053249839553,36.07943240870475],[136.03093944416764,36.07988219891839],[136.03097997139395,36.07987515439886],[136.03101522787765,36.07988859262491],[136.03103735839736,36.07987449351433],[136.03056788230896,36.079388907135225]]]}},{"type":"Feature","properties":{"pid":"35ae76bf-c9b6-4ca3-9e2d-50ba7ad3a085"},"geometry":{"type":"Polygon","coordinates":[[[136.03084641512552,36.07999205896117],[136.03040239574997,36.07951218707425],[136.03034246737317,36.079546021186864],[136.0302500483161,36.07964504708829],[136.03040395773297,36.07974848610778],[136.03046007832174,36.07982972571949],[136.03048368484144,36.07991918619616],[136.0306550432299,36.08011499417396],[136.03084641512552,36.07999205896117]]]}},{"type":"Feature","properties":{"pid":"e4a4bc70-3a5d-4bd0-b9ec-f8382147475a"},"geometry":{"type":"Polygon","coordinates":[[[136.03251729464688,36.07861499472488],[136.03266988517564,36.078539055485734],[136.03269182210988,36.07826767187571],[136.03272720216046,36.07815344804322],[136.0327055398225,36.07808053347713],[136.03258746543116,36.07803755926682],[136.03251729464688,36.07861499472488]]]}},{"type":"Feature","properties":{"pid":"db72e321-7cb6-40a4-b63f-16984f4908ac"},"geometry":{"type":"Polygon","coordinates":[[[136.03235036622877,36.07869414789134],[136.0323890880949,36.07866994691433],[136.03247002061724,36.07800957697222],[136.03243749959938,36.07800754312635],[136.03234744667694,36.078611957005265],[136.03235036622877,36.07869414789134]]]}},{"type":"Feature","properties":{"pid":"7afb110e-1be2-47df-96ca-744de11f9300"},"geometry":{"type":"Polygon","coordinates":[[[136.0326659512848,36.07875032712323],[136.03280475115298,36.07896652007703],[136.03289939853846,36.078882085622624],[136.03278762095837,36.07871561705667],[136.0326659512848,36.07875032712323]]]}},{"type":"Feature","properties":{"pid":"73916dca-dabb-4d9f-a96f-1f6b7060142f"},"geometry":{"type":"Polygon","coordinates":[[[136.03249134534346,36.07885652020257],[136.0326690258684,36.07912484583409],[136.032714027309,36.07905444624689],[136.0325540966156,36.07881042585624],[136.03249134534346,36.07885652020257]]]}},{"type":"Feature","properties":{"pid":"4d124a5e-ab45-4773-bbb8-ce3fdfdbb776"},"geometry":{"type":"Polygon","coordinates":[[[136.03253575716215,36.07930017571801],[136.03258887955963,36.07922923379834],[136.0323598003673,36.07891007976375],[136.032292883026,36.07895145460157],[136.03253575716215,36.07930017571801]]]}},{"type":"Feature","properties":{"pid":"a48371bd-8aa0-4bc8-8856-39e071e9bea9"},"geometry":{"type":"Polygon","coordinates":[[[136.03210090589704,36.07924971298706],[136.0322943220439,36.07931624583842],[136.03236999488288,36.07931216321167],[136.03216458630737,36.07899999321673],[136.03210495112248,36.07901954534383],[136.0320118907314,36.07908236448341],[136.03203072566305,36.07911332941891],[136.03208533431012,36.079141872079745],[136.03211783929123,36.07921261286342],[136.03210090589704,36.07924971298706]]]}},{"type":"Feature","properties":{"pid":"e0e2b5c3-22b9-4ffe-a3cb-ae314e3ff466"},"geometry":{"type":"Polygon","coordinates":[[[136.031895211868,36.07833479679111],[136.03201978162406,36.077897323967534],[136.0319328457877,36.07788285177855],[136.0318125370526,36.07828247292664],[136.031895211868,36.07833479679111]]]}},{"type":"Feature","properties":{"pid":"f01e0119-a6ee-4af2-8025-b829af86cfdf"},"geometry":{"type":"Polygon","coordinates":[[[136.03169479486598,36.078249282056845],[136.03180845711688,36.07785020761773],[136.03171787564065,36.07782617013567],[136.0316059296662,36.07820553064541],[136.03169479486598,36.078249282056845]]]}},{"type":"Feature","properties":{"pid":"edc840a0-310c-435b-9193-a4a015a37ea8"},"geometry":{"type":"Polygon","coordinates":[[[136.03221278136104,36.077941978042894],[136.03215552315228,36.07792892139897],[136.0321295097286,36.077947884899785],[136.0319845712197,36.078448006077004],[136.03199360545003,36.078461405394286],[136.0320513141986,36.07847608528535],[136.0321486700313,36.07847218582054],[136.03221278136104,36.077941978042894]]]}},{"type":"Feature","properties":{"pid":"f4bfc3b7-e34b-417f-80fb-b743b67dc0fc"},"geometry":{"type":"Polygon","coordinates":[[[136.03220181787322,36.07706329281968],[136.03225957756206,36.07776312023568],[136.032380149363,36.077787206690054],[136.0324071428485,36.077532109702055],[136.03226891563608,36.07727417675041],[136.03223330446943,36.07708746856375],[136.03220181787322,36.07706329281968]]]}},{"type":"Feature","properties":{"pid":"c214d6c7-1e61-4da6-9883-7a40532c64b6"},"geometry":{"type":"Polygon","coordinates":[[[136.03185752536126,36.077023264921685],[136.0319100065774,36.077690639665136],[136.03192092189445,36.07769344052289],[136.03185752536126,36.077023264921685]]]}},{"type":"Feature","properties":{"pid":"9505bb4d-aa46-4d24-849c-1e49fe74c3c5"},"geometry":{"type":"Polygon","coordinates":[[[136.03198856279246,36.07695348307799],[136.03204508775465,36.077721223113244],[136.03205196379724,36.07772241733408],[136.03198856279246,36.07695348307799]]]}},{"type":"Feature","properties":{"pid":"a3922ca3-c191-4fe7-8ee8-b3a85bf9138c"},"geometry":{"type":"Polygon","coordinates":[[[136.03153958496364,36.079839408705595],[136.0314663792073,36.07988252107404],[136.03189759211864,36.08034341784966],[136.03191987732987,36.08033662725198],[136.03192895299762,36.080328059526344],[136.03164382264632,36.08001604343939],[136.03153958496364,36.079839408705595]]]}},{"type":"Feature","properties":{"pid":"1b71ae00-a7d3-4442-b85a-60efeea4ab12"},"geometry":{"type":"Polygon","coordinates":[[[136.04652100993047,36.088877834364396],[136.04674706458593,36.08879334665412],[136.04663623638814,36.08861169462655],[136.0465988437489,36.0887324636334],[136.04652100993047,36.088877834364396]]]}},{"type":"Feature","properties":{"pid":"4d62eb54-583b-498b-a4e9-e1c4a7314591"},"geometry":{"type":"Polygon","coordinates":[[[136.0471608741688,36.08877324728824],[136.04681668918838,36.08830668044186],[136.0467668649438,36.08834491174496],[136.04673748758628,36.08843439540196],[136.04691692864682,36.08875081430075],[136.0469663073683,36.08886877808462],[136.04715134895915,36.088806004537155],[136.0471608741688,36.08877324728824]]]}},{"type":"Feature","properties":{"pid":"999bb847-cd2f-4526-b997-2bf8d25c8c11"},"geometry":{"type":"Polygon","coordinates":[[[136.04966687429288,36.08808459541653],[136.0497822172041,36.088163435161285],[136.04992717227447,36.08809538965727],[136.05001348970694,36.088082222783946],[136.05017321912558,36.0878455168698],[136.0501513893387,36.087811443496044],[136.04968298301134,36.08805378763513],[136.04966687429288,36.08808459541653]]]}},{"type":"Feature","properties":{"pid":"386eb74c-9ff5-496c-8bca-d211f7796c38"},"geometry":{"type":"Polygon","coordinates":[[[136.05002691910906,36.0876191753655],[136.0492043005505,36.08792293755914],[136.0492043291256,36.08792322568442],[136.0493177364732,36.088106631293826],[136.04954535663327,36.08805242398044],[136.04958557890407,36.08798388312784],[136.05008999921537,36.087720479698795],[136.05002691910906,36.0876191753655]]]}},{"type":"Feature","properties":{"pid":"48a36cfa-899c-41bc-a9cb-6378ba2e20c8"},"geometry":{"type":"Polygon","coordinates":[[[136.04943754013425,36.08722889528148],[136.04947162048921,36.087247409689326],[136.04948366293257,36.087288233739464],[136.04971146160426,36.0872108963139],[136.0497441800225,36.087073973091314],[136.04944351513976,36.087000719900225],[136.04943754013425,36.08722889528148]]]}},{"type":"Feature","properties":{"pid":"9795d03a-1257-4ac8-a1cd-f4e2fe35d422"},"geometry":{"type":"Polygon","coordinates":[[[136.048395100665,36.087705265768705],[136.04825645803422,36.08777029580596],[136.0485292417636,36.088257799600996],[136.04867545748397,36.08819927111851],[136.0484214057297,36.087724595264575],[136.048395100665,36.087705265768705]]]}},{"type":"Feature","properties":{"pid":"bc2a52ed-c2fe-428d-a2a0-1b4d4127cb39"},"geometry":{"type":"Polygon","coordinates":[[[136.04878565126342,36.08759385822758],[136.04857279310673,36.08767277744619],[136.0488219892329,36.08812950441476],[136.04901673022292,36.088038544363805],[136.04878565126342,36.08759385822758]]]}},{"type":"Feature","properties":{"pid":"1f8bf267-6ddd-4d14-aaf8-1322cc807fb7"},"geometry":{"type":"Polygon","coordinates":[[[136.0479679338393,36.088323067100475],[136.04776755744186,36.08789818261347],[136.04761967606098,36.087979349048666],[136.0477774150418,36.08831129773985],[136.0478288070642,36.088326509546235],[136.0479679338393,36.088323067100475]]]}},{"type":"Feature","properties":{"pid":"cf3677fa-41ad-4382-bcff-676103efdfdd"},"geometry":{"type":"Polygon","coordinates":[[[136.04749594351813,36.08860355308325],[136.0471930085791,36.08810162504922],[136.04709266881991,36.088160667976894],[136.04728815820823,36.08845123301493],[136.04740761505118,36.08866964238419],[136.04742670947215,36.088669007278284],[136.04749594351813,36.08860355308325]]]}},{"type":"Feature","properties":{"pid":"800aadf9-b303-4cec-ae8d-ca2d32b420c0"},"geometry":{"type":"Polygon","coordinates":[[[136.0474560760613,36.0880183334296],[136.04737486805723,36.08806113449727],[136.0476070816724,36.08846779661549],[136.0476233081183,36.088379530352334],[136.0474560760613,36.0880183334296]]]}},{"type":"Feature","properties":{"pid":"8dac26eb-433f-46ae-9da7-169c89345ede"},"geometry":{"type":"Polygon","coordinates":[[[136.02885431727898,36.07609841761052],[136.02888256334975,36.07632042413375],[136.0289370494261,36.07631665319998],[136.0288744710803,36.07609606286237],[136.02885431727898,36.07609841761052]]]}}]}