{"type":"FeatureCollection","features":[{"type":"Feature","properties":{"pid":"3304f2d4-d839-49bf-a5c0-ab890dc8d29d","full":2.6},"geometry":{"type":"Polygon","coordinates":[[[136.20035,35.87335],[136.20064,35.87332],[136.20059,35.87313],[136.20024,35.8731],[136.20035,35.87335]]]}},{"type":"Feature","properties":{"pid":"6c6b7a9d-3ec4-4524-8aab-541ff2e7c8dd","full":0.6},"geometry":{"type":"Polygon","coordinates":[[[136.20028,35.87336],[136.20022,35.87321],[136.20003,35.87322],[136.20001,35.87336],[136.20028,35.87336]]]}},{"type":"Feature","properties":{"pid":"4f8ce8a6-eed2-4873-9871-ffc88b21dc59","full":2.0},"geometry":{"type":"Polygon","coordinates":[[[136.2001,35.8736],[136.20033,35.8736],[136.20036,35.87353],[136.20029,35.87338],[136.20004,35.87338],[136.2001,35.8736]]]}},{"type":"Feature","properties":{"pid":"2d408cac-349a-4883-9f5e-aeb37f7f5cf2","full":1.6},"geometry":{"type":"Polygon","coordinates":[[[136.20273,35.87393],[136.20278,35.87389],[136.20287,35.87388],[136.20289,35.87385],[136.20293,35.87382],[136.20293,35.87377],[136.20296,35.87374],[136.20289,35.87365],[136.20287,35.87365],[136.20283,35.87366],[136.20279,35.87368],[136.20271,35.87368],[136.20267,35.87371],[136.20266,35.87374],[136.20273,35.87393]]]}},{"type":"Feature","properties":{"pid":"5b793b2b-5356-4cef-bda7-3786a6264366","full":1.4},"geometry":{"type":"Polygon","coordinates":[[[136.20287,35.87364],[136.20288,35.87359],[136.20302,35.87351],[136.203,35.87343],[136.20286,35.87339],[136.20277,35.87344],[136.20274,35.87349],[136.20274,35.87361],[136.20275,35.87364],[136.20277,35.87366],[136.20287,35.87364]]]}}],"precision":5}