{"type":"FeatureCollection","features":[{"type":"Feature","properties":{"pid":"e17eb8c3-0e35-482d-97ae-38bd8be8da12","full":3.5},"geometry":{"type":"Polygon","coordinates":[[[135.50051,35.51365],[135.50054,35.51368],[135.50072,35.51369],[135.50079,35.51367],[135.50078,35.51359],[135.50078,35.51353],[135.50084,35.51347],[135.50082,35.51338],[135.50078,35.51336],[135.5007,35.51335],[135.50058,35.51337],[135.50056,35.51343],[135.50051,35.51365]]]}},{"type":"Feature","properties":{"pid":"6c342d6b-8a03-4dc2-b09e-2417b70444f5","full":0.8},"geometry":{"type":"Polygon","coordinates":[[[135.50716,35.51268],[135.50718,35.51267],[135.50724,35.51267],[135.50725,35.51265],[135.50726,35.51261],[135.50705,35.51249],[135.50697,35.51249],[135.5069,35.51252],[135.5069,35.51261],[135.50707,35.51264],[135.50713,35.51266],[135.50713,35.51268],[135.50716,35.51268]]]}},{"type":"Feature","properties":{"pid":"eef30b61-6a32-42dd-9cc6-4b7a325a02be","full":0.5},"geometry":{"type":"Polygon","coordinates":[[[135.50651,35.51234],[135.50658,35.51232],[135.50661,35.51229],[135.50668,35.51226],[135.50672,35.51222],[135.50674,35.51218],[135.50671,35.51215],[135.50653,35.51211],[135.50653,35.5122],[135.50649,35.51231],[135.50649,35.51232],[135.50651,35.51234]]]}},{"type":"Feature","properties":{"pid":"5fb211c7-9d32-4853-b71f-57093d1142d4","full":2.1},"geometry":{"type":"Polygon","coordinates":[[[135.50696,35.51241],[135.50698,35.51242],[135.50703,35.5124],[135.50709,35.51236],[135.50724,35.51227],[135.50736,35.51223],[135.50745,35.51211],[135.50744,35.5121],[135.50731,35.51212],[135.50708,35.51216],[135.50703,35.51217],[135.50699,35.5122],[135.50696,35.51241]]]}},{"type":"Feature","properties":{"pid":"d451e1e8-6f58-4f5f-9be7-aa27db93d1a7","full":1.8},"geometry":{"type":"Polygon","coordinates":[[[135.50755,35.51207],[135.50754,35.51202],[135.50753,35.51194],[135.50754,35.51193],[135.50756,35.51192],[135.50758,35.51187],[135.50759,35.51183],[135.50757,35.51183],[135.50734,35.5119],[135.50715,35.51197],[135.50716,35.512],[135.50716,35.51202],[135.50718,35.51205],[135.50721,35.51206],[135.50727,35.51207],[135.50744,35.51206],[135.50755,35.51207]]]}},{"type":"Feature","properties":{"pid":"84002ab3-2278-4eaa-a64b-9dcfc3f5dc0f","full":2.1},"geometry":{"type":"Polygon","coordinates":[[[135.50796,35.51215],[135.50807,35.51201],[135.50805,35.51188],[135.50779,35.51193],[135.50779,35.51211],[135.50796,35.51215]]]}},{"type":"Feature","properties":{"pid":"777507f9-cb24-45c0-8637-3d805b662c1f","full":1.0},"geometry":{"type":"Polygon","coordinates":[[[135.50755,35.51247],[135.50774,35.51249],[135.50772,35.5124],[135.5077,35.51234],[135.50763,35.51232],[135.50759,35.5123],[135.50755,35.51229],[135.50739,35.51227],[135.50743,35.51234],[135.50753,35.51243],[135.50755,35.51247]]]}},{"type":"Feature","properties":{"pid":"aaf56ff4-f868-4885-af51-676e895d645f","full":1.2},"geometry":{"type":"Polygon","coordinates":[[[135.50727,35.51259],[135.50771,35.51263],[135.50775,35.51264],[135.50775,35.51252],[135.50751,35.51248],[135.5074,35.51248],[135.50736,35.51248],[135.50721,35.51255],[135.50721,35.51256],[135.50727,35.51259]]]}},{"type":"Feature","properties":{"pid":"b85b6b54-562c-48aa-a448-92ccc8b364f7","full":1.1},"geometry":{"type":"Polygon","coordinates":[[[135.5073,35.51296],[135.50741,35.51298],[135.50751,35.51296],[135.50754,35.51285],[135.50752,35.51283],[135.50749,35.51283],[135.50732,35.5128],[135.50725,35.5128],[135.50723,35.51282],[135.50723,35.51288],[135.50725,35.51292],[135.5073,35.51296]]]}},{"type":"Feature","properties":{"pid":"4dd851f7-6b68-4737-946b-f07cd70a0d12","full":2.2},"geometry":{"type":"Polygon","coordinates":[[[135.50358,35.50709],[135.50355,35.50695],[135.50344,35.50694],[135.50344,35.507],[135.50343,35.50701],[135.50344,35.5072],[135.50346,35.50732],[135.50357,35.50731],[135.50367,35.50727],[135.5037,35.50727],[135.50375,35.50725],[135.50377,35.5072],[135.50376,35.50716],[135.50359,35.5071],[135.50358,35.50709]]]}},{"type":"Feature","properties":{"pid":"7f085332-be0b-43a3-8b6e-2455f52b07e1","full":3.7},"geometry":{"type":"Polygon","coordinates":[[[135.50429,35.50721],[135.50497,35.50724],[135.50499,35.50718],[135.50497,35.50712],[135.50493,35.50706],[135.50487,35.50706],[135.50462,35.50707],[135.50447,35.50708],[135.50438,35.50711],[135.50433,35.50714],[135.50429,35.50718],[135.50429,35.50721]]]}}],"precision":5}