{"type":"FeatureCollection","features":[{"type":"Feature","properties":{"pid":"bf16672f-542e-46a0-b663-fddc3690e8b5","full":6.6},"geometry":{"type":"Polygon","coordinates":[[[136.14917,36.09769],[136.14917,36.09762],[136.14913,36.09759],[136.14899,36.09751],[136.14877,36.0975],[136.14827,36.09757],[136.14806,36.09757],[136.14791,36.09756],[136.14789,36.09764],[136.14824,36.09769],[136.14845,36.09767],[136.14845,36.09771],[136.14917,36.09769]]]}},{"type":"Feature","properties":{"pid":"01a9174f-1730-4524-9c0f-58f1d8114dc8","full":1.2},"geometry":{"type":"Polygon","coordinates":[[[136.14781,36.09754],[136.14723,36.09744],[136.14719,36.09745],[136.14718,36.09756],[136.14778,36.09765],[136.14781,36.09754]]]}},{"type":"Feature","properties":{"pid":"22c2d55b-df75-4315-a391-89928b815326","full":1.6},"geometry":{"type":"Polygon","coordinates":[[[136.14714,36.09744],[136.14685,36.09744],[136.1466,36.09742],[136.14664,36.0976],[136.14675,36.09757],[136.14692,36.09756],[136.14713,36.09756],[136.14714,36.09744]]]}},{"type":"Feature","properties":{"pid":"80d845bc-7b43-4d53-9c26-0f842f0d2335","full":1.7},"geometry":{"type":"Polygon","coordinates":[[[136.14642,36.09741],[136.14621,36.0974],[136.14632,36.09771],[136.14649,36.09765],[136.14642,36.09741]]]}},{"type":"Feature","properties":{"pid":"84abcf9e-5831-4f0d-87f9-fec83df5c126","full":7.3},"geometry":{"type":"Polygon","coordinates":[[[136.14629,36.09773],[136.14617,36.09739],[136.14598,36.09741],[136.14583,36.09747],[136.14599,36.09787],[136.14629,36.09773]]]}},{"type":"Feature","properties":{"pid":"f9a772b3-d312-46a3-a937-87d5c4d8994a","full":8.5},"geometry":{"type":"Polygon","coordinates":[[[136.14598,36.09787],[136.14583,36.09747],[136.14562,36.09756],[136.14549,36.09759],[136.14566,36.09802],[136.14598,36.09787]]]}},{"type":"Feature","properties":{"pid":"2b0a190e-4a9d-44d0-bc52-8a9311b3cb3a","full":3.2},"geometry":{"type":"Polygon","coordinates":[[[136.14057,36.09764],[136.14056,36.09741],[136.14028,36.09743],[136.14026,36.09745],[136.14025,36.09769],[136.14056,36.09766],[136.14057,36.09764]]]}},{"type":"Feature","properties":{"pid":"e3795b73-21f0-4b4f-8660-efaa4b8a5c40","full":3.3},"geometry":{"type":"Polygon","coordinates":[[[136.14062,36.09738],[136.14062,36.09716],[136.1403,36.09717],[136.14027,36.09718],[136.14026,36.09739],[136.14027,36.0974],[136.14062,36.09738]]]}},{"type":"Feature","properties":{"pid":"a4289751-375a-4c9c-91e0-9ba3e2042e0c","full":4.0},"geometry":{"type":"Polygon","coordinates":[[[136.14055,36.09694],[136.14047,36.09684],[136.14028,36.09685],[136.14027,36.09713],[136.14047,36.09715],[136.14063,36.09714],[136.14061,36.09702],[136.14055,36.09694]]]}},{"type":"Feature","properties":{"pid":"35ed9ab5-bdf1-4a58-a876-24a7b5aafc06","full":6.0},"geometry":{"type":"Polygon","coordinates":[[[136.1402,36.09738],[136.14022,36.09687],[136.14005,36.09687],[136.14002,36.09688],[136.14,36.097],[136.13993,36.0972],[136.13991,36.09738],[136.14017,36.09739],[136.1402,36.09738]]]}},{"type":"Feature","properties":{"pid":"23b08732-4f97-470e-8021-bbbb2f9894b8","full":3.1},"geometry":{"type":"Polygon","coordinates":[[[136.13993,36.09749],[136.13982,36.09769],[136.14019,36.09768],[136.14021,36.09743],[136.14003,36.09743],[136.13993,36.09749]]]}},{"type":"Feature","properties":{"pid":"d730757d-bdd2-4eb4-a40e-2cdedbc4c4e3","full":4.2},"geometry":{"type":"Polygon","coordinates":[[[136.14033,36.09661],[136.14017,36.09646],[136.1401,36.09648],[136.14007,36.09652],[136.14002,36.09682],[136.14027,36.09682],[136.14043,36.0968],[136.14039,36.09671],[136.14033,36.09661]]]}},{"type":"Feature","properties":{"pid":"f37d285f-928f-45b3-bf61-80f55c012e15","full":2.4},"geometry":{"type":"Polygon","coordinates":[[[136.13955,36.095],[136.13952,36.09488],[136.1394,36.09491],[136.1394,36.09506],[136.13942,36.09523],[136.13945,36.09534],[136.13971,36.0952],[136.13962,36.09513],[136.13955,36.095]]]}},{"type":"Feature","properties":{"pid":"adbd0fcc-4efd-4f3b-b8e2-c12d791ea002","full":1.0},"geometry":{"type":"Polygon","coordinates":[[[136.13984,36.09529],[136.13972,36.09521],[136.13946,36.09534],[136.13947,36.09538],[136.13952,36.09547],[136.13984,36.09529]]]}},{"type":"Feature","properties":{"pid":"dc6af15c-8a55-4314-957b-66ec3dccfbc6","full":0.6},"geometry":{"type":"Polygon","coordinates":[[[136.14011,36.0958],[136.14009,36.0957],[136.14003,36.0957],[136.13996,36.09574],[136.13998,36.09581],[136.13998,36.09591],[136.14001,36.09599],[136.1401,36.09609],[136.14015,36.09607],[136.14011,36.0958]]]}},{"type":"Feature","properties":{"pid":"c69a163f-b0d6-44a7-8b98-6a39672f69b5","full":4.0},"geometry":{"type":"Polygon","coordinates":[[[136.13974,36.09429],[136.1397,36.09421],[136.13946,36.09423],[136.13948,36.09428],[136.13961,36.09447],[136.13965,36.09456],[136.13989,36.09456],[136.13989,36.09446],[136.13986,36.09437],[136.13974,36.09429]]]}},{"type":"Feature","properties":{"pid":"568c1ea4-cd88-4328-858c-df6040da8308","full":9.3},"geometry":{"type":"Polygon","coordinates":[[[136.13686,36.09162],[136.13651,36.09129],[136.13638,36.09136],[136.13616,36.09146],[136.13657,36.09175],[136.13663,36.09176],[136.13671,36.09176],[136.13675,36.09174],[136.13686,36.09162]]]}},{"type":"Feature","properties":{"pid":"9cb597b8-8561-41ed-aa89-4a87dd96e420","full":3.2},"geometry":{"type":"Polygon","coordinates":[[[136.13735,36.09184],[136.13712,36.09174],[136.13698,36.09191],[136.13721,36.0921],[136.1374,36.09188],[136.13735,36.09184]]]}},{"type":"Feature","properties":{"pid":"97d49a0e-6619-4d29-9a8c-c503b375334f","full":1.0},"geometry":{"type":"Polygon","coordinates":[[[136.13712,36.09173],[136.13695,36.09164],[136.13681,36.09176],[136.13697,36.0919],[136.13712,36.09173]]]}},{"type":"Feature","properties":{"pid":"f191249d-64cc-4f06-9a23-9e9b499146ec","full":2.3},"geometry":{"type":"Polygon","coordinates":[[[136.13767,36.09197],[136.13748,36.09188],[136.13728,36.09211],[136.13747,36.09222],[136.13767,36.09197]]]}},{"type":"Feature","properties":{"pid":"6dce5b7e-68ba-4202-8024-655ed865d7f0","full":3.6},"geometry":{"type":"Polygon","coordinates":[[[136.13791,36.09207],[136.13768,36.09197],[136.13748,36.09223],[136.13761,36.09234],[136.13796,36.09212],[136.13791,36.09207]]]}},{"type":"Feature","properties":{"pid":"6ceafb26-0e9f-4df2-b035-540da8fbcb9f","full":2.1},"geometry":{"type":"Polygon","coordinates":[[[136.13866,36.09321],[136.13878,36.0931],[136.13874,36.09303],[136.1386,36.09292],[136.13844,36.09305],[136.13843,36.09307],[136.13859,36.09322],[136.13866,36.09321]]]}},{"type":"Feature","properties":{"pid":"1dc2248c-bbce-49b5-842a-a2eba364c6cd","full":14.5},"geometry":{"type":"Polygon","coordinates":[[[136.1361,36.09083],[136.13581,36.09062],[136.13578,36.09065],[136.13581,36.09079],[136.13582,36.09092],[136.13586,36.09106],[136.13602,36.09132],[136.13605,36.0914],[136.1361,36.09143],[136.13646,36.09124],[136.1361,36.09083]]]}},{"type":"Feature","properties":{"pid":"d7f3e7c4-f87a-4411-a3ac-47a1a447f5ef","full":11.2},"geometry":{"type":"Polygon","coordinates":[[[136.13765,36.09796],[136.13758,36.09796],[136.13746,36.0981],[136.13726,36.09814],[136.13725,36.09827],[136.13808,36.09837],[136.13817,36.09828],[136.13825,36.09826],[136.13823,36.0982],[136.13776,36.09808],[136.13767,36.09803],[136.13765,36.09796]]]}},{"type":"Feature","properties":{"pid":"4e1e55b8-4d16-4c2b-90d4-36a73136c42f","full":6.0},"geometry":{"type":"Polygon","coordinates":[[[136.13794,36.09861],[136.138,36.09855],[136.13802,36.09847],[136.13746,36.0984],[136.13721,36.09838],[136.1372,36.0985],[136.1375,36.0986],[136.1376,36.09859],[136.13778,36.09864],[136.13786,36.09865],[136.13794,36.09861]]]}},{"type":"Feature","properties":{"pid":"429a3168-2cb4-460b-a27d-6c8e2456000d","full":1.3},"geometry":{"type":"Polygon","coordinates":[[[136.13746,36.09872],[136.13734,36.0987],[136.13728,36.09871],[136.13762,36.099],[136.13775,36.09898],[136.13761,36.09876],[136.13746,36.09872]]]}},{"type":"Feature","properties":{"pid":"97c516a5-94f7-4381-8bf3-1055ef0ca734","full":1.0},"geometry":{"type":"Polygon","coordinates":[[[136.13789,36.0988],[136.13782,36.0988],[136.13762,36.09876],[136.13775,36.09898],[136.13795,36.09895],[136.13789,36.0988]]]}},{"type":"Feature","properties":{"pid":"1dd33cb5-07df-47f2-856a-fbb565393f63","full":2.1},"geometry":{"type":"Polygon","coordinates":[[[136.13733,36.09903],[136.13738,36.09903],[136.13741,36.09902],[136.13711,36.09873],[136.13706,36.09871],[136.13704,36.0987],[136.13697,36.09872],[136.13715,36.09908],[136.13733,36.09903]]]}},{"type":"Feature","properties":{"pid":"2cfdc9f7-db86-410a-9c1a-48e4756450a9","full":4.1},"geometry":{"type":"Polygon","coordinates":[[[136.13698,36.09886],[136.13692,36.09871],[136.13669,36.09873],[136.13644,36.09876],[136.13651,36.099],[136.13698,36.09886]]]}},{"type":"Feature","properties":{"pid":"35e6ad3a-eebd-46de-9145-5ccd56dac1d7","full":2.3},"geometry":{"type":"Polygon","coordinates":[[[136.13706,36.09903],[136.13699,36.09889],[136.13651,36.09903],[136.13666,36.09915],[136.13706,36.09903]]]}},{"type":"Feature","properties":{"pid":"27dfd91d-04cb-4b54-92da-176335e704e2","full":3.7},"geometry":{"type":"Polygon","coordinates":[[[136.13815,36.09953],[136.13809,36.09933],[136.13771,36.0994],[136.13765,36.09952],[136.13763,36.09962],[136.13815,36.09953]]]}},{"type":"Feature","properties":{"pid":"56189302-1f13-4e50-b598-89eec7563248","full":6.0},"geometry":{"type":"Polygon","coordinates":[[[136.13859,36.09901],[136.13828,36.09894],[136.13802,36.09898],[136.13812,36.09924],[136.13845,36.09918],[136.13863,36.09913],[136.13859,36.09901]]]}},{"type":"Feature","properties":{"pid":"0c2d5a0f-5a83-4dfc-9da0-f0973d1bd7fb","full":4.4},"geometry":{"type":"Polygon","coordinates":[[[136.13805,36.09925],[136.13795,36.09898],[136.1376,36.09904],[136.13766,36.09914],[136.13768,36.09922],[136.13769,36.09931],[136.13805,36.09925]]]}},{"type":"Feature","properties":{"pid":"f67e8a30-359e-428f-b739-af41b56b45e2","full":0.5},"geometry":{"type":"Polygon","coordinates":[[[136.13812,36.09878],[136.13795,36.09878],[136.13801,36.09894],[136.13827,36.0989],[136.13812,36.09878]]]}},{"type":"Feature","properties":{"pid":"367b3840-af3d-4b23-bbef-b11d52dcedc2","full":1.8},"geometry":{"type":"Polygon","coordinates":[[[136.13928,36.0992],[136.13922,36.09903],[136.13873,36.09921],[136.13875,36.0993],[136.13928,36.0992]]]}},{"type":"Feature","properties":{"pid":"06467a0e-2b66-42be-8559-938254cc31d3","full":12.1},"geometry":{"type":"Polygon","coordinates":[[[136.13877,36.09958],[136.13868,36.09922],[136.13814,36.09931],[136.13824,36.09967],[136.13877,36.09958]]]}},{"type":"Feature","properties":{"pid":"1af16964-7f03-4dba-a109-044d5d7b78c4","full":6.8},"geometry":{"type":"Polygon","coordinates":[[[136.13935,36.09947],[136.13929,36.09923],[136.13876,36.09932],[136.13883,36.09957],[136.13935,36.09947]]]}},{"type":"Feature","properties":{"pid":"d0eb25e2-b257-4b54-a8b0-9e5c25f11a85","full":7.0},"geometry":{"type":"Polygon","coordinates":[[[136.13885,36.09984],[136.13878,36.0996],[136.13824,36.09969],[136.13832,36.09994],[136.13885,36.09984]]]}},{"type":"Feature","properties":{"pid":"72e978c3-7d77-49c8-bd25-5b372fb0ef2d","full":2.6},"geometry":{"type":"Polygon","coordinates":[[[136.13819,36.09968],[136.13815,36.09954],[136.13764,36.09963],[136.13766,36.0997],[136.13773,36.09978],[136.13819,36.09968]]]}},{"type":"Feature","properties":{"pid":"85b0d6e0-34ec-438d-9538-e57fb097631d","full":4.3},"geometry":{"type":"Polygon","coordinates":[[[136.1383,36.1001],[136.1382,36.09971],[136.13775,36.0998],[136.13804,36.09997],[136.13822,36.10012],[136.1383,36.1001]]]}},{"type":"Feature","properties":{"pid":"fdc41206-a763-4cf2-aa5c-2201816f614e","full":1.2},"geometry":{"type":"Polygon","coordinates":[[[136.138,36.10024],[136.13786,36.10014],[136.13766,36.10017],[136.13772,36.10039],[136.138,36.10024]]]}},{"type":"Feature","properties":{"pid":"21a8b83b-9500-462f-8c32-3275f8c22467","full":5.1},"geometry":{"type":"Polygon","coordinates":[[[136.13899,36.10039],[136.13892,36.10016],[136.1384,36.10026],[136.1386,36.10047],[136.13899,36.10039]]]}},{"type":"Feature","properties":{"pid":"0228c5ab-a0b2-46c0-b87e-cc3cf496acf6","full":6.8},"geometry":{"type":"Polygon","coordinates":[[[136.13892,36.10011],[136.13885,36.09987],[136.13832,36.09997],[136.13838,36.10021],[136.13892,36.10011]]]}},{"type":"Feature","properties":{"pid":"c2969a02-7474-4610-89cb-b1c5125e9fbc","full":3.3},"geometry":{"type":"Polygon","coordinates":[[[136.13909,36.10076],[136.13899,36.10041],[136.13862,36.10048],[136.13879,36.10063],[136.13892,36.10072],[136.13908,36.10077],[136.13909,36.10076]]]}},{"type":"Feature","properties":{"pid":"e9fef493-bed9-4da6-a149-315f7ca04683","full":2.9},"geometry":{"type":"Polygon","coordinates":[[[136.13822,36.10098],[136.13812,36.10098],[136.13808,36.10128],[136.13834,36.1013],[136.13836,36.10106],[136.13832,36.10102],[136.13822,36.10098]]]}},{"type":"Feature","properties":{"pid":"fc7c4e4e-e971-4eb7-b816-5777c2122b3d","full":3.2},"geometry":{"type":"Polygon","coordinates":[[[136.13807,36.101],[136.13777,36.10099],[136.13774,36.10124],[136.13803,36.10127],[136.13807,36.101]]]}},{"type":"Feature","properties":{"pid":"df4ad844-6baa-4d27-ab9b-775bdcf6476e","full":2.8},"geometry":{"type":"Polygon","coordinates":[[[136.13774,36.101],[136.13744,36.10098],[136.13742,36.10121],[136.13771,36.10125],[136.13774,36.101]]]}},{"type":"Feature","properties":{"pid":"f57a2de7-6635-41ad-a601-a3cba0b37653","full":3.5},"geometry":{"type":"Polygon","coordinates":[[[136.13737,36.10095],[136.13706,36.10091],[136.13703,36.10117],[136.13734,36.10121],[136.13737,36.10095]]]}},{"type":"Feature","properties":{"pid":"6e20856a-3fa1-40c7-bf10-02088de427e3","full":4.5},"geometry":{"type":"Polygon","coordinates":[[[136.13682,36.10077],[136.13673,36.10074],[136.13672,36.10114],[136.13701,36.10117],[136.13704,36.1009],[136.13696,36.10087],[136.13682,36.10077]]]}},{"type":"Feature","properties":{"pid":"8cc09f60-03e4-4294-9360-199a17ffbb18","full":2.2},"geometry":{"type":"Polygon","coordinates":[[[136.13699,36.10123],[136.13656,36.10119],[136.13664,36.10133],[136.13663,36.10138],[136.1369,36.1014],[136.13696,36.10139],[136.13699,36.10123]]]}},{"type":"Feature","properties":{"pid":"44337982-2e4b-4abd-b1fd-5b27fb4b5886","full":3.5},"geometry":{"type":"Polygon","coordinates":[[[136.13669,36.10074],[136.13661,36.10072],[136.13651,36.10079],[136.13639,36.10083],[136.1364,36.1009],[136.1365,36.10107],[136.13656,36.10113],[136.13667,36.10113],[136.13669,36.10074]]]}},{"type":"Feature","properties":{"pid":"737a2944-9736-4f09-a17c-abb673c70ec5","full":2.2},"geometry":{"type":"Polygon","coordinates":[[[136.13772,36.10039],[136.13766,36.10017],[136.13739,36.10022],[136.13743,36.10037],[136.13743,36.10043],[136.13768,36.10041],[136.13772,36.10039]]]}},{"type":"Feature","properties":{"pid":"e0bb1b88-ec3e-494f-9434-c4501922c832","full":1.5},"geometry":{"type":"Polygon","coordinates":[[[136.13727,36.1],[136.13724,36.09998],[136.13708,36.1],[136.13709,36.10015],[136.13718,36.10025],[136.13734,36.10019],[136.13727,36.1]]]}},{"type":"Feature","properties":{"pid":"93b456b5-0115-44e1-8073-4192a23b19ce","full":2.4},"geometry":{"type":"Polygon","coordinates":[[[136.1365,36.10059],[136.13637,36.10045],[136.13622,36.10055],[136.13627,36.10071],[136.13632,36.10077],[136.13651,36.10074],[136.1365,36.10059]]]}},{"type":"Feature","properties":{"pid":"82ffa3cd-88e8-4073-8073-116708e44819","full":9.8},"geometry":{"type":"Polygon","coordinates":[[[136.13464,36.09895],[136.13475,36.09896],[136.13486,36.0989],[136.13482,36.09885],[136.13469,36.09876],[136.13452,36.09873],[136.13426,36.09861],[136.1341,36.09849],[136.13396,36.09848],[136.13394,36.09851],[136.13406,36.09867],[136.13413,36.09879],[136.1345,36.09902],[136.13455,36.09901],[136.13464,36.09895]]]}},{"type":"Feature","properties":{"pid":"42f70220-6b7e-416a-a98d-98d3b6e984e4","full":1.8},"geometry":{"type":"Polygon","coordinates":[[[136.13524,36.09863],[136.13506,36.09859],[136.135,36.09863],[136.135,36.09883],[136.13523,36.09886],[136.13524,36.09863]]]}},{"type":"Feature","properties":{"pid":"1cd38b6d-d498-433d-ac00-e303159c8f71","full":3.3},"geometry":{"type":"Polygon","coordinates":[[[136.13564,36.0987],[136.13528,36.09864],[136.13527,36.09873],[136.13526,36.09885],[136.13541,36.09889],[136.13553,36.09891],[136.13562,36.09887],[136.13564,36.0987]]]}},{"type":"Feature","properties":{"pid":"a6aed0d1-b05a-482d-ab51-1485aafcd197","full":6.4},"geometry":{"type":"Polygon","coordinates":[[[136.1357,36.09824],[136.13555,36.09819],[136.13522,36.09814],[136.1352,36.09833],[136.13529,36.09839],[136.13543,36.09845],[136.13565,36.09852],[136.1357,36.09824]]]}},{"type":"Feature","properties":{"pid":"c882dda4-fce8-4bb4-bab3-72a94f6e60a1","full":1.0},"geometry":{"type":"Polygon","coordinates":[[[136.13489,36.09826],[136.13478,36.09824],[136.13472,36.09843],[136.13517,36.09852],[136.13493,36.09834],[136.13489,36.09826]]]}},{"type":"Feature","properties":{"pid":"a8d1f247-674c-458e-b923-f2534fa12ac8","full":4.5},"geometry":{"type":"Polygon","coordinates":[[[136.13475,36.09822],[136.13423,36.09812],[136.13417,36.0983],[136.1347,36.09842],[136.13475,36.09822]]]}},{"type":"Feature","properties":{"pid":"1eb702e5-a410-447a-aa97-7ed9b0ffbd45","full":5.9},"geometry":{"type":"Polygon","coordinates":[[[136.13474,36.09794],[136.1343,36.09786],[136.13423,36.09808],[136.13487,36.0982],[136.13487,36.09819],[136.13479,36.09807],[136.13474,36.09794]]]}},{"type":"Feature","properties":{"pid":"94104f4b-875c-4061-9f23-6692785ca649","full":3.3},"geometry":{"type":"Polygon","coordinates":[[[136.13426,36.0978],[136.13395,36.09777],[136.13389,36.09801],[136.13416,36.09806],[136.13421,36.09802],[136.13426,36.0978]]]}},{"type":"Feature","properties":{"pid":"48038ff2-cf6f-4b28-94db-3775d6da0039","full":3.5},"geometry":{"type":"Polygon","coordinates":[[[136.13375,36.09823],[136.1341,36.0983],[136.13413,36.09813],[136.13373,36.09805],[136.13359,36.09808],[136.13353,36.09811],[136.13352,36.09814],[136.13352,36.09816],[136.13375,36.09823]]]}},{"type":"Feature","properties":{"pid":"0a5d0698-e6a5-4fbd-860e-57d8bdbe5572","full":2.0},"geometry":{"type":"Polygon","coordinates":[[[136.13291,36.09768],[136.13282,36.09769],[136.13286,36.0979],[136.13309,36.09787],[136.13318,36.09783],[136.13314,36.0977],[136.13301,36.0977],[136.13291,36.09768]]]}},{"type":"Feature","properties":{"pid":"ea85633d-75bf-44f1-8c1b-38ab4b3a19ea","full":9.1},"geometry":{"type":"Polygon","coordinates":[[[136.13387,36.09781],[136.13362,36.09781],[136.13315,36.09805],[136.13262,36.09806],[136.13276,36.09825],[136.13283,36.09827],[136.13383,36.09798],[136.13387,36.09781]]]}},{"type":"Feature","properties":{"pid":"447040e8-8659-47e5-936e-b3f13e63cd76","full":5.9},"geometry":{"type":"Polygon","coordinates":[[[136.13316,36.09847],[136.13303,36.09828],[136.13254,36.09843],[136.13266,36.09865],[136.13316,36.09847]]]}},{"type":"Feature","properties":{"pid":"10719081-1fb0-420a-bb76-40c8a81f5962","full":2.3},"geometry":{"type":"Polygon","coordinates":[[[136.13363,36.09826],[136.13338,36.09817],[136.13311,36.09825],[136.13321,36.09843],[136.13344,36.09834],[136.13366,36.09829],[136.13363,36.09826]]]}},{"type":"Feature","properties":{"pid":"372821e9-2426-4042-829f-ec0b684d8ab2","full":14.8},"geometry":{"type":"Polygon","coordinates":[[[136.13194,36.09923],[136.13194,36.09917],[136.13191,36.09913],[136.1318,36.09915],[136.13131,36.0993],[136.13122,36.09936],[136.13116,36.09949],[136.13114,36.09968],[136.13124,36.09983],[136.13141,36.09978],[136.13138,36.09967],[136.13157,36.09957],[136.13175,36.09938],[136.13194,36.09923]]]}},{"type":"Feature","properties":{"pid":"239efaae-f1c6-4747-ac88-d55d4da6e073","full":14.0},"geometry":{"type":"Polygon","coordinates":[[[136.13153,36.09897],[136.13201,36.09888],[136.13206,36.09887],[136.13206,36.09886],[136.13203,36.09878],[136.13201,36.09876],[136.13198,36.09874],[136.13192,36.09862],[136.13191,36.09861],[136.13162,36.09869],[136.13151,36.09873],[136.13117,36.09881],[136.13102,36.09889],[136.13095,36.09891],[136.13096,36.09893],[136.1311,36.09912],[136.13128,36.09903],[136.13153,36.09897]]]}},{"type":"Feature","properties":{"pid":"3dcb2916-2a6b-4e92-9604-d0dd8c81540f","full":2.9},"geometry":{"type":"Polygon","coordinates":[[[136.13192,36.09854],[136.13183,36.09838],[136.13176,36.09838],[136.13134,36.0986],[136.1314,36.0987],[136.13151,36.09867],[136.13162,36.09862],[136.13192,36.09854]]]}},{"type":"Feature","properties":{"pid":"4114748f-af12-4a33-b694-20397c761568","full":2.6},"geometry":{"type":"Polygon","coordinates":[[[136.13251,36.09846],[136.13249,36.09844],[136.13199,36.09857],[136.13206,36.09869],[136.1321,36.0987],[136.13256,36.09857],[136.13251,36.09846]]]}},{"type":"Feature","properties":{"pid":"a8d458af-651b-4d25-bcc4-6553780d63bd","full":1.2},"geometry":{"type":"Polygon","coordinates":[[[136.1326,36.09813],[136.13253,36.09806],[136.13239,36.09808],[136.13252,36.09835],[136.1327,36.0983],[136.1326,36.09813]]]}},{"type":"Feature","properties":{"pid":"57f2cad1-6511-44b7-a20e-72ba51e189ac","full":8.9},"geometry":{"type":"Polygon","coordinates":[[[136.13234,36.09808],[136.13218,36.0981],[136.13211,36.09812],[136.1319,36.09828],[136.13188,36.09832],[136.13197,36.0985],[136.13245,36.09838],[136.13246,36.09835],[136.13234,36.09808]]]}},{"type":"Feature","properties":{"pid":"2f321401-020a-43ca-98bd-d97b52ec4f06","full":1.5},"geometry":{"type":"Polygon","coordinates":[[[136.13272,36.09791],[136.13266,36.09769],[136.1324,36.09776],[136.13242,36.09779],[136.13255,36.09793],[136.13272,36.09791]]]}},{"type":"Feature","properties":{"pid":"fa80762f-8595-428f-be5d-73a192ffd8f1","full":2.8},"geometry":{"type":"Polygon","coordinates":[[[136.13235,36.09791],[136.13222,36.09771],[136.13212,36.09774],[136.13204,36.09778],[136.13191,36.09784],[136.13194,36.09793],[136.13202,36.09801],[136.13218,36.09794],[136.13235,36.09791]]]}},{"type":"Feature","properties":{"pid":"5418d115-5726-47a1-9a70-35084c9672bb","full":0.7},"geometry":{"type":"Polygon","coordinates":[[[136.12944,36.09928],[136.12935,36.0991],[136.12917,36.09923],[136.12917,36.0993],[136.12918,36.09934],[136.12944,36.09928]]]}},{"type":"Feature","properties":{"pid":"740b7aec-0e15-4494-ade0-d81ef9c4683a","full":0.7},"geometry":{"type":"Polygon","coordinates":[[[136.12967,36.09939],[136.12962,36.09938],[136.12922,36.09946],[136.12918,36.09957],[136.1297,36.09948],[136.12967,36.09939]]]}},{"type":"Feature","properties":{"pid":"872430c4-b0c2-4599-af96-251304121858","full":1.7},"geometry":{"type":"Polygon","coordinates":[[[136.1296,36.09906],[136.12955,36.09902],[136.12949,36.09903],[136.12936,36.09908],[136.12944,36.09927],[136.12949,36.09927],[136.12965,36.09925],[136.12966,36.09923],[136.1296,36.09906]]]}},{"type":"Feature","properties":{"pid":"b9c05f30-d0ad-4004-9129-6d98378cf7ae","full":1.1},"geometry":{"type":"Polygon","coordinates":[[[136.13008,36.09915],[136.13006,36.09904],[136.12984,36.09907],[136.12962,36.09906],[136.12967,36.09923],[136.13008,36.09915]]]}},{"type":"Feature","properties":{"pid":"9a684017-3c78-4b78-80ba-89946de6b535","full":5.5},"geometry":{"type":"Polygon","coordinates":[[[136.13019,36.09955],[136.13011,36.0993],[136.12997,36.09931],[136.12973,36.09937],[136.12971,36.09939],[136.12977,36.09963],[136.13019,36.09955]]]}},{"type":"Feature","properties":{"pid":"985a62b9-4de8-4556-893b-f62ab9581989","full":0.6},"geometry":{"type":"Polygon","coordinates":[[[136.13044,36.0995],[136.13036,36.09925],[136.13029,36.09925],[136.13022,36.09927],[136.1303,36.09953],[136.13044,36.0995]]]}},{"type":"Feature","properties":{"pid":"aeedd2ca-6fa4-42af-b8a6-057f5a01c6b7","full":0.8},"geometry":{"type":"Polygon","coordinates":[[[136.1306,36.09947],[136.1305,36.0992],[136.13037,36.09925],[136.13045,36.0995],[136.13057,36.09948],[136.1306,36.09947]]]}},{"type":"Feature","properties":{"pid":"8248eb53-ebb6-44ba-9b40-d75e48948fbc","full":1.5},"geometry":{"type":"Polygon","coordinates":[[[136.13028,36.09913],[136.13046,36.09908],[136.13038,36.09893],[136.13015,36.099],[136.13007,36.09902],[136.13009,36.09913],[136.13015,36.09913],[136.13017,36.09915],[136.13028,36.09913]]]}},{"type":"Feature","properties":{"pid":"27a394bb-4ae2-4521-a4d2-e215c7cc275e","full":1.3},"geometry":{"type":"Polygon","coordinates":[[[136.13106,36.09917],[136.13101,36.09909],[136.13064,36.09937],[136.1307,36.09955],[136.13106,36.09917]]]}},{"type":"Feature","properties":{"pid":"5d9091da-2101-4ae2-a411-19ebfd134b48","full":3.6},"geometry":{"type":"Polygon","coordinates":[[[136.13064,36.09958],[136.1306,36.09949],[136.1302,36.09956],[136.13017,36.09958],[136.13023,36.09981],[136.13031,36.0998],[136.13046,36.09973],[136.13053,36.09968],[136.13064,36.09958]]]}},{"type":"Feature","properties":{"pid":"b5de46f1-f740-48aa-aa89-a914e0c9be2c","full":3.0},"geometry":{"type":"Polygon","coordinates":[[[136.13022,36.09981],[136.13016,36.09958],[136.13009,36.09958],[136.12985,36.09963],[136.1299,36.09983],[136.12992,36.09983],[136.12993,36.09985],[136.13022,36.09981]]]}},{"type":"Feature","properties":{"pid":"36d271fc-c4f7-4659-8238-7faeb5cd1802","full":2.9},"geometry":{"type":"Polygon","coordinates":[[[136.12974,36.09963],[136.1297,36.09949],[136.12918,36.09958],[136.12912,36.09973],[136.12916,36.09974],[136.12974,36.09963]]]}},{"type":"Feature","properties":{"pid":"4afccebf-127d-4326-9a20-ced381413d81","full":5.6},"geometry":{"type":"Polygon","coordinates":[[[136.12979,36.09986],[136.12974,36.09966],[136.12916,36.09976],[136.12912,36.09976],[136.12906,36.0999],[136.12916,36.09991],[136.12935,36.09991],[136.12955,36.0999],[136.12979,36.09986]]]}},{"type":"Feature","properties":{"pid":"79883d26-19f5-4a60-82fb-556be37dc4df","full":0.6},"geometry":{"type":"Polygon","coordinates":[[[136.13733,36.1014],[136.13734,36.10127],[136.13704,36.10124],[136.13703,36.1014],[136.13725,36.10137],[136.13733,36.1014]]]}},{"type":"Feature","properties":{"pid":"7fd455ab-cb62-4ee8-a696-466216dfaea9","full":2.0},"geometry":{"type":"Polygon","coordinates":[[[136.1377,36.1013],[136.13738,36.10127],[136.13737,36.10141],[136.13749,36.10148],[136.13766,36.10151],[136.1377,36.1013]]]}},{"type":"Feature","properties":{"pid":"c6982665-f691-4de2-8b86-52d0f5070807","full":4.0},"geometry":{"type":"Polygon","coordinates":[[[136.13803,36.10133],[136.13773,36.10131],[136.13769,36.10155],[136.13783,36.10163],[136.1379,36.10165],[136.13798,36.10165],[136.13803,36.10133]]]}},{"type":"Feature","properties":{"pid":"702732fe-4148-4be5-9883-91b07191aa14","full":4.8},"geometry":{"type":"Polygon","coordinates":[[[136.13834,36.10135],[136.13807,36.10133],[136.13801,36.1017],[136.13823,36.10172],[136.13827,36.10171],[136.1383,36.10168],[136.13832,36.10151],[136.13835,36.10145],[136.13835,36.10139],[136.13834,36.10135]]]}},{"type":"Feature","properties":{"pid":"110b46a4-0b4d-4b89-90cf-20937f57f304","full":1.5},"geometry":{"type":"Polygon","coordinates":[[[136.13886,36.10119],[136.13892,36.10128],[136.13881,36.10134],[136.13883,36.10143],[136.13888,36.10152],[136.13912,36.10142],[136.13895,36.10115],[136.13886,36.10119]]]}},{"type":"Feature","properties":{"pid":"a9004804-54a0-4d9e-8be5-14ee6420c701","full":8.8},"geometry":{"type":"Polygon","coordinates":[[[136.13897,36.10175],[136.13883,36.10173],[136.13874,36.10174],[136.13845,36.10189],[136.13833,36.10191],[136.13834,36.10202],[136.13841,36.10203],[136.13851,36.1021],[136.13866,36.10213],[136.13878,36.10213],[136.13883,36.10202],[136.13888,36.102],[136.1389,36.10188],[136.13905,36.10182],[136.13897,36.10175]]]}},{"type":"Feature","properties":{"pid":"c4db9575-87e9-4eb8-967e-307b484ddc5e","full":0.5},"geometry":{"type":"Polygon","coordinates":[[[136.13917,36.10208],[136.13891,36.10206],[136.13887,36.10214],[136.13901,36.10219],[136.13914,36.10221],[136.13919,36.1022],[136.1392,36.10211],[136.13917,36.10208]]]}},{"type":"Feature","properties":{"pid":"5c97a300-7760-47a1-9aba-4ea2bd05e293","full":34.2},"geometry":{"type":"Polygon","coordinates":[[[136.14075,36.10458],[136.14015,36.1041],[136.13976,36.1044],[136.13978,36.10449],[136.14025,36.10502],[136.14075,36.10461],[136.14075,36.10458]]]}},{"type":"Feature","properties":{"pid":"b94d9e82-9760-45e7-b73e-6ef0b32b8b65","full":2.1},"geometry":{"type":"Polygon","coordinates":[[[136.14002,36.10411],[136.13973,36.10387],[136.1397,36.10414],[136.13985,36.10426],[136.14002,36.10411]]]}},{"type":"Feature","properties":{"pid":"c6ad3a78-d153-4c9d-9cd1-87a660a47d08","full":1.2},"geometry":{"type":"Polygon","coordinates":[[[136.13977,36.10319],[136.13972,36.10296],[136.13954,36.10305],[136.13955,36.10312],[136.13963,36.10327],[136.13968,36.10327],[136.13972,36.10322],[136.13977,36.10319]]]}},{"type":"Feature","properties":{"pid":"38204fc2-7d21-4db6-9755-329c64ee47a3","full":28.2},"geometry":{"type":"Polygon","coordinates":[[[136.14069,36.10354],[136.14035,36.10309],[136.13985,36.10322],[136.13975,36.10335],[136.13977,36.10339],[136.14033,36.10383],[136.14039,36.10381],[136.14069,36.10358],[136.14069,36.10354]]]}},{"type":"Feature","properties":{"pid":"388ee677-7744-441a-b09b-ca276c088e9f","full":2.0},"geometry":{"type":"Polygon","coordinates":[[[136.14033,36.10386],[136.13971,36.10337],[136.13964,36.10348],[136.14024,36.10395],[136.14033,36.10386]]]}},{"type":"Feature","properties":{"pid":"ba23b988-442f-433b-8edf-58676eef18f9","full":6.8},"geometry":{"type":"Polygon","coordinates":[[[136.14024,36.10395],[136.13966,36.10349],[136.13963,36.10352],[136.13973,36.10387],[136.14003,36.10411],[136.14024,36.10395]]]}},{"type":"Feature","properties":{"pid":"8d8490f7-c7e8-405f-8bb8-7e531f81dc28","full":3.4},"geometry":{"type":"Polygon","coordinates":[[[136.14121,36.10424],[136.14073,36.10362],[136.14054,36.10377],[136.14116,36.10427],[136.14121,36.10424]]]}},{"type":"Feature","properties":{"pid":"abf5802b-4e61-4944-acbe-9c950fdbab9a","full":6.2},"geometry":{"type":"Polygon","coordinates":[[[136.14129,36.10317],[136.14112,36.10312],[136.14109,36.10315],[136.14114,36.10337],[136.14119,36.10356],[136.14136,36.10375],[136.14146,36.10383],[136.14153,36.10384],[136.14157,36.10383],[136.14129,36.10317]]]}},{"type":"Feature","properties":{"pid":"025d51e9-f9f3-4850-bc1c-5e6438ef6a96","full":4.1},"geometry":{"type":"Polygon","coordinates":[[[136.14182,36.10383],[136.14153,36.1032],[136.14144,36.1032],[136.14135,36.10318],[136.14135,36.10319],[136.14163,36.10385],[136.14173,36.10386],[136.14178,36.10385],[136.14182,36.10383]]]}},{"type":"Feature","properties":{"pid":"ec75a321-52e2-4122-8ab3-290998c6a10d","full":6.0},"geometry":{"type":"Polygon","coordinates":[[[136.14116,36.10427],[136.14054,36.10377],[136.1404,36.10389],[136.14099,36.10438],[136.14104,36.10437],[136.14116,36.10427]]]}},{"type":"Feature","properties":{"pid":"078ead3d-5495-43db-a5da-d48c20eda414","full":3.4},"geometry":{"type":"Polygon","coordinates":[[[136.141,36.1044],[136.14037,36.10391],[136.14026,36.104],[136.14087,36.10448],[136.14092,36.10448],[136.141,36.1044]]]}},{"type":"Feature","properties":{"pid":"4342728b-fa4e-4ef0-8e9a-155fb06041b2","full":2.6},"geometry":{"type":"Polygon","coordinates":[[[136.14088,36.10451],[136.14026,36.104],[136.14015,36.1041],[136.14076,36.10459],[136.14088,36.10451]]]}},{"type":"Feature","properties":{"pid":"f67c48e3-f444-43c8-a24a-37f9b2f5ac5e","full":25.4},"geometry":{"type":"Polygon","coordinates":[[[136.14185,36.10478],[136.14125,36.10427],[136.14088,36.10458],[136.14152,36.10508],[136.14185,36.10481],[136.14185,36.10478]]]}},{"type":"Feature","properties":{"pid":"ed71cb8e-3cb4-40e5-a25a-a2089f6ce401","full":7.4},"geometry":{"type":"Polygon","coordinates":[[[136.14257,36.10477],[136.14204,36.10432],[136.14193,36.10445],[136.14193,36.10448],[136.14233,36.10489],[136.14242,36.10493],[136.14258,36.10481],[136.14257,36.10477]]]}},{"type":"Feature","properties":{"pid":"528de1d9-70b4-488d-9cde-c5b28ec50b3d","full":6.6},"geometry":{"type":"Polygon","coordinates":[[[136.14153,36.104],[136.14142,36.10392],[136.14133,36.10398],[136.14139,36.10407],[136.14158,36.1042],[136.14186,36.10442],[136.14211,36.10418],[136.14196,36.10412],[136.14177,36.10409],[136.14164,36.10403],[136.14153,36.104]]]}},{"type":"Feature","properties":{"pid":"1e2cff61-7c04-4b97-8333-7b00f2fdf6e3","full":3.6},"geometry":{"type":"Polygon","coordinates":[[[136.14282,36.10407],[136.14281,36.10386],[136.14239,36.10402],[136.14294,36.10434],[136.14299,36.1043],[136.14287,36.10421],[136.14282,36.10407]]]}},{"type":"Feature","properties":{"pid":"bf7c2b52-110c-4f42-bb76-65c7811cd359","full":4.2},"geometry":{"type":"Polygon","coordinates":[[[136.14296,36.10447],[136.14233,36.10412],[136.14225,36.10419],[136.14277,36.10463],[136.14281,36.10459],[136.14286,36.10456],[136.14296,36.10447]]]}},{"type":"Feature","properties":{"pid":"ea8f3686-0ec9-4e74-94de-9429eec0bfe1","full":2.4},"geometry":{"type":"Polygon","coordinates":[[[136.14276,36.10464],[136.14222,36.10418],[136.14212,36.10425],[136.14213,36.10429],[136.14266,36.10474],[136.14276,36.10464]]]}},{"type":"Feature","properties":{"pid":"050c4ea5-3285-4645-8823-f7fceacf3bcf","full":1.2},"geometry":{"type":"Polygon","coordinates":[[[136.14283,36.10372],[136.14281,36.10369],[136.14198,36.10388],[136.14199,36.10389],[136.14227,36.10396],[136.14273,36.10379],[136.14275,36.10376],[136.14283,36.10372]]]}},{"type":"Feature","properties":{"pid":"5225c3b8-3675-4081-bc8d-d845a10ae9de","full":0.5},"geometry":{"type":"Polygon","coordinates":[[[136.14268,36.10362],[136.14261,36.1036],[136.14188,36.10376],[136.14194,36.10385],[136.14268,36.10368],[136.14268,36.10362]]]}},{"type":"Feature","properties":{"pid":"3cb8c8d9-e2dd-4304-99de-d5578365af27","full":0.6},"geometry":{"type":"Polygon","coordinates":[[[136.14255,36.10358],[136.14254,36.10351],[136.14237,36.10352],[136.14184,36.10362],[136.14189,36.10373],[136.14255,36.10358]]]}},{"type":"Feature","properties":{"pid":"b1f172f2-1eed-4bb6-9d5f-6d8ea49a8bf6","full":2.0},"geometry":{"type":"Polygon","coordinates":[[[136.14254,36.10334],[136.14246,36.10334],[136.1424,36.10337],[136.14198,36.10344],[136.1418,36.1035],[136.14184,36.1036],[136.14251,36.10347],[136.14253,36.10344],[136.14255,36.10339],[136.14254,36.10334]]]}},{"type":"Feature","properties":{"pid":"ce42a2bc-c5ed-405f-9490-d75f6c5ee0cd","full":1.6},"geometry":{"type":"Polygon","coordinates":[[[136.14212,36.10326],[136.14184,36.10309],[136.14169,36.10313],[136.1417,36.10315],[136.14195,36.10334],[136.14203,36.10336],[136.14218,36.10333],[136.14221,36.10329],[136.14212,36.10326]]]}},{"type":"Feature","properties":{"pid":"77af214d-3dfb-4822-b0d2-9cba3f8a6093","full":0.8},"geometry":{"type":"Polygon","coordinates":[[[136.14233,36.10308],[136.14229,36.10299],[136.14204,36.10302],[136.14202,36.10304],[136.14214,36.10314],[136.14219,36.10316],[136.14232,36.10314],[136.14234,36.10313],[136.14233,36.10308]]]}},{"type":"Feature","properties":{"pid":"f048a12b-1e86-4ac3-800c-f809c99288e8","full":3.5},"geometry":{"type":"Polygon","coordinates":[[[136.14201,36.10249],[136.14178,36.10222],[136.14168,36.10228],[136.14163,36.10237],[136.14163,36.10239],[136.1417,36.10249],[136.14168,36.10252],[136.1416,36.10258],[136.14162,36.10261],[136.14178,36.1026],[136.14202,36.10253],[136.14201,36.10249]]]}},{"type":"Feature","properties":{"pid":"aa3764a3-e2b5-41dd-91fb-32a0da7cdc4d","full":21.5},"geometry":{"type":"Polygon","coordinates":[[[136.14157,36.10179],[136.14133,36.10139],[136.14068,36.10164],[136.14091,36.10202],[136.14114,36.10196],[136.14118,36.10192],[136.14156,36.10183],[136.14157,36.10179]]]}},{"type":"Feature","properties":{"pid":"2fcad191-6ff9-4854-9bdd-684a727fb30f","full":4.1},"geometry":{"type":"Polygon","coordinates":[[[136.14062,36.10162],[136.14039,36.10124],[136.1402,36.10132],[136.14019,36.10136],[136.14042,36.1017],[136.14062,36.10162]]]}},{"type":"Feature","properties":{"pid":"31ff8b17-f6c2-4dee-ba4a-202db994255b","full":21.6},"geometry":{"type":"Polygon","coordinates":[[[136.14087,36.10202],[136.14063,36.10165],[136.14003,36.10189],[136.14042,36.10242],[136.14065,36.10226],[136.1406,36.10218],[136.14087,36.10202]]]}},{"type":"Feature","properties":{"pid":"a80b81fb-5802-4605-9021-5a071f71bfc6","full":0.8},"geometry":{"type":"Polygon","coordinates":[[[136.14153,36.10289],[136.14138,36.10287],[136.14134,36.10304],[136.14134,36.10309],[136.14137,36.10312],[136.1414,36.10313],[136.14147,36.10313],[136.14149,36.10311],[136.14153,36.10289]]]}},{"type":"Feature","properties":{"pid":"b9f0ef7a-12f2-4291-b08b-55b4df9b32de","full":5.1},"geometry":{"type":"Polygon","coordinates":[[[136.14077,36.10311],[136.14044,36.10274],[136.14039,36.10275],[136.14026,36.10282],[136.14056,36.10323],[136.14078,36.1032],[136.14077,36.10311]]]}},{"type":"Feature","properties":{"pid":"154afdb3-9f80-44c3-941a-a24a8c2ca68a","full":2.0},"geometry":{"type":"Polygon","coordinates":[[[136.13992,36.10252],[136.13984,36.1024],[136.13952,36.10256],[136.13951,36.1026],[136.13954,36.10266],[136.13956,36.10269],[136.13962,36.10271],[136.13982,36.10268],[136.13976,36.10257],[136.13992,36.10252]]]}},{"type":"Feature","properties":{"pid":"c40c63a7-e7c6-4d22-a320-7dd9d252699c","full":0.8},"geometry":{"type":"Polygon","coordinates":[[[136.14022,36.10251],[136.14004,36.10228],[136.13992,36.10235],[136.14006,36.10256],[136.14008,36.10256],[136.14009,36.10257],[136.14022,36.10251]]]}},{"type":"Feature","properties":{"pid":"447b26f7-0535-428c-b44e-321d05dee050","full":0.8},"geometry":{"type":"Polygon","coordinates":[[[136.14007,36.10271],[136.14004,36.10267],[136.13965,36.10273],[136.13969,36.10281],[136.13974,36.10284],[136.13991,36.10281],[136.14007,36.10274],[136.14007,36.10271]]]}},{"type":"Feature","properties":{"pid":"ed767ffe-d9d7-406d-ae75-d061fea32351","full":2.4},"geometry":{"type":"Polygon","coordinates":[[[136.13983,36.10239],[136.13963,36.10211],[136.1395,36.10216],[136.13956,36.10227],[136.13953,36.10242],[136.13952,36.10254],[136.13983,36.10239]]]}},{"type":"Feature","properties":{"pid":"f6036e5d-d407-4429-83bf-b27d900239de","full":1.0},"geometry":{"type":"Polygon","coordinates":[[[136.13918,36.10192],[136.13911,36.10185],[136.13897,36.10191],[136.13893,36.10203],[136.13921,36.10205],[136.13922,36.10201],[136.13918,36.10192]]]}},{"type":"Feature","properties":{"pid":"ba5b5c89-8d68-4460-a55c-d9a57dc335e2","full":1.7},"geometry":{"type":"Polygon","coordinates":[[[136.13985,36.10198],[136.13965,36.10168],[136.13949,36.10176],[136.13968,36.10203],[136.13971,36.10204],[136.13985,36.10198]]]}},{"type":"Feature","properties":{"pid":"0b19abb6-a909-41c7-abf1-1388358d07d6","full":1.5},"geometry":{"type":"Polygon","coordinates":[[[136.1396,36.10208],[136.1394,36.1018],[136.13928,36.10185],[136.13929,36.10192],[136.13935,36.10201],[136.13947,36.10215],[136.1396,36.10208]]]}},{"type":"Feature","properties":{"pid":"2c7dd6ed-f547-4eac-bf43-3e008ef5650d","full":1.2},"geometry":{"type":"Polygon","coordinates":[[[136.14005,36.10228],[136.13986,36.10199],[136.13971,36.10206],[136.1399,36.10233],[136.13993,36.10232],[136.13994,36.10233],[136.14005,36.10228]]]}},{"type":"Feature","properties":{"pid":"68459966-3022-46c2-89e5-b5879a9aa552","full":0.6},"geometry":{"type":"Polygon","coordinates":[[[136.14019,36.10136],[136.14014,36.10134],[136.14006,36.10137],[136.14029,36.10175],[136.14041,36.1017],[136.14019,36.10136]]]}},{"type":"Feature","properties":{"pid":"7bfea240-7d43-45bc-b1c7-47628e6ba3fd","full":6.6},"geometry":{"type":"Polygon","coordinates":[[[136.14029,36.10175],[136.14006,36.10137],[136.1398,36.10145],[136.13979,36.10149],[136.14002,36.10186],[136.14029,36.10175]]]}},{"type":"Feature","properties":{"pid":"51fbc2d8-29ae-44d7-9857-791cf5eb4cda","full":2.7},"geometry":{"type":"Polygon","coordinates":[[[136.13964,36.10167],[136.13941,36.10132],[136.13923,36.1014],[136.13947,36.10174],[136.13949,36.10174],[136.13964,36.10167]]]}},{"type":"Feature","properties":{"pid":"9c771868-3b69-4af2-8de7-9a0c13558571","full":3.2},"geometry":{"type":"Polygon","coordinates":[[[136.13938,36.10178],[136.13913,36.10144],[136.13888,36.10154],[136.13894,36.10164],[136.13906,36.10171],[136.13915,36.10173],[136.13927,36.10183],[136.13938,36.10178]]]}},{"type":"Feature","properties":{"pid":"c36806e2-f985-4b43-9fc3-74b50fab2a34","full":4.1},"geometry":{"type":"Polygon","coordinates":[[[136.13915,36.10097],[136.13892,36.10087],[136.13888,36.10092],[136.1392,36.10137],[136.13922,36.10137],[136.13924,36.10138],[136.13941,36.10131],[136.13915,36.10097]]]}},{"type":"Feature","properties":{"pid":"7940a6d5-a0d6-4acd-a9cd-de2b610924f1","full":0.6},"geometry":{"type":"Polygon","coordinates":[[[136.13931,36.10084],[136.13936,36.10063],[136.13913,36.10067],[136.13916,36.1008],[136.13931,36.10084]]]}},{"type":"Feature","properties":{"pid":"4675d8b0-1b82-4e1b-9a68-b6c2b10b5a67","full":1.6},"geometry":{"type":"Polygon","coordinates":[[[136.1395,36.10034],[136.13948,36.10031],[136.13905,36.10038],[136.13908,36.10052],[136.13943,36.10046],[136.1395,36.10034]]]}},{"type":"Feature","properties":{"pid":"8afad34f-86fb-4f01-b2e2-699f346eb11c","full":11.1},"geometry":{"type":"Polygon","coordinates":[[[136.13993,36.10046],[136.13992,36.10045],[136.13957,36.1006],[136.13951,36.10076],[136.13948,36.10098],[136.1395,36.10101],[136.14011,36.10075],[136.13993,36.10046]]]}},{"type":"Feature","properties":{"pid":"fa1862fb-b59f-49a6-b9fe-aa8e7ff5897a","full":20.9},"geometry":{"type":"Polygon","coordinates":[[[136.14036,36.10119],[136.14012,36.10079],[136.1395,36.10106],[136.13951,36.10113],[136.13974,36.10144],[136.14036,36.10119]]]}},{"type":"Feature","properties":{"pid":"eeafbe7d-6321-4bc8-be96-dc26769f427a","full":14.5},"geometry":{"type":"Polygon","coordinates":[[[136.14041,36.10117],[136.14084,36.101],[136.14086,36.10099],[136.14062,36.10057],[136.14016,36.10076],[136.14041,36.10117]]]}},{"type":"Feature","properties":{"pid":"5eaea665-f881-4b53-b425-20690c376c31","full":13.1},"geometry":{"type":"Polygon","coordinates":[[[136.14125,36.10137],[136.14101,36.10098],[136.14057,36.10115],[136.14081,36.10154],[136.14125,36.10137]]]}},{"type":"Feature","properties":{"pid":"b03b436e-cf02-4e60-bd93-60753aab58d8","full":4.4},"geometry":{"type":"Polygon","coordinates":[[[136.14125,36.10098],[136.14119,36.10092],[136.14102,36.10098],[136.14124,36.10136],[136.14127,36.10137],[136.14148,36.10128],[136.14149,36.10127],[136.14125,36.10098]]]}},{"type":"Feature","properties":{"pid":"89cab7e6-709a-4e47-9688-80f62ba7a7d6","full":12.9},"geometry":{"type":"Polygon","coordinates":[[[136.13996,36.10043],[136.14014,36.10073],[136.14074,36.10048],[136.14065,36.1004],[136.14053,36.10019],[136.13996,36.10043]]]}},{"type":"Feature","properties":{"pid":"8f688e03-4afe-468f-950a-2613d64c2fe8","full":1.2},"geometry":{"type":"Polygon","coordinates":[[[136.14034,36.09971],[136.14045,36.09958],[136.14007,36.09964],[136.14012,36.09984],[136.14023,36.0998],[136.14034,36.09971]]]}},{"type":"Feature","properties":{"pid":"b4220700-ae7d-41f2-ad30-e1013d7a0db7","full":6.8},"geometry":{"type":"Polygon","coordinates":[[[136.1399,36.09992],[136.13991,36.09995],[136.14006,36.09987],[136.14,36.09965],[136.13948,36.09974],[136.13955,36.09999],[136.1399,36.09992]]]}},{"type":"Feature","properties":{"pid":"b91f2fd1-72ae-44c5-a9d0-3ab76680ebb2","full":8.8},"geometry":{"type":"Polygon","coordinates":[[[136.14045,36.09987],[136.14044,36.09987],[136.14025,36.09999],[136.14013,36.10002],[136.13983,36.1002],[136.13994,36.10039],[136.14051,36.10016],[136.14044,36.09998],[136.14045,36.09987]]]}},{"type":"Feature","properties":{"pid":"69c7e613-7375-4964-b7c2-40d6a3ebdbcd","full":5.8},"geometry":{"type":"Polygon","coordinates":[[[136.13956,36.10027],[136.1395,36.10005],[136.13898,36.10014],[136.13905,36.10036],[136.13956,36.10027]]]}},{"type":"Feature","properties":{"pid":"7d9b058c-83ea-4177-a85d-a4788f806424","full":6.8},"geometry":{"type":"Polygon","coordinates":[[[136.13949,36.10001],[136.13943,36.09976],[136.1389,36.09985],[136.13898,36.1001],[136.13949,36.10001]]]}},{"type":"Feature","properties":{"pid":"767bd4cb-013a-44ca-bc5a-0a92e9ef7011","full":6.4},"geometry":{"type":"Polygon","coordinates":[[[136.13999,36.09962],[136.13994,36.09938],[136.13941,36.09949],[136.13947,36.09972],[136.13999,36.09962]]]}},{"type":"Feature","properties":{"pid":"2b0046ab-73e5-4c32-8d2d-9f037f22a86c","full":6.4},"geometry":{"type":"Polygon","coordinates":[[[136.13942,36.09973],[136.13936,36.0995],[136.13883,36.0996],[136.1389,36.09983],[136.13942,36.09973]]]}},{"type":"Feature","properties":{"pid":"9e08bd64-5b70-44d8-aa5f-8ae4dcc51cb8","full":7.1},"geometry":{"type":"Polygon","coordinates":[[[136.13994,36.09936],[136.13987,36.09911],[136.13934,36.09921],[136.13941,36.09946],[136.13994,36.09936]]]}},{"type":"Feature","properties":{"pid":"bfd7e3e6-0925-4eb1-9471-c8d1a2ba6cf9","full":6.0},"geometry":{"type":"Polygon","coordinates":[[[136.14057,36.09941],[136.14053,36.09928],[136.14,36.09938],[136.14006,36.09961],[136.14047,36.09953],[136.14057,36.09941]]]}},{"type":"Feature","properties":{"pid":"51e5ff7e-f2d7-4613-9437-cdb02fd3adda","full":6.9},"geometry":{"type":"Polygon","coordinates":[[[136.14052,36.09926],[136.14045,36.09901],[136.13992,36.09911],[136.13999,36.09935],[136.14052,36.09926]]]}},{"type":"Feature","properties":{"pid":"cd5aa992-2ee5-439d-a392-b5ac0438af28","full":6.0},"geometry":{"type":"Polygon","coordinates":[[[136.14022,36.09884],[136.14021,36.09875],[136.13994,36.09877],[136.13983,36.09881],[136.13991,36.09908],[136.14044,36.09899],[136.14043,36.09892],[136.14024,36.09885],[136.14022,36.09884]]]}},{"type":"Feature","properties":{"pid":"46ae88d9-80a7-45b6-9547-c45a53947076","full":5.0},"geometry":{"type":"Polygon","coordinates":[[[136.13986,36.09909],[136.13981,36.09892],[136.13977,36.09893],[136.13976,36.0989],[136.13968,36.09892],[136.13966,36.09887],[136.13929,36.09901],[136.13934,36.09918],[136.13986,36.09909]]]}},{"type":"Feature","properties":{"pid":"00740d53-58db-4891-8305-1c06ea173750","full":7.1},"geometry":{"type":"Polygon","coordinates":[[[136.14018,36.09801],[136.14016,36.09799],[136.13999,36.09799],[136.13982,36.098],[136.13965,36.09799],[136.13962,36.09809],[136.13963,36.09824],[136.13982,36.09825],[136.14013,36.09823],[136.14017,36.09821],[136.14018,36.09801]]]}},{"type":"Feature","properties":{"pid":"af794fba-2df8-4e9b-80b5-bbb90eabea3e","full":5.4},"geometry":{"type":"Polygon","coordinates":[[[136.14015,36.09771],[136.13981,36.09772],[136.13975,36.09776],[136.13965,36.09795],[136.14019,36.09795],[136.14019,36.09772],[136.14015,36.09771]]]}},{"type":"Feature","properties":{"pid":"0514a6ce-8f48-4830-a413-907059536a64","full":3.8},"geometry":{"type":"Polygon","coordinates":[[[136.14022,36.09821],[136.14056,36.09821],[136.14057,36.09807],[136.14059,36.09801],[136.14058,36.09795],[136.14023,36.09796],[136.14022,36.09821]]]}},{"type":"Feature","properties":{"pid":"7413df0c-d4f5-4ca7-92d4-79eb98477985","full":3.6},"geometry":{"type":"Polygon","coordinates":[[[136.14056,36.0977],[136.14052,36.09768],[136.14025,36.09771],[136.14023,36.09784],[136.14023,36.09795],[136.14057,36.09793],[136.14056,36.0977]]]}},{"type":"Feature","properties":{"pid":"796a539f-5f79-4a6c-921c-5c9d90731804","full":2.4},"geometry":{"type":"Polygon","coordinates":[[[136.14141,36.09808],[136.14105,36.09801],[136.14104,36.09806],[136.14079,36.09802],[136.14076,36.09803],[136.14076,36.09807],[136.14079,36.0981],[136.14079,36.09818],[136.14133,36.09818],[136.14148,36.0982],[136.14149,36.09815],[136.14141,36.09808]]]}},{"type":"Feature","properties":{"pid":"1b115127-beaf-4be4-bec0-192953cdd648","full":1.2},"geometry":{"type":"Polygon","coordinates":[[[136.14165,36.09865],[136.14163,36.09851],[136.14139,36.09857],[136.14149,36.09878],[136.14167,36.09868],[136.14165,36.09865]]]}},{"type":"Feature","properties":{"pid":"19768ee2-59fe-426c-97e3-f582682c7cf4","full":7.2},"geometry":{"type":"Polygon","coordinates":[[[136.14148,36.09879],[136.14139,36.09858],[136.14109,36.09867],[136.14095,36.09868],[136.14097,36.09887],[136.14096,36.09905],[136.14148,36.09879]]]}},{"type":"Feature","properties":{"pid":"18ecafd4-42b8-495f-82b7-a6361d018106","full":0.7},"geometry":{"type":"Polygon","coordinates":[[[136.14075,36.09904],[136.14074,36.09896],[136.1405,36.09901],[136.14054,36.09915],[136.14073,36.09912],[136.14075,36.09904]]]}},{"type":"Feature","properties":{"pid":"6fa68dd9-ab97-4342-88ae-b4a77668f92f","full":1.9},"geometry":{"type":"Polygon","coordinates":[[[136.14306,36.09802],[136.14299,36.09789],[136.14289,36.09791],[136.1428,36.09791],[136.14268,36.09795],[136.14275,36.09812],[136.14304,36.09805],[136.14306,36.09802]]]}},{"type":"Feature","properties":{"pid":"a4bce142-2de6-4920-9e62-013580b0ca97","full":2.8},"geometry":{"type":"Polygon","coordinates":[[[136.14365,36.09841],[136.14352,36.09801],[136.14333,36.09808],[136.14343,36.09841],[136.14365,36.09841]]]}},{"type":"Feature","properties":{"pid":"093c34a8-9f99-44b0-bafb-f5e247ad9575","full":3.0},"geometry":{"type":"Polygon","coordinates":[[[136.14347,36.09791],[136.14337,36.09772],[136.14318,36.09778],[136.14304,36.09788],[136.14311,36.09803],[136.14347,36.09791]]]}},{"type":"Feature","properties":{"pid":"0694de14-763b-4bf0-a897-22a74fb86f21","full":2.8},"geometry":{"type":"Polygon","coordinates":[[[136.144,36.09834],[136.14386,36.09789],[136.14368,36.09795],[136.14383,36.09839],[136.14392,36.09838],[136.144,36.09834]]]}},{"type":"Feature","properties":{"pid":"98844b25-06fe-401f-b67f-03cbb259a2b2","full":6.2},"geometry":{"type":"Polygon","coordinates":[[[136.14426,36.09823],[136.14414,36.09781],[136.14387,36.09789],[136.14401,36.09834],[136.14426,36.09823]]]}},{"type":"Feature","properties":{"pid":"bf11f7de-4235-4c9e-905e-3b280275b4f5","full":0.5},"geometry":{"type":"Polygon","coordinates":[[[136.14303,36.09857],[136.14288,36.09856],[136.14283,36.09858],[136.14282,36.09863],[136.14284,36.0987],[136.14289,36.09872],[136.14302,36.09869],[136.14303,36.09857]]]}},{"type":"Feature","properties":{"pid":"910e1106-a3b6-403f-919f-cb21db6e1948","full":12.4},"geometry":{"type":"Polygon","coordinates":[[[136.14481,36.09813],[136.14487,36.09811],[136.14473,36.0977],[136.14455,36.09774],[136.14455,36.0978],[136.14444,36.09786],[136.14432,36.09787],[136.1442,36.09783],[136.14418,36.09784],[136.14429,36.09821],[136.14461,36.09814],[136.14481,36.09813]]]}},{"type":"Feature","properties":{"pid":"d477d871-6436-4bad-a720-7b429ac3b7ec","full":20.2},"geometry":{"type":"Polygon","coordinates":[[[136.14555,36.09805],[136.14557,36.09808],[136.14562,36.09805],[136.14545,36.0976],[136.14484,36.0977],[136.145,36.09811],[136.14524,36.09815],[136.1454,36.09814],[136.14547,36.09811],[136.14548,36.09809],[136.14555,36.09805]]]}},{"type":"Feature","properties":{"pid":"50d318b5-fc79-403c-bf9c-045752183782","full":1.4},"geometry":{"type":"Polygon","coordinates":[[[136.14614,36.09812],[136.14611,36.09811],[136.14596,36.09819],[136.14586,36.09825],[136.14579,36.09827],[136.14576,36.09831],[136.14576,36.09837],[136.14594,36.09835],[136.14615,36.09828],[136.14617,36.09824],[136.14614,36.09812]]]}},{"type":"Feature","properties":{"pid":"3eab93e4-4930-4cde-8080-531a01e83ee1","full":6.5},"geometry":{"type":"Polygon","coordinates":[[[136.14676,36.09812],[136.1467,36.09789],[136.14658,36.09795],[136.14656,36.09792],[136.1464,36.09797],[136.14623,36.09808],[136.14625,36.09828],[136.14645,36.09824],[136.14665,36.09818],[136.14672,36.09813],[136.14676,36.09812]]]}},{"type":"Feature","properties":{"pid":"2ddb1a4d-2146-4422-9b22-8c3e43b0e230","full":3.7},"geometry":{"type":"Polygon","coordinates":[[[136.14709,36.09804],[136.14701,36.0978],[136.14679,36.09784],[136.14671,36.09789],[136.14677,36.09812],[136.14709,36.09804]]]}},{"type":"Feature","properties":{"pid":"660888e5-7673-438d-a125-42e61fada558","full":2.1},"geometry":{"type":"Polygon","coordinates":[[[136.14469,36.10668],[136.14471,36.10653],[136.14442,36.10661],[136.14453,36.10686],[136.1447,36.10681],[136.14469,36.10668]]]}},{"type":"Feature","properties":{"pid":"1f384846-e891-4bff-90c9-c31398f1e7d4","full":1.9},"geometry":{"type":"Polygon","coordinates":[[[136.14452,36.10689],[136.1444,36.10661],[136.14421,36.10667],[136.14433,36.10695],[136.14452,36.10689]]]}},{"type":"Feature","properties":{"pid":"91addf74-a6da-410d-8916-30addb89108d","full":2.1},"geometry":{"type":"Polygon","coordinates":[[[136.14458,36.10568],[136.14448,36.10558],[136.14442,36.10557],[136.14434,36.1056],[136.14415,36.10565],[136.14413,36.1057],[136.14469,36.10584],[136.14458,36.10568]]]}},{"type":"Feature","properties":{"pid":"1f8f9883-4329-40ed-875b-f5c55ba8fdd8","full":1.4},"geometry":{"type":"Polygon","coordinates":[[[136.14418,36.10514],[136.14411,36.10509],[136.14408,36.1051],[136.14407,36.10513],[136.14406,36.10519],[136.14407,36.10521],[136.14411,36.10535],[136.14415,36.1054],[136.14427,36.10552],[136.14431,36.10555],[136.14445,36.10551],[136.14445,36.10549],[136.1443,36.10536],[136.14422,36.10526],[136.14418,36.10514]]]}},{"type":"Feature","properties":{"pid":"48cea9bd-eec7-4d12-96a9-a169e3558aca","full":1.8},"geometry":{"type":"Polygon","coordinates":[[[136.14362,36.10494],[136.14359,36.10494],[136.14358,36.1052],[136.14359,36.1055],[136.14363,36.10553],[136.14366,36.10551],[136.14371,36.10542],[136.14377,36.10513],[136.14376,36.10506],[136.14362,36.10494]]]}},{"type":"Feature","properties":{"pid":"5c440059-a34a-44d5-8c91-4475ae0b4de3","full":1.1},"geometry":{"type":"Polygon","coordinates":[[[136.14353,36.10492],[136.14347,36.1049],[136.14335,36.10525],[136.14335,36.1053],[136.14345,36.10541],[136.14348,36.10551],[136.14354,36.10549],[136.14352,36.10513],[136.14353,36.10504],[136.14353,36.10492]]]}},{"type":"Feature","properties":{"pid":"b564e231-ad2b-4b56-b771-15ba08d5cb16","full":2.1},"geometry":{"type":"Polygon","coordinates":[[[136.144,36.10508],[136.14393,36.10507],[136.14388,36.10509],[136.14386,36.10513],[136.14385,36.10523],[136.14382,36.10533],[136.14382,36.10536],[136.14403,36.10556],[136.14419,36.10563],[136.14426,36.10561],[136.14424,36.10558],[136.14413,36.10549],[136.14399,36.10522],[136.144,36.10508]]]}},{"type":"Feature","properties":{"pid":"4be61aa5-ac25-4fa5-a1bd-453b9a8b11c3","full":1.1},"geometry":{"type":"Polygon","coordinates":[[[136.14394,36.10559],[136.14377,36.10541],[136.14375,36.10542],[136.14366,36.10555],[136.14386,36.10568],[136.14404,36.10576],[136.14408,36.10571],[136.14408,36.10567],[136.14394,36.10559]]]}},{"type":"Feature","properties":{"pid":"2e7e7e63-50b4-4c2c-8265-b176bd9bc011","full":1.4},"geometry":{"type":"Polygon","coordinates":[[[136.14393,36.10596],[136.14349,36.10572],[136.14347,36.10573],[136.14358,36.10587],[136.14357,36.10591],[136.14389,36.10612],[136.14394,36.10601],[136.14393,36.10596]]]}},{"type":"Feature","properties":{"pid":"8b83986d-01f7-4837-91f3-15d9bd292684","full":1.9},"geometry":{"type":"Polygon","coordinates":[[[136.14434,36.10605],[136.14402,36.10598],[136.14397,36.10619],[136.1443,36.10619],[136.14434,36.10605]]]}},{"type":"Feature","properties":{"pid":"fe96885d-1bbd-4ee8-a376-9e04ee681273","full":0.9},"geometry":{"type":"Polygon","coordinates":[[[136.1438,36.10623],[136.14366,36.10613],[136.14362,36.10636],[136.14396,36.10641],[136.1438,36.10623]]]}},{"type":"Feature","properties":{"pid":"cc4563fc-c2e4-441a-8465-00f0113a18df","full":2.0},"geometry":{"type":"Polygon","coordinates":[[[136.14341,36.10635],[136.14329,36.10634],[136.14313,36.10681],[136.14333,36.10684],[136.14341,36.10635]]]}},{"type":"Feature","properties":{"pid":"27facca2-dc01-475a-b97d-64ce8436eeff","full":4.4},"geometry":{"type":"Polygon","coordinates":[[[136.14366,36.10612],[136.14341,36.10596],[136.14339,36.10597],[136.14329,36.10632],[136.14362,36.10636],[136.14366,36.10612]]]}},{"type":"Feature","properties":{"pid":"445cdecc-2f25-4b1d-9795-c75299c5e2b7","full":8.7},"geometry":{"type":"Polygon","coordinates":[[[136.14313,36.10577],[136.14295,36.10563],[136.14218,36.1061],[136.14226,36.10618],[136.14309,36.10588],[136.14312,36.10585],[136.14312,36.10581],[136.14313,36.10577]]]}},{"type":"Feature","properties":{"pid":"2bd3adfe-d91f-4f3e-83ae-339c1588322f","full":5.8},"geometry":{"type":"Polygon","coordinates":[[[136.14293,36.10562],[136.14273,36.10548],[136.14208,36.106],[136.14211,36.10605],[136.14217,36.10609],[136.14293,36.10562]]]}},{"type":"Feature","properties":{"pid":"9a452b6b-aec6-4a6a-84b3-cc4ec53d84b4","full":12.6},"geometry":{"type":"Polygon","coordinates":[[[136.1431,36.10591],[136.14308,36.1059],[136.14228,36.10619],[136.14234,36.10627],[136.14236,36.10636],[136.1424,36.10644],[136.14244,36.10644],[136.143,36.10625],[136.1431,36.10591]]]}},{"type":"Feature","properties":{"pid":"04ad6331-6c44-4c11-8026-3b6e8c21c662","full":0.8},"geometry":{"type":"Polygon","coordinates":[[[136.14296,36.1064],[136.14299,36.10627],[136.14244,36.10646],[136.14242,36.10649],[136.14244,36.10653],[136.14244,36.10658],[136.14296,36.1064]]]}},{"type":"Feature","properties":{"pid":"5d062193-ce24-4bab-856b-4175f18d3062","full":1.2},"geometry":{"type":"Polygon","coordinates":[[[136.14216,36.10563],[136.14153,36.10512],[136.14144,36.1052],[136.14207,36.1057],[136.14216,36.10563]]]}},{"type":"Feature","properties":{"pid":"bb52488b-2ed0-4424-8627-aaf319af9806","full":10.5},"geometry":{"type":"Polygon","coordinates":[[[136.14236,36.10546],[136.14174,36.10496],[136.14154,36.10513],[136.14216,36.10563],[136.14236,36.10546]]]}},{"type":"Feature","properties":{"pid":"6de07c94-3e0d-49ce-8780-56e4dacc4ec0","full":5.9},"geometry":{"type":"Polygon","coordinates":[[[136.14273,36.10548],[136.14257,36.10537],[136.14196,36.10587],[136.14208,36.106],[136.14273,36.10548]]]}},{"type":"Feature","properties":{"pid":"1b55548d-3c98-4931-840b-ea2e258a3731","full":6.5},"geometry":{"type":"Polygon","coordinates":[[[136.14219,36.10509],[136.14189,36.10482],[136.14174,36.10496],[136.14235,36.10544],[136.14239,36.10544],[136.14254,36.10532],[136.14219,36.10509]]]}},{"type":"Feature","properties":{"pid":"22a89b2e-7d1b-48d7-8861-cb73c8754186","full":19.0},"geometry":{"type":"Polygon","coordinates":[[[136.14152,36.10508],[136.14088,36.10458],[136.14058,36.10482],[136.14123,36.10532],[136.14152,36.10508]]]}},{"type":"Feature","properties":{"pid":"c7f07de4-08b3-42ff-9969-15c1de6cb759","full":15.8},"geometry":{"type":"Polygon","coordinates":[[[136.14206,36.1057],[136.14144,36.1052],[136.14111,36.10546],[136.14116,36.1055],[136.14121,36.10552],[136.14132,36.10554],[136.14149,36.10567],[136.1417,36.10578],[136.1419,36.10584],[136.14206,36.1057]]]}},{"type":"Feature","properties":{"pid":"7389fc09-d802-45b1-b0e9-11b4bb993812","full":17.1},"geometry":{"type":"Polygon","coordinates":[[[136.14123,36.10533],[136.14058,36.10482],[136.14029,36.10506],[136.14047,36.10522],[136.14078,36.10539],[136.14106,36.10547],[136.14123,36.10533]]]}},{"type":"Feature","properties":{"pid":"ffe2121e-3994-49cc-ac39-6f9c538c2ef9","full":8.3},"geometry":{"type":"Polygon","coordinates":[[[136.14294,36.10648],[136.14295,36.10641],[136.14245,36.10658],[136.14245,36.10676],[136.14255,36.10691],[136.14265,36.10699],[136.14269,36.107],[136.14294,36.10648]]]}},{"type":"Feature","properties":{"pid":"6f9fa2bb-1b0f-4e52-9273-977dcb3d7487","full":13.8},"geometry":{"type":"Polygon","coordinates":[[[136.14352,36.1069],[136.14312,36.10685],[136.14293,36.10732],[136.14344,36.10739],[136.14352,36.1069]]]}},{"type":"Feature","properties":{"pid":"a178fdaf-14ce-4557-b6a2-d6ec5aeb6af8","full":5.0},"geometry":{"type":"Polygon","coordinates":[[[136.14373,36.10639],[136.1435,36.10637],[136.14341,36.10685],[136.14365,36.10688],[136.14373,36.10639]]]}},{"type":"Feature","properties":{"pid":"707a2daf-31f8-4283-b967-caa7daa35ab9","full":0.8},"geometry":{"type":"Polygon","coordinates":[[[136.14386,36.10641],[136.14373,36.10639],[136.14366,36.10688],[136.14378,36.1069],[136.14386,36.10641]]]}},{"type":"Feature","properties":{"pid":"5fd61949-24f5-44d0-943f-4766df2308e6","full":3.8},"geometry":{"type":"Polygon","coordinates":[[[136.14396,36.10642],[136.14386,36.10641],[136.14378,36.1069],[136.14399,36.10692],[136.14406,36.1066],[136.14396,36.10642]]]}},{"type":"Feature","properties":{"pid":"6c891908-3744-41f3-b1fa-6408cc52c85f","full":3.9},"geometry":{"type":"Polygon","coordinates":[[[136.14414,36.10697],[136.14394,36.10695],[136.14386,36.10743],[136.14407,36.10746],[136.14414,36.10697]]]}},{"type":"Feature","properties":{"pid":"ce3a8062-fb06-48fc-b19e-df407904e613","full":3.7},"geometry":{"type":"Polygon","coordinates":[[[136.14373,36.10692],[136.14353,36.1069],[136.14344,36.10739],[136.14364,36.10741],[136.14373,36.10692]]]}},{"type":"Feature","properties":{"pid":"84b5288d-de20-4989-81e0-445dc7c206a3","full":4.2},"geometry":{"type":"Polygon","coordinates":[[[136.14394,36.10695],[136.14373,36.10692],[136.14364,36.10741],[136.14386,36.10743],[136.14394,36.10695]]]}},{"type":"Feature","properties":{"pid":"4e1a6559-0b99-4e28-95eb-4becd27c9a68","full":2.3},"geometry":{"type":"Polygon","coordinates":[[[136.12578,36.10031],[136.12573,36.10028],[136.12556,36.10028],[136.12543,36.10025],[136.12532,36.10025],[136.12524,36.10027],[136.12525,36.1004],[136.12531,36.10047],[136.12533,36.10047],[136.12553,36.10041],[136.12578,36.10031]]]}},{"type":"Feature","properties":{"pid":"0aa405b2-7660-47e7-9150-8a06fc5614e4","full":0.8},"geometry":{"type":"Polygon","coordinates":[[[136.12525,36.10003],[136.1251,36.1],[136.12501,36.10018],[136.12517,36.10017],[136.12536,36.10012],[136.12539,36.10008],[136.12534,36.10005],[136.12525,36.10003]]]}},{"type":"Feature","properties":{"pid":"4092fd77-9fd2-4181-b860-c03f73a7f054","full":4.2},"geometry":{"type":"Polygon","coordinates":[[[136.12566,36.09988],[136.12575,36.09951],[136.12561,36.09949],[136.1256,36.09954],[136.12544,36.09951],[136.12538,36.09971],[136.12546,36.09975],[136.1254,36.09986],[136.12566,36.09988]]]}},{"type":"Feature","properties":{"pid":"cffde79a-631d-45d7-9491-96f5d6bac548","full":1.1},"geometry":{"type":"Polygon","coordinates":[[[136.126,36.09955],[136.12588,36.09954],[136.12579,36.0999],[136.12594,36.09992],[136.12602,36.09958],[136.126,36.09955]]]}},{"type":"Feature","properties":{"pid":"753a49c8-50c6-4224-9240-32e296f7e5e5","full":4.9},"geometry":{"type":"Polygon","coordinates":[[[136.12633,36.09962],[136.12605,36.09957],[136.12596,36.09992],[136.12617,36.09992],[136.12625,36.0999],[136.12632,36.09986],[136.12633,36.09962]]]}},{"type":"Feature","properties":{"pid":"20d25b67-0d3c-4913-90b8-5f02350b04e0","full":1.0},"geometry":{"type":"Polygon","coordinates":[[[136.12613,36.10018],[136.12558,36.10016],[136.12558,36.1002],[136.12574,36.10022],[136.12588,36.10027],[136.12599,36.10035],[136.12604,36.10035],[136.12613,36.10034],[136.12613,36.10018]]]}},{"type":"Feature","properties":{"pid":"e4d323a6-786d-4193-9954-4dec7cc3b1e6","full":3.0},"geometry":{"type":"Polygon","coordinates":[[[136.12583,36.10039],[136.12583,36.10037],[136.12535,36.10053],[136.12537,36.10061],[136.12545,36.10071],[136.12555,36.10069],[136.12567,36.10063],[136.12571,36.10056],[136.12576,36.10051],[136.12582,36.10051],[136.12582,36.10041],[136.12583,36.10039]]]}},{"type":"Feature","properties":{"pid":"96fea305-3f83-4e7b-9aa2-22cb6cdce88d","full":3.3},"geometry":{"type":"Polygon","coordinates":[[[136.12536,36.10073],[136.12524,36.10056],[136.12487,36.10068],[136.12488,36.10077],[136.12494,36.10083],[136.12522,36.1008],[136.12536,36.10073]]]}},{"type":"Feature","properties":{"pid":"5339c9b3-19c5-498d-ac5c-39d560557a2e","full":0.9},"geometry":{"type":"Polygon","coordinates":[[[136.12807,36.09997],[136.12795,36.09994],[136.12784,36.09995],[136.12781,36.10005],[136.12782,36.10007],[136.12808,36.10011],[136.12808,36.10007],[136.12809,36.10003],[136.12809,36.1],[136.12807,36.09997]]]}},{"type":"Feature","properties":{"pid":"11d6fb58-0145-41ce-b693-5a6da54bbfba","full":1.0},"geometry":{"type":"Polygon","coordinates":[[[136.12868,36.09997],[136.12808,36.09984],[136.12791,36.09984],[136.12791,36.09991],[136.12801,36.09991],[136.1281,36.09995],[136.12812,36.09998],[136.12817,36.09998],[136.12823,36.10001],[136.12836,36.10002],[136.12867,36.1],[136.12868,36.09997]]]}},{"type":"Feature","properties":{"pid":"7c5a0c2a-8070-4fcb-b5a2-98c71216fd56","full":6.6},"geometry":{"type":"Polygon","coordinates":[[[136.12868,36.09947],[136.12838,36.09942],[136.12824,36.09975],[136.12834,36.09979],[136.12856,36.09983],[136.12859,36.09981],[136.12871,36.09949],[136.12868,36.09947]]]}},{"type":"Feature","properties":{"pid":"97aaab5f-c87c-4e18-b0c1-b55c79ba1501","full":7.3},"geometry":{"type":"Polygon","coordinates":[[[136.12813,36.09938],[136.12796,36.09937],[136.12784,36.09968],[136.12786,36.0997],[136.12805,36.09971],[136.12822,36.09974],[136.12825,36.09972],[136.12836,36.09944],[136.12834,36.09942],[136.12813,36.09938]]]}},{"type":"Feature","properties":{"pid":"082ad4c4-1887-45a5-bd2a-bd6049fe7f98","full":11.1},"geometry":{"type":"Polygon","coordinates":[[[136.1272,36.09936],[136.12714,36.09932],[136.12678,36.09941],[136.1269,36.09982],[136.12692,36.09983],[136.12732,36.09976],[136.1272,36.09936]]]}},{"type":"Feature","properties":{"pid":"7bd5b23f-d4ca-45f0-bb09-61e67ba6036e","full":6.6},"geometry":{"type":"Polygon","coordinates":[[[136.12689,36.09983],[136.12677,36.09943],[136.12674,36.09942],[136.12658,36.09947],[136.12651,36.09955],[136.12648,36.09961],[136.12649,36.09984],[136.12664,36.09982],[136.12665,36.09988],[136.12678,36.09986],[136.12677,36.09984],[136.12681,36.09983],[136.12682,36.09985],[136.12689,36.09983]]]}},{"type":"Feature","properties":{"pid":"bb4ab575-705a-48ac-9c9b-be9cf6a98a50","full":4.5},"geometry":{"type":"Polygon","coordinates":[[[136.12709,36.09902],[136.12677,36.09905],[136.12664,36.0991],[136.12673,36.0993],[136.12707,36.09924],[136.12714,36.09921],[136.12709,36.09902]]]}},{"type":"Feature","properties":{"pid":"7facf849-867c-43e4-bf60-b6ee94eddc60","full":1.2},"geometry":{"type":"Polygon","coordinates":[[[136.12671,36.0993],[136.12662,36.09912],[136.12646,36.0992],[136.12645,36.09936],[136.12644,36.09941],[136.12648,36.09942],[136.12655,36.09936],[136.12671,36.0993]]]}},{"type":"Feature","properties":{"pid":"412a9e1a-ca5c-4ad2-a73b-8e20a3c35d1e","full":6.3},"geometry":{"type":"Polygon","coordinates":[[[136.12748,36.09928],[136.12744,36.09926],[136.1272,36.09931],[136.12735,36.09978],[136.12742,36.09976],[136.12741,36.09973],[136.12746,36.09972],[136.12746,36.09975],[136.12758,36.09974],[136.12762,36.09972],[136.12748,36.09928]]]}},{"type":"Feature","properties":{"pid":"61ab76ae-a408-4783-952d-aad32ebd8a87","full":5.8},"geometry":{"type":"Polygon","coordinates":[[[136.12773,36.09932],[136.12748,36.09927],[136.12762,36.09972],[136.12778,36.09971],[136.12778,36.09968],[136.12781,36.09968],[136.12791,36.09936],[136.12773,36.09932]]]}},{"type":"Feature","properties":{"pid":"12c58584-c832-475f-ba89-4b99ab1c3a23","full":4.1},"geometry":{"type":"Polygon","coordinates":[[[136.12641,36.09935],[136.12641,36.09926],[136.12611,36.09927],[136.12608,36.09939],[136.12604,36.09953],[136.12632,36.09958],[136.12639,36.09946],[136.12641,36.09935]]]}},{"type":"Feature","properties":{"pid":"d0cfc5e7-871e-4af4-8d8a-bb48a1b40ace","full":0.6},"geometry":{"type":"Polygon","coordinates":[[[136.12608,36.09926],[136.12595,36.09925],[136.12588,36.0995],[136.12602,36.09953],[136.12607,36.09938],[136.12608,36.09926]]]}},{"type":"Feature","properties":{"pid":"26828740-8e1d-44aa-953a-fcce20b392da","full":0.5},"geometry":{"type":"Polygon","coordinates":[[[136.12593,36.09926],[136.12586,36.09924],[136.12575,36.09933],[136.12572,36.09947],[136.12587,36.0995],[136.12593,36.09926]]]}}],"precision":5}