{"type":"FeatureCollection","features":[{"type":"Feature","properties":{"pid":"23f9f75c-7c8f-4a44-a7fc-1c15ad7eeee8","full":7.8},"geometry":{"type":"Polygon","coordinates":[[[136.27958,36.2558],[136.27993,36.25566],[136.27973,36.25534],[136.27936,36.25549],[136.27958,36.2558]]]}},{"type":"Feature","properties":{"pid":"42480cf3-a3a0-4a85-afd1-b67d13840f1c","full":11.4},"geometry":{"type":"Polygon","coordinates":[[[136.28023,36.25671],[136.2805,36.2566],[136.28012,36.25601],[136.27981,36.25614],[136.27994,36.25632],[136.27998,36.2563],[136.28023,36.25671]]]}},{"type":"Feature","properties":{"pid":"8ec64152-b51c-46db-adfb-1d0f51ac4fb5","full":4.5},"geometry":{"type":"Polygon","coordinates":[[[136.28041,36.25699],[136.28073,36.25686],[136.28053,36.25663],[136.28024,36.25673],[136.28041,36.25699]]]}},{"type":"Feature","properties":{"pid":"125d33cc-b589-453f-905f-afc97f49a5a9","full":8.5},"geometry":{"type":"Polygon","coordinates":[[[136.28044,36.25702],[136.28069,36.25744],[136.28071,36.25746],[136.2809,36.25722],[136.28098,36.25717],[136.28076,36.25688],[136.28044,36.25702]]]}},{"type":"Feature","properties":{"pid":"6c59b9bb-946f-4bf1-a130-3f6a8db42cd8","full":6.4},"geometry":{"type":"Polygon","coordinates":[[[136.2798,36.25612],[136.28011,36.25599],[136.27994,36.25568],[136.27959,36.25582],[136.2798,36.25612]]]}},{"type":"Feature","properties":{"pid":"ee26603e-ac98-452a-a46c-5b0a423ac07f","full":17.0},"geometry":{"type":"Polygon","coordinates":[[[136.28165,36.25549],[136.28186,36.25555],[136.28189,36.25555],[136.28196,36.2555],[136.28267,36.25456],[136.28239,36.25451],[136.28165,36.25549]]]}},{"type":"Feature","properties":{"pid":"b6ddc902-d0df-4466-a4fc-be631ea4ea46","full":14.1},"geometry":{"type":"Polygon","coordinates":[[[136.28138,36.25534],[136.28161,36.25547],[136.28223,36.25466],[136.282,36.25454],[136.28138,36.25534]]]}},{"type":"Feature","properties":{"pid":"080dc691-d8d5-4407-b01c-3615ff5e8d53","full":14.3},"geometry":{"type":"Polygon","coordinates":[[[136.28112,36.25518],[136.28135,36.25531],[136.28201,36.25445],[136.28172,36.25442],[136.28112,36.25518]]]}},{"type":"Feature","properties":{"pid":"2b7ac1c0-3f8f-4fa3-b71a-8e6eeefedd15","full":19.2},"geometry":{"type":"Polygon","coordinates":[[[136.28078,36.255],[136.28109,36.25516],[136.28167,36.25441],[136.28127,36.25435],[136.28078,36.255]]]}},{"type":"Feature","properties":{"pid":"f71b1052-2a1c-42f0-aedb-1d97ac1f734a","full":9.4},"geometry":{"type":"Polygon","coordinates":[[[136.28013,36.25464],[136.28038,36.25475],[136.2804,36.25473],[136.28042,36.25474],[136.28076,36.2543],[136.28049,36.25417],[136.28013,36.25464]]]}},{"type":"Feature","properties":{"pid":"6fbdc153-9cd7-4838-8424-d8280c11c7e3","full":19.9},"geometry":{"type":"Polygon","coordinates":[[[136.2795,36.25494],[136.27951,36.25495],[136.27962,36.25498],[136.27982,36.25494],[136.27987,36.2549],[136.28059,36.25394],[136.28045,36.2539],[136.28031,36.25389],[136.28029,36.25389],[136.2795,36.25494]]]}},{"type":"Feature","properties":{"pid":"db11e9e2-893c-47f7-ad94-ea94b42ec258","full":94.1},"geometry":{"type":"Polygon","coordinates":[[[136.27902,36.25485],[136.27906,36.25487],[136.27943,36.25493],[136.28021,36.25389],[136.28018,36.25388],[136.27905,36.25386],[136.27846,36.2539],[136.27837,36.25393],[136.27902,36.25485]]]}},{"type":"Feature","properties":{"pid":"3732dcac-a735-4653-8ac9-44c973e64558","full":8.0},"geometry":{"type":"Polygon","coordinates":[[[136.27936,36.25547],[136.27938,36.25548],[136.27971,36.25534],[136.27954,36.25512],[136.27949,36.25509],[136.27908,36.25501],[136.27906,36.25502],[136.27936,36.25547]]]}},{"type":"Feature","properties":{"pid":"766a558c-e5dd-449f-b43b-8c94d99660ac","full":84.9},"geometry":{"type":"Polygon","coordinates":[[[136.27718,36.25478],[136.27743,36.2549],[136.27763,36.25492],[136.27769,36.25495],[136.27777,36.25502],[136.278,36.25503],[136.27813,36.25496],[136.27821,36.25494],[136.27861,36.25493],[136.27794,36.25395],[136.27764,36.25396],[136.27724,36.25396],[136.27718,36.25478]]]}},{"type":"Feature","properties":{"pid":"f4b7d421-534c-4c4d-bf9b-49cb69940932","full":65.1},"geometry":{"type":"Polygon","coordinates":[[[136.27608,36.25443],[136.2763,36.25447],[136.27692,36.25473],[136.27713,36.25476],[136.27719,36.25396],[136.27683,36.2539],[136.27654,36.2538],[136.27633,36.2537],[136.27614,36.25358],[136.27608,36.25443]]]}},{"type":"Feature","properties":{"pid":"316dddbd-3e65-4662-9008-f7a94f73e620","full":24.0},"geometry":{"type":"Polygon","coordinates":[[[136.27633,36.25279],[136.27634,36.25254],[136.27522,36.25249],[136.27523,36.25254],[136.27528,36.25259],[136.27565,36.25284],[136.27612,36.2532],[136.27614,36.25282],[136.27619,36.25278],[136.27633,36.25279]]]}},{"type":"Feature","properties":{"pid":"e60d1ee2-c246-4c97-bbf4-d42ff6bee574","full":75.1},"geometry":{"type":"Polygon","coordinates":[[[136.27496,36.2536],[136.27566,36.2541],[136.27579,36.25426],[136.27592,36.25435],[136.27604,36.2544],[136.2761,36.25356],[136.27528,36.25289],[136.27522,36.25285],[136.27514,36.25283],[136.27505,36.25292],[136.27501,36.25327],[136.275,36.25326],[136.27496,36.2536]]]}},{"type":"Feature","properties":{"pid":"83b626f2-0caa-4e35-8233-98cda78be4c8","full":78.3},"geometry":{"type":"Polygon","coordinates":[[[136.27637,36.25341],[136.27646,36.25346],[136.27666,36.25356],[136.27693,36.25365],[136.27714,36.25369],[136.27738,36.25371],[136.27751,36.25371],[136.27771,36.25369],[136.27774,36.25366],[136.2774,36.25315],[136.27695,36.2527],[136.27677,36.25258],[136.27642,36.25255],[136.27637,36.25341]]]}},{"type":"Feature","properties":{"pid":"970aacb8-c788-490e-9189-83ecad6cbe79","full":24.1},"geometry":{"type":"Polygon","coordinates":[[[136.27512,36.25211],[136.27515,36.25213],[136.27602,36.2522],[136.27612,36.252],[136.27605,36.25195],[136.27585,36.25183],[136.27568,36.25175],[136.27556,36.25168],[136.27552,36.25164],[136.2754,36.25157],[136.27512,36.25211]]]}},{"type":"Feature","properties":{"pid":"37bcc56d-2dc7-46e9-a656-06384c9752b7","full":7.2},"geometry":{"type":"Polygon","coordinates":[[[136.2822,36.252],[136.28229,36.25198],[136.2825,36.25198],[136.28255,36.25196],[136.28221,36.25153],[136.28216,36.25155],[136.28198,36.25169],[136.28198,36.25172],[136.2822,36.252]]]}},{"type":"Feature","properties":{"pid":"a28082ea-5c89-4c9c-b869-807b36392df9","full":6.5},"geometry":{"type":"Polygon","coordinates":[[[136.27879,36.25263],[136.27905,36.25283],[136.27946,36.25266],[136.27918,36.25246],[136.27879,36.25263]]]}},{"type":"Feature","properties":{"pid":"cf237717-7457-4128-8c26-3d3fd9b93a6d","full":4.8},"geometry":{"type":"Polygon","coordinates":[[[136.27844,36.2525],[136.27844,36.25253],[136.27874,36.25261],[136.27916,36.25244],[136.27905,36.25234],[136.27901,36.25231],[136.27894,36.25231],[136.27844,36.2525]]]}},{"type":"Feature","properties":{"pid":"d289ee19-8d20-4d90-9212-35f8352f0bcc","full":3.3},"geometry":{"type":"Polygon","coordinates":[[[136.27764,36.25246],[136.27783,36.25252],[136.27794,36.25255],[136.27802,36.25255],[136.27809,36.25252],[136.27818,36.2525],[136.27837,36.25252],[136.27839,36.2524],[136.27768,36.25236],[136.27764,36.25246]]]}},{"type":"Feature","properties":{"pid":"d8f9a242-11ed-49e6-9152-bae9125bd83e","full":7.7},"geometry":{"type":"Polygon","coordinates":[[[136.27744,36.25271],[136.27772,36.25313],[136.27777,36.25311],[136.27783,36.25299],[136.27785,36.25297],[136.27796,36.25271],[136.27756,36.25258],[136.27755,36.25266],[136.27744,36.25271]]]}},{"type":"Feature","properties":{"pid":"0e8be738-af0c-4f40-bcfe-61bca3888ff6","full":74.9},"geometry":{"type":"Polygon","coordinates":[[[136.27789,36.25319],[136.27803,36.25341],[136.27805,36.25342],[136.27822,36.25367],[136.279,36.25362],[136.27967,36.25361],[136.27973,36.25359],[136.27988,36.25341],[136.27924,36.25319],[136.27921,36.25319],[136.27807,36.25283],[136.27789,36.25319]]]}},{"type":"Feature","properties":{"pid":"f7650e11-894b-4db0-98e1-d9efe95912d9","full":3.1},"geometry":{"type":"Polygon","coordinates":[[[136.27905,36.25286],[136.27927,36.25297],[136.27965,36.25281],[136.27963,36.2528],[136.27947,36.25268],[136.27905,36.25286]]]}},{"type":"Feature","properties":{"pid":"efc46d70-cf67-4670-8035-cfc608c31f6a","full":2.9},"geometry":{"type":"Polygon","coordinates":[[[136.28023,36.2537],[136.28034,36.25355],[136.28018,36.25349],[136.28018,36.2535],[136.27994,36.25342],[136.27976,36.25368],[136.28023,36.2537]],[[136.28014,36.25361],[136.28019,36.25354],[136.28027,36.25359],[136.28023,36.25365],[136.28014,36.25361]]]}},{"type":"Feature","properties":{"pid":"49e3ae12-be27-4c11-80b3-58f97f1e54d7","full":3.5},"geometry":{"type":"Polygon","coordinates":[[[136.28138,36.25261],[136.28146,36.25257],[136.28151,36.25253],[136.28151,36.25249],[136.2812,36.25209],[136.28108,36.25225],[136.28138,36.25261]]]}},{"type":"Feature","properties":{"pid":"0afd6644-c01d-4c65-806d-39ce92b4429d","full":5.1},"geometry":{"type":"Polygon","coordinates":[[[136.28079,36.25245],[136.28092,36.25257],[136.28108,36.25267],[136.28118,36.25266],[136.2813,36.25262],[136.28125,36.25254],[136.28127,36.25254],[136.28106,36.25227],[136.28079,36.25245]]]}},{"type":"Feature","properties":{"pid":"084366bd-a8eb-4306-9a09-4b8323caa5c9","full":4.9},"geometry":{"type":"Polygon","coordinates":[[[136.2814,36.25202],[136.28167,36.25236],[136.28179,36.25224],[136.28189,36.25217],[136.28169,36.25192],[136.28154,36.25198],[136.2814,36.25202]]]}},{"type":"Feature","properties":{"pid":"3da5a702-b094-4d03-9275-995293f603b7","full":2.0},"geometry":{"type":"Polygon","coordinates":[[[136.28155,36.25249],[136.28165,36.25239],[136.28136,36.25202],[136.28126,36.25204],[136.28122,36.25208],[136.28153,36.25249],[136.28155,36.25249]]]}},{"type":"Feature","properties":{"pid":"755e52b7-5b13-4b32-ba76-b250d6aaa355","full":4.2},"geometry":{"type":"Polygon","coordinates":[[[136.28191,36.25216],[136.28216,36.25203],[136.28194,36.25175],[136.28178,36.25187],[136.28171,36.25191],[136.28191,36.25216]]]}},{"type":"Feature","properties":{"pid":"5a07ff42-13fb-4323-b755-82ce5fe59448","full":47.1},"geometry":{"type":"Polygon","coordinates":[[[136.28534,36.25045],[136.28567,36.25054],[136.28583,36.25053],[136.28603,36.25046],[136.28612,36.25043],[136.28627,36.25042],[136.28652,36.25037],[136.2867,36.25029],[136.28677,36.25015],[136.28571,36.2498],[136.28565,36.24993],[136.28562,36.24998],[136.28544,36.2501],[136.28534,36.25045]]]}},{"type":"Feature","properties":{"pid":"941b3125-8600-4343-845e-6748c499b1c7","full":2.5},"geometry":{"type":"Polygon","coordinates":[[[136.28368,36.25129],[136.28371,36.25125],[136.28387,36.25118],[136.28401,36.25113],[136.28408,36.25112],[136.28405,36.25098],[136.28386,36.25102],[136.28362,36.25103],[136.28366,36.25124],[136.28368,36.25129]]]}},{"type":"Feature","properties":{"pid":"e800111e-7487-43f8-aea9-4e94400a3566","full":3.7},"geometry":{"type":"Polygon","coordinates":[[[136.28334,36.25116],[136.28342,36.2514],[136.28344,36.25142],[136.28359,36.25137],[136.28365,36.25132],[136.28359,36.25102],[136.28338,36.25107],[136.28334,36.25116]]]}},{"type":"Feature","properties":{"pid":"b46e9b63-45c2-41ec-bee8-94e4eaa845dd","full":7.1},"geometry":{"type":"Polygon","coordinates":[[[136.28257,36.25195],[136.28267,36.25191],[136.28266,36.25174],[136.28268,36.25165],[136.2827,36.25162],[136.28263,36.25142],[136.28238,36.25145],[136.28223,36.25151],[136.28257,36.25195]]]}},{"type":"Feature","properties":{"pid":"62b17c33-824a-4ad7-93f3-f14605a792ea","full":18.5},"geometry":{"type":"Polygon","coordinates":[[[136.2832,36.25098],[136.28275,36.25074],[136.28271,36.25077],[136.28264,36.25096],[136.28225,36.2511],[136.28217,36.25131],[136.28218,36.25133],[136.28289,36.25126],[136.28315,36.251],[136.2832,36.25098]]]}},{"type":"Feature","properties":{"pid":"37821b18-a400-4c49-8088-cca6bb44b1ae","full":14.1},"geometry":{"type":"Polygon","coordinates":[[[136.28276,36.25073],[136.28321,36.25098],[136.28337,36.2509],[136.28348,36.25071],[136.28348,36.25061],[136.28346,36.25055],[136.2833,36.25047],[136.28322,36.25045],[136.28304,36.25057],[136.28292,36.2506],[136.28288,36.25062],[136.28276,36.25073]]]}},{"type":"Feature","properties":{"pid":"58713428-4377-4fa2-a286-a0c8d57304fa","full":75.2},"geometry":{"type":"Polygon","coordinates":[[[136.28628,36.24694],[136.28628,36.24695],[136.28814,36.24756],[136.2882,36.24746],[136.28831,36.24714],[136.2868,36.24657],[136.28679,36.24658],[136.28639,36.24652],[136.28628,36.24694]]]}},{"type":"Feature","properties":{"pid":"815c0351-2115-4789-a13e-08f618aac71f","full":74.1},"geometry":{"type":"Polygon","coordinates":[[[136.28626,36.24754],[136.28788,36.24807],[136.28811,36.2476],[136.28764,36.24743],[136.28628,36.24698],[136.28626,36.24754]]]}},{"type":"Feature","properties":{"pid":"5b2c2005-57a0-4d56-9de8-0196fd012491","full":63.7},"geometry":{"type":"Polygon","coordinates":[[[136.28608,36.24803],[136.28763,36.24855],[136.28786,36.2481],[136.28626,36.24757],[136.28623,36.2477],[136.2861,36.24785],[136.28608,36.24803]]]}},{"type":"Feature","properties":{"pid":"08ad733d-01ec-4fb0-bfe3-6d4a121aab80","full":57.6},"geometry":{"type":"Polygon","coordinates":[[[136.28574,36.24916],[136.28709,36.24961],[136.28731,36.24913],[136.28588,36.24867],[136.28585,36.24875],[136.28575,36.24901],[136.28574,36.24916]]]}},{"type":"Feature","properties":{"pid":"31df17bc-f175-41c2-82ea-7daa3f5ed206","full":67.6},"geometry":{"type":"Polygon","coordinates":[[[136.28587,36.24861],[136.28735,36.24911],[136.28758,36.24861],[136.28606,36.2481],[136.28597,36.2483],[136.28587,36.24861]]]}},{"type":"Feature","properties":{"pid":"e0c30e80-cbcd-45da-924b-e27b44e61ac7","full":48.3},"geometry":{"type":"Polygon","coordinates":[[[136.28569,36.24975],[136.28682,36.25013],[136.28703,36.24967],[136.28686,36.2496],[136.28574,36.24925],[136.28571,36.24941],[136.28569,36.24975]]]}},{"type":"Feature","properties":{"pid":"5b2a4b0c-db89-48f9-b2eb-6277875ef8fa","full":45.0},"geometry":{"type":"Polygon","coordinates":[[[136.28697,36.25018],[136.28739,36.24997],[136.28772,36.2499],[136.28794,36.2498],[136.28807,36.24969],[136.28847,36.24952],[136.28744,36.24918],[136.28694,36.25015],[136.28697,36.25018]]]}},{"type":"Feature","properties":{"pid":"2960526a-90b8-4f01-8d5e-13ec9ee097af","full":68.8},"geometry":{"type":"Polygon","coordinates":[[[136.28777,36.24857],[136.28819,36.24874],[136.28923,36.24909],[136.28929,36.24908],[136.28957,36.24896],[136.28965,36.24896],[136.28974,36.24873],[136.28799,36.24814],[136.28777,36.24857]]]}},{"type":"Feature","properties":{"pid":"23358e4c-967d-4b55-a691-d002aa804316","full":53.4},"geometry":{"type":"Polygon","coordinates":[[[136.28746,36.24914],[136.28855,36.24951],[136.28872,36.24939],[136.28889,36.24923],[136.28903,36.24913],[136.28903,36.24911],[136.2877,36.24864],[136.28746,36.24914]]]}},{"type":"Feature","properties":{"pid":"d0635d65-b27e-4cfd-8c88-d6c564337c13","full":9.3},"geometry":{"type":"Polygon","coordinates":[[[136.28787,36.2469],[136.28838,36.24707],[136.28852,36.24677],[136.28816,36.24666],[136.28814,36.24668],[136.28796,36.2467],[136.28787,36.2469]]]}},{"type":"Feature","properties":{"pid":"5166cd61-4dce-46fa-8b07-d3698df01f5d","full":4.0},"geometry":{"type":"Polygon","coordinates":[[[136.28816,36.24664],[136.28855,36.24676],[136.28871,36.24641],[136.28866,36.24646],[136.28862,36.24647],[136.28857,36.24648],[136.2884,36.24648],[136.28831,36.2465],[136.28824,36.24653],[136.2882,36.24658],[136.28816,36.24664]]]}},{"type":"Feature","properties":{"pid":"e10ea2c6-8272-4cba-9b24-b229bc73a8b9","full":4.4},"geometry":{"type":"Polygon","coordinates":[[[136.28904,36.24749],[136.28938,36.2476],[136.28951,36.24734],[136.28917,36.24725],[136.28904,36.24749]]]}},{"type":"Feature","properties":{"pid":"66e5f958-32b2-46ba-b739-3d29633a28f4","full":4.1},"geometry":{"type":"Polygon","coordinates":[[[136.2886,36.24685],[136.28897,36.2469],[136.28902,36.24663],[136.2887,36.24661],[136.2886,36.24685]]]}},{"type":"Feature","properties":{"pid":"0437b5ef-a9be-4815-9334-0bdd6b6e3752","full":5.6},"geometry":{"type":"Polygon","coordinates":[[[136.28929,36.24692],[136.28969,36.24699],[136.28976,36.2467],[136.28933,36.24667],[136.28929,36.24692]]]}},{"type":"Feature","properties":{"pid":"937971d9-b642-4341-a92c-dd00a5e551f3","full":45.0},"geometry":{"type":"Polygon","coordinates":[[[136.2883,36.24759],[136.29005,36.24817],[136.29028,36.24766],[136.28976,36.24751],[136.28962,36.24773],[136.28847,36.24733],[136.28844,36.24739],[136.28838,36.24737],[136.2883,36.24759]]]}},{"type":"Feature","properties":{"pid":"1b25de46-5503-41f1-95f8-2c305ebe0d7a","full":71.0},"geometry":{"type":"Polygon","coordinates":[[[136.28803,36.2481],[136.28979,36.24869],[136.29,36.24823],[136.28827,36.24765],[136.28803,36.2481]]]}},{"type":"Feature","properties":{"pid":"a5126eb0-2f9a-488c-b136-a360b91a5ee2","full":1.9},"geometry":{"type":"Polygon","coordinates":[[[136.29014,36.24822],[136.29036,36.24828],[136.29038,36.24813],[136.29052,36.24811],[136.29052,36.24803],[136.29027,36.24795],[136.29014,36.24822]]]}},{"type":"Feature","properties":{"pid":"3c8ac67e-2e6f-4d0d-ad92-3d473418f785","full":6.0},"geometry":{"type":"Polygon","coordinates":[[[136.29102,36.24683],[136.29146,36.24691],[136.29148,36.24689],[136.29138,36.24652],[136.29118,36.2465],[136.29102,36.24683]]]}},{"type":"Feature","properties":{"pid":"04aac74e-e1e3-4df1-936e-131e7dcfd846","full":12.7},"geometry":{"type":"Polygon","coordinates":[[[136.29082,36.24716],[136.29084,36.24717],[136.29149,36.2473],[136.29152,36.24714],[136.2915,36.24712],[136.29145,36.24692],[136.29102,36.24684],[136.29082,36.24716]]]}},{"type":"Feature","properties":{"pid":"b9a666be-20e1-46d5-9799-851940a660b3","full":15.0},"geometry":{"type":"Polygon","coordinates":[[[136.28981,36.24887],[136.28983,36.24888],[136.28987,36.24887],[136.29006,36.24883],[136.29013,36.2488],[136.29028,36.2487],[136.29039,36.2486],[136.29052,36.24856],[136.2906,36.24849],[136.29065,36.24842],[136.29009,36.24825],[136.28981,36.24887]]]}},{"type":"Feature","properties":{"pid":"c08f6ba8-1134-4c25-8ec1-3d32dcaab385","full":4.2},"geometry":{"type":"Polygon","coordinates":[[[136.28673,36.2543],[136.28686,36.2541],[136.28681,36.25409],[136.28659,36.25397],[136.28657,36.25392],[136.28635,36.25406],[136.28653,36.25421],[136.2866,36.25425],[136.28673,36.2543]]]}},{"type":"Feature","properties":{"pid":"1fbfa99c-935d-4b80-9081-2099d32ac18f","full":1.1},"geometry":{"type":"Polygon","coordinates":[[[136.28613,36.25425],[136.28633,36.25442],[136.28642,36.25437],[136.28648,36.25435],[136.2863,36.25418],[136.28625,36.25416],[136.28613,36.25425]]]}},{"type":"Feature","properties":{"pid":"cf62061d-bb02-42e9-a3b0-1727d828262a","full":1.4},"geometry":{"type":"Polygon","coordinates":[[[136.28556,36.25468],[136.28573,36.25485],[136.28576,36.25485],[136.28584,36.25481],[136.28588,36.25478],[136.28589,36.25475],[136.28571,36.25458],[136.28567,36.25458],[136.28557,36.25466],[136.28556,36.25468]]]}},{"type":"Feature","properties":{"pid":"4e25a744-bb1a-4b3b-bca0-c4cc299dbe6e","full":5.6},"geometry":{"type":"Polygon","coordinates":[[[136.28502,36.25503],[136.28533,36.2553],[136.28535,36.25529],[136.2854,36.25523],[136.28552,36.25513],[136.28554,36.25511],[136.28554,36.25509],[136.28529,36.25487],[136.28527,36.25487],[136.28524,36.25487],[136.28502,36.25503]]]}},{"type":"Feature","properties":{"pid":"136203ab-510b-42b7-bc25-a42d17af4178","full":5.9},"geometry":{"type":"Polygon","coordinates":[[[136.28473,36.25509],[136.28469,36.25512],[136.28477,36.2552],[136.28493,36.25529],[136.28517,36.25552],[136.28531,36.25534],[136.28531,36.25532],[136.28499,36.25504],[136.28486,36.25508],[136.28473,36.25509]]]}},{"type":"Feature","properties":{"pid":"fc965593-22c8-479b-a749-5399c71650d0","full":3.1},"geometry":{"type":"Polygon","coordinates":[[[136.2853,36.25484],[136.28556,36.25507],[136.28559,36.25501],[136.28571,36.25487],[136.28555,36.25472],[136.28549,36.25471],[136.2853,36.25484]]]}},{"type":"Feature","properties":{"pid":"1f41cbf0-860e-4634-a02c-fff72fc756f2","full":7.5},"geometry":{"type":"Polygon","coordinates":[[[136.28573,36.25456],[136.28592,36.25473],[136.2862,36.25458],[136.2863,36.25452],[136.28626,36.25447],[136.28632,36.25443],[136.2861,36.25428],[136.28584,36.25445],[136.28573,36.25456]]]}},{"type":"Feature","properties":{"pid":"f8a88299-ba3f-4a40-9ac3-470b043adac7","full":2.3},"geometry":{"type":"Polygon","coordinates":[[[136.28302,36.25385],[136.28315,36.25401],[136.28326,36.25386],[136.28337,36.25362],[136.28319,36.2536],[136.28302,36.25385]]]}},{"type":"Feature","properties":{"pid":"4dfec852-ed29-4446-b1b3-878993af4a75","full":1.1},"geometry":{"type":"Polygon","coordinates":[[[136.28285,36.25365],[136.28286,36.25367],[136.28289,36.25369],[136.28301,36.25382],[136.28304,36.25379],[136.28315,36.25362],[136.28313,36.2536],[136.2829,36.25356],[136.28285,36.25365]]]}},{"type":"Feature","properties":{"pid":"a257d993-593b-459f-a1c5-1e5f740a9400","full":13.0},"geometry":{"type":"Polygon","coordinates":[[[136.28204,36.25546],[136.28243,36.25546],[136.28248,36.25546],[136.28251,36.25543],[136.28273,36.25484],[136.2827,36.25483],[136.28273,36.2548],[136.28257,36.25473],[136.28204,36.25546]]]}},{"type":"Feature","properties":{"pid":"8048abd2-b6ad-47c8-8873-8abac956b107","full":18.1},"geometry":{"type":"Polygon","coordinates":[[[136.2832,36.25537],[136.28339,36.25545],[136.28345,36.25545],[136.2836,36.25542],[136.28363,36.25537],[136.28384,36.25486],[136.28352,36.25464],[136.2832,36.25537]]]}},{"type":"Feature","properties":{"pid":"2178e719-0ee9-46cd-ac0b-32a6ea278e33","full":5.7},"geometry":{"type":"Polygon","coordinates":[[[136.28363,36.25545],[136.28374,36.25546],[136.2838,36.25548],[136.28384,36.25548],[136.28387,36.25548],[136.28406,36.25503],[136.28395,36.25495],[136.28387,36.2549],[136.28363,36.25545]]]}},{"type":"Feature","properties":{"pid":"58885568-3e97-41e4-85e3-7465364d8e75","full":13.1},"geometry":{"type":"Polygon","coordinates":[[[136.28396,36.25549],[136.28433,36.2556],[136.28438,36.25564],[136.28471,36.2558],[136.28472,36.25578],[136.28451,36.25534],[136.28446,36.25534],[136.28438,36.25522],[136.28434,36.25519],[136.28413,36.25511],[136.28396,36.25549]]]}},{"type":"Feature","properties":{"pid":"2827fb1e-28ce-47bf-b700-7c2204e82ebc","full":11.4},"geometry":{"type":"Polygon","coordinates":[[[136.28736,36.24204],[136.2874,36.24206],[136.28747,36.24204],[136.28765,36.24206],[136.28773,36.2421],[136.28777,36.2421],[136.28784,36.24161],[136.28743,36.24157],[136.28736,36.24204]]]}},{"type":"Feature","properties":{"pid":"6fe91744-3073-4a59-bbaf-312fbff031ec","full":21.4},"geometry":{"type":"Polygon","coordinates":[[[136.29071,36.24637],[136.2914,36.24651],[136.29141,36.2465],[136.29138,36.24633],[136.29137,36.24594],[136.29095,36.24588],[136.29089,36.24596],[136.29082,36.24599],[136.29071,36.24637]]]}},{"type":"Feature","properties":{"pid":"d576d8b1-9ee7-48aa-9163-f769720e51eb","full":18.8},"geometry":{"type":"Polygon","coordinates":[[[136.28976,36.24662],[136.29053,36.24672],[136.29062,36.24638],[136.28986,36.24623],[136.28976,36.24662]]]}},{"type":"Feature","properties":{"pid":"33e36586-0f31-44d2-84a4-37153aefa6ad","full":9.9},"geometry":{"type":"Polygon","coordinates":[[[136.28987,36.24621],[136.29063,36.24636],[136.29072,36.24606],[136.29055,36.24612],[136.28994,36.24597],[136.28987,36.24621]]]}},{"type":"Feature","properties":{"pid":"d64cc5aa-4dc4-47e2-89bf-21dade962dd2","full":32.2},"geometry":{"type":"Polygon","coordinates":[[[136.28849,36.24569],[136.28876,36.24583],[136.28885,36.2459],[136.28889,36.24591],[136.28907,36.24533],[136.28906,36.24527],[136.28911,36.24508],[136.28911,36.24498],[136.28906,36.24491],[136.2889,36.24494],[136.28883,36.24487],[136.28872,36.24492],[136.28871,36.24498],[136.28844,36.24522],[136.28847,36.24531],[136.28849,36.24569]]]}},{"type":"Feature","properties":{"pid":"61f8dc50-8f0b-4461-8b81-d4e8e3889b5a","full":32.5},"geometry":{"type":"Polygon","coordinates":[[[136.28893,36.24612],[136.28976,36.24628],[136.28983,36.24597],[136.2897,36.24591],[136.28949,36.24567],[136.28938,36.24548],[136.28931,36.24545],[136.28913,36.24544],[136.28893,36.24612]]]}},{"type":"Feature","properties":{"pid":"67573f39-b3a0-43bd-b18f-3ee276b9ddda","full":20.9},"geometry":{"type":"Polygon","coordinates":[[[136.28877,36.24655],[136.28968,36.24661],[136.28974,36.2463],[136.28893,36.24614],[136.28877,36.24655]]]}},{"type":"Feature","properties":{"pid":"a4bb69c1-431a-481f-a30c-b41fefc338c6","full":5.6},"geometry":{"type":"Polygon","coordinates":[[[136.28382,36.24452],[136.28396,36.24444],[136.28398,36.24446],[136.284,36.24446],[136.28404,36.24443],[136.28406,36.24441],[136.28406,36.24428],[136.2841,36.24425],[136.28416,36.24423],[136.2842,36.2442],[136.28426,36.24419],[136.28427,36.24416],[136.28411,36.24394],[136.28407,36.24394],[136.28405,36.24396],[136.28402,36.244],[136.284,36.24406],[136.28387,36.2442],[136.28387,36.24423],[136.28383,36.24425],[136.28382,36.24433],[136.2838,36.24438],[136.28378,36.2444],[136.28374,36.24443],[136.28374,36.24444],[136.28382,36.24452]]]}},{"type":"Feature","properties":{"pid":"9ee17fb6-6a07-4d61-b197-c76e506e66a5","full":0.7},"geometry":{"type":"Polygon","coordinates":[[[136.28435,36.24349],[136.28445,36.24343],[136.28434,36.24319],[136.28417,36.24326],[136.28435,36.24349]]]}},{"type":"Feature","properties":{"pid":"4570eac0-4922-4df0-8042-0cf6764068ff","full":5.0},"geometry":{"type":"Polygon","coordinates":[[[136.28417,36.24325],[136.28434,36.24318],[136.28432,36.24315],[136.28427,36.24285],[136.28386,36.24286],[136.28417,36.24325]]]}},{"type":"Feature","properties":{"pid":"025261cb-f78e-443f-b90b-b86d70eaa4fb","full":4.5},"geometry":{"type":"Polygon","coordinates":[[[136.28338,36.24231],[136.28356,36.24231],[136.28357,36.24199],[136.28311,36.24199],[136.28338,36.24231]]]}},{"type":"Feature","properties":{"pid":"8bda9f02-a1c6-43d7-9f1d-b09f6d578a38","full":4.5},"geometry":{"type":"Polygon","coordinates":[[[136.28315,36.24145],[136.28357,36.24146],[136.28358,36.24126],[136.28315,36.24117],[136.28315,36.24145]]]}},{"type":"Feature","properties":{"pid":"956b12e7-cde2-4c3e-bd32-e8ed97cf1c8a","full":3.1},"geometry":{"type":"Polygon","coordinates":[[[136.28302,36.24162],[136.28357,36.24163],[136.28357,36.24146],[136.28308,36.24145],[136.28302,36.24162]]]}},{"type":"Feature","properties":{"pid":"2f265fa7-bbfa-48cc-861d-d7d4bb109da3","full":3.2},"geometry":{"type":"Polygon","coordinates":[[[136.28357,36.24164],[136.283,36.24163],[136.28297,36.24172],[136.28297,36.24176],[136.28298,36.24179],[136.28357,36.24179],[136.28357,36.24164]]]}},{"type":"Feature","properties":{"pid":"11e8a1c5-5748-498b-a019-c7576227f21c","full":3.1},"geometry":{"type":"Polygon","coordinates":[[[136.28297,36.2418],[136.2831,36.24197],[136.28356,36.24197],[136.28357,36.24181],[136.28297,36.2418]]]}},{"type":"Feature","properties":{"pid":"1111f6a3-702c-457d-a4b5-44d93aa614d6","full":13.9},"geometry":{"type":"Polygon","coordinates":[[[136.28361,36.24197],[136.28428,36.24197],[136.28436,36.24165],[136.28362,36.24164],[136.28361,36.24197]]]}},{"type":"Feature","properties":{"pid":"aa022dad-a8de-471c-9d41-8a9f7be392b0","full":12.6},"geometry":{"type":"Polygon","coordinates":[[[136.28362,36.24163],[136.28436,36.24164],[136.28442,36.24144],[136.28362,36.24127],[136.28362,36.24163]]]}},{"type":"Feature","properties":{"pid":"c263e073-7221-40e7-a8b8-61cb73ca0a77","full":7.4},"geometry":{"type":"Polygon","coordinates":[[[136.2836,36.24248],[136.28389,36.24248],[136.28392,36.24198],[136.28361,36.24198],[136.2836,36.24248]]]}},{"type":"Feature","properties":{"pid":"27760a1c-6b11-4b8c-af6e-bba9733cd16b","full":10.2},"geometry":{"type":"Polygon","coordinates":[[[136.28385,36.24283],[136.28425,36.24282],[136.28423,36.2425],[136.28361,36.24249],[136.28361,36.24256],[136.28385,36.24283]]]}},{"type":"Feature","properties":{"pid":"acf5455d-06b1-4810-801c-5bc1dc4f10f2","full":8.3},"geometry":{"type":"Polygon","coordinates":[[[136.28696,36.2419],[136.28697,36.24191],[136.28714,36.24193],[136.28733,36.242],[136.2874,36.24157],[136.28701,36.24154],[136.28696,36.2419]]]}},{"type":"Feature","properties":{"pid":"7544f690-0c0b-4fec-9e0c-f117f2b017e9","full":1.3},"geometry":{"type":"Polygon","coordinates":[[[136.28676,36.24174],[136.28692,36.24187],[136.28697,36.24153],[136.28679,36.24151],[136.28676,36.24174]]]}},{"type":"Feature","properties":{"pid":"7ed20456-c741-4c1d-8c31-f9726401aa93","full":0.8},"geometry":{"type":"Polygon","coordinates":[[[136.28632,36.24147],[136.28674,36.24172],[136.28677,36.24152],[136.28632,36.24147]]]}},{"type":"Feature","properties":{"pid":"b3131470-a2c4-4aae-ad45-a1568fb7a62f","full":5.8},"geometry":{"type":"Polygon","coordinates":[[[136.28512,36.24126],[136.28553,36.24129],[136.2856,36.24083],[136.28539,36.24084],[136.28536,36.24107],[136.28515,36.24105],[136.28512,36.24126]]]}},{"type":"Feature","properties":{"pid":"b42010f4-6b89-4e66-b558-957ac0c1ebbb","full":11.4},"geometry":{"type":"Polygon","coordinates":[[[136.28554,36.2413],[136.28594,36.24134],[136.28601,36.24088],[136.2856,36.24084],[136.28554,36.2413]]]}},{"type":"Feature","properties":{"pid":"fbd16a0f-190e-4519-a585-2b39b3bb649f","full":3.3},"geometry":{"type":"Polygon","coordinates":[[[136.28596,36.24133],[136.28615,36.24135],[136.28617,36.24134],[136.28623,36.24089],[136.28603,36.24088],[136.28596,36.24133]]]}},{"type":"Feature","properties":{"pid":"540883e5-6853-4658-ac71-159a1460f9ba","full":3.0},"geometry":{"type":"Polygon","coordinates":[[[136.28617,36.24135],[136.28618,36.24136],[136.28636,36.24137],[136.28643,36.2409],[136.28624,36.2409],[136.28617,36.24135]]]}},{"type":"Feature","properties":{"pid":"c3502809-28be-43fe-a742-e347caaeef32","full":13.4},"geometry":{"type":"Polygon","coordinates":[[[136.28638,36.24138],[136.28655,36.24139],[136.28679,36.24143],[136.28689,36.24081],[136.28688,36.24078],[136.28677,36.24085],[136.28668,36.24088],[136.28646,36.24089],[136.28638,36.24138]]]}},{"type":"Feature","properties":{"pid":"5bebc0ed-68b0-4273-8f0e-c9a305aebcec","full":1.3},"geometry":{"type":"Polygon","coordinates":[[[136.28681,36.24143],[136.287,36.24145],[136.28701,36.24137],[136.28698,36.24129],[136.28696,36.24121],[136.28697,36.24116],[136.287,36.24107],[136.28703,36.24104],[136.2869,36.24082],[136.28681,36.24143]]]}},{"type":"Feature","properties":{"pid":"193b522a-6808-4404-a80f-04ac3c2702d3","full":11.5},"geometry":{"type":"Polygon","coordinates":[[[136.28388,36.24121],[136.28424,36.24128],[136.28441,36.24072],[136.28404,36.24071],[136.28388,36.24121]]]}},{"type":"Feature","properties":{"pid":"cd3a12c8-c807-49ef-ad1a-baed5e6c4cee","full":4.2},"geometry":{"type":"Polygon","coordinates":[[[136.28362,36.24116],[136.28385,36.2412],[136.28396,36.2409],[136.28361,36.24082],[136.28362,36.24116]]]}},{"type":"Feature","properties":{"pid":"78dbf13b-f59b-4f54-97c2-40a8f121da46","full":2.1},"geometry":{"type":"Polygon","coordinates":[[[136.28363,36.24082],[136.28396,36.24089],[136.28402,36.2407],[136.28363,36.24066],[136.28363,36.24082]]]}},{"type":"Feature","properties":{"pid":"cdd63742-21d4-47f2-9fff-b062451eeecb","full":2.6},"geometry":{"type":"Polygon","coordinates":[[[136.28305,36.24074],[136.28333,36.24063],[136.28323,36.24044],[136.28293,36.24055],[136.28303,36.24071],[136.28305,36.24074]]]}},{"type":"Feature","properties":{"pid":"7c489ba5-fb5b-4620-94fd-6d64b35b5d0d","full":3.5},"geometry":{"type":"Polygon","coordinates":[[[136.28337,36.24113],[136.28357,36.24117],[136.28357,36.24068],[136.28356,36.24064],[136.28353,36.24062],[136.28338,36.24066],[136.28337,36.24113]]]}},{"type":"Feature","properties":{"pid":"9aea06bf-92a6-4f63-93a5-799db2608cc5","full":2.7},"geometry":{"type":"Polygon","coordinates":[[[136.28316,36.24109],[136.28335,36.24113],[136.28336,36.24067],[136.28316,36.24074],[136.28316,36.24109]]]}}],"precision":5}