{"type":"FeatureCollection","features":[{"type":"Feature","properties":{"pid":"0ba012fb-0e69-4bc0-94bc-b0f2409aef64"},"geometry":{"type":"Polygon","coordinates":[[[136.4372678444417,36.00712899593197],[136.43729605545445,36.00728786509064],[136.4373588433755,36.007347023715525],[136.4374699364467,36.00739941767112],[136.4374673958979,36.00725808933336],[136.43750410137736,36.007136455904956],[136.4372678444417,36.00712899593197]]]}},{"type":"Feature","properties":{"pid":"4d325e63-70ff-4100-b6fb-0777329d96ba"},"geometry":{"type":"Polygon","coordinates":[[[136.43769292183947,36.00717894737644],[136.4376549162827,36.007277334481785],[136.43765909101714,36.00733095920803],[136.43768489252736,36.007403901621316],[136.4377835261911,36.007473392209214],[136.43785123721258,36.00743174984768],[136.4377517449497,36.00731164942076],[136.43769292183947,36.00717894737644]]]}},{"type":"Feature","properties":{"pid":"89b2c1ac-a3ff-493c-aabc-cb2667ae6f83"},"geometry":{"type":"Polygon","coordinates":[[[136.43814395385257,36.007705408294655],[136.43805307096167,36.007555077791615],[136.43799658147452,36.0075247753025],[136.43794763734493,36.007526236538546],[136.43787890466817,36.00756882690826],[136.43793454029563,36.00769901664226],[136.43814395385257,36.007705408294655]]]}},{"type":"Feature","properties":{"pid":"4aaab039-c907-4e78-97eb-10a89f97dcc5"},"geometry":{"type":"Polygon","coordinates":[[[136.43756936082215,36.007835963401085],[136.43775847718643,36.00779720359657],[136.437699689083,36.007686600381014],[136.4375666978638,36.00774365670629],[136.43756936082215,36.007835963401085]]]}},{"type":"Feature","properties":{"pid":"fb8f3846-eaa0-482e-8447-a99a29146bd5"},"geometry":{"type":"Polygon","coordinates":[[[136.4371965983524,36.007526942761494],[136.43730826012032,36.0076276920245],[136.43733619304737,36.00763250597956],[136.43743224845807,36.00757484761205],[136.4373973228419,36.00751533842241],[136.43724133134984,36.00743524632521],[136.4371965983524,36.007526942761494]]]}},{"type":"Feature","properties":{"pid":"33cc28b5-3d39-4a06-94f7-4b003de0fd14"},"geometry":{"type":"Polygon","coordinates":[[[136.4366304906182,36.01958539863749],[136.43677321952032,36.019652244348215],[136.43679384577715,36.01964495772017],[136.4368007110915,36.01960853444753],[136.43671436884853,36.019571498801284],[136.43664191240646,36.01956031310037],[136.4366304906182,36.01958539863749]]]}},{"type":"Feature","properties":{"pid":"32bd01b6-7e39-4576-9589-58cee1fa7c24"},"geometry":{"type":"Polygon","coordinates":[[[136.43694415417477,36.01960800586463],[136.43702303935203,36.019583663438574],[136.43713933730896,36.01949294617648],[136.43698230599855,36.01945164063035],[136.436951388528,36.01952642424901],[136.43694415417477,36.01960800586463]]]}},{"type":"Feature","properties":{"pid":"51e7eaa8-82bb-46d2-913b-a3188b31579c"},"geometry":{"type":"Polygon","coordinates":[[[136.4371744015984,36.019320131112956],[136.43721245008044,36.019252317525336],[136.43717898010564,36.019201747453046],[136.43711233898802,36.01924702746519],[136.43706011246047,36.01925519399027],[136.43706039344315,36.01927294362394],[136.4371744015984,36.019320131112956]]]}},{"type":"Feature","properties":{"pid":"a9fe2a01-7325-449c-8d8e-e76a20e2d390"},"geometry":{"type":"Polygon","coordinates":[[[136.4373941078281,36.01889627029151],[136.43727037464987,36.01892481386528],[136.43714151150664,36.018998042574424],[136.43705974406507,36.01901929057774],[136.43697212450243,36.01909448230225],[136.43694366341245,36.01915304577141],[136.43705742310797,36.01914642459491],[136.43718100093642,36.01907084693388],[136.4373941078281,36.01889627029151]]]}},{"type":"Feature","properties":{"pid":"ee019e16-f5b5-4df2-bebd-2d7ae3e634c3"},"geometry":{"type":"Polygon","coordinates":[[[136.43731800715946,36.0191861926591],[136.43738597868145,36.01912480754477],[136.43740193331797,36.01905165542255],[136.43728299038943,36.01913513456743],[136.43731800715946,36.0191861926591]]]}},{"type":"Feature","properties":{"pid":"5d156db7-93ff-47d6-ad31-3f5d14b552f9"},"geometry":{"type":"Polygon","coordinates":[[[136.43907224629257,36.01900895464993],[136.43926020639216,36.0189945661789],[136.43925047450716,36.01895652525997],[136.43922527873195,36.018936874518516],[136.43915307366916,36.018911212968476],[136.43912285857374,36.018916442078265],[136.43908018288965,36.01895887634889],[136.43907224629257,36.01900895464993]]]}},{"type":"Feature","properties":{"pid":"88115ebd-3c5e-40bd-875a-7f6e03e3382a"},"geometry":{"type":"Polygon","coordinates":[[[136.43380666619643,36.02341865533766],[136.43385496705218,36.02349085258176],[136.43410588317423,36.02355680821721],[136.43409916064277,36.02331013337156],[136.43380666619643,36.02341865533766]]]}},{"type":"Feature","properties":{"pid":"6d3941b7-4e78-450c-86a5-d30fa0d4ca04"},"geometry":{"type":"Polygon","coordinates":[[[136.43403177582266,36.0237042312287],[136.43370522892343,36.02370316426619],[136.43362573316645,36.023861917171345],[136.43364127132173,36.023880864797796],[136.43388517973972,36.023750842409946],[136.43403177582266,36.0237042312287]]]}},{"type":"Feature","properties":{"pid":"228f0094-2789-4e63-803e-165fc8350178"},"geometry":{"type":"Polygon","coordinates":[[[136.42975506887993,36.021650851668845],[136.429897756696,36.021664004841405],[136.4299318142145,36.021525501246664],[136.42983848219149,36.02150439171139],[136.42975506887993,36.021650851668845]]]}},{"type":"Feature","properties":{"pid":"bd46b9f9-12f2-4eb1-a6ea-01786bec399e"},"geometry":{"type":"Polygon","coordinates":[[[136.4296331474881,36.02194736801665],[136.4296395765049,36.021980490089426],[136.4299086867502,36.021930731417136],[136.42991522664863,36.02190451021083],[136.4296331474881,36.02194736801665]]]}}]}