{"type":"FeatureCollection","features":[{"type":"Feature","properties":{"pid":"0ba012fb-0e69-4bc0-94bc-b0f2409aef64","full":4.2},"geometry":{"type":"Polygon","coordinates":[[[136.43755,36.00709],[136.43722,36.00708],[136.43721,36.00711],[136.43724,36.00731],[136.43732,36.00738],[136.4375,36.00747],[136.43753,36.00744],[136.43752,36.00731],[136.43752,36.00726],[136.43757,36.00711],[136.43755,36.00709]]]}},{"type":"Feature","properties":{"pid":"4d325e63-70ff-4100-b6fb-0777329d96ba","full":2.4},"geometry":{"type":"Polygon","coordinates":[[[136.43773,36.00713],[136.4377,36.00709],[136.43765,36.00714],[136.4376,36.00727],[136.4376,36.00734],[136.43764,36.00743],[136.43778,36.00753],[136.43793,36.00744],[136.43784,36.00734],[136.4378,36.00729],[136.43773,36.00713]]]}},{"type":"Feature","properties":{"pid":"89b2c1ac-a3ff-493c-aabc-cb2667ae6f83","full":3.1},"geometry":{"type":"Polygon","coordinates":[[[136.43817,36.00776],[136.43822,36.00773],[136.43815,36.0076],[136.43809,36.00752],[136.43801,36.00748],[136.43793,36.00748],[136.43781,36.00756],[136.43785,36.00762],[136.43789,36.00773],[136.43795,36.00775],[136.43812,36.00775],[136.43817,36.00776]]]}},{"type":"Feature","properties":{"pid":"4aaab039-c907-4e78-97eb-10a89f97dcc5","full":1.8},"geometry":{"type":"Polygon","coordinates":[[[136.43773,36.00763],[136.4377,36.00763],[136.43751,36.00772],[136.43751,36.00788],[136.43757,36.00788],[136.43786,36.00782],[136.43781,36.00778],[136.43773,36.00763]]]}},{"type":"Feature","properties":{"pid":"fb8f3846-eaa0-482e-8447-a99a29146bd5","full":2.5},"geometry":{"type":"Polygon","coordinates":[[[136.43733,36.00744],[136.43722,36.00736],[136.43714,36.00752],[136.43714,36.00754],[136.43728,36.00767],[136.43734,36.00768],[136.43744,36.00764],[136.43749,36.00759],[136.43749,36.00755],[136.43744,36.00748],[136.43733,36.00744]]]}},{"type":"Feature","properties":{"pid":"33cc28b5-3d39-4a06-94f7-4b003de0fd14","full":0.7},"geometry":{"type":"Polygon","coordinates":[[[136.43673,36.01953],[136.43661,36.01951],[136.43656,36.01962],[136.43669,36.01966],[136.43676,36.0197],[136.43684,36.01968],[136.43686,36.01959],[136.43683,36.01957],[136.43673,36.01953]]]}},{"type":"Feature","properties":{"pid":"32bd01b6-7e39-4576-9589-58cee1fa7c24","full":1.6},"geometry":{"type":"Polygon","coordinates":[[[136.43721,36.01946],[136.43695,36.01939],[136.4369,36.01952],[136.43688,36.01966],[136.43693,36.01966],[136.43705,36.01962],[136.43722,36.01949],[136.43721,36.01946]]]}},{"type":"Feature","properties":{"pid":"51e7eaa8-82bb-46d2-913b-a3188b31579c","full":0.9},"geometry":{"type":"Polygon","coordinates":[[[136.43728,36.01926],[136.4372,36.01913],[136.43709,36.01921],[136.437,36.01921],[136.43701,36.0193],[136.43716,36.01937],[136.4372,36.01937],[136.43723,36.01933],[136.43724,36.01929],[136.43728,36.01926]]]}},{"type":"Feature","properties":{"pid":"a9fe2a01-7325-449c-8d8e-e76a20e2d390","full":3.5},"geometry":{"type":"Polygon","coordinates":[[[136.43747,36.01885],[136.43736,36.01885],[136.43724,36.01888],[136.43711,36.01896],[136.43703,36.01898],[136.43692,36.01907],[136.43688,36.01917],[136.43693,36.0192],[136.43708,36.01919],[136.43722,36.01911],[136.43744,36.01893],[136.43747,36.01885]]]}},{"type":"Feature","properties":{"pid":"ee019e16-f5b5-4df2-bebd-2d7ae3e634c3","full":0.6},"geometry":{"type":"Polygon","coordinates":[[[136.43746,36.01904],[136.43744,36.01897],[136.43721,36.01913],[136.43728,36.01923],[136.43731,36.01924],[136.43734,36.01923],[136.43744,36.01915],[136.43746,36.01904]]]}},{"type":"Feature","properties":{"pid":"5d156db7-93ff-47d6-ad31-3f5d14b552f9","full":1.3},"geometry":{"type":"Polygon","coordinates":[[[136.43901,36.01906],[136.43932,36.01904],[136.43932,36.01901],[136.4393,36.01893],[136.43926,36.0189],[136.43916,36.01886],[136.43909,36.01888],[136.43903,36.01894],[136.43901,36.01906]]]}},{"type":"Feature","properties":{"pid":"88115ebd-3c5e-40bd-875a-7f6e03e3382a","full":4.1},"geometry":{"type":"Polygon","coordinates":[[[136.43416,36.02327],[136.4341,36.02326],[136.43374,36.0234],[136.43373,36.02341],[136.43379,36.02347],[136.43381,36.02353],[136.4339,36.02354],[136.43413,36.02361],[136.43416,36.02357],[136.43415,36.02342],[136.43416,36.02327]]]}},{"type":"Feature","properties":{"pid":"6d3941b7-4e78-450c-86a5-d30fa0d4ca04","full":2.6},"geometry":{"type":"Polygon","coordinates":[[[136.43415,36.02369],[136.4341,36.02367],[136.43401,36.02365],[136.43394,36.02367],[136.43374,36.02366],[136.43367,36.02366],[136.43356,36.02387],[136.43363,36.02395],[136.43376,36.02386],[136.43391,36.02379],[136.43409,36.02373],[136.43415,36.02369]]]}},{"type":"Feature","properties":{"pid":"228f0094-2789-4e63-803e-165fc8350178","full":1.8},"geometry":{"type":"Polygon","coordinates":[[[136.43,36.02149],[136.42981,36.02145],[136.42977,36.02151],[136.42968,36.02168],[136.42969,36.02169],[136.42991,36.02171],[136.42995,36.02169],[136.42997,36.02159],[136.43,36.02149]]]}},{"type":"Feature","properties":{"pid":"bd46b9f9-12f2-4eb1-a6ea-01786bec399e","full":0.8},"geometry":{"type":"Polygon","coordinates":[[[136.42995,36.02186],[136.42992,36.02186],[136.4296,36.02191],[136.42957,36.02193],[136.42959,36.02203],[136.42961,36.02203],[136.42994,36.02197],[136.42996,36.02195],[136.42998,36.02187],[136.42995,36.02186]]]}}],"precision":5}