{"type":"FeatureCollection","features":[{"type":"Feature","properties":{"pid":"28be3a93-e920-40aa-a7ce-66b7fedb8bb2","full":16.8},"geometry":{"type":"Polygon","coordinates":[[[135.50056,35.47352],[135.50022,35.47344],[135.50011,35.47346],[135.49988,35.47368],[135.50063,35.47406],[135.50066,35.47398],[135.50066,35.47393],[135.5006,35.47373],[135.50058,35.47372],[135.50057,35.47368],[135.5006,35.47367],[135.50056,35.47352]]]}},{"type":"Feature","properties":{"pid":"2406ad77-9932-437e-86c4-edd496623371","full":8.7},"geometry":{"type":"Polygon","coordinates":[[[135.50129,35.47338],[135.50124,35.47338],[135.50095,35.47357],[135.50092,35.47361],[135.50105,35.47389],[135.5011,35.47391],[135.50124,35.47382],[135.50137,35.47371],[135.50141,35.47363],[135.50129,35.47338]]]}},{"type":"Feature","properties":{"pid":"b42fe0a6-c020-4fec-a1ce-f723175479fc","full":4.3},"geometry":{"type":"Polygon","coordinates":[[[135.50121,35.47336],[135.50097,35.47311],[135.50085,35.4732],[135.50082,35.4733],[135.50082,35.47335],[135.5009,35.47354],[135.50092,35.47355],[135.50121,35.47336]]]}},{"type":"Feature","properties":{"pid":"70bb9d8b-e976-4669-84f3-fd004080775a","full":3.9},"geometry":{"type":"Polygon","coordinates":[[[135.50057,35.47312],[135.50051,35.47305],[135.50032,35.47316],[135.50028,35.47321],[135.50019,35.47336],[135.50019,35.4734],[135.5002,35.47342],[135.50056,35.4735],[135.50049,35.47332],[135.50049,35.47324],[135.50057,35.47312]]]}}],"precision":5}