{"type":"FeatureCollection","features":[{"type":"Feature","properties":{"pid":"64807e84-c491-4105-809c-f334c570a487"},"geometry":{"type":"Polygon","coordinates":[[[136.4033573462491,36.02700218535053],[136.40330216584215,36.02707384507347],[136.40330247654867,36.027104481614984],[136.40333481735541,36.02713024896818],[136.4034327397703,36.02716367340011],[136.40348690644072,36.02706442095965],[136.4033573462491,36.02700218535053]]]}},{"type":"Feature","properties":{"pid":"a7dd28dd-f52c-448e-ac59-6097391a089b"},"geometry":{"type":"Polygon","coordinates":[[[136.40353179989654,36.027206806064314],[136.40393766309256,36.027347886310274],[136.40397969755068,36.02727784679095],[136.4035844447809,36.02711034131367],[136.40353179989654,36.027206806064314]]]}},{"type":"Feature","properties":{"pid":"4da95e37-3c29-4522-9ca1-cdf3d7b557d5"},"geometry":{"type":"Polygon","coordinates":[[[136.40218730474695,36.0269606035013],[136.40206088485596,36.02686318517841],[136.40180968418147,36.02701325851912],[136.40191011750917,36.027113522927074],[136.40207254199498,36.02701247776706],[136.40218730474695,36.0269606035013]]]}},{"type":"Feature","properties":{"pid":"2d4093ec-63ad-46fa-827b-75563fd64044"},"geometry":{"type":"Polygon","coordinates":[[[136.40135505066405,36.02754456334241],[136.40155275891144,36.027420389093244],[136.4015922538175,36.02738905670937],[136.40150563791477,36.02731701493103],[136.40142929247574,36.027475582922584],[136.40135505066405,36.02754456334241]]]}},{"type":"Feature","properties":{"pid":"bdbc5e58-1113-4c54-8280-b92c9f8c287d"},"geometry":{"type":"Polygon","coordinates":[[[136.40233407315358,36.02693001184794],[136.4025354028179,36.02688160435364],[136.4024338387467,36.026638096708275],[136.40216477651472,36.0267997686954],[136.40233407315358,36.02693001184794]]]}},{"type":"Feature","properties":{"pid":"e2f5866d-d9b6-4a54-953b-4f0345772259"},"geometry":{"type":"Polygon","coordinates":[[[136.4025410282599,36.02658196198925],[136.4026581958206,36.0268572233749],[136.4028376706423,36.02683964296478],[136.40286336157533,36.026723665620814],[136.4026496472065,36.02659510161597],[136.4025410282599,36.02658196198925]]]}},{"type":"Feature","properties":{"pid":"7d8ad583-9872-4ac5-9207-3d80f094f39c"},"geometry":{"type":"Polygon","coordinates":[[[136.402961413517,36.02686942117524],[136.40309712339098,36.02690775642431],[136.40319543516188,36.026957361539345],[136.4032397407288,36.02690058988029],[136.40301282979308,36.02675694951657],[136.4029922088417,36.02675761026789],[136.402961413517,36.02686942117524]]]}},{"type":"Feature","properties":{"pid":"c01d0080-0b22-4d93-9d5e-ec1d6090f465"},"geometry":{"type":"Polygon","coordinates":[[[136.41476826540324,36.02697195745557],[136.41479025253034,36.02699806871608],[136.41508379274427,36.026828333166875],[136.41506599983202,36.026746782423245],[136.41492717558054,36.026780623515734],[136.4148354295503,36.026908898297094],[136.41476826540324,36.02697195745557]]]}},{"type":"Feature","properties":{"pid":"de12daf6-4383-4f95-8ae1-4749cfdf1574"},"geometry":{"type":"Polygon","coordinates":[[[136.4152014008441,36.026718024675056],[136.41521530769543,36.02678835630157],[136.41532696988796,36.02677470420549],[136.4153121142932,36.02669849611913],[136.4152014008441,36.026718024675056]]]}},{"type":"Feature","properties":{"pid":"0e6ef444-73d8-466e-8abf-c3397476bd10"},"geometry":{"type":"Polygon","coordinates":[[[136.41551187076496,36.02720507227589],[136.41547965205623,36.02697264182944],[136.41527389098982,36.026992377834766],[136.4151012106915,36.027062262788],[136.41493161142196,36.02716696970141],[136.41501223467702,36.02726476199897],[136.41536517514794,36.02723576812532],[136.41551187076496,36.02720507227589]]]}},{"type":"Feature","properties":{"pid":"c5073ced-687f-4944-9580-9609fc10caf7"},"geometry":{"type":"Polygon","coordinates":[[[136.41507887875846,36.02737134730869],[136.41511189042146,36.027428571780206],[136.41534253522337,36.02736523105222],[136.41533896009776,36.027353657241896],[136.41522557568587,36.02735494085487],[136.41507887875846,36.02737134730869]]]}},{"type":"Feature","properties":{"pid":"4ae0788e-48f2-4adf-a267-da4c7c8c8447"},"geometry":{"type":"Polygon","coordinates":[[[136.41425529266667,36.02762349881604],[136.41402722201406,36.027623700674795],[136.41384841639672,36.02772030816047],[136.41390647470755,36.02783066797624],[136.41415774289092,36.0277310777626],[136.41425529266667,36.02762349881604]]]}},{"type":"Feature","properties":{"pid":"794659e4-8961-403e-961f-8f6e3688ab70"},"geometry":{"type":"Polygon","coordinates":[[[136.4144387874681,36.02734919567448],[136.41468801777427,36.02708168307062],[136.41464015357212,36.02701803611916],[136.41439932757365,36.02704621137942],[136.41437170331554,36.02707935142908],[136.41439427829502,36.027223262684856],[136.4144387874681,36.02734919567448]]]}},{"type":"Feature","properties":{"pid":"37fcb1bd-039d-46c8-be8e-ded298ba63be"},"geometry":{"type":"Polygon","coordinates":[[[136.41397990891622,36.02704209165821],[136.41400629265644,36.02716629034097],[136.41418619599,36.02716256426068],[136.4141760941139,36.02704110431616],[136.41397990891622,36.02704209165821]]]}},{"type":"Feature","properties":{"pid":"d655c6fd-35bc-4253-b922-cf450977ac4a"},"geometry":{"type":"Polygon","coordinates":[[[136.4136468390337,36.0270615856686],[136.41367448367808,36.027171439148184],[136.41388039926366,36.027169487046216],[136.41385366514666,36.02705765932039],[136.4136468390337,36.0270615856686]]]}},{"type":"Feature","properties":{"pid":"a99e65fe-b297-4278-85fe-123df7e36100"},"geometry":{"type":"Polygon","coordinates":[[[136.41423226455905,36.02740878686642],[136.41419021852414,36.02727400760692],[136.41367312445735,36.0272805933898],[136.41364064092465,36.02734071245451],[136.41381036071868,36.027401221514204],[136.41421832992015,36.02741198526262],[136.41423226455905,36.02740878686642]]]}},{"type":"Feature","properties":{"pid":"70fb74e3-135b-4b1e-8f22-1bd9c9335d6c"},"geometry":{"type":"Polygon","coordinates":[[[136.41336906746554,36.02715060150564],[136.4133485882214,36.02718782219002],[136.41352346425722,36.027294762643706],[136.4135628857888,36.02723067061991],[136.41352406201653,36.02709805661573],[136.41336906746554,36.02715060150564]]]}},{"type":"Feature","properties":{"pid":"e7e329d7-03c8-4a0f-8079-e0d3a79de5b6"},"geometry":{"type":"Polygon","coordinates":[[[136.41266669988295,36.02785938475979],[136.41281560174303,36.027840059888014],[136.41299351000276,36.02779287546792],[136.41298987371792,36.027469335105714],[136.41266669988295,36.02785938475979]]]}},{"type":"Feature","properties":{"pid":"9effe740-6eef-4f99-a035-c37ae181c775"},"geometry":{"type":"Polygon","coordinates":[[[136.4131128236569,36.027375442597204],[136.41312654537546,36.02775932625425],[136.41342283631238,36.02772066387152],[136.41341878398046,36.02750176392724],[136.4131128236569,36.027375442597204]]]}},{"type":"Feature","properties":{"pid":"062db48e-7f28-4acd-95a0-235769c1153f"},"geometry":{"type":"Polygon","coordinates":[[[136.4135413720104,36.027705618723814],[136.4136808598017,36.02764666019179],[136.41368025316305,36.027591071534275],[136.41353848738015,36.02754859469919],[136.4135413720104,36.027705618723814]]]}},{"type":"Feature","properties":{"pid":"c1ecfe72-53d5-4cfe-893c-c5dcc7feb7e0"},"geometry":{"type":"Polygon","coordinates":[[[136.41356139981175,36.0278422936962],[136.4135930346704,36.02794491353247],[136.41366997097404,36.02791781547488],[136.41362195917114,36.02782977516931],[136.41356139981175,36.0278422936962]]]}},{"type":"Feature","properties":{"pid":"0402f30b-fdd1-4aa6-a877-684d52294ef7"},"geometry":{"type":"Polygon","coordinates":[[[136.4132138330496,36.02804961833009],[136.41317294565653,36.027896482327044],[136.41298216393787,36.02794762217682],[136.41303904364761,36.02808494925684],[136.4132138330496,36.02804961833009]]]}},{"type":"Feature","properties":{"pid":"5561d4c0-3558-4e38-bc4f-75ee18bbd808"},"geometry":{"type":"Polygon","coordinates":[[[136.41064561267132,36.02819618705501],[136.41040609271886,36.028258782405736],[136.41040506098085,36.02832708598767],[136.41066135077094,36.02831259306883],[136.41064561267132,36.02819618705501]]]}},{"type":"Feature","properties":{"pid":"05f629d0-4db4-4d67-bdb7-40ebc556779a"},"geometry":{"type":"Polygon","coordinates":[[[136.41023829712648,36.0277552425355],[136.4103222157277,36.0280006530576],[136.41035151695104,36.02799348357979],[136.4102680436394,36.027748384287186],[136.41023829712648,36.0277552425355]]]}},{"type":"Feature","properties":{"pid":"b49bfe51-ca8d-4218-a8f1-db7bb5c3c359"},"geometry":{"type":"Polygon","coordinates":[[[136.41039308076788,36.02771960652668],[136.41047024865384,36.02796143011339],[136.4107399687411,36.02790176804558],[136.41065854429536,36.02766516307889],[136.41039308076788,36.02771960652668]]]}},{"type":"Feature","properties":{"pid":"a5367d81-cc9b-440f-84a7-671d369d6025"},"geometry":{"type":"Polygon","coordinates":[[[136.41076760722197,36.0281708653477],[136.410791547773,36.028307173259115],[136.41101838937485,36.02827165125658],[136.41096299255284,36.02811498204371],[136.41076760722197,36.0281708653477]]]}},{"type":"Feature","properties":{"pid":"07c82956-8102-4450-8591-546faee2846a"},"geometry":{"type":"Polygon","coordinates":[[[136.41141019460028,36.02824745676825],[136.41136095396897,36.028023085005636],[136.41111600201629,36.02807733017298],[136.41116854457988,36.028271767481044],[136.41141019460028,36.02824745676825]]]}},{"type":"Feature","properties":{"pid":"76488056-284a-4d59-a5ee-00b0ec1f5623"},"geometry":{"type":"Polygon","coordinates":[[[136.41211282823636,36.02796847441433],[136.4120115541348,36.02788328970446],[136.41186816935652,36.02792450748613],[136.4118810112863,36.02799284457436],[136.41211282823636,36.02796847441433]]]}},{"type":"Feature","properties":{"pid":"328f543c-e8cd-4e6e-8ece-6e84fc4e815d"},"geometry":{"type":"Polygon","coordinates":[[[136.4117033193599,36.028223177536745],[136.41164120064118,36.02795687949499],[136.41148297619063,36.02799630818584],[136.41153275484658,36.02824009905418],[136.4117033193599,36.028223177536745]]]}},{"type":"Feature","properties":{"pid":"d2ecedc5-6006-48bd-b9f8-c1676a738bef"},"geometry":{"type":"Polygon","coordinates":[[[136.41158852939583,36.02744374839287],[136.4115787142921,36.02746704809392],[136.41166267777467,36.027698495116326],[136.411809098645,36.02767028324013],[136.411724445724,36.02741256552609],[136.41158852939583,36.02744374839287]]]}},{"type":"Feature","properties":{"pid":"73d4060e-ada5-435d-bf9c-32f4eb89b6b6"},"geometry":{"type":"Polygon","coordinates":[[[136.4119245392672,36.02763861129206],[136.41214316890176,36.027424742624284],[136.41221375280915,36.027297344435944],[136.41194175463463,36.02728672389139],[136.4118349049396,36.027376847694015],[136.4119245392672,36.02763861129206]]]}},{"type":"Feature","properties":{"pid":"ec7cc3fd-97cf-487d-a1c0-7190cba42550"},"geometry":{"type":"Polygon","coordinates":[[[136.4124618791966,36.02781885093009],[136.4122528056242,36.02765797266283],[136.41214383320698,36.02776213158667],[136.41229258710007,36.02789407086581],[136.41241936291362,36.02787113316744],[136.4124618791966,36.02781885093009]]]}},{"type":"Feature","properties":{"pid":"a52abce3-a332-4ed9-bb97-37c3dee9c685"},"geometry":{"type":"Polygon","coordinates":[[[136.41292516639876,36.027201654029824],[136.4128468799576,36.027177375146],[136.41265666246548,36.02719183128173],[136.41250112999177,36.027317263155695],[136.41233608880057,36.02758600567767],[136.41253005161397,36.027735256709185],[136.41286109102344,36.02733076687617],[136.41299945312895,36.02725764429222],[136.41292516639876,36.027201654029824]]]}},{"type":"Feature","properties":{"pid":"7006867e-0ccb-4a68-be55-badc1a599731"},"geometry":{"type":"Polygon","coordinates":[[[136.4114073367405,36.027300254605585],[136.41123646734354,36.02729308738434],[136.4112679277662,36.027381349084195],[136.41142288806404,36.027348147847945],[136.4114073367405,36.027300254605585]]]}},{"type":"Feature","properties":{"pid":"4766f380-e788-41ce-b24e-d7a98ffa32b1"},"geometry":{"type":"Polygon","coordinates":[[[136.41130162812823,36.027507396178436],[136.41139281597452,36.027759383231974],[136.4115460482683,36.02772544857974],[136.41146032143206,36.02747002526452],[136.41130162812823,36.027507396178436]]]}},{"type":"Feature","properties":{"pid":"f5fff820-d434-425a-8ccf-24872e975d9c"},"geometry":{"type":"Polygon","coordinates":[[[136.4110394168838,36.02756784984714],[136.41112308927978,36.02782285909884],[136.41128497924097,36.0277842044918],[136.41119504111197,36.027535596005684],[136.4110394168838,36.02756784984714]]]}},{"type":"Feature","properties":{"pid":"c9139623-df97-44a5-a5b4-f2e46996dda3"},"geometry":{"type":"Polygon","coordinates":[[[136.41101472862172,36.02784805314492],[136.41092886749954,36.02759747232159],[136.4107701386678,36.027632442801035],[136.41085629076312,36.02788387384884],[136.41101472862172,36.02784805314492]]]}},{"type":"Feature","properties":{"pid":"460e945f-a3a4-45f5-a60b-77b086b0b0b6"},"geometry":{"type":"Polygon","coordinates":[[[136.41110193302808,36.02728491790835],[136.4109327754289,36.02727532841606],[136.41099126051722,36.027443598181456],[136.41114288724205,36.02740861526889],[136.41110193302808,36.02728491790835]]]}},{"type":"Feature","properties":{"pid":"d9c5a823-a816-4cdb-8a52-0f737d7f8d38"},"geometry":{"type":"Polygon","coordinates":[[[136.4108141329757,36.02726904927533],[136.41064591174998,36.027261416641295],[136.4107274217484,36.02749845022766],[136.41088157666502,36.02746309778565],[136.4108141329757,36.02726904927533]]]}},{"type":"Feature","properties":{"pid":"704cf45a-8451-46f9-bbd6-809a0ed05944"},"geometry":{"type":"Polygon","coordinates":[[[136.41035267480348,36.02758671393462],[136.41026277642925,36.027329032700344],[136.4102425208544,36.027333695552],[136.41033282280563,36.027591283893905],[136.41035267480348,36.02758671393462]]]}},{"type":"Feature","properties":{"pid":"d9a20306-a28d-4ab8-a96b-b50b6836ecab"},"geometry":{"type":"Polygon","coordinates":[[[136.4106192610164,36.027525957118954],[136.41053176532927,36.02726841125843],[136.41037075562937,36.027304504080384],[136.41046067204022,36.02756150706576],[136.4106192610164,36.027525957118954]]]}},{"type":"Feature","properties":{"pid":"c1485917-7d07-46fc-8365-3a2e3f5d161b"},"geometry":{"type":"Polygon","coordinates":[[[136.4098430816087,36.0270380206213],[136.40992386327486,36.02726702634057],[136.4102146347809,36.02720391975197],[136.41016949546534,36.02707912709191],[136.41009391835217,36.02701878933742],[136.4098430816087,36.0270380206213]]]}},{"type":"Feature","properties":{"pid":"aca39ee3-0d0a-4a40-bd35-efd48a3b6f67"},"geometry":{"type":"Polygon","coordinates":[[[136.40941863108048,36.027249271319995],[136.4094782998282,36.027432119809376],[136.4096375723258,36.02741123284009],[136.40963354863314,36.027342961524795],[136.40958987690675,36.02720230701356],[136.40941863108048,36.027249271319995]]]}},{"type":"Feature","properties":{"pid":"ccf8d354-fd8c-4735-9159-0c852b7ecd98"},"geometry":{"type":"Polygon","coordinates":[[[136.40935532329135,36.02745566381027],[136.40930613505319,36.027291427715824],[136.40916117400633,36.02731561658151],[136.40909789107076,36.027465028152676],[136.4092757037516,36.027468729130966],[136.40935532329135,36.02745566381027]]]}},{"type":"Feature","properties":{"pid":"51fcf6dc-f475-400f-a9da-273929fef0a3"},"geometry":{"type":"Polygon","coordinates":[[[136.4089139894276,36.027924336806095],[136.40950523276814,36.02778596459841],[136.40942822692068,36.0275548347643],[136.40929733196907,36.02757866015406],[136.40904107351457,36.027564201260944],[136.4089139894276,36.027924336806095]]]}},{"type":"Feature","properties":{"pid":"466d05ec-864f-4e21-9331-61f642f39263"},"geometry":{"type":"Polygon","coordinates":[[[136.40977701481873,36.02772119518828],[136.40969798354593,36.027509169573875],[136.40954635232688,36.02753474394768],[136.40961871618424,36.027755555036],[136.40977701481873,36.02772119518828]]]}},{"type":"Feature","properties":{"pid":"658b6847-fa49-43b4-bf1b-8eb5d9941bea"},"geometry":{"type":"Polygon","coordinates":[[[136.41021526767526,36.027617640511735],[136.41012409562194,36.02735883762568],[136.40983184659544,36.02743209093445],[136.4099184556472,36.027688882361275],[136.41021526767526,36.027617640511735]]]}},{"type":"Feature","properties":{"pid":"bac709c0-ba18-4acf-934b-b8a886641f9d"},"geometry":{"type":"Polygon","coordinates":[[[136.40996796785777,36.0278207243947],[136.4100562836922,36.02806998435699],[136.41020819979897,36.0280333915466],[136.4101257527246,36.02778602459874],[136.40996796785777,36.0278207243947]]]}},{"type":"Feature","properties":{"pid":"21ab39d1-f2fe-4328-9f6d-b2b7805acfcb"},"geometry":{"type":"Polygon","coordinates":[[[136.40975181598643,36.0281310575044],[136.40989504135678,36.02809709549874],[136.4098105050956,36.02786182752109],[136.40967079091584,36.02789495245552],[136.40975181598643,36.0281310575044]]]}},{"type":"Feature","properties":{"pid":"fa958e02-3da0-4fd6-8518-d0d156f1179e"},"geometry":{"type":"Polygon","coordinates":[[[136.40905408890097,36.02815591463063],[136.40901259840356,36.0280522544787],[136.40885964094042,36.02808476008006],[136.40883209687303,36.028146091767574],[136.40905408890097,36.02815591463063]]]}},{"type":"Feature","properties":{"pid":"5b821003-2251-40f5-af55-5a1f20eb70e5"},"geometry":{"type":"Polygon","coordinates":[[[136.40935225026314,36.02819737987085],[136.4092819631336,36.02799074491928],[136.4091476481528,36.028021545844304],[136.40918940065603,36.0281766330176],[136.40935225026314,36.02819737987085]]]}},{"type":"Feature","properties":{"pid":"6d818314-9887-4605-a755-fc29e35439c4"},"geometry":{"type":"Polygon","coordinates":[[[136.40939558559936,36.02794818212891],[136.4094794999984,36.02819145066773],[136.409559055726,36.028188610530435],[136.40963430721214,36.028162730670026],[136.40955294967915,36.02792134841988],[136.40939558559936,36.02794818212891]]]}},{"type":"Feature","properties":{"pid":"198b3681-f1c1-450c-8c9c-259234e5fcc6"},"geometry":{"type":"Polygon","coordinates":[[[136.4087497346883,36.02784541965252],[136.4086231049635,36.02781690997255],[136.4085531485071,36.02809306933632],[136.40867284968715,36.028103929850616],[136.4087497346883,36.02784541965252]]]}},{"type":"Feature","properties":{"pid":"1080d768-7bdf-4825-bd20-33f9780ec4fb"},"geometry":{"type":"Polygon","coordinates":[[[136.40849814143218,36.027797416549156],[136.40834831148268,36.02776986680375],[136.40827719300685,36.02804853761442],[136.40842076458438,36.02806908966403],[136.40849814143218,36.027797416549156]]]}},{"type":"Feature","properties":{"pid":"8ce18bf7-38dc-49f5-a3ce-6124df787cd3"},"geometry":{"type":"Polygon","coordinates":[[[136.4081338265067,36.02772092506847],[136.40782952731448,36.027684595133834],[136.40777289664567,36.02788758379218],[136.40787515461508,36.0279565335149],[136.40804685565527,36.02800014661831],[136.4081338265067,36.02772092506847]]]}},{"type":"Feature","properties":{"pid":"895def75-a906-40b0-a60c-720367f9cf8c"},"geometry":{"type":"Polygon","coordinates":[[[136.4080774121964,36.0272720780731],[136.40793358981222,36.027247992891915],[136.40785927744662,36.02750617742191],[136.40800461658324,36.027535347625324],[136.4080774121964,36.0272720780731]]]}},{"type":"Feature","properties":{"pid":"1ae31f98-57c9-4c91-a3a7-7e0ec35d0dc9"},"geometry":{"type":"Polygon","coordinates":[[[136.40834413934758,36.027319735674666],[136.40820285288635,36.027295753698596],[136.4081293502858,36.0275657139397],[136.4082780558182,36.02758996541247],[136.40834413934758,36.027319735674666]]]}},{"type":"Feature","properties":{"pid":"ce4b94fb-64b3-40b9-950d-c084049bf71a"},"geometry":{"type":"Polygon","coordinates":[[[136.4086286082149,36.02751980263443],[136.40860073627204,36.02763408387916],[136.40867166403214,36.027648066200854],[136.40870347614793,36.02754158292425],[136.4086286082149,36.02751980263443]]]}},{"type":"Feature","properties":{"pid":"1da52310-84aa-4a71-a89b-0b608063c7a0"},"geometry":{"type":"Polygon","coordinates":[[[136.40855161880015,36.02735503307676],[136.40847137358676,36.027339312278826],[136.40839761105596,36.02761645516163],[136.40847243938387,36.02762945037859],[136.40855161880015,36.02735503307676]]]}},{"type":"Feature","properties":{"pid":"8a4a168f-dbad-4df4-ba62-e7dfe1ce5b2f"},"geometry":{"type":"Polygon","coordinates":[[[136.40870157488865,36.02708986466979],[136.4085782886698,36.02700767778683],[136.40852447460247,36.027217258193076],[136.40864826853732,36.02723799622105],[136.40870157488865,36.02708986466979]]]}},{"type":"Feature","properties":{"pid":"717eed3c-1f72-408f-aeed-3cd0e2b26e3a"},"geometry":{"type":"Polygon","coordinates":[[[136.4083877704755,36.026846542753255],[136.4083299186595,36.02684069463368],[136.4082465028481,36.027149085557475],[136.4083861916479,36.0271766914499],[136.40847218986366,36.02690603982914],[136.4083877704755,36.026846542753255]]]}},{"type":"Feature","properties":{"pid":"2084b010-3474-4f1d-a96a-7932f636c515"},"geometry":{"type":"Polygon","coordinates":[[[136.4081190695084,36.027126881272125],[136.40819797317707,36.02684150505875],[136.40810047711125,36.02683735507899],[136.40804315494503,36.026854148842254],[136.40797854014014,36.02710098221275],[136.4081190695084,36.027126881272125]]]}},{"type":"Feature","properties":{"pid":"e4673282-9629-47eb-967e-7edd90d264b6"},"geometry":{"type":"Polygon","coordinates":[[[136.40757410899997,36.02745441329092],[136.40772979843933,36.02748265972694],[136.40780221136836,36.02721929575649],[136.40765541436824,36.027198802891654],[136.40757410899997,36.02745441329092]]]}},{"type":"Feature","properties":{"pid":"07ba4619-f369-4190-8022-379e14b76122"},"geometry":{"type":"Polygon","coordinates":[[[136.40789729874467,36.026904327050296],[136.40773311494448,36.02694822617974],[136.40769555514174,36.027067637240364],[136.40784229518033,36.027088153349894],[136.40789729874467,36.026904327050296]]]}},{"type":"Feature","properties":{"pid":"9b260080-9b18-4087-8ea8-ba244792b0b4"},"geometry":{"type":"Polygon","coordinates":[[[136.40729253655195,36.0269434384578],[136.407206072011,36.02691344770482],[136.40717611939462,36.02694736604645],[136.4072296462933,36.02703492671271],[136.40748979270487,36.02708671059106],[136.40751919965516,36.026979351549166],[136.40729253655195,36.0269434384578]]]}},{"type":"Feature","properties":{"pid":"53cae784-0308-42c0-8533-c46d7f5a1e87"},"geometry":{"type":"Polygon","coordinates":[[[136.4073051389551,36.027160011312255],[136.40741414763195,36.02741788565582],[136.4074783604239,36.02719390066753],[136.4073051389551,36.027160011312255]]]}},{"type":"Feature","properties":{"pid":"ffafb8e1-4b43-48b4-aae1-6ab37ef48f69"},"geometry":{"type":"Polygon","coordinates":[[[136.40756640932312,36.02760350618452],[136.40759780021673,36.02766562566973],[136.40767465604674,36.02767604509217],[136.4076935613624,36.02762391703038],[136.40756640932312,36.02760350618452]]]}},{"type":"Feature","properties":{"pid":"86f744ea-def3-4325-a04a-496cbf270123"},"geometry":{"type":"Polygon","coordinates":[[[136.40664884509954,36.02720217465527],[136.40667861502595,36.02724169864757],[136.40697049178837,36.02714932129959],[136.40693714364681,36.02710269015867],[136.40664884509954,36.02720217465527]]]}},{"type":"Feature","properties":{"pid":"df55642c-1848-44ad-8c51-74dd07304b8f"},"geometry":{"type":"Polygon","coordinates":[[[136.40663490688263,36.02710806784296],[136.40687462388956,36.0270253478888],[136.40679430311087,36.02696888705746],[136.40673122490696,36.02698386905397],[136.40663490688263,36.02710806784296]]]}},{"type":"Feature","properties":{"pid":"f1f0957c-83bd-47da-b165-c40a9d5ec33a"},"geometry":{"type":"Polygon","coordinates":[[[136.40590912946604,36.027394967642856],[136.4059238786762,36.02744268177975],[136.40603752095032,36.02744177754523],[136.40602724747754,36.027395730383766],[136.40590912946604,36.027394967642856]]]}},{"type":"Feature","properties":{"pid":"1238fc76-5cda-4acb-ac31-178b440e87e2"},"geometry":{"type":"Polygon","coordinates":[[[136.41628222591814,36.027026847784576],[136.41562028825916,36.02697374174813],[136.41564478367025,36.027177845692684],[136.41625509806667,36.027059496434056],[136.41628222591814,36.027026847784576]]]}},{"type":"Feature","properties":{"pid":"f47e3b26-b860-4cb4-95e5-b125445b0315"},"geometry":{"type":"Polygon","coordinates":[[[136.41641936055385,36.02710271696408],[136.41670684749874,36.0271120746751],[136.41671306088267,36.02706599993962],[136.41642196296223,36.02704426517187],[136.41641936055385,36.02710271696408]]]}},{"type":"Feature","properties":{"pid":"b795c790-3337-4fae-bcff-79a0dec4f852"},"geometry":{"type":"Polygon","coordinates":[[[136.41740182849182,36.027030737393886],[136.41758487540542,36.02710916883417],[136.4176706422851,36.02712778817434],[136.41750198051383,36.02696271452372],[136.41740182849182,36.027030737393886]]]}},{"type":"Feature","properties":{"pid":"430ba61f-8b41-491e-aee9-537d82ec1514"},"geometry":{"type":"Polygon","coordinates":[[[136.41780944474274,36.0270998360956],[136.41788171956685,36.02704270806097],[136.41768195534576,36.026845601979126],[136.41760777432557,36.026897380288254],[136.41780944474274,36.0270998360956]]]}},{"type":"Feature","properties":{"pid":"a5ac02ff-3c75-4a42-8aa9-31dfa84ff32c"},"geometry":{"type":"Polygon","coordinates":[[[136.41843096512378,36.0269184179526],[136.4183785212094,36.026943638500576],[136.4181701172295,36.02710838720326],[136.41818848571725,36.027137126226236],[136.41850805780467,36.02705497243422],[136.41843096512378,36.0269184179526]]]}},{"type":"Feature","properties":{"pid":"4941363a-6570-4389-998b-a5f60d7d8566"},"geometry":{"type":"Polygon","coordinates":[[[136.4188701604738,36.02697371677647],[136.41876962209585,36.02679172147257],[136.41857050124253,36.02687561175722],[136.41865321451283,36.02703020321182],[136.4188701604738,36.02697371677647]]]}},{"type":"Feature","properties":{"pid":"a0c7be61-1cfc-4e25-b392-762873b37313"},"geometry":{"type":"Polygon","coordinates":[[[136.42026816664372,36.02752016823995],[136.42040616370682,36.027559267824266],[136.42043021678168,36.02750720562647],[136.42031941616628,36.02745351622127],[136.42026816664372,36.02752016823995]]]}},{"type":"Feature","properties":{"pid":"f627e953-66d4-4e7b-b807-55bd8cbc61a7"},"geometry":{"type":"Polygon","coordinates":[[[136.420207251466,36.02767335431139],[136.4203911535672,36.02770762920155],[136.42039051351074,36.02766994539581],[136.42023168130018,36.02762250636079],[136.420207251466,36.02767335431139]]]}},{"type":"Feature","properties":{"pid":"cfda1306-d778-4f58-9d70-4014218c7c53"},"geometry":{"type":"Polygon","coordinates":[[[136.42364638313595,36.02865934358607],[136.42363838177394,36.02870767997884],[136.42365831094702,36.028730135978925],[136.42369955860607,36.028729989943514],[136.4238037507749,36.02870136967055],[136.42405282450667,36.02859470408337],[136.42364638313595,36.02865934358607]]]}},{"type":"Feature","properties":{"pid":"b44b59d9-54ff-473a-905e-2a9b7e90931e"},"geometry":{"type":"Polygon","coordinates":[[[136.4243350517737,36.02851587568129],[136.4244719996809,36.028505222457426],[136.42493974792092,36.028511828353935],[136.42490240001243,36.028393610862416],[136.42453594577742,36.02846089971885],[136.4243350517737,36.02851587568129]]]}},{"type":"Feature","properties":{"pid":"44965894-5919-44d5-a479-76baac66f403"},"geometry":{"type":"Polygon","coordinates":[[[136.41887593173408,36.02672437340241],[136.41899603329847,36.026942894352985],[136.4191656983863,36.02690799177714],[136.41922252690296,36.026744167802924],[136.41917144545405,36.026691119409094],[136.41901934584968,36.026612535571836],[136.41887593173408,36.02672437340241]]]}},{"type":"Feature","properties":{"pid":"646949e4-a390-4377-93de-5128c0513c31"},"geometry":{"type":"Polygon","coordinates":[[[136.41832039371272,36.026455206001174],[136.41850300866255,36.026640395358434],[136.41869245283291,36.02656356871105],[136.4187933062107,36.02645457794308],[136.4186628574579,36.02642259262223],[136.41851910146124,36.02641406220028],[136.41837269169653,36.026430453214566],[136.41832039371272,36.026455206001174]]]}},{"type":"Feature","properties":{"pid":"aaf1577e-2838-4931-a635-31a11fcb0c38"},"geometry":{"type":"Polygon","coordinates":[[[136.41813089115274,36.02656706282424],[136.41830400153074,36.02673906492069],[136.41839016486813,36.026699043897445],[136.41821144087572,36.02651832340045],[136.41813089115274,36.02656706282424]]]}},{"type":"Feature","properties":{"pid":"4498c730-d27c-4762-94d9-26786eeef2da"},"geometry":{"type":"Polygon","coordinates":[[[136.4181961718817,36.0267937648808],[136.41802781660897,36.02662431598735],[136.4179428628457,36.026676016897895],[136.4181158614727,36.02684999138338],[136.4181961718817,36.0267937648808]]]}},{"type":"Feature","properties":{"pid":"4fccc2bf-aa4e-4f12-bc88-e7700111cfaf"},"geometry":{"type":"Polygon","coordinates":[[[136.41802753369632,36.026925989477945],[136.41784280651,36.02674482094409],[136.41778693129785,36.02678312844902],[136.41797153188054,36.02697888521624],[136.41802753369632,36.026925989477945]]]}},{"type":"Feature","properties":{"pid":"a199f9d4-fbbf-48ae-b762-7c3b51189271"},"geometry":{"type":"Polygon","coordinates":[[[136.4181487020726,36.026323972157364],[136.4180393168834,36.02626567206595],[136.41792570153584,36.026346524508526],[136.4179841422994,36.026419838032815],[136.4181487020726,36.026323972157364]]]}},{"type":"Feature","properties":{"pid":"0829954e-ea4c-49c2-b4a3-c1db79a306e8"},"geometry":{"type":"Polygon","coordinates":[[[136.41854185196695,36.026148705564815],[136.4181784491474,36.02612295594934],[136.4181663982151,36.02614041119691],[136.41842094550486,36.02620959756279],[136.41855229406514,36.02621302153578],[136.41854185196695,36.026148705564815]]]}},{"type":"Feature","properties":{"pid":"8816ddb3-d3ce-4a43-b936-f6364c117f97"},"geometry":{"type":"Polygon","coordinates":[[[136.41732752344512,36.026383955575476],[136.41742994967402,36.02634987993103],[136.4174695114419,36.02634604019963],[136.41740154881734,36.02627197460788],[136.4172505706127,36.0263000153868],[136.41732752344512,36.026383955575476]]]}},{"type":"Feature","properties":{"pid":"ea2754a8-1e18-4c83-9c04-545bf70eef91"},"geometry":{"type":"Polygon","coordinates":[[[136.4175332030353,36.026240782584765],[136.41760324437763,36.02631580393857],[136.41768152574062,36.026292158528186],[136.41777289434853,36.02621839635654],[136.4175332030353,36.026240782584765]]]}},{"type":"Feature","properties":{"pid":"5e1148f3-fd99-4b29-99ee-1820aeb40022"},"geometry":{"type":"Polygon","coordinates":[[[136.41787633299947,36.0264877202664],[136.4178091837984,36.02641936714053],[136.41773235417912,36.02645390146385],[136.4178233334001,36.02653845617392],[136.41787084873283,36.0265078614874],[136.41787633299947,36.0264877202664]]]}},{"type":"Feature","properties":{"pid":"541583b7-196d-4fbc-b652-0011c69aa110"},"geometry":{"type":"Polygon","coordinates":[[[136.41771620321344,36.0266077261397],[136.41758339427716,36.02647867782352],[136.41754273668045,36.02648051645682],[136.41750268668508,36.02650484022419],[136.417650677226,36.02665467757901],[136.41771620321344,36.0266077261397]]]}},{"type":"Feature","properties":{"pid":"a70bbc30-33f9-424d-a9a4-549fc29d25c5"},"geometry":{"type":"Polygon","coordinates":[[[136.4173557488698,36.026533454412494],[136.41729600818783,36.02657185277537],[136.41748415732397,36.02676500704307],[136.41753849403474,36.02673008199917],[136.4173557488698,36.026533454412494]]]}},{"type":"Feature","properties":{"pid":"0a2a0a64-d292-4c58-a01a-356e7856ae18"},"geometry":{"type":"Polygon","coordinates":[[[136.41737905484047,36.02685100677273],[136.4171695505589,36.02663760971079],[136.41710899982488,36.02665236718567],[136.4170832064119,36.0266802893351],[136.41730786223835,36.026903543139994],[136.41737905484047,36.02685100677273]]]}},{"type":"Feature","properties":{"pid":"fa3fd82a-0dc2-49d0-9fbd-e6480e8a7864"},"geometry":{"type":"Polygon","coordinates":[[[136.417212739891,36.0269701251048],[136.41700510956923,36.02676205853006],[136.41695579100679,36.02679641936747],[136.41700141064632,36.026879026171635],[136.41700667190025,36.02691810835272],[136.417212739891,36.0269701251048]]]}},{"type":"Feature","properties":{"pid":"273530e1-6167-47fc-9991-8d5217395c22"},"geometry":{"type":"Polygon","coordinates":[[[136.4164786586644,36.026520270583646],[136.41646713028533,36.02652756395989],[136.41652603065828,36.02682995163413],[136.41677719561406,36.02686178844463],[136.41674692744627,36.026792951413626],[136.4164786586644,36.026520270583646]]]}},{"type":"Feature","properties":{"pid":"f425e612-c5cf-431f-acfe-00d4c46abc07"},"geometry":{"type":"Polygon","coordinates":[[[136.41661990968203,36.02647342820562],[136.41661369478533,36.02648879351636],[136.41681470564316,36.026700092831824],[136.41701649220698,36.026506098012455],[136.41690495679651,36.02639718913704],[136.4167380254941,36.02642561255685],[136.41661990968203,36.02647342820562]]]}},{"type":"Feature","properties":{"pid":"843975f2-5d7d-41ef-978e-dba2b8f4dc64"},"geometry":{"type":"Polygon","coordinates":[[[136.4170781825537,36.026363538065716],[136.41717362855968,36.02646166691985],[136.4172159288112,36.02643328376109],[136.41712808318874,36.026342344950095],[136.4170781825537,36.026363538065716]]]}},{"type":"Feature","properties":{"pid":"62603017-ffbb-4ddf-92f5-8ae449e637ac"},"geometry":{"type":"Polygon","coordinates":[[[136.41634643665193,36.02654052663079],[136.41624379322542,36.02656023865674],[136.41630431987565,36.026822605091176],[136.416401022227,36.026831858409956],[136.41634643665193,36.02654052663079]]]}},{"type":"Feature","properties":{"pid":"c8d0f1f4-7655-409a-88d5-6dd585f2a37d"},"geometry":{"type":"Polygon","coordinates":[[[136.41611947569882,36.02657680386113],[136.41602097417575,36.02659171067325],[136.4160634656747,36.02679692881229],[136.41617141999672,36.026801681102036],[136.41611947569882,36.02657680386113]]]}},{"type":"Feature","properties":{"pid":"225e96cd-47bd-4a74-ac44-d342e4ea27bf"},"geometry":{"type":"Polygon","coordinates":[[[136.4157356006114,36.02663139498147],[136.41575369831386,36.02677125179376],[136.41592698955515,36.026785180302724],[136.41589352577893,36.026612561728506],[136.4157356006114,36.02663139498147]]]}},{"type":"Feature","properties":{"pid":"c1669a61-4fe2-4163-990f-6d64cb7b164e"},"geometry":{"type":"Polygon","coordinates":[[[136.4154592872449,36.02666115032382],[136.41547933810415,36.026759131340164],[136.41562170177406,36.026761546967464],[136.41560966327876,36.02664217463064],[136.4154592872449,36.02666115032382]]]}}]}