{"type":"FeatureCollection","features":[{"type":"Feature","properties":{"pid":"b91bc09d-afdb-42c2-83c8-b002c800f8d2","full":5.7},"geometry":{"type":"Polygon","coordinates":[[[136.21754,36.26414],[136.21785,36.26434],[136.21808,36.26409],[136.21808,36.26396],[136.21803,36.26388],[136.21754,36.26414]]]}},{"type":"Feature","properties":{"pid":"85bf501d-5855-491d-82f1-de5beb3a6f4b","full":2.9},"geometry":{"type":"Polygon","coordinates":[[[136.21736,36.26408],[136.21795,36.26376],[136.21787,36.26364],[136.21727,36.26396],[136.21729,36.264],[136.21736,36.26408]]]}},{"type":"Feature","properties":{"pid":"d3571eb1-0ecf-4c37-aa73-71e49cbac565","full":1.5},"geometry":{"type":"Polygon","coordinates":[[[136.21742,36.26419],[136.21803,36.26388],[136.21796,36.26377],[136.21737,36.26408],[136.21742,36.26419]]]}},{"type":"Feature","properties":{"pid":"bf230826-574c-41de-987a-21507b5d3dee","full":9.8},"geometry":{"type":"Polygon","coordinates":[[[136.21726,36.26396],[136.21787,36.26363],[136.21783,36.26358],[136.21781,36.26358],[136.21769,36.26343],[136.21711,36.26373],[136.21714,36.26378],[136.21718,36.26381],[136.21723,36.26393],[136.21726,36.26396]]]}},{"type":"Feature","properties":{"pid":"7df3db0b-96be-4d89-b6f8-02b4410dfb31","full":3.0},"geometry":{"type":"Polygon","coordinates":[[[136.217,36.26363],[136.21761,36.26332],[136.21751,36.26321],[136.2175,36.26322],[136.2175,36.26321],[136.21689,36.26353],[136.217,36.26363]]]}},{"type":"Feature","properties":{"pid":"a9d5ee34-b35f-41f4-9658-726221fc977d","full":1.0},"geometry":{"type":"Polygon","coordinates":[[[136.21701,36.26363],[136.2171,36.26372],[136.21768,36.26342],[136.21761,36.26333],[136.21701,36.26363]]]}},{"type":"Feature","properties":{"pid":"8e3b0135-b489-4248-bd95-7563979ae50c","full":5.0},"geometry":{"type":"Polygon","coordinates":[[[136.21675,36.26346],[136.21743,36.2631],[136.21734,36.26298],[136.21733,36.26298],[136.21732,36.26297],[136.21656,36.26338],[136.21662,36.26341],[136.21675,36.26346]]]}},{"type":"Feature","properties":{"pid":"7501492d-d13e-4de5-931b-28bd4178a7da","full":3.0},"geometry":{"type":"Polygon","coordinates":[[[136.21654,36.26337],[136.21731,36.26297],[136.2173,36.26296],[136.21732,36.26295],[136.21726,36.26284],[136.21638,36.26331],[136.21654,36.26337]]]}},{"type":"Feature","properties":{"pid":"9fea06f5-2023-4833-89bf-05b4133055af","full":4.0},"geometry":{"type":"Polygon","coordinates":[[[136.21637,36.26331],[136.21726,36.26283],[136.21723,36.26278],[136.21719,36.26273],[136.21718,36.26274],[136.21718,36.26273],[136.21626,36.2632],[136.21629,36.26325],[136.21634,36.26329],[136.21637,36.26331]]]}},{"type":"Feature","properties":{"pid":"06a66646-9be6-4412-a8ee-0acfb7f0e953","full":9.8},"geometry":{"type":"Polygon","coordinates":[[[136.21619,36.26314],[136.21713,36.26265],[136.21699,36.26251],[136.21696,36.26252],[136.21695,36.26251],[136.21604,36.26299],[136.21608,36.26302],[136.21619,36.26314]]]}},{"type":"Feature","properties":{"pid":"42394d31-dff7-4f95-8877-cea0d077491e","full":25.5},"geometry":{"type":"Polygon","coordinates":[[[136.21694,36.26251],[136.21693,36.2625],[136.21695,36.26248],[136.21689,36.26244],[136.21641,36.26235],[136.21567,36.26274],[136.21576,36.26285],[136.21581,36.26289],[136.21599,36.26297],[136.21602,36.26299],[136.21694,36.26251]]]}},{"type":"Feature","properties":{"pid":"8fcd004e-8110-43cf-825f-f997ffb1de7e","full":1.2},"geometry":{"type":"Polygon","coordinates":[[[136.21629,36.26233],[136.21599,36.26228],[136.21564,36.26263],[136.21564,36.26265],[136.21629,36.26233]]]}},{"type":"Feature","properties":{"pid":"afaf1c55-6e32-4487-9f97-f9c87f912d38","full":4.7},"geometry":{"type":"Polygon","coordinates":[[[136.2158,36.26193],[136.21581,36.26196],[136.21583,36.26199],[136.21593,36.26206],[136.21594,36.26208],[136.21615,36.26219],[136.21633,36.26222],[136.21639,36.26218],[136.21642,36.26198],[136.2158,36.26193]]]}},{"type":"Feature","properties":{"pid":"97a1c18f-88f6-425d-ad7b-7eadbd975fd6","full":5.9},"geometry":{"type":"Polygon","coordinates":[[[136.21582,36.26171],[136.21645,36.26176],[136.21649,36.26157],[136.21584,36.26151],[136.21582,36.26171]]]}},{"type":"Feature","properties":{"pid":"1b2e6daa-2136-4e13-8ec7-a843b0107426","full":2.0},"geometry":{"type":"Polygon","coordinates":[[[136.21653,36.26203],[136.21685,36.26206],[136.21689,36.26188],[136.21655,36.26185],[136.21653,36.26203]]]}},{"type":"Feature","properties":{"pid":"d305953a-60cb-4f76-b32c-327848f26e70","full":4.6},"geometry":{"type":"Polygon","coordinates":[[[136.21656,36.26184],[136.21689,36.26188],[136.21695,36.26176],[136.21705,36.26163],[136.2166,36.26158],[136.21656,36.26184]]]}},{"type":"Feature","properties":{"pid":"de0cc14f-a363-4f95-82d5-5252ec4dad35","full":3.6},"geometry":{"type":"Polygon","coordinates":[[[136.2165,36.26222],[136.21654,36.26226],[136.2169,36.26232],[136.21685,36.26207],[136.21653,36.26203],[136.2165,36.26222]]]}},{"type":"Feature","properties":{"pid":"674cc292-b33c-48d0-839a-53a60e024655","full":0.8},"geometry":{"type":"Polygon","coordinates":[[[136.21813,36.26088],[136.21801,36.2608],[136.21782,36.261],[136.21794,36.26108],[136.21813,36.26088]]]}},{"type":"Feature","properties":{"pid":"867e1aa0-077b-47a1-81e8-ccbe3e682f02","full":8.9},"geometry":{"type":"Polygon","coordinates":[[[136.218,36.26079],[136.21748,36.26046],[136.21729,36.26066],[136.21781,36.261],[136.218,36.26079]]]}},{"type":"Feature","properties":{"pid":"7ec8a01e-8271-4008-9f0e-d28d3fa415f1","full":5.3},"geometry":{"type":"Polygon","coordinates":[[[136.21708,36.26087],[136.21765,36.26124],[136.21773,36.26119],[136.21783,36.26114],[136.21721,36.26073],[136.21708,36.26087]]]}},{"type":"Feature","properties":{"pid":"b9013bf9-33c2-43e4-815a-430ca8f4ca58","full":4.5},"geometry":{"type":"Polygon","coordinates":[[[136.21694,36.26101],[136.21738,36.26131],[136.21759,36.26128],[136.21764,36.26125],[136.21707,36.26088],[136.21694,36.26101]]]}},{"type":"Feature","properties":{"pid":"06821420-653d-4016-b66e-a44030a732dc","full":1.9},"geometry":{"type":"Polygon","coordinates":[[[136.21668,36.26129],[136.21669,36.2613],[136.2171,36.26157],[136.21713,36.26153],[136.21722,36.26147],[136.21678,36.26119],[136.21668,36.26129]]]}},{"type":"Feature","properties":{"pid":"1fccb35b-dd4e-4a61-afc9-e36a7378510e","full":1.2},"geometry":{"type":"Polygon","coordinates":[[[136.21678,36.26118],[136.21722,36.26147],[136.21728,36.26143],[136.21731,36.26138],[136.21686,36.26109],[136.2168,36.26114],[136.21678,36.26118]]]}},{"type":"Feature","properties":{"pid":"8f6c90f5-3f08-40c6-a313-bdd2ed722866","full":2.7},"geometry":{"type":"Polygon","coordinates":[[[136.21659,36.26158],[136.21705,36.26162],[136.21706,36.26161],[136.21708,36.26158],[136.21665,36.2613],[136.21663,36.26133],[136.21659,36.26158]]]}},{"type":"Feature","properties":{"pid":"d95a8075-74a1-47f4-993d-8061f152cad3","full":1.7},"geometry":{"type":"Polygon","coordinates":[[[136.21584,36.26136],[136.21652,36.26142],[136.21653,36.26131],[136.21586,36.26123],[136.21584,36.2613],[136.21584,36.26136]]]}},{"type":"Feature","properties":{"pid":"4f50e7b5-2f7f-4398-b47e-43e9ee61c436","full":2.6},"geometry":{"type":"Polygon","coordinates":[[[136.21584,36.2615],[136.21649,36.26156],[136.21651,36.26142],[136.21584,36.26136],[136.21584,36.2615]]]}},{"type":"Feature","properties":{"pid":"438f6150-5bf2-4a99-be0e-309730fcc7d2","full":1.1},"geometry":{"type":"Polygon","coordinates":[[[136.21588,36.26122],[136.21607,36.26124],[136.21609,36.26121],[136.2161,36.26111],[136.21584,36.26093],[136.21588,36.26122]]]}},{"type":"Feature","properties":{"pid":"57c5eeee-717b-4645-8e20-f3bc5ef957e8","full":11.0},"geometry":{"type":"Polygon","coordinates":[[[136.21573,36.26078],[136.21576,36.26085],[136.21578,36.26089],[136.21635,36.26126],[136.21655,36.26128],[136.21665,36.26117],[136.21586,36.26067],[136.21573,36.26078]]]}},{"type":"Feature","properties":{"pid":"9dea8567-cff6-471c-8abd-383802062925","full":0.8},"geometry":{"type":"Polygon","coordinates":[[[136.21743,36.26423],[136.21775,36.26443],[136.21776,36.26442],[136.21777,36.26443],[136.21785,36.26435],[136.21753,36.26414],[136.21742,36.26419],[136.21743,36.26423]]]}},{"type":"Feature","properties":{"pid":"46bf2031-8042-4f80-8442-410405343b8a","full":8.9},"geometry":{"type":"Polygon","coordinates":[[[136.19987,36.2584],[136.1999,36.25852],[136.19994,36.25852],[136.20002,36.25879],[136.20036,36.25834],[136.20036,36.25829],[136.2003,36.25802],[136.19987,36.2584]]]}},{"type":"Feature","properties":{"pid":"0c1e79bf-2e7a-4cf0-ba39-ff6d0b23151a","full":4.4},"geometry":{"type":"Polygon","coordinates":[[[136.19978,36.2582],[136.19984,36.2583],[136.19987,36.25839],[136.2003,36.25802],[136.20029,36.25796],[136.20023,36.25794],[136.20017,36.25794],[136.2001,36.25791],[136.19978,36.2582]]]}},{"type":"Feature","properties":{"pid":"6c9ba882-2e25-457a-8287-6b30578bdbb1","full":11.0},"geometry":{"type":"Polygon","coordinates":[[[136.20035,36.25852],[136.20039,36.25853],[136.20049,36.25852],[136.20059,36.25851],[136.2007,36.25852],[136.2008,36.25855],[136.20089,36.25859],[136.20095,36.25863],[136.20101,36.25869],[136.20105,36.25876],[136.20115,36.25861],[136.20114,36.25859],[136.20116,36.25841],[136.20115,36.25839],[136.20113,36.25838],[136.20092,36.25834],[136.2008,36.25826],[136.20074,36.25824],[136.20047,36.25826],[136.20046,36.25836],[136.20035,36.25852]]]}},{"type":"Feature","properties":{"pid":"26244395-cda3-4002-adc3-a4f029797316","full":10.6},"geometry":{"type":"Polygon","coordinates":[[[136.21979,36.25802],[136.21994,36.25812],[136.22006,36.25825],[136.22018,36.25852],[136.22025,36.25864],[136.22033,36.25884],[136.22037,36.25899],[136.22061,36.25881],[136.2205,36.25865],[136.22042,36.25846],[136.22037,36.25837],[136.22032,36.2583],[136.21992,36.25787],[136.21979,36.25802]]]}},{"type":"Feature","properties":{"pid":"65ae4929-1ecc-48b6-8c4f-f3ce3cc20485","full":10.2},"geometry":{"type":"Polygon","coordinates":[[[136.21852,36.25886],[136.21881,36.25904],[136.2191,36.25874],[136.21904,36.25858],[136.21868,36.25858],[136.21851,36.25883],[136.21852,36.25886]]]}},{"type":"Feature","properties":{"pid":"56429161-30e3-4f79-b12a-5000455b574e","full":0.8},"geometry":{"type":"Polygon","coordinates":[[[136.21874,36.25845],[136.21899,36.25844],[136.21895,36.25833],[136.21892,36.25828],[136.21889,36.25824],[136.2188,36.2582],[136.21876,36.25838],[136.21874,36.25845]]]}},{"type":"Feature","properties":{"pid":"bcaee247-75c8-4748-ab1c-4a06f0eb0e42","full":10.0},"geometry":{"type":"Polygon","coordinates":[[[136.21874,36.2579],[136.21876,36.25792],[136.2188,36.25792],[136.21884,36.25792],[136.21911,36.25783],[136.21925,36.2578],[136.21927,36.25779],[136.21921,36.2576],[136.21918,36.25761],[136.21918,36.25757],[136.21902,36.25752],[136.21899,36.2575],[136.21885,36.25751],[136.21867,36.25753],[136.21872,36.25763],[136.21874,36.25773],[136.21874,36.2579]]]}},{"type":"Feature","properties":{"pid":"1e26e900-931a-43c7-bd44-d61d23e6895a","full":17.2},"geometry":{"type":"Polygon","coordinates":[[[136.21783,36.2573],[136.21786,36.25735],[136.21782,36.25749],[136.21814,36.25777],[136.21827,36.25786],[136.21839,36.25791],[136.21851,36.25795],[136.21853,36.25795],[136.21856,36.25793],[136.21857,36.2579],[136.21858,36.25778],[136.21857,36.2577],[136.21856,36.25765],[136.21851,36.25764],[136.21851,36.2576],[136.21839,36.25754],[136.21831,36.25748],[136.218,36.2572],[136.21783,36.2573]]]}},{"type":"Feature","properties":{"pid":"b23863b5-3cc6-49eb-947d-d0dbbec4e581","full":2.7},"geometry":{"type":"Polygon","coordinates":[[[136.21812,36.25906],[136.21834,36.25919],[136.21855,36.25899],[136.21833,36.25886],[136.21812,36.25906]]]}},{"type":"Feature","properties":{"pid":"137fb7f1-db92-4d23-87d3-5dcf590e4ed8","full":1.8},"geometry":{"type":"Polygon","coordinates":[[[136.21815,36.25975],[136.21834,36.25985],[136.21852,36.25967],[136.21834,36.25955],[136.21815,36.25975]]]}},{"type":"Feature","properties":{"pid":"4cd645ab-8d8b-42b4-8bcc-c7e9c5ba6755","full":6.2},"geometry":{"type":"Polygon","coordinates":[[[136.2161,36.26044],[136.21688,36.26095],[136.21701,36.26081],[136.21645,36.26044],[136.21634,36.26045],[136.2161,36.26044]]]}},{"type":"Feature","properties":{"pid":"ba33bb45-b585-47f8-9ba2-99cb34aa2ebb","full":2.2},"geometry":{"type":"Polygon","coordinates":[[[136.21646,36.26043],[136.21701,36.2608],[136.21711,36.2607],[136.21665,36.26039],[136.21656,36.2604],[136.21646,36.26043]]]}},{"type":"Feature","properties":{"pid":"1790743e-7374-47a0-8a3c-1f0ecd9adac5","full":4.9},"geometry":{"type":"Polygon","coordinates":[[[136.21722,36.25993],[136.21761,36.26018],[136.21778,36.26002],[136.21744,36.2598],[136.21739,36.25977],[136.21721,36.25989],[136.21723,36.25991],[136.21722,36.25993]]]}},{"type":"Feature","properties":{"pid":"8de6307c-5ac8-4635-8153-8cbca8fc3811","full":2.0},"geometry":{"type":"Polygon","coordinates":[[[136.21792,36.26001],[136.2181,36.26013],[136.2183,36.25993],[136.21813,36.25982],[136.21808,36.25984],[136.21792,36.26001]]]}},{"type":"Feature","properties":{"pid":"dafdecf5-fa4a-4fb0-ad6e-215dab4fe223","full":4.1},"geometry":{"type":"Polygon","coordinates":[[[136.21779,36.26012],[136.21855,36.26061],[136.21867,36.26051],[136.2179,36.26002],[136.21779,36.26012]]]}},{"type":"Feature","properties":{"pid":"ca9e672f-7de8-4a01-829b-686d00aa5933","full":1.8},"geometry":{"type":"Polygon","coordinates":[[[136.2177,36.26022],[136.21844,36.26069],[136.21855,36.26061],[136.21778,36.26013],[136.2177,36.26022]]]}},{"type":"Feature","properties":{"pid":"c18bdaf5-bd2b-47e6-917b-11ee3058382e","full":1.3},"geometry":{"type":"Polygon","coordinates":[[[136.21757,36.26035],[136.21824,36.2608],[136.21835,36.26073],[136.21765,36.26027],[136.21757,36.26035]]]}},{"type":"Feature","properties":{"pid":"bdc96f97-dc50-412e-8486-93aee38901de","full":0.6},"geometry":{"type":"Polygon","coordinates":[[[136.21834,36.26028],[136.21846,36.26035],[136.21866,36.26015],[136.21854,36.26008],[136.21834,36.26028]]]}},{"type":"Feature","properties":{"pid":"1a554b97-ab53-4f74-aeef-e120137fa7c0","full":0.9},"geometry":{"type":"Polygon","coordinates":[[[136.21835,36.25919],[136.21848,36.25928],[136.21868,36.25906],[136.21856,36.25899],[136.21835,36.25919]]]}},{"type":"Feature","properties":{"pid":"d1a8761c-d70f-4334-808a-836dafff1c7f","full":8.0},"geometry":{"type":"Polygon","coordinates":[[[136.21886,36.25906],[136.2192,36.25927],[136.21943,36.25901],[136.2192,36.25885],[136.21911,36.25875],[136.21907,36.25881],[136.21886,36.25902],[136.21886,36.25906]]]}},{"type":"Feature","properties":{"pid":"0dc46f91-2c69-47bb-a122-9fd5b4b182ed","full":2.2},"geometry":{"type":"Polygon","coordinates":[[[136.21901,36.25959],[136.21917,36.25969],[136.21926,36.25965],[136.21941,36.25951],[136.21921,36.25938],[136.21901,36.25959]]]}},{"type":"Feature","properties":{"pid":"0f676153-5823-4f7f-a013-c80150eda011","full":2.4},"geometry":{"type":"Polygon","coordinates":[[[136.22077,36.25899],[136.22052,36.25918],[136.22056,36.25922],[136.22062,36.2594],[136.22064,36.25939],[136.22088,36.25911],[136.22077,36.25899]]]}},{"type":"Feature","properties":{"pid":"2bce90aa-ece1-45fe-8658-a36f56340703","full":1.7},"geometry":{"type":"Polygon","coordinates":[[[136.22065,36.25941],[136.22076,36.25949],[136.22084,36.25953],[136.22097,36.25917],[136.22095,36.25915],[136.22088,36.25912],[136.22065,36.2594],[136.22065,36.25941]]]}},{"type":"Feature","properties":{"pid":"97e0cefd-fe55-47b6-a115-b78dcdef6b04","full":10.2},"geometry":{"type":"Polygon","coordinates":[[[136.22085,36.25955],[136.22105,36.25963],[136.22132,36.25966],[136.22138,36.25964],[136.22145,36.25959],[136.22114,36.25918],[136.22112,36.25919],[136.22099,36.25916],[136.22085,36.25955]]]}},{"type":"Feature","properties":{"pid":"3bf0cd17-971e-4775-bf08-77a3be6a9bec","full":7.7},"geometry":{"type":"Polygon","coordinates":[[[136.22145,36.25959],[136.22147,36.25957],[136.2215,36.25944],[136.22165,36.25924],[136.22169,36.25909],[136.22153,36.25902],[136.22137,36.25907],[136.2213,36.25911],[136.22129,36.25915],[136.22115,36.25919],[136.22145,36.25959]]]}},{"type":"Feature","properties":{"pid":"b9795215-d74f-40ab-810e-eb6da3a39e47","full":0.9},"geometry":{"type":"Polygon","coordinates":[[[136.22154,36.25901],[136.22169,36.25908],[136.22177,36.25893],[136.22181,36.25881],[136.2219,36.25857],[136.22197,36.25849],[136.22199,36.25844],[136.22182,36.25842],[136.22179,36.25854],[136.22171,36.25875],[136.22166,36.25886],[136.22158,36.25898],[136.22154,36.25901]]]}},{"type":"Feature","properties":{"pid":"cb6dd298-9987-4f95-9db0-469957e6e5c0","full":1.8},"geometry":{"type":"Polygon","coordinates":[[[136.22185,36.25774],[136.22208,36.25765],[136.222,36.25739],[136.22183,36.25753],[136.2218,36.25756],[136.22182,36.25766],[136.22185,36.25774]]]}},{"type":"Feature","properties":{"pid":"201107b9-2e14-44af-983f-d8e34531de8a","full":6.5},"geometry":{"type":"Polygon","coordinates":[[[136.22183,36.25841],[136.22199,36.25844],[136.22201,36.25836],[136.22203,36.25816],[136.2221,36.25809],[136.22211,36.25807],[136.2221,36.25772],[136.22209,36.25766],[136.22184,36.25776],[136.22187,36.2582],[136.22183,36.25841]]]}},{"type":"Feature","properties":{"pid":"18be67d4-4194-4ac0-842c-6757a343791c","full":11.8},"geometry":{"type":"Polygon","coordinates":[[[136.2241,36.25794],[136.22429,36.25803],[136.22445,36.25813],[136.22469,36.25831],[136.22498,36.25856],[136.22521,36.25843],[136.22504,36.25825],[136.22492,36.25816],[136.22481,36.25812],[136.22459,36.25799],[136.22424,36.25783],[136.22421,36.25782],[136.2241,36.25794]]]}},{"type":"Feature","properties":{"pid":"8c7fbfce-625e-470e-963c-0ba9dbdb1199","full":5.2},"geometry":{"type":"Polygon","coordinates":[[[136.22358,36.25753],[136.22357,36.25757],[136.22362,36.25762],[136.22379,36.25775],[136.22407,36.25791],[136.22415,36.25782],[136.22404,36.25774],[136.22394,36.25763],[136.22389,36.25753],[136.22386,36.25734],[136.22358,36.25753]]]}},{"type":"Feature","properties":{"pid":"d5d26941-30c1-406d-8b7a-a68a7d5f7501","full":0.7},"geometry":{"type":"Polygon","coordinates":[[[136.22358,36.2575],[136.22388,36.25729],[136.22379,36.25716],[136.22353,36.2574],[136.22358,36.2575]]]}}],"precision":5}