{"type":"FeatureCollection","features":[{"type":"Feature","properties":{"pid":"176c80a7-c629-4707-ade3-71b287b47cad","full":3.9},"geometry":{"type":"Polygon","coordinates":[[[135.62407,35.43505],[135.62393,35.43496],[135.62382,35.4353],[135.62394,35.43534],[135.62398,35.43538],[135.62407,35.43541],[135.62418,35.43513],[135.62411,35.43509],[135.62407,35.43505]]]}},{"type":"Feature","properties":{"pid":"6651b2c0-a90d-4273-adba-035f6b6c20ec","full":1.9},"geometry":{"type":"Polygon","coordinates":[[[135.62376,35.43542],[135.6238,35.43531],[135.62392,35.43496],[135.62388,35.43495],[135.62374,35.43496],[135.6237,35.43506],[135.62369,35.43517],[135.62361,35.43536],[135.62376,35.43542]]]}},{"type":"Feature","properties":{"pid":"24c817ab-1273-429f-8bc9-e3bd8aacd568","full":1.7},"geometry":{"type":"Polygon","coordinates":[[[135.6236,35.43535],[135.62368,35.43517],[135.6237,35.43506],[135.62372,35.43496],[135.62356,35.43496],[135.62345,35.4353],[135.62351,35.43532],[135.6236,35.43535]]]}},{"type":"Feature","properties":{"pid":"fb792074-08c0-4b30-8e08-c95da884c826","full":0.9},"geometry":{"type":"Polygon","coordinates":[[[135.62338,35.43526],[135.62347,35.43495],[135.62331,35.43496],[135.62322,35.43527],[135.62331,35.43526],[135.62338,35.43526]]]}},{"type":"Feature","properties":{"pid":"3e69ce51-dfe8-4374-b13c-1ac0dd6bcafc","full":6.4},"geometry":{"type":"Polygon","coordinates":[[[135.62278,35.43551],[135.62285,35.43549],[135.62292,35.43545],[135.62302,35.43536],[135.62308,35.43532],[135.6232,35.43527],[135.6233,35.43496],[135.62314,35.43501],[135.62295,35.43508],[135.62286,35.43515],[135.62282,35.43527],[135.62282,35.43529],[135.62278,35.43551]]]}},{"type":"Feature","properties":{"pid":"febdf9af-2ff8-47eb-a72b-c678c10acee7","full":0.5},"geometry":{"type":"Polygon","coordinates":[[[135.62272,35.43551],[135.62277,35.43551],[135.6228,35.4353],[135.62271,35.43533],[135.62267,35.43533],[135.62255,35.43532],[135.62255,35.43535],[135.62259,35.43541],[135.62263,35.43546],[135.62268,35.43549],[135.62272,35.43551]]]}},{"type":"Feature","properties":{"pid":"45bb5eae-39b8-4e8b-9dbc-1d2eec8dc1fe","full":1.0},"geometry":{"type":"Polygon","coordinates":[[[135.62393,35.43535],[135.62381,35.43532],[135.62378,35.43541],[135.62378,35.43545],[135.62401,35.43559],[135.62406,35.43542],[135.62398,35.43539],[135.62393,35.43535]]]}},{"type":"Feature","properties":{"pid":"3509d7a4-7ee5-4cb3-beb1-c584f421827d","full":1.0},"geometry":{"type":"Polygon","coordinates":[[[135.62414,35.43568],[135.6243,35.43519],[135.62419,35.43514],[135.62408,35.43542],[135.62402,35.43561],[135.62414,35.43568]]]}}],"precision":5}