{"type":"FeatureCollection","features":[{"type":"Feature","properties":{"pid":"b2325e3c-4a0b-497a-9953-270c2058e08e"},"geometry":{"type":"Polygon","coordinates":[[[136.0989490138479,35.723427682232156],[136.09887778129206,35.723428832330825],[136.09901916258494,35.723597946844805],[136.09903475461098,35.72359554101529],[136.0989490138479,35.723427682232156]]]}},{"type":"Feature","properties":{"pid":"ee120fe4-4f70-42cc-bde4-401fc3805ac2"},"geometry":{"type":"Polygon","coordinates":[[[136.09891249431604,35.722545384032756],[136.09904936514752,35.72279398316556],[136.0991024189944,35.72278677758782],[136.09900964444145,35.72257328053107],[136.09891249431604,35.722545384032756]]]}},{"type":"Feature","properties":{"pid":"5305c73f-f1d0-4647-b3c0-6363077e0fe1"},"geometry":{"type":"Polygon","coordinates":[[[136.09896840516032,35.72292073092343],[136.09897590232498,35.72294508025309],[136.0992939276256,35.72319027056254],[136.09934452313726,35.723163134610566],[136.09927171466046,35.7228806219827],[136.09896840516032,35.72292073092343]]]}},{"type":"Feature","properties":{"pid":"5cfd490e-675e-4936-af19-cf3d2ca31bf8"},"geometry":{"type":"Polygon","coordinates":[[[136.09946059083342,35.721506186054214],[136.09950350812449,35.72153342146583],[136.09951836198854,35.72151888395658],[136.0994981158936,35.72144413480674],[136.09949757908234,35.7213164425667],[136.09943372351236,35.72134573226143],[136.09946059083342,35.721506186054214]]]}},{"type":"Feature","properties":{"pid":"dc14d6a3-7118-4db5-a784-e6ccf2ad8697"},"geometry":{"type":"Polygon","coordinates":[[[136.09923427243726,35.720614974472426],[136.0993197613802,35.72074690078919],[136.09941838919542,35.720716561163734],[136.09928862889677,35.72058599104289],[136.09923427243726,35.720614974472426]]]}},{"type":"Feature","properties":{"pid":"6eaedbd0-fd5c-44fb-b6d3-de8a73f1a3b4"},"geometry":{"type":"Polygon","coordinates":[[[136.09373671054317,35.71060556901134],[136.09372909158097,35.710697310584614],[136.09378267157345,35.71075600001183],[136.09382170279085,35.71075387043862],[136.09384191354317,35.71066505125949],[136.09383181862805,35.71060834993988],[136.09373671054317,35.71060556901134]]]}},{"type":"Feature","properties":{"pid":"6b4eb84b-0d07-472c-a216-ef7e44cf63e9"},"geometry":{"type":"Polygon","coordinates":[[[136.0922102101767,35.71011518113363],[136.09226352329335,35.709990387503034],[136.09226341489426,35.70995664986204],[136.09221757887013,35.70992491699096],[136.09217010688369,35.71005779557141],[136.0922102101767,35.71011518113363]]]}},{"type":"Feature","properties":{"pid":"4ee62bdc-f0e3-4160-aae3-715599067914"},"geometry":{"type":"Polygon","coordinates":[[[136.09217707439132,35.70960336659455],[136.09232610815627,35.70969571066319],[136.09256870413114,35.70945965834914],[136.0924522336238,35.70936835664793],[136.09217707439132,35.70960336659455]]]}},{"type":"Feature","properties":{"pid":"4f3c1a85-d291-44c6-9371-cf0144016190"},"geometry":{"type":"Polygon","coordinates":[[[136.09230114799246,35.70905003412394],[136.092449276779,35.70913544115272],[136.0926173633807,35.70897141668038],[136.09255036242408,35.70883906666794],[136.09253898698438,35.708826350691766],[136.09230114799246,35.70905003412394]]]}},{"type":"Feature","properties":{"pid":"b64ee750-a7d5-4871-8b93-28d7469048a1"},"geometry":{"type":"Polygon","coordinates":[[[136.09186041202867,35.70948020191917],[136.09188371654125,35.70951790709265],[136.0920521410554,35.709543648269275],[136.092330183745,35.70928607521431],[136.09218106741127,35.709175036150846],[136.09186041202867,35.70948020191917]]]}},{"type":"Feature","properties":{"pid":"a4ca25e2-ff92-4da0-af8d-0b11cd1319b1"},"geometry":{"type":"Polygon","coordinates":[[[136.09179378696803,35.709372179976135],[136.09207828764679,35.709098397426374],[136.0919340699934,35.70900936997723],[136.09170003789404,35.70922555008141],[136.09179378696803,35.709372179976135]]]}},{"type":"Feature","properties":{"pid":"e1b3255e-ac94-4147-997f-f3a1ef3a888c"},"geometry":{"type":"Polygon","coordinates":[[[136.09189566369548,35.70855295034037],[136.09184463206606,35.708740277627896],[136.09192236399448,35.70879722936357],[136.09205263665027,35.70866933952134],[136.09189566369548,35.70855295034037]]]}},{"type":"Feature","properties":{"pid":"b32f9673-7d74-42d3-b8f9-36c018695ade"},"geometry":{"type":"Polygon","coordinates":[[[136.0920719641146,35.70886926172872],[136.09207149224298,35.708897222635834],[136.09218067641024,35.70898013244919],[136.09221396972336,35.70887121932368],[136.09232275623802,35.70863980247456],[136.0920719641146,35.70886926172872]]]}},{"type":"Feature","properties":{"pid":"9acb0164-66a5-42a1-93b7-72b1541913f0"},"geometry":{"type":"Polygon","coordinates":[[[136.09204534631587,35.708210663404785],[136.09194504370828,35.70838195904],[136.0921756217325,35.708550184694936],[136.0923364757827,35.70841998468409],[136.09204534631587,35.708210663404785]]]}},{"type":"Feature","properties":{"pid":"223bf480-b0c0-4df6-a96b-52bf025623d0"},"geometry":{"type":"Polygon","coordinates":[[[136.0919501464959,35.70814221487675],[136.09151214165158,35.70782729010712],[136.09136850710686,35.707961327547],[136.09184717002265,35.708310552304496],[136.0919501464959,35.70814221487675]]]}},{"type":"Feature","properties":{"pid":"3e9d968e-b29a-4303-9c26-b82d5cb298a6"},"geometry":{"type":"Polygon","coordinates":[[[136.09110203874016,35.708196201764466],[136.09174004352053,35.708663649419556],[136.09179769425458,35.70848030929929],[136.0912472463996,35.708072173559074],[136.09110203874016,35.708196201764466]]]}},{"type":"Feature","properties":{"pid":"a378668a-fa3d-4a6b-bb8a-5fc7d27e7936"},"geometry":{"type":"Polygon","coordinates":[[[136.0913493743226,35.7087465551265],[136.09100111695778,35.70854831660268],[136.090997371979,35.70855170869953],[136.09128643265672,35.70880491367665],[136.0913493743226,35.7087465551265]]]}},{"type":"Feature","properties":{"pid":"eb41d263-29f4-4d04-902c-850ef037c85f"},"geometry":{"type":"Polygon","coordinates":[[[136.09108376882844,35.70847345297324],[136.0914295559358,35.70867221198565],[136.09145844248795,35.708645428764534],[136.09114166414182,35.70842101318076],[136.09108376882844,35.70847345297324]]]}},{"type":"Feature","properties":{"pid":"154f0baf-345d-42be-8679-e91b7897a84c"},"geometry":{"type":"Polygon","coordinates":[[[136.0902813825495,35.70758296868742],[136.09030409668003,35.707612698650806],[136.09034794891704,35.70757920770245],[136.09040001545006,35.70758460650539],[136.09075113626315,35.70783558124106],[136.09084094747467,35.70776347161346],[136.09041695446456,35.707455281605604],[136.0902813825495,35.70758296868742]]]}},{"type":"Feature","properties":{"pid":"e64ccf45-3ab6-4f90-8d86-98950db69774"},"geometry":{"type":"Polygon","coordinates":[[[136.09028098801653,35.70717600782778],[136.0909986041375,35.707702840515175],[136.09114488894204,35.707554000001636],[136.0904338602522,35.70703451902926],[136.09028098801653,35.70717600782778]]]}},{"type":"Feature","properties":{"pid":"3c02dfd1-b42d-40c8-90d8-d82fa53938bd"},"geometry":{"type":"Polygon","coordinates":[[[136.09186904049966,35.70749560286399],[136.09262319470085,35.708046454834744],[136.09273170143177,35.707901673130515],[136.09198905603787,35.70736729479855],[136.0918714735085,35.70747784024457],[136.09186904049966,35.70749560286399]]]}},{"type":"Feature","properties":{"pid":"80bf012b-5b0f-4034-9b42-7b9cc511e732"},"geometry":{"type":"Polygon","coordinates":[[[136.0916330400716,35.707713723976596],[136.09245079388285,35.708313158086746],[136.09255723588376,35.70814879007168],[136.09177973113216,35.70757264595481],[136.0916330400716,35.707713723976596]]]}},{"type":"Feature","properties":{"pid":"f333e3cd-537c-41eb-a735-4e8b698804cc"},"geometry":{"type":"Polygon","coordinates":[[[136.0921188347816,35.707260592808495],[136.09211473136781,35.70729463168393],[136.0927442814564,35.70774578567392],[136.09274743362812,35.70768470456811],[136.0928369047305,35.707613771264],[136.09222117498416,35.70716599783897],[136.0921188347816,35.707260592808495]]]}},{"type":"Feature","properties":{"pid":"14400aa2-f401-4ca1-bc82-fd49653c37eb"},"geometry":{"type":"Polygon","coordinates":[[[136.09232232874353,35.70707849687879],[136.0923221063319,35.707096309857235],[136.09292366980281,35.70753055479253],[136.09306295717263,35.70741681236874],[136.09244868916795,35.70696781722346],[136.09232232874353,35.70707849687879]]]}}]}