{"type":"FeatureCollection","features":[{"type":"Feature","properties":{"pid":"b2325e3c-4a0b-497a-9953-270c2058e08e","full":0.8},"geometry":{"type":"Polygon","coordinates":[[[136.09899,35.72339],[136.09892,35.72337],[136.09879,35.7234],[136.09899,35.72365],[136.09911,35.72363],[136.09899,35.72339]]]}},{"type":"Feature","properties":{"pid":"ee120fe4-4f70-42cc-bde4-401fc3805ac2","full":1.7},"geometry":{"type":"Polygon","coordinates":[[[136.09918,35.72282],[136.09905,35.72254],[136.09897,35.72251],[136.09888,35.7225],[136.09883,35.72251],[136.09902,35.72284],[136.09918,35.72282]]]}},{"type":"Feature","properties":{"pid":"5305c73f-f1d0-4647-b3c0-6363077e0fe1","full":6.0},"geometry":{"type":"Polygon","coordinates":[[[136.09891,35.72291],[136.09893,35.72297],[136.09929,35.72325],[136.09939,35.72319],[136.0994,35.72316],[136.09932,35.72283],[136.09918,35.72284],[136.09893,35.72288],[136.09891,35.72291]]]}},{"type":"Feature","properties":{"pid":"5cfd490e-675e-4936-af19-cf3d2ca31bf8","full":1.0},"geometry":{"type":"Polygon","coordinates":[[[136.09951,35.72159],[136.09958,35.72153],[136.09956,35.72147],[136.09955,35.72144],[136.09955,35.72124],[136.09937,35.72132],[136.09941,35.72153],[136.09951,35.72159]]]}},{"type":"Feature","properties":{"pid":"dc14d6a3-7118-4db5-a784-e6ccf2ad8697","full":1.3},"geometry":{"type":"Polygon","coordinates":[[[136.09916,35.7206],[136.09931,35.72082],[136.09934,35.72079],[136.09948,35.72074],[136.09948,35.72071],[136.0993,35.72052],[136.09916,35.7206]]]}},{"type":"Feature","properties":{"pid":"6eaedbd0-fd5c-44fb-b6d3-de8a73f1a3b4","full":1.4},"geometry":{"type":"Polygon","coordinates":[[[136.09369,35.71056],[136.09367,35.71071],[136.09376,35.7108],[136.09387,35.7108],[136.0939,35.71067],[136.09388,35.71056],[136.09369,35.71056]]]}},{"type":"Feature","properties":{"pid":"6b4eb84b-0d07-472c-a216-ef7e44cf63e9","full":1.0},"geometry":{"type":"Polygon","coordinates":[[[136.09225,35.71027],[136.09226,35.71013],[136.09232,35.71],[136.09232,35.70994],[136.09219,35.70985],[136.09215,35.70995],[136.09211,35.71006],[136.09225,35.71027]]]}},{"type":"Feature","properties":{"pid":"4ee62bdc-f0e3-4160-aae3-715599067914","full":5.5},"geometry":{"type":"Polygon","coordinates":[[[136.09209,35.70961],[136.09233,35.70976],[136.09264,35.70946],[136.09245,35.7093],[136.09209,35.70961]]]}},{"type":"Feature","properties":{"pid":"4f3c1a85-d291-44c6-9371-cf0144016190","full":4.6},"geometry":{"type":"Polygon","coordinates":[[[136.09223,35.70905],[136.09225,35.70908],[136.09246,35.7092],[136.09268,35.70898],[136.0926,35.70882],[136.09254,35.70875],[136.09223,35.70905]]]}},{"type":"Feature","properties":{"pid":"b64ee750-a7d5-4871-8b93-28d7469048a1","full":7.7},"geometry":{"type":"Polygon","coordinates":[[[136.09179,35.70947],[136.09185,35.70956],[136.09207,35.70959],[136.09241,35.70928],[136.09218,35.70911],[136.09179,35.70947]]]}},{"type":"Feature","properties":{"pid":"a4ca25e2-ff92-4da0-af8d-0b11cd1319b1","full":6.0},"geometry":{"type":"Polygon","coordinates":[[[136.09216,35.70909],[136.09195,35.70895],[136.09194,35.70896],[136.09192,35.70895],[136.09163,35.70922],[136.09177,35.70944],[136.0918,35.70943],[136.09216,35.70909]]]}},{"type":"Feature","properties":{"pid":"e1b3255e-ac94-4147-997f-f3a1ef3a888c","full":2.7},"geometry":{"type":"Polygon","coordinates":[[[136.09187,35.70847],[136.09182,35.70861],[136.09178,35.70876],[136.09193,35.70886],[136.09213,35.70866],[136.09187,35.70847]]]}},{"type":"Feature","properties":{"pid":"b32f9673-7d74-42d3-b8f9-36c018695ade","full":2.6},"geometry":{"type":"Polygon","coordinates":[[[136.09223,35.70903],[136.09227,35.70889],[136.0923,35.70881],[136.09235,35.7087],[136.0924,35.70863],[136.09231,35.70857],[136.092,35.70886],[136.09202,35.70888],[136.092,35.70891],[136.0922,35.70906],[136.09223,35.70903]]]}},{"type":"Feature","properties":{"pid":"9acb0164-66a5-42a1-93b7-72b1541913f0","full":6.5},"geometry":{"type":"Polygon","coordinates":[[[136.09203,35.70814],[136.09196,35.70824],[136.09188,35.70839],[136.09217,35.7086],[136.09219,35.7086],[136.0924,35.70843],[136.0924,35.7084],[136.09203,35.70814]]]}},{"type":"Feature","properties":{"pid":"223bf480-b0c0-4df6-a96b-52bf025623d0","full":11.0},"geometry":{"type":"Polygon","coordinates":[[[136.09202,35.70813],[136.09151,35.70776],[136.09129,35.70797],[136.09187,35.70839],[136.09195,35.70823],[136.09202,35.70813]]]}},{"type":"Feature","properties":{"pid":"3e9d968e-b29a-4303-9c26-b82d5cb298a6","full":13.6},"geometry":{"type":"Polygon","coordinates":[[[136.09186,35.70847],[136.09124,35.70801],[136.09104,35.70819],[136.09104,35.70821],[136.09177,35.70875],[136.09181,35.70861],[136.09186,35.70847]]]}},{"type":"Feature","properties":{"pid":"a378668a-fa3d-4a6b-bb8a-5fc7d27e7936","full":1.7},"geometry":{"type":"Polygon","coordinates":[[[136.09143,35.70874],[136.09099,35.70849],[136.09092,35.70855],[136.09129,35.70887],[136.09143,35.70874]]]}},{"type":"Feature","properties":{"pid":"eb41d263-29f4-4d04-902c-850ef037c85f","full":2.2},"geometry":{"type":"Polygon","coordinates":[[[136.091,35.70848],[136.09144,35.70873],[136.09152,35.70865],[136.09153,35.70863],[136.09114,35.70836],[136.091,35.70848]]]}},{"type":"Feature","properties":{"pid":"154f0baf-345d-42be-8679-e91b7897a84c","full":6.2},"geometry":{"type":"Polygon","coordinates":[[[136.09021,35.70761],[136.09031,35.70768],[136.09037,35.70762],[136.09075,35.7079],[136.09092,35.70776],[136.09041,35.70739],[136.09022,35.70757],[136.09023,35.70759],[136.09021,35.70761]]]}},{"type":"Feature","properties":{"pid":"e64ccf45-3ab6-4f90-8d86-98950db69774","full":18.3},"geometry":{"type":"Polygon","coordinates":[[[136.0902,35.70718],[136.09101,35.70777],[136.09122,35.70755],[136.09043,35.70697],[136.0902,35.70718]]]}},{"type":"Feature","properties":{"pid":"3c02dfd1-b42d-40c8-90d8-d82fa53938bd","full":16.6},"geometry":{"type":"Polygon","coordinates":[[[136.09181,35.70751],[136.09264,35.70812],[136.0928,35.70789],[136.09198,35.7073],[136.09182,35.70746],[136.09181,35.70751]]]}},{"type":"Feature","properties":{"pid":"80bf012b-5b0f-4034-9b42-7b9cc511e732","full":19.6},"geometry":{"type":"Polygon","coordinates":[[[136.09157,35.70773],[136.09245,35.70837],[136.09249,35.70835],[136.09256,35.70822],[136.09262,35.70815],[136.09262,35.70813],[136.09177,35.70751],[136.09157,35.70771],[136.09157,35.70773]]]}},{"type":"Feature","properties":{"pid":"f333e3cd-537c-41eb-a735-4e8b698804cc","full":12.5},"geometry":{"type":"Polygon","coordinates":[[[136.0929,35.7076],[136.09222,35.7071],[136.09205,35.70726],[136.09207,35.70727],[136.09204,35.7073],[136.0928,35.70784],[136.09281,35.70783],[136.0928,35.70771],[136.09289,35.70763],[136.0929,35.70761],[136.0929,35.7076]]]}},{"type":"Feature","properties":{"pid":"14400aa2-f401-4ca1-bc82-fd49653c37eb","full":13.4},"geometry":{"type":"Polygon","coordinates":[[[136.09313,35.7074],[136.09245,35.7069],[136.09226,35.70707],[136.09227,35.70709],[136.09225,35.70711],[136.09293,35.70759],[136.09312,35.70743],[136.09313,35.7074]]]}}],"precision":5}