{"type":"FeatureCollection","features":[{"type":"Feature","properties":{"pid":"5a31bc01-dd53-426c-ba69-9a9a34ede248"},"geometry":{"type":"Polygon","coordinates":[[[136.0485656316576,35.9436536523505],[136.04860173571814,35.94378490193318],[136.0486123878128,35.94378425600662],[136.04895037500876,35.94362902911177],[136.04893933363454,35.94359050900102],[136.04890227546284,35.94358038139801],[136.0485656316576,35.9436536523505]]]}},{"type":"Feature","properties":{"pid":"aa3aa127-98df-48d6-adf4-de84dcab8997"},"geometry":{"type":"Polygon","coordinates":[[[136.0497311049428,35.942783422103126],[136.04974408143238,35.94280825963647],[136.0499311970394,35.94278280691214],[136.0501376124847,35.94279576069309],[136.0501861960213,35.9427292199216],[136.05016665056294,35.94267774604885],[136.0497311049428,35.942783422103126]]]}},{"type":"Feature","properties":{"pid":"3a610991-d562-44a7-b2c5-eb7f5d0be659"},"geometry":{"type":"Polygon","coordinates":[[[136.04926137067073,35.94288254948817],[136.04930949316326,35.942981362573846],[136.04954522475194,35.94288974989201],[136.04951927516777,35.94282750860833],[136.04926137067073,35.94288254948817]]]}},{"type":"Feature","properties":{"pid":"52043771-0c5e-4e0d-829e-7f3121089efa"},"geometry":{"type":"Polygon","coordinates":[[[136.04885099766776,35.942851786634044],[136.04913180044284,35.942787840680914],[136.04913052970684,35.94278223084653],[136.0488348504389,35.94282228279844],[136.04885099766776,35.942851786634044]]]}},{"type":"Feature","properties":{"pid":"a7ff5175-cf9e-4e1b-91a5-41cb8beddfe8"},"geometry":{"type":"Polygon","coordinates":[[[136.04888316761438,35.94297775979299],[136.04892324027153,35.943001950801644],[136.04899376189016,35.943105885947304],[136.0491627675257,35.9430378750539],[136.04911094881868,35.942918074018024],[136.04888316761438,35.94297775979299]]]}},{"type":"Feature","properties":{"pid":"35f9b4cf-eabb-43eb-bece-02dd8b4cbdd3"},"geometry":{"type":"Polygon","coordinates":[[[136.04840839290938,35.943299468052594],[136.04843887390848,35.94336999665229],[136.04880561624176,35.943274842046954],[136.04876835488238,35.9432039515954],[136.04840839290938,35.943299468052594]]]}},{"type":"Feature","properties":{"pid":"7a576e30-3d9d-4951-ad85-f1677b7007e2"},"geometry":{"type":"Polygon","coordinates":[[[136.048483491729,35.94348133743986],[136.0485081069776,35.94353975156452],[136.0488791828152,35.943459574339634],[136.04885284524568,35.94338663927722],[136.048483491729,35.94348133743986]]]}},{"type":"Feature","properties":{"pid":"a32d0a2c-45f9-417e-a948-d6fe468de546"},"geometry":{"type":"Polygon","coordinates":[[[136.04831098088835,35.9431816544649],[136.0483477640252,35.94316909472173],[136.04871303903266,35.943078752676755],[136.0486863488416,35.94301663492269],[136.04828459686433,35.94311383025136],[136.04831098088835,35.9431816544649]]]}},{"type":"Feature","properties":{"pid":"effebfaa-2fca-455e-8aee-7e5c9a7f0996"},"geometry":{"type":"Polygon","coordinates":[[[136.04816001432815,35.942812704570976],[136.04824698128803,35.94299048952209],[136.0486503861214,35.94289551983533],[136.04862141440177,35.94281861435855],[136.04816001432815,35.942812704570976]]]}},{"type":"Feature","properties":{"pid":"1cb26c43-a6d5-4233-aefa-c25beeffbfc4"},"geometry":{"type":"Polygon","coordinates":[[[136.04778617991695,35.9429277683476],[136.0478449667925,35.94303990009944],[136.04804279717004,35.94299249878661],[136.04798860250037,35.942846171789526],[136.04787428983394,35.94287888525899],[136.04778617991695,35.9429277683476]]]}},{"type":"Feature","properties":{"pid":"3fcd66a6-9e0a-4227-a638-51b55094f07e"},"geometry":{"type":"Polygon","coordinates":[[[136.04741370974568,35.943274464853694],[136.04742483575248,35.94336833665842],[136.04811599983006,35.94320071786541],[136.04807969396114,35.94311853885721],[136.04741370974568,35.943274464853694]]]}},{"type":"Feature","properties":{"pid":"4592c5df-d86f-41a8-95b5-2eb580135ab0"},"geometry":{"type":"Polygon","coordinates":[[[136.04700899116958,35.94338130381432],[136.04700729448749,35.94339529778243],[136.04718439662471,35.94351794422816],[136.04724041990553,35.943375822086885],[136.04721059628915,35.9432551661164],[136.04700899116958,35.94338130381432]]]}},{"type":"Feature","properties":{"pid":"d90c40c6-769d-432c-9871-2c844fbb6b76"},"geometry":{"type":"Polygon","coordinates":[[[136.04740300787185,35.94315772411241],[136.0476963979232,35.94308780121553],[136.0476670097834,35.94301315073715],[136.04740300787185,35.94315772411241]]]}},{"type":"Feature","properties":{"pid":"0131aaf4-aa4d-4ed4-8632-f8aee2480a17"},"geometry":{"type":"Polygon","coordinates":[[[136.04680440907447,35.94281643779207],[136.0468119170236,35.94284256921973],[136.0468860601695,35.942894317577284],[136.04704775859707,35.942833118273064],[136.04715687261017,35.94269447365652],[136.04680440907447,35.94281643779207]]]}},{"type":"Feature","properties":{"pid":"18ecf712-0123-4cb7-9fec-e7c29249046b"},"geometry":{"type":"Polygon","coordinates":[[[136.0467808892136,35.94270525592957],[136.04699313176187,35.94263307805054],[136.04721730916762,35.942557814515766],[136.0472124222128,35.94254745842785],[136.04677798082676,35.942692008284936],[136.0467808892136,35.94270525592957]]]}},{"type":"Feature","properties":{"pid":"5985ed57-7730-478f-8dde-3fa9b8e367ae"},"geometry":{"type":"Polygon","coordinates":[[[136.04735303272938,35.9425007139128],[136.04738613483505,35.94258574440566],[136.04760398123426,35.94250560329971],[136.04760500488848,35.94247138539174],[136.04762641880572,35.94244676971583],[136.0478133461903,35.942378100381845],[136.04779674971337,35.9423461537506],[136.04735303272938,35.9425007139128]]]}},{"type":"Feature","properties":{"pid":"e95c7add-3c58-46a8-90c1-03c49db33896"},"geometry":{"type":"Polygon","coordinates":[[[136.04795816659578,35.942353427132964],[136.04802544204463,35.942333684618646],[136.04832097693924,35.94235882722506],[136.0482587768492,35.94218555304518],[136.0479325121706,35.94230173314968],[136.04795816659578,35.942353427132964]]]}},{"type":"Feature","properties":{"pid":"74bb7432-e4a8-4a9a-ac59-2600b1551274"},"geometry":{"type":"Polygon","coordinates":[[[136.04835789917828,35.942033014765876],[136.04831939207338,35.941948655578265],[136.0480600141352,35.94206866790186],[136.04788548358363,35.942183330421464],[136.04789337482615,35.942199246649544],[136.04835789917828,35.942033014765876]]]}},{"type":"Feature","properties":{"pid":"d5224a68-8984-4822-81b6-388d9656d701"},"geometry":{"type":"Polygon","coordinates":[[[136.0472893853297,35.94231644174829],[136.0473188529594,35.94238613825797],[136.04773907354257,35.94224467656928],[136.0477355547735,35.9422354864016],[136.0472893853297,35.94231644174829]]]}},{"type":"Feature","properties":{"pid":"2ee921a3-394d-46d5-b56e-9cd96cf523f5"},"geometry":{"type":"Polygon","coordinates":[[[136.04692739276842,35.941551833589514],[136.04701415826682,35.94154885011912],[136.04731619883958,35.941466428480936],[136.04731468742332,35.94144832436879],[136.04692739276842,35.941551833589514]]]}},{"type":"Feature","properties":{"pid":"1b95a377-bf58-4ed3-941b-dfe793d07f88"},"geometry":{"type":"Polygon","coordinates":[[[136.04688703157538,35.94139021720366],[136.0469573169407,35.9414196676072],[136.04699146967025,35.941415595915245],[136.0473013952827,35.94133379819568],[136.04729887470344,35.941291685848995],[136.04688703157538,35.94139021720366]]]}},{"type":"Feature","properties":{"pid":"4d3d1e61-b144-4c88-bfb1-253c772d5100"},"geometry":{"type":"Polygon","coordinates":[[[136.04683936428484,35.94122964948493],[136.04686015825968,35.941271633556774],[136.04727626165126,35.941171354189834],[136.04726748220853,35.941128027272576],[136.04683936428484,35.94122964948493]]]}},{"type":"Feature","properties":{"pid":"480870d7-1f1a-48a7-b79f-dc720de8e412"},"geometry":{"type":"Polygon","coordinates":[[[136.0475272177879,35.94160522626533],[136.04802556322767,35.94135355901064],[136.04801239186347,35.94126673654537],[136.04753084159674,35.94157321154735],[136.0475272177879,35.94160522626533]]]}},{"type":"Feature","properties":{"pid":"f987a901-2b0f-4191-b939-2af018f48290"},"geometry":{"type":"Polygon","coordinates":[[[136.04750010167615,35.941405995859185],[136.04801245225488,35.94109410789238],[136.04799418396632,35.94105016296075],[136.0474911262682,35.941266740894456],[136.04750010167615,35.941405995859185]]]}},{"type":"Feature","properties":{"pid":"d08b92ac-cb05-4f12-b8a6-3b0cdcc697e6"},"geometry":{"type":"Polygon","coordinates":[[[136.04772756948304,35.94075966961223],[136.04783182385134,35.940927876979686],[136.0479124803736,35.94089744275397],[136.04790976981823,35.940821622985055],[136.04786203351415,35.9407153103616],[136.04772756948304,35.94075966961223]]]}},{"type":"Feature","properties":{"pid":"ec8d4ea1-9b46-4902-bade-0050fff782fb"},"geometry":{"type":"Polygon","coordinates":[[[136.04765952897958,35.94099545354362],[136.0477129496718,35.9409747296146],[136.04760667697323,35.94080657250367],[136.04756381800593,35.9408194826734],[136.04765952897958,35.94099545354362]]]}},{"type":"Feature","properties":{"pid":"2445b4b3-2abe-4088-8b94-9546355a2072"},"geometry":{"type":"Polygon","coordinates":[[[136.04361673491346,35.9412547132323],[136.04379681800904,35.94145756632924],[136.04398779589636,35.94147702646312],[136.04374578348137,35.94118708452196],[136.04361673491346,35.9412547132323]]]}},{"type":"Feature","properties":{"pid":"014174aa-3f18-4008-b30d-824d2dca45b1"},"geometry":{"type":"Polygon","coordinates":[[[136.04387341473023,35.941113342729714],[136.04419164391567,35.941495997553425],[136.04433829696487,35.94144407962509],[136.044030290079,35.94102593440851],[136.04387341473023,35.941113342729714]]]}},{"type":"Feature","properties":{"pid":"97561815-f807-485d-b80c-e151b8572877"},"geometry":{"type":"Polygon","coordinates":[[[136.04414146870505,35.94095814293022],[136.04445516042387,35.94137619504168],[136.04452144720022,35.941360592091705],[136.0442259748725,35.94090582985081],[136.04414146870505,35.94095814293022]]]}},{"type":"Feature","properties":{"pid":"2c3d3482-9bd8-4336-95df-44981a0a32dd"},"geometry":{"type":"Polygon","coordinates":[[[136.04336556786728,35.941304958577405],[136.04347714757733,35.94151487981141],[136.04362212688326,35.94147553334732],[136.04347351564326,35.941290124428775],[136.04336556786728,35.941304958577405]]]}},{"type":"Feature","properties":{"pid":"551b82d6-4a56-4baf-98ae-4ba23af186d0"},"geometry":{"type":"Polygon","coordinates":[[[136.04329805995866,35.94103044669336],[136.04337795792082,35.94102385393371],[136.043487828593,35.940961816265116],[136.04333328364413,35.94082073338783],[136.04329805995866,35.94103044669336]]]}},{"type":"Feature","properties":{"pid":"6405c5e2-61dd-4133-97ec-29898c418adb"},"geometry":{"type":"Polygon","coordinates":[[[136.0434204233701,35.94058173881879],[136.04341995722876,35.94064546042388],[136.04364728553045,35.940838059917155],[136.04384670229072,35.940724920877784],[136.0434204233701,35.94058173881879]]]}},{"type":"Feature","properties":{"pid":"3a388bac-6c46-4e5d-8c75-346bf8d5c2a2"},"geometry":{"type":"Polygon","coordinates":[[[136.04341017051738,35.9404332656895],[136.04400872227959,35.940632611094266],[136.04411390487468,35.94056037498003],[136.0441240633002,35.9404330983912],[136.0435353165856,35.94034488180587],[136.04349725711748,35.94037088922839],[136.04341859762445,35.94036396932624],[136.04341017051738,35.9404332656895]]]}},{"type":"Feature","properties":{"pid":"e18592ec-3a69-4173-9a98-200e224a7d1d"},"geometry":{"type":"Polygon","coordinates":[[[136.04251289586946,35.940548746868686],[136.04277333399025,35.940685562040066],[136.0429872914071,35.94074937427684],[136.0431007721304,35.94080831737933],[136.04310261979097,35.94077953088446],[136.0425135540825,35.94050265869568],[136.04251289586946,35.940548746868686]]]}},{"type":"Feature","properties":{"pid":"6efe0682-163d-4ac7-8299-690c7868d643"},"geometry":{"type":"Polygon","coordinates":[[[136.04550211069625,35.94042224641893],[136.04581440601044,35.94070301997279],[136.04581998591252,35.94075345221045],[136.04578380585764,35.94079209167042],[136.04586820325278,35.94080368443418],[136.04601689322246,35.94076724430655],[136.04605782581262,35.94071930752106],[136.0456103295359,35.940383746001935],[136.04551697868632,35.940401034011145],[136.04550211069625,35.94042224641893]]]}},{"type":"Feature","properties":{"pid":"aebe4a59-8939-4a7e-848e-4706ffda2dce"},"geometry":{"type":"Polygon","coordinates":[[[136.04478087127043,35.94057635350917],[136.04496849130214,35.940791742852284],[136.04497495044555,35.94078727413294],[136.04491002018554,35.940721721374935],[136.04488823435975,35.94066709370042],[136.04489148190558,35.94059913659622],[136.04494613053618,35.94051236196588],[136.04478087127043,35.94057635350917]]]}},{"type":"Feature","properties":{"pid":"5ea0734d-950d-4edc-a9a2-8802ecfa195f"},"geometry":{"type":"Polygon","coordinates":[[[136.04452135543042,35.940750986082],[136.04490626852743,35.941277834689565],[136.04509315984802,35.941230666661184],[136.04520185149207,35.94110352426903],[136.04508837048684,35.94109857924899],[136.0449831938574,35.94111475574173],[136.04490468405172,35.941071420457384],[136.0448494523578,35.940970256594944],[136.04484949564605,35.940917050575294],[136.0448686508067,35.94087709470856],[136.04466076878353,35.940645435550394],[136.04452135543042,35.940750986082]]]}},{"type":"Feature","properties":{"pid":"aa167ffa-ae4d-4048-a3a6-6e97a7e3a48f"},"geometry":{"type":"Polygon","coordinates":[[[136.04507867229236,35.94047012447473],[136.0451920904812,35.94051406157967],[136.04540608669402,35.94054396206624],[136.0454561306172,35.940585398558824],[136.0454968139828,35.940671197616126],[136.04559665321602,35.940683232159614],[136.0453020990479,35.94043445887465],[136.04507867229236,35.94047012447473]]]}},{"type":"Feature","properties":{"pid":"d2f389d8-6545-4e63-80de-3bea45ded7fc"},"geometry":{"type":"Polygon","coordinates":[[[136.0443458569348,35.940840154519705],[136.0446636985114,35.941342379549674],[136.04476539643218,35.94130155805441],[136.04439812250962,35.94081133605727],[136.0443458569348,35.940840154519705]]]}},{"type":"Feature","properties":{"pid":"6828dbea-eee2-4271-824d-fc5d41c008d8"},"geometry":{"type":"Polygon","coordinates":[[[136.04607587484995,35.94187306961024],[136.04633837415918,35.94185572874213],[136.04634799021275,35.941837170634415],[136.0462904392507,35.941786617240865],[136.04607563083218,35.94181356109492],[136.04607587484995,35.94187306961024]]]}},{"type":"Feature","properties":{"pid":"0f271dc1-dde2-4464-8b44-52f00152efde"},"geometry":{"type":"Polygon","coordinates":[[[136.04584921322817,35.94163272303699],[136.04607209445433,35.94157593637022],[136.04599775896062,35.94149067075553],[136.04584921322817,35.94163272303699]]]}},{"type":"Feature","properties":{"pid":"f217d621-9f80-4dd5-bb38-35402a063c8a"},"geometry":{"type":"Polygon","coordinates":[[[136.04626919065927,35.94136033565557],[136.04665855604853,35.941334292339036],[136.04662331846347,35.94122797070574],[136.04637753303072,35.94124707547662],[136.04629002526403,35.94132104602808],[136.04626919065927,35.94136033565557]]]}},{"type":"Feature","properties":{"pid":"b1040dc1-2517-41f6-a322-79ad024aedcd"},"geometry":{"type":"Polygon","coordinates":[[[136.04629996505898,35.941526261896826],[136.04634815941284,35.94156206406684],[136.04669423043478,35.941538440257276],[136.04667875030572,35.94149508922517],[136.04629996505898,35.941526261896826]]]}},{"type":"Feature","properties":{"pid":"ca71e2bf-ebc0-4906-b22a-fb8f3df46805"},"geometry":{"type":"Polygon","coordinates":[[[136.0464698314389,35.94169249244156],[136.0466018497901,35.941776869404926],[136.04676443443958,35.941824295109356],[136.04672546627395,35.94167815446609],[136.0464698314389,35.94169249244156]]]}},{"type":"Feature","properties":{"pid":"16d823d5-edc7-4e5d-9bd8-441eb5806d3b"},"geometry":{"type":"Polygon","coordinates":[[[136.04569098191965,35.94263677869599],[136.045777905592,35.94285494735415],[136.04614288228183,35.94273297651129],[136.0461031936069,35.94249190420944],[136.04569098191965,35.94263677869599]]]}},{"type":"Feature","properties":{"pid":"abb77baa-3e43-443b-bf56-fb4d826d4aaa"},"geometry":{"type":"Polygon","coordinates":[[[136.04671069290535,35.9423845245354],[136.04674868884615,35.94258723204603],[136.04717185498058,35.94244582710445],[136.04714035896205,35.942359026033145],[136.04671069290535,35.9423845245354]]]}},{"type":"Feature","properties":{"pid":"df68e75c-2552-4ff3-a441-f0cdfa7c8b09"},"geometry":{"type":"Polygon","coordinates":[[[136.0463643231355,35.94282312765165],[136.04637525416243,35.942871884198894],[136.0464928332248,35.94308527976509],[136.0466621236468,35.942979803549264],[136.04661333471344,35.94279684479645],[136.0463643231355,35.94282312765165]]]}},{"type":"Feature","properties":{"pid":"6559831b-5b9c-4594-8067-b53bc7d61e39"},"geometry":{"type":"Polygon","coordinates":[[[136.04680142175343,35.94350778322818],[136.0470545003778,35.94367062171118],[136.0471061936817,35.94360737630926],[136.0468775239326,35.943449614114954],[136.04680142175343,35.94350778322818]]]}},{"type":"Feature","properties":{"pid":"162e9a6a-aefd-4d09-b9b2-4a01b876552f"},"geometry":{"type":"Polygon","coordinates":[[[136.04493539462374,35.942828113737065],[136.04502836533905,35.94291124969903],[136.0455582357495,35.94278536004857],[136.04552439256804,35.94270594368179],[136.04493539462374,35.942828113737065]]]}},{"type":"Feature","properties":{"pid":"8f5a4ebc-eb69-4df1-ab6c-976f4b8caf0a"},"geometry":{"type":"Polygon","coordinates":[[[136.04510955422163,35.943001961367735],[136.0451768246734,35.94307973451226],[136.04536700962217,35.94300556520414],[136.04544817117483,35.943002974956656],[136.04549993564052,35.94302347937684],[136.04562203636797,35.9429775154978],[136.0455914987472,35.94288851772701],[136.04510955422163,35.943001961367735]]]}},{"type":"Feature","properties":{"pid":"5c94f5cd-5c30-42f6-9717-197b62a7123d"},"geometry":{"type":"Polygon","coordinates":[[[136.045553309289,35.94312626106962],[136.04562332928953,35.94325753437837],[136.04573185535045,35.943214206219125],[136.04567854530762,35.94308863026004],[136.045553309289,35.94312626106962]]]}},{"type":"Feature","properties":{"pid":"4b126071-6b77-4372-903c-5a4bb337e9aa"},"geometry":{"type":"Polygon","coordinates":[[[136.04392567766013,35.94263734817374],[136.04392733312687,35.942714196742266],[136.0441889758218,35.94272496285962],[136.0441958245012,35.94262432260912],[136.04397720678205,35.942618194103886],[136.04392567766013,35.94263734817374]]]}},{"type":"Feature","properties":{"pid":"70788e92-33b5-482a-b760-ef7fa4fb9eb5"},"geometry":{"type":"Polygon","coordinates":[[[136.04365570128164,35.9426947655486],[136.0436528491782,35.94246622929705],[136.04354221101502,35.94248144991822],[136.04354680601108,35.94266512950225],[136.04365570128164,35.9426947655486]]]}},{"type":"Feature","properties":{"pid":"703dde76-dd99-4a97-bb11-5e8e7cd6822c"},"geometry":{"type":"Polygon","coordinates":[[[136.04247244013482,35.942656257236706],[136.04262492418087,35.942628885265805],[136.0430654013458,35.94261564762816],[136.04309761107444,35.94252876187646],[136.0428050341999,35.94254991393927],[136.04248929963973,35.94253367035337],[136.04246173710777,35.94259473706093],[136.04247244013482,35.942656257236706]]]}},{"type":"Feature","properties":{"pid":"27a71872-37d0-43b8-aa1e-51da2b8544f9"},"geometry":{"type":"Polygon","coordinates":[[[136.04500720362753,35.94501176241314],[136.04508843354773,35.94496803530744],[136.04504782778938,35.944900571669834],[136.0449742053465,35.944964901224644],[136.04500720362753,35.94501176241314]]]}},{"type":"Feature","properties":{"pid":"baa162f0-af00-448a-87d9-f4cf841dcd5d"},"geometry":{"type":"Polygon","coordinates":[[[136.045312016137,35.94439723391047],[136.04544883614875,35.944614449240525],[136.04550883388583,35.94458836240553],[136.04536857800227,35.944384144417306],[136.045312016137,35.94439723391047]]]}},{"type":"Feature","properties":{"pid":"3cff115e-288f-4d28-a6ef-01c2843fe02c"},"geometry":{"type":"Polygon","coordinates":[[[136.0456512070484,35.94373042221134],[136.04565911673708,35.943748912333675],[136.0458571465558,35.94375550789943],[136.045855005123,35.9436889956198],[136.04591295651556,35.943625031329496],[136.0456512070484,35.94373042221134]]]}},{"type":"Feature","properties":{"pid":"9dae96a8-c078-4738-b699-3ba421b16674"},"geometry":{"type":"Polygon","coordinates":[[[136.046540438168,35.94380099771623],[136.04637606002197,35.94398441843751],[136.04658024039833,35.94409113542487],[136.04660926463723,35.94405026247772],[136.04669856640706,35.943999537810896],[136.04680165085477,35.943972847791684],[136.04682199094572,35.94395463674325],[136.046540438168,35.94380099771623]]]}},{"type":"Feature","properties":{"pid":"34e609a3-cfd7-461f-a6ac-982880faaac4"},"geometry":{"type":"Polygon","coordinates":[[[136.04690602342234,35.94385937945798],[136.04697646297245,35.94377847550121],[136.0467143938411,35.943606830383914],[136.04662223196996,35.94370149178344],[136.04690602342234,35.94385937945798]]]}},{"type":"Feature","properties":{"pid":"1e83f460-6742-4b74-bce9-a28cb65e6b48"},"geometry":{"type":"Polygon","coordinates":[[[136.04607855168032,35.944449873721034],[136.0460746032953,35.94455700586088],[136.04609360054388,35.9446251593938],[136.04646463932158,35.94477527547328],[136.04648404679787,35.94464672814572],[136.04607855168032,35.944449873721034]]]}},{"type":"Feature","properties":{"pid":"b8604ba0-2192-44e6-9a75-027759df354a"},"geometry":{"type":"Polygon","coordinates":[[[136.0456106992321,35.94439883249499],[136.04573873514067,35.94459314531256],[136.04584146070383,35.94465596435263],[136.04582069451692,35.94449755209476],[136.0456106992321,35.94439883249499]]]}},{"type":"Feature","properties":{"pid":"65f8f89f-4861-4e31-9051-824922045a3f"},"geometry":{"type":"Polygon","coordinates":[[[136.04610197028146,35.94476498767242],[136.04612598298417,35.94488029356886],[136.04640742078763,35.944883937559666],[136.04610197028146,35.94476498767242]]]}},{"type":"Feature","properties":{"pid":"5faa541c-aaf5-4e67-a247-0938c102bb9f"},"geometry":{"type":"Polygon","coordinates":[[[136.04616669729043,35.945037273933536],[136.0461909301996,35.94518550893898],[136.0462789546037,35.945184866207654],[136.04635658909118,35.94505040678201],[136.04616669729043,35.945037273933536]]]}},{"type":"Feature","properties":{"pid":"fe139cb2-8911-4cf6-9a20-046333481ff5"},"geometry":{"type":"Polygon","coordinates":[[[136.0460156918069,35.946028642904714],[136.04610380679622,35.94602015059863],[136.04607371873692,35.94589958291709],[136.04601539263942,35.945903421158036],[136.0460156918069,35.946028642904714]]]}},{"type":"Feature","properties":{"pid":"bf944fdc-7906-4758-bac7-6339e9bc8c2e"},"geometry":{"type":"Polygon","coordinates":[[[136.04601870577173,35.94623742341531],[136.04611876187636,35.946230655854734],[136.046111693061,35.94613337226917],[136.04602240389255,35.9461422772576],[136.04601870577173,35.94623742341531]]]}},{"type":"Feature","properties":{"pid":"5756a218-7e9b-4fcb-8652-78aaf47db0a3"},"geometry":{"type":"Polygon","coordinates":[[[136.04600763177672,35.94578523533039],[136.04605990746563,35.945783539543875],[136.04602100605413,35.945557908496866],[136.04600606439746,35.945559767721534],[136.04600763177672,35.94578523533039]]]}},{"type":"Feature","properties":{"pid":"14038bc3-1d5d-4983-993c-9b7da19f59f1"},"geometry":{"type":"Polygon","coordinates":[[[136.04608125946731,35.947050593681695],[136.04615656259298,35.94719267328329],[136.0462345264741,35.9471436957671],[136.0461682756898,35.947044638073905],[136.04609849941454,35.94697645153786],[136.04607951922722,35.94700145622062],[136.04608125946731,35.947050593681695]]]}},{"type":"Feature","properties":{"pid":"617bb2c2-6e1c-4d3e-b3c3-aff06b2f167a"},"geometry":{"type":"Polygon","coordinates":[[[136.04598942338407,35.946497246023306],[136.04609385761492,35.94649291108928],[136.04611260055128,35.946347929179495],[136.04601345602455,35.94635109827624],[136.04598942338407,35.946497246023306]]]}},{"type":"Feature","properties":{"pid":"2f4d2786-fadc-4705-bc76-da45ad5dd157"},"geometry":{"type":"Polygon","coordinates":[[[136.04092649049562,35.943115749789484],[136.04106334718432,35.94301193509867],[136.04112891407607,35.942896692838914],[136.041048855738,35.94285013449257],[136.04092649049562,35.943115749789484]]]}},{"type":"Feature","properties":{"pid":"7d4ccc9f-6495-4640-8246-0b86cbcc507c"},"geometry":{"type":"Polygon","coordinates":[[[136.04111251944448,35.942744422193414],[136.04121625408652,35.942812931434126],[136.041265675476,35.94276772881823],[136.0411946573721,35.94269902942297],[136.04111251944448,35.942744422193414]]]}},{"type":"Feature","properties":{"pid":"fcb627fb-b45e-48fb-adb3-bc4a6f1a119b"},"geometry":{"type":"Polygon","coordinates":[[[136.04130085390992,35.94263176034982],[136.04137998889644,35.94272638055378],[136.0414744385031,35.942754694334724],[136.04158362687352,35.94259105690183],[136.0414710607452,35.94256819257606],[136.04130085390992,35.94263176034982]]]}},{"type":"Feature","properties":{"pid":"fb6cddbd-bdc0-438a-990a-43ffc819139c"},"geometry":{"type":"Polygon","coordinates":[[[136.03868357023666,35.94365512905804],[136.0387596555863,35.94364455916086],[136.03887295079215,35.94332789478453],[136.0387812819321,35.943324134197134],[136.03868357023666,35.94365512905804]]]}},{"type":"Feature","properties":{"pid":"db7d55a5-6d42-46c6-9abb-080b8dedb882"},"geometry":{"type":"Polygon","coordinates":[[[136.03860819206866,35.94331038373758],[136.03851232604111,35.94329669530052],[136.0384254322543,35.943589622484076],[136.03853094445532,35.94359719933734],[136.03860819206866,35.94331038373758]]]}},{"type":"Feature","properties":{"pid":"bfa73286-3a5a-4c1c-9e80-dae1c2d02aca"},"geometry":{"type":"Polygon","coordinates":[[[136.03846461364392,35.94289498433078],[136.03855343892909,35.94292150257673],[136.03857883119522,35.94294928839179],[136.0385498508045,35.94312935529639],[136.03865726754768,35.943138763083425],[136.03871061637608,35.942762905178405],[136.03861722775076,35.94273950989005],[136.03854900184882,35.942792849585764],[136.03852814496327,35.94284565389954],[136.03846461364392,35.94289498433078]]]}},{"type":"Feature","properties":{"pid":"8139e869-acf0-4cbf-9f08-f313f2211d71"},"geometry":{"type":"Polygon","coordinates":[[[136.0249538376792,35.95509444360096],[136.02518959622608,35.95494287181229],[136.0249830556822,35.95492839154756],[136.0249538376792,35.95509444360096]]]}},{"type":"Feature","properties":{"pid":"91e7b433-d1bb-47f1-9849-2944ef3fb0ca"},"geometry":{"type":"Polygon","coordinates":[[[136.02540661784954,35.95491279846171],[136.0255193604464,35.954986482096736],[136.02553413826595,35.954872720515276],[136.0254117178698,35.95486168742022],[136.02540661784954,35.95491279846171]]]}},{"type":"Feature","properties":{"pid":"6d9f6dc0-0071-4399-b2af-3b750562bda5"},"geometry":{"type":"Polygon","coordinates":[[[136.02507079205495,35.95461686274677],[136.0254706631419,35.95465165137398],[136.02549121499968,35.95452257284041],[136.0250912274407,35.95447553373672],[136.02507079205495,35.95461686274677]]]}},{"type":"Feature","properties":{"pid":"f666ea9f-6805-4a2e-b892-c62fdf92db40"},"geometry":{"type":"Polygon","coordinates":[[[136.02511085426138,35.95434281436793],[136.02551369797627,35.95438219937956],[136.02551558169793,35.95435697381086],[136.02511447484204,35.954319214947155],[136.02511085426138,35.95434281436793]]]}},{"type":"Feature","properties":{"pid":"cc97ea03-a0cb-4b8c-80f9-b61d14712f76"},"geometry":{"type":"Polygon","coordinates":[[[136.0263120156801,35.95517065306416],[136.02642265635325,35.95517873291203],[136.02644160998713,35.95510258304659],[136.02650036320063,35.95505561208922],[136.02650510179825,35.95501439528518],[136.02633415217377,35.95499124727927],[136.0263120156801,35.95517065306416]]]}},{"type":"Feature","properties":{"pid":"7cb51f08-7b38-420f-a120-7933dc76879e"},"geometry":{"type":"Polygon","coordinates":[[[136.02623329068973,35.95558325609311],[136.0262663185124,35.95557752578908],[136.0262907924564,35.955419753735605],[136.02639053367974,35.95538355513073],[136.0264016731854,35.95528363255607],[136.0262904465065,35.95527477522721],[136.02623329068973,35.95558325609311]]]}},{"type":"Feature","properties":{"pid":"e601613f-01fe-4dbc-b5b0-b750c24e7f7b"},"geometry":{"type":"Polygon","coordinates":[[[136.02590178231247,35.95561703103068],[136.026098285879,35.95559878700404],[136.0261934774469,35.95495990121862],[136.02598293574752,35.95493608656331],[136.02590178231247,35.95561703103068]]]}},{"type":"Feature","properties":{"pid":"e51da893-71bf-4211-9f4b-48d90e37ec0d"},"geometry":{"type":"Polygon","coordinates":[[[136.02553383835203,35.95536199102607],[136.02553923007835,35.95539849501052],[136.02560783456062,35.95551310527954],[136.02566373269008,35.95556678748886],[136.02576480480099,35.955622348283654],[136.0258511104023,35.95492723255708],[136.02569482154175,35.954915420204905],[136.02567380511726,35.95509953605733],[136.02570350772686,35.955185681812594],[136.02553383835203,35.95536199102607]]]}},{"type":"Feature","properties":{"pid":"0940a3cd-61d8-4d28-9517-12fec44e1c6e"},"geometry":{"type":"Polygon","coordinates":[[[136.03121955355223,35.9563413505416],[136.03130744317565,35.95641040001376],[136.03158240309713,35.95617364507689],[136.03155556022017,35.95614593078331],[136.03121955355223,35.9563413505416]]]}},{"type":"Feature","properties":{"pid":"1017f6f1-4355-48d2-979a-beba4a38874f"},"geometry":{"type":"Polygon","coordinates":[[[136.03105589596305,35.95649317215389],[136.0311292428584,35.95654786175921],[136.03120236041423,35.9564952161422],[136.03112737342315,35.95643865668207],[136.03105589596305,35.95649317215389]]]}},{"type":"Feature","properties":{"pid":"3a8b12ae-b4ad-4623-b7da-5560a3d33bd0"},"geometry":{"type":"Polygon","coordinates":[[[136.0308933107437,35.956617173280776],[136.03097781037283,35.95667773859886],[136.03103006690796,35.956629181252495],[136.03095367191656,35.956571136779466],[136.0308933107437,35.956617173280776]]]}},{"type":"Feature","properties":{"pid":"24be4721-904c-42ee-af6c-3b18749ff53d"},"geometry":{"type":"Polygon","coordinates":[[[136.03071630604956,35.956730569545336],[136.03085799981753,35.95682445725455],[136.03090239275244,35.95676411407292],[136.03078560189527,35.9566826316521],[136.03071630604956,35.956730569545336]]]}},{"type":"Feature","properties":{"pid":"99290e2d-e515-482c-b7d9-ab7bddc4b1aa"},"geometry":{"type":"Polygon","coordinates":[[[136.02942747940816,35.956704972020326],[136.0295923255714,35.95673607120343],[136.02988168738693,35.95684652018604],[136.0299319676647,35.95676908302496],[136.0298887689706,35.956770680337115],[136.02978420981046,35.956735429502935],[136.02976776715553,35.95669563309799],[136.02964725653544,35.95660572270887],[136.02954033953895,35.95647650330139],[136.02942747940816,35.956704972020326]]]}},{"type":"Feature","properties":{"pid":"8f055ea4-df45-4e82-b0c2-51f5ebf065d9"},"geometry":{"type":"Polygon","coordinates":[[[136.02906086427566,35.95674363530741],[136.02922006640836,35.95670676641859],[136.02942221714756,35.95627662633537],[136.0292986236201,35.95630893890731],[136.02906086427566,35.95674363530741]]]}},{"type":"Feature","properties":{"pid":"3bee4e8b-1e18-4565-9c3a-0d1d4ff49339"},"geometry":{"type":"Polygon","coordinates":[[[136.02937348528167,35.95711943888292],[136.02949116751986,35.95718477541995],[136.02951584800908,35.957183656190836],[136.02968960566068,35.95697946564343],[136.02948213091398,35.956907933313765],[136.02937348528167,35.95711943888292]]]}},{"type":"Feature","properties":{"pid":"c28693ee-f7f0-4df9-bce0-c4f237b2c1b8"},"geometry":{"type":"Polygon","coordinates":[[[136.03022001390914,35.95694549912509],[136.0303513690628,35.957030265231204],[136.03035349908774,35.95706358363749],[136.03031689972315,35.95711758590873],[136.0304579558707,35.95720432683035],[136.03062476140275,35.957247624073354],[136.03074153690164,35.95725811270863],[136.0309483212446,35.95733866626284],[136.03102614337422,35.95725776662929],[136.030258868123,35.956898816775826],[136.03022001390914,35.95694549912509]]]}},{"type":"Feature","properties":{"pid":"98f9eb78-df83-4639-8c47-626e377fe908"},"geometry":{"type":"Polygon","coordinates":[[[136.03043523961176,35.956841754783085],[136.030954945749,35.95708152735332],[136.03053468672974,35.95681158701016],[136.03043523961176,35.956841754783085]]]}},{"type":"Feature","properties":{"pid":"ced263bc-ad00-4827-8272-652316c7e601"},"geometry":{"type":"Polygon","coordinates":[[[136.0281936948674,35.9565094695727],[136.02827214708446,35.95653811745682],[136.0282916311475,35.95658108551173],[136.0283191655286,35.95659136958674],[136.0284033932111,35.956443341882505],[136.02822232389596,35.95641121737971],[136.0281936948674,35.9565094695727]]]}},{"type":"Feature","properties":{"pid":"dfd76a7e-4cd3-4a2a-9143-28ae5421d55e"},"geometry":{"type":"Polygon","coordinates":[[[136.02886153160512,35.95679480460564],[136.02891258800034,35.95678282297314],[136.0291682002686,35.956317196297064],[136.02911100003422,35.95632726838526],[136.02886153160512,35.95679480460564]]]}},{"type":"Feature","properties":{"pid":"8d5d1465-595f-407d-a7d9-f3751c8abf2e"},"geometry":{"type":"Polygon","coordinates":[[[136.02846603555733,35.95659526458595],[136.0287683290897,35.95668272801736],[136.0287931875951,35.95663572880261],[136.02850783626596,35.956522180867566],[136.02846603555733,35.95659526458595]]]}},{"type":"Feature","properties":{"pid":"1080a212-4190-4f56-a646-430122d179d2"},"geometry":{"type":"Polygon","coordinates":[[[136.02878624410963,35.95621888261295],[136.02869982505342,35.95619785510091],[136.0285672796582,35.95643032638454],[136.02864611103396,35.956462701151565],[136.02878624410963,35.95621888261295]]]}},{"type":"Feature","properties":{"pid":"ac3d130f-6e79-4830-aff9-6532ec7f82a6"},"geometry":{"type":"Polygon","coordinates":[[[136.02884708343163,35.95654786323382],[136.02899492365742,35.95628080822828],[136.0289016020422,35.95625496117708],[136.02875690432796,35.95651422242992],[136.02884708343163,35.95654786323382]]]}},{"type":"Feature","properties":{"pid":"e4cc9b0e-3dee-4729-90ef-324e6e4978a3"},"geometry":{"type":"Polygon","coordinates":[[[136.0282396605572,35.95630656493314],[136.02845616346852,35.956347116174584],[136.02855225578003,35.95617253319566],[136.02827213925295,35.95615550324646],[136.02823628654573,35.95625202283122],[136.0282396605572,35.95630656493314]]]}},{"type":"Feature","properties":{"pid":"5974ac3d-ffb6-4c88-9f3f-0acf6692970d"},"geometry":{"type":"Polygon","coordinates":[[[136.02792682895043,35.956162851524745],[136.02792587180735,35.956112079880576],[136.02746583561793,35.956100202940625],[136.0274634185232,35.95615447317221],[136.02792682895043,35.956162851524745]]]}},{"type":"Feature","properties":{"pid":"a1b5a3cc-ed3a-43da-8e50-c3f74d52d40f"},"geometry":{"type":"Polygon","coordinates":[[[136.02744354078968,35.95636291366049],[136.0274902389676,35.95644501431384],[136.027554016475,35.956511962167745],[136.0276695503409,35.95648097174809],[136.02781198931297,35.95640074756549],[136.02744354078968,35.95636291366049]]]}},{"type":"Feature","properties":{"pid":"4f6de2ab-9fb7-4199-a5d5-f26835008bc0"},"geometry":{"type":"Polygon","coordinates":[[[136.02748945924583,35.955826543962566],[136.02750426685134,35.95590531928392],[136.0279482735989,35.95592949228643],[136.02792487856402,35.95584927311947],[136.02748945924583,35.955826543962566]]]}},{"type":"Feature","properties":{"pid":"d7d08e06-529c-403f-a768-a95ce4c9c0b2"},"geometry":{"type":"Polygon","coordinates":[[[136.0275176305596,35.9556735522354],[136.02751725201452,35.95569209336243],[136.0279121474141,35.955716084390595],[136.02790919664136,35.95569230618988],[136.0275176305596,35.9556735522354]]]}},{"type":"Feature","properties":{"pid":"f2e6b0a9-9c44-4c20-b007-8ea2f1c61915"},"geometry":{"type":"Polygon","coordinates":[[[136.02752261243748,35.95547873392919],[136.02753460737426,35.95553784291973],[136.02786411620644,35.955542572391565],[136.02786356347363,35.95549099612177],[136.02752261243748,35.95547873392919]]]}},{"type":"Feature","properties":{"pid":"3a7733cd-b23c-4806-94b6-dfa856c5dd6b"},"geometry":{"type":"Polygon","coordinates":[[[136.02760102789867,35.95536087326632],[136.02785752205,35.955366273482895],[136.02785794113763,35.95532944393333],[136.0276056512161,35.955322702882995],[136.02760102789867,35.95536087326632]]]}},{"type":"Feature","properties":{"pid":"530d5a08-777b-4e07-a160-87ee3b523e10"},"geometry":{"type":"Polygon","coordinates":[[[136.0268855154254,35.95529203053774],[136.02691882885733,35.9553506737889],[136.027249000929,35.95535694936404],[136.02725987321938,35.95532563689217],[136.02725698551524,35.95529573422372],[136.0268855154254,35.95529203053774]]]}},{"type":"Feature","properties":{"pid":"d69dfbb8-d9bc-4af9-8ebd-1472688f330e"},"geometry":{"type":"Polygon","coordinates":[[[136.02657096519886,35.95537568209651],[136.0266574022034,35.955355162687404],[136.02659096839307,35.95523793507243],[136.02657096519886,35.95537568209651]]]}},{"type":"Feature","properties":{"pid":"f45829ab-37b1-4346-98a7-e33512d2d34d"},"geometry":{"type":"Polygon","coordinates":[[[136.02679274406057,35.955110160869346],[136.02682542810672,35.955163571387146],[136.02724768550976,35.9551697644031],[136.02721617523224,35.95511797544633],[136.02679274406057,35.955110160869346]]]}},{"type":"Feature","properties":{"pid":"70ceff12-6673-492b-bfd3-0d792ce091aa"},"geometry":{"type":"Polygon","coordinates":[[[136.02677615456142,35.95498527307083],[136.02718431955978,35.95499653166196],[136.02719267134333,35.954937033295565],[136.02676827554896,35.95493355978164],[136.02677615456142,35.95498527307083]]]}},{"type":"Feature","properties":{"pid":"c7e261cc-3cf7-4921-bff1-e39fa6b5c096"},"geometry":{"type":"Polygon","coordinates":[[[136.0267400726712,35.95475127685507],[136.02675112435531,35.95481155145562],[136.02724340488805,35.954815352548984],[136.02720006701202,35.9547541485105],[136.0267400726712,35.95475127685507]]]}},{"type":"Feature","properties":{"pid":"c8365a97-c133-4880-84dc-ed7914c544fe"},"geometry":{"type":"Polygon","coordinates":[[[136.0268489048944,35.95445415913163],[136.02721336611168,35.95445473777516],[136.02722062077376,35.95442110782503],[136.02686563878382,35.954413849440456],[136.0268489048944,35.95445415913163]]]}},{"type":"Feature","properties":{"pid":"5b54a1fe-1377-47ab-919c-0c3e63ab8ae4"},"geometry":{"type":"Polygon","coordinates":[[[136.02677046029288,35.95463289314225],[136.02717271192657,35.95463759712418],[136.02718245522965,35.95457466671474],[136.02679729703215,35.95457267035419],[136.02677046029288,35.95463289314225]]]}},{"type":"Feature","properties":{"pid":"e72aae5d-84dc-4c9a-b5fc-688cbe8f7e7a"},"geometry":{"type":"Polygon","coordinates":[[[136.027574279392,35.9544880617129],[136.02757810134017,35.954572863851666],[136.02761245893112,35.95463620603104],[136.02789400618715,35.95465142008249],[136.02792403788223,35.954491381746365],[136.02760315166617,35.95447508494933],[136.027574279392,35.9544880617129]]]}},{"type":"Feature","properties":{"pid":"04ef7a5a-971f-4d6d-9054-c0c29676e381"},"geometry":{"type":"Polygon","coordinates":[[[136.027601973773,35.95512149451737],[136.02761331102013,35.95516913737519],[136.02793561730957,35.95518802380965],[136.027966974822,35.95513763922875],[136.027601973773,35.95512149451737]]]}},{"type":"Feature","properties":{"pid":"176e79b8-0b28-47c6-87f6-ab117bbc83cd"},"geometry":{"type":"Polygon","coordinates":[[[136.02760515877515,35.95494632049211],[136.02759750394384,35.954994500113855],[136.02799067010403,35.95501486696475],[136.0280090139812,35.95497318853404],[136.02760515877515,35.95494632049211]]]}},{"type":"Feature","properties":{"pid":"b3a55576-8650-46cf-8001-3f129cc57098"},"geometry":{"type":"Polygon","coordinates":[[[136.02764686207402,35.95476354340576],[136.02764789415207,35.95481403347942],[136.02804574129672,35.95483843998704],[136.02806107074497,35.95478035311213],[136.02764686207402,35.95476354340576]]]}},{"type":"Feature","properties":{"pid":"f3fd8220-6ed8-4fd2-9b88-5f552c7003a8"},"geometry":{"type":"Polygon","coordinates":[[[136.02801377910458,35.95465577605219],[136.02805999520854,35.95465703748043],[136.0281004891554,35.95449777059388],[136.02804489466288,35.9544955928126],[136.02801377910458,35.95465577605219]]]}},{"type":"Feature","properties":{"pid":"49218240-d189-4a12-8693-d1fc129e078a"},"geometry":{"type":"Polygon","coordinates":[[[136.02759457262042,35.95434549564437],[136.02762315974994,35.95436803467693],[136.0280863572897,35.95439145721633],[136.0280645804589,35.9542351485189],[136.02761333014715,35.95421810147557],[136.02759457262042,35.95434549564437]]]}},{"type":"Feature","properties":{"pid":"d582676d-8d6b-44a4-b627-22bea5633893"},"geometry":{"type":"Polygon","coordinates":[[[136.0293675246259,35.9560367464554],[136.02949825908266,35.95599592360349],[136.02952490830862,35.955957591758],[136.02938363331322,35.95595503141886],[136.0293675246259,35.9560367464554]]]}},{"type":"Feature","properties":{"pid":"eb3fe8bd-c4ea-4bc3-a3a5-b99e3621f402"},"geometry":{"type":"Polygon","coordinates":[[[136.02940470511967,35.95581891287457],[136.02958868588527,35.955822950007374],[136.02961259199066,35.95573109421883],[136.02947324329045,35.955723771386175],[136.0294291309811,35.95575545570082],[136.02940470511967,35.95581891287457]]]}},{"type":"Feature","properties":{"pid":"ae439621-bda6-47b5-a195-cbf6df66c3d3"},"geometry":{"type":"Polygon","coordinates":[[[136.02955360622568,35.955621924295315],[136.02966486928483,35.95562348418831],[136.02966930616745,35.95559455194324],[136.02962642878956,35.95556165748339],[136.02958015754479,35.95556126870186],[136.02955360622568,35.955621924295315]]]}},{"type":"Feature","properties":{"pid":"4e4d4fb7-e34b-45c8-92e6-3916e514fd08"},"geometry":{"type":"Polygon","coordinates":[[[136.02847680876152,35.95287524092498],[136.02853138577453,35.952917171783355],[136.02861718368217,35.95284933634979],[136.02855771481032,35.952803660159475],[136.02847680876152,35.95287524092498]]]}},{"type":"Feature","properties":{"pid":"752f37a9-2970-4471-99e9-c0942a7f3d17"},"geometry":{"type":"Polygon","coordinates":[[[136.02838919927436,35.95250286331178],[136.02870189515232,35.95274889985999],[136.02877831510946,35.95265650083212],[136.0284664275206,35.95242967228129],[136.02838919927436,35.95250286331178]]]}},{"type":"Feature","properties":{"pid":"e160f954-6daa-49e5-99e3-678a70164c42"},"geometry":{"type":"Polygon","coordinates":[[[136.02829470778127,35.952739505821775],[136.02837388724228,35.95266653533057],[136.02827940122882,35.95260423576589],[136.02820133042744,35.95267929888388],[136.02829470778127,35.952739505821775]]]}},{"type":"Feature","properties":{"pid":"713a1981-699b-4752-866f-694e24977f38"},"geometry":{"type":"Polygon","coordinates":[[[136.0280518112833,35.95285692436234],[136.02834426745216,35.953069291962535],[136.02841392150097,35.95300679131612],[136.02810404633104,35.9527809462872],[136.0280518112833,35.95285692436234]]]}},{"type":"Feature","properties":{"pid":"6f07ffbf-e851-4f1f-881a-a3018bc9ae94"},"geometry":{"type":"Polygon","coordinates":[[[136.02792886300622,35.95306189413926],[136.02819862754453,35.95327530526317],[136.02821378569655,35.95328586294325],[136.02825274846984,35.953196428147955],[136.02796662023465,35.95297432003157],[136.02792886300622,35.95306189413926]]]}},{"type":"Feature","properties":{"pid":"2a59a5af-5fae-4c85-800c-1ef57b6c5f1d"},"geometry":{"type":"Polygon","coordinates":[[[136.02784422446058,35.95329628619756],[136.02812090295598,35.95350036514298],[136.02815821317924,35.95341787959709],[136.02787399623824,35.95318930149314],[136.02784422446058,35.95329628619756]]]}},{"type":"Feature","properties":{"pid":"49addab2-1d8c-4580-a4a0-3efb62c74a6b"},"geometry":{"type":"Polygon","coordinates":[[[136.02770818190174,35.95411339653988],[136.02803865171762,35.95412794517766],[136.02802210182872,35.95400390636376],[136.0278230556777,35.95400076781763],[136.02770818190174,35.95411339653988]]]}},{"type":"Feature","properties":{"pid":"aa5efc2d-91ab-4da9-8575-09998aa33571"},"geometry":{"type":"Polygon","coordinates":[[[136.02769391317213,35.95348092621492],[136.0280192677546,35.95373822849191],[136.02806304900344,35.9536203541157],[136.02777119394773,35.95339574052323],[136.02769391317213,35.95348092621492]]]}},{"type":"Feature","properties":{"pid":"83edac48-c894-4301-8e1e-62cf8a05ab7b"},"geometry":{"type":"Polygon","coordinates":[[[136.02746765627137,35.95366114213822],[136.02768527154942,35.95372086287066],[136.02774677327812,35.95367808000366],[136.0275921256255,35.953569781337826],[136.02746765627137,35.95366114213822]]]}},{"type":"Feature","properties":{"pid":"8b43276b-6c98-4138-a344-152630639049"},"geometry":{"type":"Polygon","coordinates":[[[136.02713219549153,35.9542613899861],[136.02723858633416,35.95426136622268],[136.0272401657184,35.954204985269136],[136.0271341340846,35.95420781338913],[136.02713219549153,35.9542613899861]]]}},{"type":"Feature","properties":{"pid":"0286962c-933f-4e5d-82a8-897896864751"},"geometry":{"type":"Polygon","coordinates":[[[136.0270101137628,35.95393871648971],[136.02720640628002,35.95393867237448],[136.02725254253033,35.953838554962005],[136.02718085917223,35.95381263417814],[136.0270101137628,35.95393871648971]]]}},{"type":"Feature","properties":{"pid":"b331e526-2643-4282-a3ea-76c4c33924b9"},"geometry":{"type":"Polygon","coordinates":[[[136.02701258239958,35.9542619741215],[136.02701449055286,35.95420924082524],[136.02690063688797,35.95420926571903],[136.02688507407382,35.95426333140496],[136.02701258239958,35.9542619741215]]]}},{"type":"Feature","properties":{"pid":"4a6dfa0b-59d7-4492-9d1b-fd3356c07fbc"},"geometry":{"type":"Polygon","coordinates":[[[136.02694402184278,35.95339532444889],[136.02698282023778,35.95346329195644],[136.02705734681876,35.953432450987606],[136.02702468004514,35.9533654475082],[136.02694402184278,35.95339532444889]]]}},{"type":"Feature","properties":{"pid":"1c0155a0-2af4-416f-8f0c-572bce370f97"},"geometry":{"type":"Polygon","coordinates":[[[136.02678747219582,35.953119592931564],[136.0268131978598,35.95316483599054],[136.02693879101776,35.953130048817165],[136.02692225162977,35.95309533731881],[136.02678747219582,35.953119592931564]]]}},{"type":"Feature","properties":{"pid":"4f536e1e-a7be-4388-b065-ffac4f503c71"},"geometry":{"type":"Polygon","coordinates":[[[136.02669431500647,35.95286943438492],[136.02677223279537,35.95298047500294],[136.0268866820386,35.95295138915744],[136.02686142391747,35.952882747188696],[136.02669431500647,35.95286943438492]]]}},{"type":"Feature","properties":{"pid":"fbbbb7d7-c4ce-4ec1-ba9d-e3e8dc21d066"},"geometry":{"type":"Polygon","coordinates":[[[136.02860030844397,35.952351364678385],[136.02884334960115,35.95253730988073],[136.0288779692941,35.95248097057717],[136.02860700985866,35.95228892396334],[136.02858476462143,35.9523162928153],[136.02860030844397,35.952351364678385]]]}},{"type":"Feature","properties":{"pid":"ce320fa8-6ccb-4be5-a620-0f5a1cc80201"},"geometry":{"type":"Polygon","coordinates":[[[136.02894796488005,35.95232833736364],[136.02897409098512,35.95228246252408],[136.0287356083367,35.95211939601887],[136.02870158638325,35.952163800907904],[136.02894796488005,35.95232833736364]]]}},{"type":"Feature","properties":{"pid":"7d01cc92-e18f-45ac-90ae-603a25f260db"},"geometry":{"type":"Polygon","coordinates":[[[136.02882634677974,35.95201971387973],[136.02904231156714,35.95216502488515],[136.02907984623192,35.95210659933404],[136.02887152335876,35.95196117549243],[136.02882634677974,35.95201971387973]]]}},{"type":"Feature","properties":{"pid":"4b1955ba-a7a5-4b36-9a06-f97efcca655a"},"geometry":{"type":"Polygon","coordinates":[[[136.0290145872936,35.951777435453764],[136.02895245178823,35.951858497028496],[136.02908549063375,35.95195129641618],[136.02914770051564,35.951861679770644],[136.0290145872936,35.951777435453764]]]}},{"type":"Feature","properties":{"pid":"a55fd215-fca0-40b8-80ac-be02fffefc7f"},"geometry":{"type":"Polygon","coordinates":[[[136.02704037000848,35.94932468954944],[136.0270989604581,35.94937810682013],[136.02715336625675,35.94932351686696],[136.02708358337293,35.94927516473151],[136.02704037000848,35.94932468954944]]]}},{"type":"Feature","properties":{"pid":"ef160991-0880-49d1-a8e7-73a2328809d7"},"geometry":{"type":"Polygon","coordinates":[[[136.02750595877566,35.94953352165899],[136.02745903627675,35.94957951876775],[136.02754438601514,35.94963341874129],[136.02757910775665,35.949597538304545],[136.02750595877566,35.94953352165899]]]}},{"type":"Feature","properties":{"pid":"4cdbfcd2-c39a-43b5-ae57-39edb0590598"},"geometry":{"type":"Polygon","coordinates":[[[136.02720992794696,35.94946746683744],[136.02731522543436,35.949520043442526],[136.02737095384458,35.94946427351281],[136.02727697039666,35.94940127037296],[136.02720992794696,35.94946746683744]]]}},{"type":"Feature","properties":{"pid":"c1596981-db69-493f-aae0-0d7fae9aa107"},"geometry":{"type":"Polygon","coordinates":[[[136.02880415141692,35.950219674466524],[136.02890633539445,35.95024127028506],[136.02895144883408,35.950201630382274],[136.0288833490855,35.95006556417513],[136.02880415141692,35.950219674466524]]]}},{"type":"Feature","properties":{"pid":"41ce1caa-3f44-49e1-9372-0820cb444e8c"},"geometry":{"type":"Polygon","coordinates":[[[136.02857491548758,35.95017574458217],[136.0286571500001,35.95018923249466],[136.0287398022293,35.95001022091665],[136.02866187938557,35.949993451782476],[136.02857491548758,35.95017574458217]]]}},{"type":"Feature","properties":{"pid":"ab7bfab3-5dc1-4224-b446-4900b449abec"},"geometry":{"type":"Polygon","coordinates":[[[136.02833657462813,35.95013527553942],[136.0284327344581,35.950151155377604],[136.0285237931729,35.94995129335404],[136.02842598738843,35.9499405151553],[136.02833657462813,35.95013527553942]]]}},{"type":"Feature","properties":{"pid":"691788c8-30cc-442d-b1a9-c768579d4d1d"},"geometry":{"type":"Polygon","coordinates":[[[136.02802234408168,35.950043366774565],[136.02819487945544,35.950083811111945],[136.02826190112842,35.949938030079345],[136.02817013584016,35.949919297513105],[136.02802234408168,35.950043366774565]]]}},{"type":"Feature","properties":{"pid":"5ec752f6-1123-4dbe-8c93-abea83b7609b"},"geometry":{"type":"Polygon","coordinates":[[[136.02780569553656,35.94984063202672],[136.02783824463063,35.94990224004967],[136.02788449445544,35.94994151102135],[136.02797476155115,35.949864821831774],[136.02786556566824,35.949788852980156],[136.02780569553656,35.94984063202672]]]}},{"type":"Feature","properties":{"pid":"7dd77402-3d01-4228-b267-90c59d5a5ba7"},"geometry":{"type":"Polygon","coordinates":[[[136.02918631496436,35.95103919399213],[136.0293524722612,35.95105832275383],[136.02932308058524,35.950999382687435],[136.02919062125488,35.95098702521219],[136.02918631496436,35.95103919399213]]]}},{"type":"Feature","properties":{"pid":"b76ebd1f-dd7b-4cb5-9229-5492958e6fca"},"geometry":{"type":"Polygon","coordinates":[[[136.02916472246207,35.95115686036293],[136.02916663655566,35.95121750406795],[136.0293591111874,35.9512425199386],[136.02937743241267,35.95119388501675],[136.0293759041458,35.951176974310144],[136.02916472246207,35.95115686036293]]]}},{"type":"Feature","properties":{"pid":"de328320-0b02-45a1-bc17-62356dc06ac2"},"geometry":{"type":"Polygon","coordinates":[[[136.02918125908934,35.951341426359264],[136.02918650616576,35.951383962847565],[136.02935541181566,35.951410033616675],[136.0293540418927,35.95136004988657],[136.02918125908934,35.951341426359264]]]}},{"type":"Feature","properties":{"pid":"df64458b-3fcb-44c9-8e1c-fbb07670abd4"},"geometry":{"type":"Polygon","coordinates":[[[136.0290900875381,35.95165830521155],[136.02927469713327,35.951794435100695],[136.02935292730268,35.95165347620495],[136.02935169353236,35.95158277750329],[136.0291597259254,35.951537760738084],[136.0290900875381,35.95165830521155]]]}},{"type":"Feature","properties":{"pid":"99bce42e-cd04-4d2c-bf99-78269279f7aa"},"geometry":{"type":"Polygon","coordinates":[[[136.04108435615763,35.95564921841105],[136.04123995687868,35.95576201322226],[136.04138992183087,35.9557111737913],[136.0412147230042,35.955558764454246],[136.04108435615763,35.95564921841105]]]}},{"type":"Feature","properties":{"pid":"50ce83b4-2feb-4e8c-83e4-19380c6e2457"},"geometry":{"type":"Polygon","coordinates":[[[136.04128196462048,35.955378797764205],[136.04131061769422,35.95544371591086],[136.04149278694427,35.955603125051944],[136.04150042146043,35.9554884314291],[136.04134796764185,35.95543279810315],[136.04131962999023,35.95539376462521],[136.04128196462048,35.955378797764205]]]}},{"type":"Feature","properties":{"pid":"942965d9-2497-4af2-9312-260a08f105ab"},"geometry":{"type":"Polygon","coordinates":[[[136.04162798133626,35.955651919393134],[136.04175415389923,35.95565255009979],[136.0418249055901,35.95569486582649],[136.0418317627088,35.95562106759972],[136.04163494701905,35.95551323431148],[136.04162798133626,35.955651919393134]]]}},{"type":"Feature","properties":{"pid":"ffac241a-6367-4365-8ddc-26b10930b89c"},"geometry":{"type":"Polygon","coordinates":[[[136.04023219477503,35.95349161496781],[136.04022697576775,35.953365877653866],[136.04011201052663,35.95333286066529],[136.0401109340613,35.9534452671903],[136.04023219477503,35.95349161496781]]]}},{"type":"Feature","properties":{"pid":"c7368130-694a-4cf8-af4c-a48284f18027"},"geometry":{"type":"Polygon","coordinates":[[[136.04038555957837,35.953392869056124],[136.0404011373844,35.95354989212497],[136.0404794988562,35.95356775206768],[136.04045107565216,35.95339267742319],[136.04038555957837,35.953392869056124]]]}},{"type":"Feature","properties":{"pid":"d5d5b61f-b50f-4ca1-adff-32392086f438"},"geometry":{"type":"Polygon","coordinates":[[[136.0416829990364,35.95413770032509],[136.04169674079054,35.954177016017354],[136.04201092407055,35.95427739429683],[136.04201904793462,35.95419688255015],[136.0416829990364,35.95413770032509]]]}},{"type":"Feature","properties":{"pid":"f717ef6b-88d1-42b5-85c8-a95b153d00c2"},"geometry":{"type":"Polygon","coordinates":[[[136.04158512193806,35.95397459148246],[136.04163394100772,35.95399099635619],[136.04208101257433,35.954062725667654],[136.04208459038495,35.95402567173452],[136.04160872096267,35.953944983344925],[136.04158512193806,35.95397459148246]]]}},{"type":"Feature","properties":{"pid":"d759bd77-af4e-4067-8af6-e2dbfb5db558"},"geometry":{"type":"Polygon","coordinates":[[[136.0413299269713,35.95381202159864],[136.04139421276125,35.95384709661432],[136.04133525603115,35.95338747564957],[136.04125035993218,35.95339438669836],[136.0413299269713,35.95381202159864]]]}},{"type":"Feature","properties":{"pid":"49ab258e-3be8-4e67-90c2-562ee2959420"},"geometry":{"type":"Polygon","coordinates":[[[136.0415166583464,35.953601023903],[136.04153508596107,35.9537378256009],[136.04153611104363,35.95374784994808],[136.04161402614105,35.95365003830472],[136.0415166583464,35.953601023903]]]}},{"type":"Feature","properties":{"pid":"1a522c44-f48b-4dd7-8187-95be7c104a50"},"geometry":{"type":"Polygon","coordinates":[[[136.0414943059829,35.95342959622483],[136.0415029739442,35.95347094706328],[136.04168073883258,35.95355879726179],[136.041694208809,35.95354310173628],[136.0414943059829,35.95342959622483]]]}},{"type":"Feature","properties":{"pid":"4908912f-c5ab-40ec-9352-8527f03d679f"},"geometry":{"type":"Polygon","coordinates":[[[136.04101435168312,35.95335677482436],[136.04108731464981,35.95371411389034],[136.04117124633484,35.953752134159195],[136.04110417375304,35.95336090820172],[136.04101435168312,35.95335677482436]]]}},{"type":"Feature","properties":{"pid":"23ed1bc1-3366-43f2-a935-128355a6ceb3"},"geometry":{"type":"Polygon","coordinates":[[[136.04058341195014,35.953390832818904],[136.04061681954585,35.9535884088293],[136.04070605440836,35.95360430326017],[136.04067091198488,35.953407823575716],[136.04058341195014,35.953390832818904]]]}},{"type":"Feature","properties":{"pid":"91a6dd1e-de8b-47ad-b59c-d3e2ca4dc2c9"},"geometry":{"type":"Polygon","coordinates":[[[136.0408122423829,35.95339838860764],[136.04084598188481,35.95362762545561],[136.04092169546442,35.95364900933717],[136.04086867164042,35.95337787305863],[136.0408122423829,35.95339838860764]]]}},{"type":"Feature","properties":{"pid":"8640a84b-6f4a-4289-abcf-f5a91daff44d"},"geometry":{"type":"Polygon","coordinates":[[[136.039876726043,35.95320015750774],[136.03990952440088,35.95339610264568],[136.03994640601118,35.953403943369764],[136.0399523002138,35.953250387431865],[136.039876726043,35.95320015750774]]]}},{"type":"Feature","properties":{"pid":"c9ccbdef-b6a6-4820-95fc-5400915ab083"},"geometry":{"type":"Polygon","coordinates":[[[136.03954651206942,35.953303952553696],[136.0397463285997,35.95336289542032],[136.03971511161103,35.95313724570598],[136.03956892822674,35.95311076978139],[136.03954651206942,35.953303952553696]]]}},{"type":"Feature","properties":{"pid":"d342b1b0-2ebe-4a2b-b5cf-4991b12e5c59"},"geometry":{"type":"Polygon","coordinates":[[[136.03935750978147,35.953247227778114],[136.03938855718513,35.9532649199556],[136.0394117344415,35.9530631786989],[136.03938191638863,35.95304342273468],[136.03935750978147,35.953247227778114]]]}},{"type":"Feature","properties":{"pid":"55d62977-1d63-4de0-87bb-a3291b1ce9b9"},"geometry":{"type":"Polygon","coordinates":[[[136.03898987954935,35.95298769472503],[136.03906230623562,35.953147772307744],[136.03905811307808,35.95293662717516],[136.03898987954935,35.95298769472503]]]}},{"type":"Feature","properties":{"pid":"3f951c9f-bd84-4fda-bb0b-72757a10f679"},"geometry":{"type":"Polygon","coordinates":[[[136.03919473363226,35.95292602332523],[136.0391960637394,35.95317266464026],[136.03921933703668,35.95318917505974],[136.0392339038078,35.952953648258095],[136.03919473363226,35.95292602332523]]]}},{"type":"Feature","properties":{"pid":"bbfce8cc-bcc5-4d2d-b800-b644b5642467"},"geometry":{"type":"Polygon","coordinates":[[[136.04426565178505,35.95206261673975],[136.0443833987763,35.95204256772591],[136.0443738695955,35.951990695504065],[136.044395515132,35.95195581056311],[136.04427467911606,35.95196272757414],[136.04426565178505,35.95206261673975]]]}},{"type":"Feature","properties":{"pid":"585678a7-6dba-4001-b48e-8784ddb63011"},"geometry":{"type":"Polygon","coordinates":[[[136.04693210197013,35.953768263373135],[136.04673816743755,35.95429341359536],[136.04697755495584,35.95434800428852],[136.04715738968997,35.95382425402084],[136.04693210197013,35.953768263373135]]]}},{"type":"Feature","properties":{"pid":"dc298ae5-8d8e-488a-9ee8-015749b24a12"},"geometry":{"type":"Polygon","coordinates":[[[136.04660905705134,35.95367160659703],[136.0464160379923,35.95421032989594],[136.0466227483484,35.95426112548943],[136.04680451255118,35.95375696372254],[136.04677762907264,35.95372635466392],[136.04660905705134,35.95367160659703]]]}},{"type":"Feature","properties":{"pid":"4cc2e21a-d8d9-40cf-a400-f5f124101c8e"},"geometry":{"type":"Polygon","coordinates":[[[136.04638647016083,35.95373143090104],[136.04634360831855,35.953720725925535],[136.0461817308798,35.95414725937073],[136.04624294201358,35.95416182103171],[136.0464056978055,35.95376612266078],[136.04638647016083,35.95373143090104]]]}},{"type":"Feature","properties":{"pid":"b8db968d-7669-464a-b31b-4a5fbffb1633"},"geometry":{"type":"Polygon","coordinates":[[[136.04618875296512,35.95368525496836],[136.04600790265627,35.95364121708054],[136.0458509937704,35.95405169057807],[136.0460648510705,35.95411269175946],[136.04621556236484,35.95371953220721],[136.04618875296512,35.95368525496836]]]}},{"type":"Feature","properties":{"pid":"6780331b-4969-4f65-8d03-34f8bde64730"},"geometry":{"type":"Polygon","coordinates":[[[136.04569770440173,35.95400196226859],[136.04573727989288,35.95401288573376],[136.0458810661018,35.953630859482026],[136.04586260758953,35.953611725351415],[136.04583383050092,35.95360853046739],[136.04569770440173,35.95400196226859]]]}},{"type":"Feature","properties":{"pid":"6cb4b147-0201-48a3-8c49-8db9423e65fe"},"geometry":{"type":"Polygon","coordinates":[[[136.0452401285093,35.95390355678967],[136.04530856704397,35.953918124435305],[136.04545640995113,35.95352441481626],[136.0454282661367,35.9534886510895],[136.04539170441706,35.95347917916567],[136.0452401285093,35.95390355678967]]]}},{"type":"Feature","properties":{"pid":"6082e0d2-fad4-4e71-a752-d67cf7eb00d9"},"geometry":{"type":"Polygon","coordinates":[[[136.04494831256937,35.95383366249143],[136.04511886925482,35.953869334518906],[136.04526679871856,35.953468397722474],[136.0452501282601,35.95343529152273],[136.04511026673734,35.95340305791947],[136.04494831256937,35.95383366249143]]]}},{"type":"Feature","properties":{"pid":"4fb5a45c-eb8e-47ac-8711-49b600c0d21b"},"geometry":{"type":"Polygon","coordinates":[[[136.04542522864054,35.95394831928061],[136.04553154362884,35.953971326906014],[136.0456685892412,35.953582568945215],[136.04564106958634,35.953550162745486],[136.04558791077952,35.953535506131914],[136.04542522864054,35.95394831928061]]]}},{"type":"Feature","properties":{"pid":"96cfbb5b-5390-48a3-8a17-2b841a32fabe"},"geometry":{"type":"Polygon","coordinates":[[[136.04489863730637,35.953303351239],[136.04470033213585,35.95380668927659],[136.0449128959287,35.95330624389606],[136.04489863730637,35.953303351239]]]}},{"type":"Feature","properties":{"pid":"cb6f436e-77f8-4a01-a895-02cb19e0ab6c"},"geometry":{"type":"Polygon","coordinates":[[[136.04450080806035,35.9537633154835],[136.04455886440107,35.95377563800803],[136.04483450132125,35.95314279637821],[136.04481917755126,35.95312620209545],[136.04478596174937,35.95312621457303],[136.04450080806035,35.9537633154835]]]}},{"type":"Feature","properties":{"pid":"6d23dec5-8796-4f76-8a9a-bd11e36c5c43"},"geometry":{"type":"Polygon","coordinates":[[[136.04432373181663,35.9537293081037],[136.04436691106832,35.9537383704649],[136.04453545200982,35.953348967093206],[136.04446573722038,35.95333063368564],[136.04432373181663,35.9537293081037]]]}},{"type":"Feature","properties":{"pid":"4bf0658c-e848-4e85-878e-56bd153d94f0"},"geometry":{"type":"Polygon","coordinates":[[[136.0445000352727,35.953222320385464],[136.044587169016,35.95323951904627],[136.04462457307372,35.95312165981564],[136.04451865709996,35.95312484965797],[136.0445000352727,35.953222320385464]]]}},{"type":"Feature","properties":{"pid":"7ea39dcc-aeec-41ad-9174-02b74215ee2d"},"geometry":{"type":"Polygon","coordinates":[[[136.0444709506811,35.952718583730096],[136.0445016458501,35.95282443744648],[136.0446529639151,35.95282560297256],[136.04469076251075,35.95284275145445],[136.0447099703442,35.952972475653475],[136.04489839803819,35.95297620322107],[136.04484631222002,35.952856161688835],[136.04473681252824,35.952715013964365],[136.0444709506811,35.952718583730096]]]}},{"type":"Feature","properties":{"pid":"8d276ec1-1d70-4fb5-b6c1-4f5c20a2c7c9"},"geometry":{"type":"Polygon","coordinates":[[[136.0443926884988,35.952538337220055],[136.04443475816038,35.95262195371641],[136.04466257334624,35.95262043268097],[136.0446162171145,35.95253632946018],[136.0443926884988,35.952538337220055]]]}},{"type":"Feature","properties":{"pid":"2f093fde-24b2-4ac9-aaa3-15721d07c1d1"},"geometry":{"type":"Polygon","coordinates":[[[136.0439248186649,35.953388956648254],[136.04404639038026,35.953448646488056],[136.04414642219345,35.95343556711638],[136.04419424406242,35.95326802926546],[136.04400689781522,35.95327049696038],[136.04394969526575,35.953293075673585],[136.0439248186649,35.953388956648254]]]}},{"type":"Feature","properties":{"pid":"2935cd32-a52a-4ee2-972d-1c581392b752"},"geometry":{"type":"Polygon","coordinates":[[[136.0418120875716,35.95367436388155],[136.04220157588995,35.953740284399075],[136.0422094319376,35.95370684940534],[136.04192652101548,35.95368888891628],[136.04181897345873,35.953668059879874],[136.0418120875716,35.95367436388155]]]}},{"type":"Feature","properties":{"pid":"fa5b1d0a-16ca-409c-907c-fed13155b05a"},"geometry":{"type":"Polygon","coordinates":[[[136.04174994056157,35.95383320603113],[136.0421324602746,35.95390295597405],[136.04214278246243,35.95385345734005],[136.04173598265047,35.953780234235865],[136.0417214952332,35.95380719042525],[136.04174994056157,35.95383320603113]]]}},{"type":"Feature","properties":{"pid":"33726e28-cbb6-48f1-b518-6b07dac84697"},"geometry":{"type":"Polygon","coordinates":[[[136.0423075709138,35.95409023028619],[136.0426945787606,35.95415496547283],[136.04269903471106,35.954138949047234],[136.0423121960058,35.95407428548559],[136.0423075709138,35.95409023028619]]]}},{"type":"Feature","properties":{"pid":"64d18863-46b2-4f8f-b57e-7113fa7ae0ee"},"geometry":{"type":"Polygon","coordinates":[[[136.04234806716156,35.95394972878892],[136.04273389934548,35.954012730642],[136.04274825333601,35.953967367772684],[136.04235911380033,35.95390369226998],[136.04234806716156,35.95394972878892]]]}},{"type":"Feature","properties":{"pid":"928cba69-106a-4ab8-ad4a-adf6f32a748f"},"geometry":{"type":"Polygon","coordinates":[[[136.04288259804963,35.954200675320806],[136.043291018102,35.95427917707251],[136.04333953216465,35.95412199960635],[136.04293883390267,35.9540345275071],[136.04292015334727,35.954042076966545],[136.04288259804963,35.954200675320806]]]}},{"type":"Feature","properties":{"pid":"77369797-bcc5-4e4c-ba5e-55651857ec89"},"geometry":{"type":"Polygon","coordinates":[[[136.04355723318807,35.95408411651969],[136.0435298819797,35.95416405293098],[136.04385334736142,35.95423303846198],[136.04388201461842,35.95414650579294],[136.04355723318807,35.95408411651969]]]}},{"type":"Feature","properties":{"pid":"ffeb02a1-32e7-4bf0-bda4-5e0cb24a9e14"},"geometry":{"type":"Polygon","coordinates":[[[136.04358709776778,35.953945396460064],[136.0435953582132,35.95398762647356],[136.04391294316628,35.95404604749965],[136.0439530407856,35.953929614362565],[136.04358709776778,35.953945396460064]]]}},{"type":"Feature","properties":{"pid":"e819ef90-1625-48e1-bda4-0b6542aaf66c"},"geometry":{"type":"Polygon","coordinates":[[[136.04294927316542,35.953924705415865],[136.04337444654075,35.95402383688752],[136.04340271219536,35.953928939409586],[136.04295940600406,35.953884876132804],[136.04294927316542,35.953924705415865]]]}},{"type":"Feature","properties":{"pid":"ec08075f-8d9d-49d9-9b5a-f8fa56ca9d18"},"geometry":{"type":"Polygon","coordinates":[[[136.04407859561084,35.95442522459704],[136.04438780260898,35.95449629566775],[136.04458288662883,35.95398264818113],[136.0445655077943,35.95396360708195],[136.04425561186216,35.953887345332426],[136.04407859561084,35.95442522459704]]]}},{"type":"Feature","properties":{"pid":"b1281627-ab96-4c40-abdc-915f4ef93406"},"geometry":{"type":"Polygon","coordinates":[[[136.04413440640306,35.95525701007052],[136.04433276055997,35.95530197936279],[136.04455906843347,35.9547382133336],[136.04454371022794,35.95471747585574],[136.04436712775654,35.954675211350754],[136.04413440640306,35.95525701007052]]]}},{"type":"Feature","properties":{"pid":"e45ef260-8e02-4645-820c-0ab745b05144"},"geometry":{"type":"Polygon","coordinates":[[[136.04401564500807,35.95459211246267],[136.0438526293108,35.95518560716534],[136.0440145966311,35.955223774878675],[136.04423719520793,35.954638697605326],[136.04401564500807,35.95459211246267]]]}},{"type":"Feature","properties":{"pid":"ce4d7617-7062-4451-9caa-b62a3109a668"},"geometry":{"type":"Polygon","coordinates":[[[136.04347955256188,35.95427412306746],[136.04346316831914,35.954331578165956],[136.0438045217333,35.95439265451828],[136.04382334727256,35.95433301879419],[136.0434960684022,35.95426529613127],[136.04347955256188,35.95427412306746]]]}},{"type":"Feature","properties":{"pid":"d6236480-dd82-47be-9d43-ff05301377e9"},"geometry":{"type":"Polygon","coordinates":[[[136.04283689371704,35.95439030598687],[136.04323194676508,35.95446637371278],[136.04324859215492,35.95439545963675],[136.04285364408767,35.95431832381385],[136.04283689371704,35.95439030598687]]]}},{"type":"Feature","properties":{"pid":"b9417ddc-baa5-485e-95e0-3e460245244b"},"geometry":{"type":"Polygon","coordinates":[[[136.0425986312998,35.95435165858885],[136.0426094676647,35.9543035706619],[136.0422472215847,35.954237782430326],[136.04223698201326,35.954292568832464],[136.0425986312998,35.95435165858885]]]}},{"type":"Feature","properties":{"pid":"a25e01d8-6cd8-4cf4-b50b-3c44340d64dc"},"geometry":{"type":"Polygon","coordinates":[[[136.04244057746027,35.95568064588035],[136.0428027855227,35.955751300766124],[136.0428841658775,35.95546154486867],[136.04280146361634,35.95551114517744],[136.04247453685574,35.95560000041653],[136.04244057746027,35.95568064588035]]]}},{"type":"Feature","properties":{"pid":"ebda83ad-a27c-41e9-9a45-17707e94463d"},"geometry":{"type":"Polygon","coordinates":[[[136.04196469552892,35.95568541978533],[136.04201415620338,35.955740996918095],[136.0422558640451,35.95579993919783],[136.04229750552304,35.95566457382484],[136.04219012060392,35.95570000291018],[136.04209549239596,35.95570267234772],[136.04196771755366,35.95567095641653],[136.04196469552892,35.95568541978533]]]}},{"type":"Feature","properties":{"pid":"38d6ccc6-acea-4b7f-9415-bca5732671de"},"geometry":{"type":"Polygon","coordinates":[[[136.04239277726018,35.955835043927436],[136.04255839127816,35.955848920985154],[136.0427749523193,35.955917251941926],[136.0427906657861,35.95586569210792],[136.0424078024334,35.95579374853445],[136.04239277726018,35.955835043927436]]]}},{"type":"Feature","properties":{"pid":"070876f5-2e60-4da4-b2e8-61e2f0df9c10"},"geometry":{"type":"Polygon","coordinates":[[[136.0433846523004,35.95583826160864],[136.04301983250738,35.955762978123765],[136.04298972046155,35.95595070407556],[136.04332079881502,35.9558900489177],[136.04337987042274,35.95587013146644],[136.0433846523004,35.95583826160864]]]}},{"type":"Feature","properties":{"pid":"b239080b-40e1-4c78-8e39-7004312a95af"},"geometry":{"type":"Polygon","coordinates":[[[136.04303517882983,35.95565374760014],[136.04341495254553,35.9557295795471],[136.04347210100238,35.95549941150991],[136.0430934026715,35.95542789838001],[136.04303517882983,35.95565374760014]]]}},{"type":"Feature","properties":{"pid":"1e78e05d-609f-4959-8db6-b8ae089e9230"},"geometry":{"type":"Polygon","coordinates":[[[136.04310909669758,35.95532766762594],[136.043503322652,35.95540029404305],[136.04353823063948,35.955291847837714],[136.0433323993843,35.95523852054506],[136.04310909669758,35.95532766762594]]]}},{"type":"Feature","properties":{"pid":"c6f413a4-4609-4bc4-9537-668d91a49160"},"geometry":{"type":"Polygon","coordinates":[[[136.04416540157123,35.95601651606893],[136.04418269109445,35.95603509976723],[136.04438010310272,35.95608830316232],[136.04442561781642,35.95608739319539],[136.04463405242004,35.955578217706545],[136.04438302951476,35.9555099497071],[136.04416540157123,35.95601651606893]]]}},{"type":"Feature","properties":{"pid":"75519627-f001-4eb3-a366-bf56e3bd1c42"},"geometry":{"type":"Polygon","coordinates":[[[136.04362696368537,35.95588617829538],[136.0436349921414,35.95590725164121],[136.04377260399065,35.955928209295024],[136.04398406630136,35.955412889982696],[136.0438041649896,35.95536536010691],[136.04362696368537,35.95588617829538]]]}},{"type":"Feature","properties":{"pid":"2bae7492-2d69-4e5a-891a-b8fef23cb125"},"geometry":{"type":"Polygon","coordinates":[[[136.0438888687958,35.95595876506142],[136.04403491677903,35.95599621914967],[136.0442574302196,35.95547295622401],[136.04410091008506,35.95544078999207],[136.0438888687958,35.95595876506142]]]}},{"type":"Feature","properties":{"pid":"1973c35d-7550-4062-8e33-7d103f184a52"},"geometry":{"type":"Polygon","coordinates":[[[136.04461897498126,35.95615206575425],[136.04463607068226,35.95614403587457],[136.0447050637812,35.955960909477135],[136.0446519784326,35.95592562901789],[136.04455888155096,35.9561341653047],[136.04461897498126,35.95615206575425]]]}},{"type":"Feature","properties":{"pid":"8f502095-72bb-44a1-bcb3-c1f6d5970b19"},"geometry":{"type":"Polygon","coordinates":[[[136.04527168400108,35.95571980173231],[136.04530793911854,35.95579829530608],[136.0454093214528,35.95590983896913],[136.04541770207533,35.955985939017076],[136.04549466714118,35.95578412623324],[136.04527168400108,35.95571980173231]]]}},{"type":"Feature","properties":{"pid":"93ffd24a-37ea-494e-ae40-db05a6716f93"},"geometry":{"type":"Polygon","coordinates":[[[136.0455004298497,35.956145074892234],[136.04551502368724,35.95614879802821],[136.04564495082812,35.95583139417315],[136.0456225716345,35.955825897035034],[136.0455004298497,35.956145074892234]]]}},{"type":"Feature","properties":{"pid":"33f5ff39-72e8-424a-9677-3628df2cc3d9"},"geometry":{"type":"Polygon","coordinates":[[[136.04532905096247,35.95558040650912],[136.04550540323876,35.955622683757554],[136.0457295750411,35.95505688538701],[136.04556519856442,35.95500758325243],[136.04532905096247,35.95558040650912]]]}},{"type":"Feature","properties":{"pid":"1787e7bf-776c-467c-b6ae-993c0cc1e86c"},"geometry":{"type":"Polygon","coordinates":[[[136.0450580137642,35.95541906266926],[136.04510176285356,35.955435886981434],[136.0451683288233,35.95551909712516],[136.04520782233374,35.95553586268519],[136.0454471017709,35.954965860126855],[136.04526243252718,35.95491294576889],[136.0450580137642,35.95541906266926]]]}},{"type":"Feature","properties":{"pid":"d0100f33-f1e2-4518-a43d-0d9f23053c03"},"geometry":{"type":"Polygon","coordinates":[[[136.04445597574633,35.955335591105914],[136.04463285173625,35.955379701211086],[136.04486062472634,35.95479603833333],[136.04468727152704,35.954748805985076],[136.04445597574633,35.955335591105914]]]}},{"type":"Feature","properties":{"pid":"7f69e757-5d75-4ac8-b7a2-bf0b0f90b03b"},"geometry":{"type":"Polygon","coordinates":[[[136.0448100709057,35.95541442044083],[136.04491283224482,35.9554092962572],[136.04512587808293,35.9548802813793],[136.04504259327368,35.954856923675656],[136.0448100709057,35.95541442044083]]]}},{"type":"Feature","properties":{"pid":"ce14cef0-cc3f-41af-a5d8-63461d7bf674"},"geometry":{"type":"Polygon","coordinates":[[[136.0445851088639,35.95455172669643],[136.04490495059454,35.954627531146585],[136.04511030037474,35.95410076178248],[136.04479292193275,35.95401661169465],[136.0445851088639,35.95455172669643]]]}},{"type":"Feature","properties":{"pid":"207412dd-f54b-4d62-a59b-cccd2030ad18"},"geometry":{"type":"Polygon","coordinates":[[[136.04509165509018,35.954675276775106],[136.04538093065833,35.95476431257956],[136.04541970851815,35.95474144626635],[136.0456369690621,35.95421981374274],[136.04531729373204,35.95414590826897],[136.04509165509018,35.954675276775106]]]}},{"type":"Feature","properties":{"pid":"82d2c2e8-a053-4838-a3b4-2d3f5a78d4b1"},"geometry":{"type":"Polygon","coordinates":[[[136.04554815272886,35.9547988781306],[136.04584151077506,35.954889733349425],[136.04587112501,35.9548724994294],[136.0460870899748,35.95435230918667],[136.04576655121429,35.95426715228854],[136.04554815272886,35.9547988781306]]]}},{"type":"Feature","properties":{"pid":"cd88f92a-106e-40c1-9b9a-3dd05cb86bbb"},"geometry":{"type":"Polygon","coordinates":[[[136.04599460118428,35.95489775215248],[136.04601179677607,35.954928109486424],[136.04605833958536,35.954939634837174],[136.04628519037038,35.954403567452886],[136.04620355923842,35.95438359939522],[136.04599460118428,35.95489775215248]]]}},{"type":"Feature","properties":{"pid":"0208b079-92b1-4632-96a5-505549927a0b"},"geometry":{"type":"Polygon","coordinates":[[[136.04618409677954,35.954973545513226],[136.04628402549227,35.9550012975161],[136.0463181966945,35.95498828913998],[136.0465311513551,35.954460722102276],[136.0464075016439,35.95443140373969],[136.04618409677954,35.954973545513226]]]}},{"type":"Feature","properties":{"pid":"83885bac-458a-4097-8015-e3958eff2349"},"geometry":{"type":"Polygon","coordinates":[[[136.04668449331768,35.95511369237971],[136.0469080349923,35.95517513278985],[136.04713826559052,35.95461411357869],[136.04690433971507,35.95455654779893],[136.04668449331768,35.95511369237971]]]}},{"type":"Feature","properties":{"pid":"46f3dccd-595e-435c-b844-6b4ccd379dbb"},"geometry":{"type":"Polygon","coordinates":[[[136.0464274893902,35.95504357705261],[136.04657117522285,35.95507964707061],[136.04678806276155,35.95452761775753],[136.04665511986636,35.95449474089975],[136.0464274893902,35.95504357705261]]]}},{"type":"Feature","properties":{"pid":"316701b2-23b2-492e-bff5-ec3083618eb1"},"geometry":{"type":"Polygon","coordinates":[[[136.04637399496585,35.95584878839472],[136.04666689225004,35.955926013867995],[136.04688531959542,35.95536451706617],[136.046589621006,35.95528327261487],[136.04637399496585,35.95584878839472]]]}},{"type":"Feature","properties":{"pid":"9b7951e0-876c-4bbc-aa70-864dab5abcdf"},"geometry":{"type":"Polygon","coordinates":[[[136.04563560489524,35.95565573293494],[136.0458214548925,35.955701047428036],[136.046047704781,35.95514350106245],[136.04586121376533,35.95509126431357],[136.04563560489524,35.95565573293494]]]}},{"type":"Feature","properties":{"pid":"931da49b-6298-4248-a0b7-052acd443728"},"geometry":{"type":"Polygon","coordinates":[[[136.04596533164494,35.95573193268911],[136.04605240540977,35.95576730054579],[136.0462775915558,35.955196635949406],[136.04618921802873,35.95517524375068],[136.04596533164494,35.95573193268911]]]}},{"type":"Feature","properties":{"pid":"1ed7ca81-1a20-4ecd-b16e-dabfb6b2cda1"},"geometry":{"type":"Polygon","coordinates":[[[136.04617287821884,35.95579936003969],[136.046247164972,35.95582434365889],[136.04647130180376,35.95524856194711],[136.04640155961442,35.9552285789524],[136.04617287821884,35.95579936003969]]]}},{"type":"Feature","properties":{"pid":"49d79379-9264-465e-a382-0e233f08be6c"},"geometry":{"type":"Polygon","coordinates":[[[136.0461231826406,35.9565339682687],[136.04640894322458,35.95660455879443],[136.04661178107446,35.9560670748027],[136.0463324919384,35.95599093363709],[136.0461231826406,35.9565339682687]]]}},{"type":"Feature","properties":{"pid":"e794d254-64f6-4595-9725-7c79e98d9def"},"geometry":{"type":"Polygon","coordinates":[[[136.04653793301082,35.95664452620996],[136.04682564576308,35.95671415322809],[136.04704556678607,35.95617566096698],[136.04675399660914,35.95609510682451],[136.04653793301082,35.95664452620996]]]}},{"type":"Feature","properties":{"pid":"aa6ffbb4-6305-4bbf-be11-3589023b9326"},"geometry":{"type":"Polygon","coordinates":[[[136.0458925564595,35.95647677133895],[136.04598543982894,35.95650407387409],[136.0461917629798,35.95596423585531],[136.046104464988,35.95594228834394],[136.0458925564595,35.95647677133895]]]}},{"type":"Feature","properties":{"pid":"d0eac11d-2c5c-4c9c-b064-2dbfd4582df8"},"geometry":{"type":"Polygon","coordinates":[[[136.04569326025407,35.956425352807585],[136.0457737284341,35.95644238887815],[136.04598209263483,35.95590788152264],[136.04590790223978,35.95588780607492],[136.04569326025407,35.956425352807585]]]}},{"type":"Feature","properties":{"pid":"b8df410c-1f34-472c-9679-754754d79af1"},"geometry":{"type":"Polygon","coordinates":[[[136.04546721326514,35.95624201164128],[136.0454169258163,35.95635842779976],[136.0455494130489,35.95639427793461],[136.04559276488325,35.95627471518886],[136.04546721326514,35.95624201164128]]]}},{"type":"Feature","properties":{"pid":"cbb18cb6-6897-4e62-b078-821305c211a4"},"geometry":{"type":"Polygon","coordinates":[[[136.04475018175467,35.9561870671638],[136.04479233849284,35.956199048498384],[136.04489085296933,35.95622434165239],[136.0447931936634,35.956067589311374],[136.04475018175467,35.9561870671638]]]}},{"type":"Feature","properties":{"pid":"b8e7fed3-4f82-4359-9a91-ff5faf96f0a3"},"geometry":{"type":"Polygon","coordinates":[[[136.0495828783214,35.95697509427168],[136.04960797387,35.9569091550945],[136.04951799290689,35.95688889965843],[136.04949457093392,35.95695387863274],[136.0495828783214,35.95697509427168]]]}},{"type":"Feature","properties":{"pid":"b7229af3-88b2-4f23-919a-dd727f06481a"},"geometry":{"type":"Polygon","coordinates":[[[136.04849026537562,35.95658504614081],[136.0488479489573,35.956677825401606],[136.04887523822984,35.9566548092072],[136.04850400506297,35.956550581457925],[136.04849026537562,35.95658504614081]]]}},{"type":"Feature","properties":{"pid":"d7c667aa-ca38-4ec5-b0a2-4fac4472f054"},"geometry":{"type":"Polygon","coordinates":[[[136.04942089143844,35.95619570518778],[136.04945336121534,35.95617214192981],[136.04950373708698,35.956037761027815],[136.04941681882175,35.95601306763268],[136.04935313992797,35.956178834825124],[136.04942089143844,35.95619570518778]]]}},{"type":"Feature","properties":{"pid":"e2347812-81bd-4182-9621-cbcb5bde06db"},"geometry":{"type":"Polygon","coordinates":[[[136.04899660729282,35.95651096967225],[136.04903654044583,35.95652015900712],[136.04905856347193,35.9565006444534],[136.04927949261412,35.95597652263247],[136.04921594120862,35.95596029547823],[136.04899660729282,35.95651096967225]]]}},{"type":"Feature","properties":{"pid":"132f4283-18b1-4a6a-8692-1644158b8945"},"geometry":{"type":"Polygon","coordinates":[[[136.048596175545,35.95641037552967],[136.048867372174,35.95648300512171],[136.04908607880762,35.9559256919661],[136.04882115166382,35.955849922233774],[136.048596175545,35.95641037552967]]]}},{"type":"Feature","properties":{"pid":"33d6ac48-78c0-49d0-abb1-5c4f7fda0c35"},"geometry":{"type":"Polygon","coordinates":[[[136.0481882080937,35.956260651549684],[136.048218754683,35.95630750702235],[136.04845254314452,35.9563723356211],[136.0485441750967,35.95614053900823],[136.04826209950437,35.956069489858585],[136.0481882080937,35.956260651549684]]]}},{"type":"Feature","properties":{"pid":"545dbb47-bf50-4535-828f-29b002d36241"},"geometry":{"type":"Polygon","coordinates":[[[136.04679751105732,35.95595245730725],[136.0469697951161,35.95599837700925],[136.04710438608538,35.95601538974762],[136.04732095622703,35.95546814833485],[136.04701121218872,35.955394746550546],[136.04679751105732,35.95595245730725]]]}},{"type":"Feature","properties":{"pid":"3ed01ae4-ee39-4b0a-b05a-f89ea8908111"},"geometry":{"type":"Polygon","coordinates":[[[136.04729111747884,35.956072013134325],[136.0476053754413,35.95615287523092],[136.04783089131513,35.95558284290119],[136.0476038424423,35.955519652222904],[136.04756999956547,35.955570548608094],[136.04749594083188,35.95557026698568],[136.04729111747884,35.956072013134325]]]}},{"type":"Feature","properties":{"pid":"95ad8623-fb94-462a-a1eb-fc4df3d5a5b8"},"geometry":{"type":"Polygon","coordinates":[[[136.04775013499548,35.956192800405276],[136.0480298152455,35.95626734267309],[136.0482620503657,35.95568913750546],[136.0479714503945,35.9556222442857],[136.04775013499548,35.956192800405276]]]}},{"type":"Feature","properties":{"pid":"a3aa7209-5b3d-4575-9652-2b9dcd6686b1"},"geometry":{"type":"Polygon","coordinates":[[[136.0481696321357,35.955475202658],[136.0483237219344,35.95551716926032],[136.04832446393925,35.9555154572809],[136.04826538823212,35.95546617866943],[136.04822119363584,35.95535578127283],[136.0481696321357,35.955475202658]]]}},{"type":"Feature","properties":{"pid":"1552e9b0-7c40-4c49-af47-44c420bee70d"},"geometry":{"type":"Polygon","coordinates":[[[136.04816250995637,35.955195347487674],[136.0481504718954,35.95513690214246],[136.04802557320048,35.9554478149868],[136.04804612780805,35.955453071379154],[136.04816250995637,35.955195347487674]]]}},{"type":"Feature","properties":{"pid":"e4471cd3-7926-457e-a038-bc1a9b7c28b2"},"geometry":{"type":"Polygon","coordinates":[[[136.0477941329657,35.9553892870804],[136.0478959384966,35.95541434645017],[136.04805979351616,35.95501161258281],[136.04798221819564,35.9549286314244],[136.0477941329657,35.9553892870804]]]}},{"type":"Feature","properties":{"pid":"1813b74b-5546-4ed3-9b5b-abf2e76a62f3"},"geometry":{"type":"Polygon","coordinates":[[[136.04711310559685,35.95516304112818],[136.0474716411272,35.95524937778254],[136.04762058706118,35.954875362853144],[136.04726231453628,35.954801888764536],[136.04711310559685,35.95516304112818]]]}},{"type":"Feature","properties":{"pid":"a6944ebb-ec49-408e-a524-5b5bf24216fa"},"geometry":{"type":"Polygon","coordinates":[[[136.04715837548576,35.954372799086215],[136.04760695198974,35.954480229055925],[136.04767180875191,35.954333896699865],[136.04720677751953,35.95422822741355],[136.04715837548576,35.954372799086215]]]}},{"type":"Feature","properties":{"pid":"17dd726a-f6d1-4afa-b516-25dad9296383"},"geometry":{"type":"Polygon","coordinates":[[[136.04759830548602,35.95531495359621],[136.0476092664101,35.95535075906404],[136.0476664124089,35.955361609429346],[136.0478712996288,35.95485859921955],[136.04779147294045,35.954845544729416],[136.04759830548602,35.95531495359621]]]}},{"type":"Feature","properties":{"pid":"15af8355-84f7-4438-a531-ff148932b5e2"},"geometry":{"type":"Polygon","coordinates":[[[136.0491688546284,35.954496283006385],[136.04920917416317,35.95430647469023],[136.0487008752636,35.95432932868308],[136.0487231473549,35.954567497006174],[136.0490545538761,35.95450289583518],[136.0491688546284,35.954496283006385]]]}},{"type":"Feature","properties":{"pid":"fa1bc073-59b6-4403-b1b8-33333a3c3450"},"geometry":{"type":"Polygon","coordinates":[[[136.04906239548515,35.95540986547252],[136.04898350897173,35.955680827451914],[136.049154254784,35.95573313374008],[136.04926630182365,35.95545856866951],[136.04917675809315,35.955412533152],[136.04906239548515,35.95540986547252]]]}},{"type":"Feature","properties":{"pid":"2e38c0c5-8cb3-4bbf-8af3-d7f58cce5cc1"},"geometry":{"type":"Polygon","coordinates":[[[136.04908509398902,35.955237310048815],[136.04915653476522,35.95524088488387],[136.04916934269343,35.95518213897338],[136.0492015835489,35.95514576115571],[136.04918673970334,35.95511609727473],[136.04911920234474,35.955133611226486],[136.04908509398902,35.955237310048815]]]}},{"type":"Feature","properties":{"pid":"d711dd0d-34c8-423b-b9b6-f69c20176806"},"geometry":{"type":"Polygon","coordinates":[[[136.04859444487587,35.95603844428664],[136.0486928675755,35.955800269807014],[136.04839693020548,35.955730744989964],[136.04830830913534,35.95596102655882],[136.04859444487587,35.95603844428664]]]}},{"type":"Feature","properties":{"pid":"e2b87be9-f8f7-43f8-9e48-c2fe8dd0323e"},"geometry":{"type":"Polygon","coordinates":[[[136.04928310731307,35.95577041298422],[136.04950797298446,35.955830526790386],[136.04955059821754,35.955778090937784],[136.04960982455415,35.955775122005775],[136.04970718385755,35.95552665864275],[136.04939626019032,35.95549394876934],[136.04928310731307,35.95577041298422]]]}},{"type":"Feature","properties":{"pid":"e9136925-e866-4731-b142-70187f3f0173"},"geometry":{"type":"Polygon","coordinates":[[[136.04930375946452,35.955270928044285],[136.04943230688713,35.95531514831859],[136.0498091165304,35.95534466646745],[136.04982933265796,35.95507949104538],[136.04976836321876,35.95507440612919],[136.04974557626787,35.95514913869426],[136.04969332512806,35.95519235400547],[136.0493531361763,35.95516143923705],[136.04935316391848,35.95521290274678],[136.0493100041611,35.9552423905621],[136.04930375946452,35.955270928044285]]]}},{"type":"Feature","properties":{"pid":"a5c70615-42d9-4b69-b0c5-770ad7cc362a"},"geometry":{"type":"Polygon","coordinates":[[[136.0493794973946,35.95505246424451],[136.0496308444157,35.955081708359096],[136.0496323385059,35.95496051956813],[136.0496912801044,35.95480511571477],[136.04950858040402,35.95478660949533],[136.04948026095119,35.95482063519647],[136.049422706553,35.95482619071401],[136.0493794973946,35.95505246424451]]]}},{"type":"Feature","properties":{"pid":"60bf4d42-0136-43eb-ba71-95aa71e6efb0"},"geometry":{"type":"Polygon","coordinates":[[[136.0498912121765,35.954351280077404],[136.04988553150346,35.954256334065825],[136.04942642934986,35.954297740733516],[136.04939053716203,35.95452739609174],[136.04946572469584,35.95452516193232],[136.0498912121765,35.954351280077404]]]}},{"type":"Feature","properties":{"pid":"2aa954fe-8f10-4468-b290-a7804062df24"},"geometry":{"type":"Polygon","coordinates":[[[136.04974580633728,35.953894089349426],[136.0497758546785,35.954116258153775],[136.0502558418302,35.954063203004694],[136.05018157001496,35.953837640135966],[136.04974580633728,35.953894089349426]]]}},{"type":"Feature","properties":{"pid":"24061cd6-0f15-4ab4-b3f7-0763d0059019"},"geometry":{"type":"Polygon","coordinates":[[[136.04942587217883,35.953941316344164],[136.04945041295238,35.954144219418936],[136.0496525876776,35.95412993485359],[136.04962293376914,35.9539172006155],[136.04942587217883,35.953941316344164]]]}},{"type":"Feature","properties":{"pid":"cf286854-de44-43ec-ad96-ff9129361c62"},"geometry":{"type":"Polygon","coordinates":[[[136.04979170360573,35.953636490083255],[136.04972282301773,35.953649831531415],[136.0497352969862,35.953771156226],[136.05002539099328,35.9537395721545],[136.04979170360573,35.953636490083255]]]}},{"type":"Feature","properties":{"pid":"7ec56b15-a2df-4132-a16e-dc86694a14d4"},"geometry":{"type":"Polygon","coordinates":[[[136.04943112973098,35.95382313149203],[136.04961091033095,35.95379381278904],[136.04957885595033,35.95355500536426],[136.04955628185368,35.95356295621728],[136.049563179357,35.953650566845944],[136.04953213733685,35.95371691699245],[136.04948124930783,35.95379253219551],[136.04943112973098,35.95382313149203]]]}},{"type":"Feature","properties":{"pid":"06136bc8-92d8-44de-b59d-422331c10d84"},"geometry":{"type":"Polygon","coordinates":[[[136.04896021588064,35.954008606337915],[136.04897696833598,35.95417134163397],[136.0492345882782,35.954150716335775],[136.0492162283066,35.95389785665194],[136.04909142276856,35.95393666806202],[136.04896021588064,35.954008606337915]]]}},{"type":"Feature","properties":{"pid":"75375901-7e54-4eb7-a628-f4fc729d4e23"},"geometry":{"type":"Polygon","coordinates":[[[136.04837223716515,35.95411862934784],[136.0483612368983,35.954158188128496],[136.04843159245146,35.95421495461179],[136.04885662404155,35.95418012468736],[136.04884283854201,35.954041821656254],[136.04837223716515,35.95411862934784]]]}},{"type":"Feature","properties":{"pid":"226a0470-e55b-429f-acf2-86fbf4756e36"},"geometry":{"type":"Polygon","coordinates":[[[136.04724242460603,35.95413396550281],[136.0476589116182,35.954225104780086],[136.04770872800503,35.95421166918723],[136.04781157785806,35.95390575776748],[136.04736056483506,35.95379715113112],[136.04724242460603,35.95413396550281]]]}}]}