{"type":"FeatureCollection","features":[{"type":"Feature","properties":{"pid":"5a31bc01-dd53-426c-ba69-9a9a34ede248","full":3.7},"geometry":{"type":"Polygon","coordinates":[[[136.0485,35.94362],[136.04855,35.94378],[136.04855,35.94383],[136.04863,35.94383],[136.049,35.94366],[136.04901,35.94364],[136.04898,35.94354],[136.04894,35.94355],[136.04893,35.94353],[136.0485,35.94362]]]}},{"type":"Feature","properties":{"pid":"aa3aa127-98df-48d6-adf4-de84dcab8997","full":2.6},"geometry":{"type":"Polygon","coordinates":[[[136.04966,35.94275],[136.04971,35.94285],[136.04972,35.94286],[136.04976,35.94285],[136.04994,35.94283],[136.0501,35.94283],[136.05016,35.94285],[136.05024,35.94275],[136.05024,35.94273],[136.0502,35.94262],[136.04966,35.94275]]]}},{"type":"Feature","properties":{"pid":"3a610991-d562-44a7-b2c5-eb7f5d0be659","full":2.3},"geometry":{"type":"Polygon","coordinates":[[[136.04919,35.94285],[136.04928,35.94304],[136.04956,35.94294],[136.04959,35.94292],[136.04961,35.9429],[136.04956,35.94277],[136.04919,35.94285]]]}},{"type":"Feature","properties":{"pid":"52043771-0c5e-4e0d-829e-7f3121089efa","full":0.6},"geometry":{"type":"Polygon","coordinates":[[[136.0492,35.94282],[136.04918,35.94273],[136.04876,35.94279],[136.04881,35.94289],[136.04884,35.9429],[136.0492,35.94282]]]}},{"type":"Feature","properties":{"pid":"a7ff5175-cf9e-4e1b-91a5-41cb8beddfe8","full":2.8},"geometry":{"type":"Polygon","coordinates":[[[136.04923,35.94306],[136.04915,35.94286],[136.04883,35.94294],[136.04882,35.94296],[136.04885,35.94302],[136.04888,35.94303],[136.04893,35.94311],[136.04895,35.94314],[136.04895,35.94316],[136.04897,35.94316],[136.04923,35.94306]]]}},{"type":"Feature","properties":{"pid":"35f9b4cf-eabb-43eb-bece-02dd8b4cbdd3","full":2.9},"geometry":{"type":"Polygon","coordinates":[[[136.04835,35.94327],[136.04834,35.94328],[136.0484,35.94341],[136.04843,35.94342],[136.04888,35.9433],[136.0488,35.94316],[136.04876,35.94316],[136.04835,35.94327]]]}},{"type":"Feature","properties":{"pid":"7a576e30-3d9d-4951-ad85-f1677b7007e2","full":2.7},"geometry":{"type":"Polygon","coordinates":[[[136.04844,35.94345],[136.04842,35.94346],[136.04842,35.94348],[136.04846,35.94357],[136.04848,35.94358],[136.0485,35.94359],[136.04894,35.94349],[136.04894,35.94348],[136.04889,35.94334],[136.04887,35.94334],[136.04844,35.94345]]]}},{"type":"Feature","properties":{"pid":"a32d0a2c-45f9-417e-a948-d6fe468de546","full":2.8},"geometry":{"type":"Polygon","coordinates":[[[136.04827,35.94322],[136.04829,35.94323],[136.04832,35.94323],[136.04872,35.94312],[136.04877,35.94311],[136.04877,35.94308],[136.04873,35.94298],[136.04872,35.94297],[136.0487,35.94297],[136.04821,35.94308],[136.04827,35.94322]]]}},{"type":"Feature","properties":{"pid":"effebfaa-2fca-455e-8aee-7e5c9a7f0996","full":5.7},"geometry":{"type":"Polygon","coordinates":[[[136.04809,35.94279],[136.04822,35.94304],[136.04872,35.94293],[136.04866,35.94277],[136.04859,35.94278],[136.04815,35.94277],[136.04809,35.94279]]]}},{"type":"Feature","properties":{"pid":"1cb26c43-a6d5-4233-aefa-c25beeffbfc4","full":3.1},"geometry":{"type":"Polygon","coordinates":[[[136.04772,35.94291],[136.04781,35.94309],[136.04812,35.94302],[136.04802,35.94279],[136.04785,35.94284],[136.04772,35.94291]]]}},{"type":"Feature","properties":{"pid":"3fcd66a6-9e0a-4227-a638-51b55094f07e","full":6.4},"geometry":{"type":"Polygon","coordinates":[[[136.04735,35.94324],[136.04737,35.94337],[136.04736,35.94343],[136.04819,35.94323],[136.04811,35.94306],[136.04735,35.94324]]]}},{"type":"Feature","properties":{"pid":"4592c5df-d86f-41a8-95b5-2eb580135ab0","full":3.3},"geometry":{"type":"Polygon","coordinates":[[[136.0472,35.94359],[136.04724,35.94353],[136.04729,35.94342],[136.0473,35.94337],[136.04725,35.9432],[136.04723,35.94319],[136.04694,35.94336],[136.04695,35.94338],[136.04693,35.9434],[136.0472,35.94359]]]}},{"type":"Feature","properties":{"pid":"d90c40c6-769d-432c-9871-2c844fbb6b76","full":1.2},"geometry":{"type":"Polygon","coordinates":[[[136.04733,35.94314],[136.04735,35.94322],[136.04777,35.94312],[136.0477,35.94294],[136.04733,35.94314]]]}},{"type":"Feature","properties":{"pid":"0131aaf4-aa4d-4ed4-8632-f8aee2480a17","full":2.8},"geometry":{"type":"Polygon","coordinates":[[[136.04674,35.94279],[136.04676,35.94287],[136.04688,35.94295],[136.04708,35.94287],[136.04718,35.94276],[136.04722,35.9427],[136.04731,35.94263],[136.04729,35.9426],[136.04702,35.94269],[136.04674,35.94279]]]}},{"type":"Feature","properties":{"pid":"18ecf712-0123-4cb7-9fec-e7c29249046b","full":0.6},"geometry":{"type":"Polygon","coordinates":[[[136.04674,35.94277],[136.04701,35.94267],[136.04729,35.94258],[136.04724,35.94249],[136.04672,35.94266],[136.04674,35.94277]]]}},{"type":"Feature","properties":{"pid":"5985ed57-7730-478f-8dde-3fa9b8e367ae","full":3.0},"geometry":{"type":"Polygon","coordinates":[[[136.04729,35.94249],[136.04735,35.94264],[136.04736,35.94264],[136.04755,35.94258],[136.04759,35.94256],[136.04766,35.94254],[136.04766,35.94248],[136.04789,35.9424],[136.04783,35.94229],[136.04729,35.94247],[136.04729,35.94249]]]}},{"type":"Feature","properties":{"pid":"e95c7add-3c58-46a8-90c1-03c49db33896","full":3.7},"geometry":{"type":"Polygon","coordinates":[[[136.0484,35.94241],[136.04829,35.94212],[136.04786,35.94228],[136.04792,35.9424],[136.04796,35.9424],[136.04802,35.94238],[136.04811,35.9424],[136.04822,35.94239],[136.0484,35.94241]]]}},{"type":"Feature","properties":{"pid":"74bb7432-e4a8-4a9a-ac59-2600b1551274","full":3.1},"geometry":{"type":"Polygon","coordinates":[[[136.04843,35.94206],[136.04835,35.94188],[136.04802,35.94204],[136.04798,35.94207],[136.04782,35.94217],[136.04786,35.94226],[136.04843,35.94206]]]}},{"type":"Feature","properties":{"pid":"d5224a68-8984-4822-81b6-388d9656d701","full":1.8},"geometry":{"type":"Polygon","coordinates":[[[136.04722,35.94228],[136.04729,35.94245],[136.04781,35.94227],[136.04777,35.94218],[136.04747,35.94224],[136.04722,35.94228]]]}},{"type":"Feature","properties":{"pid":"2ee921a3-394d-46d5-b56e-9cd96cf523f5","full":0.7},"geometry":{"type":"Polygon","coordinates":[[[136.04686,35.94153],[136.04689,35.9416],[136.04694,35.94161],[136.04699,35.94159],[136.04702,35.9416],[136.04737,35.9415],[136.04737,35.94141],[136.04735,35.94141],[136.04733,35.9414],[136.04686,35.94153]]]}},{"type":"Feature","properties":{"pid":"1b95a377-bf58-4ed3-941b-dfe793d07f88","full":1.8},"geometry":{"type":"Polygon","coordinates":[[[136.04682,35.94136],[136.04684,35.94143],[136.04695,35.94147],[136.047,35.94146],[136.04736,35.94137],[136.04735,35.94123],[136.04682,35.94136]]]}},{"type":"Feature","properties":{"pid":"4d3d1e61-b144-4c88-bfb1-253c772d5100","full":2.0},"geometry":{"type":"Polygon","coordinates":[[[136.04677,35.9412],[136.04681,35.94131],[136.04686,35.94132],[136.04734,35.9412],[136.04731,35.94107],[136.04677,35.9412]]]}},{"type":"Feature","properties":{"pid":"480870d7-1f1a-48a7-b79f-dc720de8e412","full":3.1},"geometry":{"type":"Polygon","coordinates":[[[136.0475,35.94167],[136.04808,35.94138],[136.04805,35.94119],[136.04748,35.94155],[136.04747,35.94164],[136.0475,35.94167]]]}},{"type":"Feature","properties":{"pid":"f987a901-2b0f-4191-b939-2af018f48290","full":5.0},"geometry":{"type":"Polygon","coordinates":[[[136.04748,35.94148],[136.04798,35.94116],[136.04808,35.94112],[136.04803,35.94099],[136.04772,35.94111],[136.04744,35.94124],[136.04743,35.94139],[136.04746,35.94146],[136.04748,35.94148]]]}},{"type":"Feature","properties":{"pid":"d08b92ac-cb05-4f12-b8a6-3b0cdcc697e6","full":2.4},"geometry":{"type":"Polygon","coordinates":[[[136.04781,35.94099],[136.04797,35.94093],[136.04796,35.94081],[136.0479,35.94066],[136.04777,35.94069],[136.04768,35.94073],[136.04766,35.94074],[136.04766,35.94075],[136.04781,35.94099]]]}},{"type":"Feature","properties":{"pid":"ec8d4ea1-9b46-4902-bade-0050fff782fb","full":1.0},"geometry":{"type":"Polygon","coordinates":[[[136.04763,35.94106],[136.04779,35.94099],[136.04763,35.94075],[136.04749,35.94079],[136.04763,35.94106]]]}},{"type":"Feature","properties":{"pid":"2445b4b3-2abe-4088-8b94-9546355a2072","full":4.4},"geometry":{"type":"Polygon","coordinates":[[[136.04354,35.94123],[136.04354,35.94124],[136.04377,35.9415],[136.04387,35.9415],[136.04402,35.94153],[136.04409,35.94152],[136.04377,35.94113],[136.04375,35.94113],[136.0436,35.94121],[136.04354,35.94123]]]}},{"type":"Feature","properties":{"pid":"014174aa-3f18-4008-b30d-824d2dca45b1","full":8.3},"geometry":{"type":"Polygon","coordinates":[[[136.0438,35.9411],[136.04417,35.94155],[136.04433,35.9415],[136.04441,35.94145],[136.04407,35.94099],[136.04405,35.94097],[136.04396,35.94101],[136.0438,35.9411]]]}},{"type":"Feature","properties":{"pid":"97561815-f807-485d-b80c-e151b8572877","full":4.3},"geometry":{"type":"Polygon","coordinates":[[[136.04407,35.94095],[136.04443,35.94143],[136.0445,35.94141],[136.04458,35.9414],[136.0446,35.94139],[136.04425,35.94085],[136.04419,35.94087],[136.04407,35.94095]]]}},{"type":"Feature","properties":{"pid":"2c3d3482-9bd8-4336-95df-44981a0a32dd","full":2.9},"geometry":{"type":"Polygon","coordinates":[[[136.0433,35.9413],[136.04345,35.94157],[136.04366,35.94151],[136.0437,35.94149],[136.0435,35.94124],[136.04334,35.94126],[136.04331,35.94128],[136.0433,35.9413]]]}},{"type":"Feature","properties":{"pid":"551b82d6-4a56-4baf-98ae-4ba23af186d0","full":2.1},"geometry":{"type":"Polygon","coordinates":[[[136.04324,35.94106],[136.04327,35.94107],[136.04331,35.94108],[136.0434,35.94107],[136.04357,35.94097],[136.04329,35.94072],[136.04324,35.94106]]]}},{"type":"Feature","properties":{"pid":"6405c5e2-61dd-4133-97ec-29898c418adb","full":4.6},"geometry":{"type":"Polygon","coordinates":[[[136.04362,35.94088],[136.04368,35.94088],[136.04376,35.94082],[136.04383,35.94078],[136.04393,35.94075],[136.04396,35.94073],[136.04396,35.94072],[136.04336,35.94051],[136.04336,35.94064],[136.04337,35.94067],[136.04359,35.94086],[136.04362,35.94088]]]}},{"type":"Feature","properties":{"pid":"3a388bac-6c46-4e5d-8c75-346bf8d5c2a2","full":11.2},"geometry":{"type":"Polygon","coordinates":[[[136.04336,35.94047],[136.04402,35.94068],[136.04417,35.94058],[136.04418,35.94043],[136.04419,35.9404],[136.0435,35.94029],[136.04348,35.94033],[136.04337,35.94031],[136.04335,35.94041],[136.04335,35.94044],[136.04336,35.94047]]]}},{"type":"Feature","properties":{"pid":"e18592ec-3a69-4173-9a98-200e224a7d1d","full":2.7},"geometry":{"type":"Polygon","coordinates":[[[136.04246,35.94057],[136.04275,35.94073],[136.04284,35.94076],[136.04297,35.94079],[136.04308,35.94085],[136.04314,35.94087],[136.04315,35.94085],[136.04316,35.94075],[136.04251,35.94045],[136.04248,35.94044],[136.04246,35.94047],[136.04246,35.94057]]]}},{"type":"Feature","properties":{"pid":"6efe0682-163d-4ac7-8299-690c7868d643","full":7.6},"geometry":{"type":"Polygon","coordinates":[[[136.04543,35.94042],[136.04577,35.94073],[136.04577,35.94074],[136.04571,35.94079],[136.04571,35.94081],[136.04578,35.94084],[136.04583,35.94085],[136.04588,35.94085],[136.04605,35.94081],[136.04613,35.94071],[136.04563,35.94033],[136.04548,35.94036],[136.04543,35.94042]]]}},{"type":"Feature","properties":{"pid":"aebe4a59-8939-4a7e-848e-4706ffda2dce","full":1.2},"geometry":{"type":"Polygon","coordinates":[[[136.04471,35.94057],[136.04496,35.94086],[136.04502,35.94081],[136.04504,35.94077],[136.04496,35.9407],[136.04494,35.94066],[136.04495,35.94061],[136.04496,35.94057],[136.04499,35.94054],[136.04503,35.94052],[136.04496,35.94046],[136.04476,35.94053],[136.04471,35.94057]]]}},{"type":"Feature","properties":{"pid":"5ea0734d-950d-4edc-a9a2-8802ecfa195f","full":12.9},"geometry":{"type":"Polygon","coordinates":[[[136.04445,35.94074],[136.04488,35.94132],[136.04494,35.94132],[136.04499,35.9413],[136.04507,35.94129],[136.04513,35.94126],[136.0453,35.94107],[136.04521,35.94106],[136.04508,35.94105],[136.04499,35.94107],[136.04495,35.94104],[136.04492,35.94101],[136.0449,35.94096],[136.0449,35.94093],[136.04493,35.94087],[136.04467,35.94058],[136.04445,35.94074]]]}},{"type":"Feature","properties":{"pid":"aa167ffa-ae4d-4048-a3a6-6e97a7e3a48f","full":2.5},"geometry":{"type":"Polygon","coordinates":[[[136.04501,35.94048],[136.04506,35.94052],[136.04518,35.94056],[136.04535,35.94058],[136.04538,35.94058],[136.04541,35.94061],[136.04545,35.9407],[136.04547,35.94071],[136.04565,35.94074],[136.04569,35.94077],[136.04573,35.94073],[136.04532,35.94039],[136.04518,35.9404],[136.04503,35.94043],[136.04501,35.94048]]]}},{"type":"Feature","properties":{"pid":"d2f389d8-6545-4e63-80de-3bea45ded7fc","full":4.9},"geometry":{"type":"Polygon","coordinates":[[[136.04429,35.94082],[136.04428,35.94084],[136.04463,35.94139],[136.04464,35.94139],[136.04469,35.94138],[136.04484,35.94132],[136.04442,35.94075],[136.04429,35.94082]]]}},{"type":"Feature","properties":{"pid":"6828dbea-eee2-4271-824d-fc5d41c008d8","full":1.7},"geometry":{"type":"Polygon","coordinates":[[[136.04601,35.94178],[136.04603,35.94185],[136.04602,35.9419],[136.04605,35.94192],[136.04637,35.9419],[136.04641,35.94183],[136.04631,35.94174],[136.04601,35.94178]]]}},{"type":"Feature","properties":{"pid":"0f271dc1-dde2-4464-8b44-52f00152efde","full":1.2},"geometry":{"type":"Polygon","coordinates":[[[136.04574,35.94171],[136.04616,35.9416],[136.04609,35.94152],[136.046,35.94142],[136.04579,35.94162],[136.04572,35.94166],[136.04572,35.94167],[136.04574,35.94171]]]}},{"type":"Feature","properties":{"pid":"f217d621-9f80-4dd5-bb38-35402a063c8a","full":3.5},"geometry":{"type":"Polygon","coordinates":[[[136.0462,35.94141],[136.04672,35.94138],[136.04673,35.94137],[136.04666,35.94118],[136.04635,35.9412],[136.04624,35.9413],[136.04621,35.94136],[136.0462,35.94141]]]}},{"type":"Feature","properties":{"pid":"b1040dc1-2517-41f6-a322-79ad024aedcd","full":1.5},"geometry":{"type":"Polygon","coordinates":[[[136.04619,35.9415],[136.0462,35.94152],[136.04633,35.94161],[136.04672,35.94158],[136.04675,35.94157],[136.04676,35.94156],[136.04672,35.94146],[136.04669,35.94145],[136.04621,35.94149],[136.04619,35.9415]]]}},{"type":"Feature","properties":{"pid":"ca71e2bf-ebc0-4906-b22a-fb8f3df46805","full":2.4},"geometry":{"type":"Polygon","coordinates":[[[136.04637,35.94167],[136.04637,35.94169],[136.04657,35.94182],[136.04665,35.94185],[136.04679,35.94188],[136.04683,35.94187],[136.04677,35.94163],[136.04639,35.94165],[136.04637,35.94167]]]}},{"type":"Feature","properties":{"pid":"16d823d5-edc7-4e5d-9bd8-441eb5806d3b","full":9.8},"geometry":{"type":"Polygon","coordinates":[[[136.04562,35.94261],[136.04574,35.94292],[136.0462,35.94276],[136.04616,35.94247],[136.04614,35.94245],[136.04612,35.94244],[136.04562,35.94261]]]}},{"type":"Feature","properties":{"pid":"abb77baa-3e43-443b-bf56-fb4d826d4aaa","full":6.6},"geometry":{"type":"Polygon","coordinates":[[[136.04665,35.94234],[136.0467,35.94265],[136.04724,35.94247],[136.04721,35.94238],[136.04718,35.94231],[136.04695,35.94232],[136.04665,35.94234]]]}},{"type":"Feature","properties":{"pid":"df68e75c-2552-4ff3-a441-f0cdfa7c8b09","full":5.4},"geometry":{"type":"Polygon","coordinates":[[[136.04631,35.94282],[136.04632,35.94288],[136.04646,35.94314],[136.04648,35.94315],[136.04672,35.943],[136.04666,35.94275],[136.04631,35.94278],[136.04631,35.94282]]]}},{"type":"Feature","properties":{"pid":"6559831b-5b9c-4594-8067-b53bc7d61e39","full":2.5},"geometry":{"type":"Polygon","coordinates":[[[136.04672,35.94351],[136.04707,35.94374],[136.04718,35.9436],[136.04688,35.94339],[136.04685,35.94341],[136.04672,35.94351]]]}},{"type":"Feature","properties":{"pid":"162e9a6a-aefd-4d09-b9b2-4a01b876552f","full":5.4},"geometry":{"type":"Polygon","coordinates":[[[136.04563,35.94281],[136.04556,35.94265],[136.04484,35.9428],[136.04494,35.9429],[136.04501,35.94296],[136.04563,35.94281]]]}},{"type":"Feature","properties":{"pid":"8f5a4ebc-eb69-4df1-ab6c-976f4b8caf0a","full":4.0},"geometry":{"type":"Polygon","coordinates":[[[136.04502,35.94298],[136.04516,35.94314],[136.04538,35.94305],[136.04544,35.94305],[136.04546,35.94307],[136.04551,35.94307],[136.04568,35.94301],[136.04568,35.943],[136.04563,35.94283],[136.04502,35.94298]]]}},{"type":"Feature","properties":{"pid":"5c94f5cd-5c30-42f6-9717-197b62a7123d","full":1.7},"geometry":{"type":"Polygon","coordinates":[[[136.0458,35.94324],[136.04571,35.94303],[136.04548,35.9431],[136.04559,35.94332],[136.0458,35.94324]]]}},{"type":"Feature","properties":{"pid":"4b126071-6b77-4372-903c-5a4bb337e9aa","full":2.6},"geometry":{"type":"Polygon","coordinates":[[[136.04424,35.94276],[136.04425,35.94259],[136.04424,35.94258],[136.04396,35.94257],[136.04392,35.94259],[136.04387,35.9426],[136.04387,35.94276],[136.04421,35.94277],[136.04423,35.94277],[136.04424,35.94276]]]}},{"type":"Feature","properties":{"pid":"70788e92-33b5-482a-b760-ef7fa4fb9eb5","full":2.3},"geometry":{"type":"Polygon","coordinates":[[[136.04371,35.94275],[136.04371,35.94241],[136.04354,35.94243],[136.04349,35.94245],[136.04349,35.94269],[136.04357,35.94272],[136.04371,35.94275]]]}},{"type":"Feature","properties":{"pid":"703dde76-dd99-4a97-bb11-5e8e7cd6822c","full":5.0},"geometry":{"type":"Polygon","coordinates":[[[136.04291,35.9425],[136.04245,35.94249],[136.04241,35.94259],[136.04243,35.94272],[136.04256,35.94268],[136.04263,35.94267],[136.04287,35.94266],[136.04311,35.94266],[136.04317,35.94248],[136.04296,35.94249],[136.04291,35.9425]]]}},{"type":"Feature","properties":{"pid":"27a71872-37d0-43b8-aa1e-51da2b8544f9","full":0.6},"geometry":{"type":"Polygon","coordinates":[[[136.04508,35.94485],[136.04506,35.94485],[136.04502,35.94486],[136.04491,35.94496],[136.04499,35.94508],[136.04514,35.945],[136.04516,35.94498],[136.04508,35.94485]]]}},{"type":"Feature","properties":{"pid":"baa162f0-af00-448a-87d9-f4cf841dcd5d","full":1.5},"geometry":{"type":"Polygon","coordinates":[[[136.04523,35.94437],[136.04546,35.94473],[136.04549,35.94472],[136.04551,35.94471],[136.04548,35.94466],[136.04549,35.94465],[136.04559,35.94461],[136.0454,35.94433],[136.04523,35.94437]]]}},{"type":"Feature","properties":{"pid":"3cff115e-288f-4d28-a6ef-01c2843fe02c","full":1.4},"geometry":{"type":"Polygon","coordinates":[[[136.04558,35.94371],[136.04562,35.94379],[136.04586,35.9438],[136.04592,35.94379],[136.04591,35.9437],[136.04598,35.94365],[136.04595,35.94356],[136.04558,35.94371]]]}},{"type":"Feature","properties":{"pid":"9dae96a8-c078-4738-b699-3ba421b16674","full":6.2},"geometry":{"type":"Polygon","coordinates":[[[136.04653,35.94374],[136.0464,35.94389],[136.04629,35.94399],[136.0466,35.94416],[136.04665,35.94408],[136.04673,35.94404],[136.04676,35.94403],[136.04683,35.94401],[136.04691,35.94395],[136.04653,35.94374]]]}},{"type":"Feature","properties":{"pid":"34e609a3-cfd7-461f-a6ac-982880faaac4","full":3.8},"geometry":{"type":"Polygon","coordinates":[[[136.04692,35.94392],[136.04705,35.94377],[136.04671,35.94355],[136.04665,35.9436],[136.04654,35.94371],[136.04692,35.94392]]]}},{"type":"Feature","properties":{"pid":"1e83f460-6742-4b74-bce9-a28cb65e6b48","full":6.1},"geometry":{"type":"Polygon","coordinates":[[[136.04603,35.94451],[136.04602,35.94456],[136.04605,35.94466],[136.0465,35.94484],[136.04653,35.94476],[136.04654,35.94473],[136.04654,35.94462],[136.04603,35.94438],[136.04602,35.94446],[136.04603,35.94451]]]}},{"type":"Feature","properties":{"pid":"b8604ba0-2192-44e6-9a75-027759df354a","full":2.2},"geometry":{"type":"Polygon","coordinates":[[[136.04554,35.94438],[136.0457,35.94462],[136.04592,35.94475],[136.04588,35.94456],[136.04588,35.94447],[136.04562,35.94434],[136.04554,35.94438]]]}},{"type":"Feature","properties":{"pid":"65f8f89f-4861-4e31-9051-824922045a3f","full":1.6},"geometry":{"type":"Polygon","coordinates":[[[136.04604,35.94474],[136.04608,35.94492],[136.04644,35.94493],[136.04649,35.94486],[136.04605,35.94469],[136.04604,35.94474]]]}},{"type":"Feature","properties":{"pid":"5faa541c-aaf5-4e67-a247-0938c102bb9f","full":2.0},"geometry":{"type":"Polygon","coordinates":[[[136.0461,35.94499],[136.04614,35.94523],[136.04631,35.94523],[136.04643,35.94504],[136.0464,35.94501],[136.0461,35.94499]]]}},{"type":"Feature","properties":{"pid":"fe139cb2-8911-4cf6-9a20-046333481ff5","full":0.9},"geometry":{"type":"Polygon","coordinates":[[[136.04596,35.94608],[136.04617,35.94606],[136.04612,35.94585],[136.04596,35.94586],[136.04596,35.94608]]]}},{"type":"Feature","properties":{"pid":"bf944fdc-7906-4758-bac7-6339e9bc8c2e","full":0.9},"geometry":{"type":"Polygon","coordinates":[[[136.04596,35.94629],[136.04617,35.94627],[136.04618,35.94622],[136.04616,35.94608],[136.04597,35.9461],[136.04596,35.94629]]]}},{"type":"Feature","properties":{"pid":"5756a218-7e9b-4fcb-8652-78aaf47db0a3","full":0.8},"geometry":{"type":"Polygon","coordinates":[[[136.04595,35.94583],[136.04612,35.94583],[136.04611,35.94573],[136.04607,35.94551],[136.04595,35.94552],[136.04595,35.94583]]]}},{"type":"Feature","properties":{"pid":"14038bc3-1d5d-4983-993c-9b7da19f59f1","full":1.5},"geometry":{"type":"Polygon","coordinates":[[[136.04602,35.94704],[136.0461,35.9472],[136.04613,35.94724],[136.04618,35.94724],[136.04624,35.94719],[136.0463,35.94717],[136.04631,35.94716],[136.04621,35.94702],[136.0461,35.94691],[136.04608,35.94691],[136.04602,35.947],[136.04603,35.94703],[136.04602,35.94704]]]}},{"type":"Feature","properties":{"pid":"617bb2c2-6e1c-4d3e-b3c3-aff06b2f167a","full":1.5},"geometry":{"type":"Polygon","coordinates":[[[136.04593,35.94651],[136.04594,35.94654],[136.04614,35.94654],[136.04616,35.94648],[136.04617,35.94642],[136.04617,35.9463],[136.04596,35.94631],[136.04593,35.94651]]]}},{"type":"Feature","properties":{"pid":"2f4d2786-fadc-4705-bc76-da45ad5dd157","full":1.8},"geometry":{"type":"Polygon","coordinates":[[[136.0408,35.94318],[136.04085,35.94322],[136.04088,35.94322],[136.04111,35.94304],[136.04115,35.94295],[136.0412,35.94288],[136.04104,35.94279],[136.04102,35.94279],[136.04093,35.94296],[136.0409,35.94306],[136.04087,35.9431],[136.0408,35.94318]]]}},{"type":"Feature","properties":{"pid":"7d4ccc9f-6495-4640-8246-0b86cbcc507c","full":0.9},"geometry":{"type":"Polygon","coordinates":[[[136.04121,35.94264],[136.04108,35.94271],[136.04104,35.94276],[136.04104,35.94275],[136.04117,35.94284],[136.04123,35.94287],[136.04132,35.94278],[136.04133,35.94276],[136.04121,35.94264]]]}},{"type":"Feature","properties":{"pid":"fcb627fb-b45e-48fb-adb3-bc4a6f1a119b","full":3.1},"geometry":{"type":"Polygon","coordinates":[[[136.04151,35.94252],[136.04146,35.94252],[136.04134,35.94256],[136.04122,35.94262],[136.04135,35.94277],[136.04148,35.9428],[136.04151,35.9428],[136.04152,35.94278],[136.04165,35.94259],[136.04165,35.94258],[136.04163,35.94256],[136.04151,35.94252]]]}},{"type":"Feature","properties":{"pid":"fb6cddbd-bdc0-438a-990a-43ffc819139c","full":2.7},"geometry":{"type":"Polygon","coordinates":[[[136.03861,35.9437],[136.03869,35.9437],[136.0388,35.94368],[136.03895,35.94329],[136.03874,35.94328],[136.03861,35.9437]]]}},{"type":"Feature","properties":{"pid":"db7d55a5-6d42-46c6-9abb-080b8dedb882","full":3.0},"geometry":{"type":"Polygon","coordinates":[[[136.03867,35.94327],[136.03847,35.94324],[136.03836,35.94363],[136.03857,35.94365],[136.03867,35.94327]]]}},{"type":"Feature","properties":{"pid":"bfa73286-3a5a-4c1c-9e80-dae1c2d02aca","full":5.2},"geometry":{"type":"Polygon","coordinates":[[[136.03877,35.94273],[136.0386,35.94269],[136.0385,35.94277],[136.03848,35.94282],[136.03837,35.9429],[136.0384,35.94292],[136.03853,35.94296],[136.03849,35.94317],[136.03871,35.94318],[136.03876,35.9428],[136.03877,35.94273]]]}},{"type":"Feature","properties":{"pid":"8139e869-acf0-4cbf-9f08-f313f2211d71","full":1.7},"geometry":{"type":"Polygon","coordinates":[[[136.02488,35.95519],[136.0249,35.95519],[136.02533,35.95491],[136.02534,35.95481],[136.0253,35.9548],[136.02529,35.9549],[136.02497,35.95488],[136.02498,35.95476],[136.02496,35.95476],[136.02488,35.95519]]]}},{"type":"Feature","properties":{"pid":"91e7b433-d1bb-47f1-9849-2944ef3fb0ca","full":1.0},"geometry":{"type":"Polygon","coordinates":[[[136.02535,35.95493],[136.02556,35.95507],[136.0256,35.95483],[136.02536,35.95481],[136.02535,35.95493]]]}},{"type":"Feature","properties":{"pid":"6d9f6dc0-0071-4399-b2af-3b750562bda5","full":5.4},"geometry":{"type":"Polygon","coordinates":[[[136.02501,35.95466],[136.02551,35.9547],[136.02552,35.95469],[136.02555,35.95448],[136.02504,35.95442],[136.02501,35.95466]]]}},{"type":"Feature","properties":{"pid":"f666ea9f-6805-4a2e-b892-c62fdf92db40","full":1.0},"geometry":{"type":"Polygon","coordinates":[[[136.02557,35.95432],[136.02507,35.95427],[136.02505,35.95436],[136.02506,35.95438],[136.02557,35.95443],[136.02557,35.95432]]]}},{"type":"Feature","properties":{"pid":"cc97ea03-a0cb-4b8c-80f9-b61d14712f76","full":2.4},"geometry":{"type":"Polygon","coordinates":[[[136.02625,35.95521],[136.02647,35.95523],[136.02649,35.95512],[136.02655,35.95508],[136.02657,35.95498],[136.02628,35.95494],[136.02625,35.95521]]]}},{"type":"Feature","properties":{"pid":"7cb51f08-7b38-420f-a120-7933dc76879e","full":1.9},"geometry":{"type":"Polygon","coordinates":[[[136.02646,35.95524],[136.02624,35.95523],[136.02617,35.95564],[136.02631,35.95562],[136.02632,35.9556],[136.02634,35.95544],[136.02644,35.95542],[136.02646,35.95524]]]}},{"type":"Feature","properties":{"pid":"e601613f-01fe-4dbc-b5b0-b750c24e7f7b","full":13.5},"geometry":{"type":"Polygon","coordinates":[[[136.02584,35.95567],[136.02615,35.95564],[136.02626,35.95492],[136.02593,35.95488],[136.02584,35.95567]]]}},{"type":"Feature","properties":{"pid":"e51da893-71bf-4211-9f4b-48d90e37ec0d","full":11.7},"geometry":{"type":"Polygon","coordinates":[[[136.02548,35.95534],[136.02549,35.95541],[136.02552,35.95547],[136.02556,35.95554],[136.02563,35.9556],[136.02573,35.95566],[136.02578,35.95567],[136.02581,35.95567],[136.02591,35.95489],[136.02568,35.95487],[136.02564,35.95489],[136.02563,35.95497],[136.02562,35.95511],[136.02565,35.95517],[136.02548,35.95534]]]}},{"type":"Feature","properties":{"pid":"0940a3cd-61d8-4d28-9517-12fec44e1c6e","full":2.8},"geometry":{"type":"Polygon","coordinates":[[[136.03141,35.95617],[136.03114,35.95634],[136.03131,35.95648],[136.03139,35.9564],[136.03153,35.95629],[136.03161,35.95621],[136.03166,35.95618],[136.03156,35.95608],[136.03149,35.95613],[136.03141,35.95617]]]}},{"type":"Feature","properties":{"pid":"1017f6f1-4355-48d2-979a-beba4a38874f","full":0.8},"geometry":{"type":"Polygon","coordinates":[[[136.03097,35.95649],[136.03114,35.95662],[136.03116,35.95658],[136.03121,35.95655],[136.03129,35.9565],[136.03113,35.95638],[136.03097,35.95649]]]}},{"type":"Feature","properties":{"pid":"3a8b12ae-b4ad-4623-b7da-5560a3d33bd0","full":0.7},"geometry":{"type":"Polygon","coordinates":[[[136.03081,35.95662],[136.03099,35.95675],[136.031,35.95672],[136.03111,35.95663],[136.03095,35.95651],[136.03081,35.95662]]]}},{"type":"Feature","properties":{"pid":"24be4721-904c-42ee-af6c-3b18749ff53d","full":1.2},"geometry":{"type":"Polygon","coordinates":[[[136.03064,35.95673],[136.03069,35.95677],[136.0309,35.95691],[136.0309,35.95687],[136.03091,35.95684],[136.03098,35.95676],[136.03079,35.95662],[136.03064,35.95673]]]}},{"type":"Feature","properties":{"pid":"99290e2d-e515-482c-b7d9-ab7bddc4b1aa","full":6.0},"geometry":{"type":"Polygon","coordinates":[[[136.02935,35.95674],[136.02957,35.95678],[136.02991,35.9569],[136.03001,35.95674],[136.02998,35.95674],[136.02992,35.95671],[136.0299,35.95673],[136.02982,35.9567],[136.02983,35.95668],[136.02969,35.95658],[136.02962,35.95651],[136.02956,35.9564],[136.02953,35.95638],[136.02935,35.95674]]]}},{"type":"Feature","properties":{"pid":"8f055ea4-df45-4e82-b0c2-51f5ebf065d9","full":5.3},"geometry":{"type":"Polygon","coordinates":[[[136.02896,35.95682],[136.02911,35.95678],[136.02926,35.95674],[136.0295,35.95624],[136.02944,35.95622],[136.02926,35.95627],[136.02896,35.95682]]]}},{"type":"Feature","properties":{"pid":"3bee4e8b-1e18-4565-9c3a-0d1d4ff49339","full":4.7},"geometry":{"type":"Polygon","coordinates":[[[136.0293,35.95714],[136.02948,35.95723],[136.02951,35.95723],[136.02954,35.95724],[136.02977,35.95696],[136.02945,35.95685],[136.0293,35.95714]]]}},{"type":"Feature","properties":{"pid":"c28693ee-f7f0-4df9-bce0-c4f237b2c1b8","full":11.2},"geometry":{"type":"Polygon","coordinates":[[[136.03015,35.95696],[136.0303,35.95705],[136.03025,35.95713],[136.03036,35.95721],[136.03043,35.95725],[136.03053,35.95727],[136.03062,35.95729],[136.03073,35.9573],[136.03082,35.95733],[136.03095,35.95739],[136.03098,35.95738],[136.03111,35.95724],[136.03026,35.95685],[136.0302,35.95688],[136.03015,35.95696]]]}},{"type":"Feature","properties":{"pid":"98f9eb78-df83-4639-8c47-626e377fe908","full":2.0},"geometry":{"type":"Polygon","coordinates":[[[136.0303,35.95683],[136.03113,35.95721],[136.03119,35.95715],[136.0311,35.95711],[136.03054,35.95676],[136.03043,35.9568],[136.0303,35.95682],[136.0303,35.95683]]]}},{"type":"Feature","properties":{"pid":"ced263bc-ad00-4827-8272-652316c7e601","full":2.1},"geometry":{"type":"Polygon","coordinates":[[[136.02822,35.9566],[136.02835,35.95665],[136.02848,35.95641],[136.02818,35.95636],[136.02814,35.95649],[136.02811,35.95653],[136.02824,35.95657],[136.02822,35.9566]]]}},{"type":"Feature","properties":{"pid":"dfd76a7e-4cd3-4a2a-9143-28ae5421d55e","full":2.3},"geometry":{"type":"Polygon","coordinates":[[[136.02895,35.95682],[136.02925,35.95627],[136.02912,35.95627],[136.0291,35.95628],[136.02907,35.95628],[136.02877,35.95685],[136.02888,35.95684],[136.02895,35.95682]]]}},{"type":"Feature","properties":{"pid":"8d5d1465-595f-407d-a7d9-f3751c8abf2e","full":2.1},"geometry":{"type":"Polygon","coordinates":[[[136.02886,35.95661],[136.02848,35.95646],[136.02839,35.95662],[136.0288,35.95674],[136.02886,35.95661]]]}},{"type":"Feature","properties":{"pid":"1080a212-4190-4f56-a646-430122d179d2","full":2.3},"geometry":{"type":"Polygon","coordinates":[[[136.02886,35.95619],[136.02867,35.95614],[136.02849,35.95645],[136.02867,35.95652],[136.02886,35.95619]]]}},{"type":"Feature","properties":{"pid":"ac3d130f-6e79-4830-aff9-6532ec7f82a6","full":2.9},"geometry":{"type":"Polygon","coordinates":[[[136.02887,35.95661],[136.02907,35.95626],[136.02887,35.9562],[136.02868,35.95654],[136.02887,35.95661]]]}},{"type":"Feature","properties":{"pid":"e4cc9b0e-3dee-4729-90ef-324e6e4978a3","full":4.5},"geometry":{"type":"Polygon","coordinates":[[[136.02819,35.95634],[136.02849,35.9564],[136.02863,35.95614],[136.02837,35.95611],[136.02823,35.95611],[136.02818,35.95625],[136.02819,35.95634]]]}},{"type":"Feature","properties":{"pid":"5974ac3d-ffb6-4c88-9f3f-0acf6692970d","full":2.4},"geometry":{"type":"Polygon","coordinates":[[[136.02798,35.95621],[136.02798,35.95607],[136.02741,35.95605],[136.02741,35.9562],[136.02798,35.95621]]]}},{"type":"Feature","properties":{"pid":"a1b5a3cc-ed3a-43da-8e50-c3f74d52d40f","full":3.0},"geometry":{"type":"Polygon","coordinates":[[[136.02738,35.95631],[136.02737,35.95633],[136.02741,35.95642],[136.02744,35.95647],[136.02751,35.95655],[136.02755,35.95656],[136.02762,35.95655],[136.02785,35.95645],[136.02789,35.95636],[136.02738,35.95631]]]}},{"type":"Feature","properties":{"pid":"4f6de2ab-9fb7-4199-a5d5-f26835008bc0","full":3.5},"geometry":{"type":"Polygon","coordinates":[[[136.02743,35.95584],[136.02746,35.95595],[136.02801,35.95598],[136.02798,35.95583],[136.02796,35.95581],[136.02744,35.95578],[136.02743,35.95584]]]}},{"type":"Feature","properties":{"pid":"d7d08e06-529c-403f-a768-a95ce4c9c0b2","full":0.9},"geometry":{"type":"Polygon","coordinates":[[[136.02747,35.95563],[136.02746,35.95568],[136.02747,35.95573],[136.02769,35.95575],[136.02794,35.95576],[136.02797,35.95575],[136.02796,35.95565],[136.02747,35.95563]]]}},{"type":"Feature","properties":{"pid":"f2e6b0a9-9c44-4c20-b007-8ea2f1c61915","full":1.8},"geometry":{"type":"Polygon","coordinates":[[[136.02792,35.95559],[136.02792,35.95545],[136.02747,35.95543],[136.02746,35.95545],[136.02749,35.95558],[136.02792,35.95559]]]}},{"type":"Feature","properties":{"pid":"3a7733cd-b23c-4806-94b6-dfa856c5dd6b","full":1.0},"geometry":{"type":"Polygon","coordinates":[[[136.02754,35.9554],[136.02791,35.95541],[136.02791,35.95529],[136.02756,35.95528],[136.02754,35.9554]]]}},{"type":"Feature","properties":{"pid":"530d5a08-777b-4e07-a160-87ee3b523e10","full":2.1},"geometry":{"type":"Polygon","coordinates":[[[136.02729,35.9554],[136.02732,35.95533],[136.02731,35.95525],[136.02681,35.95525],[136.02681,35.95527],[136.02688,35.9554],[136.02729,35.9554]]]}},{"type":"Feature","properties":{"pid":"d69dfbb8-d9bc-4af9-8ebd-1472688f330e","full":0.6},"geometry":{"type":"Polygon","coordinates":[[[136.02651,35.95543],[136.02673,35.95538],[136.02661,35.95516],[136.02655,35.95517],[136.02651,35.95543]]]}},{"type":"Feature","properties":{"pid":"f45829ab-37b1-4346-98a7-e33512d2d34d","full":2.2},"geometry":{"type":"Polygon","coordinates":[[[136.02733,35.95522],[136.02729,35.95514],[136.02725,35.95507],[136.02673,35.95506],[136.02675,35.95514],[136.02679,35.95521],[136.02733,35.95522]]]}},{"type":"Feature","properties":{"pid":"70ceff12-6673-492b-bfd3-0d792ce091aa","full":2.3},"geometry":{"type":"Polygon","coordinates":[[[136.02673,35.95503],[136.02724,35.95504],[136.02724,35.95496],[136.02727,35.95489],[136.02671,35.95489],[136.02673,35.95503]]]}},{"type":"Feature","properties":{"pid":"c7e261cc-3cf7-4921-bff1-e39fa6b5c096","full":2.8},"geometry":{"type":"Polygon","coordinates":[[[136.0267,35.95486],[136.0273,35.95486],[136.02731,35.95482],[136.02723,35.95471],[136.0267,35.95471],[136.02669,35.95473],[136.02668,35.95475],[136.0267,35.95486]]]}},{"type":"Feature","properties":{"pid":"c8365a97-c133-4880-84dc-ed7914c544fe","full":1.3},"geometry":{"type":"Polygon","coordinates":[[[136.02678,35.95449],[136.02679,35.9545],[136.02725,35.9545],[136.02726,35.95449],[136.02729,35.95438],[136.02683,35.95437],[136.02678,35.95449]]]}},{"type":"Feature","properties":{"pid":"5b54a1fe-1377-47ab-919c-0c3e63ab8ae4","full":2.4},"geometry":{"type":"Polygon","coordinates":[[[136.02723,35.95468],[136.02723,35.9546],[136.02726,35.95453],[136.02676,35.95453],[136.0267,35.95468],[136.02723,35.95468]]]}},{"type":"Feature","properties":{"pid":"e72aae5d-84dc-4c9a-b5fc-688cbe8f7e7a","full":5.3},"geometry":{"type":"Polygon","coordinates":[[[136.02794,35.9547],[136.02799,35.95445],[136.02764,35.95443],[136.02757,35.95442],[136.02756,35.95444],[136.02753,35.95445],[136.02751,35.95451],[136.02752,35.95459],[136.02757,35.95468],[136.02777,35.95469],[136.02794,35.9547]]]}},{"type":"Feature","properties":{"pid":"04ef7a5a-971f-4d6d-9054-c0c29676e381","full":1.7},"geometry":{"type":"Polygon","coordinates":[[[136.02753,35.95507],[136.02757,35.95521],[136.02796,35.95523],[136.02799,35.9552],[136.02802,35.95516],[136.02802,35.95514],[136.02802,35.95509],[136.02753,35.95507]]]}},{"type":"Feature","properties":{"pid":"176e79b8-0b28-47c6-87f6-ab117bbc83cd","full":1.8},"geometry":{"type":"Polygon","coordinates":[[[136.02803,35.95506],[136.02808,35.95493],[136.02757,35.9549],[136.02755,35.95492],[136.02754,35.95499],[136.02754,35.95504],[136.02803,35.95506]]]}},{"type":"Feature","properties":{"pid":"b3a55576-8650-46cf-8001-3f129cc57098","full":2.2},"geometry":{"type":"Polygon","coordinates":[[[136.02809,35.95489],[136.02812,35.95478],[136.02811,35.95474],[136.02757,35.95471],[136.02759,35.95477],[136.02759,35.95485],[136.02782,35.95487],[136.02809,35.95489]]]}},{"type":"Feature","properties":{"pid":"f3fd8220-6ed8-4fd2-9b88-5f552c7003a8","full":0.9},"geometry":{"type":"Polygon","coordinates":[[[136.02795,35.9547],[136.0281,35.9547],[136.02816,35.95451],[136.02815,35.95445],[136.028,35.95445],[136.02795,35.9547]]]}},{"type":"Feature","properties":{"pid":"49218240-d189-4a12-8693-d1fc129e078a","full":7.3},"geometry":{"type":"Polygon","coordinates":[[[136.02757,35.95417],[136.02753,35.95438],[136.02757,35.95439],[136.02758,35.95441],[136.02813,35.95444],[136.02814,35.95442],[136.02814,35.9543],[136.02811,35.95419],[136.02757,35.95417]]]}},{"type":"Feature","properties":{"pid":"d582676d-8d6b-44a4-b627-22bea5633893","full":0.8},"geometry":{"type":"Polygon","coordinates":[[[136.02932,35.9561],[136.02954,35.95603],[136.02962,35.95591],[136.02936,35.95591],[136.02934,35.95592],[136.0293,35.95608],[136.02932,35.9561]]]}},{"type":"Feature","properties":{"pid":"eb3fe8bd-c4ea-4bc3-a3a5-b99e3621f402","full":1.7},"geometry":{"type":"Polygon","coordinates":[[[136.02968,35.95569],[136.02945,35.95568],[136.02938,35.95573],[136.02936,35.95577],[136.02934,35.95586],[136.02963,35.95587],[136.02968,35.95569]]]}},{"type":"Feature","properties":{"pid":"ae439621-bda6-47b5-a195-cbf6df66c3d3","full":0.5},"geometry":{"type":"Polygon","coordinates":[[[136.02949,35.95563],[136.02946,35.95567],[136.02971,35.95567],[136.02973,35.95556],[136.02968,35.95555],[136.02968,35.95552],[136.02955,35.95552],[136.02952,35.95556],[136.02949,35.95563]]]}},{"type":"Feature","properties":{"pid":"4e4d4fb7-e34b-45c8-92e6-3916e514fd08","full":0.8},"geometry":{"type":"Polygon","coordinates":[[[136.0284,35.95288],[136.02851,35.95296],[136.02853,35.95297],[136.02856,35.95296],[136.0287,35.95285],[136.02855,35.95274],[136.0284,35.95288]]]}},{"type":"Feature","properties":{"pid":"752f37a9-2970-4471-99e9-c0942a7f3d17","full":4.4},"geometry":{"type":"Polygon","coordinates":[[[136.02831,35.95251],[136.02871,35.95282],[136.02885,35.95265],[136.02846,35.95237],[136.02831,35.95251]]]}},{"type":"Feature","properties":{"pid":"e160f954-6daa-49e5-99e3-678a70164c42","full":1.2},"geometry":{"type":"Polygon","coordinates":[[[136.0283,35.9528],[136.02845,35.95266],[136.02827,35.95254],[136.02812,35.95269],[136.0283,35.9528]]]}},{"type":"Feature","properties":{"pid":"713a1981-699b-4752-866f-694e24977f38","full":3.4},"geometry":{"type":"Polygon","coordinates":[[[136.02798,35.95287],[136.02835,35.95313],[136.02848,35.95301],[136.02848,35.953],[136.02811,35.95272],[136.02808,35.95272],[136.02798,35.95287]]]}},{"type":"Feature","properties":{"pid":"6f07ffbf-e851-4f1f-881a-a3018bc9ae94","full":3.4},"geometry":{"type":"Polygon","coordinates":[[[136.02786,35.95307],[136.02816,35.95331],[136.02824,35.95336],[136.02832,35.95318],[136.02794,35.95289],[136.02786,35.95307]]]}},{"type":"Feature","properties":{"pid":"2a59a5af-5fae-4c85-800c-1ef57b6c5f1d","full":3.4},"geometry":{"type":"Polygon","coordinates":[[[136.02778,35.95331],[136.02814,35.95358],[136.02822,35.95341],[136.02786,35.95312],[136.02784,35.95311],[136.02778,35.95331]]]}},{"type":"Feature","properties":{"pid":"49addab2-1d8c-4580-a4a0-3efb62c74a6b","full":3.1},"geometry":{"type":"Polygon","coordinates":[[[136.02806,35.95396],[136.0278,35.95396],[136.02778,35.95397],[136.02775,35.95401],[136.02759,35.95415],[136.0276,35.95415],[136.0281,35.95418],[136.02807,35.95398],[136.02806,35.95396]]]}},{"type":"Feature","properties":{"pid":"aa5efc2d-91ab-4da9-8575-09998aa33571","full":4.5},"geometry":{"type":"Polygon","coordinates":[[[136.02762,35.95348],[136.02805,35.95383],[136.02809,35.95368],[136.02813,35.95361],[136.02776,35.95333],[136.02768,35.95343],[136.02762,35.95348]]]}},{"type":"Feature","properties":{"pid":"83edac48-c894-4301-8e1e-62cf8a05ab7b","full":2.0},"geometry":{"type":"Polygon","coordinates":[[[136.0277,35.95377],[136.02783,35.95368],[136.02759,35.95351],[136.02738,35.95367],[136.02741,35.95369],[136.0277,35.95377]]]}},{"type":"Feature","properties":{"pid":"8b43276b-6c98-4138-a344-152630639049","full":0.6},"geometry":{"type":"Polygon","coordinates":[[[136.02708,35.95431],[136.02729,35.95431],[136.0273,35.95423],[136.02729,35.95416],[136.02708,35.95416],[136.02708,35.95431]]]}},{"type":"Feature","properties":{"pid":"0286962c-933f-4e5d-82a8-897896864751","full":1.8},"geometry":{"type":"Polygon","coordinates":[[[136.02724,35.95398],[136.02732,35.95381],[136.02717,35.95376],[136.02704,35.95385],[136.02699,35.95388],[136.02696,35.95392],[136.02692,35.95398],[136.02724,35.95398]]]}},{"type":"Feature","properties":{"pid":"b331e526-2643-4282-a3ea-76c4c33924b9","full":0.6},"geometry":{"type":"Polygon","coordinates":[[[136.02707,35.95431],[136.02707,35.95416],[136.02686,35.95416],[136.02681,35.95431],[136.02707,35.95431]]]}},{"type":"Feature","properties":{"pid":"4a6dfa0b-59d7-4492-9d1b-fd3356c07fbc","full":0.6},"geometry":{"type":"Polygon","coordinates":[[[136.02687,35.95337],[136.02694,35.95349],[136.02697,35.95352],[136.02713,35.95345],[136.02705,35.9533],[136.02687,35.95337]]]}},{"type":"Feature","properties":{"pid":"1c0155a0-2af4-416f-8f0c-572bce370f97","full":0.6},"geometry":{"type":"Polygon","coordinates":[[[136.02671,35.9531],[136.02677,35.9532],[136.0268,35.95322],[136.027,35.95316],[136.027,35.95313],[136.02696,35.95305],[136.02673,35.95308],[136.02671,35.9531]]]}},{"type":"Feature","properties":{"pid":"4f536e1e-a7be-4388-b065-ffac4f503c71","full":1.4},"geometry":{"type":"Polygon","coordinates":[[[136.02675,35.95303],[136.02689,35.953],[136.02695,35.95298],[136.02693,35.95288],[136.02689,35.95284],[136.02683,35.95283],[136.02672,35.95282],[136.02666,35.95283],[136.02662,35.95285],[136.02675,35.95303]]]}},{"type":"Feature","properties":{"pid":"fbbbb7d7-c4ce-4ec1-ba9d-e3e8dc21d066","full":2.0},"geometry":{"type":"Polygon","coordinates":[[[136.02853,35.95236],[136.02886,35.95261],[136.02895,35.95247],[136.0286,35.95222],[136.02852,35.95232],[136.02855,35.95235],[136.02853,35.95236]]]}},{"type":"Feature","properties":{"pid":"ce320fa8-6ccb-4be5-a620-0f5a1cc80201","full":1.6},"geometry":{"type":"Polygon","coordinates":[[[136.02897,35.9524],[136.02904,35.95227],[136.02872,35.95205],[136.02863,35.95217],[136.02897,35.9524]]]}},{"type":"Feature","properties":{"pid":"7d01cc92-e18f-45ac-90ae-603a25f260db","full":1.8},"geometry":{"type":"Polygon","coordinates":[[[136.02875,35.95203],[136.02906,35.95224],[136.02915,35.9521],[136.02886,35.95189],[136.02875,35.95203]]]}},{"type":"Feature","properties":{"pid":"4b1955ba-a7a5-4b36-9a06-f97efcca655a","full":1.7},"geometry":{"type":"Polygon","coordinates":[[[136.0291,35.95202],[136.02922,35.95185],[136.02902,35.95172],[136.02899,35.95172],[136.02888,35.95187],[136.0291,35.95202]]]}},{"type":"Feature","properties":{"pid":"a55fd215-fca0-40b8-80ac-be02fffefc7f","full":0.6},"geometry":{"type":"Polygon","coordinates":[[[136.02697,35.94933],[136.0271,35.94945],[136.02723,35.94932],[136.02719,35.94929],[136.02707,35.94921],[136.02697,35.94933]]]}},{"type":"Feature","properties":{"pid":"ef160991-0880-49d1-a8e7-73a2328809d7","full":0.6},"geometry":{"type":"Polygon","coordinates":[[[136.02755,35.9497],[136.02765,35.9496],[136.02756,35.94951],[136.02749,35.94948],[136.02738,35.94959],[136.02755,35.9497]]]}},{"type":"Feature","properties":{"pid":"4cdbfcd2-c39a-43b5-ae57-39edb0590598","full":1.0},"geometry":{"type":"Polygon","coordinates":[[[136.02714,35.94946],[136.02717,35.9495],[136.02724,35.94954],[136.02733,35.94958],[136.02745,35.94946],[136.02727,35.94934],[136.02714,35.94946]]]}},{"type":"Feature","properties":{"pid":"c1596981-db69-493f-aae0-0d7fae9aa107","full":1.3},"geometry":{"type":"Polygon","coordinates":[[[136.02873,35.95025],[136.02892,35.95029],[136.02902,35.95021],[136.02895,35.9501],[136.02893,35.95003],[136.02886,35.95],[136.02873,35.95025]]]}},{"type":"Feature","properties":{"pid":"41ce1caa-3f44-49e1-9372-0820cb444e8c","full":1.6},"geometry":{"type":"Polygon","coordinates":[[[136.0285,35.95021],[136.02869,35.95024],[136.02881,35.94998],[136.02863,35.94994],[136.0285,35.95021]]]}},{"type":"Feature","properties":{"pid":"ab7bfab3-5dc1-4224-b446-4900b449abec","full":2.1},"geometry":{"type":"Polygon","coordinates":[[[136.02827,35.95016],[136.02831,35.95018],[136.02847,35.9502],[136.0286,35.94992],[136.02848,35.9499],[136.02839,35.94989],[136.02827,35.95016]]]}},{"type":"Feature","properties":{"pid":"691788c8-30cc-442d-b1a9-c768579d4d1d","full":2.1},"geometry":{"type":"Polygon","coordinates":[[[136.02794,35.95004],[136.02799,35.95008],[136.02802,35.95009],[136.02823,35.95014],[136.02834,35.94991],[136.02815,35.94987],[136.02794,35.95004]]]}},{"type":"Feature","properties":{"pid":"5ec752f6-1123-4dbe-8c93-abea83b7609b","full":1.3},"geometry":{"type":"Polygon","coordinates":[[[136.02774,35.94983],[136.0278,35.94994],[136.02789,35.95001],[136.02806,35.94986],[136.02796,35.9498],[136.02786,35.94972],[136.02774,35.94983]]]}},{"type":"Feature","properties":{"pid":"7dd77402-3d01-4228-b267-90c59d5a5ba7","full":0.8},"geometry":{"type":"Polygon","coordinates":[[[136.02913,35.95108],[136.02942,35.95111],[136.0294,35.95103],[136.02936,35.95096],[136.02914,35.95094],[136.02913,35.95108]]]}},{"type":"Feature","properties":{"pid":"b76ebd1f-dd7b-4cb5-9229-5492958e6fca","full":1.3},"geometry":{"type":"Polygon","coordinates":[[[136.02911,35.95111],[136.02911,35.95126],[136.0294,35.95129],[136.02943,35.9512],[136.02943,35.95114],[136.02911,35.95111]]]}},{"type":"Feature","properties":{"pid":"de328320-0b02-45a1-bc17-62356dc06ac2","full":0.8},"geometry":{"type":"Polygon","coordinates":[[[136.02912,35.9513],[136.02914,35.95142],[136.02941,35.95146],[136.02941,35.95132],[136.02912,35.9513]]]}},{"type":"Feature","properties":{"pid":"df64458b-3fcb-44c9-8e1c-fbb07670abd4","full":4.1},"geometry":{"type":"Polygon","coordinates":[[[136.02902,35.95167],[136.02926,35.95185],[136.0293,35.95186],[136.02941,35.95166],[136.02941,35.95155],[136.02913,35.95148],[136.02902,35.95167]]]}},{"type":"Feature","properties":{"pid":"99bce42e-cd04-4d2c-bf99-78269279f7aa","full":3.1},"geometry":{"type":"Polygon","coordinates":[[[136.041,35.95565],[136.04122,35.95581],[136.04125,35.95581],[136.04148,35.95573],[136.04123,35.9555],[136.04117,35.95553],[136.041,35.95565]]]}},{"type":"Feature","properties":{"pid":"50ce83b4-2feb-4e8c-83e4-19380c6e2457","full":1.5},"geometry":{"type":"Polygon","coordinates":[[[136.04154,35.95569],[136.04156,35.95546],[136.04137,35.95539],[136.04138,35.95537],[136.04126,35.95532],[136.04122,35.95535],[136.04127,35.95547],[136.04152,35.95569],[136.04154,35.95569]]]}},{"type":"Feature","properties":{"pid":"942965d9-2497-4af2-9312-260a08f105ab","full":1.9},"geometry":{"type":"Polygon","coordinates":[[[136.04188,35.95575],[136.04189,35.9556],[136.04165,35.95547],[136.04158,35.95545],[136.04157,35.95569],[136.04168,35.95571],[136.04174,35.9557],[136.0418,35.95574],[136.04188,35.95575]]]}},{"type":"Feature","properties":{"pid":"ffac241a-6367-4365-8ddc-26b10930b89c","full":1.4},"geometry":{"type":"Polygon","coordinates":[[[136.04029,35.95355],[136.04028,35.95334],[136.04017,35.95329],[136.04006,35.95328],[136.04006,35.95347],[136.04024,35.95354],[136.04029,35.95355]]]}},{"type":"Feature","properties":{"pid":"c7368130-694a-4cf8-af4c-a48284f18027","full":1.2},"geometry":{"type":"Polygon","coordinates":[[[136.04033,35.95335],[136.04035,35.95357],[136.04036,35.95359],[136.04049,35.95362],[136.04054,35.95361],[136.0405,35.95335],[136.04033,35.95335]]]}},{"type":"Feature","properties":{"pid":"d5d5b61f-b50f-4ca1-adff-32392086f438","full":1.9},"geometry":{"type":"Polygon","coordinates":[[[136.04163,35.95408],[136.04162,35.9541],[136.04164,35.95418],[136.04166,35.95422],[136.04202,35.95433],[136.04206,35.95431],[136.04208,35.95417],[136.04207,35.95416],[136.04163,35.95408]]]}},{"type":"Feature","properties":{"pid":"f717ef6b-88d1-42b5-85c8-a95b153d00c2","full":1.9},"geometry":{"type":"Polygon","coordinates":[[[136.0415,35.95399],[136.04162,35.95403],[136.04213,35.95412],[136.04214,35.95399],[136.0416,35.9539],[136.04157,35.95391],[136.0415,35.95399]]]}},{"type":"Feature","properties":{"pid":"d759bd77-af4e-4067-8af6-e2dbfb5db558","full":3.1},"geometry":{"type":"Polygon","coordinates":[[[136.04128,35.95384],[136.04139,35.9539],[136.04142,35.95391],[136.04146,35.95391],[136.04138,35.95334],[136.04135,35.95334],[136.04128,35.95336],[136.04118,35.95333],[136.04128,35.95384]]]}},{"type":"Feature","properties":{"pid":"49ab258e-3be8-4e67-90c2-562ee2959420","full":0.7},"geometry":{"type":"Polygon","coordinates":[[[136.04145,35.95351],[136.04149,35.95383],[136.04153,35.95384],[136.04169,35.95364],[136.04145,35.95351]]]}},{"type":"Feature","properties":{"pid":"1a522c44-f48b-4dd7-8187-95be7c104a50","full":0.6},"geometry":{"type":"Polygon","coordinates":[[[136.04145,35.9535],[136.0417,35.95362],[136.04177,35.95353],[136.04144,35.95334],[136.04142,35.95336],[136.04145,35.9535]]]}},{"type":"Feature","properties":{"pid":"4908912f-c5ab-40ec-9352-8527f03d679f","full":3.1},"geometry":{"type":"Polygon","coordinates":[[[136.04124,35.95382],[136.04115,35.95332],[136.04106,35.95332],[136.04096,35.95331],[136.04095,35.9533],[136.04103,35.95372],[136.04103,35.95374],[136.04118,35.95381],[136.04124,35.95382]]]}},{"type":"Feature","properties":{"pid":"23ed1bc1-3366-43f2-a935-128355a6ceb3","full":1.7},"geometry":{"type":"Polygon","coordinates":[[[136.04052,35.95335],[136.04057,35.95362],[136.04074,35.95366],[136.04077,35.95364],[136.04072,35.95337],[136.04068,35.95336],[136.04062,35.95335],[136.04052,35.95335]]]}},{"type":"Feature","properties":{"pid":"91a6dd1e-de8b-47ad-b59c-d3e2ca4dc2c9","full":1.6},"geometry":{"type":"Polygon","coordinates":[[[136.04075,35.95337],[136.0408,35.95366],[136.04099,35.95372],[136.04091,35.9533],[136.04083,35.95335],[136.04075,35.95337]]]}},{"type":"Feature","properties":{"pid":"8640a84b-6f4a-4289-abcf-f5a91daff44d","full":1.0},"geometry":{"type":"Polygon","coordinates":[[[136.04,35.95345],[136.04001,35.95324],[136.03998,35.95321],[136.03981,35.95311],[136.03986,35.95343],[136.03994,35.95345],[136.04,35.95345]]]}},{"type":"Feature","properties":{"pid":"c9ccbdef-b6a6-4820-95fc-5400915ab083","full":3.7},"geometry":{"type":"Polygon","coordinates":[[[136.03981,35.95343],[136.03977,35.9531],[136.03967,35.95308],[136.03952,35.95306],[136.03949,35.95333],[136.03951,35.95334],[136.03981,35.95343]]]}},{"type":"Feature","properties":{"pid":"d342b1b0-2ebe-4a2b-b5cf-4991b12e5c59","full":0.7},"geometry":{"type":"Polygon","coordinates":[[[136.0393,35.95327],[136.03942,35.95333],[136.03944,35.95331],[136.03947,35.95304],[136.03939,35.95299],[136.03935,35.95295],[136.03934,35.95296],[136.0393,35.95327]]]}},{"type":"Feature","properties":{"pid":"55d62977-1d63-4de0-87bb-a3291b1ce9b9","full":0.7},"geometry":{"type":"Polygon","coordinates":[[[136.03912,35.95319],[136.03911,35.95284],[136.03905,35.95287],[136.03893,35.95297],[136.039,35.95313],[136.03901,35.95319],[136.03912,35.95319]]]}},{"type":"Feature","properties":{"pid":"3f951c9f-bd84-4fda-bb0b-72757a10f679","full":0.8},"geometry":{"type":"Polygon","coordinates":[[[136.03914,35.95285],[136.03914,35.95319],[136.03921,35.95324],[136.03924,35.95325],[136.03927,35.95323],[136.03929,35.95293],[136.03923,35.95289],[136.0392,35.95285],[136.03916,35.95284],[136.03914,35.95285]]]}},{"type":"Feature","properties":{"pid":"bbfce8cc-bcc5-4d2d-b800-b644b5642467","full":1.1},"geometry":{"type":"Polygon","coordinates":[[[136.04422,35.95197],[136.04421,35.95212],[136.04448,35.95207],[136.04444,35.95203],[136.04443,35.952],[136.04445,35.95197],[136.04445,35.95194],[136.0444,35.9519],[136.04423,35.95192],[136.04422,35.95197]]]}},{"type":"Feature","properties":{"pid":"585678a7-6dba-4001-b48e-8784ddb63011","full":13.3},"geometry":{"type":"Polygon","coordinates":[[[136.04723,35.95379],[136.04692,35.95371],[136.04691,35.95373],[136.04689,35.95373],[136.04667,35.95432],[136.04702,35.9544],[136.04723,35.95379]]]}},{"type":"Feature","properties":{"pid":"dc298ae5-8d8e-488a-9ee8-015749b24a12","full":11.9},"geometry":{"type":"Polygon","coordinates":[[[136.04687,35.95373],[136.04683,35.95372],[136.04684,35.9537],[136.0466,35.95362],[136.04656,35.95364],[136.04635,35.95424],[136.04666,35.95432],[136.04687,35.95373]]]}},{"type":"Feature","properties":{"pid":"4cc2e21a-d8d9-40cf-a400-f5f124101c8e","full":3.1},"geometry":{"type":"Polygon","coordinates":[[[136.04648,35.95374],[136.04644,35.95373],[136.04646,35.9537],[136.04631,35.95366],[136.04611,35.95418],[136.04628,35.95422],[136.04648,35.95374]]]}},{"type":"Feature","properties":{"pid":"b8db968d-7669-464a-b31b-4a5fbffb1633","full":9.8},"geometry":{"type":"Polygon","coordinates":[[[136.04628,35.95369],[136.04624,35.95368],[136.04626,35.95366],[136.04597,35.95359],[136.04578,35.95408],[136.0461,35.95417],[136.04628,35.95369]]]}},{"type":"Feature","properties":{"pid":"6780331b-4969-4f65-8d03-34f8bde64730","full":1.9},"geometry":{"type":"Polygon","coordinates":[[[136.04563,35.95403],[136.04577,35.95407],[136.04595,35.95361],[136.04591,35.95359],[136.04592,35.95358],[136.04583,35.95356],[136.04579,35.95358],[136.04563,35.95403]]]}},{"type":"Feature","properties":{"pid":"6cb4b147-0201-48a3-8c49-8db9423e65fe","full":3.2},"geometry":{"type":"Polygon","coordinates":[[[136.04517,35.95394],[136.04535,35.95397],[136.04553,35.95349],[136.04548,35.95349],[136.04549,35.95346],[136.04535,35.95342],[136.04517,35.95394]]]}},{"type":"Feature","properties":{"pid":"6082e0d2-fad4-4e71-a752-d67cf7eb00d9","full":7.8},"geometry":{"type":"Polygon","coordinates":[[[136.04488,35.95387],[136.04516,35.95392],[136.04533,35.95345],[136.04531,35.95344],[136.04531,35.9534],[136.04507,35.95335],[136.04488,35.95387]]]}},{"type":"Feature","properties":{"pid":"4fb5a45c-eb8e-47ac-8711-49b600c0d21b","full":4.3},"geometry":{"type":"Polygon","coordinates":[[[136.04535,35.95398],[136.04557,35.95403],[136.04574,35.95356],[136.0457,35.95354],[136.0457,35.95352],[136.04555,35.95348],[136.04535,35.95398]]]}},{"type":"Feature","properties":{"pid":"96cfbb5b-5390-48a3-8a17-2b841a32fabe","full":0.6},"geometry":{"type":"Polygon","coordinates":[[[136.04464,35.95384],[136.04472,35.95386],[136.04475,35.95383],[136.04499,35.95327],[136.04486,35.95325],[136.04463,35.95382],[136.04464,35.95384]]]}},{"type":"Feature","properties":{"pid":"cb6f436e-77f8-4a01-a895-02cb19e0ab6c","full":3.8},"geometry":{"type":"Polygon","coordinates":[[[136.04443,35.95379],[136.04459,35.95383],[136.04491,35.95311],[136.04487,35.95311],[136.04488,35.95308],[136.04475,35.95308],[136.04443,35.95379]]]}},{"type":"Feature","properties":{"pid":"6d23dec5-8796-4f76-8a9a-bd11e36c5c43","full":2.3},"geometry":{"type":"Polygon","coordinates":[[[136.04425,35.95376],[136.0444,35.95379],[136.04461,35.95332],[136.04443,35.95327],[136.04439,35.95338],[136.04425,35.95376]]]}},{"type":"Feature","properties":{"pid":"4bf0658c-e848-4e85-878e-56bd153d94f0","full":1.1},"geometry":{"type":"Polygon","coordinates":[[[136.04444,35.95326],[136.04462,35.95329],[136.0447,35.95311],[136.04468,35.9531],[136.04468,35.95307],[136.04447,35.95308],[136.04446,35.95316],[136.04444,35.95326]]]}},{"type":"Feature","properties":{"pid":"7ea39dcc-aeec-41ad-9174-02b74215ee2d","full":5.6},"geometry":{"type":"Polygon","coordinates":[[[136.0444,35.95267],[136.04446,35.95287],[136.04465,35.95287],[136.04466,35.95302],[136.04498,35.95302],[136.0449,35.95283],[136.04486,35.9528],[136.0448,35.9527],[136.04476,35.95267],[136.0444,35.95267]]]}},{"type":"Feature","properties":{"pid":"8d276ec1-1d70-4fb5-b6c1-4f5c20a2c7c9","full":1.9},"geometry":{"type":"Polygon","coordinates":[[[136.04475,35.95265],[136.04468,35.95254],[136.04466,35.95249],[136.04431,35.95249],[136.0444,35.95267],[136.04474,35.95266],[136.04475,35.95265]]]}},{"type":"Feature","properties":{"pid":"2f093fde-24b2-4ac9-aaa3-15721d07c1d1","full":3.6},"geometry":{"type":"Polygon","coordinates":[[[136.04403,35.95349],[136.04408,35.95349],[136.04414,35.95348],[136.04419,35.95348],[136.04427,35.95321],[136.04412,35.95323],[136.044,35.95322],[136.0439,35.95326],[136.04386,35.95342],[136.04403,35.95349]]]}},{"type":"Feature","properties":{"pid":"2935cd32-a52a-4ee2-972d-1c581392b752","full":0.6},"geometry":{"type":"Polygon","coordinates":[[[136.04173,35.95371],[136.04225,35.95379],[136.04228,35.95366],[136.04193,35.95364],[136.0418,35.95362],[136.04176,35.95366],[136.04173,35.95369],[136.04173,35.95371]]]}},{"type":"Feature","properties":{"pid":"fa5b1d0a-16ca-409c-907c-fed13155b05a","full":2.1},"geometry":{"type":"Polygon","coordinates":[[[136.04172,35.95387],[136.04218,35.95396],[136.04221,35.95382],[136.04172,35.95373],[136.04169,35.95375],[136.04167,35.95378],[136.04166,35.95382],[136.04172,35.95387]]]}},{"type":"Feature","properties":{"pid":"33726e28-cbb6-48f1-b518-6b07dac84697","full":0.6},"geometry":{"type":"Polygon","coordinates":[[[136.04224,35.95413],[136.04274,35.95421],[136.04277,35.9541],[136.04227,35.95402],[136.04224,35.95413]]]}},{"type":"Feature","properties":{"pid":"64d18863-46b2-4f8f-b57e-7113fa7ae0ee","full":1.9},"geometry":{"type":"Polygon","coordinates":[[[136.04228,35.95399],[136.04277,35.95407],[136.04282,35.95393],[136.04232,35.95385],[136.04228,35.95399]]]}},{"type":"Feature","properties":{"pid":"928cba69-106a-4ab8-ad4a-adf6f32a748f","full":7.2},"geometry":{"type":"Polygon","coordinates":[[[136.04282,35.95423],[136.04299,35.95427],[136.04333,35.95433],[136.04341,35.95409],[136.04291,35.95398],[136.04291,35.954],[136.04287,35.954],[136.04282,35.95423]]]}},{"type":"Feature","properties":{"pid":"77369797-bcc5-4e4c-ba5e-55651857ec89","full":2.9},"geometry":{"type":"Polygon","coordinates":[[[136.04346,35.9542],[136.04389,35.95429],[136.04395,35.95411],[136.04353,35.95403],[136.04353,35.95405],[136.04351,35.95405],[136.04346,35.9542]]]}},{"type":"Feature","properties":{"pid":"ffeb02a1-32e7-4bf0-bda4-5e0cb24a9e14","full":2.6},"geometry":{"type":"Polygon","coordinates":[[[136.04353,35.95402],[136.04395,35.9541],[136.04403,35.95387],[136.04374,35.9539],[136.04354,35.9539],[136.04352,35.95399],[136.04354,35.954],[136.04353,35.95402]]]}},{"type":"Feature","properties":{"pid":"e819ef90-1625-48e1-bda4-0b6542aaf66c","full":3.3},"geometry":{"type":"Polygon","coordinates":[[[136.04291,35.95397],[136.04342,35.95408],[136.04347,35.95389],[136.04292,35.95384],[136.04289,35.95395],[136.0429,35.95395],[136.04291,35.95397]]]}},{"type":"Feature","properties":{"pid":"ec08075f-8d9d-49d9-9b5a-f8fa56ca9d18","full":18.5},"geometry":{"type":"Polygon","coordinates":[[[136.04404,35.95446],[136.04442,35.95455],[136.04465,35.95396],[136.04462,35.95395],[136.04462,35.95393],[136.04424,35.95384],[136.04421,35.95385],[136.04402,35.95444],[136.04404,35.95446]]]}},{"type":"Feature","properties":{"pid":"b1281627-ab96-4c40-abdc-915f4ef93406","full":12.6},"geometry":{"type":"Polygon","coordinates":[[[136.04406,35.95529],[136.04437,35.95536],[136.04463,35.95471],[136.0446,35.95471],[136.0446,35.95468],[136.04433,35.95462],[136.04406,35.95529]]]}},{"type":"Feature","properties":{"pid":"e45ef260-8e02-4645-820c-0ab745b05144","full":12.3},"geometry":{"type":"Polygon","coordinates":[[[136.04406,35.95455],[136.04398,35.95455],[136.04395,35.95459],[136.04379,35.95522],[136.04405,35.95528],[136.04431,35.95461],[136.04406,35.95455]]]}},{"type":"Feature","properties":{"pid":"ce4d7617-7062-4451-9caa-b62a3109a668","full":2.3},"geometry":{"type":"Polygon","coordinates":[[[136.0434,35.95437],[136.04384,35.95445],[136.04389,35.9543],[136.04346,35.95421],[136.04346,35.95423],[136.04344,35.95423],[136.0434,35.95437]]]}},{"type":"Feature","properties":{"pid":"d6236480-dd82-47be-9d43-ff05301377e9","full":3.0},"geometry":{"type":"Polygon","coordinates":[[[136.04277,35.95442],[136.04328,35.95452],[136.04331,35.95436],[136.04281,35.95426],[136.04277,35.95442]]]}},{"type":"Feature","properties":{"pid":"b9417ddc-baa5-485e-95e0-3e460245244b","full":1.9},"geometry":{"type":"Polygon","coordinates":[[[136.04264,35.9544],[136.04267,35.95427],[136.0422,35.95418],[136.04217,35.95433],[136.04264,35.9544]]]}},{"type":"Feature","properties":{"pid":"a25e01d8-6cd8-4cf4-b50b-3c44340d64dc","full":6.5},"geometry":{"type":"Polygon","coordinates":[[[136.04239,35.95572],[136.04284,35.95581],[136.04296,35.95538],[136.04294,35.95537],[136.04278,35.95547],[136.04243,35.95556],[136.04238,35.95569],[136.04239,35.95572]]]}},{"type":"Feature","properties":{"pid":"ebda83ad-a27c-41e9-9a45-17707e94463d","full":2.3},"geometry":{"type":"Polygon","coordinates":[[[136.04191,35.95569],[136.04198,35.95578],[136.04213,35.95582],[136.04229,35.95586],[136.04238,35.95559],[136.04234,35.95559],[136.04221,35.95565],[136.04213,35.95566],[136.04204,35.95564],[136.04192,35.95561],[136.04191,35.95569]]]}},{"type":"Feature","properties":{"pid":"38d6ccc6-acea-4b7f-9415-bca5732671de","full":1.6},"geometry":{"type":"Polygon","coordinates":[[[136.04286,35.95583],[136.04237,35.95574],[136.04233,35.95585],[136.04234,35.95587],[136.04255,35.95589],[136.0426,35.95592],[136.04278,35.95597],[136.04282,35.95596],[136.04286,35.95583]]]}},{"type":"Feature","properties":{"pid":"070876f5-2e60-4da4-b2e8-61e2f0df9c10","full":4.3},"geometry":{"type":"Polygon","coordinates":[[[136.04345,35.9558],[136.04297,35.95571],[136.04293,35.956],[136.04303,35.956],[136.04334,35.95593],[136.04343,35.95591],[136.04345,35.9558]]]}},{"type":"Feature","properties":{"pid":"b239080b-40e1-4c78-8e39-7004312a95af","full":9.2},"geometry":{"type":"Polygon","coordinates":[[[136.04297,35.95569],[136.04343,35.95578],[136.04345,35.95578],[136.04347,35.95575],[136.04354,35.95547],[136.04307,35.95538],[136.04306,35.95539],[136.04304,35.95539],[136.04297,35.95569]]]}},{"type":"Feature","properties":{"pid":"1e78e05d-609f-4959-8db6-b8ae089e9230","full":3.8},"geometry":{"type":"Polygon","coordinates":[[[136.04305,35.95535],[136.04306,35.95535],[136.04307,35.95537],[136.04354,35.95545],[136.04355,35.95543],[136.0436,35.95527],[136.04354,35.95524],[136.04333,35.95519],[136.04306,35.9553],[136.04305,35.95535]]]}},{"type":"Feature","properties":{"pid":"c6f413a4-4609-4bc4-9537-668d91a49160","full":14.8},"geometry":{"type":"Polygon","coordinates":[[[136.04413,35.95605],[136.04414,35.95607],[136.04438,35.95613],[136.04446,35.95614],[136.0447,35.95557],[136.0447,35.95555],[136.04435,35.95545],[136.04434,35.95548],[136.0441,35.95604],[136.04413,35.95605]]]}},{"type":"Feature","properties":{"pid":"75519627-f001-4eb3-a366-bf56e3bd1c42","full":9.5},"geometry":{"type":"Polygon","coordinates":[[[136.04357,35.95588],[136.04358,35.95591],[136.0436,35.95595],[136.04376,35.95598],[136.04382,35.95596],[136.04405,35.95538],[136.04377,35.95531],[136.04357,35.95588]]]}},{"type":"Feature","properties":{"pid":"2bae7492-2d69-4e5a-891a-b8fef23cb125","full":8.7},"geometry":{"type":"Polygon","coordinates":[[[136.04384,35.956],[136.04403,35.95604],[136.04408,35.95604],[136.04433,35.95544],[136.04406,35.95539],[136.04383,35.95597],[136.04384,35.95598],[136.04384,35.956]]]}},{"type":"Feature","properties":{"pid":"1973c35d-7550-4062-8e33-7d103f184a52","full":1.6},"geometry":{"type":"Polygon","coordinates":[[[136.04464,35.95621],[136.04465,35.95619],[136.04468,35.95619],[136.04477,35.95595],[136.04468,35.95588],[136.04461,35.95587],[136.04449,35.95616],[136.04464,35.95621]]]}},{"type":"Feature","properties":{"pid":"8f502095-72bb-44a1-bcb3-c1f6d5970b19","full":2.2},"geometry":{"type":"Polygon","coordinates":[[[136.04519,35.95566],[136.04526,35.95582],[136.04536,35.95593],[136.04539,35.95616],[136.0454,35.95617],[136.04556,35.95577],[136.04555,35.95575],[136.04521,35.95565],[136.04519,35.95566]]]}},{"type":"Feature","properties":{"pid":"93ffd24a-37ea-494e-ae40-db05a6716f93","full":0.6},"geometry":{"type":"Polygon","coordinates":[[[136.04543,35.95617],[136.04555,35.95621],[136.04572,35.9558],[136.04559,35.95577],[136.04543,35.95617]]]}},{"type":"Feature","properties":{"pid":"33f5ff39-72e8-424a-9677-3628df2cc3d9","full":10.8},"geometry":{"type":"Polygon","coordinates":[[[136.04526,35.95561],[136.04554,35.95568],[136.0458,35.95503],[136.04553,35.95495],[136.04526,35.95561]]]}},{"type":"Feature","properties":{"pid":"1787e7bf-776c-467c-b6ae-993c0cc1e86c","full":10.8},"geometry":{"type":"Polygon","coordinates":[[[136.04552,35.95494],[136.04523,35.95486],[136.04499,35.95545],[136.04501,35.95545],[136.04506,35.95547],[136.04511,35.95551],[136.04512,35.95555],[136.04519,35.95558],[136.04524,35.95559],[136.04552,35.95494]]]}},{"type":"Feature","properties":{"pid":"d0100f33-f1e2-4518-a43d-0d9f23053c03","full":11.3},"geometry":{"type":"Polygon","coordinates":[[[136.04439,35.95537],[136.04467,35.95544],[136.04492,35.95478],[136.0449,35.95476],[136.04465,35.95469],[136.04439,35.95537]]]}},{"type":"Feature","properties":{"pid":"7f69e757-5d75-4ac8-b7a2-bf0b0f90b03b","full":5.3},"geometry":{"type":"Polygon","coordinates":[[[136.04473,35.95546],[136.04495,35.95545],[136.0452,35.95485],[136.04501,35.9548],[136.04473,35.95546]]]}},{"type":"Feature","properties":{"pid":"ce14cef0-cc3f-41af-a5d8-63461d7bf674","full":18.6},"geometry":{"type":"Polygon","coordinates":[[[136.04452,35.95458],[136.04494,35.95468],[136.04518,35.95407],[136.04476,35.95396],[136.04452,35.95458]]]}},{"type":"Feature","properties":{"pid":"207412dd-f54b-4d62-a59b-cccd2030ad18","full":19.1},"geometry":{"type":"Polygon","coordinates":[[[136.04502,35.9547],[136.04542,35.95482],[136.04543,35.95479],[136.04546,35.95479],[136.04571,35.95419],[136.04528,35.95409],[136.04502,35.9547]]]}},{"type":"Feature","properties":{"pid":"82d2c2e8-a053-4838-a3b4-2d3f5a78d4b1","full":19.0},"geometry":{"type":"Polygon","coordinates":[[[136.04548,35.95483],[136.04587,35.95495],[136.04589,35.95492],[136.04591,35.95491],[136.04616,35.95432],[136.04573,35.95421],[136.04548,35.95483]]]}},{"type":"Feature","properties":{"pid":"cd88f92a-106e-40c1-9b9a-3dd05cb86bbb","full":4.5},"geometry":{"type":"Polygon","coordinates":[[[136.04594,35.95496],[136.04609,35.955],[136.04636,35.95437],[136.04617,35.95433],[136.04593,35.95492],[136.04596,35.95493],[136.04594,35.95496]]]}},{"type":"Feature","properties":{"pid":"0208b079-92b1-4632-96a5-505549927a0b","full":7.5},"geometry":{"type":"Polygon","coordinates":[[[136.04611,35.955],[136.04631,35.95506],[136.04632,35.95503],[136.04636,35.95504],[136.0466,35.95443],[136.04637,35.95438],[136.04611,35.955]]]}},{"type":"Feature","properties":{"pid":"83885bac-458a-4097-8015-e3958eff2349","full":14.1},"geometry":{"type":"Polygon","coordinates":[[[136.04662,35.95514],[136.04694,35.95523],[136.0472,35.9546],[136.04719,35.95458],[136.04687,35.9545],[136.04662,35.95514]]]}},{"type":"Feature","properties":{"pid":"46f3dccd-595e-435c-b844-6b4ccd379dbb","full":8.4},"geometry":{"type":"Polygon","coordinates":[[[136.04636,35.95507],[136.04661,35.95514],[136.04686,35.9545],[136.04662,35.95444],[136.04636,35.95507]]]}},{"type":"Feature","properties":{"pid":"316701b2-23b2-492e-bff5-ec3083618eb1","full":18.4},"geometry":{"type":"Polygon","coordinates":[[[136.04631,35.95588],[136.04661,35.95597],[136.04671,35.95597],[136.04696,35.95533],[136.04655,35.95523],[136.04631,35.95588]]]}},{"type":"Feature","properties":{"pid":"9b7951e0-876c-4bbc-aa70-864dab5abcdf","full":11.6},"geometry":{"type":"Polygon","coordinates":[[[136.04557,35.95568],[136.04572,35.95573],[136.04574,35.95573],[136.04586,35.95576],[136.04612,35.95512],[136.04583,35.95503],[136.04557,35.95568]]]}},{"type":"Feature","properties":{"pid":"931da49b-6298-4248-a0b7-052acd443728","full":5.6},"geometry":{"type":"Polygon","coordinates":[[[136.0459,35.95575],[136.04599,35.95579],[136.046,35.9558],[136.04609,35.95582],[136.04635,35.95517],[136.04615,35.95512],[136.0459,35.95575]]]}},{"type":"Feature","properties":{"pid":"1ed7ca81-1a20-4ecd-b16e-dabfb6b2cda1","full":4.6},"geometry":{"type":"Polygon","coordinates":[[[136.0461,35.95583],[136.04624,35.95587],[136.04629,35.95587],[136.04654,35.95522],[136.04637,35.95517],[136.0461,35.95583]]]}},{"type":"Feature","properties":{"pid":"49d79379-9264-465e-a382-0e233f08be6c","full":16.8},"geometry":{"type":"Polygon","coordinates":[[[136.04605,35.95656],[136.04645,35.95666],[136.04668,35.95604],[136.04632,35.95594],[136.04629,35.95595],[136.04605,35.95656]]]}},{"type":"Feature","properties":{"pid":"e794d254-64f6-4595-9725-7c79e98d9def","full":17.4},"geometry":{"type":"Polygon","coordinates":[[[136.04647,35.95667],[136.04683,35.95676],[136.04687,35.95676],[136.04712,35.95615],[136.04672,35.95604],[136.04647,35.95667]]]}},{"type":"Feature","properties":{"pid":"aa6ffbb4-6305-4bbf-be11-3589023b9326","full":5.4},"geometry":{"type":"Polygon","coordinates":[[[136.04582,35.9565],[136.04602,35.95656],[136.04626,35.95593],[136.04607,35.95589],[136.04582,35.9565]]]}},{"type":"Feature","properties":{"pid":"d0eac11d-2c5c-4c9c-b064-2dbfd4582df8","full":4.6},"geometry":{"type":"Polygon","coordinates":[[[136.04581,35.95649],[136.04605,35.95588],[136.04587,35.95583],[136.04562,35.95645],[136.04578,35.9565],[136.04579,35.95649],[136.04581,35.95649]]]}},{"type":"Feature","properties":{"pid":"b8df410c-1f34-472c-9679-754754d79af1","full":1.7},"geometry":{"type":"Polygon","coordinates":[[[136.04543,35.95619],[136.04535,35.95639],[136.04559,35.95645],[136.04566,35.95625],[136.04543,35.95619]]]}},{"type":"Feature","properties":{"pid":"cbb18cb6-6897-4e62-b078-821305c211a4","full":0.9},"geometry":{"type":"Polygon","coordinates":[[[136.04468,35.95622],[136.04498,35.95629],[136.045,35.95629],[136.0448,35.95597],[136.04478,35.95595],[136.04468,35.95622]]]}},{"type":"Feature","properties":{"pid":"b8e7fed3-4f82-4359-9a91-ff5faf96f0a3","full":0.6},"geometry":{"type":"Polygon","coordinates":[[[136.04962,35.95703],[136.04968,35.95688],[136.04948,35.95683],[136.04943,35.95698],[136.04962,35.95703]]]}},{"type":"Feature","properties":{"pid":"b7229af3-88b2-4f23-919a-dd727f06481a","full":1.3},"geometry":{"type":"Polygon","coordinates":[[[136.04842,35.95661],[136.04886,35.95673],[136.04897,35.95664],[136.04896,35.95663],[136.04847,35.95649],[136.04842,35.95661]]]}},{"type":"Feature","properties":{"pid":"d7c667aa-ca38-4ec5-b0a2-4fac4472f054","full":1.6},"geometry":{"type":"Polygon","coordinates":[[[136.04945,35.95625],[136.04947,35.95621],[136.0495,35.95621],[136.04957,35.95601],[136.04938,35.95596],[136.04928,35.95621],[136.04945,35.95625]]]}},{"type":"Feature","properties":{"pid":"e2347812-81bd-4182-9621-cbcb5bde06db","full":3.5},"geometry":{"type":"Polygon","coordinates":[[[136.04893,35.95654],[136.04905,35.95657],[136.04911,35.95652],[136.04935,35.95595],[136.04918,35.9559],[136.04893,35.95654]]]}},{"type":"Feature","properties":{"pid":"132f4283-18b1-4a6a-8692-1644158b8945","full":16.6},"geometry":{"type":"Polygon","coordinates":[[[136.04853,35.95644],[136.0489,35.95654],[136.04916,35.9559],[136.04879,35.95579],[136.04853,35.95644]]]}},{"type":"Feature","properties":{"pid":"33d6ac48-78c0-49d0-abb1-5c4f7fda0c35","full":7.0},"geometry":{"type":"Polygon","coordinates":[[[136.04813,35.95627],[136.04818,35.95634],[136.04849,35.95643],[136.04861,35.95611],[136.04823,35.95601],[136.04813,35.95627]]]}},{"type":"Feature","properties":{"pid":"545dbb47-bf50-4535-828f-29b002d36241","full":18.7},"geometry":{"type":"Polygon","coordinates":[[[136.04673,35.95598],[136.04696,35.95604],[136.04714,35.95607],[136.04739,35.95544],[136.04697,35.95534],[136.04673,35.95598]]]}},{"type":"Feature","properties":{"pid":"3ed01ae4-ee39-4b0a-b05a-f89ea8908111","full":19.2},"geometry":{"type":"Polygon","coordinates":[[[136.04722,35.9561],[136.04746,35.95617],[136.04764,35.95621],[136.0479,35.95555],[136.04757,35.95546],[136.04754,35.95553],[136.04746,35.95552],[136.04722,35.9561]]]}},{"type":"Feature","properties":{"pid":"95ad8623-fb94-462a-a1eb-fc4df3d5a5b8","full":18.0},"geometry":{"type":"Polygon","coordinates":[[[136.04768,35.95622],[136.04807,35.95632],[136.04833,35.95566],[136.04793,35.95557],[136.04768,35.95622]]]}},{"type":"Feature","properties":{"pid":"a3aa7209-5b3d-4575-9652-2b9dcd6686b1","full":0.8},"geometry":{"type":"Polygon","coordinates":[[[136.0481,35.9555],[136.04836,35.95557],[136.04839,35.9555],[136.04831,35.95544],[136.04829,35.9554],[136.04823,35.9552],[136.0481,35.9555]]]}},{"type":"Feature","properties":{"pid":"1552e9b0-7c40-4c49-af47-44c420bee70d","full":0.8},"geometry":{"type":"Polygon","coordinates":[[[136.0482,35.95512],[136.04814,35.95503],[136.04796,35.95548],[136.04808,35.95551],[136.04822,35.9552],[136.0482,35.95512]]]}},{"type":"Feature","properties":{"pid":"e4471cd3-7926-457e-a038-bc1a9b7c28b2","full":4.8},"geometry":{"type":"Polygon","coordinates":[[[136.04772,35.95542],[136.04793,35.95547],[136.04812,35.95501],[136.04808,35.95496],[136.04802,35.95489],[136.04795,35.95486],[136.04772,35.95542]]]}},{"type":"Feature","properties":{"pid":"1813b74b-5546-4ed3-9b5b-abf2e76a62f3","full":14.4},"geometry":{"type":"Polygon","coordinates":[[[136.04704,35.95519],[136.04751,35.95531],[136.04769,35.95484],[136.04723,35.95475],[136.04704,35.95519]]]}},{"type":"Feature","properties":{"pid":"a6944ebb-ec49-408e-a524-5b5bf24216fa","full":7.3},"geometry":{"type":"Polygon","coordinates":[[[136.04709,35.9544],[136.04762,35.95453],[136.04766,35.9545],[136.04774,35.9543],[136.04717,35.95417],[136.04709,35.9544]]]}},{"type":"Feature","properties":{"pid":"17dd726a-f6d1-4afa-b516-25dad9296383","full":4.3},"geometry":{"type":"Polygon","coordinates":[[[136.0477,35.95541],[136.04794,35.95484],[136.0479,35.95482],[136.04775,35.9548],[136.04754,35.95533],[136.04755,35.95534],[136.04754,35.95538],[136.0477,35.95541]]]}},{"type":"Feature","properties":{"pid":"15af8355-84f7-4438-a531-ff148932b5e2","full":9.9},"geometry":{"type":"Polygon","coordinates":[[[136.04922,35.95454],[136.04928,35.95426],[136.04864,35.95429],[136.04867,35.95462],[136.04906,35.95455],[136.04922,35.95454]]]}},{"type":"Feature","properties":{"pid":"fa1bc073-59b6-4403-b1b8-33333a3c3450","full":5.8},"geometry":{"type":"Polygon","coordinates":[[[136.04902,35.95536],[136.04892,35.95571],[136.04919,35.95579],[136.04933,35.95544],[136.04919,35.95537],[136.04902,35.95536]]]}},{"type":"Feature","properties":{"pid":"2e38c0c5-8cb3-4bbf-8af3-d7f58cce5cc1","full":0.9},"geometry":{"type":"Polygon","coordinates":[[[136.04901,35.95528],[136.04921,35.95529],[136.04922,35.9552],[136.04923,35.95519],[136.04926,35.95517],[136.04926,35.95514],[136.04923,35.95509],[136.04921,35.95507],[136.04916,35.95507],[136.04907,35.95511],[136.04901,35.95528]]]}},{"type":"Feature","properties":{"pid":"d711dd0d-34c8-423b-b9b6-f69c20176806","full":7.6},"geometry":{"type":"Polygon","coordinates":[[[136.04863,35.9561],[136.04876,35.95577],[136.04855,35.95571],[136.04836,35.95568],[136.04824,35.95599],[136.04863,35.9561]]]}},{"type":"Feature","properties":{"pid":"e2b87be9-f8f7-43f8-9e48-c2fe8dd0323e","full":9.3},"geometry":{"type":"Polygon","coordinates":[[[136.04921,35.9558],[136.04953,35.95589],[136.04958,35.95582],[136.04965,35.95583],[136.04978,35.95549],[136.04936,35.95544],[136.04921,35.9558]]]}},{"type":"Feature","properties":{"pid":"e9136925-e866-4731-b142-70187f3f0173","full":8.0},"geometry":{"type":"Polygon","coordinates":[[[136.04924,35.9553],[136.04942,35.95536],[136.04968,35.95539],[136.04986,35.95539],[136.04989,35.95504],[136.0497,35.95502],[136.04972,35.95509],[136.04968,35.95515],[136.04933,35.95511],[136.04929,35.95515],[136.04929,35.95517],[136.0493,35.9552],[136.04926,35.9552],[136.04924,35.9553]]]}},{"type":"Feature","properties":{"pid":"a5c70615-42d9-4b69-b0c5-770ad7cc362a","full":6.5},"geometry":{"type":"Polygon","coordinates":[[[136.04932,35.95509],[136.04968,35.95513],[136.04969,35.95509],[136.04968,35.95505],[136.04969,35.95497],[136.04971,35.95494],[136.04973,35.95484],[136.04977,35.95478],[136.04975,35.95477],[136.04946,35.95474],[136.04945,35.95478],[136.04938,35.95478],[136.04932,35.95509]]]}},{"type":"Feature","properties":{"pid":"60bf4d42-0136-43eb-ba71-95aa71e6efb0","full":8.3},"geometry":{"type":"Polygon","coordinates":[[[136.04995,35.95437],[136.04993,35.95421],[136.04938,35.95426],[136.04933,35.95457],[136.04948,35.95457],[136.04992,35.95439],[136.04995,35.95437]]]}},{"type":"Feature","properties":{"pid":"2aa954fe-8f10-4468-b290-a7804062df24","full":10.5},"geometry":{"type":"Polygon","coordinates":[[[136.04968,35.95386],[136.04973,35.95417],[136.04996,35.95414],[136.05031,35.9541],[136.05032,35.9541],[136.05024,35.95382],[136.0502,35.95379],[136.04968,35.95386]]]}},{"type":"Feature","properties":{"pid":"24061cd6-0f15-4ab4-b3f7-0763d0059019","full":4.3},"geometry":{"type":"Polygon","coordinates":[[[136.04937,35.9539],[136.0494,35.95419],[136.04952,35.95419],[136.04971,35.95417],[136.04967,35.95387],[136.04937,35.9539]]]}},{"type":"Feature","properties":{"pid":"cf286854-de44-43ec-ad96-ff9129361c62","full":2.3},"geometry":{"type":"Polygon","coordinates":[[[136.04998,35.95366],[136.04976,35.95357],[136.04975,35.9536],[136.04966,35.95361],[136.04968,35.95382],[136.05012,35.95377],[136.05011,35.95373],[136.04998,35.95366]]]}},{"type":"Feature","properties":{"pid":"7ec56b15-a2df-4132-a16e-dc86694a14d4","full":1.5},"geometry":{"type":"Polygon","coordinates":[[[136.04967,35.95383],[136.04963,35.95349],[136.0495,35.95353],[136.04951,35.95365],[136.04947,35.95372],[136.04943,35.95377],[136.0494,35.95378],[136.04934,35.95378],[136.04935,35.95388],[136.04967,35.95383]]]}},{"type":"Feature","properties":{"pid":"06136bc8-92d8-44de-b59d-422331c10d84","full":5.8},"geometry":{"type":"Polygon","coordinates":[[[136.04893,35.95422],[136.04927,35.95419],[136.04929,35.95419],[136.04929,35.95412],[136.04927,35.95384],[136.04924,35.95384],[136.04908,35.95389],[136.04897,35.95395],[136.0489,35.95399],[136.04893,35.95422]]]}},{"type":"Feature","properties":{"pid":"75375901-7e54-4eb7-a628-f4fc729d4e23","full":5.9},"geometry":{"type":"Polygon","coordinates":[[[136.04833,35.95407],[136.0483,35.95417],[136.04841,35.95426],[136.04892,35.95422],[136.04889,35.95399],[136.04833,35.95407]]]}},{"type":"Feature","properties":{"pid":"226a0470-e55b-429f-acf2-86fbf4756e36","full":16.3},"geometry":{"type":"Polygon","coordinates":[[[136.04717,35.95417],[136.04768,35.95428],[136.0477,35.95426],[136.04775,35.95426],[136.04787,35.95389],[136.04784,35.95387],[136.04732,35.95374],[136.04717,35.95417]]]}}],"precision":5}