{"type":"FeatureCollection","features":[{"type":"Feature","properties":{"pid":"854e7325-9d17-464c-b37a-4e64820ffb21"},"geometry":{"type":"Polygon","coordinates":[[[136.35391776994382,35.907155629029916],[136.35383250411408,35.90706871671346],[136.35344885089086,35.90714434554898],[136.35349358201088,35.90729840612372],[136.353757583718,35.90722986276674],[136.3538501327822,35.90719059027346],[136.35391776994382,35.907155629029916]]]}},{"type":"Feature","properties":{"pid":"7143e72b-c5e3-42a6-bbde-bff19f173be4"},"geometry":{"type":"Polygon","coordinates":[[[136.3534630014286,35.908104866982924],[136.35347741361537,35.90820215628852],[136.35361457167838,35.908200713785504],[136.353605459397,35.90808770980524],[136.3534630014286,35.908104866982924]]]}},{"type":"Feature","properties":{"pid":"36ef92e1-06f9-4879-8208-d2efac1284dc"},"geometry":{"type":"Polygon","coordinates":[[[136.35359259707803,35.90898530575972],[136.35386446592986,35.90900974751051],[136.3539120707388,35.90873997744878],[136.35377414695728,35.9087204403183],[136.35359259707803,35.90898530575972]]]}},{"type":"Feature","properties":{"pid":"9f9b368b-7034-4079-98f9-21dc782dbc78"},"geometry":{"type":"Polygon","coordinates":[[[136.35319002241886,35.90901651693835],[136.3533650262106,35.909035281234175],[136.35349486095186,35.90882015659433],[136.35328320402408,35.90880692481552],[136.3532073786632,35.90889760319229],[136.35318627861608,35.908950563199404],[136.35319002241886,35.90901651693835]]]}},{"type":"Feature","properties":{"pid":"8d8e46d0-1b86-44c2-9ba7-f980dd90088e"},"geometry":{"type":"Polygon","coordinates":[[[136.353427302821,35.909321291122005],[136.3538152990484,35.90936177657914],[136.35384305525815,35.9091176634407],[136.35352754929093,35.90908879275405],[136.353427302821,35.909321291122005]]]}},{"type":"Feature","properties":{"pid":"97d291b0-8284-452e-a87e-863cf09f7d00"},"geometry":{"type":"Polygon","coordinates":[[[136.35334280030625,35.909500716521414],[136.35406022632552,35.909577908708606],[136.35406993358956,35.90949282599839],[136.3533761833187,35.9094248820538],[136.35334280030625,35.909500716521414]]]}},{"type":"Feature","properties":{"pid":"3edf0694-ee72-42b7-adc6-fdb1f1972479"},"geometry":{"type":"Polygon","coordinates":[[[136.35330402596838,35.909674849377524],[136.35402972568951,35.909747853400084],[136.35403863114718,35.90967835787775],[136.35331364194923,35.90960162155026],[136.35330402596838,35.909674849377524]]]}},{"type":"Feature","properties":{"pid":"340e8388-bca7-459f-96e0-cbef81609a39"},"geometry":{"type":"Polygon","coordinates":[[[136.35328319813334,35.91003767017205],[136.35397721930207,35.91010722295303],[136.35401355607613,35.90986167023957],[136.3532986156903,35.909794762817185],[136.35328319813334,35.91003767017205]]]}},{"type":"Feature","properties":{"pid":"1276e428-12a0-4ac4-8617-849bf807e3ff"},"geometry":{"type":"Polygon","coordinates":[[[136.35327225225186,35.91041390947729],[136.3539243893177,35.910476903336345],[136.35396982072663,35.910211289242206],[136.3532821253681,35.91015447891855],[136.35327225225186,35.91041390947729]]]}},{"type":"Feature","properties":{"pid":"579f93ae-e0a7-4d63-a4c1-04ad12f8247d"},"geometry":{"type":"Polygon","coordinates":[[[136.3531782686848,35.91079005318766],[136.35384607267912,35.91085921972735],[136.35386273898808,35.910847420146766],[136.35389908943998,35.910619695713194],[136.3532453868372,35.91055070986625],[136.35321157708114,35.91068954507385],[136.35318327226838,35.91071894791299],[136.3531782686848,35.91079005318766]]]}},{"type":"Feature","properties":{"pid":"90994309-eb9b-41aa-bdc5-790decac59fb"},"geometry":{"type":"Polygon","coordinates":[[[136.35310953622414,35.91131467785806],[136.3536823960494,35.91136440604922],[136.35374187238236,35.91131676664675],[136.3531147144949,35.91126319775038],[136.35310953622414,35.91131467785806]]]}},{"type":"Feature","properties":{"pid":"77335172-a68a-42f9-9e00-9769374355e9"},"geometry":{"type":"Polygon","coordinates":[[[136.3531315616883,35.911148552817664],[136.35378211430728,35.91121063848355],[136.35382781482753,35.91097784901823],[136.3531646795278,35.91091756170077],[136.3531315616883,35.911148552817664]]]}},{"type":"Feature","properties":{"pid":"0f3337af-20b3-43b5-91e0-c6e1dbeb7d43"},"geometry":{"type":"Polygon","coordinates":[[[136.35307530648873,35.91152990935662],[136.35343570597993,35.911559093372425],[136.3535663799023,35.911460592366694],[136.35309000940543,35.911427591454746],[136.35307530648873,35.91152990935662]]]}},{"type":"Feature","properties":{"pid":"b6ed6f97-7243-4f2a-b415-4ffdd81dfa69"},"geometry":{"type":"Polygon","coordinates":[[[136.35317407169964,35.9120989796117],[136.3533448751592,35.91217170448495],[136.35357276039852,35.91191146142827],[136.3534163807523,35.91184250220551],[136.35317407169964,35.9120989796117]]]}},{"type":"Feature","properties":{"pid":"e60be9f8-dfc9-45e6-b5a2-c1916f545351"},"geometry":{"type":"Polygon","coordinates":[[[136.35302946109357,35.91194320457506],[136.3531408067909,35.91183162964419],[136.3532498960532,35.91172970942798],[136.35307062032737,35.91171753216296],[136.35302946109357,35.91194320457506]]]}},{"type":"Feature","properties":{"pid":"9401f665-7d9a-4788-9179-8605116a8e09"},"geometry":{"type":"Polygon","coordinates":[[[136.35301781205328,35.91245823483922],[136.3530528938671,35.91247395613209],[136.35326479558358,35.912260085232845],[136.35308438770028,35.91219262386936],[136.35305056348864,35.91223088604171],[136.35302893109548,35.912306457402984],[136.35301781205328,35.91245823483922]]]}},{"type":"Feature","properties":{"pid":"e63cca2c-4d2e-4ce7-965e-6950de1d8eea"},"geometry":{"type":"Polygon","coordinates":[[[136.35354274648216,35.91320562414344],[136.35396498399297,35.91339600507515],[136.3540716311,35.91325243644829],[136.35365954241843,35.91306737903229],[136.35354274648216,35.91320562414344]]]}},{"type":"Feature","properties":{"pid":"bbc7299d-e31b-4722-b042-7f249cc7ce2d"},"geometry":{"type":"Polygon","coordinates":[[[136.3533485839994,35.91342239915106],[136.35380526559058,35.91362205726567],[136.35389822836308,35.91348986574755],[136.35346307090703,35.91329313931178],[136.3533485839994,35.91342239915106]]]}},{"type":"Feature","properties":{"pid":"63f4c238-2809-4a4c-94bd-7fb910cfe944"},"geometry":{"type":"Polygon","coordinates":[[[136.35306102492052,35.91422270252121],[136.35338022392366,35.91436447292734],[136.35346389902725,35.91421683395775],[136.35310664653815,35.91405589499394],[136.35306102492052,35.91422270252121]]]}},{"type":"Feature","properties":{"pid":"67b743de-7013-4336-9b0f-8a48ac79fd8a"},"geometry":{"type":"Polygon","coordinates":[[[136.35313879969257,35.91395249423222],[136.35352112733898,35.914120704429685],[136.35361009915908,35.91397580568034],[136.35318434368918,35.91378720295401],[136.35313879969257,35.91395249423222]]]}},{"type":"Feature","properties":{"pid":"7777624b-1d61-42b5-9427-0b53dc653888"},"geometry":{"type":"Polygon","coordinates":[[[136.35322185830574,35.91368447294084],[136.35366452351053,35.91387620674164],[136.35375102830412,35.91372271165315],[136.35329775238236,35.91351590885929],[136.35322185830574,35.91368447294084]]]}},{"type":"Feature","properties":{"pid":"d1b1c7bb-5786-44bd-b257-1ff32757cf14"},"geometry":{"type":"Polygon","coordinates":[[[136.35296948115845,35.91448979393342],[136.35322756430025,35.91460216616357],[136.3533315773654,35.9144622883815],[136.35302741784557,35.91432441357828],[136.35296948115845,35.91448979393342]]]}},{"type":"Feature","properties":{"pid":"ab9a9e10-9380-4f1c-8fd2-da7af79a6afe"},"geometry":{"type":"Polygon","coordinates":[[[136.352775472038,35.915063922335825],[136.35281522546182,35.915065857746605],[136.35289546533988,35.914987039008054],[136.35314464303002,35.9146908487109],[136.35293113812247,35.91459361429996],[136.3528472617387,35.91480266974001],[136.352775472038,35.915063922335825]]]}},{"type":"Feature","properties":{"pid":"a9eaf720-1f40-4486-af64-36b917510566"},"geometry":{"type":"Polygon","coordinates":[[[136.35231400684523,35.91602721166638],[136.3523729725529,35.916042576797544],[136.35252166330432,35.91558643474561],[136.3525159012989,35.91558515648779],[136.35231400684523,35.91602721166638]]]}},{"type":"Feature","properties":{"pid":"123593db-83fe-4d7f-afba-c6b7e35e8626"},"geometry":{"type":"Polygon","coordinates":[[[136.35220443074414,35.91625729423386],[136.35229285583523,35.91628429200638],[136.3523366782489,35.91616869113233],[136.35225769338584,35.916165174414616],[136.35220443074414,35.91625729423386]]]}},{"type":"Feature","properties":{"pid":"cc71da94-82c5-4977-ae61-8120087832a1"},"geometry":{"type":"Polygon","coordinates":[[[136.35188002186038,35.91680955571864],[136.35196846144174,35.916827411317804],[136.35200566886502,35.91673305505064],[136.35194267689837,35.916707066830156],[136.35188002186038,35.91680955571864]]]}},{"type":"Feature","properties":{"pid":"38f6d96d-ac29-4589-bd5d-806841b71afd"},"geometry":{"type":"Polygon","coordinates":[[[136.3517173377811,35.9170358346468],[136.35186129181977,35.91707389593243],[136.35194452048532,35.9169297659969],[136.35180759160104,35.91690510722393],[136.3517173377811,35.9170358346468]]]}},{"type":"Feature","properties":{"pid":"6ed46435-c03c-42e0-bdb2-29db1a816d56"},"geometry":{"type":"Polygon","coordinates":[[[136.35165829799305,35.9188787448266],[136.35181764896996,35.9189139550642],[136.35185813647146,35.918900290288434],[136.35185162951583,35.91874884432092],[136.35168783075918,35.91873076736565],[136.35165829799305,35.9188787448266]]]}},{"type":"Feature","properties":{"pid":"c6ae75df-ae8a-4f4b-bb6b-938746831a2e"},"geometry":{"type":"Polygon","coordinates":[[[136.35168599922739,35.91831609953601],[136.35186709310085,35.91834048286415],[136.35186025948568,35.91788951886223],[136.35178227407923,35.917880304831556],[136.35168599922739,35.91831609953601]]]}},{"type":"Feature","properties":{"pid":"c61daa38-107f-4d96-8d76-f0e550fba785"},"geometry":{"type":"Polygon","coordinates":[[[136.3521549037546,35.91759285122594],[136.35234959858613,35.917603424893],[136.3523787525618,35.91748244304562],[136.35243544458535,35.91736148341719],[136.35233271383166,35.91736298454097],[136.3522829988866,35.917435857988636],[136.35219507843294,35.917439805413316],[136.3521549037546,35.91759285122594]]]}},{"type":"Feature","properties":{"pid":"e67dda60-a600-4218-b5ad-1499e102906d"},"geometry":{"type":"Polygon","coordinates":[[[136.35129919000875,35.9176759061648],[136.35188944403535,35.91777029254113],[136.35189848431054,35.91770349801255],[136.35184716321479,35.91768974670418],[136.3518292613558,35.91765308035294],[136.3519081259352,35.91729022249472],[136.35162253908658,35.91721426524378],[136.35157195144407,35.91726766260681],[136.3515599503299,35.91732005754157],[136.35151137133295,35.91733835649666],[136.35129919000875,35.9176759061648]]]}},{"type":"Feature","properties":{"pid":"9577397e-fb85-4385-bb44-bddc84f0a03e"},"geometry":{"type":"Polygon","coordinates":[[[136.351050840181,35.918184575013875],[136.35110053837835,35.918218426107636],[136.35143169783532,35.918272876461934],[136.351526423423,35.91784647017934],[136.35125240637566,35.91780352335798],[136.351050840181,35.918184575013875]]]}},{"type":"Feature","properties":{"pid":"d13efae9-3346-43b9-9c62-6d64dc35c83e"},"geometry":{"type":"Polygon","coordinates":[[[136.35073929425647,35.91898664417451],[136.35043281885783,35.919742733079566],[136.35034976246044,35.92004109142848],[136.35018157449346,35.92054157021627],[136.35015052187222,35.920665449351354],[136.35016735585165,35.92067484874668],[136.35063642519194,35.92071956085322],[136.35079614089926,35.92072837074706],[136.35081218433302,35.92071623726816],[136.35105810385,35.91902265316634],[136.35073929425647,35.91898664417451]]]}},{"type":"Feature","properties":{"pid":"3c7e9b53-e26d-4ef2-a308-8b3874148bd7"},"geometry":{"type":"Polygon","coordinates":[[[136.35100172352443,35.92073678698276],[136.35101647998673,35.92075560399175],[136.3515459854801,35.92080430638238],[136.35158530400884,35.92061207755708],[136.35177842972183,35.91917609987761],[136.35171295168388,35.91911169473028],[136.351239688413,35.919047562948656],[136.35100172352443,35.92073678698276]]]}},{"type":"Feature","properties":{"pid":"5f7f2b56-5fba-48de-86cb-2eabf0870e44"},"geometry":{"type":"Polygon","coordinates":[[[136.35236299152237,35.91880728723635],[136.35236189979537,35.9189383752606],[136.3524063390675,35.91893950598252],[136.3524026954771,35.918807637840686],[136.35238239873806,35.918794000328916],[136.35236299152237,35.91880728723635]]]}},{"type":"Feature","properties":{"pid":"44aadcf8-5913-4ed3-8e74-c13350b99f5d"},"geometry":{"type":"Polygon","coordinates":[[[136.34985495411036,35.92301264400009],[136.3498665050194,35.92324159383628],[136.34995070882016,35.92375126139436],[136.35038024995004,35.92379332346093],[136.35046679811438,35.9233085704534],[136.35051897624663,35.92287392590323],[136.34987471327938,35.922820892318505],[136.34985495411036,35.92301264400009]]]}},{"type":"Feature","properties":{"pid":"57b33f16-b059-44a1-be63-9ce4c33efed3"},"geometry":{"type":"Polygon","coordinates":[[[136.35072597124395,35.92272587858824],[136.35073851815997,35.92274099271638],[136.351364047649,35.92280781180404],[136.3513580267044,35.92268490821141],[136.3514085019925,35.921837033027025],[136.35152471704478,35.92095326372117],[136.35098476974824,35.92090635699277],[136.35072597124395,35.92272587858824]]]}},{"type":"Feature","properties":{"pid":"2ff2d30d-24b5-4440-a9b2-c6eefe9950c3"},"geometry":{"type":"Polygon","coordinates":[[[136.34988119403587,35.92265318972083],[136.34991029127724,35.9226729011299],[136.35054184514192,35.92272977772528],[136.35078498402828,35.92089070908019],[136.35008805865115,35.92082904127919],[136.35001829365632,35.92127807617903],[136.3499945126795,35.92130731351342],[136.34995114928225,35.921314731775304],[136.3498839623219,35.92168042529077],[136.34986603067065,35.92218768198182],[136.34988119403587,35.92265318972083]]]}},{"type":"Feature","properties":{"pid":"1beefaeb-7a16-4624-8d62-4622d91860d1"},"geometry":{"type":"Polygon","coordinates":[[[136.35458545984045,35.91380286822033],[136.35472737768617,35.913846224796316],[136.35476200462685,35.913768882877385],[136.3547529637731,35.913715598833925],[136.35470114755012,35.9136763393717],[136.35462666206755,35.91367893604061],[136.35458545984045,35.91380286822033]]]}},{"type":"Feature","properties":{"pid":"5392ddfa-5dd7-4e8f-8928-c778b75ec84d"},"geometry":{"type":"Polygon","coordinates":[[[136.35382479387565,35.912892974209164],[136.3542062216604,35.91305427183391],[136.3542384191891,35.91299231956912],[136.35387080016847,35.91283857516125],[136.35382479387565,35.912892974209164]]]}},{"type":"Feature","properties":{"pid":"d4fead80-6bd1-4800-9557-bd76f8f162d3"},"geometry":{"type":"Polygon","coordinates":[[[136.3539513058468,35.91275423751982],[136.3542829895646,35.912897363459145],[136.35437115338456,35.91276317856369],[136.35440389521577,35.91268187223019],[136.35412273787637,35.91255766157023],[136.3539513058468,35.91275423751982]]]}},{"type":"Feature","properties":{"pid":"840658ae-b712-40b0-9a6b-11f8beddc8c2"},"geometry":{"type":"Polygon","coordinates":[[[136.3547136748878,35.91190440291706],[136.3547849235009,35.911929722192255],[136.35484871855752,35.91179022952651],[136.3547136748878,35.91190440291706]]]}},{"type":"Feature","properties":{"pid":"90748651-bae1-4005-b161-261e552b5c51"},"geometry":{"type":"Polygon","coordinates":[[[136.35444507226396,35.912153314921824],[136.35466029798758,35.91224810220656],[136.35474199803468,35.91203711290742],[136.3546227501642,35.91198778833016],[136.35444507226396,35.912153314921824]]]}},{"type":"Feature","properties":{"pid":"0973f54b-dc4f-469a-9094-3e1a1b0da1a4"},"geometry":{"type":"Polygon","coordinates":[[[136.35420139848085,35.912455479242674],[136.35446047313397,35.912576258811015],[136.35459872669648,35.91234490582221],[136.35439784616648,35.91225611003468],[136.35420139848085,35.912455479242674]]]}},{"type":"Feature","properties":{"pid":"ac57acc4-4408-4a21-a883-c957976e529e"},"geometry":{"type":"Polygon","coordinates":[[[136.35388761452097,35.91144533260827],[136.35399268014578,35.91153152766357],[136.35417229812134,35.9113808792126],[136.35395839051583,35.911359390122165],[136.3539398511677,35.91140506701791],[136.35388761452097,35.91144533260827]]]}},{"type":"Feature","properties":{"pid":"0a3db39a-4881-47da-8ab7-130ba8bb21d2"},"geometry":{"type":"Polygon","coordinates":[[[136.3539976895782,35.9112439236758],[136.3542940903141,35.9112679182286],[136.35442843109317,35.91114941395539],[136.35443304396833,35.91109167347616],[136.35449651339513,35.9110341697709],[136.3540350103856,35.91098722955077],[136.3539976895782,35.9112439236758]]]}},{"type":"Feature","properties":{"pid":"19a06bae-2f9d-4f2b-898f-7dad43c1c003"},"geometry":{"type":"Polygon","coordinates":[[[136.35404673508853,35.910876103427164],[136.3546016577037,35.91093419490911],[136.3547797785815,35.910757221564964],[136.35480428285885,35.910707139361364],[136.3540872884354,35.91063848461761],[136.35404673508853,35.910876103427164]]]}},{"type":"Feature","properties":{"pid":"34ad4c3c-1692-4166-a84f-5a028bd0e36e"},"geometry":{"type":"Polygon","coordinates":[[[136.3541551818464,35.91011148761174],[136.3548630568363,35.910186868427104],[136.35490899059772,35.90993597419445],[136.35419524488026,35.909874981777776],[136.3541551818464,35.91011148761174]]]}},{"type":"Feature","properties":{"pid":"38fa299f-a667-4f35-b16a-06a83ab37be9"},"geometry":{"type":"Polygon","coordinates":[[[136.35409729593815,35.91050516017167],[136.35481404076643,35.910566770606415],[136.35485965403808,35.91030152721206],[136.35414235808238,35.910229979080654],[136.35409729593815,35.91050516017167]]]}},{"type":"Feature","properties":{"pid":"22ec20f2-9a26-4ad8-bb3f-50bca032edc2"},"geometry":{"type":"Polygon","coordinates":[[[136.3551036863145,35.909962208112034],[136.35504906936742,35.91035454441505],[136.3551832352918,35.910374923320845],[136.3555119328663,35.910004726262336],[136.3551036863145,35.909962208112034]]]}},{"type":"Feature","properties":{"pid":"0056b4b2-7c9f-4ef3-bd79-b9b4d828404b"},"geometry":{"type":"Polygon","coordinates":[[[136.3562681830239,35.9073488313175],[136.35698859446217,35.908140170115814],[136.35700029371364,35.90747301712217],[136.3566982692146,35.907170586784176],[136.3562681830239,35.9073488313175]]]}},{"type":"Feature","properties":{"pid":"cb369ebb-7305-4bda-8dd0-02179a23dd78"},"geometry":{"type":"Polygon","coordinates":[[[136.3553029453158,35.9090929399935],[136.35556858126233,35.909110580686104],[136.35534287419256,35.908845474055376],[136.3553029453158,35.9090929399935]]]}},{"type":"Feature","properties":{"pid":"49cb97a4-7c21-4b66-af88-48f71193b68f"},"geometry":{"type":"Polygon","coordinates":[[[136.35514389294192,35.90970910190065],[136.35569518134164,35.90976547277149],[136.35577897390016,35.90966376185431],[136.35515792087156,35.90960677623271],[136.35514389294192,35.90970910190065]]]}},{"type":"Feature","properties":{"pid":"8ab491da-fa8f-4011-b6af-78b641ad73f5"},"geometry":{"type":"Polygon","coordinates":[[[136.35518147658036,35.90949857683833],[136.355832286237,35.909567736711786],[136.35584087916033,35.90954574507544],[136.35583606877216,35.90948263030388],[136.35579783395178,35.909393754742986],[136.35520287438368,35.909348141370344],[136.35518147658036,35.90949857683833]]]}},{"type":"Feature","properties":{"pid":"a96b6b1b-874f-410e-832a-17eaf6b9bd3d"},"geometry":{"type":"Polygon","coordinates":[[[136.3545947888253,35.909433918593564],[136.3550034926246,35.90947689395402],[136.35504074333636,35.909216552619455],[136.35462425769504,35.909176761128826],[136.3545947888253,35.909433918593564]]]}},{"type":"Feature","properties":{"pid":"ed5b2e93-a7d4-4ce4-8247-9a71c6f253b2"},"geometry":{"type":"Polygon","coordinates":[[[136.35422050328273,35.90976222680772],[136.35492744418679,35.90983129182291],[136.3549309310355,35.909713995759205],[136.35496255388975,35.90958567927805],[136.35424915332308,35.909522147522885],[136.35422050328273,35.90976222680772]]]}},{"type":"Feature","properties":{"pid":"a266309d-f872-42da-8d8c-f18ec1597f53"},"geometry":{"type":"Polygon","coordinates":[[[136.35399683034083,35.90934634328476],[136.35414537426084,35.90935922910453],[136.35416343083446,35.90929059198212],[136.35400176134365,35.90928716198249],[136.35399683034083,35.90934634328476]]]}},{"type":"Feature","properties":{"pid":"fcd3b227-4167-489e-90c5-0dfcfd5f8d7a"},"geometry":{"type":"Polygon","coordinates":[[[136.35402142412116,35.909123869493456],[136.35402082729,35.909182510805444],[136.3541644882341,35.909189398725005],[136.3541649333686,35.90912972580491],[136.35402142412116,35.909123869493456]]]}},{"type":"Feature","properties":{"pid":"903d7250-ac7f-4618-934c-01d6dab76e36"},"geometry":{"type":"Polygon","coordinates":[[[136.3543998369172,35.90901600513606],[136.354542574613,35.90902645350586],[136.35460071868644,35.90846238131814],[136.3544747855944,35.908455022349955],[136.3543998369172,35.90901600513606]]]}},{"type":"Feature","properties":{"pid":"a7d48170-c8e6-488e-b81f-92223c9d9418"},"geometry":{"type":"Polygon","coordinates":[[[136.35472798188346,35.90904037059639],[136.3549249484493,35.909059229438995],[136.35499857957302,35.90849413183562],[136.35480351477364,35.90848816274382],[136.35472798188346,35.90904037059639]]]}},{"type":"Feature","properties":{"pid":"7e6ec540-8b0c-472a-b863-fb45c76a3d20"},"geometry":{"type":"Polygon","coordinates":[[[136.35408071431308,35.908814676792566],[136.3542927533511,35.908812291306795],[136.35434967734915,35.90840236354085],[136.35432756135677,35.908384802532524],[136.35424187116692,35.90843866112977],[136.35413069396395,35.90847707826754],[136.35412365554194,35.90859509537265],[136.35408071431308,35.908814676792566]]]}},{"type":"Feature","properties":{"pid":"be741fa3-1fc1-4d74-ad12-96384738fc78"},"geometry":{"type":"Polygon","coordinates":[[[136.3544883620122,35.90831502206857],[136.35457348890074,35.90832068104053],[136.35460667955286,35.90796546354553],[136.35454797151368,35.90790089421089],[136.3544883620122,35.90831502206857]]]}},{"type":"Feature","properties":{"pid":"fb4c86db-434b-454e-8415-259e49c83979"},"geometry":{"type":"Polygon","coordinates":[[[136.35417771285307,35.90811226506631],[136.35435943587734,35.90824150166206],[136.35440625375043,35.90789969842444],[136.35421049412426,35.907899430208765],[136.35417771285307,35.90811226506631]]]}},{"type":"Feature","properties":{"pid":"47cf8a34-e6b7-4f13-8814-ab89918eb5c4"},"geometry":{"type":"Polygon","coordinates":[[[136.35389251823744,35.90797031462897],[136.35405051352703,35.90803043548294],[136.35406809194725,35.907893698636826],[136.35388909252333,35.90788672824356],[136.35389251823744,35.90797031462897]]]}},{"type":"Feature","properties":{"pid":"76a52e3f-f9ac-4494-8a38-2202ee8781ee"},"geometry":{"type":"Polygon","coordinates":[[[136.35391687396796,35.90744367064466],[136.35392643379112,35.90774777331854],[136.354102389995,35.907751227485896],[136.3541541142613,35.90740275207566],[136.35407363690277,35.90733699632295],[136.35395883815468,35.90740678103105],[136.35391687396796,35.90744367064466]]]}},{"type":"Feature","properties":{"pid":"5fb19a2e-39fb-4e5d-83ea-f5e6b0c4b7d9"},"geometry":{"type":"Polygon","coordinates":[[[136.35423355653796,35.907752853353784],[136.3544089177945,35.90774952449939],[136.35441400033193,35.9076943799451],[136.35426242379523,35.907516878735095],[136.35423355653796,35.907752853353784]]]}},{"type":"Feature","properties":{"pid":"4938a689-3f61-4754-8497-c9f1ca6c0c10"},"geometry":{"type":"Polygon","coordinates":[[[136.35473244130154,35.908096992756015],[136.35470867499083,35.90833017501546],[136.35495447557668,35.90834482689648],[136.35494831069147,35.90833638632346],[136.35473244130154,35.908096992756015]]]}},{"type":"Feature","properties":{"pid":"134a2452-7abe-4ab0-99ad-1c7503e3dd35"},"geometry":{"type":"Polygon","coordinates":[[[136.35614606199508,35.907495547648914],[136.35610167691163,35.90789759622433],[136.35621786499703,35.90814564290229],[136.3565155742565,35.908411176933186],[136.3567942296128,35.90826337052459],[136.3568073756397,35.90822505497882],[136.35614606199508,35.907495547648914]]]}},{"type":"Feature","properties":{"pid":"7c898e94-af73-4cb3-a4ea-66cf96f69045"},"geometry":{"type":"Polygon","coordinates":[[[136.35569001686068,35.90705539318254],[136.3556162726398,35.90743832852409],[136.35569104608393,35.90760872043587],[136.3557959364163,35.90775313091781],[136.35588116933803,35.9071928462858],[136.35569001686068,35.90705539318254]]]}}]}