{"type":"FeatureCollection","features":[{"type":"Feature","properties":{"pid":"ac11b76b-9570-4a07-a947-da34a9fd5905"},"geometry":{"type":"Polygon","coordinates":[[[135.73366970295612,35.52850593948961],[135.73377108165477,35.5279636015086],[135.73373787474094,35.52796209920411],[135.73361875301018,35.528494459865996],[135.73366970295612,35.52850593948961]]]}},{"type":"Feature","properties":{"pid":"b1b26884-28ee-4a57-804e-6ee23ac0ad85"},"geometry":{"type":"Polygon","coordinates":[[[135.7339206059935,35.52798192112012],[135.73381441046018,35.52852792471541],[135.7338326662545,35.52852959667816],[135.73394203129655,35.52799149600308],[135.7339206059935,35.52798192112012]]]}},{"type":"Feature","properties":{"pid":"fc6f9034-38d4-4337-b165-404b4f4ba74d"},"geometry":{"type":"Polygon","coordinates":[[[135.73423566955893,35.52860145556944],[135.73425293578063,35.52852206682612],[135.73428262723513,35.528495992703306],[135.73436721364922,35.52829689841009],[135.73438684835386,35.5280932571456],[135.73429888706752,35.528081426581714],[135.734180631739,35.52859004687714],[135.73423566955893,35.52860145556944]]]}},{"type":"Feature","properties":{"pid":"890fba8c-6ba3-43c5-a396-2c7c7537bc46"},"geometry":{"type":"Polygon","coordinates":[[[135.7331617102378,35.528186683687466],[135.73322356316004,35.52791436618427],[135.73319770603635,35.52791019673854],[135.73314170711586,35.52817761815268],[135.7331617102378,35.528186683687466]]]}},{"type":"Feature","properties":{"pid":"451cab79-3e2c-49d6-baec-5556ec49d897"},"geometry":{"type":"Polygon","coordinates":[[[135.73356853417528,35.52795742337344],[135.73347424145817,35.52839396202228],[135.73348909656542,35.52840706073096],[135.7335836949212,35.52795614272033],[135.73356853417528,35.52795742337344]]]}},{"type":"Feature","properties":{"pid":"a31ffa10-8e23-4db9-9d55-93cb42ac575d"},"geometry":{"type":"Polygon","coordinates":[[[135.73334899838713,35.52827069527686],[135.73343090452425,35.527929333476195],[135.73336588589777,35.52793527791921],[135.7332926300135,35.52824107899318],[135.73334899838713,35.52827069527686]]]}},{"type":"Feature","properties":{"pid":"8ee4e169-629c-4d51-a6d6-6f32f2f8a9d2"},"geometry":{"type":"Polygon","coordinates":[[[135.7385099926259,35.536222762658745],[135.73857859756157,35.5360417342618],[135.73798885685667,35.53581484837364],[135.73789402872663,35.53606095439511],[135.7385099926259,35.536222762658745]]]}},{"type":"Feature","properties":{"pid":"4a7ec5e8-05e3-4f2a-b879-fa27f3314a67"},"geometry":{"type":"Polygon","coordinates":[[[135.74008029694969,35.53671861473241],[135.74032580427377,35.53647442846167],[135.7400990207835,35.536443567743355],[135.7395416439585,35.53632491557239],[135.7394521640457,35.53655692196781],[135.74008029694969,35.53671861473241]]]}},{"type":"Feature","properties":{"pid":"a9c8fbdb-60e1-40d8-9908-899e2990fd89"},"geometry":{"type":"Polygon","coordinates":[[[135.73874888084404,35.53616633404696],[135.73869883318196,35.53627160010267],[135.73933696360865,35.53643194027469],[135.73938803929823,35.53629458709019],[135.73875624564243,35.5361083899434],[135.73874888084404,35.53616633404696]]]}},{"type":"Feature","properties":{"pid":"10138fe0-c662-4589-8c41-bf2c8aef0b84"},"geometry":{"type":"Polygon","coordinates":[[[135.7386616366593,35.53637094257573],[135.73861181444445,35.536507606166275],[135.73924360344193,35.5366663030727],[135.73929744419254,35.53652501321164],[135.7386616366593,35.53637094257573]]]}},{"type":"Feature","properties":{"pid":"df4cd423-1111-4873-a43d-8295ce37aaca"},"geometry":{"type":"Polygon","coordinates":[[[135.7385776550192,35.536605600737886],[135.73857115294484,35.53662321793119],[135.7391973070936,35.53678803223464],[135.73920733779954,35.53676176440348],[135.7385776550192,35.536605600737886]]]}},{"type":"Feature","properties":{"pid":"7d5ca9e4-2e56-40c1-8383-13d3f8667cee"},"geometry":{"type":"Polygon","coordinates":[[[135.73853792864983,35.53672696175468],[135.7384693220788,35.53697787813444],[135.73904979671534,35.537126731220695],[135.73915683683143,35.53688521465532],[135.73853792864983,35.53672696175468]]]}},{"type":"Feature","properties":{"pid":"c29b711f-fb5d-4575-8e7b-765d2913e508"},"geometry":{"type":"Polygon","coordinates":[[[135.73985161576792,35.53694761935083],[135.73999788097268,35.53680116650817],[135.73941575388562,35.536652874860195],[135.73935001838584,35.53682421322163],[135.73985161576792,35.53694761935083]]]}},{"type":"Feature","properties":{"pid":"731d5ab2-d40f-400e-afd6-80b35b7c1293"},"geometry":{"type":"Polygon","coordinates":[[[135.73967822994132,35.537278892745675],[135.73970356018373,35.53713001213153],[135.7392719415037,35.537026735109414],[135.739220340609,35.537169330091764],[135.73967822994132,35.537278892745675]]]}},{"type":"Feature","properties":{"pid":"80077f51-5a74-4a9e-b55b-1f3fca8fb463"},"geometry":{"type":"Polygon","coordinates":[[[135.73969727540072,35.53741310482205],[135.73969632651986,35.53739398543182],[135.73918519223855,35.5372731509543],[135.73917803057338,35.53729166162606],[135.73969727540072,35.53741310482205]]]}},{"type":"Feature","properties":{"pid":"62721a35-cedf-488d-b6e8-d68c4173eb1d"},"geometry":{"type":"Polygon","coordinates":[[[135.7396707315183,35.5375106189911],[135.739145349626,35.53738928249558],[135.73912973163377,35.53743038715964],[135.73969473350778,35.53756233012453],[135.73969405285587,35.53753487815473],[135.7396707315183,35.5375106189911]]]}},{"type":"Feature","properties":{"pid":"c3b6c84d-6fd7-4111-af91-c7560042ab9d"},"geometry":{"type":"Polygon","coordinates":[[[135.73905701585272,35.53769564277373],[135.73966321680535,35.53784001088051],[135.73970030165654,35.53768838908895],[135.73968436281734,35.537670379491296],[135.73908537554482,35.537528127806816],[135.73905522668085,35.537627495178306],[135.73905701585272,35.53769564277373]]]}},{"type":"Feature","properties":{"pid":"c46788cf-694f-4b1f-bf3e-6dbbf108e478"},"geometry":{"type":"Polygon","coordinates":[[[135.73893799623937,35.53737042663547],[135.73898294621867,35.53724346478486],[135.73843799537806,35.537106048996534],[135.73839736215632,35.537222576052116],[135.73893799623937,35.53737042663547]]]}},{"type":"Feature","properties":{"pid":"0ea89f07-2c2f-400f-b3be-d6c6ab4c9e81"},"geometry":{"type":"Polygon","coordinates":[[[135.73889372042996,35.537492546062396],[135.7389078430461,35.53746226499326],[135.738357551029,35.53732171844058],[135.738353424775,35.53734788339643],[135.73889372042996,35.537492546062396]]]}},{"type":"Feature","properties":{"pid":"5a408975-8076-441b-88ff-97753b3589e2"},"geometry":{"type":"Polygon","coordinates":[[[135.7377770832419,35.53735472522011],[135.7379560048119,35.537378787466295],[135.73800057044994,35.537319006217864],[135.73808877496597,35.53733300318152],[135.73817610030264,35.53715347910421],[135.7376961384431,35.53702569670876],[135.73772326863966,35.53729220549267],[135.73773888138328,35.537328263814466],[135.7377770832419,35.53735472522011]]]}},{"type":"Feature","properties":{"pid":"6f5bb702-5431-4c04-be43-905a10c5894e"},"geometry":{"type":"Polygon","coordinates":[[[135.7382076542323,35.53703070568828],[135.73827453085997,35.53686803843618],[135.73761284927858,35.53671291684296],[135.7375004375118,35.536838093386784],[135.7382076542323,35.53703070568828]]]}},{"type":"Feature","properties":{"pid":"57541033-5522-4f91-a454-835affd01a55"},"geometry":{"type":"Polygon","coordinates":[[[135.73785322241463,35.53615839284357],[135.7378298016479,35.536213947182034],[135.73846709848488,35.53636950023504],[135.7384832914396,35.536326996219586],[135.73785322241463,35.53615839284357]]]}},{"type":"Feature","properties":{"pid":"f5703bf2-7068-4883-8d80-474324408b62"},"geometry":{"type":"Polygon","coordinates":[[[135.7377969582476,35.53630776685038],[135.73776028269072,35.53641164188757],[135.73838590546788,35.536569299943714],[135.7384284530526,35.53646365062338],[135.7377969582476,35.53630776685038]]]}},{"type":"Feature","properties":{"pid":"2f9a5ce3-9d1c-4aa4-b337-e83c885ebfe4"},"geometry":{"type":"Polygon","coordinates":[[[135.73829725686636,35.5367586453947],[135.73831287810532,35.53671693433743],[135.73769972163282,35.5365694955062],[135.7376843256304,35.536609305785525],[135.73829725686636,35.5367586453947]]]}},{"type":"Feature","properties":{"pid":"8441da9f-5a54-4b1a-b7a3-f35165f7b18b"},"geometry":{"type":"Polygon","coordinates":[[[135.7371922302537,35.53645315225393],[135.73715321351276,35.53648619046205],[135.73751048098237,35.536575108318715],[135.73753004839094,35.5365385958649],[135.7371922302537,35.53645315225393]]]}},{"type":"Feature","properties":{"pid":"7e878e11-1a6b-4df9-a097-79fc9dabd0eb"},"geometry":{"type":"Polygon","coordinates":[[[135.7372705020877,35.53688237261841],[135.7374455833451,35.5366686326762],[135.737041663255,35.536571378609096],[135.73691925307008,35.536655165220495],[135.7372705020877,35.53688237261841]]]}},{"type":"Feature","properties":{"pid":"9f68b7f1-4a97-4af4-b6db-a93c1dfb7103"},"geometry":{"type":"Polygon","coordinates":[[[135.73693775628652,35.53593126342014],[135.7368953341203,35.53607838409859],[135.73695260019997,35.536192852562536],[135.73759043273571,35.53635107851661],[135.73768948693385,35.53611214818017],[135.73693775628652,35.53593126342014]]]}},{"type":"Feature","properties":{"pid":"a76c0b5f-cc22-4993-b081-1c86a5d5c30f"},"geometry":{"type":"Polygon","coordinates":[[[135.73697019172675,35.53538636627135],[135.73698493060851,35.53554931726911],[135.73696929284662,35.53581513321619],[135.7377189071687,35.53600925874909],[135.7378281092607,35.535740602312735],[135.73697019172675,35.53538636627135]]]}},{"type":"Feature","properties":{"pid":"a8045119-84e8-4786-bc23-0efbccb612c4"},"geometry":{"type":"Polygon","coordinates":[[[135.7260489795481,35.5327274363522],[135.72649934705584,35.532696973095526],[135.7264949165133,35.53263482006347],[135.72607332788914,35.53266818414163],[135.7260489795481,35.5327274363522]]]}},{"type":"Feature","properties":{"pid":"17d6fecf-72f9-485b-a3de-06a32f3d8770"},"geometry":{"type":"Polygon","coordinates":[[[135.7268627258293,35.532088233525236],[135.72716738069107,35.53206672721917],[135.7271696283251,35.5320070558839],[135.72689410388242,35.532021448691985],[135.7268627258293,35.532088233525236]]]}},{"type":"Feature","properties":{"pid":"e7891c24-0ba7-4c59-badb-89cf1e69b8bc"},"geometry":{"type":"Polygon","coordinates":[[[135.72678944600315,35.532399153056055],[135.72691491355798,35.53239217220391],[135.727308483481,35.53235502398508],[135.7272586591292,35.53222940106028],[135.7268280917714,35.53225829118113],[135.72678944600315,35.532399153056055]]]}},{"type":"Feature","properties":{"pid":"1b644b6a-2073-4391-b383-dc68bedcc9ac"},"geometry":{"type":"Polygon","coordinates":[[[135.72679418513667,35.532751401034474],[135.72727472617018,35.532719028445676],[135.72730435837167,35.532638234589676],[135.7267892724978,35.532685255806],[135.72679418513667,35.532751401034474]]]}},{"type":"Feature","properties":{"pid":"d8bca7a8-773b-4403-b542-9784b36aec33"},"geometry":{"type":"Polygon","coordinates":[[[135.72679003795642,35.53256872311002],[135.72737420178285,35.53251434582832],[135.7273895116829,35.53249183748386],[135.72736106407712,35.532467914670015],[135.72674672510894,35.53252962784328],[135.72679003795642,35.53256872311002]]]}},{"type":"Feature","properties":{"pid":"5ce5aca6-f0de-4c74-8791-265b93db2b07"},"geometry":{"type":"Polygon","coordinates":[[[135.7268142007905,35.53293596827142],[135.72735703201252,35.532902076277715],[135.72734917748696,35.532869240827246],[135.7273154409101,35.532835720050606],[135.72680735176507,35.532867512644074],[135.7268142007905,35.53293596827142]]]}},{"type":"Feature","properties":{"pid":"f899e33e-298d-48ee-beb3-e9c40f787691"},"geometry":{"type":"Polygon","coordinates":[[[135.72683407258725,35.53311418462962],[135.72734457228484,35.53308991042373],[135.72741247711693,35.53300217030894],[135.7268245442228,35.53304755016433],[135.72683407258725,35.53311418462962]]]}},{"type":"Feature","properties":{"pid":"9d42254e-3579-4e2b-b9cb-dc3c9d9d571b"},"geometry":{"type":"Polygon","coordinates":[[[135.72686768310842,35.53329299482954],[135.72722826507842,35.53328225785913],[135.72727284872394,35.53320815910657],[135.72686071947618,35.53323299505158],[135.72686768310842,35.53329299482954]]]}},{"type":"Feature","properties":{"pid":"7d44f19e-5b68-4372-94ef-5e831d171730"},"geometry":{"type":"Polygon","coordinates":[[[135.72714295361345,35.533470043077635],[135.72716160358988,35.53339687486298],[135.72688214878494,35.533413800595895],[135.72688704745855,35.533474306118755],[135.72714295361345,35.533470043077635]]]}},{"type":"Feature","properties":{"pid":"90347929-c677-4ecd-b132-c21ae33b442b"},"geometry":{"type":"Polygon","coordinates":[[[135.72592532115974,35.53337124084814],[135.72662721723074,35.53330356611829],[135.7266153653504,35.533264481991836],[135.7259197580296,35.53331889123567],[135.72592532115974,35.53337124084814]]]}},{"type":"Feature","properties":{"pid":"8f672a6c-bf23-4a96-b21f-1a0fd70459e2"},"geometry":{"type":"Polygon","coordinates":[[[135.7259472436761,35.533554943008426],[135.72663449392667,35.53349153187977],[135.72662189835773,35.533434508715324],[135.72593899534954,35.53349934999466],[135.7259472436761,35.533554943008426]]]}},{"type":"Feature","properties":{"pid":"2a75bb1b-6421-4d40-858c-baf8b49b3540"},"geometry":{"type":"Polygon","coordinates":[[[135.72590129963032,35.53318880026562],[135.72659273934426,35.53314386592808],[135.72658176838405,35.533087698163655],[135.72588980080943,35.53313372594282],[135.72590129963032,35.53318880026562]]]}},{"type":"Feature","properties":{"pid":"1f6aa9ec-3d69-4af4-a087-9ac1d5060ae2"},"geometry":{"type":"Polygon","coordinates":[[[135.72587482270796,35.53301506988152],[135.72657571966002,35.532968950122566],[135.7265706692039,35.532940590648835],[135.72587271635715,35.53298570734959],[135.72587482270796,35.53301506988152]]]}},{"type":"Feature","properties":{"pid":"33277718-65ad-4ae9-9b6e-deffb3d515ec"},"geometry":{"type":"Polygon","coordinates":[[[135.72587129247657,35.53287658315837],[135.72654546807698,35.53283036896985],[135.72653944895958,35.53280966520315],[135.72587050886054,35.53285807108124],[135.72587129247657,35.53287658315837]]]}},{"type":"Feature","properties":{"pid":"dd4bad7c-5223-4316-8bfc-c299a80f09e5"},"geometry":{"type":"MultiPolygon","coordinates":[[[[135.72491038127896,35.533254581091086],[135.7251905271993,35.533243090496164],[135.72540069364655,35.5332273366915],[135.72520482220838,35.53317358600793],[135.72488369623184,35.533176796522824],[135.72491038127896,35.533254581091086]]],[[[135.72559326676983,35.53321290133305],[135.72570119325536,35.53320481098392],[135.72569843906192,35.53319332641269],[135.72559326676983,35.53321290133305]]]]}},{"type":"Feature","properties":{"pid":"24449ff5-24cc-4cac-b635-7c6ad8b421af"},"geometry":{"type":"Polygon","coordinates":[[[135.72499810365912,35.53362266444683],[135.72573479753575,35.5335754229574],[135.7257242095073,35.53351219259557],[135.72500027315928,35.53356049051322],[135.72499810365912,35.53362266444683]]]}},{"type":"Feature","properties":{"pid":"79820240-7ed2-40d8-bb73-ad1abb243822"},"geometry":{"type":"Polygon","coordinates":[[[135.72497484082936,35.53344120305903],[135.72570452293,35.53338962354617],[135.72569958844224,35.533333954350226],[135.72495618242473,35.53337751555036],[135.72497484082936,35.53344120305903]]]}},{"type":"Feature","properties":{"pid":"9c39d52a-2f47-4ed3-8eff-8d67c481cb47"},"geometry":{"type":"Polygon","coordinates":[[[135.7249717180579,35.53379468469353],[135.72576245454198,35.5337482330788],[135.72575124988902,35.53368910236154],[135.72498536718007,35.533737559927495],[135.7249717180579,35.53379468469353]]]}},{"type":"Feature","properties":{"pid":"14d46e21-9a61-4f49-8e4c-ff3a09d32cce"},"geometry":{"type":"Polygon","coordinates":[[[135.72489891527627,35.53407978361613],[135.72578625814953,35.534005392560516],[135.72576975218442,35.53386193730921],[135.72495098959308,35.5339160511114],[135.72489891527627,35.53407978361613]]]}},{"type":"Feature","properties":{"pid":"ce638d25-715c-49a1-aeb8-27f72e4c318c"},"geometry":{"type":"Polygon","coordinates":[[[135.72485722605347,35.534361845474734],[135.72581376022092,35.5342670825816],[135.72580053796167,35.5341352803991],[135.72483505278845,35.53421059582558],[135.72485722605347,35.534361845474734]]]}},{"type":"Feature","properties":{"pid":"5fff1be3-c05b-4490-b81c-2cf7aba73ff5"},"geometry":{"type":"Polygon","coordinates":[[[135.72605062498909,35.534392625955334],[135.7268237297065,35.53435883626961],[135.72682474907432,35.534343785614986],[135.7260493690315,35.534381613039855],[135.72605062498909,35.534392625955334]]]}},{"type":"Feature","properties":{"pid":"549029ff-20a7-4db2-99fe-98e561e514d2"},"geometry":{"type":"Polygon","coordinates":[[[135.72603565850477,35.534263149482655],[135.72685925630407,35.53422864033648],[135.72687416483845,35.53417806989467],[135.7260295905228,35.53422238329194],[135.72603565850477,35.534263149482655]]]}},{"type":"Feature","properties":{"pid":"12c87f57-9ee6-45ce-9bfa-a51f32b19024"},"geometry":{"type":"Polygon","coordinates":[[[135.72596729965332,35.53372864793738],[135.72665784344633,35.53367187403277],[135.72664476048928,35.53361111830409],[135.72595954404935,35.53367285674316],[135.72596729965332,35.53372864793738]]]}},{"type":"Feature","properties":{"pid":"95a9429c-5b5a-419f-8d09-d68549332e60"},"geometry":{"type":"Polygon","coordinates":[[[135.7260132993694,35.533994740472586],[135.72693777216944,35.53394586789692],[135.72700893702967,35.53381104956568],[135.7267981453545,35.53384712446781],[135.72599997520797,35.533900000626836],[135.7260132993694,35.533994740472586]]]}},{"type":"Feature","properties":{"pid":"c2056a46-3e1c-4e80-a4fc-90f7768ed751"},"geometry":{"type":"Polygon","coordinates":[[[135.7269029278803,35.53369498150691],[135.72708079588665,35.53368160987699],[135.72710926963202,35.53359124328631],[135.72689368088078,35.53361067029221],[135.7269029278803,35.53369498150691]]]}},{"type":"Feature","properties":{"pid":"815ca932-a293-4e9e-bda6-f705645873c4"},"geometry":{"type":"Polygon","coordinates":[[[135.72778381133682,35.534763481147586],[135.7278291844849,35.534723591533776],[135.72751004105535,35.53454818257561],[135.72746986094256,35.53458450433361],[135.72778381133682,35.534763481147586]]]}},{"type":"Feature","properties":{"pid":"1fd2151d-6db1-4561-a195-e4335d64b5a3"},"geometry":{"type":"Polygon","coordinates":[[[135.72764576286585,35.53489589253128],[135.72768213741955,35.53485938008378],[135.727347832252,35.53466638431333],[135.72729060827285,35.53469654194184],[135.72764576286585,35.53489589253128]]]}},{"type":"Feature","properties":{"pid":"49b2852f-f6ef-4279-b818-1cae73ccb29b"},"geometry":{"type":"Polygon","coordinates":[[[135.72751697137906,35.53505132393434],[135.72755690992332,35.53500459691079],[135.7271395994594,35.53476928798369],[135.72714531110128,35.53482250918435],[135.72751697137906,35.53505132393434]]]}},{"type":"Feature","properties":{"pid":"f9f91486-563d-44fd-958f-a3456aec56e7"},"geometry":{"type":"Polygon","coordinates":[[[135.72714088614592,35.534974104836266],[135.7272095465138,35.53529985579456],[135.7272948437925,35.53529563962403],[135.7274294455721,35.535150442530515],[135.72714088614592,35.534974104836266]]]}},{"type":"Feature","properties":{"pid":"e1c6ff88-c27a-49ff-864a-520e7ba35af4"},"geometry":{"type":"Polygon","coordinates":[[[135.72834157406962,35.53576023744482],[135.72841748908098,35.53575648401449],[135.7283587863515,35.53519774395611],[135.72827087547978,35.53516175782332],[135.72834157406962,35.53576023744482]]]}},{"type":"Feature","properties":{"pid":"9aa0e102-7335-4932-9889-4052754863d8"},"geometry":{"type":"Polygon","coordinates":[[[135.72811609477375,35.535780441171205],[135.72819929157185,35.53577429287131],[135.72812250636562,35.53513480888732],[135.72804365089226,35.53511831020363],[135.72811609477375,35.535780441171205]]]}},{"type":"Feature","properties":{"pid":"f3e4dfd6-84da-428e-b45c-25286ba73537"},"geometry":{"type":"Polygon","coordinates":[[[135.72780763204247,35.53504586273552],[135.72789829252352,35.535791670720656],[135.72798000624044,35.53578697981749],[135.72789902496265,35.53508974974898],[135.72780763204247,35.53504586273552]]]}},{"type":"Feature","properties":{"pid":"a0fe3f58-836b-4e4c-859c-1a99c89be5b3"},"geometry":{"type":"Polygon","coordinates":[[[135.7276847896431,35.53580947710386],[135.7277662618579,35.535802052576386],[135.72768300699988,35.53515469686169],[135.72761271613126,35.53522668714637],[135.7276847896431,35.53580947710386]]]}},{"type":"Feature","properties":{"pid":"e266a5c6-8638-486c-8d40-91ca0e427d44"},"geometry":{"type":"Polygon","coordinates":[[[135.72745907381994,35.53585208429583],[135.7275457465581,35.53583261598475],[135.7274851688042,35.53535689929255],[135.7274238115909,35.53542258508923],[135.72745907381994,35.53585208429583]]]}},{"type":"Feature","properties":{"pid":"f658e76a-7398-4c1b-8c71-9d1d1df18cd5"},"geometry":{"type":"Polygon","coordinates":[[[135.72723428960362,35.53588467346497],[135.72731532373885,35.53586652709163],[135.7272786296027,35.53546611169991],[135.72719076116235,35.53546905696351],[135.72723428960362,35.53588467346497]]]}},{"type":"Feature","properties":{"pid":"1df729fe-fad6-49c8-89fd-d94f73f2dd4e"},"geometry":{"type":"Polygon","coordinates":[[[135.727155562661,35.53622818245961],[135.7274938342766,35.53622532788007],[135.72748338179468,35.53606094121029],[135.72722676619333,35.53609203716702],[135.72713922515388,35.53612319930797],[135.727155562661,35.53622818245961]]]}},{"type":"Feature","properties":{"pid":"45e15395-31af-4b04-839c-eead28cf72b4"},"geometry":{"type":"Polygon","coordinates":[[[135.72857133335546,35.53574040139781],[135.72866006627518,35.53568813787538],[135.72858587917156,35.53525660335873],[135.72852485525368,35.535214836654276],[135.72857133335546,35.53574040139781]]]}},{"type":"Feature","properties":{"pid":"417502e1-31fb-45bc-8654-e2333e681d6f"},"geometry":{"type":"Polygon","coordinates":[[[135.72877667214448,35.53672742172195],[135.72857651780419,35.536674960647176],[135.72848851472284,35.53686052637926],[135.72855784983602,35.5369118107756],[135.72877667214448,35.53672742172195]]]}},{"type":"Feature","properties":{"pid":"afb2dfe5-4e65-48a9-809b-a6d708ff537d"},"geometry":{"type":"Polygon","coordinates":[[[135.72841800347123,35.537288164661724],[135.7290030868061,35.53678165430508],[135.72891907253538,35.53676226545539],[135.728382115126,35.53723343724909],[135.72841800347123,35.537288164661724]]]}},{"type":"Feature","properties":{"pid":"07e25e6d-c006-4c36-8c14-c541fc690fbf"},"geometry":{"type":"Polygon","coordinates":[[[135.72869013361387,35.537481719533254],[135.7292722001457,35.5371566841004],[135.7292374626524,35.53702158340235],[135.72869013361387,35.537481719533254]]]}},{"type":"Feature","properties":{"pid":"a724bf3d-4c69-496d-8988-5aab140dcc6a"},"geometry":{"type":"Polygon","coordinates":[[[135.72851795436551,35.53745073166098],[135.729182410007,35.53688475703687],[135.7291664062899,35.53685364177912],[135.72914147983698,35.53683384616114],[135.72849105094627,35.5374130553312],[135.72851795436551,35.53745073166098]]]}},{"type":"Feature","properties":{"pid":"d44b39f0-fc38-417c-84b7-9ff6d543cc23"},"geometry":{"type":"Polygon","coordinates":[[[135.7278541051422,35.537439533978414],[135.7281891545921,35.537391364690954],[135.72813057751543,35.537304838037315],[135.72784586859024,35.53731821046479],[135.7278541051422,35.537439533978414]]]}},{"type":"Feature","properties":{"pid":"5078c346-2d86-4768-968e-d85af8c72241"},"geometry":{"type":"Polygon","coordinates":[[[135.7279080880514,35.53759917627762],[135.72808013282784,35.53757339659638],[135.7283029721934,35.537571334253705],[135.72826379498167,35.53751484362815],[135.72790373254935,35.53756233552913],[135.7279080880514,35.53759917627762]]]}},{"type":"Feature","properties":{"pid":"3324ea89-6e18-4337-bcb5-2b5066f1dfbd"},"geometry":{"type":"MultiPolygon","coordinates":[[[[135.72760089270596,35.5377032937569],[135.72768885335248,35.53761206229073],[135.72765410793815,35.537322009445404],[135.72756547068457,35.53733094188795],[135.72760089270596,35.5377032937569]]],[[[135.72760772677213,35.53777513217047],[135.72761526027864,35.53785432280516],[135.7276187443806,35.53785246146766],[135.72760772677213,35.53777513217047]]]]}},{"type":"Feature","properties":{"pid":"75214a92-92e7-47c6-bffc-c024b70c8adc"},"geometry":{"type":"Polygon","coordinates":[[[135.72744107923262,35.53794903535277],[135.72748724363964,35.53792114128654],[135.72743013933746,35.53734096896489],[135.72733823369714,35.53734657434649],[135.72739072888874,35.53791259135858],[135.72744107923262,35.53794903535277]]]}},{"type":"Feature","properties":{"pid":"755306bc-8e20-4dc3-871f-59b2e6cb49ec"},"geometry":{"type":"Polygon","coordinates":[[[135.72729654028527,35.53714295749103],[135.72738243446784,35.53713280302385],[135.72730412229566,35.53647000399393],[135.72721774507002,35.5364669123543],[135.72729654028527,35.53714295749103]]]}},{"type":"Feature","properties":{"pid":"e0d86c3f-f714-438b-bd46-0a192ab11fc5"},"geometry":{"type":"Polygon","coordinates":[[[135.7274312176667,35.53647944998946],[135.72751714643996,35.53712092650595],[135.72760297093623,35.53711357268357],[135.72754070459655,35.53651815137227],[135.7274312176667,35.53647944998946]]]}},{"type":"Feature","properties":{"pid":"6f34773f-4cc6-44d7-a120-53da4d48ead0"},"geometry":{"type":"Polygon","coordinates":[[[135.72773434763454,35.53710073331775],[135.7278168162278,35.53709225103395],[135.7277595481461,35.53655156226807],[135.72767751235259,35.53654377484029],[135.72773434763454,35.53710073331775]]]}},{"type":"Feature","properties":{"pid":"a602301c-7567-4154-ae41-25aa2a704cd2"},"geometry":{"type":"Polygon","coordinates":[[[135.72812320329385,35.536589831129426],[135.72817819758203,35.53705940881023],[135.7281924521722,35.53705821487614],[135.72837453851807,35.536649731212144],[135.72812320329385,35.536589831129426]]]}},{"type":"Feature","properties":{"pid":"2aee7b03-e47e-4056-a653-ca1e5c5ed972"},"geometry":{"type":"Polygon","coordinates":[[[135.72794412284532,35.53707954046024],[135.72803296095523,35.53707261339704],[135.72797093022237,35.53656765064261],[135.72790694709963,35.53655074290028],[135.72788724667186,35.53655276365753],[135.72794412284532,35.53707954046024]]]}},{"type":"Feature","properties":{"pid":"21a00a1f-0444-4f1b-83a2-d1f9477f64c6"},"geometry":{"type":"Polygon","coordinates":[[[135.72641063625997,35.53722879953775],[135.72646100278067,35.53722383751383],[135.7263709033902,35.53652981675135],[135.72632739148878,35.53653243074015],[135.72641063625997,35.53722879953775]]]}},{"type":"Feature","properties":{"pid":"66447ee7-9d37-449d-b4dd-2033db6ec78a"},"geometry":{"type":"Polygon","coordinates":[[[135.72658893394325,35.53721552403953],[135.72672243675922,35.5372048956486],[135.7266331289571,35.53650643145947],[135.72649831014664,35.536513008178275],[135.72658893394325,35.53721552403953]]]}},{"type":"Feature","properties":{"pid":"33af3ce3-c1cb-4a2c-9088-41963b2a44b6"},"geometry":{"type":"Polygon","coordinates":[[[135.72687174403634,35.53719250365088],[135.72694142017397,35.537184789593084],[135.72685109324036,35.536487798593036],[135.72677480140703,35.53649097181307],[135.72687174403634,35.53719250365088]]]}},{"type":"Feature","properties":{"pid":"263fb930-01c9-4fcb-ba4d-e84ca1899235"},"geometry":{"type":"Polygon","coordinates":[[[135.72707596950713,35.53716945254578],[135.727163151855,35.537159751809924],[135.72707646848608,35.53647549003414],[135.72699742820615,35.53647752433721],[135.72707596950713,35.53716945254578]]]}},{"type":"Feature","properties":{"pid":"23f29d7b-823e-4578-aeb1-0e945f58e774"},"geometry":{"type":"Polygon","coordinates":[[[135.7272567910815,35.53783975466292],[135.72720938538546,35.53735772475987],[135.72713229850203,35.537364061463435],[135.7271772135515,35.537788940659695],[135.7272567910815,35.53783975466292]]]}},{"type":"Feature","properties":{"pid":"10eede5e-b310-4c3e-ab01-1758defd672b"},"geometry":{"type":"Polygon","coordinates":[[[135.7269325231449,35.53779006898457],[135.7270385085748,35.53776821967948],[135.72699554856194,35.53737645600719],[135.72689369846415,35.53738587947918],[135.7269325231449,35.53779006898457]]]}},{"type":"Feature","properties":{"pid":"a04c891a-59b7-4da4-8ad0-ba7553069875"},"geometry":{"type":"Polygon","coordinates":[[[135.72672355976775,35.53788753131175],[135.72681051834212,35.537832140576896],[135.7267681582687,35.537406583666865],[135.7266656406389,35.53741662508652],[135.72672355976775,35.53788753131175]]]}},{"type":"Feature","properties":{"pid":"0656cdaa-5eaa-41cd-af60-390d7507e7e3"},"geometry":{"type":"Polygon","coordinates":[[[135.7265288427634,35.53808188704178],[135.72658491806993,35.5380454178281],[135.72661486810588,35.5379915985507],[135.72654144498705,35.53742260487338],[135.72643419973363,35.53742929694343],[135.7265288427634,35.53808188704178]]]}},{"type":"Feature","properties":{"pid":"bddb0a27-5509-4a89-9ae7-4f74cfe689fc"},"geometry":{"type":"Polygon","coordinates":[[[135.72519213811813,35.53734802101846],[135.72617538013992,35.537274564458144],[135.72615573677092,35.53711259018695],[135.72517229380625,35.537196391056575],[135.72519213811813,35.53734802101846]]]}},{"type":"Feature","properties":{"pid":"1684bb4d-9ca8-4b32-8244-9f34be04ecbc"},"geometry":{"type":"Polygon","coordinates":[[[135.72522111334462,35.53763754527256],[135.72622386334962,35.537559113145875],[135.72620345805228,35.53740187161245],[135.7252018520352,35.537482634450846],[135.72522111334462,35.53763754527256]]]}},{"type":"Feature","properties":{"pid":"0752b0c4-c6b4-4786-957b-4be31a7fbf0b"},"geometry":{"type":"Polygon","coordinates":[[[135.72525012101,35.537908358554496],[135.72625406018392,35.5378213566745],[135.72623665998404,35.537672828331026],[135.72523350232558,35.53775345155194],[135.72525012101,35.537908358554496]]]}},{"type":"Feature","properties":{"pid":"b6d2ac65-9b04-4c5d-9015-bf848a43c95f"},"geometry":{"type":"Polygon","coordinates":[[[135.72515396617797,35.53708260727449],[135.72613157861795,35.53700369889006],[135.72612767699914,35.536969426821265],[135.72515064890644,35.537050335635605],[135.72515396617797,35.53708260727449]]]}},{"type":"Feature","properties":{"pid":"6086acb3-368f-41de-aff6-330cdbfc03b3"},"geometry":{"type":"Polygon","coordinates":[[[135.72611732085002,35.536836271657265],[135.72513557905856,35.53691907807836],[135.72513892606997,35.53694667610867],[135.72612977432323,35.53686538672008],[135.72611732085002,35.536836271657265]]]}},{"type":"Feature","properties":{"pid":"c8f6ae03-e667-428a-bee4-cf9320cbad5d"},"geometry":{"type":"Polygon","coordinates":[[[135.72512524853653,35.536812396167086],[135.72611791860174,35.53673050986386],[135.7260955996138,35.53657202496219],[135.72511322013938,35.5366470054726],[135.72512524853653,35.536812396167086]]]}},{"type":"Feature","properties":{"pid":"f4f74206-1e1b-4791-8ead-763caca1834b"},"geometry":{"type":"Polygon","coordinates":[[[135.72522266807513,35.5363741980626],[135.72540619959423,35.53635942569999],[135.7253141734714,35.53557847007686],[135.72512309396313,35.53559603296342],[135.72522266807513,35.5363741980626]]]}},{"type":"Feature","properties":{"pid":"a4317def-7ade-429d-8e02-9ecd94bd5054"},"geometry":{"type":"Polygon","coordinates":[[[135.725870992492,35.53633071074221],[135.72606474486471,35.53630949389809],[135.72597318215824,35.53552504621696],[135.72577419823685,35.53554249870995],[135.725870992492,35.53633071074221]]]}},{"type":"Feature","properties":{"pid":"88176f54-6c09-4e6d-937e-05915388f77a"},"geometry":{"type":"Polygon","coordinates":[[[135.72554125220702,35.536361570616165],[135.7257413416519,35.53634408534146],[135.72564779553295,35.53555417034174],[135.7254368432286,35.535571170400885],[135.72554125220702,35.536361570616165]]]}},{"type":"Feature","properties":{"pid":"73a9ce71-2902-496d-ba19-6a9e1dfd2daf"},"geometry":{"type":"Polygon","coordinates":[[[135.72626959987906,35.53627524461394],[135.7264814104608,35.536258337491745],[135.72639316381094,35.535518354424994],[135.72617025516277,35.53553276408823],[135.72626959987906,35.53627524461394]]]}},{"type":"Feature","properties":{"pid":"e10dcb62-e75b-44c8-bd86-ff5562e7407d"},"geometry":{"type":"Polygon","coordinates":[[[135.72690508809416,35.53623723980891],[135.7270190203516,35.536229227816925],[135.72700650498797,35.53616776503037],[135.7269123313373,35.53620578269962],[135.72690508809416,35.53623723980891]]]}},{"type":"Feature","properties":{"pid":"a7078136-07be-47b0-b7fc-205a9a788b08"},"geometry":{"type":"Polygon","coordinates":[[[135.7266061624306,35.53625231870388],[135.72668958444763,35.53624439820519],[135.72667687856145,35.53614716878427],[135.72670477017417,35.53610971119067],[135.7266420616075,35.53549919384176],[135.72652416176814,35.53550802658615],[135.7266061624306,35.53625231870388]]]}},{"type":"Feature","properties":{"pid":"d5cfb92f-3d17-484e-b9a0-29ba919abe14"},"geometry":{"type":"Polygon","coordinates":[[[135.72683257863918,35.536045906505485],[135.72705966564615,35.53596396398577],[135.72700953623342,35.535472196771096],[135.7267742757146,35.535490178146155],[135.72683257863918,35.536045906505485]]]}},{"type":"Feature","properties":{"pid":"f340c2a3-80f3-4552-8e0e-8100bba77baf"},"geometry":{"type":"Polygon","coordinates":[[[135.72614123754985,35.535078875622396],[135.7269519213154,35.53502171713207],[135.72694315044896,35.534954444153044],[135.7261334369741,35.535009299829845],[135.72614123754985,35.535078875622396]]]}},{"type":"Feature","properties":{"pid":"afcb477d-a1d9-4406-bd5e-4b92c9d4e750"},"geometry":{"type":"Polygon","coordinates":[[[135.72617546827576,35.535357255742184],[135.7269814921873,35.53529919796839],[135.7269726992063,35.535242071256405],[135.7261665914507,35.53529483356962],[135.72617546827576,35.535357255742184]]]}},{"type":"Feature","properties":{"pid":"0b6691a1-24a2-45ed-8b93-e9e34fcb09b3"},"geometry":{"type":"Polygon","coordinates":[[[135.72606403262535,35.53454027973478],[135.726839307898,35.53449360802291],[135.72683463267845,35.53446670344263],[135.72605985104326,35.53449942086312],[135.72606403262535,35.53454027973478]]]}},{"type":"Feature","properties":{"pid":"5040d7d0-2b2d-4ee6-b65e-0a63eb3f234c"},"geometry":{"type":"Polygon","coordinates":[[[135.72610378962025,35.534804489583934],[135.7268921962242,35.534756511831596],[135.7268516750757,35.53461271583003],[135.72608832166088,35.53465511767946],[135.72610378962025,35.534804489583934]]]}},{"type":"Feature","properties":{"pid":"c24ffcfc-1481-4c14-ba83-730490313c79"},"geometry":{"type":"Polygon","coordinates":[[[135.72575886479666,35.53441240613194],[135.72487558185682,35.53448512992145],[135.7248956505401,35.53463560760252],[135.72584722553785,35.53455880574837],[135.72583488340362,35.53442616659858],[135.72575886479666,35.53441240613194]]]}},{"type":"Feature","properties":{"pid":"df7dc503-4a1a-410e-843c-012ec160dce0"},"geometry":{"type":"Polygon","coordinates":[[[135.72492220007726,35.53490819618109],[135.72588227411038,35.5348175705076],[135.7258652562861,35.534677451717364],[135.72490103532346,35.534755228397884],[135.72492220007726,35.53490819618109]]]}},{"type":"Feature","properties":{"pid":"b36a633c-464e-4b51-a725-75cc4c30ea4a"},"geometry":{"type":"Polygon","coordinates":[[[135.72497470131754,35.53545223694255],[135.72594536384477,35.53537980287505],[135.7259245191779,35.535227105548856],[135.72495345921956,35.53529765608067],[135.72497470131754,35.53545223694255]]]}},{"type":"Feature","properties":{"pid":"5371b9e9-d6a8-4722-8d5f-6fa906755042"},"geometry":{"type":"Polygon","coordinates":[[[135.7249539118266,35.535173975843946],[135.72591359075633,35.53509671089874],[135.72589207010677,35.53495398489813],[135.7249382093294,35.53503441138578],[135.7249539118266,35.535173975843946]]]}},{"type":"Feature","properties":{"pid":"95a05313-daba-4d4f-bbf1-8bf8acd79927"},"geometry":{"type":"Polygon","coordinates":[[[135.724954627182,35.540365825258604],[135.72516535462677,35.540351696974795],[135.72525135258186,35.54029284808478],[135.7253025615178,35.54023358380067],[135.72534053098886,35.54015336464654],[135.72483665391653,35.5402307993417],[135.724954627182,35.540365825258604]]]}},{"type":"Feature","properties":{"pid":"b91dce07-6a4c-461e-a23b-bcf6f49145a0"},"geometry":{"type":"Polygon","coordinates":[[[135.72496750086236,35.54007939742572],[135.72535044747755,35.540028867215426],[135.72533534906535,35.53995166581015],[135.7249478553113,35.539950361562745],[135.72496750086236,35.54007939742572]]]}},{"type":"Feature","properties":{"pid":"b5283a47-36f7-40d0-aae4-b2757d9a21b6"},"geometry":{"type":"Polygon","coordinates":[[[135.72556612678412,35.539693027447484],[135.72571853741846,35.539645061740806],[135.72570431317152,35.53958405433022],[135.72555530397003,35.539590483291036],[135.72556612678412,35.539693027447484]]]}},{"type":"Feature","properties":{"pid":"33899c60-6688-40a3-9aaf-69db429d4e92"},"geometry":{"type":"Polygon","coordinates":[[[135.72553801275097,35.539464519980804],[135.72567933323327,35.539457622843756],[135.72566627438079,35.53930570113533],[135.72552434261175,35.53931169745421],[135.72553801275097,35.539464519980804]]]}},{"type":"Feature","properties":{"pid":"e49baf53-a159-46d3-b079-ae785e4a7b5c"},"geometry":{"type":"Polygon","coordinates":[[[135.72551332699135,35.53919530175763],[135.72565229872671,35.53918798455839],[135.72563491848075,35.53904921340246],[135.72573650515787,35.53890205329228],[135.72550683351062,35.53894898028876],[135.72551332699135,35.53919530175763]]]}},{"type":"Feature","properties":{"pid":"e1a3ce52-f798-4eb6-b940-c3fca93beace"},"geometry":{"type":"Polygon","coordinates":[[[135.72490786860254,35.539022257123655],[135.72493756112237,35.53917861895488],[135.7253255958621,35.53911145816353],[135.72532211670529,35.53895129683186],[135.72490786860254,35.539022257123655]]]}},{"type":"Feature","properties":{"pid":"42896b34-ea0f-447a-9209-dc51459493d9"},"geometry":{"type":"Polygon","coordinates":[[[135.72529413725485,35.53819144840816],[135.72625926102043,35.53811255454763],[135.72625902772597,35.538104133165575],[135.72529203914192,35.53817845989222],[135.72529413725485,35.53819144840816]]]}},{"type":"Feature","properties":{"pid":"fcdc12e4-f1d0-4c1b-96ef-fbfa87db9741"},"geometry":{"type":"Polygon","coordinates":[[[135.7252706382676,35.53807184206896],[135.72625780579628,35.53799481742097],[135.72625336706332,35.53794567925742],[135.725264656783,35.538024779892616],[135.7252706382676,35.53807184206896]]]}},{"type":"Feature","properties":{"pid":"7012c69d-58d4-4531-999d-67706d85c0c4"},"geometry":{"type":"Polygon","coordinates":[[[135.72532984527615,35.53845327615949],[135.72598711334885,35.538403454591496],[135.72625945985644,35.5382352255239],[135.72625972661746,35.53822051153064],[135.72530961259562,35.53829709148197],[135.72532984527615,35.53845327615949]]]}},{"type":"Feature","properties":{"pid":"87d6327e-4865-4920-90f9-36b9891db0e9"},"geometry":{"type":"Polygon","coordinates":[[[135.72535468796886,35.53875765422961],[135.72552261490006,35.53875036724351],[135.72563576101052,35.53871119697764],[135.72585475383062,35.53852767475986],[135.7253360200867,35.53857035159006],[135.72535468796886,35.53875765422961]]]}},{"type":"Feature","properties":{"pid":"da22ab39-ef72-451c-ba1a-9493e4c696f4"},"geometry":{"type":"Polygon","coordinates":[[[135.73961604117042,35.53839486703964],[135.73959212407797,35.5383122208691],[135.7393868880333,35.538265663055036],[135.73940029698983,35.538383510195864],[135.73961604117042,35.53839486703964]]]}},{"type":"Feature","properties":{"pid":"8cf62130-82f8-44dc-a038-1cea7d7530e2"},"geometry":{"type":"Polygon","coordinates":[[[135.73979289737818,35.53813184600428],[135.73976649964342,35.53826538799683],[135.73980313752722,35.53844974536566],[135.7398282236358,35.53844871301274],[135.73998154895915,35.53834141121098],[135.74015395298133,35.53830787291994],[135.74015417092735,35.538277988332986],[135.73989566571782,35.5381937543876],[135.73979289737818,35.53813184600428]]]}},{"type":"Feature","properties":{"pid":"f8572941-1c97-4da3-9951-b03b821f9a5f"},"geometry":{"type":"Polygon","coordinates":[[[135.74657987112806,35.53859592277438],[135.74672158275823,35.53858304883298],[135.74706849147867,35.53845789986951],[135.74703516375428,35.53840814004042],[135.74657583583485,35.53846214364301],[135.74657987112806,35.53859592277438]]]}},{"type":"Feature","properties":{"pid":"f6e32fca-4fda-4f39-88ad-56b65cde3d9b"},"geometry":{"type":"Polygon","coordinates":[[[135.74685776016605,35.53811824187478],[135.74605546358328,35.53819368455849],[135.74607576410529,35.538336270943354],[135.74643994865508,35.53834057405358],[135.7469695883614,35.538281459233104],[135.74688530066075,35.538134469610306],[135.74685776016605,35.53811824187478]]]}},{"type":"Feature","properties":{"pid":"8429b866-8763-4f07-9ba4-c4dd16b35930"},"geometry":{"type":"Polygon","coordinates":[[[135.74504894436885,35.53800758588018],[135.74506101482905,35.53803604517812],[135.74518555900826,35.538149802925524],[135.74585403683173,35.53808761489725],[135.74583197540127,35.53793032888238],[135.74504894436885,35.53800758588018]]]}},{"type":"Feature","properties":{"pid":"7179e626-88e6-4022-b14a-eaf6745bdcdc"},"geometry":{"type":"Polygon","coordinates":[[[135.7454448637229,35.538364019213475],[135.74569228608792,35.53836069507898],[135.74573285637447,35.5383765697382],[135.7459056843952,35.5383663488193],[135.7458771094809,35.53819057277953],[135.7452977393547,35.53824260893841],[135.7454448637229,35.538364019213475]]]}},{"type":"Feature","properties":{"pid":"b83f97e7-d365-41d3-a220-92be17705bdc"},"geometry":{"type":"Polygon","coordinates":[[[135.7471837699322,35.53973104708889],[135.7471881254421,35.53975779252315],[135.74745521756375,35.539773764359],[135.7474484655801,35.53973594745839],[135.7471837699322,35.53973104708889]]]}},{"type":"Feature","properties":{"pid":"7efd9bba-adec-4a3c-b0b6-e431f9359fb2"},"geometry":{"type":"Polygon","coordinates":[[[135.7470708821281,35.53977758143827],[135.74706555056326,35.53974538514053],[135.74665739738495,35.53981163047698],[135.74666456737685,35.53984959579049],[135.7470708821281,35.53977758143827]]]}},{"type":"Feature","properties":{"pid":"6bf2fa3c-eec7-4935-8a3a-280f1bc424aa"},"geometry":{"type":"Polygon","coordinates":[[[135.74626697591137,35.53982827059598],[135.74648160956718,35.539821056259896],[135.7464774288903,35.53977949893755],[135.74626473275418,35.53978450763629],[135.74626697591137,35.53982827059598]]]}},{"type":"Feature","properties":{"pid":"5283ce84-4022-4de0-a85b-bab80ff7abf8"},"geometry":{"type":"Polygon","coordinates":[[[135.744183210928,35.53709816610699],[135.74460503803445,35.537059530692005],[135.74459583416902,35.53701283793196],[135.74441183773035,35.53701628404792],[135.74417386001934,35.537048648651094],[135.744183210928,35.53709816610699]]]}},{"type":"Feature","properties":{"pid":"8e57bcc5-2baa-4e85-8afb-8244553f24e7"},"geometry":{"type":"Polygon","coordinates":[[[135.7434793484005,35.53725460090273],[135.74403679993097,35.537204356464294],[135.74401261982172,35.53707571877204],[135.7434625906551,35.53716939056248],[135.7434793484005,35.53725460090273]]]}},{"type":"Feature","properties":{"pid":"50eb0fbf-5aaf-4935-872a-faf135d76484"},"geometry":{"type":"Polygon","coordinates":[[[135.74408182393984,35.537441081855434],[135.74405641079323,35.53730860986099],[135.74351511107793,35.53735714988686],[135.74364011332995,35.53744094235069],[135.74380212947668,35.53746386137515],[135.74404021263973,35.537429419123484],[135.74408182393984,35.537441081855434]]]}},{"type":"Feature","properties":{"pid":"b9926ff3-a8f3-42b2-bb47-1d8b0c389a2e"},"geometry":{"type":"Polygon","coordinates":[[[135.743194964387,35.53718290214258],[135.7428715408977,35.53715405186192],[135.7425533132973,35.53710414138939],[135.74253071516574,35.53717476335057],[135.7425558091497,35.537232276943804],[135.74262722965585,35.53729873542018],[135.74273997501516,35.53736916316956],[135.7432651506607,35.53726764297942],[135.74324986311,35.53721435400613],[135.743194964387,35.53718290214258]]]}},{"type":"Feature","properties":{"pid":"85a4228e-d023-4462-b8e4-2de3959d81df"},"geometry":{"type":"Polygon","coordinates":[[[135.74294370867383,35.53763133346192],[135.74318511907245,35.53754363411621],[135.74324104887094,35.53746231725551],[135.743306084906,35.53743816616701],[135.74328852883278,35.53736626229151],[135.74280040841154,35.537459837444665],[135.7428840063568,35.53758655478773],[135.74294370867383,35.53763133346192]]]}},{"type":"Feature","properties":{"pid":"0cd6ecd6-ab85-4f13-b5c5-18a6f0c0dc8f"},"geometry":{"type":"Polygon","coordinates":[[[135.74427827699083,35.537509401968656],[135.74431688045846,35.53766676608459],[135.74439491280643,35.537700292528484],[135.74469492923834,35.537684656905924],[135.74466702014092,35.537471277029304],[135.74427827699083,35.537509401968656]]]}},{"type":"Feature","properties":{"pid":"b6caa5af-b248-4c7b-ac27-4fff2e6bc01c"},"geometry":{"type":"Polygon","coordinates":[[[135.74425318338353,35.537401018851526],[135.7446507453346,35.53736443817462],[135.7446188527195,35.53716126613413],[135.7442104303746,35.53720136485835],[135.74425318338353,35.537401018851526]]]}},{"type":"Feature","properties":{"pid":"1c729b32-6758-45bd-ae0a-830a917446ad"},"geometry":{"type":"Polygon","coordinates":[[[135.74499267543322,35.53786315830635],[135.74500862843112,35.53789873474066],[135.74581720380894,35.537819537668476],[135.74580538146785,35.53775094424308],[135.7450115111624,35.53784295615915],[135.74499267543322,35.53786315830635]]]}},{"type":"Feature","properties":{"pid":"d7784bda-b5c4-4d62-9f8f-2a89b809864c"},"geometry":{"type":"Polygon","coordinates":[[[135.74489347273337,35.53761886842228],[135.74490180853653,35.537657550389724],[135.74577780784392,35.53755651286004],[135.7457730793173,35.537519364455484],[135.74489347273337,35.53761886842228]]]}},{"type":"Feature","properties":{"pid":"40b7d508-b848-4a9a-b233-9229e135b241"},"geometry":{"type":"Polygon","coordinates":[[[135.74678667929922,35.53768751917907],[135.74597673357553,35.53776825971435],[135.7459818531763,35.537798099712674],[135.7467814643782,35.53772537476328],[135.74678667929922,35.53768751917907]]]}},{"type":"Feature","properties":{"pid":"cf3e1764-e3e1-48fa-b263-d5ed6f0e1e7d"},"geometry":{"type":"Polygon","coordinates":[[[135.74596465870422,35.537666727280104],[135.74680546800514,35.53758462076991],[135.74680786884298,35.53755051667631],[135.74596184485094,35.53764233704478],[135.74596465870422,35.537666727280104]]]}},{"type":"Feature","properties":{"pid":"c9e0c6c7-8a54-4c54-a714-f2e019a856e0"},"geometry":{"type":"Polygon","coordinates":[[[135.7459361553146,35.53741044406772],[135.74667745295062,35.53733216848956],[135.74665788411306,35.537306051487114],[135.74593258463455,35.53737356686707],[135.7459361553146,35.53741044406772]]]}},{"type":"Feature","properties":{"pid":"06a830db-2984-4b07-88d7-aa622642285a"},"geometry":{"type":"Polygon","coordinates":[[[135.74591555583567,35.53725984064033],[135.746652259745,35.537187914079425],[135.74655169354025,35.53702626949663],[135.74591269596095,35.53719880594939],[135.74591555583567,35.53725984064033]]]}},{"type":"Feature","properties":{"pid":"273f3935-6662-499c-a9ad-1726ac29b09b"},"geometry":{"type":"Polygon","coordinates":[[[135.74486029335193,35.537472745090476],[135.74486664698483,35.53751392827654],[135.74576126896736,35.53742182799702],[135.7457571573955,35.53738488932446],[135.74486029335193,35.537472745090476]]]}},{"type":"Feature","properties":{"pid":"7b79164d-8267-4448-88cf-a1f68596fe28"},"geometry":{"type":"Polygon","coordinates":[[[135.74479556437146,35.53708061174981],[135.7448424326841,35.53737221745494],[135.74574387484037,35.53728305882152],[135.74572713825586,35.53713955234639],[135.7454340665388,35.5371785277355],[135.74526906795978,35.537174604020166],[135.74513342742534,35.5371588152377],[135.74479556437146,35.53708061174981]]]}},{"type":"Feature","properties":{"pid":"c82e2776-dbd7-42f5-9476-11d47928076a"},"geometry":{"type":"Polygon","coordinates":[[[135.74698372957556,35.537348093804844],[135.74709852388162,35.53730343826553],[135.74741411736025,35.53724571308138],[135.7475353124365,35.53709765297747],[135.74749420522033,35.53705266539918],[135.74692224762256,35.53725276627281],[135.74698372957556,35.537348093804844]]]}},{"type":"Feature","properties":{"pid":"0458d9fa-9a41-4c94-943a-237d7d233ed9"},"geometry":{"type":"Polygon","coordinates":[[[135.7460452540248,35.53807011660151],[135.74681533374448,35.53800215784552],[135.74677631284993,35.53783492965984],[135.74601277122528,35.537909139790926],[135.7460452540248,35.53807011660151]]]}}]}