{"type":"FeatureCollection","features":[{"type":"Feature","properties":{"pid":"7d1caf4b-9c53-4427-96f9-d61102631834"},"geometry":{"type":"Polygon","coordinates":[[[136.17467636977437,35.74283768215229],[136.17469816052997,35.742887724069384],[136.1746868337092,35.74296237384132],[136.17471164850838,35.743030889421156],[136.17499731745082,35.74309577215875],[136.17503577252734,35.7430628144122],[136.17510234964175,35.74306785770746],[136.17516593936602,35.74299966745174],[136.17520190529285,35.74298497259469],[136.17523526669427,35.742938323631456],[136.17515972414625,35.74288804133523],[136.17496804461263,35.74283959165067],[136.17467636977437,35.74283768215229]]]}},{"type":"Feature","properties":{"pid":"0df05664-c157-4bf9-8579-19953ab7543e"},"geometry":{"type":"Polygon","coordinates":[[[136.1602907685456,35.749987915139656],[136.16024734941692,35.75015172107212],[136.16038615052372,35.75030333943791],[136.16049239119985,35.75024939303044],[136.16049773864782,35.75021532388915],[136.1602907685456,35.749987915139656]]]}},{"type":"Feature","properties":{"pid":"89e2f736-cef1-4352-85aa-81078c4d5677"},"geometry":{"type":"Polygon","coordinates":[[[136.16072271000925,35.75071790585507],[136.16092607786905,35.75059501580138],[136.16087018945612,35.75054562797538],[136.1606474777396,35.750427970869815],[136.1605599164888,35.7503547875044],[136.16045994387133,35.750404374423724],[136.16072271000925,35.75071790585507]]]}},{"type":"Feature","properties":{"pid":"452ee29d-8264-4c6a-b9df-13e0fb3ab650"},"geometry":{"type":"Polygon","coordinates":[[[136.159854521611,35.7502404822096],[136.15970193216162,35.750432701001614],[136.15998345164726,35.75061566712736],[136.16009809085972,35.75070975354237],[136.1601349689892,35.75045551530577],[136.159854521611,35.7502404822096]]]}},{"type":"Feature","properties":{"pid":"f9dbd78f-6aba-494b-b4bb-45f14dc2fc9e"},"geometry":{"type":"Polygon","coordinates":[[[136.15946389060133,35.750004392693185],[136.15956571483383,35.75009656667402],[136.15963321491574,35.750241431160475],[136.15971954394917,35.750145025424004],[136.15946389060133,35.750004392693185]]]}},{"type":"Feature","properties":{"pid":"8e7746fb-3c81-4fe0-b120-66048c2fd5a0"},"geometry":{"type":"Polygon","coordinates":[[[136.16005369733466,35.75003511482993],[136.1600704219748,35.749960159250584],[136.1600510650357,35.7499021494398],[136.15986644722318,35.7495669751177],[136.15956346364095,35.74973885150283],[136.16005369733466,35.75003511482993]]]}},{"type":"Feature","properties":{"pid":"1d0f5bf2-6877-485f-96da-12552ab27e05"},"geometry":{"type":"Polygon","coordinates":[[[136.15928520431757,35.749576892659135],[136.15943136667127,35.749660785981455],[136.15980305673378,35.74945788257381],[136.1597532240115,35.74941710203325],[136.15970621778402,35.749341285356465],[136.1595623882261,35.74949901836095],[136.15928520431757,35.749576892659135]]]}},{"type":"Feature","properties":{"pid":"a8b60b1e-06fc-4774-b5f7-cc94587e9c7d"},"geometry":{"type":"Polygon","coordinates":[[[136.1548427857018,35.74702837484905],[136.15488699439157,35.74687060664816],[136.1547677681678,35.74680567576242],[136.15460356695047,35.746777247755155],[136.15455128424853,35.7468504037207],[136.15460036430534,35.74688787661471],[136.15472045957293,35.746937091907846],[136.1548427857018,35.74702837484905]]]}},{"type":"Feature","properties":{"pid":"3610cd6a-a94f-4a4d-b6a2-3c8c96334962"},"geometry":{"type":"Polygon","coordinates":[[[136.15666240964907,35.7480306293988],[136.15663725360983,35.74821856858564],[136.15706625543,35.74823960925415],[136.15740155564427,35.748302694802256],[136.15730288919167,35.7481671962312],[136.157208911974,35.74812031987707],[136.1571574354837,35.74812360876363],[136.156757669455,35.748025333428444],[136.15666240964907,35.7480306293988]]]}},{"type":"Feature","properties":{"pid":"2e5f1c30-abcf-4fa0-aaa2-2a136ecfcf65"},"geometry":{"type":"Polygon","coordinates":[[[136.15727880455216,35.74883166913068],[136.15733611875334,35.74871974500285],[136.15746451131213,35.74855300640344],[136.15715740465768,35.74845723580575],[136.15707594690323,35.74860320532525],[136.15727880455216,35.74883166913068]]]}},{"type":"Feature","properties":{"pid":"c2521d8e-e1d0-445a-b6ab-fb988fd4516f"},"geometry":{"type":"Polygon","coordinates":[[[136.1585092607021,35.74957825838724],[136.158592652469,35.74958260212139],[136.1586459436517,35.74955430195638],[136.15872282616843,35.749458243586496],[136.15865245221875,35.749293941232416],[136.15848485741213,35.74953981013627],[136.1585092607021,35.74957825838724]]]}},{"type":"Feature","properties":{"pid":"fdbc4e4d-ff00-4800-9756-a8f6f1aa68b9"},"geometry":{"type":"Polygon","coordinates":[[[136.15831948844658,35.74948378616204],[136.15855510499313,35.7491751855086],[136.15848326963354,35.74905946757146],[136.15844870160038,35.74903161671267],[136.15818938045877,35.74937902457438],[136.15831948844658,35.74948378616204]]]}},{"type":"Feature","properties":{"pid":"4518bfe1-6ee6-4ec3-b04d-5bd88a9ba9db"},"geometry":{"type":"Polygon","coordinates":[[[136.15790169875316,35.74923659489442],[136.15806534372834,35.74930848464867],[136.15833368765504,35.74894019273463],[136.15820269088556,35.74885808901802],[136.15790169875316,35.74923659489442]]]}},{"type":"Feature","properties":{"pid":"9467a189-9a6c-4f07-9710-8c951cae92cf"},"geometry":{"type":"Polygon","coordinates":[[[136.1576383921967,35.74912542976856],[136.15778429676286,35.74920057004392],[136.1580815071024,35.74879763303487],[136.1579179862761,35.74871081492628],[136.15767249024807,35.749037992122815],[136.1576383921967,35.74912542976856]]]}},{"type":"Feature","properties":{"pid":"f95210eb-c2e2-48d8-b157-2f6f4faac671"},"geometry":{"type":"Polygon","coordinates":[[[136.15752817957463,35.74903639316043],[136.157547136295,35.74898549202491],[136.15780123046022,35.74864631259173],[136.15763219746376,35.74858274582355],[136.1574992964795,35.748756249160046],[136.1574090866083,35.748927438104644],[136.15752817957463,35.74903639316043]]]}},{"type":"Feature","properties":{"pid":"5a530bdf-d4ff-4fed-a6d3-890261af65c3"},"geometry":{"type":"Polygon","coordinates":[[[136.15594009933136,35.74805921190927],[136.15620700761534,35.748119126607904],[136.15629948290635,35.748154431640835],[136.15647245544275,35.748183939576805],[136.15650066235324,35.74800228951518],[136.1560716701015,35.747998815949764],[136.1559839662788,35.74805046730485],[136.15594009933136,35.74805921190927]]]}},{"type":"Feature","properties":{"pid":"f2325b94-9c81-4a01-937d-2bb3d9e32691"},"geometry":{"type":"Polygon","coordinates":[[[136.15414061227597,35.74662104219498],[136.15420163748973,35.746679487873],[136.15444802859565,35.74678985898387],[136.15448153411793,35.746741754889186],[136.15425127335376,35.74663921700266],[136.15414061227597,35.74662104219498]]]}},{"type":"Feature","properties":{"pid":"f52f5a96-d92c-4231-8efa-05c2b0d60ec2"},"geometry":{"type":"Polygon","coordinates":[[[136.16435070748517,35.75613456541402],[136.1647266836509,35.75587994346123],[136.1646064921381,35.75575944771956],[136.16434534310335,35.75592868566992],[136.1643611796381,35.756059429209394],[136.16435070748517,35.75613456541402]]]}},{"type":"Feature","properties":{"pid":"10ee364e-9d82-4296-b8f3-a71a1200d90f"},"geometry":{"type":"Polygon","coordinates":[[[136.16428166263637,35.75583950213194],[136.1645288027763,35.755668796013424],[136.1644084631264,35.75554388470862],[136.16413527828527,35.75572406876331],[136.16428166263637,35.75583950213194]]]}},{"type":"Feature","properties":{"pid":"62c2e7cb-f271-4583-940e-9b1ddf1ccdbc"},"geometry":{"type":"Polygon","coordinates":[[[136.16400903355492,35.75566932632803],[136.1643326436417,35.755452666885674],[136.16420869319418,35.7553275271352],[136.16387439321554,35.75554848001904],[136.16400903355492,35.75566932632803]]]}},{"type":"Feature","properties":{"pid":"e2bc6d3a-fc84-4e75-a648-77f0f3bc874e"},"geometry":{"type":"Polygon","coordinates":[[[136.16365422857362,35.755344164204594],[136.16378904125463,35.75547150275269],[136.1641406109318,35.7552416454586],[136.16401790961353,35.755107391659564],[136.16365422857362,35.755344164204594]]]}},{"type":"Feature","properties":{"pid":"1a52f174-7ffe-4dc1-b626-210c795024fe"},"geometry":{"type":"Polygon","coordinates":[[[136.16343234365118,35.75514997088515],[136.1635655607458,35.755264457369144],[136.1639367270445,35.75502830466022],[136.16379543976225,35.75491410158965],[136.16343234365118,35.75514997088515]]]}},{"type":"Feature","properties":{"pid":"b6b18319-4fc9-4b63-91b7-99b61e2cb798"},"geometry":{"type":"Polygon","coordinates":[[[136.16334784753928,35.75507534589243],[136.16369635532706,35.754838525151314],[136.1635458849444,35.75472704777484],[136.1632105246874,35.7549522119229],[136.16334784753928,35.75507534589243]]]}},{"type":"Feature","properties":{"pid":"f12b3dcd-b703-4fd0-8555-8dfc6d8a513e"},"geometry":{"type":"Polygon","coordinates":[[[136.16274515989406,35.75441463832602],[136.16294384850613,35.754288103034945],[136.16277219352304,35.7540811842174],[136.1626240792476,35.754169831505784],[136.1626434468318,35.7542419599376],[136.16274515989406,35.75441463832602]]]}},{"type":"Feature","properties":{"pid":"d2506e33-5224-48a0-810d-514e8d28d8fa"},"geometry":{"type":"Polygon","coordinates":[[[136.16291570835506,35.754659717941],[136.1631820977401,35.75447461228992],[136.1630216100216,35.75436490776252],[136.16281105611625,35.754502723449306],[136.16291570835506,35.754659717941]]]}},{"type":"Feature","properties":{"pid":"6af86e35-5009-4ca8-9d2d-98c603de9fa6"},"geometry":{"type":"Polygon","coordinates":[[[136.16312722512703,35.7548714818921],[136.16344501928535,35.75465703309555],[136.16328282698245,35.75455010294747],[136.162994624208,35.75474586952738],[136.16312722512703,35.7548714818921]]]}},{"type":"Feature","properties":{"pid":"a5e9c279-c44f-4a4b-802a-d4f362ec4d6c"},"geometry":{"type":"Polygon","coordinates":[[[136.16104958657053,35.752913382456846],[136.16122119226583,35.7530115773848],[136.1613819208004,35.75269929253634],[136.1613562098853,35.752685022352125],[136.16116055921216,35.75268049908762],[136.16104958657053,35.752913382456846]]]}},{"type":"Feature","properties":{"pid":"5a0dc365-745d-4547-94d0-d01dbbe70dab"},"geometry":{"type":"Polygon","coordinates":[[[136.16166338472544,35.75321485343167],[136.16180847439435,35.75328548724658],[136.1619321855016,35.7530386781484],[136.16180739516912,35.75295740667716],[136.16166338472544,35.75321485343167]]]}},{"type":"Feature","properties":{"pid":"b84bb228-d71d-41b6-a826-f2c0be18f27b"},"geometry":{"type":"Polygon","coordinates":[[[136.16154075102475,35.75316683477902],[136.16171609138604,35.752805590147645],[136.16158322113498,35.75276024806903],[136.16149301875384,35.752748512647585],[136.16133270081104,35.75305882257438],[136.16154075102475,35.75316683477902]]]}},{"type":"Feature","properties":{"pid":"34dffb6f-7b33-4faa-b77b-01ca6de2ffc2"},"geometry":{"type":"Polygon","coordinates":[[[136.16075545121902,35.75277683520334],[136.16094738969466,35.75285600804012],[136.1610335134521,35.75267706944537],[136.16082659133514,35.75263084566905],[136.16075545121902,35.75277683520334]]]}},{"type":"Feature","properties":{"pid":"3be19bc1-4adf-4efc-a8dc-162154cd52ab"},"geometry":{"type":"Polygon","coordinates":[[[136.1603205747817,35.75266836153121],[136.1605361285135,35.75269125342317],[136.1606051452797,35.752554825863804],[136.16038735534696,35.752532295347656],[136.1603205747817,35.75266836153121]]]}},{"type":"Feature","properties":{"pid":"99853fa1-18b6-4a1e-9cb4-fa98a34660f7"},"geometry":{"type":"Polygon","coordinates":[[[136.16010122742097,35.752618143052636],[136.16016299745098,35.75249608843617],[136.15987833839233,35.752425160269844],[136.15984544774903,35.752488820795946],[136.16010122742097,35.752618143052636]]]}},{"type":"Feature","properties":{"pid":"dde6cc18-bd92-45aa-879b-a38b0754ea3f"},"geometry":{"type":"Polygon","coordinates":[[[136.15937810397733,35.752399244405076],[136.15947685998333,35.752450288705894],[136.15963661905266,35.75249264380343],[136.15969184268826,35.75248226166502],[136.15973983278687,35.752387511706395],[136.15955022861297,35.75233202136636],[136.15940203626494,35.75234602652606],[136.15937810397733,35.752399244405076]]]}},{"type":"Feature","properties":{"pid":"bc3aab23-902b-4640-9f1a-1552acf435a0"},"geometry":{"type":"Polygon","coordinates":[[[136.16105073951667,35.75125489342948],[136.16113461373658,35.751412346631064],[136.16121246837108,35.75148478244872],[136.16147727495576,35.75133956958341],[136.1613839929707,35.75120789906452],[136.1612533822533,35.75115536222122],[136.16105073951667,35.75125489342948]]]}},{"type":"Feature","properties":{"pid":"ed7faed5-ecb3-4ad7-bb0b-85b8d28558f8"},"geometry":{"type":"Polygon","coordinates":[[[136.16100659966926,35.75108174491954],[136.16112241310708,35.75103000060952],[136.16110421627667,35.75090464668143],[136.1610318829942,35.750797265235796],[136.1609885169827,35.7506943916918],[136.16081813841862,35.75081029749772],[136.16090758911423,35.75092160193035],[136.16100659966926,35.75108174491954]]]}},{"type":"Feature","properties":{"pid":"2385b37e-c476-4e2a-b833-9ad1c0d23776"},"geometry":{"type":"Polygon","coordinates":[[[136.16186429847517,35.751293448371676],[136.1619467349354,35.751201570668016],[136.16183821340454,35.75113853171131],[136.16168339754407,35.75108456399456],[136.16164277501093,35.75113007776087],[136.16169872471986,35.75121735140062],[136.16186429847517,35.751293448371676]]]}},{"type":"Feature","properties":{"pid":"2eaa4288-23d9-43a9-8330-fc779fa47dc9"},"geometry":{"type":"Polygon","coordinates":[[[136.1616805307224,35.75189240637095],[136.16196328213817,35.75173996839574],[136.16218018776635,35.751641876411675],[136.1619303783717,35.75154897076427],[136.16154644588323,35.75175783054096],[136.1616805307224,35.75189240637095]]]}},{"type":"Feature","properties":{"pid":"5cf990bf-5d42-41c3-8c36-56b4058e9419"},"geometry":{"type":"Polygon","coordinates":[[[136.16145128563898,35.751680008854734],[136.16177956793416,35.75150658527914],[136.16166638488136,35.75147262647103],[136.16155674178802,35.75141819347937],[136.16130461259277,35.75155701114196],[136.16145128563898,35.751680008854734]]]}},{"type":"Feature","properties":{"pid":"121acd66-e89a-4435-83ef-ab90e534d0bb"},"geometry":{"type":"Polygon","coordinates":[[[136.16199667669923,35.75190343903145],[136.1618522597952,35.751988747726514],[136.16186616169796,35.75202345682121],[136.1618471881615,35.752055498981164],[136.16194936170206,35.75218372053902],[136.1621779766681,35.75242070172128],[136.16233744621695,35.75234165667048],[136.16199667669923,35.75190343903145]]]}},{"type":"Feature","properties":{"pid":"df3f5c26-3a30-4de6-b118-b42f0a9d7eec"},"geometry":{"type":"Polygon","coordinates":[[[136.16209679047685,35.75184540524851],[136.16244354657823,35.75229169957179],[136.16265505592693,35.75217359954114],[136.16231185239636,35.75172770491741],[136.16209679047685,35.75184540524851]]]}},{"type":"Feature","properties":{"pid":"edb41392-512f-4efd-8959-629408ae09c7"},"geometry":{"type":"Polygon","coordinates":[[[136.16277762409217,35.75211021572715],[136.16291781062964,35.75204572864843],[136.16281275704668,35.751832530872655],[136.1626885167414,35.75174092315314],[136.16254702564197,35.751752039742236],[136.16251368056064,35.75176964331526],[136.16277762409217,35.75211021572715]]]}},{"type":"Feature","properties":{"pid":"fa9c4135-df04-4e13-bde4-a49bd7a1d477"},"geometry":{"type":"Polygon","coordinates":[[[136.1634427294726,35.75245242704751],[136.163488596033,35.752275644313336],[136.16330634671533,35.75203699940375],[136.16317053860143,35.75210427248156],[136.1634427294726,35.75245242704751]]]}},{"type":"Feature","properties":{"pid":"fb12c473-3140-46c6-b726-2a1800935f0f"},"geometry":{"type":"Polygon","coordinates":[[[136.16244194454498,35.75150068091989],[136.16204647432681,35.75126228802443],[136.1619781532568,35.75134096582328],[136.16236429715266,35.751477004378046],[136.16244194454498,35.75150068091989]]]}},{"type":"Feature","properties":{"pid":"86482b6e-135e-4a2a-bd50-e0d005a6ac1a"},"geometry":{"type":"Polygon","coordinates":[[[136.1631958440028,35.75264781152902],[136.16333803948527,35.75257002068763],[136.16303564650278,35.75217616813658],[136.1628834856905,35.752247211879556],[136.1631958440028,35.75264781152902]]]}},{"type":"Feature","properties":{"pid":"b75eec06-816c-43e0-be2b-37f162e3510d"},"geometry":{"type":"Polygon","coordinates":[[[136.16292498200275,35.75279689373261],[136.16308067320867,35.75271204620304],[136.16276061512588,35.75231300012738],[136.16259301654776,35.752394863041],[136.16292498200275,35.75279689373261]]]}},{"type":"Feature","properties":{"pid":"76a5ce29-27bd-4a5a-a884-2d2b4a3e3e01"},"geometry":{"type":"Polygon","coordinates":[[[136.16232383732225,35.75253493009871],[136.16264138580007,35.75295446911249],[136.16281099061305,35.75286664203438],[136.16248569976716,35.752462507883735],[136.16232383732225,35.75253493009871]]]}},{"type":"Feature","properties":{"pid":"f1bca09c-986e-40d4-8e96-99c5f07a405e"},"geometry":{"type":"Polygon","coordinates":[[[136.16288456873866,35.75321806151603],[136.1632811748317,35.75301039504695],[136.16328979156384,35.75294144967007],[136.16335285164604,35.752756036613654],[136.1627807319078,35.75307616682537],[136.16288456873866,35.75321806151603]]]}},{"type":"Feature","properties":{"pid":"eaa340d4-739a-4f8c-b6c0-e1e76a1af639"},"geometry":{"type":"Polygon","coordinates":[[[136.16261746562526,35.754043080618935],[136.16274594773864,35.753963043028435],[136.1627208793397,35.75377951299028],[136.16269901032973,35.753733546276415],[136.16262133928194,35.75394783715499],[136.16261746562526,35.754043080618935]]]}},{"type":"Feature","properties":{"pid":"55ddf63d-948d-4dd3-9088-7041d5f8163c"},"geometry":{"type":"Polygon","coordinates":[[[136.16306810630584,35.75385185159807],[136.16319627375304,35.75377846044743],[136.16315673846097,35.75356190630847],[136.16300663341804,35.75363861641949],[136.16306810630584,35.75385185159807]]]}},{"type":"Feature","properties":{"pid":"605a84e2-b9ba-437b-9cc8-6ffc2eb14a18"},"geometry":{"type":"Polygon","coordinates":[[[136.16445947797882,35.75642959502169],[136.1649212496653,35.75611824499355],[136.16480141680196,35.755974206172716],[136.16438247481457,35.75625588863736],[136.16445947797882,35.75642959502169]]]}},{"type":"Feature","properties":{"pid":"ecadb1a7-9a96-42cc-88b8-d295f1af504d"},"geometry":{"type":"Polygon","coordinates":[[[136.1646206250933,35.756655217314155],[136.1651054075253,35.756323524910464],[136.16499312925134,35.7562049315424],[136.16451474248743,35.75652154979199],[136.1646206250933,35.756655217314155]]]}},{"type":"Feature","properties":{"pid":"99701d4a-318b-4a6b-a7e1-f7b9d67e250f"},"geometry":{"type":"Polygon","coordinates":[[[136.164805981795,35.756860868469126],[136.1653001518821,35.75653365686462],[136.16518010974013,35.756419145341106],[136.16470234148989,35.75674394555574],[136.164805981795,35.756860868469126]]]}},{"type":"Feature","properties":{"pid":"f2c04df2-e636-40fd-aa0b-842a99255c16"},"geometry":{"type":"Polygon","coordinates":[[[136.1649309501836,35.75704710401158],[136.16563271844797,35.75689548028311],[136.16538975526845,35.756625066942476],[136.16487923647387,35.75696427534244],[136.1649309501836,35.75704710401158]]]}},{"type":"Feature","properties":{"pid":"5535a44b-28b3-47f1-8594-86d07f05031d"},"geometry":{"type":"Polygon","coordinates":[[[136.17031700020505,35.756830163496616],[136.17023600736815,35.75688719369708],[136.17015677106187,35.75702733772451],[136.17036182467498,35.75755639074148],[136.1703730180845,35.75764862398897],[136.1705348068783,35.75764628780201],[136.17031700020505,35.756830163496616]]]}},{"type":"Feature","properties":{"pid":"bb75db9a-5155-425f-9d8c-119ba81af33b"},"geometry":{"type":"Polygon","coordinates":[[[136.17207951086692,35.756551691098934],[136.1722019777791,35.756994483260875],[136.17249834963468,35.756876192858584],[136.17243201846512,35.756596615960085],[136.1722793103082,35.756552204910314],[136.17207951086692,35.756551691098934]]]}},{"type":"Feature","properties":{"pid":"1d499df9-2e14-43c8-a89a-8d4df88a1073"},"geometry":{"type":"Polygon","coordinates":[[[136.17171918136958,35.756550163247816],[136.17189456966446,35.75717621070381],[136.17209140674467,35.75705048941582],[136.17195702142436,35.75655122835977],[136.17171918136958,35.756550163247816]]]}},{"type":"Feature","properties":{"pid":"4ea5ba40-113c-433e-86b2-3de095ec33d8"},"geometry":{"type":"Polygon","coordinates":[[[136.17159592072002,35.75655684795993],[136.17139750456067,35.75660345662586],[136.1716239809132,35.75737838538521],[136.17178970130865,35.7572465034536],[136.17159592072002,35.75655684795993]]]}},{"type":"Feature","properties":{"pid":"11c89394-cdc7-479f-b823-0b309f22582f"},"geometry":{"type":"Polygon","coordinates":[[[136.17133382295756,35.75763374940082],[136.17136310182602,35.757629922635196],[136.17151872180455,35.75746596543451],[136.17127947315018,35.75663238091441],[136.17108813523365,35.75666902606147],[136.17133382295756,35.75763374940082]]]}},{"type":"Feature","properties":{"pid":"52eb4081-8566-413b-b6f0-d9c8891d6197"},"geometry":{"type":"Polygon","coordinates":[[[136.1744745075452,35.75710673651236],[136.1748088697525,35.757126574827],[136.17465336963704,35.756549827547936],[136.17432544988284,35.75652695447959],[136.1744745075452,35.75710673651236]]]}},{"type":"Feature","properties":{"pid":"341fc0ce-6122-4692-8c45-d3fd8cef55e5"},"geometry":{"type":"Polygon","coordinates":[[[136.17400329623572,35.75702710384761],[136.17413609991172,35.757069775830296],[136.17433606633577,35.75708843771997],[136.17418865545156,35.75651593421968],[136.17399614476747,35.75646872156173],[136.17386136656833,35.7564889520288],[136.17400329623572,35.75702710384761]]]}},{"type":"Feature","properties":{"pid":"4e82df19-865e-49ee-9602-d7b05067cbb0"},"geometry":{"type":"Polygon","coordinates":[[[136.1733875634145,35.75642070395963],[136.17350704206467,35.75685244274589],[136.17363684437933,35.756848833784176],[136.17373218557418,35.75687465083682],[136.17381470611565,35.756932977773495],[136.1738640339291,35.7569962652851],[136.17373595521974,35.75649819285732],[136.17353689551953,35.7564698958813],[136.1733875634145,35.75642070395963]]]}},{"type":"Feature","properties":{"pid":"ebfb117f-ff52-400c-be01-d32bb7ae3e39"},"geometry":{"type":"Polygon","coordinates":[[[136.1730446952859,35.75680759896319],[136.17338091357956,35.75687056276104],[136.17325664024102,35.75641506382901],[136.17319390224662,35.75642371721959],[136.1730894889921,35.75646875829229],[136.17297782484852,35.75655554068427],[136.1730446952859,35.75680759896319]]]}},{"type":"Feature","properties":{"pid":"fb59d71b-e315-4cec-b6a4-3e363996cd7d"},"geometry":{"type":"Polygon","coordinates":[[[136.17261359477024,35.75684289576818],[136.17291506262202,35.75681262369355],[136.17285674445526,35.75660946909948],[136.17279664955845,35.756638507064565],[136.17267236288663,35.75665953569369],[136.17256389962404,35.75663684806343],[136.17261359477024,35.75684289576818]]]}},{"type":"Feature","properties":{"pid":"f056c78d-8b7b-4792-b972-701760c80d3e"},"geometry":{"type":"Polygon","coordinates":[[[136.17478355416588,35.756542032316446],[136.1749331121873,35.7570953811926],[136.1750501006086,35.7570620792907],[136.1752116836663,35.75698062970602],[136.17508669644957,35.7565023537432],[136.17478355416588,35.756542032316446]]]}}]}