{"type":"FeatureCollection","features":[{"type":"Feature","properties":{"pid":"48529201-6cdd-43fa-a756-fdb9b0dc27f2"},"geometry":{"type":"Polygon","coordinates":[[[136.17279646492634,36.06629040641136],[136.17278377616515,36.06639287960537],[136.1728380122686,36.066397625410225],[136.17286976419817,36.066422956702276],[136.17293295987767,36.066425174201676],[136.17279646492634,36.06629040641136]]]}},{"type":"Feature","properties":{"pid":"9bb0d9d8-b047-47d8-9c24-913950cdee72"},"geometry":{"type":"Polygon","coordinates":[[[136.17265431122584,36.06597511350746],[136.1726684830838,36.065842867584756],[136.17254560475735,36.06586300492403],[136.17265431122584,36.06597511350746]]]}},{"type":"Feature","properties":{"pid":"62d4494b-4d8e-49c7-aed5-a0056bb8b852"},"geometry":{"type":"Polygon","coordinates":[[[136.17316530619792,36.066184706351564],[136.17312679436884,36.06626084077269],[136.17321778374858,36.06628811251099],[136.1732527291371,36.06621285438725],[136.17316530619792,36.066184706351564]]]}},{"type":"Feature","properties":{"pid":"ab68016a-b5ed-43f9-9980-b42910b34651"},"geometry":{"type":"Polygon","coordinates":[[[136.17334367806617,36.0656091251643],[136.17314361532868,36.06601524958821],[136.1738779453449,36.06624253204624],[136.17415323518145,36.065880924312296],[136.17334367806617,36.0656091251643]]]}},{"type":"Feature","properties":{"pid":"f3243358-ae7f-430d-acf8-e4bee42dac06"},"geometry":{"type":"Polygon","coordinates":[[[136.1749798256396,36.068528775036484],[136.17480482791197,36.068328023239125],[136.17476989818869,36.0683879262052],[136.1749173244897,36.06856046199541],[136.1749798256396,36.068528775036484]]]}},{"type":"Feature","properties":{"pid":"24f62728-2854-4cce-9240-953211b61ef6"},"geometry":{"type":"Polygon","coordinates":[[[136.17323852347414,36.063035340373254],[136.1746454346985,36.06345896196225],[136.17508873963845,36.06248811587958],[136.1736818004682,36.062064592763335],[136.17323852347414,36.063035340373254]]]}},{"type":"Feature","properties":{"pid":"f35f5814-5800-4e99-a3c3-cdf6356e5216"},"geometry":{"type":"Polygon","coordinates":[[[136.17317873776128,36.06317211760557],[136.17280649429017,36.06398727016177],[136.1743225426974,36.06416586383814],[136.17458332461212,36.06359503986453],[136.17317873776128,36.06317211760557]]]}},{"type":"Feature","properties":{"pid":"aded468e-c547-40c4-815d-0d1bc385ce2a"},"geometry":{"type":"Polygon","coordinates":[[[136.1739032426085,36.0655533326909],[136.1743264135368,36.065661895398726],[136.1751832833388,36.0645709976245],[136.17440295316848,36.064479571911],[136.1739032426085,36.0655533326909]]]}},{"type":"Feature","properties":{"pid":"4cdc6bb9-f1d1-4de3-b71b-9808eefc0539"},"geometry":{"type":"Polygon","coordinates":[[[136.17212798597632,36.065490111791334],[136.1723856677658,36.06556292807793],[136.1726986268433,36.06547137893263],[136.17272488955476,36.06540243595313],[136.17270533471492,36.06537483542612],[136.17224384842356,36.06523388325652],[136.17212798597632,36.065490111791334]]]}},{"type":"Feature","properties":{"pid":"23565244-eef0-4854-9903-982be5b58469"},"geometry":{"type":"Polygon","coordinates":[[[136.17230606092684,36.065097445271626],[136.17367431695536,36.06549994783295],[136.1737315741873,36.06549339159492],[136.1742098140829,36.06445595118599],[136.17268264066726,36.064276040274365],[136.17230606092684,36.065097445271626]]]}},{"type":"Feature","properties":{"pid":"057d7916-5458-4564-8c9d-8fd3e8d448e4"},"geometry":{"type":"Polygon","coordinates":[[[136.1720745920689,36.06503124203304],[136.1724342005163,36.06424682901273],[136.17025321720718,36.06399018050677],[136.1700556819761,36.06442070967522],[136.1720745920689,36.06503124203304]]]}},{"type":"Feature","properties":{"pid":"b1aeb1fd-bc63-4522-be83-6dc5bcf0b7f6"},"geometry":{"type":"Polygon","coordinates":[[[136.16986177740168,36.06506376441653],[136.1698848774441,36.06509846586369],[136.1717793121782,36.06567551639546],[136.17200019871288,36.06519346124159],[136.17198209734758,36.06515822783944],[136.1699874666777,36.06455813736157],[136.16994190901653,36.064670996247855],[136.16986177740168,36.06506376441653]]]}},{"type":"Feature","properties":{"pid":"22af356d-0623-4994-b69a-c597ce68186d"},"geometry":{"type":"Polygon","coordinates":[[[136.17108996132205,36.06565103385163],[136.17039041403257,36.065441605877254],[136.17038403420295,36.06544420715037],[136.17042820902464,36.06586169497114],[136.1709283814683,36.06600720553905],[136.17108996132205,36.06565103385163]]]}},{"type":"Feature","properties":{"pid":"8c0f9f9c-d486-48a5-982e-84ed2bfc1a9f"},"geometry":{"type":"Polygon","coordinates":[[[136.17269853388015,36.06380694010277],[136.1706196306093,36.06318322490967],[136.1703802442563,36.06370465366832],[136.17039313188093,36.06372556293972],[136.17259519728998,36.06398220647476],[136.17262347029381,36.06397503751247],[136.17269853388015,36.06380694010277]]]}},{"type":"Feature","properties":{"pid":"12b751c5-9c43-4962-b90e-80f6fb211010"},"geometry":{"type":"Polygon","coordinates":[[[136.1709306170363,36.06249523201935],[136.17068749523744,36.06302969465064],[136.17069714706676,36.06304948336248],[136.17276036058487,36.06367072148187],[136.17301104320765,36.063121659461935],[136.1709306170363,36.06249523201935]]]}},{"type":"Feature","properties":{"pid":"d06811c0-a549-406b-b0dc-e5f24f513426"},"geometry":{"type":"Polygon","coordinates":[[[136.1684649649651,36.06175267357945],[136.1681249160814,36.0625185180613],[136.17026504354564,36.063159353382005],[136.17061179926068,36.062399211996365],[136.1684649649651,36.06175267357945]]]}},{"type":"Feature","properties":{"pid":"8e6151ee-d994-4c55-9afb-ec0ad3a9c440"},"geometry":{"type":"Polygon","coordinates":[[[136.17020304275601,36.06329534754683],[136.1680661637929,36.0626520535325],[136.16775727168837,36.063334707726476],[136.16779805277025,36.063409166220495],[136.17002285654124,36.06369045936909],[136.17020304275601,36.06329534754683]]]}},{"type":"Feature","properties":{"pid":"3b53fb7c-d005-470f-a62d-1081c901aef7"},"geometry":{"type":"Polygon","coordinates":[[[136.1696624942925,36.0644805853473],[136.16989918107336,36.06395948698141],[136.16765428013136,36.063695335220004],[136.16762053464655,36.063710836989976],[136.16753871471272,36.063866997001924],[136.1696624942925,36.0644805853473]]]}},{"type":"Feature","properties":{"pid":"cc5ca028-e846-42de-9963-a3004d419bcd"},"geometry":{"type":"Polygon","coordinates":[[[136.16787281518137,36.06259411237793],[136.16707739251962,36.06236604790271],[136.1666957972722,36.063224774246834],[136.16737004609655,36.06330422361656],[136.16759786622708,36.063196522528415],[136.16787281518137,36.06259411237793]]]}},{"type":"Feature","properties":{"pid":"a31acb99-1d7b-405d-b072-cae41dff2230"},"geometry":{"type":"Polygon","coordinates":[[[136.1655264228734,36.062996772633504],[136.16588901431922,36.063130892741235],[136.16615455365996,36.0631740395037],[136.1665691762514,36.06321180057167],[136.1669656852173,36.06232486496156],[136.1665537399048,36.06219589809108],[136.16600656687413,36.062708975154536],[136.1655264228734,36.062996772633504]]]}},{"type":"Feature","properties":{"pid":"f07ea1b7-6c7d-403d-997e-a6e6b9551ac0"},"geometry":{"type":"Polygon","coordinates":[[[136.1660813035857,36.06378900393326],[136.16720030585617,36.063937368152814],[136.16729785473723,36.063780430650425],[136.16723379924227,36.063687283816925],[136.16620702941233,36.06355889531785],[136.16619358075243,36.06356148420557],[136.1660813035857,36.06378900393326]]]}},{"type":"Feature","properties":{"pid":"cef291a5-6b7a-4728-90d4-4890240b5de3"},"geometry":{"type":"Polygon","coordinates":[[[136.1692861858026,36.066277700682576],[136.1694447092173,36.06545320337907],[136.16784531518806,36.0649969419969],[136.1675033890591,36.0657814401189],[136.1692861858026,36.066277700682576]]]}},{"type":"Feature","properties":{"pid":"5f04413a-63db-4561-a924-1f0a9311e6cb"},"geometry":{"type":"Polygon","coordinates":[[[136.16745233598743,36.06400407269359],[136.16716528978588,36.06456154680433],[136.1673355503492,36.06461535464566],[136.16735023974246,36.06464764230265],[136.16733236179158,36.064695708780214],[136.1694623471827,36.06529833189482],[136.1696049057376,36.06461815966661],[136.16745233598743,36.06400407269359]]]}},{"type":"Feature","properties":{"pid":"de1a8a24-cf26-47ba-8b17-84ede964f218"},"geometry":{"type":"Polygon","coordinates":[[[136.1692552710887,36.06643565435359],[136.16698103414492,36.06578683964003],[136.1668101762468,36.06615934383384],[136.16675973559848,36.06616985354043],[136.16655322495893,36.06611178837307],[136.1663048217562,36.066689515469726],[136.16898972723118,36.06757120483875],[136.16911289513556,36.06716229392844],[136.1692552710887,36.06643565435359]]]}},{"type":"Feature","properties":{"pid":"912c907f-aac8-490e-b995-3927f127b35e"},"geometry":{"type":"Polygon","coordinates":[[[136.16599576506493,36.0679215621956],[136.16684280416354,36.06865449136917],[136.1676102350311,36.068611448673614],[136.16764306872344,36.068599090276635],[136.168082493244,36.06811328137423],[136.16745940789966,36.06781121661778],[136.16625862132838,36.06740820906876],[136.16599576506493,36.0679215621956]]]}},{"type":"Feature","properties":{"pid":"ef8e3e24-dd5a-4d4c-a678-3bdce5d7f388"},"geometry":{"type":"Polygon","coordinates":[[[136.16585580213132,36.06626459434112],[136.1655485600562,36.06622077095281],[136.16543934931974,36.06645524736885],[136.16586130708598,36.06659160523611],[136.16598047122233,36.06631864563518],[136.16585580213132,36.06626459434112]]]}},{"type":"Feature","properties":{"pid":"848e0588-8ca8-4f68-9990-5f1387d303a1"},"geometry":{"type":"Polygon","coordinates":[[[136.16202904309287,36.06701500108958],[136.16223427548763,36.067192840871385],[136.16252155353635,36.06695740692181],[136.16231604182815,36.0668028343384],[136.16202904309287,36.06701500108958]]]}},{"type":"Feature","properties":{"pid":"8ec6a93b-196c-4b0d-8245-afdd173a37d6"},"geometry":{"type":"Polygon","coordinates":[[[136.1624849890016,36.06742720392846],[136.16279283638485,36.0672017960091],[136.1625964245226,36.06703370013899],[136.1623095355975,36.06726740058487],[136.1624849890016,36.06742720392846]]]}},{"type":"Feature","properties":{"pid":"91b62f97-4bd1-4523-bb55-1ca1a0dc68c8"},"geometry":{"type":"Polygon","coordinates":[[[136.1621563803751,36.06749893549606],[136.16220952441822,36.067484345496645],[136.1623183229531,36.06753089040831],[136.16237104552505,36.067494915524605],[136.16208334043998,36.0672473479132],[136.16192098797603,36.06740890248598],[136.1621563803751,36.06749893549606]]]}},{"type":"Feature","properties":{"pid":"e8aa8e57-a17f-48a3-8a5c-1dd56c55b384"},"geometry":{"type":"Polygon","coordinates":[[[136.16260240047103,36.06751260901611],[136.1627704055531,36.06768331683815],[136.163046582743,36.06744048343183],[136.16290539748545,36.06730154909348],[136.16260240047103,36.06751260901611]]]}},{"type":"Feature","properties":{"pid":"206dc9ab-50d1-4401-b6d1-b5dd39f84f78"},"geometry":{"type":"Polygon","coordinates":[[[136.1638876751611,36.06823046240756],[136.16353213134784,36.06788104008798],[136.16320284406393,36.06811789712061],[136.16361233739028,36.06842513849583],[136.1638876751611,36.06823046240756]]]}},{"type":"Feature","properties":{"pid":"4dff6d4c-b310-44ab-a5cf-5e53d32b738d"},"geometry":{"type":"Polygon","coordinates":[[[136.16411690325626,36.06845862765062],[136.16395880292146,36.068300905752594],[136.1636938465507,36.06848824195883],[136.16386325464703,36.06862284689609],[136.16411690325626,36.06845862765062]]]}},{"type":"Feature","properties":{"pid":"4d651fa3-c5df-4f14-9e14-61a6cdd95503"},"geometry":{"type":"Polygon","coordinates":[[[136.16479375888144,36.06912928148453],[136.16418784608535,36.068529149017195],[136.16395280699052,36.068681321509125],[136.16465902237417,36.06921987932513],[136.16479375888144,36.06912928148453]]]}},{"type":"Feature","properties":{"pid":"34a57d8c-8188-4453-8765-3abdf4490d42"},"geometry":{"type":"Polygon","coordinates":[[[136.1643349651246,36.069392109854526],[136.1642819685016,36.06934964678718],[136.164198234907,36.06943580007825],[136.16425786059133,36.06946673947337],[136.1643349651246,36.069392109854526]]]}},{"type":"Feature","properties":{"pid":"0ad4932e-81a8-4f9f-948c-4da6a07ad6d9"},"geometry":{"type":"Polygon","coordinates":[[[136.16406667431653,36.069181461996244],[136.1639554989634,36.06930619099882],[136.16399643040998,36.069330093071066],[136.16412150139618,36.06922184088526],[136.16406667431653,36.069181461996244]]]}},{"type":"Feature","properties":{"pid":"5358d088-dc7d-4a27-b1e2-2d5583bbff6e"},"geometry":{"type":"Polygon","coordinates":[[[136.1636493239578,36.069137557654614],[136.16384064058724,36.069241654367964],[136.1638650615913,36.06923808489974],[136.16398548359228,36.069118094743956],[136.16382118683114,36.0689807163054],[136.1636493239578,36.069137557654614]]]}},{"type":"Feature","properties":{"pid":"726c6020-60b0-476d-a8ed-996f53509262"},"geometry":{"type":"Polygon","coordinates":[[[136.16357381051589,36.06906944833715],[136.1637412382925,36.06891668940049],[136.16358465644078,36.06879714865588],[136.16337551866042,36.068979612611514],[136.1635397633228,36.06907657948509],[136.16357381051589,36.06906944833715]]]}},{"type":"Feature","properties":{"pid":"5b82fd35-064e-4997-a019-29df6dda930d"},"geometry":{"type":"Polygon","coordinates":[[[136.16350362052444,36.068734198100834],[136.1630848762489,36.068415948708875],[136.16291557913908,36.0685656251142],[136.1632914194393,36.06891933573144],[136.16350362052444,36.068734198100834]]]}},{"type":"Feature","properties":{"pid":"9e815ed7-3fd1-47ad-9dbc-e4896759166a"},"geometry":{"type":"Polygon","coordinates":[[[136.1626641557069,36.069528305758105],[136.16293945608652,36.0695633944766],[136.16295098826666,36.06908959090716],[136.16200555219132,36.06910655596398],[136.16198602811184,36.069179296491605],[136.16199891109244,36.06922378740327],[136.16206697030316,36.069250562167745],[136.1621181193775,36.06931293019731],[136.1621232340277,36.069420310117614],[136.16217629747652,36.06950896247153],[136.1622921541033,36.06964216049659],[136.16245902367325,36.06956441888593],[136.1626641557069,36.069528305758105]]]}},{"type":"Feature","properties":{"pid":"4f62d778-71d8-4fe6-89ea-4adf55adf280"},"geometry":{"type":"Polygon","coordinates":[[[136.16251149321548,36.06846056624744],[136.16247919017584,36.06843555622291],[136.1621658716505,36.06849802278858],[136.16213884640814,36.06855314219362],[136.16243456341294,36.06851184205053],[136.16251149321548,36.06846056624744]]]}},{"type":"Feature","properties":{"pid":"3a04b1f2-573f-4205-8269-5e1ea96433b7"},"geometry":{"type":"Polygon","coordinates":[[[136.16213829520834,36.06839455823408],[136.16240007458677,36.06834586224147],[136.16205691890102,36.06805023373542],[136.16202657550014,36.0680739423042],[136.1621244067236,36.068245940764086],[136.1621453744601,36.06831521998417],[136.16213829520834,36.06839455823408]]]}},{"type":"Feature","properties":{"pid":"a8606710-9cbf-439f-a3cb-5b7b27a1654f"},"geometry":{"type":"Polygon","coordinates":[[[136.16222002726363,36.06787477374524],[136.1621789027914,36.06787898401296],[136.16215594021187,36.067903589493085],[136.16283426405795,36.06849991071159],[136.16300035187152,36.068355510598046],[136.16278650437832,36.06819467006818],[136.16249390849651,36.06801256386188],[136.16222002726363,36.06787477374524]]]}},{"type":"Feature","properties":{"pid":"aaa23eeb-fc42-4c55-a5a4-9bfe0b497d63"},"geometry":{"type":"Polygon","coordinates":[[[136.16285368295837,36.067758023925755],[136.16314611313754,36.0680108538831],[136.16344749415035,36.06779563042001],[136.16313753297175,36.06751084891613],[136.16285368295837,36.067758023925755]]]}},{"type":"Feature","properties":{"pid":"9665a69c-9686-4bb3-a0c0-abd9c1eae360"},"geometry":{"type":"Polygon","coordinates":[[[136.16189178480903,36.067920742280116],[136.1617674027571,36.06780322536943],[136.16173318211614,36.067842377213005],[136.16168833337,36.06784823687757],[136.1615726013943,36.06797597642905],[136.16164331150654,36.06802347415329],[136.16182264438876,36.0679851743542],[136.16189178480903,36.067920742280116]]]}},{"type":"Feature","properties":{"pid":"458c010c-8882-4112-8174-f7a2003283c6"},"geometry":{"type":"Polygon","coordinates":[[[136.16103308905338,36.06862270243787],[136.16128974573166,36.06821752049018],[136.16127506877794,36.068207286029846],[136.16120274598416,36.06828156947345],[136.16107737283494,36.06835032165012],[136.16081248309283,36.06835602990022],[136.16078222296264,36.06840187402442],[136.16078215273873,36.068490419081115],[136.16103308905338,36.06862270243787]]]}},{"type":"Feature","properties":{"pid":"4a338d52-e3a5-48b6-94f4-a0fb8d571d6a"},"geometry":{"type":"Polygon","coordinates":[[[136.16162937808406,36.06855120315195],[136.16142652060634,36.06830188757177],[136.16133616685588,36.06844738359515],[136.16148655645034,36.06863563550666],[136.16162937808406,36.06855120315195]]]}},{"type":"Feature","properties":{"pid":"5be14866-48f2-4178-91e0-1618220bbe86"},"geometry":{"type":"Polygon","coordinates":[[[136.1617350267396,36.06836386559598],[136.16161417669548,36.06817078040361],[136.16149093036364,36.06821586326383],[136.16171384811682,36.068489833609135],[136.16176626313208,36.06844557709969],[136.1617350267396,36.06836386559598]]]}},{"type":"Feature","properties":{"pid":"16e14831-a1d8-47d8-b7b7-950e359048e5"},"geometry":{"type":"Polygon","coordinates":[[[136.16185426704695,36.06833936551045],[136.16186218416786,36.06826258930967],[136.16178090931368,36.06812571602261],[136.16174185920465,36.06812887748965],[136.16185426704695,36.06833936551045]]]}},{"type":"Feature","properties":{"pid":"9a667572-a7b2-4f39-9172-7b4358416e0a"},"geometry":{"type":"Polygon","coordinates":[[[136.16115624155518,36.06869493398313],[136.16134924524238,36.06867584308411],[136.16125485790744,36.06854889972977],[136.16115624155518,36.06869493398313]]]}},{"type":"Feature","properties":{"pid":"b3bd6b05-b371-4588-88df-1b391e91b19f"},"geometry":{"type":"Polygon","coordinates":[[[136.160994083457,36.06876785646458],[136.16068117606514,36.06859556228977],[136.16053022207723,36.06869688034373],[136.16094738486927,36.06890532466323],[136.160994083457,36.06876785646458]]]}},{"type":"Feature","properties":{"pid":"a0439f1c-764f-4434-a5fd-e3f1fe3a6112"},"geometry":{"type":"Polygon","coordinates":[[[136.1610304685936,36.06909413198366],[136.1604378058125,36.06879111769381],[136.1604296094125,36.06888541536453],[136.16106323117234,36.069188727436575],[136.16108022777973,36.06917383747315],[136.1610304685936,36.06909413198366]]]}},{"type":"Feature","properties":{"pid":"1a0f3c1e-4d18-4955-beff-886e4b6f7c9b"},"geometry":{"type":"Polygon","coordinates":[[[136.16199977530297,36.06716861819742],[136.16174588698675,36.066951947675406],[136.16156336382335,36.067134672889715],[136.16151064033136,36.067146906370475],[136.16142861341038,36.06724726458726],[136.16180563386703,36.067357733488485],[136.16199977530297,36.06716861819742]]]}},{"type":"Feature","properties":{"pid":"e4efcebc-ef81-4450-9b05-497c83781cc6"},"geometry":{"type":"Polygon","coordinates":[[[136.16183647932624,36.06685020937924],[136.16193675079154,36.0669429366752],[136.16227670556353,36.06669316511033],[136.16215732722708,36.06658828597401],[136.16183647932624,36.06685020937924]]]}},{"type":"Feature","properties":{"pid":"bb8616b1-85ff-4578-8470-9c024326015f"},"geometry":{"type":"Polygon","coordinates":[[[136.1609034545559,36.06666090262309],[136.16090119886277,36.066688107903964],[136.1609331472102,36.06671010917004],[136.16128192895425,36.06638664823129],[136.16122030723412,36.06638715508521],[136.1609034545559,36.06666090262309]]]}},{"type":"Feature","properties":{"pid":"343eebd0-afb0-4e2b-9f1a-32bf105334a9"},"geometry":{"type":"Polygon","coordinates":[[[136.161159861315,36.066851827500614],[136.1611734047709,36.06686035055642],[136.16142731289636,36.06665138157516],[136.16140398958086,36.066636813371645],[136.161159861315,36.066851827500614]]]}},{"type":"Feature","properties":{"pid":"d17111dd-6ce1-4b8b-84a5-b5fa7717065f"},"geometry":{"type":"Polygon","coordinates":[[[136.16035516772104,36.066584118147496],[136.16042811042385,36.06649807642371],[136.1603722187639,36.0664645031118],[136.16031579887184,36.06653700091388],[136.16035516772104,36.066584118147496]]]}},{"type":"Feature","properties":{"pid":"b4540dd5-16f9-4b38-9c58-4a89ea88d946"},"geometry":{"type":"Polygon","coordinates":[[[136.15948586564886,36.065316483621466],[136.1594723335802,36.065378598046784],[136.1597838404246,36.06546567551001],[136.1599049195214,36.06554863214084],[136.16005312729985,36.06557670358945],[136.16008742043346,36.06538253914345],[136.15948586564886,36.065316483621466]]]}},{"type":"Feature","properties":{"pid":"cb432741-a146-40b8-990f-90da6ab1816e"},"geometry":{"type":"Polygon","coordinates":[[[136.16017285119526,36.06558155134285],[136.1609130103276,36.065603215044995],[136.16093646775434,36.06547532054139],[136.160207749149,36.065392846509994],[136.16017285119526,36.06558155134285]]]}},{"type":"Feature","properties":{"pid":"4f19544e-09d7-44ec-9608-5dbe96e50fea"},"geometry":{"type":"Polygon","coordinates":[[[136.16043543307063,36.06530018581524],[136.16094998432436,36.06536111951068],[136.16102210222596,36.06496477893679],[136.16050504273,36.06490701741814],[136.16043543307063,36.06530018581524]]]}},{"type":"Feature","properties":{"pid":"168399df-d585-412e-9eec-0df82068ecdc"},"geometry":{"type":"Polygon","coordinates":[[[136.1597972141048,36.06523363227047],[136.16031940631686,36.06528777672309],[136.16038680635958,36.064893297846844],[136.15986879299035,36.06483457362972],[136.1597972141048,36.06523363227047]]]}},{"type":"Feature","properties":{"pid":"82dd97e3-202f-4dea-a4d6-45067570da75"},"geometry":{"type":"Polygon","coordinates":[[[136.15935834880128,36.064756846500714],[136.15931775753398,36.06503743483263],[136.1593727696543,36.06514941700308],[136.15937740754103,36.06519012460856],[136.1596649742666,36.065220718068595],[136.1597410546994,36.06479957845403],[136.15935834880128,36.064756846500714]]]}},{"type":"Feature","properties":{"pid":"214ae2e4-cffe-43ee-b979-50b64e573cd8"},"geometry":{"type":"Polygon","coordinates":[[[136.1593536721227,36.064573933327374],[136.15937695857863,36.06465831751817],[136.15976340416017,36.06470126159871],[136.15977738959776,36.06462887466818],[136.1593536721227,36.064573933327374]]]}},{"type":"Feature","properties":{"pid":"fa3c5c8e-022c-4c1f-a939-d5f6048c5b7d"},"geometry":{"type":"Polygon","coordinates":[[[136.1595353616701,36.06448780265259],[136.15981793568957,36.06452332773331],[136.15991918046768,36.06396922327497],[136.1596356043215,36.06393667056558],[136.1595353616701,36.06448780265259]]]}},{"type":"Feature","properties":{"pid":"67438d61-39dd-4e62-91c5-e9ebd5f3295e"},"geometry":{"type":"Polygon","coordinates":[[[136.159942744785,36.064540004644094],[136.16042974908845,36.06459886195587],[136.160526815956,36.06403943761972],[136.1600429891095,36.063984785056896],[136.159942744785,36.064540004644094]]]}},{"type":"Feature","properties":{"pid":"dda80c55-0500-4a55-9fc1-f0911f4fa73a"},"geometry":{"type":"Polygon","coordinates":[[[136.15989610066023,36.06471793544712],[136.16082958658225,36.06482951973054],[136.16084455270072,36.06474862825813],[136.15990876946202,36.06464233429672],[136.15989610066023,36.06471793544712]]]}},{"type":"Feature","properties":{"pid":"c9e7701e-ef89-4d69-abe0-691880b82b0b"},"geometry":{"type":"Polygon","coordinates":[[[136.16095456587752,36.06484525843242],[136.16163835476678,36.06492416634788],[136.16162935044215,36.0648363683179],[136.16096917378275,36.06476259407751],[136.16095456587752,36.06484525843242]]]}},{"type":"Feature","properties":{"pid":"ed526572-de9e-4355-86d9-fda312ff8d7d"},"geometry":{"type":"Polygon","coordinates":[[[136.1605544153358,36.06461362970005],[136.16103464859688,36.0646657877299],[136.1611339391502,36.064112167323756],[136.16065202821878,36.06405491662994],[136.1605544153358,36.06461362970005]]]}},{"type":"Feature","properties":{"pid":"1c8ff18e-5d0a-468d-9bbd-1d634d3261a7"},"geometry":{"type":"Polygon","coordinates":[[[136.1611588590407,36.064680625793045],[136.16148648842233,36.06471856898677],[136.1615864964098,36.064160142889826],[136.16126379157365,36.06412467005906],[136.1611588590407,36.064680625793045]]]}},{"type":"Feature","properties":{"pid":"a9ef0454-527f-4bdd-8a53-231716fac60b"},"geometry":{"type":"Polygon","coordinates":[[[136.16108663440178,36.06537987181153],[136.1617391634226,36.0654607605077],[136.16166299866543,36.065039471761025],[136.16115559772953,36.06497750647368],[136.16108663440178,36.06537987181153]]]}},{"type":"Feature","properties":{"pid":"4b760dc1-4a1b-4928-9279-49220bc1958e"},"geometry":{"type":"Polygon","coordinates":[[[136.16102819138538,36.065661522606774],[136.16174890738554,36.065797254207865],[136.1617936913738,36.06568126806775],[136.1617498166945,36.065574118762605],[136.16105825617757,36.06549160782356],[136.16102819138538,36.065661522606774]]]}},{"type":"Feature","properties":{"pid":"6a55fccb-286d-4da9-9c5a-b3b0e58bc677"},"geometry":{"type":"Polygon","coordinates":[[[136.1632730462859,36.064194034704975],[136.16337506124347,36.063959703944576],[136.16349793309115,36.06373897343452],[136.16362965417306,36.06354885141114],[136.16380464524025,36.06334175247593],[136.16400420002697,36.063150985141235],[136.1642744650182,36.062945254225944],[136.16434098878332,36.06291956559964],[136.1643910818109,36.0628748689161],[136.16414121223883,36.06277417591945],[136.16360967807083,36.06338879574318],[136.16336457218839,36.06370859429643],[136.16327050008638,36.06392684155593],[136.1632000073273,36.06417288200038],[136.1632730462859,36.064194034704975]]]}},{"type":"Feature","properties":{"pid":"1077bb0d-7022-4aec-bf2d-561d7ae6ecc2"},"geometry":{"type":"Polygon","coordinates":[[[136.16129141820312,36.063942492078354],[136.16160367238066,36.0639787175636],[136.1617484786379,36.06317880371401],[136.16167530890192,36.06317603906927],[136.16142483717755,36.06322548519545],[136.16129141820312,36.063942492078354]]]}},{"type":"Feature","properties":{"pid":"a24861e5-0b8b-4298-898b-d3ce30b9a603"},"geometry":{"type":"Polygon","coordinates":[[[136.16068180598455,36.06387877966534],[136.16116760131672,36.06393273582126],[136.1612884061582,36.06325704286357],[136.1607734308699,36.0633712481679],[136.16068180598455,36.06387877966534]]]}},{"type":"Feature","properties":{"pid":"1c370af1-cc84-4717-8011-a1b0e19dcc42"},"geometry":{"type":"Polygon","coordinates":[[[136.15980108736696,36.063785045973404],[136.1605380054172,36.06387179491135],[136.16056242947226,36.06386221463139],[136.1606458269814,36.063406928730075],[136.16004291586614,36.06357818966394],[136.15990205572686,36.06368356320361],[136.15980108736696,36.063785045973404]]]}},{"type":"Feature","properties":{"pid":"57913001-1f40-459e-9032-808c62185b31"},"geometry":{"type":"Polygon","coordinates":[[[136.15751383097287,36.064930092774745],[136.15734642572605,36.065280348483974],[136.1575226854304,36.065334418019816],[136.15765764188737,36.065016823146216],[136.15766156235807,36.06497565596504],[136.15751383097287,36.064930092774745]]]}},{"type":"Feature","properties":{"pid":"e72afdb3-ee51-455e-a154-8a3bf7617770"},"geometry":{"type":"Polygon","coordinates":[[[136.1561520586239,36.06451011316448],[136.15595321967334,36.064448791345825],[136.1557846231718,36.064801245958535],[136.1559844537396,36.06486254618577],[136.1561520586239,36.06451011316448]]]}},{"type":"Feature","properties":{"pid":"00f35a3a-3e4c-49cb-9494-6f6c30731334"},"geometry":{"type":"Polygon","coordinates":[[[136.1574005085508,36.064895143452105],[136.1562645577199,36.06454480856306],[136.15609824071979,36.06489745207835],[136.1572322896712,36.06524533571415],[136.1574005085508,36.064895143452105]]]}},{"type":"Feature","properties":{"pid":"899c3aa6-8636-4a88-989e-9fd020c0ea0e"},"geometry":{"type":"Polygon","coordinates":[[[136.15635568182654,36.06565709368027],[136.1561994312342,36.0656157675443],[136.15608873280033,36.06587513197427],[136.15625099883255,36.065906849171384],[136.15635568182654,36.06565709368027]]]}},{"type":"Feature","properties":{"pid":"77f704cc-9ec0-4571-8742-3c0bed4ab51a"},"geometry":{"type":"Polygon","coordinates":[[[136.1560943149467,36.065583982703586],[136.15594334587433,36.06553214898378],[136.15584372336826,36.06582824783597],[136.15597908345094,36.06585396862636],[136.1560943149467,36.065583982703586]]]}},{"type":"Feature","properties":{"pid":"4e237304-2926-445f-abbb-159f25f4a1a0"},"geometry":{"type":"Polygon","coordinates":[[[136.15583731997194,36.06441304717224],[136.1554081595505,36.06428069352108],[136.1552506913882,36.06463745598999],[136.15566696310347,36.06476515206432],[136.15583731997194,36.06441304717224]]]}},{"type":"Feature","properties":{"pid":"9f47343d-d53f-4402-8f51-8cf6f1d408c5"},"geometry":{"type":"Polygon","coordinates":[[[136.1551885482938,36.06420475608713],[136.15480758999,36.06409639958661],[136.1546566666588,36.0644461781372],[136.15502090910576,36.064557731673816],[136.1551885482938,36.06420475608713]]]}},{"type":"Feature","properties":{"pid":"0113dcd3-1b6a-4dfa-b164-be8d32647cea"},"geometry":{"type":"Polygon","coordinates":[[[136.15470233888155,36.06406494851986],[136.1544172442909,36.063975477826375],[136.15425160482752,36.064329830054795],[136.154551269011,36.064415065359036],[136.15470233888155,36.06406494851986]]]}},{"type":"Feature","properties":{"pid":"7978a979-2a5e-4604-a292-99a30c95234e"},"geometry":{"type":"Polygon","coordinates":[[[136.15431266018302,36.06394261832583],[136.1541362915703,36.06388713802734],[136.15397164341604,36.064238821666514],[136.1541468095335,36.06429742111781],[136.15431266018302,36.06394261832583]]]}},{"type":"Feature","properties":{"pid":"f0fadeae-ac21-47c1-bcc1-7b7354414277"},"geometry":{"type":"Polygon","coordinates":[[[136.1531549252465,36.063610226111564],[136.15299939384863,36.0639307650131],[136.15386751899922,36.06420498112803],[136.15403133902493,36.0638550679558],[136.15318941277806,36.06360523090495],[136.1531549252465,36.063610226111564]]]}},{"type":"Feature","properties":{"pid":"06843eb3-0bac-4bc9-8795-7ce219606b80"},"geometry":{"type":"Polygon","coordinates":[[[136.1528307942555,36.06349649579843],[136.15267232705395,36.06383258691691],[136.15289404302354,36.063898468385354],[136.15305126457076,36.06356623704822],[136.1528307942555,36.06349649579843]]]}},{"type":"Feature","properties":{"pid":"c42f7e86-dd21-484c-bc0e-19e5ab4a2b68"},"geometry":{"type":"Polygon","coordinates":[[[136.15011751459429,36.06396708132777],[136.15012464419883,36.06398447640021],[136.15085448289983,36.064221228665694],[136.1509948847648,36.063948242461684],[136.15024712268627,36.063707118585086],[136.15011751459429,36.06396708132777]]]}},{"type":"Feature","properties":{"pid":"1d14d43b-fea4-42da-b0e4-57c976f76474"},"geometry":{"type":"Polygon","coordinates":[[[136.1516046560096,36.06414962770674],[136.15109892590758,36.06398223587861],[136.1509588600468,36.0642545654509],[136.1514712721263,36.06441579405685],[136.1516046560096,36.06414962770674]]]}},{"type":"Feature","properties":{"pid":"15de3d00-df52-4104-bd20-fb21856885c5"},"geometry":{"type":"Polygon","coordinates":[[[136.15182291050826,36.06422176098779],[136.15170851320025,36.06418397050046],[136.1515754935788,36.064449409135506],[136.15169495157326,36.06448887150649],[136.15182291050826,36.06422176098779]]]}},{"type":"Feature","properties":{"pid":"2e50e674-e414-4f52-96f7-ad0a49a741db"},"geometry":{"type":"Polygon","coordinates":[[[136.15198803992715,36.06472995760907],[136.15170967345472,36.06464183447392],[136.1515264898036,36.06500669684569],[136.15181215760663,36.06510003109612],[136.15198803992715,36.06472995760907]]]}},{"type":"Feature","properties":{"pid":"a4c88af0-78d5-40db-8301-1e21db8a12ac"},"geometry":{"type":"Polygon","coordinates":[[[136.15160124335048,36.06460783662961],[136.1511697619315,36.06446353940117],[136.1509885189268,36.06483373899853],[136.15141676350868,36.06497072027339],[136.15160124335048,36.06460783662961]]]}},{"type":"Feature","properties":{"pid":"2e176f17-8010-42f8-b790-666fd41defe4"},"geometry":{"type":"Polygon","coordinates":[[[136.150877362618,36.06479785816995],[136.1510483009768,36.06445259247885],[136.1509623443927,36.06442620841044],[136.15079418552682,36.064771126715215],[136.150877362618,36.06479785816995]]]}},{"type":"Feature","properties":{"pid":"c448b70e-5903-4b17-b6fd-5ed0c1cc5f10"},"geometry":{"type":"Polygon","coordinates":[[[136.15000031075985,36.064091503529085],[136.14982139152926,36.06445848431336],[136.15068991805862,36.06473761744162],[136.15087019855227,36.064367835043655],[136.15000031075985,36.064091503529085]]]}},{"type":"Feature","properties":{"pid":"fc9b372e-4d18-4958-947a-64a08151611d"},"geometry":{"type":"Polygon","coordinates":[[[136.15022487183117,36.06472938762371],[136.15015153328824,36.06470644139875],[136.150108626889,36.064798767212096],[136.1501756602073,36.06482611508247],[136.15022487183117,36.06472938762371]]]}},{"type":"Feature","properties":{"pid":"24986c4d-a447-4514-b32a-6b18405c4bff"},"geometry":{"type":"Polygon","coordinates":[[[136.15096910466386,36.06567057431371],[136.15091131927136,36.065691637524374],[136.15089921051248,36.065852957352185],[136.15096424848866,36.065866644785885],[136.15103751470818,36.06581922987856],[136.15096910466386,36.06567057431371]]]}},{"type":"Feature","properties":{"pid":"162a297e-57ba-4c9d-8532-5ac671ae6b38"},"geometry":{"type":"Polygon","coordinates":[[[136.15103141773582,36.065142346862274],[136.15147208750935,36.065176287936026],[136.1514830727988,36.06513391653061],[136.1510949724073,36.06500995108627],[136.15103141773582,36.065142346862274]]]}},{"type":"Feature","properties":{"pid":"a5f0c09a-b0df-4d5d-b591-53d9ec5db63e"},"geometry":{"type":"Polygon","coordinates":[[[136.15211415806215,36.06496062700073],[136.15212493010637,36.064983992529],[136.15229989787142,36.065026992347946],[136.15232114157186,36.06481064979614],[136.1522037152556,36.06477228122652],[136.15211415806215,36.06496062700073]]]}},{"type":"Feature","properties":{"pid":"2f2acc3b-c252-4018-953c-b31f2d6405a5"},"geometry":{"type":"Polygon","coordinates":[[[136.15256417580198,36.06446021253177],[136.15238912433466,36.06440391658026],[136.15225923212057,36.06465035755761],[136.15244315182326,36.064709271946406],[136.15256417580198,36.06446021253177]]]}},{"type":"Feature","properties":{"pid":"c362d3e1-b4b5-4aba-a313-280da70bf528"},"geometry":{"type":"Polygon","coordinates":[[[136.15179982698177,36.064523879096434],[136.152057291818,36.064605204573205],[136.1521829019258,36.06434571666396],[136.15192659887845,36.06425687664614],[136.15179982698177,36.064523879096434]]]}},{"type":"Feature","properties":{"pid":"d1a6952e-992b-4a79-b20c-cc09f026b5fc"},"geometry":{"type":"Polygon","coordinates":[[[136.152744933271,36.064799046065495],[136.15286477278082,36.0645565667723],[136.15266914202613,36.06449390149557],[136.15255240531167,36.06474364374764],[136.152744933271,36.064799046065495]]]}},{"type":"Feature","properties":{"pid":"676cf3dd-1453-4e27-b353-55a92d7342bc"},"geometry":{"type":"Polygon","coordinates":[[[136.1524329905053,36.06500475634816],[136.15259313539886,36.065010249677535],[136.15259941304103,36.06491126549479],[136.15244868846239,36.06485650928428],[136.1524329905053,36.06500475634816]]]}},{"type":"Feature","properties":{"pid":"7a7d5bbe-ce15-410c-83d7-59050e488b0f"},"geometry":{"type":"Polygon","coordinates":[[[136.15272298270392,36.064938633676405],[136.15271731623065,36.06499562628322],[136.15282887530051,36.064995810916656],[136.15282642362214,36.06493182657716],[136.15272298270392,36.064938633676405]]]}},{"type":"Feature","properties":{"pid":"969e2286-2598-43bd-924c-225e2a1c27d2"},"geometry":{"type":"Polygon","coordinates":[[[136.15665908379933,36.06574713198567],[136.15646153719507,36.06568716144256],[136.15634340454247,36.06596902960517],[136.15633252920864,36.06629243961121],[136.15641653934912,36.06630560036821],[136.15665908379933,36.06574713198567]]]}},{"type":"Feature","properties":{"pid":"43480044-1cbc-4985-a0f2-83659dc2831d"},"geometry":{"type":"Polygon","coordinates":[[[136.15695798103636,36.06584454021505],[136.1567635914156,36.065780291184915],[136.1565287956465,36.066320918708186],[136.15673265345265,36.06634583152579],[136.15695798103636,36.06584454021505]]]}},{"type":"Feature","properties":{"pid":"bdb35bb9-66ba-40ec-b655-d8901204e759"},"geometry":{"type":"Polygon","coordinates":[[[136.15628132582492,36.066643316362224],[136.15694076301048,36.06671179461993],[136.15704199524734,36.06654160639566],[136.15669449399482,36.06652186200479],[136.1563474828813,36.06648001166533],[136.15628132582492,36.066643316362224]]]}},{"type":"Feature","properties":{"pid":"4ad1a387-96e9-4875-93de-efc9bb29a99b"},"geometry":{"type":"Polygon","coordinates":[[[136.15686916754095,36.06679614844549],[136.1561456764117,36.06672101827699],[136.1560216958628,36.06681413691142],[136.15598703018972,36.06691422322399],[136.15609942067024,36.06694060761485],[136.1562223499645,36.06700001935214],[136.1562868056975,36.06706321744584],[136.15656722831505,36.067213407610524],[136.15669413026845,36.0671327255774],[136.15679154241317,36.066903257803574],[136.15686916754095,36.06679614844549]]]}},{"type":"Feature","properties":{"pid":"c19f90bb-c507-42d6-8052-a0ea9d10358f"},"geometry":{"type":"Polygon","coordinates":[[[136.15685093323444,36.066357655124435],[136.15707185906422,36.066372521874776],[136.1571043822365,36.066350759801686],[136.1572710762664,36.06594576324659],[136.15706747365545,36.06587850458019],[136.15685093323444,36.066357655124435]]]}},{"type":"Feature","properties":{"pid":"c684bb7e-b058-4dc5-817a-588eb60720df"},"geometry":{"type":"Polygon","coordinates":[[[136.15791215155997,36.06628168869749],[136.15805721738627,36.06629822185834],[136.1581752679564,36.06641424164535],[136.15828220429572,36.0664255836309],[136.15834345447152,36.06627995872979],[136.15745894537272,36.06601704735277],[136.15736342318544,36.06621445064844],[136.15752272881585,36.066287682751884],[136.1575864024278,36.06615558412687],[136.15764085352782,36.06613478184194],[136.15789425114127,36.06622550254923],[136.1579158278185,36.066251370734804],[136.15791215155997,36.06628168869749]]]}},{"type":"Feature","properties":{"pid":"29f7656c-80fd-41aa-bca0-caf4bdbd1338"},"geometry":{"type":"Polygon","coordinates":[[[136.1589380094843,36.066439064274725],[136.15877230023526,36.06639009229925],[136.1587438211335,36.06644928341075],[136.1589246311538,36.066472465720906],[136.1589380094843,36.066439064274725]]]}},{"type":"Feature","properties":{"pid":"19706708-916a-48d6-bce5-b3814b1e5f12"},"geometry":{"type":"Polygon","coordinates":[[[136.15866689502744,36.06635894072506],[136.15845810854432,36.06629723744823],[136.1583991721738,36.06643165106294],[136.1586274690115,36.066440883945596],[136.15866689502744,36.06635894072506]]]}},{"type":"Feature","properties":{"pid":"89f26303-e712-4937-b364-77f735bdd346"},"geometry":{"type":"Polygon","coordinates":[[[136.15964064002978,36.066922432180505],[136.15917395440897,36.06676238127481],[136.15914243386715,36.06686504859366],[136.1595935086026,36.067016789098474],[136.15964064002978,36.066922432180505]]]}},{"type":"Feature","properties":{"pid":"c5f8a74b-ff07-44bf-964e-7861b5c7ac93"},"geometry":{"type":"Polygon","coordinates":[[[136.1591514408146,36.06720923292865],[136.15924145861317,36.067241805502],[136.15927986460935,36.067205647583634],[136.15954136841532,36.06712117350216],[136.15955136286485,36.06710116470694],[136.15915543319326,36.066967975224294],[136.1591814778373,36.067063668952095],[136.1591514408146,36.06720923292865]]]}},{"type":"Feature","properties":{"pid":"d7908023-9e70-440a-acf1-d4c1f86714c4"},"geometry":{"type":"Polygon","coordinates":[[[136.159660688095,36.0676328413499],[136.15940354216536,36.067347292673475],[136.15931753870277,36.067429897966846],[136.15959034365562,36.067675398089904],[136.159660688095,36.0676328413499]]]}},{"type":"Feature","properties":{"pid":"51cd6268-da67-4c2c-b281-220b49fba011"},"geometry":{"type":"Polygon","coordinates":[[[136.15949174688097,36.06772259001975],[136.15924489885762,36.067500448614894],[136.15906451004477,36.067668985025136],[136.1592213046028,36.06782047728587],[136.1593033231082,36.06776674747823],[136.15949174688097,36.06772259001975]]]}},{"type":"Feature","properties":{"pid":"020eaf3a-6279-41b9-8652-476dcdbba9b0"},"geometry":{"type":"Polygon","coordinates":[[[136.1610844035029,36.06955644620254],[136.16133255467543,36.06969621135403],[136.16152833156676,36.06953151355469],[136.16124222166502,36.06936766687989],[136.1611240468394,36.06940491774812],[136.16111957007712,36.06948154548104],[136.1610844035029,36.06955644620254]]]}},{"type":"Feature","properties":{"pid":"1292430a-5001-449c-bfba-749046e723a0"},"geometry":{"type":"Polygon","coordinates":[[[136.16197569907683,36.069339088615116],[136.16191395954527,36.069323505368075],[136.16195331404995,36.06953114500934],[136.16201166687284,36.069503913617716],[136.16198173136655,36.0694428524508],[136.16197569907683,36.069339088615116]]]}},{"type":"Feature","properties":{"pid":"a2b269dc-be67-4bd7-8d57-584545663c71"},"geometry":{"type":"Polygon","coordinates":[[[136.16187147441062,36.06974982873203],[136.16202237896871,36.06977276535637],[136.16215519273902,36.06971107226024],[136.1620757865399,36.06960412273149],[136.1617802714388,36.06977360138041],[136.16187147441062,36.06974982873203]]]}},{"type":"Feature","properties":{"pid":"1884017e-9aa7-4424-b0c4-c25c39e70b6d"},"geometry":{"type":"Polygon","coordinates":[[[136.16474184913088,36.06969409007426],[136.1644157803336,36.0694560868456],[136.16435141139024,36.069518390610966],[136.16471731845277,36.06971813382742],[136.16474184913088,36.06969409007426]]]}},{"type":"Feature","properties":{"pid":"5a328330-5eb1-4758-9d4f-3801407ae25e"},"geometry":{"type":"Polygon","coordinates":[[[136.16471706442678,36.06991175364774],[136.16454488581326,36.069810265602754],[136.1644476199296,36.06997902382096],[136.16462997485894,36.07008612348969],[136.16471706442678,36.06991175364774]]]}},{"type":"Feature","properties":{"pid":"1eec1bbd-f6af-48ca-a44f-f1a376e21e06"},"geometry":{"type":"Polygon","coordinates":[[[136.15935715924104,36.05817785143942],[136.15955715114018,36.05797778305815],[136.15922863221635,36.05775030243948],[136.1591749324448,36.058067674417096],[136.15933517640013,36.05817963382563],[136.15935715924104,36.05817785143942]]]}},{"type":"Feature","properties":{"pid":"ef96bf1f-8789-4bb0-9934-3be837d75f18"},"geometry":{"type":"Polygon","coordinates":[[[136.15926896348444,36.05757299976552],[136.15925271821683,36.0576415272757],[136.1596340594109,36.05790478868836],[136.1596835222419,36.05786024205266],[136.15926896348444,36.05757299976552]]]}},{"type":"Feature","properties":{"pid":"515e029e-daca-467f-b326-361fabc55ffe"},"geometry":{"type":"Polygon","coordinates":[[[136.1686427004754,36.05700401143667],[136.16818300688058,36.05773072051195],[136.16985827770426,36.058224451191926],[136.17019687675523,36.05747985595447],[136.1686427004754,36.05700401143667]]]}},{"type":"Feature","properties":{"pid":"7f43c076-2ca6-41be-894b-bde34bbb9152"},"geometry":{"type":"Polygon","coordinates":[[[136.16756107740287,36.05880740913236],[136.16934909447653,36.059345968473586],[136.16978628682608,36.05837448341414],[136.16809354349854,36.05786911895164],[136.16780093598263,36.058331834887525],[136.16756107740287,36.05880740913236]]]}},{"type":"Feature","properties":{"pid":"900151e3-9332-4a62-b7b0-ec290edd1c97"},"geometry":{"type":"Polygon","coordinates":[[[136.1614168110773,36.05756674401544],[136.1614115666118,36.0575940123707],[136.16188183412623,36.057915727711155],[136.16207933899355,36.05772682881642],[136.16172743716973,36.05726471358842],[136.1614168110773,36.05756674401544]]]}},{"type":"Feature","properties":{"pid":"1a73a988-5188-4dc0-ba1e-7d79320da473"},"geometry":{"type":"Polygon","coordinates":[[[136.1612969296579,36.05747414527721],[136.16163317152004,36.057146554537574],[136.1614491636117,36.05690138149231],[136.16100637110176,36.05732562652893],[136.1612481305861,36.05748906149762],[136.1612969296579,36.05747414527721]]]}},{"type":"Feature","properties":{"pid":"566051ea-621e-4aa4-bdb0-7bb0976851d5"},"geometry":{"type":"Polygon","coordinates":[[[136.16006746304686,36.05688742904205],[136.15944067439952,36.057503570403924],[136.1596029202224,36.05761514137827],[136.1602290730675,36.05699546870777],[136.16006746304686,36.05688742904205]]]}},{"type":"Feature","properties":{"pid":"74ea257a-32c3-4450-ab43-688b5642757a"},"geometry":{"type":"Polygon","coordinates":[[[136.15978086449115,36.05774344546097],[136.15981527234453,36.05774013791603],[136.16040543258848,36.05716170864206],[136.1604003822984,36.05710535411693],[136.16031972658897,36.05705624323444],[136.1596895882479,36.05767679559657],[136.15978086449115,36.05774344546097]]]}},{"type":"Feature","properties":{"pid":"68899868-95ba-43e0-a5cd-1c901acd4769"},"geometry":{"type":"Polygon","coordinates":[[[136.16039571939473,36.05742929062918],[136.16040928642948,36.057464485647984],[136.16093852137183,36.057817193529196],[136.16097844571374,36.057776104863656],[136.16074357543428,36.057601383965185],[136.1607519969051,36.057567896803185],[136.16088702882485,36.05743403925518],[136.1606367412494,36.057262364375134],[136.16057192285902,36.057260674367214],[136.16039571939473,36.05742929062918]]]}},{"type":"Feature","properties":{"pid":"82614dc9-9554-4b0a-bae6-f942ae225553"},"geometry":{"type":"Polygon","coordinates":[[[136.16023588085633,36.05763011533306],[136.1607672196612,36.05799288982254],[136.16086733737183,36.05789522424364],[136.16030832973283,36.05752007695469],[136.1602248371922,36.05760003674811],[136.16023588085633,36.05763011533306]]]}},{"type":"Feature","properties":{"pid":"d275883e-6a06-4a84-b80f-6d80b231cb99"},"geometry":{"type":"Polygon","coordinates":[[[136.1601333267881,36.05768862269628],[136.15999090442963,36.05783146754419],[136.16054255990815,36.058206018182396],[136.1606882376983,36.05806234603468],[136.1601333267881,36.05768862269628]]]}},{"type":"Feature","properties":{"pid":"3f4b44e2-5a8d-4b43-ada0-941053156b22"},"geometry":{"type":"Polygon","coordinates":[[[136.1598933015475,36.057922204703424],[136.15971118096908,36.0581086305675],[136.16025725398072,36.05848291431801],[136.1604673598342,36.05827791593604],[136.15994579454653,36.057926519264306],[136.1598933015475,36.057922204703424]]]}},{"type":"Feature","properties":{"pid":"5f02ea59-3db8-4404-8118-3d21570e124b"},"geometry":{"type":"Polygon","coordinates":[[[136.16018193202117,36.058557480837436],[136.15963225994716,36.05818177380469],[136.1595189660177,36.058290342840536],[136.16006704397552,36.05866964726943],[136.16018193202117,36.058557480837436]]]}},{"type":"Feature","properties":{"pid":"a09b9830-e529-487c-9b62-22951db3cd00"},"geometry":{"type":"Polygon","coordinates":[[[136.1604237902615,36.05885113876397],[136.16052405859293,36.0588548127215],[136.16027194607418,36.0586832880499],[136.1602325864466,36.058721586483564],[136.1604237902615,36.05885113876397]]]}},{"type":"Feature","properties":{"pid":"4f00041a-81df-4aff-8477-ff0803623485"},"geometry":{"type":"Polygon","coordinates":[[[136.16124417779926,36.058960049441],[136.1613412483197,36.05894306575172],[136.16168165540228,36.05861838450803],[136.16158823517986,36.058553808818125],[136.16141626179845,36.05878435410486],[136.16124417779926,36.058960049441]]]}},{"type":"Feature","properties":{"pid":"4ba3f585-23df-4470-b57b-94864b65d4d0"},"geometry":{"type":"Polygon","coordinates":[[[136.16157886188924,36.05789859711917],[136.16127543114322,36.05770972345942],[136.16100778205043,36.05796964051144],[136.16129345193946,36.05817926635033],[136.16157886188924,36.05789859711917]]]}},{"type":"Feature","properties":{"pid":"d2dc0990-3e0f-479e-b200-f494f1343da5"},"geometry":{"type":"Polygon","coordinates":[[[136.16172142531258,36.05800484629918],[136.16142268168844,36.058298383765774],[136.1616464546922,36.058410091968184],[136.16180228031533,36.058513102115214],[136.16182649133336,36.05851395734623],[136.16199238653027,36.058352572243955],[136.1619153211267,36.058299067510205],[136.16190306666468,36.058270352888506],[136.16191604521205,36.05824184879649],[136.16198607750425,36.05818589770585],[136.16172142531258,36.05800484629918]]]}},{"type":"Feature","properties":{"pid":"25831dec-c7ba-4ce1-82f2-a8f54e00fdff"},"geometry":{"type":"Polygon","coordinates":[[[136.1621748475445,36.05784731720953],[136.1621459788206,36.05781103686462],[136.1619709737427,36.05797845448869],[136.16200844226597,36.05800459216107],[136.1621748475445,36.05784731720953]]]}},{"type":"Feature","properties":{"pid":"eb026a44-89d4-49da-8199-a7eddb20e24d"},"geometry":{"type":"Polygon","coordinates":[[[136.1638743991723,36.056873123769044],[136.16309774924278,36.05730060119079],[136.16332234375375,36.05759568900892],[136.16415994471723,36.057179906054515],[136.1638968274338,36.056877440067865],[136.1638743991723,36.056873123769044]]]}},{"type":"Feature","properties":{"pid":"c8a21bea-fc3a-4e0a-a3b2-5e8373cca737"},"geometry":{"type":"Polygon","coordinates":[[[136.16366141888452,36.059597031432084],[136.16345545838237,36.05966243542674],[136.16359723448255,36.059939008006],[136.1638453370159,36.06001755220897],[136.16387357861063,36.06000550760779],[136.16366141888452,36.059597031432084]]]}},{"type":"Feature","properties":{"pid":"e5a86f65-e305-40cd-8ed6-996d12c1992c"},"geometry":{"type":"Polygon","coordinates":[[[136.1628040134917,36.05995250771756],[136.16287448842505,36.06003315215869],[136.1630176480059,36.06008031977731],[136.16291934167117,36.05988289671077],[136.1628040134917,36.05995250771756]]]}},{"type":"Feature","properties":{"pid":"c71d648f-7e07-4f96-8b08-6f7de5dd255e"},"geometry":{"type":"Polygon","coordinates":[[[136.16344692460154,36.059894628931694],[136.1632109207867,36.059949606386404],[136.1631823617228,36.05993038617612],[136.16311427449523,36.0597782938519],[136.16301627728853,36.05982880813052],[136.16313335245076,36.06005959707777],[136.1632975453299,36.059971757744506],[136.16347027402944,36.05994101280488],[136.16344692460154,36.059894628931694]]]}},{"type":"Feature","properties":{"pid":"99e36bcc-041a-4983-99e5-90fb2a6ad4ad"},"geometry":{"type":"Polygon","coordinates":[[[136.16028528658924,36.058884408519894],[136.16015179579514,36.05879862416536],[136.16011841511423,36.05882751732935],[136.1602314773751,36.05890291761388],[136.16028528658924,36.058884408519894]]]}},{"type":"Feature","properties":{"pid":"7fb1a56a-1a60-4dd4-84bb-edf6ae4427cf"},"geometry":{"type":"Polygon","coordinates":[[[136.15998651609527,36.05895691028932],[136.16005289728946,36.058998116609395],[136.16014108693432,36.05896043246923],[136.16004517678095,36.058896488034144],[136.15998651609527,36.05895691028932]]]}},{"type":"Feature","properties":{"pid":"7aec7181-1a1a-4062-b514-275b8afeb20b"},"geometry":{"type":"Polygon","coordinates":[[[136.16511660308086,36.06200210512833],[136.16490720170552,36.06226419254617],[136.1650410565167,36.06233521542415],[136.16513859668697,36.06223249054141],[136.1652227025756,36.06219694604515],[136.16543087395664,36.06215907032105],[136.16511660308086,36.06200210512833]]]}},{"type":"Feature","properties":{"pid":"b8815b1b-319e-4fe7-9f7d-ef456d891849"},"geometry":{"type":"Polygon","coordinates":[[[136.16467207825403,36.06217129586406],[136.1647678472629,36.06222360375851],[136.1651641840407,36.0617183469788],[136.16509385310331,36.06168188810585],[136.16467207825403,36.06217129586406]]]}},{"type":"Feature","properties":{"pid":"d19605ea-b2a8-45d8-a60f-88b02dfa1525"},"geometry":{"type":"Polygon","coordinates":[[[136.16551590012728,36.06151807429021],[136.1659071468047,36.061718378402276],[136.16598103023344,36.06160872977024],[136.16560320397184,36.06141417881411],[136.16551590012728,36.06151807429021]]]}},{"type":"Feature","properties":{"pid":"12621286-c130-4770-96a3-1a8b05ea693a"},"geometry":{"type":"Polygon","coordinates":[[[136.1653633276863,36.06170850088012],[136.16576888812705,36.06191864129293],[136.16585496097053,36.06180660439954],[136.1654514290381,36.061598334509206],[136.1653633276863,36.06170850088012]]]}},{"type":"Feature","properties":{"pid":"1cf6e160-e39b-4437-80ce-dd291d60f433"},"geometry":{"type":"Polygon","coordinates":[[[136.16518453149772,36.06192268635056],[136.16554568241165,36.06210458467328],[136.16561783210426,36.06209653731438],[136.16572778253996,36.06201801985949],[136.16529388902404,36.06179201508968],[136.16518453149772,36.06192268635056]]]}},{"type":"Feature","properties":{"pid":"01434f40-6564-4704-a75f-75b910c43de6"},"geometry":{"type":"Polygon","coordinates":[[[136.1656633887731,36.061331682515565],[136.16604163576037,36.06152667401925],[136.1661555798688,36.06137505498455],[136.16597116221598,36.06131637610893],[136.16575379101627,36.06121312278338],[136.1656633887731,36.061331682515565]]]}},{"type":"Feature","properties":{"pid":"042a1533-65a8-47e7-9eeb-07bf69285d47"},"geometry":{"type":"Polygon","coordinates":[[[136.16516212533085,36.061602961553],[136.1652280392528,36.06163662306117],[136.16563224663065,36.06114553150765],[136.16556718117533,36.06110980032375],[136.16516212533085,36.061602961553]]]}},{"type":"Feature","properties":{"pid":"0ed8cc86-6473-4b9c-b46e-4a266c7cdcee"},"geometry":{"type":"Polygon","coordinates":[[[136.1671532571406,36.05993121841071],[136.16882926427277,36.06044921698086],[136.16927461171278,36.059491256116814],[136.167546043727,36.05897110100396],[136.1674591963289,36.05900713166206],[136.1672761676926,36.05950737766642],[136.1671532571406,36.05993121841071]]]}},{"type":"Feature","properties":{"pid":"8c763f75-5489-4d6f-b55f-c842a60cc29b"},"geometry":{"type":"Polygon","coordinates":[[[136.1669878907972,36.060622255224075],[136.16854172199518,36.061089897131374],[136.1687656458195,36.060589379518206],[136.167112091282,36.06009262892741],[136.1670762291441,36.06019923003399],[136.1669878907972,36.060622255224075]]]}},{"type":"Feature","properties":{"pid":"4653cfff-c6bc-4e78-ad01-8b761d2e7f13"},"geometry":{"type":"Polygon","coordinates":[[[136.16697659170777,36.06076854437135],[136.16694097546835,36.0611358515625],[136.16833317325353,36.06155243233818],[136.1684822794798,36.061222915080876],[136.16697659170777,36.06076854437135]]]}},{"type":"Feature","properties":{"pid":"9133b976-3ceb-4ab5-8fb6-a112213f28c8"},"geometry":{"type":"Polygon","coordinates":[[[136.1669308039523,36.06129780293468],[136.16690437098637,36.06152649558076],[136.16678276038368,36.061876794309065],[136.16667266605302,36.06206592124381],[136.16793969341134,36.06244853611634],[136.168282909802,36.0616985133394],[136.1669308039523,36.06129780293468]]]}},{"type":"Feature","properties":{"pid":"bb8dba42-e497-4c1f-85a5-102ef5a3c74e"},"geometry":{"type":"Polygon","coordinates":[[[136.1685268276594,36.06161643223821],[136.17067297895878,36.06226285216171],[136.1711265224927,36.06129493693271],[136.16897020540716,36.060645676868525],[136.1685268276594,36.06161643223821]]]}},{"type":"Feature","properties":{"pid":"5c48b1f8-2231-4b50-bca5-f6ab49a45880"},"geometry":{"type":"Polygon","coordinates":[[[136.17098788684717,36.062357606373546],[136.17307326427493,36.062985524297865],[136.173516172755,36.06201391660511],[136.17144449267371,36.06139073989099],[136.17142665231285,36.06139605079896],[136.17098788684717,36.062357606373546]]]}},{"type":"Feature","properties":{"pid":"6e40299f-772a-4066-b62f-43fd4eded1a9"},"geometry":{"type":"Polygon","coordinates":[[[136.17375665970698,36.06190747111737],[136.17377452687327,36.06193739687195],[136.17515092519716,36.06235204865372],[136.1755940750597,36.061381456379195],[136.17422645128366,36.06097525459707],[136.17417725943315,36.060988988392566],[136.17375665970698,36.06190747111737]]]}},{"type":"Feature","properties":{"pid":"67b1bc02-4789-4816-96a7-5ca94b5aa8fa"},"geometry":{"type":"Polygon","coordinates":[[[136.17191168387342,36.06027249379589],[136.17149485095774,36.061233695937965],[136.17150556996347,36.061254438455336],[136.1735787907818,36.06187863417649],[136.17402215366295,36.060907932507206],[136.17191168387342,36.06027249379589]]]}},{"type":"Feature","properties":{"pid":"521d8911-3600-42ef-abfb-f0dabb399be6"},"geometry":{"type":"Polygon","coordinates":[[[136.17196890833623,36.06013495149588],[136.1740842484415,36.060771882069865],[136.17452765521904,36.05980094358571],[136.1723728023891,36.05915203977823],[136.17196890833623,36.06013495149588]]]}},{"type":"Feature","properties":{"pid":"a7d8e2d0-1801-4855-9e77-102b79fbf1de"},"geometry":{"type":"Polygon","coordinates":[[[136.17274208102035,36.05824443653256],[136.17242575771766,36.059013152351284],[136.17458983255244,36.0596648853751],[136.1749365956853,36.05890531412322],[136.17274208102035,36.05824443653256]]]}},{"type":"Feature","properties":{"pid":"23c74650-0bda-4370-8698-f37b5a54880c"},"geometry":{"type":"Polygon","coordinates":[[[136.17166186845677,36.06004245819388],[136.17206809579832,36.05905257245434],[136.17151390568873,36.058888842957025],[136.1711232275567,36.05987920238067],[136.17166186845677,36.06004245819388]]]}},{"type":"Feature","properties":{"pid":"cabf4c57-019f-4fe4-80ac-71ffc46e39fc"},"geometry":{"type":"Polygon","coordinates":[[[136.16947288496698,36.059537985929644],[136.16903228309502,36.06050956860656],[136.17118162520637,36.06115058295082],[136.17160465314458,36.06018006715002],[136.16947288496698,36.059537985929644]]]}},{"type":"Feature","properties":{"pid":"1e426152-ece3-4109-862b-01a81996e1a6"},"geometry":{"type":"Polygon","coordinates":[[[136.17139866667316,36.05885190403336],[136.16999074080718,36.05843008857259],[136.16954361495652,36.05939869235982],[136.1710065574459,36.05984626898772],[136.17139866667316,36.05885190403336]]]}},{"type":"Feature","properties":{"pid":"baf10f1f-fe64-4940-8cbc-9c01c05c3604"},"geometry":{"type":"Polygon","coordinates":[[[136.17005556638395,36.05828654588667],[136.17211919968491,36.0589161037339],[136.17244138696867,36.058160402007246],[136.17040113253796,36.05754043640244],[136.17005556638395,36.05828654588667]]]}},{"type":"Feature","properties":{"pid":"380a97bd-ac3b-4249-b234-b7052ee4b350"},"geometry":{"type":"Polygon","coordinates":[[[136.1704582162822,36.05738904284117],[136.1724870738754,36.05801604201357],[136.17280948273844,36.057246097244864],[136.17080520994702,36.05663657536415],[136.1704582162822,36.05738904284117]]]}},{"type":"Feature","properties":{"pid":"4c9a9f9a-ab49-42e4-9a4f-bed86b76c353"},"geometry":{"type":"Polygon","coordinates":[[[136.1749987704564,36.05876931290103],[136.17534577459375,36.05800947021745],[136.17313606550556,36.057344116514614],[136.17310214740618,36.05735008755123],[136.1727898581871,36.058112068579895],[136.1749987704564,36.05876931290103]]]}}]}