{"type":"FeatureCollection","features":[{"type":"Feature","properties":{"pid":"13aef90f-0757-430d-b2f1-91ede3c8fc68"},"geometry":{"type":"Polygon","coordinates":[[[135.68933745444954,35.40699428301929],[135.68923119911616,35.40729651062695],[135.68917170085453,35.4075316243988],[135.68907669844342,35.40778108743447],[135.6891691686537,35.40781454817796],[135.6893486948009,35.40768703860529],[135.68946541350206,35.407556860180925],[135.68955119267892,35.40741008149721],[135.6895979267317,35.40726651212338],[135.6896184588812,35.407029315624364],[135.68933745444954,35.40699428301929]]]}},{"type":"Feature","properties":{"pid":"bc8e09db-e44f-4b84-aba2-42926e262f93"},"geometry":{"type":"Polygon","coordinates":[[[135.6862075757068,35.40807597464767],[135.68629792082314,35.408082582843505],[135.68675458791648,35.40774800356262],[135.68674672289208,35.407715630953426],[135.6867682965699,35.40763678092455],[135.68681462932597,35.40760111126058],[135.68685539445,35.40750027074385],[135.68686571943047,35.407400610269],[135.68683513409664,35.40734573599357],[135.68683645723632,35.40727731987165],[135.6868558355946,35.40725119297702],[135.68684816835628,35.407169111203274],[135.68623138313365,35.407160440943024],[135.6862075757068,35.40807597464767]]]}},{"type":"Feature","properties":{"pid":"a25cc5e2-bcf3-421d-bae7-b20e7beeb3c9"},"geometry":{"type":"Polygon","coordinates":[[[135.6862699140277,35.40851034226162],[135.6864540303386,35.40876440476322],[135.68651399211896,35.40877622048543],[135.6867602413303,35.40851536861496],[135.6868559707519,35.408398268318095],[135.6868664267419,35.408354811217166],[135.6869543153412,35.4082965191097],[135.68694785297944,35.40826493063387],[135.68697655116924,35.40820406299611],[135.68691707190033,35.408080816606535],[135.686567410121,35.40831769682109],[135.68653958832627,35.408363990379954],[135.6862699140277,35.40851034226162]]]}},{"type":"Feature","properties":{"pid":"147e47eb-72b3-4ad6-94f9-131feac56a37"},"geometry":{"type":"Polygon","coordinates":[[[135.68735829211263,35.40834759128827],[135.6872036471768,35.40834705050492],[135.68714898580737,35.408403807649925],[135.687313468938,35.4084071625582],[135.68735829211263,35.40834759128827]]]}},{"type":"Feature","properties":{"pid":"8366b857-719f-40c7-be87-db3930ca2084"},"geometry":{"type":"Polygon","coordinates":[[[135.68610811421524,35.408640854261726],[135.68605802096167,35.408580955982686],[135.6856429704841,35.40879135474112],[135.68594440501906,35.4092090696431],[135.68612885675722,35.40910151412573],[135.6859048490511,35.408795325315594],[135.685898594452,35.408761470686656],[135.68591877712748,35.408736264226405],[135.68610811421524,35.408640854261726]]]}},{"type":"Feature","properties":{"pid":"4e153785-86f4-4744-b86d-86ef1fae28fb"},"geometry":{"type":"Polygon","coordinates":[[[135.68389745437725,35.40869640775512],[135.6842370889751,35.40912928335754],[135.68585392052154,35.40832704723426],[135.68580327744374,35.40829960062285],[135.68461215872836,35.4083146142527],[135.68389745437725,35.40869640775512]]]}},{"type":"Feature","properties":{"pid":"49e026bb-5ac6-421b-94fb-1df055e9d08c"},"geometry":{"type":"Polygon","coordinates":[[[135.68540261430817,35.408073921870354],[135.6860256115847,35.40807405025482],[135.68604181415336,35.40757576605788],[135.6854158351856,35.40755392968194],[135.68540261430817,35.408073921870354]]]}},{"type":"Feature","properties":{"pid":"b88f6576-4aac-4d1f-887d-64b7f089a6ce"},"geometry":{"type":"Polygon","coordinates":[[[135.6854185877313,35.407445666180195],[135.6860442292381,35.4074729469003],[135.68604985276386,35.40715406488325],[135.6854263189906,35.40714156984271],[135.6854185877313,35.407445666180195]]]}},{"type":"Feature","properties":{"pid":"a0176b6f-fb82-4e1d-ae04-65eb40fa2f41"},"geometry":{"type":"Polygon","coordinates":[[[135.68458308824867,35.40736879797592],[135.68520059710914,35.40738013574006],[135.6851978976417,35.40713078274045],[135.68458502874992,35.407127389095784],[135.68458308824867,35.40736879797592]]]}},{"type":"Feature","properties":{"pid":"4bce6bf1-474b-4488-a208-b6932b900674"},"geometry":{"type":"Polygon","coordinates":[[[135.68457492585696,35.4080856193578],[135.6852011279207,35.40808160714338],[135.68520458619747,35.407485503381984],[135.68458268610829,35.40747198327386],[135.68457492585696,35.4080856193578]]]}},{"type":"Feature","properties":{"pid":"c9bfe620-95dc-4b20-b1f9-1e565a748101"},"geometry":{"type":"Polygon","coordinates":[[[135.683774647775,35.40712694973438],[135.68374196831974,35.407925743294946],[135.68381267991958,35.40808028775755],[135.6838131837212,35.40824567253394],[135.6839496962343,35.40840739623846],[135.6843608144028,35.40819677475585],[135.68437794004075,35.408155452641616],[135.68440030794557,35.40712518620596],[135.683774647775,35.40712694973438]]]}},{"type":"Feature","properties":{"pid":"12aafb2d-7755-48fc-9da7-8f0ab9e5cbc3"},"geometry":{"type":"Polygon","coordinates":[[[135.682892326707,35.40705365023364],[135.68289116547666,35.40737984704099],[135.6831030355147,35.40749726847874],[135.6834091478566,35.40763916511816],[135.68351624014872,35.40771934343657],[135.68355147978207,35.40704005802293],[135.682892326707,35.40705365023364]]]}},{"type":"Feature","properties":{"pid":"67654096-5827-4b3f-a83d-1b0d7d681398"},"geometry":{"type":"Polygon","coordinates":[[[135.68214441513553,35.409757418352065],[135.68221143924745,35.409827159396556],[135.6825159192411,35.409640932943],[135.6825570439981,35.409632465553464],[135.68258990202455,35.40964697663212],[135.68273697045316,35.40981123850345],[135.68390781745228,35.40910325380383],[135.68370294928124,35.40882489818174],[135.68339082841436,35.40899345090747],[135.68214441513553,35.409757418352065]]]}},{"type":"Feature","properties":{"pid":"edd56d03-2b9e-4f71-b806-9ae188bedf54"},"geometry":{"type":"Polygon","coordinates":[[[135.68081093482263,35.41057136736222],[135.68114834718236,35.41086941527847],[135.6811545581232,35.41091474771499],[135.6813574660822,35.41097450858109],[135.68171205999263,35.41075926274964],[135.68154709317702,35.4105776146415],[135.68153925971677,35.410552232553925],[135.6815533975051,35.410524140714905],[135.68227551114822,35.41008301289094],[135.68203185680142,35.40982919160247],[135.68081093482263,35.41057136736222]]]}},{"type":"Feature","properties":{"pid":"988e060c-2dff-4e3a-88cc-64a65520b154"},"geometry":{"type":"Polygon","coordinates":[[[135.68102223661714,35.4097799624763],[135.68125018680644,35.4101060177807],[135.68224185712128,35.40950301916852],[135.68219158618746,35.40942335665464],[135.68199750356933,35.40947677691641],[135.6813897570447,35.40955746314051],[135.68102223661714,35.4097799624763]]]}},{"type":"Feature","properties":{"pid":"67720a43-0f28-44fd-ab99-131f8a64dbe2"},"geometry":{"type":"Polygon","coordinates":[[[135.6809186185895,35.4096606558639],[135.68118326032914,35.409501985639146],[135.68099445413176,35.409512120242546],[135.68083953676276,35.40955730574672],[135.68089966465493,35.40965483640999],[135.6809186185895,35.4096606558639]]]}},{"type":"Feature","properties":{"pid":"1ceb00d2-11f9-437d-bc90-d9a9b11c6b65"},"geometry":{"type":"Polygon","coordinates":[[[135.6807616546128,35.4099268892212],[135.67990603477668,35.41044868026253],[135.68036594567693,35.4106411539112],[135.6810478776968,35.41022420379537],[135.6807616546128,35.4099268892212]]]}},{"type":"Feature","properties":{"pid":"57c1f892-cb4d-4969-88fe-c12dd2abcfee"},"geometry":{"type":"Polygon","coordinates":[[[135.67933670413709,35.41024772663482],[135.67969821178522,35.410407451748654],[135.6806826805325,35.40980800931422],[135.68054426580414,35.40968529700956],[135.68048705359303,35.409701781039516],[135.67978752322347,35.4100227233953],[135.6795490319354,35.41016198295313],[135.6793858596041,35.41021284700909],[135.67933670413709,35.41024772663482]]]}},{"type":"Feature","properties":{"pid":"fd22f51d-4040-4a19-bac3-b66aace0d762"},"geometry":{"type":"Polygon","coordinates":[[[135.67833535071867,35.411580158784126],[135.6784334191217,35.411772729548595],[135.67852018607272,35.411740135070374],[135.6785129955464,35.41169795214043],[135.67837531079778,35.41151648322527],[135.67833535071867,35.411580158784126]]]}},{"type":"Feature","properties":{"pid":"2fd85f5f-2210-449a-8661-4c14cfbcca40"},"geometry":{"type":"Polygon","coordinates":[[[135.67840580337503,35.41242002597768],[135.6788368822339,35.41225178821629],[135.67859189771826,35.4118216915593],[135.67825282537476,35.4119599425351],[135.67832371867277,35.41207049460915],[135.67832647358927,35.4120970845868],[135.67830164022283,35.4121257750221],[135.67818879676315,35.41217105562851],[135.6782664285212,35.412215617241735],[135.67834165707507,35.41228356913981],[135.67840580337503,35.41242002597768]]]}},{"type":"Feature","properties":{"pid":"dccd8b60-eb0c-433e-b268-fcf52b225d2e"},"geometry":{"type":"Polygon","coordinates":[[[135.67842926209644,35.412517225241885],[135.6785057372802,35.41260844845632],[135.67863527505867,35.4127225753581],[135.67876821791359,35.41263925670143],[135.6786490246694,35.41242828402258],[135.67842926209644,35.412517225241885]]]}},{"type":"Feature","properties":{"pid":"723b6ce0-788b-4b37-b8c1-4ea4a96b0748"},"geometry":{"type":"Polygon","coordinates":[[[135.68068396522403,35.42381136492593],[135.6809301744603,35.423638381057735],[135.68080611234905,35.42352717105017],[135.6806126854874,35.42366422066399],[135.68065780027,35.42379275753561],[135.68068396522403,35.42381136492593]]]}},{"type":"Feature","properties":{"pid":"ea08162c-7e4a-462e-9811-2c43f83c130f"},"geometry":{"type":"Polygon","coordinates":[[[135.68104620915,35.42355332523137],[135.68124257356357,35.423413679046924],[135.68121963386653,35.42339113661875],[135.6810973125191,35.42346553969351],[135.68103459395869,35.423454547459286],[135.68097210869942,35.42340454736251],[135.68092476063543,35.42344203990405],[135.68104620915,35.42355332523137]]]}},{"type":"Feature","properties":{"pid":"beb2030e-581e-45e8-b442-a4db091d83e0"},"geometry":{"type":"Polygon","coordinates":[[[135.68055552454268,35.423557580833396],[135.68071749999854,35.4234424651098],[135.68059724098705,35.42334051733827],[135.68051890044845,35.4233995706025],[135.68055552454268,35.423557580833396]]]}},{"type":"Feature","properties":{"pid":"19d22b27-02bf-4b06-9548-166035685229"},"geometry":{"type":"Polygon","coordinates":[[[135.68082047560247,35.42335454764922],[135.68101673661627,35.42320985617213],[135.68089996331798,35.423100709014676],[135.68072766734772,35.4232452140925],[135.68082047560247,35.42335454764922]]]}},{"type":"Feature","properties":{"pid":"7198c66c-ae37-4fee-9e70-db26e27ccaff"},"geometry":{"type":"Polygon","coordinates":[[[135.68110316817584,35.42313665650214],[135.68131946778885,35.42296834194224],[135.681219637768,35.42287050405476],[135.68099454303177,35.42302970860808],[135.68110316817584,35.42313665650214]]]}},{"type":"Feature","properties":{"pid":"7273c454-db93-4720-839d-83f03f618b0d"},"geometry":{"type":"Polygon","coordinates":[[[135.68055539464376,35.423071828706746],[135.68080865854265,35.422898055398555],[135.6810143001751,35.422753684745324],[135.68100061124343,35.42274407705207],[135.68054314876176,35.42306132761346],[135.68055539464376,35.423071828706746]]]}},{"type":"Feature","properties":{"pid":"ab937dde-e1d4-4af8-af1a-09defeda944e"},"geometry":{"type":"Polygon","coordinates":[[[135.68095138731312,35.42253607432479],[135.68117626935327,35.42231551916528],[135.68115542009988,35.42230190810527],[135.68093746942543,35.42252540430373],[135.68095138731312,35.42253607432479]]]}},{"type":"Feature","properties":{"pid":"b61df9b0-ef3e-4ea7-8dee-ecdb641f72c7"},"geometry":{"type":"Polygon","coordinates":[[[135.68084370107337,35.422458786117254],[135.68104236364132,35.42225938114152],[135.68102383149667,35.422246205115115],[135.68082373099813,35.42244433439447],[135.68084370107337,35.422458786117254]]]}},{"type":"Feature","properties":{"pid":"ea326552-7057-431a-9e08-79581267c06c"},"geometry":{"type":"Polygon","coordinates":[[[135.68072886750076,35.422379918764044],[135.68090691967777,35.42220323065198],[135.68087823993113,35.422183155361196],[135.68069818216418,35.42235907216397],[135.68072886750076,35.422379918764044]]]}},{"type":"Feature","properties":{"pid":"1f9fe767-6fd8-4bcf-ae2c-52cf3d401860"},"geometry":{"type":"Polygon","coordinates":[[[135.68019454975524,35.42266468655665],[135.6803258739382,35.422572358355666],[135.68055136227647,35.422415710020594],[135.6804730626051,35.422364738275576],[135.68035143889563,35.42254698571956],[135.6802638042792,35.4225947328187],[135.68019454975524,35.42266468655665]]]}},{"type":"Feature","properties":{"pid":"2ed55343-dc8c-4a50-b19f-9cf6e9a25cbd"},"geometry":{"type":"Polygon","coordinates":[[[135.68046934972108,35.42297507733004],[135.68058246161692,35.422900211066775],[135.68090263421797,35.42267447301168],[135.68088083134714,35.422660631207435],[135.68045380086096,35.42295864245736],[135.68046934972108,35.42297507733004]]]}},{"type":"Feature","properties":{"pid":"5dbb4b87-5a7c-491a-87e9-4d61d7ddf0a6"},"geometry":{"type":"Polygon","coordinates":[[[135.6803821557565,35.422870601949825],[135.68051056294976,35.42279477843159],[135.68078529585972,35.422594077805854],[135.68076920909743,35.422582992073494],[135.68037058541867,35.42285834302898],[135.6803821557565,35.422870601949825]]]}},{"type":"Feature","properties":{"pid":"7d82f0af-3783-40b4-8b61-a89618f463d5"},"geometry":{"type":"Polygon","coordinates":[[[135.68142193150376,35.4228945932523],[135.68161512554,35.42274243922921],[135.6815219307449,35.422654397456355],[135.6813332802728,35.42280823644497],[135.68142193150376,35.4228945932523]]]}},{"type":"Feature","properties":{"pid":"3057c0ee-820f-4816-9dd9-92c6fbd028c5"},"geometry":{"type":"Polygon","coordinates":[[[135.6816314507192,35.422554760571366],[135.6816541511481,35.422576837062124],[135.6818607050918,35.42243210514967],[135.68175044112104,35.422389847792594],[135.6816314507192,35.422554760571366]]]}},{"type":"Feature","properties":{"pid":"7f72ec1e-913c-4fb3-b7ef-0e6b9b131be8"},"geometry":{"type":"Polygon","coordinates":[[[135.68176013831297,35.42266832352052],[135.68190452917287,35.42256316461685],[135.68201408433683,35.422488073411294],[135.68198404833257,35.422477816144266],[135.68174087197102,35.42264872770074],[135.68176013831297,35.42266832352052]]]}},{"type":"Feature","properties":{"pid":"7e63322d-693d-4d34-b19c-0b9ff7647350"},"geometry":{"type":"Polygon","coordinates":[[[135.68220226516527,35.42228066608538],[135.68224259053096,35.42227341324396],[135.68217878935445,35.42205827831147],[135.68214099634196,35.42206421699495],[135.68220226516527,35.42228066608538]]]}},{"type":"Feature","properties":{"pid":"cb9b50e3-b8d0-49af-b020-195f3d4987ce"},"geometry":{"type":"Polygon","coordinates":[[[135.6823643698185,35.4222488588429],[135.6823881340064,35.42224385029315],[135.68232446189643,35.42203048569615],[135.68230034908873,35.42203501305835],[135.6823643698185,35.4222488588429]]]}},{"type":"Feature","properties":{"pid":"93a13c37-21e5-437d-bf75-4091ef06fe6e"},"geometry":{"type":"Polygon","coordinates":[[[135.68107134024075,35.42261882849549],[135.6814117510378,35.4222872447359],[135.68142570159344,35.422248048289305],[135.68141344907008,35.42223885011575],[135.68104251737353,35.42260057665231],[135.68107134024075,35.42261882849549]]]}},{"type":"Feature","properties":{"pid":"13aacf90-299b-425b-80a7-95496faccb21"},"geometry":{"type":"Polygon","coordinates":[[[135.68211280208047,35.42132072324782],[135.68215134663282,35.42140996373391],[135.68215362278298,35.42159496281467],[135.68249978870102,35.42150959930595],[135.68242259895945,35.421285768424205],[135.68211280208047,35.42132072324782]]]}},{"type":"Feature","properties":{"pid":"364e8bed-0bcb-4cf6-b652-747ab3e9eedc"},"geometry":{"type":"Polygon","coordinates":[[[135.68218474380615,35.42169905181172],[135.6822488253264,35.421932721371945],[135.68229779403703,35.421922982894124],[135.68223034977706,35.421690230396266],[135.68218474380615,35.42169905181172]]]}},{"type":"Feature","properties":{"pid":"3da9a7ed-8a48-47dc-a616-930cdf580f29"},"geometry":{"type":"Polygon","coordinates":[[[135.68241926686954,35.42189884548835],[135.68261482440764,35.42185700887112],[135.68259420790147,35.42178980849987],[135.68239757653356,35.42182595460429],[135.68241926686954,35.42189884548835]]]}},{"type":"Feature","properties":{"pid":"4dfe52f5-f2f1-4988-b1b7-09f68adf000b"},"geometry":{"type":"Polygon","coordinates":[[[135.68319316506972,35.42218168155701],[135.68326468886667,35.42242815884692],[135.68340032332324,35.42239529122237],[135.6832727729484,35.422164110157794],[135.68319316506972,35.42218168155701]]]}},{"type":"Feature","properties":{"pid":"d3ed4599-b89f-4f2d-99b5-423f744b0825"},"geometry":{"type":"Polygon","coordinates":[[[135.68299796712012,35.42247549525093],[135.68311304508725,35.42245034986269],[135.68304537953787,35.42221357672503],[135.68292984622303,35.42224189647021],[135.68299796712012,35.42247549525093]]]}},{"type":"Feature","properties":{"pid":"9682f533-2ad6-4e3b-9c92-bb26f7b1cf5a"},"geometry":{"type":"Polygon","coordinates":[[[135.68261959729242,35.42254055435857],[135.6826441183143,35.42253519652446],[135.68258499356546,35.42232486248203],[135.682555906749,35.42233048811991],[135.68261959729242,35.42254055435857]]]}},{"type":"Feature","properties":{"pid":"fff92142-6449-444e-9d50-81894c738fb7"},"geometry":{"type":"Polygon","coordinates":[[[135.6830908429435,35.42290532617889],[135.68313862719572,35.42291628218432],[135.68311752498116,35.4227365370165],[135.6830557306071,35.42274090628628],[135.6830908429435,35.42290532617889]]]}},{"type":"Feature","properties":{"pid":"743a8d66-3ed7-4ca7-8e91-e2f42ed74d3f"},"geometry":{"type":"Polygon","coordinates":[[[135.6832578783655,35.422915275293114],[135.68346243585958,35.42289169919583],[135.68341667708938,35.42273684547065],[135.6833818040294,35.42276044760062],[135.68323779112583,35.42277328129898],[135.6832578783655,35.422915275293114]]]}},{"type":"Feature","properties":{"pid":"563009f3-3f2b-4ac3-a799-a1db725ebab7"},"geometry":{"type":"Polygon","coordinates":[[[135.68353025923173,35.422636398898995],[135.68364709318615,35.42309227181397],[135.6837408952426,35.42309891758942],[135.68360561950593,35.42276609693976],[135.68353025923173,35.422636398898995]]]}},{"type":"Feature","properties":{"pid":"0d429ee4-3986-49a3-a434-a1f7bac29359"},"geometry":{"type":"Polygon","coordinates":[[[135.68314229860172,35.423154772383945],[135.68336935339295,35.423106525010006],[135.68350220775577,35.42309960549046],[135.68348503183222,35.423003561885366],[135.68318873282178,35.42303543028841],[135.6831138550453,35.42302486772775],[135.68314229860172,35.423154772383945]]]}},{"type":"Feature","properties":{"pid":"cb51919b-66aa-4185-afda-8be0556fcc56"},"geometry":{"type":"Polygon","coordinates":[[[135.68327647046203,35.42365473316242],[135.6833210197724,35.42364836071744],[135.68364711643613,35.42359175100013],[135.68354365075487,35.423573232987714],[135.6834365634347,35.42359101018818],[135.68333811308267,35.423618640662944],[135.68327437343936,35.42364431048791],[135.68327647046203,35.42365473316242]]]}},{"type":"Feature","properties":{"pid":"6393e59d-9f67-42f9-a679-73d4ff457d3a"},"geometry":{"type":"Polygon","coordinates":[[[135.68242240378652,35.42325142281093],[135.682554430531,35.4232467667745],[135.68251042621006,35.42309107494717],[135.68240050483868,35.42311104270061],[135.68242240378652,35.42325142281093]]]}},{"type":"Feature","properties":{"pid":"57a53f1b-8c09-4e5f-8ece-6a27799c7fc9"},"geometry":{"type":"Polygon","coordinates":[[[135.68186633871258,35.42331072014083],[135.68216140789804,35.42311229160237],[135.6822041326951,35.42306745847731],[135.6821260323421,35.42303197973508],[135.68210804845452,35.423038742593334],[135.68200159215417,35.423179733620756],[135.68195496696572,35.42319355513305],[135.68183455555246,35.42328221617525],[135.68186633871258,35.42331072014083]]]}},{"type":"Feature","properties":{"pid":"76022fdd-de00-4865-8b89-73664a3a003f"},"geometry":{"type":"Polygon","coordinates":[[[135.68164843370536,35.423094547029585],[135.68180833084978,35.42298251134495],[135.6818418016319,35.42295528591286],[135.68182276621422,35.42293768423874],[135.6816306361413,35.423077120222615],[135.68164843370536,35.423094547029585]]]}},{"type":"Feature","properties":{"pid":"a4f8db45-6c42-4554-920a-15abd5311356"},"geometry":{"type":"Polygon","coordinates":[[[135.68154017206757,35.42300275277812],[135.68174007587837,35.42285404651053],[135.68172188395945,35.42283435581704],[135.68152303726814,35.422985256102194],[135.68154017206757,35.42300275277812]]]}},{"type":"Feature","properties":{"pid":"e9f449ae-75f0-4c94-8708-2a26872d7057"},"geometry":{"type":"Polygon","coordinates":[[[135.68134081931078,35.423325004889186],[135.68153356513818,35.42318323252812],[135.68151294984384,35.423165329658396],[135.68132472015395,35.423309330971215],[135.68134081931078,35.423325004889186]]]}},{"type":"Feature","properties":{"pid":"115b6f13-8b08-4e05-971f-a1b95b1932e3"},"geometry":{"type":"Polygon","coordinates":[[[135.68155696350226,35.42353588731936],[135.68177149131793,35.423397583848356],[135.6816315551514,35.42327481777617],[135.68144217747687,35.423419003952795],[135.68155696350226,35.42353588731936]]]}},{"type":"Feature","properties":{"pid":"a726287d-443e-4391-bbc5-e3d4c3f8dee0"},"geometry":{"type":"Polygon","coordinates":[[[135.68169141505626,35.42367131267841],[135.68173238044187,35.423627389540975],[135.6818931120203,35.42357878101486],[135.68185848487047,35.42348884750779],[135.68164498353303,35.423626556554396],[135.68169141505626,35.42367131267841]]]}},{"type":"Feature","properties":{"pid":"8ad3c1e9-03c3-44f1-b986-a0ef2322d1e6"},"geometry":{"type":"Polygon","coordinates":[[[135.68511304494012,35.42308309044899],[135.68517241659924,35.42303605157972],[135.68485501375943,35.422753121612686],[135.68481022962058,35.422786021879965],[135.68482404582466,35.422824823097],[135.68511304494012,35.42308309044899]]]}},{"type":"Feature","properties":{"pid":"b7c33f98-c402-4d36-836d-216866451990"},"geometry":{"type":"Polygon","coordinates":[[[135.68507414599617,35.423808488895396],[135.68517231691598,35.42373419229037],[135.68520956638056,35.42356655766318],[135.68496114038993,35.42334319095977],[135.6849356645612,35.4233630636676],[135.684974855321,35.42371912736226],[135.68507414599617,35.423808488895396]]]}},{"type":"Feature","properties":{"pid":"51b94d97-0c49-4752-9a1a-877157fcf40b"},"geometry":{"type":"Polygon","coordinates":[[[135.68522352743207,35.42342773866184],[135.68524173218464,35.423359826134195],[135.68511343456584,35.42324364152569],[135.68506379961343,35.42328443368891],[135.68522352743207,35.42342773866184]]]}},{"type":"Feature","properties":{"pid":"cbd6256e-ec34-4a0e-9b18-28f25b33a022"},"geometry":{"type":"Polygon","coordinates":[[[135.6855191835234,35.42292489417607],[135.68564960026444,35.4230435997024],[135.68566823252974,35.423031187524316],[135.68554429711742,35.42290738647278],[135.6855191835234,35.42292489417607]]]}},{"type":"Feature","properties":{"pid":"0b8a76d2-5cd3-4b6e-8e28-b19b8a8bf0c2"},"geometry":{"type":"Polygon","coordinates":[[[135.6853304876514,35.423272446731445],[135.6855424418976,35.42311900231471],[135.6854291698852,35.42301665353429],[135.6852222665604,35.42317120840857],[135.6853304876514,35.423272446731445]]]}},{"type":"Feature","properties":{"pid":"72902b00-fd0a-4e0f-9db8-b6d26b628f54"},"geometry":{"type":"Polygon","coordinates":[[[135.68576728768807,35.42295973063495],[135.68582418695485,35.422918777533006],[135.68569048998384,35.42279426583892],[135.68563672010427,35.422835038781365],[135.68576728768807,35.42295973063495]]]}},{"type":"Feature","properties":{"pid":"3ed71438-6788-4d05-92c0-a6e64aed124e"},"geometry":{"type":"Polygon","coordinates":[[[135.68593901593817,35.42311452647324],[135.68598792416836,35.42310695943515],[135.68601104914168,35.42308739973187],[135.68592699195588,35.42301374706753],[135.68581706809488,35.42309463297294],[135.68593901593817,35.42311452647324]]]}},{"type":"Feature","properties":{"pid":"843b5e16-a38a-4cac-9460-0960dd7a9417"},"geometry":{"type":"Polygon","coordinates":[[[135.68630964024902,35.423578520406416],[135.68645104661002,35.42347332704946],[135.68617500168645,35.42321855228229],[135.68611480847687,35.42324973632879],[135.68611905872532,35.423271936622996],[135.68630964024902,35.423578520406416]]]}},{"type":"Feature","properties":{"pid":"8d12209a-0cf1-413d-976d-a97612ddc341"},"geometry":{"type":"Polygon","coordinates":[[[135.6881463302696,35.4236538737552],[135.6884053190091,35.423460714787254],[135.6880898745643,35.42317102255676],[135.68792889802845,35.42329307001832],[135.6881463302696,35.4236538737552]]]}},{"type":"Feature","properties":{"pid":"1a838d33-fa89-4aee-adc8-939f5ca35705"},"geometry":{"type":"Polygon","coordinates":[[[135.6886238724889,35.4236532600927],[135.68876119696395,35.42356043643778],[135.68875462187535,35.42354306446034],[135.68858030788655,35.423612425299034],[135.6886238724889,35.4236532600927]]]}},{"type":"Feature","properties":{"pid":"8e51d758-86d4-4949-b397-85bf1c42d556"},"geometry":{"type":"Polygon","coordinates":[[[135.6874549719883,35.42341535092639],[135.68752887324698,35.42335413994214],[135.68720172651913,35.4230697546819],[135.68712902883163,35.42312401399999],[135.6874549719883,35.42341535092639]]]}},{"type":"Feature","properties":{"pid":"df0cb3a9-979c-45b5-a737-872d3b64ad96"},"geometry":{"type":"Polygon","coordinates":[[[135.68715378213207,35.42363747379852],[135.68720535483473,35.4235998587146],[135.68687689298608,35.423311293075365],[135.68683038184247,35.42334696153775],[135.68715378213207,35.42363747379852]]]}},{"type":"Feature","properties":{"pid":"e1d50050-3372-4616-b9ca-bc8b4d74cfae"},"geometry":{"type":"Polygon","coordinates":[[[135.68729999407245,35.42353146063656],[135.68736367373492,35.423484104310994],[135.68704232230724,35.423188740483674],[135.6869748274838,35.423240959856884],[135.68729999407245,35.42353146063656]]]}},{"type":"Feature","properties":{"pid":"85e076c6-c09f-4b02-8801-56beeead7b5d"},"geometry":{"type":"Polygon","coordinates":[[[135.68698856926378,35.42376138225812],[135.68705913113956,35.423707642156096],[135.68673846129198,35.42342119111183],[135.68667256098882,35.4234744835593],[135.68698856926378,35.42376138225812]]]}},{"type":"Feature","properties":{"pid":"69269978-d717-4d1f-be7b-ec3e37bd767d"},"geometry":{"type":"Polygon","coordinates":[[[135.6868451943884,35.4238723417274],[135.68687203312797,35.423851874240434],[135.68655242340333,35.42356368655415],[135.68652089547726,35.42358709574858],[135.6868451943884,35.4238723417274]]]}},{"type":"Feature","properties":{"pid":"197da523-a668-49ec-8df5-b1cbba9269c9"},"geometry":{"type":"Polygon","coordinates":[[[135.68657351781525,35.423393324635875],[135.68682472368175,35.423214547345985],[135.68648800638283,35.422917823065745],[135.68625242951177,35.42309721358114],[135.68657351781525,35.423393324635875]]]}},{"type":"Feature","properties":{"pid":"ee14a86c-31d4-40b9-828c-b638b937c6cf"},"geometry":{"type":"Polygon","coordinates":[[[135.68660769726804,35.42263662370046],[135.6866745108417,35.42258802905091],[135.68634890208747,35.42229498095934],[135.68628063115005,35.422345219889095],[135.68660769726804,35.42263662370046]]]}},{"type":"Feature","properties":{"pid":"97a248ea-ecd8-4166-9ef1-108b5de6c943"},"geometry":{"type":"Polygon","coordinates":[[[135.68644829183597,35.42275450077478],[135.6865064322064,35.42270994881535],[135.68618742939847,35.42241980947087],[135.68613163435086,35.422461759724165],[135.68644829183597,35.42275450077478]]]}},{"type":"Feature","properties":{"pid":"8df4ceb3-b7e9-423d-8a96-4ce95815793d"},"geometry":{"type":"Polygon","coordinates":[[[135.68643642642547,35.42222817587101],[135.68675989622497,35.4225192029138],[135.68680278254837,35.42248404513118],[135.68648497997054,35.42219322130524],[135.68643642642547,35.42222817587101]]]}},{"type":"Feature","properties":{"pid":"96216cf6-1317-48da-bb5c-b183967c87c9"},"geometry":{"type":"Polygon","coordinates":[[[135.6874637391691,35.42216040635986],[135.68757624826884,35.422227805568056],[135.68761465900468,35.422212774260686],[135.6876515474932,35.42222046436095],[135.68773693949166,35.42230557210745],[135.68775092198874,35.42225149052497],[135.68761409940336,35.42220303712412],[135.68749774195751,35.4221306048219],[135.6874637391691,35.42216040635986]]]}},{"type":"Feature","properties":{"pid":"6a454644-eaa2-4c5b-91a1-546a3d743e10"},"geometry":{"type":"Polygon","coordinates":[[[135.68662018128094,35.42156153752397],[135.68662912667605,35.421603907035454],[135.68658777958754,35.421643400499285],[135.68662954655144,35.42166496100378],[135.68682596474105,35.421596865068466],[135.68672439972065,35.4214950420284],[135.68662018128094,35.42156153752397]]]}},{"type":"Feature","properties":{"pid":"19523119-bfaa-421c-be3f-df847192b6ef"},"geometry":{"type":"Polygon","coordinates":[[[135.68534792427474,35.421447127388966],[135.6854586251568,35.42136535337239],[135.68510238605248,35.42115485134871],[135.6850542868255,35.4211889683709],[135.68534792427474,35.421447127388966]]]}},{"type":"Feature","properties":{"pid":"95c819be-79cd-492d-8043-ce36239f6c16"},"geometry":{"type":"Polygon","coordinates":[[[135.68544103291694,35.42153700401417],[135.685762024903,35.421831063012846],[135.68583254385592,35.42177892478094],[135.68550271273887,35.42149360250191],[135.68544103291694,35.42153700401417]]]}},{"type":"Feature","properties":{"pid":"52201130-a629-43db-8eca-4e9bb97667b9"},"geometry":{"type":"Polygon","coordinates":[[[135.68519488928476,35.421719654045425],[135.68512507764652,35.42177234948483],[135.68545236630996,35.42206371391135],[135.68551947957027,35.42201314145139],[135.68519488928476,35.421719654045425]]]}},{"type":"Feature","properties":{"pid":"d5b45e1b-fde0-4aee-a72c-c9d897170423"},"geometry":{"type":"Polygon","coordinates":[[[135.68535045101387,35.42160287264044],[135.68528650592282,35.42165253633017],[135.6856122686106,35.42194265713876],[135.68567090472493,35.421898691762316],[135.68535045101387,35.42160287264044]]]}},{"type":"Feature","properties":{"pid":"faa6fdd3-624a-4af1-9ac1-103a5989e1b2"},"geometry":{"type":"Polygon","coordinates":[[[135.68617328028427,35.42226819271081],[135.68638678364158,35.422108457317464],[135.6860711931528,35.421826768808394],[135.68585540321857,35.42198159019552],[135.68617328028427,35.42226819271081]]]}},{"type":"Feature","properties":{"pid":"0ed45823-e62f-4daf-8387-956b4c538058"},"geometry":{"type":"Polygon","coordinates":[[[135.68602987405532,35.42237669465497],[135.68608058684583,35.42233870609372],[135.68575998012258,35.42204863778364],[135.68569976398484,35.42209405774521],[135.68602987405532,35.42237669465497]]]}},{"type":"Feature","properties":{"pid":"bf2032f0-15c0-4f58-bb16-6bf7c7e25928"},"geometry":{"type":"Polygon","coordinates":[[[135.68586622527826,35.42249391518848],[135.68593069857613,35.4224443674745],[135.68560769701918,35.42216853201801],[135.685550290539,35.42221012787069],[135.68586622527826,35.42249391518848]]]}},{"type":"Feature","properties":{"pid":"01c5b066-10e9-44bd-ad0d-e257e59c00f1"},"geometry":{"type":"Polygon","coordinates":[[[135.68613197261809,35.42299813302373],[135.686355427385,35.422826673643776],[135.68603891279668,35.42253126321566],[135.6858107568531,35.42269312752824],[135.68613197261809,35.42299813302373]]]}},{"type":"Feature","properties":{"pid":"2b7a4b18-ece0-4bbb-99ce-a31abf4dbe57"},"geometry":{"type":"Polygon","coordinates":[[[135.68571339008395,35.42260628902757],[135.68577302858955,35.42255778214238],[135.68545770134062,35.42227708449904],[135.68539439325204,35.42232305869623],[135.68571339008395,35.42260628902757]]]}},{"type":"Feature","properties":{"pid":"7800e32c-af1c-4723-8997-aa77b13d27ca"},"geometry":{"type":"Polygon","coordinates":[[[135.68557986042924,35.42273943536753],[135.6856085539605,35.42271882765629],[135.68528104501448,35.422429132613956],[135.68525909014804,35.42244493768943],[135.68557986042924,35.42273943536753]]]}},{"type":"Feature","properties":{"pid":"7f1c4702-982b-417e-924a-99f78d0cef7d"},"geometry":{"type":"Polygon","coordinates":[[[135.6854274984258,35.422850830673696],[135.68548858136813,35.42280970765632],[135.68516427225887,35.42251637549071],[135.68510080785126,35.42256333781023],[135.6854274984258,35.422850830673696]]]}},{"type":"Feature","properties":{"pid":"44e91b91-587f-4cef-bb9f-ae5df168a4d5"},"geometry":{"type":"Polygon","coordinates":[[[135.68526579435417,35.42296401017713],[135.68532383600265,35.42291844164824],[135.68500646772785,35.42263754898119],[135.68494549853003,35.42268277919392],[135.68526579435417,35.42296401017713]]]}},{"type":"Feature","properties":{"pid":"95c959ad-d9ef-4169-891a-86eaeab60f8e"},"geometry":{"type":"Polygon","coordinates":[[[135.68503607053634,35.421836461640275],[135.68497152766108,35.42188690216772],[135.6853005176584,35.42218138736015],[135.68536704084732,35.42213105092849],[135.68503607053634,35.421836461640275]]]}},{"type":"Feature","properties":{"pid":"edb596ed-9c5b-4644-8515-ab59ad4f3672"},"geometry":{"type":"Polygon","coordinates":[[[135.68513776815237,35.42229630916997],[135.68520661861135,35.42224550063996],[135.68488100992457,35.42195735753181],[135.68480614330625,35.422011882800696],[135.68513776815237,35.42229630916997]]]}},{"type":"Feature","properties":{"pid":"2aff7b84-dd40-4f21-8059-153dc10dfbeb"},"geometry":{"type":"Polygon","coordinates":[[[135.68459282378194,35.42221539731958],[135.68464319253397,35.42230828459846],[135.68475841634728,35.42258739492275],[135.68489767903637,35.42248154963688],[135.68459282378194,35.42221539731958]]]}},{"type":"Feature","properties":{"pid":"fea4ff37-51b7-4921-ad8d-80a117c78f6b"},"geometry":{"type":"Polygon","coordinates":[[[135.68498574545882,35.42241398923785],[135.68504959528047,35.42236623277139],[135.68472256014272,35.422085867591164],[135.6846617952987,35.42213186799085],[135.68498574545882,35.42241398923785]]]}},{"type":"Feature","properties":{"pid":"a1ec1d49-8e02-496a-83a6-20e56858537f"},"geometry":{"type":"Polygon","coordinates":[[[135.68471288420017,35.42193203476505],[135.68479204712858,35.421872127837496],[135.68447279259618,35.421584955165905],[135.68439776614403,35.421639979793774],[135.68471288420017,35.42193203476505]]]}},{"type":"Feature","properties":{"pid":"b190122c-21f1-4238-aa30-aee7e17ef084"},"geometry":{"type":"Polygon","coordinates":[[[135.6848942480994,35.42177307508066],[135.68521472461762,35.42152823915503],[135.6849274879645,35.42127323213207],[135.68459106544387,35.42150841092599],[135.6848942480994,35.42177307508066]]]}},{"type":"Feature","properties":{"pid":"2babeed0-a64f-4e76-88b8-d031dc658d3f"},"geometry":{"type":"Polygon","coordinates":[[[135.6845794885463,35.421301476960366],[135.68464041512547,35.42125796747471],[135.68432170852606,35.42097077079421],[135.68425665262188,35.421021567324765],[135.6845794885463,35.421301476960366]]]}},{"type":"Feature","properties":{"pid":"7858c314-3191-4ed4-b22d-96190fc7e91c"},"geometry":{"type":"Polygon","coordinates":[[[135.68442174515823,35.421423966359285],[135.68448874230083,35.421373075531235],[135.68416647879013,35.421093717822096],[135.68410329904128,35.42114308965366],[135.68442174515823,35.421423966359285]]]}},{"type":"Feature","properties":{"pid":"891f541c-e52d-4656-8b6f-bc98ebe136d7"},"geometry":{"type":"Polygon","coordinates":[[[135.68426681536175,35.421542529183924],[135.68433163301972,35.42149236816098],[135.68401594013957,35.421212996094155],[135.6839497995411,35.42127071145395],[135.68426681536175,35.421542529183924]]]}},{"type":"Feature","properties":{"pid":"cdf23ae0-bbfb-41fa-a313-39e87ae14608"},"geometry":{"type":"Polygon","coordinates":[[[135.68400129119792,35.42104097985264],[135.68406883685998,35.42099030555635],[135.68375041854657,35.42071017981208],[135.68369313507336,35.420750167358385],[135.68400129119792,35.42104097985264]]]}},{"type":"Feature","properties":{"pid":"504f3c91-03a1-430e-b4aa-86e127a9ad9e"},"geometry":{"type":"Polygon","coordinates":[[[135.68416810737526,35.42091475403327],[135.6842167790112,35.420879413100366],[135.68390504853687,35.42059560570076],[135.68385008649716,35.420635046829624],[135.68416810737526,35.42091475403327]]]}},{"type":"Feature","properties":{"pid":"5709a27b-8526-4654-bc96-050c88b8bd84"},"geometry":{"type":"Polygon","coordinates":[[[135.68474230229603,35.42118546742273],[135.68480066050373,35.42114135248212],[135.68447504810092,35.42085217411497],[135.68441055345812,35.42090085213563],[135.68474230229603,35.42118546742273]]]}},{"type":"Feature","properties":{"pid":"3ad7cfa7-76b4-4a92-af77-03c899787248"},"geometry":{"type":"Polygon","coordinates":[[[135.68491246775423,35.42106515746793],[135.68494392462873,35.421038475301216],[135.68458931122998,35.420780361146676],[135.68491246775423,35.42106515746793]]]}},{"type":"Feature","properties":{"pid":"7c2a9e45-0586-4ada-9ca7-1326bebb34ae"},"geometry":{"type":"Polygon","coordinates":[[[135.6843106439765,35.42078817268101],[135.68436169120739,35.420750296075425],[135.68407577293289,35.42048890827049],[135.6840240233955,35.420525554224014],[135.6843106439765,35.42078817268101]]]}},{"type":"Feature","properties":{"pid":"d4204ea7-0884-41c5-931e-d7926e969775"},"geometry":{"type":"Polygon","coordinates":[[[135.68403038587797,35.420319953912305],[135.6840594049972,35.42029475528478],[135.6837849322203,35.41998015845328],[135.68370373651112,35.420039386847854],[135.68403038587797,35.420319953912305]]]}},{"type":"Feature","properties":{"pid":"4702addc-dfd9-4434-958d-f73a229944b9"},"geometry":{"type":"Polygon","coordinates":[[[135.6839483034453,35.41770275947976],[135.6841208892992,35.41762262563475],[135.68401102104932,35.41745915528264],[135.68393165441645,35.41745981788057],[135.6839483034453,35.41770275947976]]]}},{"type":"Feature","properties":{"pid":"562d0b18-e15d-4ab3-80bf-63eb30796845"},"geometry":{"type":"Polygon","coordinates":[[[135.6837910886796,35.417751822189125],[135.6837761867069,35.4174666274919],[135.68370320442907,35.41747008972366],[135.68371603040944,35.41760209945049],[135.6837910886796,35.417751822189125]]]}},{"type":"Feature","properties":{"pid":"a8bcf701-62ae-4062-9cb3-f2099b0cdc2f"},"geometry":{"type":"Polygon","coordinates":[[[135.6827175385433,35.417536526373745],[135.68275480274445,35.417814364397465],[135.6828797691339,35.41781781576025],[135.68282653091046,35.417517906321706],[135.6827175385433,35.417536526373745]]]}},{"type":"Feature","properties":{"pid":"6855069d-20b6-45eb-bb61-3b83996f1d99"},"geometry":{"type":"Polygon","coordinates":[[[135.68301987519374,35.41765534642521],[135.68311112628433,35.41765250663795],[135.68311668444247,35.41761302580287],[135.68315682438103,35.41758275100271],[135.68315090008483,35.417502291680506],[135.68299622815206,35.41750733019467],[135.68301987519374,35.41765534642521]]]}},{"type":"Feature","properties":{"pid":"5a216afb-54b6-4808-be05-e358c771c94a"},"geometry":{"type":"Polygon","coordinates":[[[135.68325238957863,35.41936125943477],[135.68308047291453,35.419161863118774],[135.68300551907305,35.41910576354506],[135.6829921216397,35.41911550572085],[135.68325238957863,35.41936125943477]]]}},{"type":"Feature","properties":{"pid":"15b3f157-d3a1-4c45-a789-d69583783912"},"geometry":{"type":"Polygon","coordinates":[[[135.68362794855938,35.41993756562596],[135.6836943169336,35.419886641987745],[135.68336577470362,35.41959650542126],[135.68330069141396,35.419643944251376],[135.68362794855938,35.41993756562596]]]}},{"type":"Feature","properties":{"pid":"4d7ed4e1-2ce7-4040-9aa0-259a114414d8"},"geometry":{"type":"Polygon","coordinates":[[[135.6828267415513,35.41924360461092],[135.68315763080835,35.419528726390496],[135.68320512086922,35.41949475855571],[135.68288898174117,35.419200321830914],[135.6828267415513,35.41924360461092]]]}},{"type":"Feature","properties":{"pid":"30f6e838-89f9-4bfa-8a9c-165300e4ade7"},"geometry":{"type":"Polygon","coordinates":[[[135.68288956914165,35.419461441833555],[135.6829163327065,35.41957184648714],[135.6830030825166,35.41964355278912],[135.68305839765958,35.41960265469852],[135.68288956914165,35.419461441833555]]]}},{"type":"Feature","properties":{"pid":"ad69ac1b-120c-4b7e-b75b-ce43519b1f32"},"geometry":{"type":"Polygon","coordinates":[[[135.68330792753852,35.4201706304739],[135.68337319451274,35.42012209588005],[135.68305867618602,35.41982634446749],[135.68304725549962,35.41983633504621],[135.68308989818374,35.41997698157866],[135.68330792753852,35.4201706304739]]]}},{"type":"Feature","properties":{"pid":"71596e55-ba79-4f6b-8675-576f0d57eb82"},"geometry":{"type":"Polygon","coordinates":[[[135.68346785063048,35.420056520086376],[135.6835353142017,35.42000472437364],[135.6832086309096,35.41970876391436],[135.6831472755645,35.419757187795454],[135.68346785063048,35.420056520086376]]]}},{"type":"Feature","properties":{"pid":"533192b8-18fe-4537-afc9-7de41bb995a4"},"geometry":{"type":"Polygon","coordinates":[[[135.6838588192677,35.42044590418847],[135.68393296217036,35.42039627183818],[135.68361126168136,35.42010819171193],[135.68354090719887,35.420163370890094],[135.6838588192677,35.42044590418847]]]}},{"type":"Feature","properties":{"pid":"0fc780dd-7b18-44eb-b8c1-a7d0d52b3e79"},"geometry":{"type":"Polygon","coordinates":[[[135.68341089474237,35.42056668971496],[135.68348893740637,35.42050221562442],[135.6833074048184,35.42033847980513],[135.68327283629037,35.42036422527102],[135.6832998062622,35.42041485052264],[135.68334431377744,35.42045147501561],[135.68338254073538,35.42055805432791],[135.68341089474237,35.42056668971496]]]}},{"type":"Feature","properties":{"pid":"6094c960-f1cf-4534-afa7-8744bd772b0b"},"geometry":{"type":"Polygon","coordinates":[[[135.68350318167154,35.4206391276794],[135.68354063532516,35.42069183717456],[135.68362868284206,35.420626153292076],[135.68357812721203,35.42058411755644],[135.68350318167154,35.4206391276794]]]}},{"type":"Feature","properties":{"pid":"285fd7f9-2cf7-4a8b-b74c-15de910e927a"},"geometry":{"type":"Polygon","coordinates":[[[135.67949859177676,35.41615397789765],[135.6798744384301,35.41638748265823],[135.68005097374913,35.41666658177589],[135.68042017189765,35.41718612303834],[135.6805084807065,35.417142217231095],[135.6805257063885,35.41704991820007],[135.6804980388973,35.41700017996677],[135.68053673722332,35.41654118171223],[135.68004852867222,35.41632837933385],[135.67971862995046,35.416009453431734],[135.67949859177676,35.41615397789765]]]}},{"type":"Feature","properties":{"pid":"997f541b-580b-4fdd-a408-e7168b7d0d7b"},"geometry":{"type":"Polygon","coordinates":[[[135.6800268716362,35.4160326728395],[135.6801130417639,35.416117074975446],[135.68033415470902,35.41597201092835],[135.68024510507553,35.4158865177682],[135.6800268716362,35.4160326728395]]]}},{"type":"Feature","properties":{"pid":"d900d9f0-2e23-45a2-b365-2ba0dd2a5bfc"},"geometry":{"type":"Polygon","coordinates":[[[135.68269932292404,35.41738095467432],[135.68281674152803,35.417373435801736],[135.6827697036249,35.41711990658822],[135.68270212603647,35.41714906771668],[135.68268811619967,35.4172882654942],[135.68269932292404,35.41738095467432]]]}},{"type":"Feature","properties":{"pid":"838b61da-a468-4724-8f79-a409e1592db3"},"geometry":{"type":"Polygon","coordinates":[[[135.6829160779086,35.41707439809186],[135.68296618226864,35.41731011654734],[135.68301655809177,35.417322181517385],[135.68303595267815,35.41736330446678],[135.6831255981882,35.41735812596978],[135.6831522485822,35.41732914849966],[135.68311802930717,35.41698062529738],[135.68308700251177,35.41695965298537],[135.68304250227146,35.417033043361606],[135.6829160779086,35.41707439809186]]]}},{"type":"Feature","properties":{"pid":"8ff27033-dac6-4e7f-b551-d77e7d08d334"},"geometry":{"type":"Polygon","coordinates":[[[135.6835070516914,35.41722042629568],[135.68351844566226,35.41733454892395],[135.68357430768512,35.41733189630983],[135.6835659998189,35.41723805210599],[135.6835070516914,35.41722042629568]]]}},{"type":"Feature","properties":{"pid":"5f2d7f5a-4af7-49d2-bd8a-0b2d658a5bf2"},"geometry":{"type":"Polygon","coordinates":[[[135.68326971587481,35.41708740720907],[135.683296119802,35.417349225010405],[135.68336869206607,35.41734958570744],[135.68335035440123,35.417151129696],[135.68326971587481,35.41708740720907]]]}},{"type":"Feature","properties":{"pid":"ca7cbf74-f2f0-4c61-8fee-91fe9193b244"},"geometry":{"type":"Polygon","coordinates":[[[135.68114435532357,35.41459860438394],[135.6816521847832,35.41476633847494],[135.68172928364606,35.4144462499542],[135.68191790483735,35.413868014187024],[135.6813060419502,35.4136430303678],[135.68123658921843,35.413794324466814],[135.68120608370086,35.41393135742866],[135.68114324483847,35.41441560514456],[135.68114435532357,35.41459860438394]]]}},{"type":"Feature","properties":{"pid":"5377e839-6fe8-4fde-a601-67aa82456812"},"geometry":{"type":"Polygon","coordinates":[[[135.6800649689013,35.41438115712079],[135.6801291032066,35.41442717455608],[135.68030683687886,35.4146403209368],[135.68039168434868,35.41466350496336],[135.68042521671248,35.4147153177336],[135.68040033325377,35.414767923313526],[135.68060898385744,35.41506550112454],[135.68066350997356,35.415096656170476],[135.6807009086683,35.41460673080561],[135.6800649689013,35.41438115712079]]]}},{"type":"Feature","properties":{"pid":"19d6dfd0-97e0-438a-b6a0-28a4d51eafed"},"geometry":{"type":"Polygon","coordinates":[[[135.67971261495842,35.415120717402104],[135.67980440715633,35.41520812267566],[135.6800783236073,35.41490673932845],[135.68006663070622,35.41489379727707],[135.67971261495842,35.415120717402104]]]}},{"type":"Feature","properties":{"pid":"34bf2e0c-9b87-401c-a278-87cd8b9fcdb1"},"geometry":{"type":"Polygon","coordinates":[[[135.6792093607228,35.4154124549457],[135.67928900208577,35.41535459162134],[135.67926205655473,35.415317588167255],[135.67927336051952,35.415279128186945],[135.67949378744066,35.415138546786324],[135.6794833032265,35.41512954416204],[135.6791564298517,35.41533384390784],[135.6792093607228,35.4154124549457]]]}},{"type":"Feature","properties":{"pid":"3909adf6-d3ec-4706-a092-115648399bdd"},"geometry":{"type":"Polygon","coordinates":[[[135.6790991281755,35.41524919693908],[135.6792507421834,35.41515858208787],[135.6794063144774,35.415055794165866],[135.67939538062672,35.41504384838489],[135.67908831568286,35.41523350221586],[135.6790991281755,35.41524919693908]]]}},{"type":"Feature","properties":{"pid":"0422decb-558f-4b8b-b443-3b4deb6f8978"},"geometry":{"type":"Polygon","coordinates":[[[135.67910188282823,35.41404579687256],[135.6792273450631,35.41410827261906],[135.67931190337055,35.4141701728037],[135.67938872650507,35.41428972501401],[135.67940839529123,35.41436139631809],[135.67981940814997,35.41430789430886],[135.67990572840318,35.41414572213647],[135.6792367027334,35.41397838416588],[135.67920276447978,35.414027214484776],[135.67911638891783,35.41402139209396],[135.67910188282823,35.41404579687256]]]}},{"type":"Feature","properties":{"pid":"a546319c-ebbd-41ed-ade7-d917b69e9239"},"geometry":{"type":"Polygon","coordinates":[[[135.67891829038268,35.41398510316825],[135.6789993816631,35.41383445347259],[135.67896222655395,35.413817910119576],[135.67892063097503,35.41383012306329],[135.67890808407643,35.413863156184306],[135.6788997241215,35.41393002132429],[135.67891829038268,35.41398510316825]]]}},{"type":"Feature","properties":{"pid":"a7914e9a-c43e-4cc9-9a66-e1495f271492"},"geometry":{"type":"Polygon","coordinates":[[[135.67857134915587,35.413564647929064],[135.67857430570675,35.41361689836224],[135.6786340911138,35.413619582166135],[135.67865327462155,35.41354881202327],[135.67868556304757,35.413535094366416],[135.67874179562287,35.41353999984951],[135.67873936770818,35.41352261976651],[135.67872588864424,35.41349298173424],[135.67857134915587,35.413564647929064]]]}},{"type":"Feature","properties":{"pid":"275d964c-a045-4b16-b350-64e559f00c21"},"geometry":{"type":"Polygon","coordinates":[[[135.67903158011597,35.413484402137705],[135.67905741419565,35.41349170021076],[135.6791408754145,35.413371663882074],[135.67917494144893,35.413361281058386],[135.6792116450222,35.413371390261354],[135.6793162158833,35.41326579826527],[135.6793778843202,35.41327000404565],[135.67937204685273,35.41317924122251],[135.6790376244774,35.41319520240782],[135.67903158011597,35.413484402137705]]]}},{"type":"Feature","properties":{"pid":"783508c3-3bf9-4474-bd8c-a4856f46ebd7"},"geometry":{"type":"Polygon","coordinates":[[[135.6793006247577,35.41382396214443],[135.67940337966922,35.41386059022025],[135.6799598985853,35.41400777824873],[135.68015403228708,35.41350928613064],[135.68021236010784,35.4133077951298],[135.68001616983122,35.41322244369353],[135.67987322394012,35.413191459441485],[135.67976575903137,35.41347705131298],[135.6797653508437,35.41351122609953],[135.6796430238926,35.41369638942706],[135.6795163352655,35.41384961525948],[135.67946362906264,35.41386900270281],[135.6793196977989,35.41380386797794],[135.6793006247577,35.41382396214443]]]}},{"type":"Feature","properties":{"pid":"19edcacb-6f8a-4e31-854c-28a082054ebe"},"geometry":{"type":"Polygon","coordinates":[[[135.68010794530736,35.41423518395718],[135.68073448495537,35.41445715088522],[135.68078100678485,35.41399938304999],[135.68084313932832,35.41368070807309],[135.68039079033005,35.41352482312989],[135.68024351977598,35.41389072965871],[135.68027317478362,35.41392463394481],[135.68027271737364,35.413970221333464],[135.68018841717821,35.41402989815722],[135.68010794530736,35.41423518395718]]]}},{"type":"Feature","properties":{"pid":"e4addbeb-ae2b-4008-ad40-a0802154b47e"},"geometry":{"type":"Polygon","coordinates":[[[135.6803845262391,35.413409355914574],[135.68088228233398,35.41357628073228],[135.68089148511788,35.41354607833121],[135.68043160092864,35.41337504812485],[135.6804087594177,35.41337263988552],[135.6803845262391,35.413409355914574]]]}},{"type":"Feature","properties":{"pid":"7e7baa8c-f0d5-4d86-92c4-cbebb1a6a75f"},"geometry":{"type":"Polygon","coordinates":[[[135.68096266344344,35.413307141070526],[135.68120264379175,35.41270906124515],[135.68075761697102,35.41257311995064],[135.6805659753159,35.41306571797976],[135.6806210870549,35.41317749991099],[135.68096266344344,35.413307141070526]]]}},{"type":"Feature","properties":{"pid":"b13fc504-0301-45d4-9746-4349c7d169e4"},"geometry":{"type":"Polygon","coordinates":[[[135.68146072901092,35.41200799978202],[135.68103256120676,35.41190055665229],[135.68079646754867,35.412473142752326],[135.68123366400405,35.412606203006504],[135.68146072901092,35.41200799978202]]]}},{"type":"Feature","properties":{"pid":"694581c4-22e3-4fa7-a65e-8d42c3ecc83b"},"geometry":{"type":"Polygon","coordinates":[[[135.68004316603123,35.41206255325501],[135.68015177361139,35.41237564670668],[135.68029018823697,35.41259192222639],[135.68041163712726,35.4128428475527],[135.68077138106668,35.41191756869346],[135.68016136851236,35.41175116200344],[135.68004316603123,35.41206255325501]]]}},{"type":"Feature","properties":{"pid":"451806cc-2e9c-4841-b7c2-deedac41242f"},"geometry":{"type":"Polygon","coordinates":[[[135.67875527516108,35.41238706978277],[135.6788703145841,35.412590930965116],[135.6790807581642,35.412709543480034],[135.67888146501946,35.41234052733799],[135.67875527516108,35.41238706978277]]]}},{"type":"Feature","properties":{"pid":"08c0399b-3e8e-4d2e-b134-e39cb927bc35"},"geometry":{"type":"Polygon","coordinates":[[[135.67893783356413,35.41202367195911],[135.67903559301377,35.41221064140033],[135.67937307406922,35.41208702108215],[135.67941980690262,35.41209156296711],[135.67956534577561,35.4123380974454],[135.6797454755123,35.412192032713875],[135.67954850964244,35.41180048462167],[135.67893783356413,35.41202367195911]]]}},{"type":"Feature","properties":{"pid":"a9264c5a-d4fc-480d-aa63-901734cde1dc"},"geometry":{"type":"Polygon","coordinates":[[[135.67869894469956,35.411547864065795],[135.67875365131226,35.411708245164874],[135.67887610477487,35.41192926410262],[135.6794806133014,35.41170741702684],[135.679278653634,35.411330045768786],[135.67869894469956,35.411547864065795]]]}},{"type":"Feature","properties":{"pid":"c04e8818-4c32-4917-909f-e55c3a0071e6"},"geometry":{"type":"Polygon","coordinates":[[[135.67857619691043,35.41129862015577],[135.67856857186754,35.411319074818245],[135.67859712753156,35.41138372405102],[135.67865211446707,35.41137447080572],[135.678699971147,35.41139269179501],[135.67920670339302,35.41120678008837],[135.6790005929226,35.410841956341756],[135.67896884927742,35.41113470808484],[135.67857619691043,35.41129862015577]]]}},{"type":"Feature","properties":{"pid":"1c050b66-c373-43ac-9d5d-28c134190996"},"geometry":{"type":"Polygon","coordinates":[[[135.67917498063494,35.4106009702541],[135.67935615431352,35.41090553468367],[135.67955634664315,35.410549096715236],[135.67923725955055,35.4104370412867],[135.67921468950163,35.41045989872749],[135.67917498063494,35.4106009702541]]]}},{"type":"Feature","properties":{"pid":"4fb638fb-e514-4fb4-bfb9-5b6d6d9dc01d"},"geometry":{"type":"Polygon","coordinates":[[[135.67943123321663,35.411089707249246],[135.67961429821395,35.41140405472757],[135.67980730049473,35.41105563788627],[135.67962094916427,35.4109803735853],[135.67959490535583,35.41094445075653],[135.67976740503653,35.41062236599599],[135.67968963092895,35.41060276485012],[135.67943123321663,35.411089707249246]]]}},{"type":"Feature","properties":{"pid":"03301de5-aeef-451c-a7b0-9e25d7de7518"},"geometry":{"type":"Polygon","coordinates":[[[135.68012798673044,35.411278005292836],[135.68021643985222,35.41104416930091],[135.6800056235168,35.4109786203013],[135.67987372330464,35.41120850019781],[135.68012798673044,35.411278005292836]]]}},{"type":"Feature","properties":{"pid":"81679e7a-d4d5-4022-96d8-01aaf2adabdb"},"geometry":{"type":"Polygon","coordinates":[[[135.68018129482226,35.411652494048994],[135.6804732318228,35.411731776146524],[135.68052424863225,35.41160112996673],[135.68023363589236,35.411523848999536],[135.68018129482226,35.411652494048994]]]}},{"type":"Feature","properties":{"pid":"8afac26c-a46c-4e5d-b815-e38d859710d3"},"geometry":{"type":"Polygon","coordinates":[[[135.6818073508195,35.41219737937179],[135.68240068955413,35.412380273122615],[135.68258975818406,35.41182055503405],[135.68201826093272,35.411678450207],[135.6818073508195,35.41219737937179]]]}},{"type":"Feature","properties":{"pid":"8b90316b-a706-4f15-aee2-eea8f5ab3828"},"geometry":{"type":"Polygon","coordinates":[[[135.68107186319267,35.4118015768663],[135.681499780255,35.411907937920525],[135.68175242536228,35.411267701974204],[135.68133072879877,35.41115753945685],[135.68107186319267,35.4118015768663]]]}},{"type":"Feature","properties":{"pid":"54a14b0c-5e7a-4d2e-a6da-32aa5ba2e42b"},"geometry":{"type":"Polygon","coordinates":[[[135.6829356973744,35.41105300641977],[135.68303404654458,35.41109387757878],[135.683158703543,35.41093870806108],[135.68303092395323,35.410874317978276],[135.6829356973744,35.41105300641977]]]}},{"type":"Feature","properties":{"pid":"00a1944f-4868-49c5-a00a-3b677ada9d86"},"geometry":{"type":"Polygon","coordinates":[[[135.68217354112386,35.411182182534745],[135.68258535736368,35.41129174039646],[135.6827732404268,35.41103291129412],[135.68291489120637,35.41077082460242],[135.68267681490997,35.41050192483044],[135.68247249940615,35.41071003259874],[135.68231671068799,35.410926897999026],[135.68217354112386,35.411182182534745]]]}},{"type":"Feature","properties":{"pid":"023e0bff-244e-474d-b00d-63c049cb4f10"},"geometry":{"type":"Polygon","coordinates":[[[135.68237009341732,35.41248685990141],[135.6817680097444,35.41229857938555],[135.68157413610135,35.41280348163027],[135.6821879430115,35.41297772312261],[135.68237009341732,35.41248685990141]]]}},{"type":"Feature","properties":{"pid":"a751e0e8-1304-432c-bee7-04ef7ded8375"},"geometry":{"type":"Polygon","coordinates":[[[135.68133658062487,35.413441449385104],[135.6819317729701,35.41364909709721],[135.68214629592555,35.41308770625476],[135.6815332759226,35.41291104387207],[135.68133658062487,35.413441449385104]]]}},{"type":"Feature","properties":{"pid":"ead1135d-a471-4db3-a7a1-c430419270b5"},"geometry":{"type":"Polygon","coordinates":[[[135.6931120485536,35.42104299562688],[135.69314093648083,35.42110218194311],[135.69325931114784,35.421098954053406],[135.6932304449207,35.42100632490242],[135.6931120485536,35.42104299562688]]]}},{"type":"Feature","properties":{"pid":"29457415-d1aa-4de1-a029-2679ba6fa84f"},"geometry":{"type":"MultiPolygon","coordinates":[[[[135.69349751885787,35.42094066340574],[135.69349907495396,35.42095650859418],[135.69349784008566,35.42094060581474],[135.69349751885787,35.42094066340574]]],[[[135.69351101541417,35.42101504796558],[135.693524978574,35.421076305460495],[135.69354946404795,35.421092523046916],[135.6935871615056,35.42109470811896],[135.69365739501822,35.421066500084066],[135.69364080520427,35.42104289153436],[135.69354191656765,35.421032715084266],[135.69351101541417,35.42101504796558]]]]}}]}