{"type":"FeatureCollection","features":[{"type":"Feature","properties":{"pid":"13aef90f-0757-430d-b2f1-91ede3c8fc68","full":23.7},"geometry":{"type":"Polygon","coordinates":[[[135.6893,35.40694],[135.68918,35.40728],[135.68912,35.40752],[135.68901,35.40781],[135.68918,35.40787],[135.68939,35.40772],[135.68951,35.40758],[135.6896,35.40743],[135.68965,35.40727],[135.68968,35.40699],[135.6893,35.40694]]]}},{"type":"Feature","properties":{"pid":"bc8e09db-e44f-4b84-aba2-42926e262f93","full":46.1},"geometry":{"type":"Polygon","coordinates":[[[135.68615,35.40809],[135.68617,35.40811],[135.68619,35.40812],[135.6863,35.40813],[135.68633,35.40812],[135.68646,35.40803],[135.68682,35.40776],[135.6868,35.40772],[135.68682,35.40765],[135.68686,35.40763],[135.68691,35.40751],[135.68692,35.40739],[135.68689,35.40735],[135.68689,35.40729],[135.68691,35.40729],[135.6869,35.40718],[135.68691,35.40712],[135.68618,35.40711],[135.68615,35.40809]]]}},{"type":"Feature","properties":{"pid":"a25cc5e2-bcf3-421d-bae7-b20e7beeb3c9","full":19.8},"geometry":{"type":"Polygon","coordinates":[[[135.6862,35.4085],[135.68644,35.40883],[135.68647,35.40881],[135.68653,35.40884],[135.6868,35.40854],[135.68692,35.40841],[135.68691,35.4084],[135.68691,35.40838],[135.68694,35.40836],[135.68696,35.40836],[135.68703,35.40829],[135.687,35.40827],[135.68701,35.40825],[135.68704,35.40821],[135.68694,35.40801],[135.68677,35.40813],[135.68652,35.40829],[135.6865,35.40833],[135.6862,35.4085]]]}},{"type":"Feature","properties":{"pid":"147e47eb-72b3-4ad6-94f9-131feac56a37","full":0.9},"geometry":{"type":"Polygon","coordinates":[[[135.68745,35.4083],[135.68718,35.4083],[135.68704,35.40845],[135.68734,35.40845],[135.68736,35.40843],[135.68745,35.4083]]]}},{"type":"Feature","properties":{"pid":"8366b857-719f-40c7-be87-db3930ca2084","full":12.9},"geometry":{"type":"Polygon","coordinates":[[[135.68619,35.40865],[135.68607,35.40852],[135.68557,35.40878],[135.68592,35.40926],[135.68598,35.40925],[135.68614,35.40916],[135.68617,35.40913],[135.68619,35.4091],[135.68595,35.40877],[135.68619,35.40865]]]}},{"type":"Feature","properties":{"pid":"4e153785-86f4-4744-b86d-86ef1fae28fb","full":75.4},"geometry":{"type":"Polygon","coordinates":[[[135.68382,35.40868],[135.68422,35.40919],[135.68593,35.40834],[135.68589,35.40829],[135.68581,35.40825],[135.68471,35.40826],[135.68459,35.40827],[135.68382,35.40868]]]}},{"type":"Feature","properties":{"pid":"49e026bb-5ac6-421b-94fb-1df055e9d08c","full":32.0},"geometry":{"type":"Polygon","coordinates":[[[135.6861,35.40753],[135.68536,35.40751],[135.68535,35.4081],[135.68535,35.40812],[135.68607,35.40812],[135.68608,35.4081],[135.6861,35.40753]]]}},{"type":"Feature","properties":{"pid":"b88f6576-4aac-4d1f-887d-64b7f089a6ce","full":19.6},"geometry":{"type":"Polygon","coordinates":[[[135.68536,35.40749],[135.6861,35.40752],[135.68611,35.40717],[135.6861,35.40711],[135.68537,35.4071],[135.68536,35.40749]]]}},{"type":"Feature","properties":{"pid":"a0176b6f-fb82-4e1d-ae04-65eb40fa2f41","full":15.2},"geometry":{"type":"Polygon","coordinates":[[[135.68453,35.40741],[135.68526,35.40743],[135.68525,35.40709],[135.68454,35.40708],[135.68453,35.4071],[135.68453,35.40741]]]}},{"type":"Feature","properties":{"pid":"4bce6bf1-474b-4488-a208-b6932b900674","full":37.7},"geometry":{"type":"Polygon","coordinates":[[[135.68526,35.40744],[135.68453,35.40743],[135.68452,35.40812],[135.68452,35.40815],[135.68455,35.40814],[135.68458,35.40813],[135.68525,35.40813],[135.68526,35.40744]]]}},{"type":"Feature","properties":{"pid":"c9bfe620-95dc-4b20-b1f9-1e565a748101","full":72.9},"geometry":{"type":"Polygon","coordinates":[[[135.68371,35.40752],[135.68369,35.40793],[135.68376,35.40809],[135.68376,35.40826],[135.68389,35.40843],[135.68394,35.40846],[135.68441,35.40822],[135.68442,35.40819],[135.68443,35.40817],[135.68445,35.40728],[135.68446,35.40711],[135.68444,35.40708],[135.68372,35.40708],[135.68371,35.40752]]]}},{"type":"Feature","properties":{"pid":"12aafb2d-7755-48fc-9da7-8f0ab9e5cbc3","full":32.4},"geometry":{"type":"Polygon","coordinates":[[[135.68284,35.40701],[135.68284,35.4074],[135.68307,35.40754],[135.68338,35.40768],[135.68352,35.40778],[135.68357,35.40779],[135.68361,35.40699],[135.68284,35.40701]]]}},{"type":"Feature","properties":{"pid":"67654096-5827-4b3f-a83d-1b0d7d681398","full":53.8},"geometry":{"type":"Polygon","coordinates":[[[135.68207,35.40975],[135.6822,35.40989],[135.68255,35.40968],[135.68273,35.40987],[135.68398,35.40912],[135.68372,35.40876],[135.68336,35.40896],[135.68207,35.40975]]]}},{"type":"Feature","properties":{"pid":"edd56d03-2b9e-4f71-b806-9ae188bedf54","full":63.1},"geometry":{"type":"Polygon","coordinates":[[[135.68073,35.41057],[135.6811,35.4109],[135.68108,35.41094],[135.68137,35.41103],[135.68179,35.41077],[135.68159,35.41055],[135.68235,35.41009],[135.68204,35.40977],[135.68073,35.41057]]]}},{"type":"Feature","properties":{"pid":"988e060c-2dff-4e3a-88cc-64a65520b154","full":34.4},"geometry":{"type":"Polygon","coordinates":[[[135.68095,35.40977],[135.68122,35.41015],[135.68126,35.41016],[135.68231,35.40952],[135.68222,35.40937],[135.68199,35.40943],[135.68149,35.40951],[135.68137,35.40951],[135.68095,35.40977]]]}},{"type":"Feature","properties":{"pid":"67720a43-0f28-44fd-ab99-131f8a64dbe2","full":2.5},"geometry":{"type":"Polygon","coordinates":[[[135.68091,35.40972],[135.6813,35.40949],[135.68129,35.40947],[135.68115,35.40946],[135.68104,35.40946],[135.68092,35.40948],[135.68076,35.40953],[135.68087,35.4097],[135.68091,35.40971],[135.68091,35.40972]]]}},{"type":"Feature","properties":{"pid":"1ceb00d2-11f9-437d-bc90-d9a9b11c6b65","full":36.7},"geometry":{"type":"Polygon","coordinates":[[[135.68075,35.40988],[135.6798,35.41046],[135.68038,35.4107],[135.6804,35.41068],[135.68113,35.41023],[135.6808,35.40989],[135.68075,35.40988]]]}},{"type":"Feature","properties":{"pid":"57c1f892-cb4d-4969-88fe-c12dd2abcfee","full":31.4},"geometry":{"type":"Polygon","coordinates":[[[135.67925,35.41026],[135.6797,35.41046],[135.68076,35.40982],[135.68076,35.40981],[135.68056,35.40963],[135.68047,35.40966],[135.68037,35.4097],[135.67976,35.40998],[135.67952,35.41012],[135.67936,35.41017],[135.67932,35.41019],[135.67925,35.41026]]]}},{"type":"Feature","properties":{"pid":"fd22f51d-4040-4a19-bac3-b66aace0d762","full":2.3},"geometry":{"type":"Polygon","coordinates":[[[135.67827,35.41159],[135.67828,35.4116],[135.6783,35.41165],[135.67841,35.41183],[135.67858,35.41177],[135.67857,35.41168],[135.67837,35.41142],[135.67827,35.41159]]]}},{"type":"Feature","properties":{"pid":"2fd85f5f-2210-449a-8661-4c14cfbcca40","full":21.1},"geometry":{"type":"Polygon","coordinates":[[[135.67837,35.41248],[135.67837,35.41249],[135.67891,35.41228],[135.67862,35.41176],[135.67818,35.41194],[135.67827,35.41209],[135.67808,35.41217],[135.67819,35.41223],[135.67827,35.41228],[135.67832,35.41235],[135.67837,35.41248]]]}},{"type":"Feature","properties":{"pid":"dccd8b60-eb0c-433e-b268-fcf52b225d2e","full":5.3},"geometry":{"type":"Polygon","coordinates":[[[135.67836,35.41249],[135.67839,35.41255],[135.67842,35.4126],[135.67863,35.41278],[135.67884,35.41265],[135.67868,35.41237],[135.67836,35.41249]]]}},{"type":"Feature","properties":{"pid":"723b6ce0-788b-4b37-b8c1-4ea4a96b0748","full":4.5},"geometry":{"type":"Polygon","coordinates":[[[135.68068,35.42387],[135.68101,35.42364],[135.68081,35.42346],[135.68055,35.42365],[135.68057,35.42372],[135.68061,35.42382],[135.68068,35.42387]]]}},{"type":"Feature","properties":{"pid":"ea08162c-7e4a-462e-9811-2c43f83c130f","full":1.7},"geometry":{"type":"Polygon","coordinates":[[[135.68104,35.42362],[135.68132,35.42342],[135.68123,35.42333],[135.68109,35.42342],[135.68106,35.42342],[135.68097,35.42334],[135.68085,35.42344],[135.68104,35.42362]]]}},{"type":"Feature","properties":{"pid":"beb2030e-581e-45e8-b442-a4db091d83e0","full":2.3},"geometry":{"type":"Polygon","coordinates":[[[135.68054,35.42363],[135.6808,35.42345],[135.6806,35.42328],[135.68046,35.42338],[135.6805,35.42357],[135.68054,35.42363]]]}},{"type":"Feature","properties":{"pid":"19d22b27-02bf-4b06-9548-166035685229","full":3.6},"geometry":{"type":"Polygon","coordinates":[[[135.68081,35.42342],[135.68109,35.42321],[135.6809,35.42303],[135.68065,35.42325],[135.6807,35.42329],[135.68071,35.42331],[135.68081,35.42342]]]}},{"type":"Feature","properties":{"pid":"7198c66c-ae37-4fee-9e70-db26e27ccaff","full":4.0},"geometry":{"type":"Polygon","coordinates":[[[135.6811,35.4232],[135.68122,35.42312],[135.68123,35.4231],[135.6814,35.42297],[135.68123,35.42281],[135.68121,35.42282],[135.68092,35.42302],[135.6811,35.4232]]]}},{"type":"Feature","properties":{"pid":"7273c454-db93-4720-839d-83f03f618b0d","full":0.8},"geometry":{"type":"Polygon","coordinates":[[[135.68055,35.42313],[135.68084,35.42293],[135.6811,35.42275],[135.681,35.42268],[135.68046,35.42306],[135.68055,35.42313]]]}},{"type":"Feature","properties":{"pid":"ab937dde-e1d4-4af8-af1a-09defeda944e","full":0.7},"geometry":{"type":"Polygon","coordinates":[[[135.68096,35.4226],[135.68125,35.42231],[135.68115,35.42224],[135.68086,35.42253],[135.68096,35.4226]]]}},{"type":"Feature","properties":{"pid":"b61df9b0-ef3e-4ea7-8dee-ecdb641f72c7","full":0.7},"geometry":{"type":"Polygon","coordinates":[[[135.68085,35.42252],[135.68112,35.42225],[135.68102,35.42218],[135.68075,35.42245],[135.68085,35.42252]]]}},{"type":"Feature","properties":{"pid":"ea326552-7057-431a-9e08-79581267c06c","full":0.9},"geometry":{"type":"Polygon","coordinates":[[[135.68074,35.42244],[135.68098,35.4222],[135.68087,35.42212],[135.68062,35.42236],[135.68074,35.42244]]]}},{"type":"Feature","properties":{"pid":"1f9fe767-6fd8-4bcf-ae2c-52cf3d401860","full":1.3},"geometry":{"type":"Polygon","coordinates":[[[135.68019,35.42273],[135.68036,35.42261],[135.68064,35.42241],[135.68046,35.4223],[135.68031,35.42252],[135.68028,35.42254],[135.68023,35.42256],[135.68012,35.42266],[135.68019,35.42273]]]}},{"type":"Feature","properties":{"pid":"2ed55343-dc8c-4a50-b19f-9cf6e9a25cbd","full":1.1},"geometry":{"type":"Polygon","coordinates":[[[135.68046,35.42304],[135.68062,35.42293],[135.68099,35.42267],[135.68088,35.4226],[135.68055,35.42284],[135.68038,35.42295],[135.68046,35.42304]]]}},{"type":"Feature","properties":{"pid":"5dbb4b87-5a7c-491a-87e9-4d61d7ddf0a6","full":1.1},"geometry":{"type":"Polygon","coordinates":[[[135.68037,35.42293],[135.68055,35.42283],[135.68087,35.42259],[135.68077,35.42252],[135.68029,35.42285],[135.68037,35.42293]]]}},{"type":"Feature","properties":{"pid":"7d82f0af-3783-40b4-8b61-a89618f463d5","full":3.1},"geometry":{"type":"Polygon","coordinates":[[[135.68142,35.42296],[135.68169,35.42275],[135.68152,35.42259],[135.68127,35.4228],[135.68129,35.42284],[135.68142,35.42296]]]}},{"type":"Feature","properties":{"pid":"3057c0ee-820f-4816-9dd9-92c6fbd028c5","full":1.6},"geometry":{"type":"Polygon","coordinates":[[[135.68165,35.42264],[135.68196,35.42242],[135.68173,35.42233],[135.68156,35.42256],[135.68165,35.42264]]]}},{"type":"Feature","properties":{"pid":"7f72ec1e-913c-4fb3-b7ef-0e6b9b131be8","full":0.8},"geometry":{"type":"Polygon","coordinates":[[[135.68175,35.42273],[135.68194,35.4226],[135.68212,35.42248],[135.68197,35.42243],[135.68166,35.42264],[135.68175,35.42273]]]}},{"type":"Feature","properties":{"pid":"7e63322d-693d-4d34-b19c-0b9ff7647350","full":0.9},"geometry":{"type":"Polygon","coordinates":[[[135.68216,35.42233],[135.68231,35.42231],[135.68222,35.42201],[135.68207,35.42203],[135.68216,35.42233]]]}},{"type":"Feature","properties":{"pid":"cb9b50e3-b8d0-49af-b020-195f3d4987ce","full":0.5},"geometry":{"type":"Polygon","coordinates":[[[135.68232,35.4223],[135.68245,35.42228],[135.68237,35.42198],[135.68223,35.422],[135.68232,35.4223]]]}},{"type":"Feature","properties":{"pid":"93a13c37-21e5-437d-bf75-4091ef06fe6e","full":1.7},"geometry":{"type":"Polygon","coordinates":[[[135.68108,35.42268],[135.68146,35.42231],[135.68149,35.42223],[135.68141,35.42217],[135.68096,35.42261],[135.68108,35.42268]]]}},{"type":"Feature","properties":{"pid":"13aacf90-299b-425b-80a7-95496faccb21","full":8.1},"geometry":{"type":"Polygon","coordinates":[[[135.6821,35.42165],[135.68257,35.42154],[135.68246,35.42123],[135.68233,35.42126],[135.68206,35.42128],[135.68205,35.42131],[135.6821,35.42141],[135.6821,35.42148],[135.6821,35.42165]]]}},{"type":"Feature","properties":{"pid":"364e8bed-0bcb-4cf6-b652-747ab3e9eedc","full":1.2},"geometry":{"type":"Polygon","coordinates":[[[135.68221,35.42199],[135.68236,35.42196],[135.68227,35.42164],[135.68212,35.42167],[135.68221,35.42199]]]}},{"type":"Feature","properties":{"pid":"3da9a7ed-8a48-47dc-a616-930cdf580f29","full":1.5},"geometry":{"type":"Polygon","coordinates":[[[135.68238,35.42195],[135.68268,35.42189],[135.68263,35.42174],[135.68233,35.42179],[135.68238,35.42195]]]}},{"type":"Feature","properties":{"pid":"4dfe52f5-f2f1-4988-b1b7-09f68adf000b","full":2.8},"geometry":{"type":"Polygon","coordinates":[[[135.68322,35.42248],[135.68348,35.42242],[135.6833,35.42211],[135.68313,35.42215],[135.68322,35.42248]]]}},{"type":"Feature","properties":{"pid":"d3ed4599-b89f-4f2d-99b5-423f744b0825","full":2.9},"geometry":{"type":"Polygon","coordinates":[[[135.68296,35.42253],[135.68318,35.42248],[135.68309,35.42216],[135.68286,35.42221],[135.68296,35.42253]]]}},{"type":"Feature","properties":{"pid":"9682f533-2ad6-4e3b-9c92-bb26f7b1cf5a","full":0.6},"geometry":{"type":"Polygon","coordinates":[[[135.68259,35.42259],[135.68271,35.42257],[135.68263,35.42227],[135.68249,35.4223],[135.68258,35.42259],[135.68259,35.42259]]]}},{"type":"Feature","properties":{"pid":"fff92142-6449-444e-9d50-81894c738fb7","full":0.9},"geometry":{"type":"Polygon","coordinates":[[[135.68315,35.42297],[135.6832,35.42296],[135.68317,35.42275],[135.68319,35.42272],[135.68318,35.42268],[135.68299,35.4227],[135.68304,35.42294],[135.68315,35.42297]]]}},{"type":"Feature","properties":{"pid":"743a8d66-3ed7-4ca7-8e91-e2f42ed74d3f","full":2.8},"geometry":{"type":"Polygon","coordinates":[[[135.68322,35.42296],[135.68353,35.42293],[135.68345,35.42266],[135.68341,35.42256],[135.68335,35.42258],[135.68334,35.4226],[135.68337,35.42269],[135.68337,35.42272],[135.68321,35.42273],[135.68318,35.42276],[135.6832,35.42293],[135.68322,35.42296]]]}},{"type":"Feature","properties":{"pid":"563009f3-3f2b-4ac3-a799-a1db725ebab7","full":2.5},"geometry":{"type":"Polygon","coordinates":[[[135.6836,35.42313],[135.68382,35.42315],[135.68366,35.42275],[135.68355,35.42257],[135.68353,35.42255],[135.68343,35.42255],[135.68348,35.42265],[135.6836,35.42313]]]}},{"type":"Feature","properties":{"pid":"0d429ee4-3986-49a3-a434-a1f7bac29359","full":3.7},"geometry":{"type":"Polygon","coordinates":[[[135.6831,35.42322],[135.68321,35.42318],[135.68338,35.42315],[135.68358,35.42314],[135.68355,35.42309],[135.68353,35.42295],[135.68319,35.42299],[135.68305,35.42297],[135.6831,35.42322]]]}},{"type":"Feature","properties":{"pid":"cb51919b-66aa-4185-afda-8be0556fcc56","full":1.1},"geometry":{"type":"Polygon","coordinates":[[[135.68323,35.42371],[135.68333,35.42369],[135.68376,35.42362],[135.68366,35.42354],[135.68354,35.42353],[135.68342,35.42355],[135.68332,35.42358],[135.68321,35.42362],[135.68323,35.42371]]]}},{"type":"Feature","properties":{"pid":"6393e59d-9f67-42f9-a679-73d4ff457d3a","full":1.9},"geometry":{"type":"Polygon","coordinates":[[[135.68264,35.42333],[135.68255,35.42304],[135.68245,35.42305],[135.68238,35.42306],[135.68234,35.42309],[135.68237,35.42324],[135.68228,35.42325],[135.68229,35.42329],[135.68242,35.4233],[135.68257,35.42329],[135.68258,35.42334],[135.68264,35.42333]]]}},{"type":"Feature","properties":{"pid":"57a53f1b-8c09-4e5f-8ece-6a27799c7fc9","full":2.1},"geometry":{"type":"Polygon","coordinates":[[[135.68186,35.42337],[135.6822,35.42314],[135.68229,35.42306],[135.68213,35.42298],[135.68207,35.42301],[135.68204,35.42306],[135.68196,35.42315],[135.68195,35.42314],[135.68176,35.42328],[135.68186,35.42337]]]}},{"type":"Feature","properties":{"pid":"76022fdd-de00-4865-8b89-73664a3a003f","full":0.6},"geometry":{"type":"Polygon","coordinates":[[[135.68164,35.42316],[135.68185,35.42302],[135.68192,35.42296],[135.68183,35.42287],[135.68155,35.42307],[135.68164,35.42316]]]}},{"type":"Feature","properties":{"pid":"a4f8db45-6c42-4554-920a-15abd5311356","full":0.6},"geometry":{"type":"Polygon","coordinates":[[[135.68153,35.42306],[135.68154,35.42306],[135.68181,35.42286],[135.68173,35.42277],[135.68145,35.42298],[135.68153,35.42306]]]}},{"type":"Feature","properties":{"pid":"e9f449ae-75f0-4c94-8708-2a26872d7057","full":0.6},"geometry":{"type":"Polygon","coordinates":[[[135.68134,35.42339],[135.68161,35.42319],[135.68152,35.4231],[135.68125,35.42331],[135.68134,35.42339]]]}},{"type":"Feature","properties":{"pid":"115b6f13-8b08-4e05-971f-a1b95b1932e3","full":4.3},"geometry":{"type":"Polygon","coordinates":[[[135.68155,35.4236],[135.68185,35.4234],[135.68163,35.42321],[135.68137,35.42341],[135.68155,35.4236]]]}},{"type":"Feature","properties":{"pid":"a726287d-443e-4391-bbc5-e3d4c3f8dee0","full":1.6},"geometry":{"type":"Polygon","coordinates":[[[135.6817,35.42375],[135.68176,35.42367],[135.68196,35.42361],[135.68192,35.4235],[135.68188,35.42342],[135.68157,35.42362],[135.6817,35.42375]]]}},{"type":"Feature","properties":{"pid":"8ad3c1e9-03c3-44f1-b986-a0ef2322d1e6","full":3.2},"geometry":{"type":"Polygon","coordinates":[[[135.68511,35.42315],[135.68525,35.42304],[135.68486,35.42269],[135.68475,35.42277],[135.68477,35.42285],[135.68511,35.42315]]]}},{"type":"Feature","properties":{"pid":"b7c33f98-c402-4d36-836d-216866451990","full":7.5},"geometry":{"type":"Polygon","coordinates":[[[135.68507,35.42387],[135.6852,35.42378],[135.68522,35.42375],[135.68527,35.42355],[135.68496,35.42328],[135.68488,35.42335],[135.68492,35.42366],[135.68492,35.42374],[135.68507,35.42387]]]}},{"type":"Feature","properties":{"pid":"51b94d97-0c49-4752-9a1a-877157fcf40b","full":1.2},"geometry":{"type":"Polygon","coordinates":[[[135.68525,35.42352],[135.6853,35.42335],[135.68512,35.42318],[135.68499,35.42328],[135.68525,35.42352]]]}},{"type":"Feature","properties":{"pid":"cbd6256e-ec34-4a0e-9b18-28f25b33a022","full":0.5},"geometry":{"type":"Polygon","coordinates":[[[135.68565,35.4231],[135.68575,35.42304],[135.68555,35.42284],[135.68545,35.42292],[135.68548,35.42297],[135.68565,35.4231]]]}},{"type":"Feature","properties":{"pid":"0b8a76d2-5cd3-4b6e-8e28-b19b8a8bf0c2","full":3.9},"geometry":{"type":"Polygon","coordinates":[[[135.68533,35.42334],[135.68562,35.42312],[135.68545,35.42296],[135.68543,35.42296],[135.68515,35.42317],[135.68533,35.42334]]]}},{"type":"Feature","properties":{"pid":"72902b00-fd0a-4e0f-9db8-b6d26b628f54","full":1.2},"geometry":{"type":"Polygon","coordinates":[[[135.68576,35.42302],[135.6859,35.42292],[135.68569,35.42273],[135.68556,35.42283],[135.68576,35.42302]]]}},{"type":"Feature","properties":{"pid":"3ed71438-6788-4d05-92c0-a6e64aed124e","full":1.1},"geometry":{"type":"Polygon","coordinates":[[[135.68594,35.42316],[135.68602,35.42315],[135.68609,35.42309],[135.68593,35.42295],[135.68572,35.42311],[135.68583,35.42315],[135.68594,35.42316]]]}},{"type":"Feature","properties":{"pid":"843b5e16-a38a-4cac-9460-0960dd7a9417","full":4.7},"geometry":{"type":"Polygon","coordinates":[[[135.68629,35.42365],[135.68653,35.42348],[135.68619,35.42316],[135.68605,35.42323],[135.68607,35.42329],[135.68629,35.42365]]]}},{"type":"Feature","properties":{"pid":"8d12209a-0cf1-413d-976d-a97612ddc341","full":11.1},"geometry":{"type":"Polygon","coordinates":[[[135.68813,35.42373],[135.68849,35.42346],[135.68809,35.42311],[135.68786,35.42328],[135.68813,35.42373]]]}},{"type":"Feature","properties":{"pid":"1a838d33-fa89-4aee-adc8-939f5ca35705","full":0.7},"geometry":{"type":"Polygon","coordinates":[[[135.68861,35.42371],[135.68867,35.42369],[135.68882,35.42357],[135.68879,35.42348],[135.68849,35.4236],[135.68861,35.42371]]]}},{"type":"Feature","properties":{"pid":"8e51d758-86d4-4949-b397-85bf1c42d556","full":4.0},"geometry":{"type":"Polygon","coordinates":[[[135.68745,35.42348],[135.6876,35.42336],[135.68759,35.42333],[135.68757,35.42332],[135.6872,35.42301],[135.68705,35.42312],[135.68745,35.42348]]]}},{"type":"Feature","properties":{"pid":"df0cb3a9-979c-45b5-a737-872d3b64ad96","full":2.6},"geometry":{"type":"Polygon","coordinates":[[[135.68715,35.4237],[135.68728,35.4236],[135.68688,35.42325],[135.68675,35.42334],[135.68715,35.4237]]]}},{"type":"Feature","properties":{"pid":"e1d50050-3372-4616-b9ca-bc8b4d74cfae","full":3.6},"geometry":{"type":"Polygon","coordinates":[[[135.6873,35.4236],[135.68744,35.42349],[135.68705,35.42312],[135.6869,35.42324],[135.6873,35.4236]]]}},{"type":"Feature","properties":{"pid":"85e076c6-c09f-4b02-8801-56beeead7b5d","full":3.7},"geometry":{"type":"Polygon","coordinates":[[[135.68699,35.42383],[135.68714,35.42371],[135.68674,35.42336],[135.6866,35.42347],[135.68699,35.42383]]]}},{"type":"Feature","properties":{"pid":"69269978-d717-4d1f-be7b-ec3e37bd767d","full":1.6},"geometry":{"type":"Polygon","coordinates":[[[135.68684,35.42394],[135.68695,35.42385],[135.68656,35.4235],[135.68644,35.42358],[135.68684,35.42394]]]}},{"type":"Feature","properties":{"pid":"197da523-a668-49ec-8df5-b1cbba9269c9","full":13.4},"geometry":{"type":"Polygon","coordinates":[[[135.68657,35.42345],[135.68676,35.42332],[135.6869,35.42322],[135.68649,35.42285],[135.68618,35.42309],[135.68649,35.42339],[135.68657,35.42345]]]}},{"type":"Feature","properties":{"pid":"ee14a86c-31d4-40b9-828c-b638b937c6cf","full":3.6},"geometry":{"type":"Polygon","coordinates":[[[135.6866,35.4227],[135.68675,35.42259],[135.68635,35.42223],[135.6862,35.42234],[135.6866,35.4227]]]}},{"type":"Feature","properties":{"pid":"97a248ea-ecd8-4166-9ef1-108b5de6c943","full":3.1},"geometry":{"type":"Polygon","coordinates":[[[135.68644,35.42282],[135.68658,35.42271],[135.68619,35.42236],[135.68605,35.42246],[135.68644,35.42282]]]}},{"type":"Feature","properties":{"pid":"8df4ceb3-b7e9-423d-8a96-4ce95815793d","full":2.5},"geometry":{"type":"Polygon","coordinates":[[[135.68636,35.42222],[135.68676,35.42258],[135.68688,35.42249],[135.68649,35.42213],[135.68636,35.42222]]]}},{"type":"Feature","properties":{"pid":"96216cf6-1317-48da-bb5c-b183967c87c9","full":0.8},"geometry":{"type":"Polygon","coordinates":[[[135.68777,35.4224],[135.68778,35.42239],[135.68778,35.42234],[135.68782,35.42222],[135.68764,35.42216],[135.68749,35.42207],[135.6874,35.42215],[135.68739,35.42217],[135.68758,35.42228],[135.68762,35.42226],[135.68767,35.4223],[135.68771,35.42236],[135.68777,35.4224]]]}},{"type":"Feature","properties":{"pid":"6a454644-eaa2-4c5b-91a1-546a3d743e10","full":2.0},"geometry":{"type":"Polygon","coordinates":[[[135.68662,35.42172],[135.68691,35.42162],[135.68673,35.42143],[135.68654,35.42156],[135.68658,35.42159],[135.6865,35.42165],[135.68662,35.42172]]]}},{"type":"Feature","properties":{"pid":"19523119-bfaa-421c-be3f-df847192b6ef","full":3.8},"geometry":{"type":"Polygon","coordinates":[[[135.68534,35.42151],[135.68555,35.42136],[135.6851,35.4211],[135.68498,35.42119],[135.68534,35.42151]]]}},{"type":"Feature","properties":{"pid":"95c819be-79cd-492d-8043-ce36239f6c16","full":3.5},"geometry":{"type":"Polygon","coordinates":[[[135.68536,35.42153],[135.68576,35.42189],[135.68591,35.42178],[135.68551,35.42143],[135.68536,35.42153]]]}},{"type":"Feature","properties":{"pid":"52201130-a629-43db-8eca-4e9bb97667b9","full":3.7},"geometry":{"type":"Polygon","coordinates":[[[135.6852,35.42166],[135.68505,35.42177],[135.68545,35.42213],[135.6856,35.42202],[135.6852,35.42166]]]}},{"type":"Feature","properties":{"pid":"d5b45e1b-fde0-4aee-a72c-c9d897170423","full":3.3},"geometry":{"type":"Polygon","coordinates":[[[135.68535,35.42154],[135.68521,35.42165],[135.68561,35.42201],[135.68575,35.4219],[135.68535,35.42154]]]}},{"type":"Feature","properties":{"pid":"faa6fdd3-624a-4af1-9ac1-103a5989e1b2","full":11.2},"geometry":{"type":"Polygon","coordinates":[[[135.68617,35.42233],[135.68646,35.42211],[135.68608,35.42177],[135.68592,35.42187],[135.68578,35.42198],[135.68617,35.42233]]]}},{"type":"Feature","properties":{"pid":"0ed45823-e62f-4daf-8387-956b4c538058","full":3.0},"geometry":{"type":"Polygon","coordinates":[[[135.68603,35.42244],[135.68616,35.42234],[135.68576,35.42198],[135.68562,35.42209],[135.68603,35.42244]]]}},{"type":"Feature","properties":{"pid":"bf2032f0-15c0-4f58-bb16-6bf7c7e25928","full":3.2},"geometry":{"type":"Polygon","coordinates":[[[135.68586,35.42256],[135.68601,35.42245],[135.68561,35.42211],[135.68547,35.42221],[135.68586,35.42256]]]}},{"type":"Feature","properties":{"pid":"01c5b066-10e9-44bd-ad0d-e257e59c00f1","full":12.2},"geometry":{"type":"Polygon","coordinates":[[[135.68613,35.42306],[135.68643,35.42283],[135.68604,35.42247],[135.68573,35.42269],[135.68613,35.42306]]]}},{"type":"Feature","properties":{"pid":"2b7a4b18-ece0-4bbb-99ce-a31abf4dbe57","full":3.3},"geometry":{"type":"Polygon","coordinates":[[[135.68571,35.42267],[135.68585,35.42256],[135.68546,35.42221],[135.68532,35.42232],[135.68571,35.42267]]]}},{"type":"Feature","properties":{"pid":"7800e32c-af1c-4723-8997-aa77b13d27ca","full":1.3},"geometry":{"type":"Polygon","coordinates":[[[135.68558,35.4228],[135.68569,35.42272],[135.68528,35.42237],[135.68518,35.42244],[135.68558,35.4228]]]}},{"type":"Feature","properties":{"pid":"7f1c4702-982b-417e-924a-99f78d0cef7d","full":3.3},"geometry":{"type":"Polygon","coordinates":[[[135.68542,35.42291],[135.68557,35.42281],[135.68517,35.42245],[135.68502,35.42256],[135.68542,35.42291]]]}},{"type":"Feature","properties":{"pid":"44e91b91-587f-4cef-bb9f-ae5df168a4d5","full":3.1},"geometry":{"type":"Polygon","coordinates":[[[135.68526,35.42303],[135.6854,35.42292],[135.68501,35.42257],[135.68487,35.42268],[135.68526,35.42303]]]}},{"type":"Feature","properties":{"pid":"95c959ad-d9ef-4169-891a-86eaeab60f8e","full":3.6},"geometry":{"type":"Polygon","coordinates":[[[135.68504,35.42177],[135.68489,35.42188],[135.6853,35.42225],[135.68544,35.42213],[135.68504,35.42177]]]}},{"type":"Feature","properties":{"pid":"edb596ed-9c5b-4644-8515-ab59ad4f3672","full":3.8},"geometry":{"type":"Polygon","coordinates":[[[135.68513,35.42236],[135.68528,35.42225],[135.68488,35.42189],[135.68473,35.42201],[135.68513,35.42236]]]}},{"type":"Feature","properties":{"pid":"2aff7b84-dd40-4f21-8059-153dc10dfbeb","full":3.3},"geometry":{"type":"Polygon","coordinates":[[[135.68473,35.42267],[135.68498,35.42248],[135.68458,35.42214],[135.68452,35.42218],[135.68459,35.42232],[135.68473,35.42267]]]}},{"type":"Feature","properties":{"pid":"fea4ff37-51b7-4921-ad8d-80a117c78f6b","full":3.3},"geometry":{"type":"Polygon","coordinates":[[[135.68498,35.42248],[135.68513,35.42237],[135.68472,35.42202],[135.68458,35.42213],[135.68498,35.42248]]]}},{"type":"Feature","properties":{"pid":"a1ec1d49-8e02-496a-83a6-20e56858537f","full":4.1},"geometry":{"type":"Polygon","coordinates":[[[135.68471,35.422],[135.68487,35.42187],[135.68448,35.42152],[135.68432,35.42164],[135.68471,35.422]]]}},{"type":"Feature","properties":{"pid":"b190122c-21f1-4238-aa30-aee7e17ef084","full":15.7},"geometry":{"type":"Polygon","coordinates":[[[135.68489,35.42184],[135.68529,35.42153],[135.68493,35.42121],[135.68451,35.4215],[135.68489,35.42184]]]}},{"type":"Feature","properties":{"pid":"2babeed0-a64f-4e76-88b8-d031dc658d3f","full":3.3},"geometry":{"type":"Polygon","coordinates":[[[135.68458,35.42136],[135.68472,35.42126],[135.68432,35.42091],[135.68418,35.42102],[135.68458,35.42136]]]}},{"type":"Feature","properties":{"pid":"7858c314-3191-4ed4-b22d-96190fc7e91c","full":3.5},"geometry":{"type":"Polygon","coordinates":[[[135.68442,35.42149],[135.68457,35.42138],[135.68417,35.42103],[135.68403,35.42114],[135.68442,35.42149]]]}},{"type":"Feature","properties":{"pid":"891f541c-e52d-4656-8b6f-bc98ebe136d7","full":3.6},"geometry":{"type":"Polygon","coordinates":[[[135.68427,35.42161],[135.68441,35.42149],[135.68402,35.42115],[135.68388,35.42126],[135.68391,35.42131],[135.68427,35.42161]]]}},{"type":"Feature","properties":{"pid":"cdf23ae0-bbfb-41fa-a313-39e87ae14608","full":3.2},"geometry":{"type":"Polygon","coordinates":[[[135.684,35.42111],[135.68415,35.42099],[135.68375,35.42065],[135.68362,35.42075],[135.684,35.42111]]]}},{"type":"Feature","properties":{"pid":"504f3c91-03a1-430e-b4aa-86e127a9ad9e","full":2.7},"geometry":{"type":"Polygon","coordinates":[[[135.68416,35.42098],[135.68429,35.42088],[135.68391,35.42053],[135.68377,35.42063],[135.68416,35.42098]]]}},{"type":"Feature","properties":{"pid":"5709a27b-8526-4654-bc96-050c88b8bd84","full":3.5},"geometry":{"type":"Polygon","coordinates":[[[135.68475,35.42124],[135.68488,35.42114],[135.68448,35.42079],[135.68433,35.4209],[135.68471,35.42123],[135.68474,35.42123],[135.68475,35.42124]]]}},{"type":"Feature","properties":{"pid":"3ad7cfa7-76b4-4a92-af77-03c899787248","full":0.8},"geometry":{"type":"Polygon","coordinates":[[[135.68491,35.42113],[135.68497,35.42108],[135.68502,35.42103],[135.68468,35.4208],[135.68459,35.42072],[135.68451,35.42078],[135.68491,35.42113]]]}},{"type":"Feature","properties":{"pid":"7c2a9e45-0586-4ada-9ca7-1326bebb34ae","full":2.4},"geometry":{"type":"Polygon","coordinates":[[[135.68431,35.42085],[135.68444,35.42075],[135.68408,35.42043],[135.68395,35.42052],[135.68431,35.42085]]]}},{"type":"Feature","properties":{"pid":"d4204ea7-0884-41c5-931e-d7926e969775","full":3.0},"geometry":{"type":"Polygon","coordinates":[[[135.68403,35.42039],[135.68413,35.4203],[135.68396,35.4201],[135.68379,35.41991],[135.68362,35.42004],[135.68403,35.42039]]]}},{"type":"Feature","properties":{"pid":"4702addc-dfd9-4434-958d-f73a229944b9","full":2.8},"geometry":{"type":"Polygon","coordinates":[[[135.6839,35.41776],[135.68392,35.41777],[135.6842,35.41764],[135.68413,35.41756],[135.68405,35.41742],[135.68397,35.41741],[135.68387,35.41742],[135.6839,35.41776]]]}},{"type":"Feature","properties":{"pid":"562d0b18-e15d-4ab3-80bf-63eb30796845","full":1.5},"geometry":{"type":"Polygon","coordinates":[[[135.68377,35.41781],[135.68385,35.41778],[135.68383,35.41743],[135.68376,35.41742],[135.68364,35.41743],[135.68366,35.41761],[135.68373,35.41773],[135.68375,35.4178],[135.68377,35.41781]]]}},{"type":"Feature","properties":{"pid":"a8bcf701-62ae-4062-9cb3-f2099b0cdc2f","full":3.4},"geometry":{"type":"Polygon","coordinates":[[[135.68295,35.41787],[135.68288,35.41748],[135.68278,35.41747],[135.6827,35.41749],[135.68266,35.4175],[135.68271,35.41787],[135.68283,35.41786],[135.68295,35.41787]]]}},{"type":"Feature","properties":{"pid":"6855069d-20b6-45eb-bb61-3b83996f1d99","full":2.0},"geometry":{"type":"Polygon","coordinates":[[[135.68297,35.4177],[135.68317,35.41769],[135.68317,35.41763],[135.68321,35.4176],[135.6832,35.41746],[135.68293,35.41746],[135.68297,35.4177]]]}},{"type":"Feature","properties":{"pid":"5a216afb-54b6-4808-be05-e358c771c94a","full":0.5},"geometry":{"type":"Polygon","coordinates":[[[135.68331,35.41948],[135.68337,35.41942],[135.68312,35.41913],[135.68301,35.41905],[135.68291,35.41911],[135.68331,35.41948]]]}},{"type":"Feature","properties":{"pid":"15b3f157-d3a1-4c45-a789-d69583783912","full":3.6},"geometry":{"type":"Polygon","coordinates":[[[135.68362,35.42],[135.68377,35.41989],[135.68337,35.41953],[135.68322,35.41964],[135.68362,35.42]]]}},{"type":"Feature","properties":{"pid":"4d7ed4e1-2ce7-4040-9aa0-259a114414d8","full":2.9},"geometry":{"type":"Polygon","coordinates":[[[135.68314,35.41958],[135.68318,35.41957],[135.68328,35.4195],[135.68289,35.41914],[135.68276,35.41923],[135.68278,35.41926],[135.68314,35.41958]]]}},{"type":"Feature","properties":{"pid":"30f6e838-89f9-4bfa-8a9c-165300e4ade7","full":1.1},"geometry":{"type":"Polygon","coordinates":[[[135.683,35.41971],[135.68314,35.4196],[135.6828,35.41932],[135.68287,35.41959],[135.683,35.41971]]]}},{"type":"Feature","properties":{"pid":"ad69ac1b-120c-4b7e-b75b-ce43519b1f32","full":3.2},"geometry":{"type":"Polygon","coordinates":[[[135.6833,35.42023],[135.68345,35.42013],[135.68306,35.41976],[135.68299,35.41982],[135.68304,35.42],[135.6833,35.42023]]]}},{"type":"Feature","properties":{"pid":"71596e55-ba79-4f6b-8675-576f0d57eb82","full":3.6},"geometry":{"type":"Polygon","coordinates":[[[135.68346,35.42012],[135.68361,35.42001],[135.68321,35.41964],[135.68307,35.41975],[135.68346,35.42012]]]}},{"type":"Feature","properties":{"pid":"533192b8-18fe-4537-afc9-7de41bb995a4","full":3.8},"geometry":{"type":"Polygon","coordinates":[[[135.68385,35.42051],[135.68401,35.4204],[135.68361,35.42004],[135.68346,35.42016],[135.68385,35.42051]]]}},{"type":"Feature","properties":{"pid":"0fc780dd-7b18-44eb-b8c1-a7d0d52b3e79","full":1.8},"geometry":{"type":"Polygon","coordinates":[[[135.68343,35.42062],[135.68356,35.4205],[135.68331,35.42027],[135.68321,35.42035],[135.68325,35.42044],[135.68329,35.42047],[135.68334,35.42059],[135.68343,35.42062]]]}},{"type":"Feature","properties":{"pid":"6094c960-f1cf-4534-afa7-8744bd772b0b","full":0.7},"geometry":{"type":"Polygon","coordinates":[[[135.68354,35.42076],[135.68371,35.42063],[135.68358,35.42052],[135.68342,35.42064],[135.68346,35.42066],[135.68346,35.42068],[135.68354,35.42076]]]}},{"type":"Feature","properties":{"pid":"285fd7f9-2cf7-4a8b-b74c-15de910e927a","full":37.2},"geometry":{"type":"Polygon","coordinates":[[[135.67941,35.41615],[135.6795,35.41622],[135.67977,35.41637],[135.67986,35.41645],[135.67997,35.41663],[135.68,35.41669],[135.6804,35.41725],[135.68056,35.41717],[135.68058,35.41704],[135.68055,35.417],[135.68059,35.41652],[135.68058,35.41651],[135.68008,35.41629],[135.67973,35.41595],[135.67941,35.41615]]]}},{"type":"Feature","properties":{"pid":"997f541b-580b-4fdd-a408-e7168b7d0d7b","full":3.2},"geometry":{"type":"Polygon","coordinates":[[[135.67995,35.41603],[135.68011,35.41618],[135.68041,35.41598],[135.68025,35.41582],[135.67995,35.41603]]]}},{"type":"Feature","properties":{"pid":"d900d9f0-2e23-45a2-b365-2ba0dd2a5bfc","full":2.6},"geometry":{"type":"Polygon","coordinates":[[[135.6828,35.41743],[135.68282,35.41742],[135.68288,35.41742],[135.68283,35.41712],[135.68279,35.41706],[135.68265,35.41712],[135.68263,35.41729],[135.68265,35.41741],[135.68266,35.41742],[135.6828,35.41743]]]}},{"type":"Feature","properties":{"pid":"838b61da-a468-4724-8f79-a409e1592db3","full":6.2},"geometry":{"type":"Polygon","coordinates":[[[135.68299,35.41741],[135.68318,35.4174],[135.68318,35.41737],[135.68321,35.41736],[135.68317,35.41697],[135.68314,35.41693],[135.68307,35.4169],[135.68305,35.41691],[135.68301,35.417],[135.68283,35.41705],[135.68287,35.4171],[135.68292,35.41736],[135.68298,35.41736],[135.68299,35.41741]]]}},{"type":"Feature","properties":{"pid":"8ff27033-dac6-4e7f-b551-d77e7d08d334","full":0.6},"geometry":{"type":"Polygon","coordinates":[[[135.68347,35.41738],[135.68363,35.41737],[135.68362,35.4172],[135.68348,35.41716],[135.68344,35.41714],[135.68347,35.41738]]]}},{"type":"Feature","properties":{"pid":"5f2d7f5a-4af7-49d2-bd8a-0b2d658a5bf2","full":1.7},"geometry":{"type":"Polygon","coordinates":[[[135.68336,35.4174],[135.68343,35.41739],[135.6834,35.41713],[135.68324,35.417],[135.6832,35.41698],[135.68325,35.41739],[135.68336,35.4174]]]}},{"type":"Feature","properties":{"pid":"ca7cbf74-f2f0-4c61-8fee-91fe9193b244","full":59.1},"geometry":{"type":"Polygon","coordinates":[[[135.68115,35.41392],[135.68109,35.41441],[135.68109,35.41453],[135.68109,35.41463],[135.68169,35.41483],[135.68178,35.41446],[135.68198,35.41384],[135.68192,35.41382],[135.68186,35.41379],[135.68127,35.41358],[135.68118,35.41378],[135.68115,35.41392]]]}},{"type":"Feature","properties":{"pid":"5377e839-6fe8-4fde-a601-67aa82456812","full":14.8},"geometry":{"type":"Polygon","coordinates":[[[135.68033,35.41476],[135.68058,35.4151],[135.68068,35.41516],[135.68071,35.41515],[135.68076,35.41458],[135.68002,35.41432],[135.67999,35.4144],[135.68008,35.41445],[135.68028,35.41469],[135.68035,35.41469],[135.68037,35.41472],[135.68037,35.41473],[135.68033,35.41476]]]}},{"type":"Feature","properties":{"pid":"19d6dfd0-97e0-438a-b6a0-28a4d51eafed","full":3.0},"geometry":{"type":"Polygon","coordinates":[[[135.68008,35.41483],[135.6798,35.41501],[135.67963,35.41512],[135.67981,35.41528],[135.67995,35.41513],[135.68015,35.41491],[135.68008,35.41483]]]}},{"type":"Feature","properties":{"pid":"34bf2e0c-9b87-401c-a278-87cd8b9fcdb1","full":1.2},"geometry":{"type":"Polygon","coordinates":[[[135.67936,35.41536],[135.67932,35.41531],[135.67958,35.41514],[135.67949,35.41507],[135.67908,35.41532],[135.67919,35.41548],[135.67921,35.41548],[135.67936,35.41536]]]}},{"type":"Feature","properties":{"pid":"3909adf6-d3ec-4706-a092-115648399bdd","full":0.7},"geometry":{"type":"Polygon","coordinates":[[[135.67948,35.41506],[135.67941,35.41498],[135.67902,35.41522],[135.67908,35.41532],[135.67928,35.41519],[135.67948,35.41506]]]}},{"type":"Feature","properties":{"pid":"0422decb-558f-4b8b-b443-3b4deb6f8978","full":16.3},"geometry":{"type":"Polygon","coordinates":[[[135.67903,35.41406],[135.67919,35.41414],[135.67927,35.4142],[135.6793,35.41424],[135.67934,35.41431],[135.67935,35.41436],[135.67935,35.4144],[135.67939,35.41441],[135.67962,35.41439],[135.67986,35.41435],[135.67994,35.41421],[135.67997,35.41414],[135.67995,35.41411],[135.67938,35.41396],[135.6792,35.41393],[135.67917,35.41399],[135.67909,35.41397],[135.67903,35.41406]]]}},{"type":"Feature","properties":{"pid":"a546319c-ebbd-41ed-ade7-d917b69e9239","full":0.9},"geometry":{"type":"Polygon","coordinates":[[[135.67894,35.41407],[135.67906,35.41384],[135.67906,35.41381],[135.67896,35.41377],[135.67892,35.41378],[135.67888,35.41379],[135.67885,35.41389],[135.67884,35.41393],[135.67886,35.41399],[135.67889,35.41404],[135.67894,35.41407]]]}},{"type":"Feature","properties":{"pid":"a7914e9a-c43e-4cc9-9a66-e1495f271492","full":0.7},"geometry":{"type":"Polygon","coordinates":[[[135.67851,35.41354],[135.67852,35.41366],[135.67868,35.41367],[135.67869,35.41358],[135.6788,35.41359],[135.67879,35.41351],[135.67876,35.41343],[135.67851,35.41354]]]}},{"type":"Feature","properties":{"pid":"275d964c-a045-4b16-b350-64e559f00c21","full":5.8},"geometry":{"type":"Polygon","coordinates":[[[135.67898,35.41352],[135.67908,35.41355],[135.67918,35.41341],[135.67923,35.41343],[135.67934,35.41331],[135.67938,35.41332],[135.67944,35.41331],[135.67942,35.41313],[135.67898,35.41315],[135.67898,35.41352]]]}},{"type":"Feature","properties":{"pid":"783508c3-3bf9-4474-bd8c-a4856f46ebd7","full":30.9},"geometry":{"type":"Polygon","coordinates":[[[135.6796,35.41367],[135.67947,35.41382],[135.67931,35.41374],[135.67922,35.41383],[135.67923,35.41385],[135.67938,35.4139],[135.67997,35.41406],[135.68001,35.41404],[135.68021,35.41352],[135.68027,35.4133],[135.68027,35.41328],[135.68004,35.41318],[135.67993,35.41315],[135.67983,35.41314],[135.6797,35.41349],[135.67971,35.41349],[135.6796,35.41367]]]}},{"type":"Feature","properties":{"pid":"19edcacb-6f8a-4e31-854c-28a082054ebe","full":42.8},"geometry":{"type":"Polygon","coordinates":[[[135.68004,35.41426],[135.68078,35.41452],[135.68082,35.41416],[135.68084,35.41401],[135.68087,35.41379],[135.68091,35.41365],[135.68036,35.41346],[135.68018,35.41391],[135.68022,35.41394],[135.68022,35.41396],[135.68019,35.41398],[135.68015,35.41398],[135.68004,35.41426]]]}},{"type":"Feature","properties":{"pid":"e4addbeb-ae2b-4008-ad40-a0802154b47e","full":2.1},"geometry":{"type":"Polygon","coordinates":[[[135.68032,35.41343],[135.68092,35.41364],[135.68096,35.41352],[135.68045,35.41333],[135.68039,35.41332],[135.68035,35.41336],[135.68032,35.41343]]]}},{"type":"Feature","properties":{"pid":"7e7baa8c-f0d5-4d86-92c4-cbebb1a6a75f","full":29.2},"geometry":{"type":"Polygon","coordinates":[[[135.68127,35.41268],[135.68072,35.41251],[135.68051,35.41307],[135.68056,35.41318],[135.68058,35.41321],[135.68069,35.41326],[135.68099,35.41337],[135.68106,35.41325],[135.68127,35.41268]]]}},{"type":"Feature","properties":{"pid":"b13fc504-0301-45d4-9746-4349c7d169e4","full":28.6},"geometry":{"type":"Polygon","coordinates":[[[135.68153,35.41198],[135.681,35.41184],[135.68089,35.41208],[135.68073,35.4125],[135.68127,35.41267],[135.68153,35.41198]]]}},{"type":"Feature","properties":{"pid":"694581c4-22e3-4fa7-a65e-8d42c3ecc83b","full":43.7},"geometry":{"type":"Polygon","coordinates":[[[135.67999,35.41206],[135.6801,35.41239],[135.68024,35.41261],[135.68037,35.41288],[135.68041,35.41294],[135.68042,35.41294],[135.68049,35.41281],[135.68078,35.41206],[135.68084,35.41189],[135.68013,35.41169],[135.67999,35.41206]]]}},{"type":"Feature","properties":{"pid":"451806cc-2e9c-4841-b7c2-deedac41242f","full":4.5},"geometry":{"type":"Polygon","coordinates":[[[135.67868,35.41236],[135.67884,35.41265],[135.67886,35.41264],[135.67909,35.41277],[135.67915,35.41273],[135.67908,35.41257],[135.67891,35.41228],[135.67868,35.41236]]]}},{"type":"Feature","properties":{"pid":"08c0399b-3e8e-4d2e-b134-e39cb927bc35","full":20.1},"geometry":{"type":"Polygon","coordinates":[[[135.67887,35.412],[135.67901,35.41227],[135.67939,35.41213],[135.67955,35.41242],[135.67981,35.4122],[135.67968,35.41192],[135.67958,35.41174],[135.67887,35.412]]]}},{"type":"Feature","properties":{"pid":"a9264c5a-d4fc-480d-aa63-901734cde1dc","full":27.1},"geometry":{"type":"Polygon","coordinates":[[[135.67863,35.41152],[135.67869,35.41169],[135.6787,35.41172],[135.67885,35.41199],[135.67955,35.41173],[135.67931,35.41127],[135.67863,35.41152]]]}},{"type":"Feature","properties":{"pid":"c04e8818-4c32-4917-909f-e55c3a0071e6","full":10.9},"geometry":{"type":"Polygon","coordinates":[[[135.67853,35.41127],[135.67851,35.41132],[135.67856,35.41144],[135.67865,35.41142],[135.67866,35.41143],[135.67867,35.41145],[135.67928,35.41123],[135.67912,35.41093],[135.6791,35.41093],[135.67902,35.41077],[135.67895,35.41079],[135.67895,35.41081],[135.67893,35.41111],[135.67891,35.4111],[135.67853,35.41127]]]}},{"type":"Feature","properties":{"pid":"1c050b66-c373-43ac-9d5d-28c134190996","full":9.2},"geometry":{"type":"Polygon","coordinates":[[[135.67912,35.4106],[135.67913,35.41064],[135.6792,35.41073],[135.67926,35.41083],[135.67935,35.41102],[135.67963,35.41053],[135.67922,35.41038],[135.67916,35.41044],[135.67914,35.41055],[135.67912,35.4106]]]}},{"type":"Feature","properties":{"pid":"4fb638fb-e514-4fb4-bfb9-5b6d6d9dc01d","full":12.1},"geometry":{"type":"Polygon","coordinates":[[[135.67938,35.4111],[135.67944,35.41119],[135.67959,35.41146],[135.67962,35.41151],[135.67988,35.41103],[135.67965,35.41094],[135.67984,35.4106],[135.67978,35.41058],[135.67966,35.41055],[135.67938,35.41106],[135.67938,35.4111]]]}},{"type":"Feature","properties":{"pid":"03301de5-aeef-451c-a7b0-9e25d7de7518","full":6.2},"geometry":{"type":"Polygon","coordinates":[[[135.68016,35.41134],[135.68029,35.41102],[135.67998,35.41092],[135.6798,35.41124],[135.68016,35.41134]]]}},{"type":"Feature","properties":{"pid":"81679e7a-d4d5-4022-96d8-01aaf2adabdb","full":4.2},"geometry":{"type":"Polygon","coordinates":[[[135.68051,35.41179],[135.68059,35.41157],[135.6802,35.41147],[135.68012,35.41168],[135.68051,35.41179]]]}},{"type":"Feature","properties":{"pid":"8afac26c-a46c-4e5d-b815-e38d859710d3","full":35.0},"geometry":{"type":"Polygon","coordinates":[[[135.68174,35.41222],[135.68244,35.41244],[135.68251,35.4122],[135.68266,35.41179],[135.68198,35.41162],[135.68192,35.41176],[135.68174,35.41222]]]}},{"type":"Feature","properties":{"pid":"8b90316b-a706-4f15-aee2-eea8f5ab3828","full":30.3},"geometry":{"type":"Polygon","coordinates":[[[135.681,35.41183],[135.68154,35.41196],[135.68182,35.41124],[135.6813,35.41111],[135.681,35.41183]]]}},{"type":"Feature","properties":{"pid":"54a14b0c-5e7a-4d2e-a6da-32aa5ba2e42b","full":2.5},"geometry":{"type":"Polygon","coordinates":[[[135.68286,35.41107],[135.68305,35.41115],[135.68317,35.41103],[135.68316,35.41102],[135.68324,35.41092],[135.68313,35.41088],[135.68306,35.41084],[135.68301,35.4108],[135.68286,35.41107]]]}},{"type":"Feature","properties":{"pid":"00a1944f-4868-49c5-a00a-3b677ada9d86","full":30.6},"geometry":{"type":"Polygon","coordinates":[[[135.6821,35.41121],[135.68261,35.41135],[135.68282,35.41105],[135.68298,35.41077],[135.68269,35.41044],[135.68263,35.41048],[135.68253,35.41057],[135.68243,35.41069],[135.68227,35.41091],[135.68217,35.41107],[135.6821,35.41121]]]}},{"type":"Feature","properties":{"pid":"023e0bff-244e-474d-b00d-63c049cb4f10","full":34.0},"geometry":{"type":"Polygon","coordinates":[[[135.68244,35.41246],[135.68173,35.41224],[135.68151,35.41283],[135.68222,35.41304],[135.68244,35.41246]]]}},{"type":"Feature","properties":{"pid":"a751e0e8-1304-432c-bee7-04ef7ded8375","full":37.3},"geometry":{"type":"Polygon","coordinates":[[[135.68221,35.41306],[135.6815,35.41285],[135.68128,35.41343],[135.68125,35.41346],[135.6819,35.41369],[135.68197,35.4137],[135.68221,35.41306]]]}},{"type":"Feature","properties":{"pid":"ead1135d-a471-4db3-a7a1-c430419270b5","full":0.9},"geometry":{"type":"Polygon","coordinates":[[[135.6932,35.42114],[135.69329,35.42115],[135.69333,35.42114],[135.69329,35.42101],[135.69326,35.42096],[135.69323,35.42096],[135.69313,35.42099],[135.69305,35.42102],[135.69306,35.42105],[135.69311,35.42115],[135.69313,35.42115],[135.6932,35.42114]]]}},{"type":"Feature","properties":{"pid":"29457415-d1aa-4de1-a029-2679ba6fa84f","full":0.7},"geometry":{"type":"Polygon","coordinates":[[[135.69356,35.42099],[135.69355,35.42089],[135.69346,35.4209],[135.69344,35.42091],[135.69348,35.42111],[135.69352,35.42113],[135.6936,35.42114],[135.6937,35.4211],[135.69372,35.42108],[135.69372,35.42102],[135.69366,35.421],[135.69356,35.42099]]]}}],"precision":5}