{"type":"FeatureCollection","features":[{"type":"Feature","properties":{"pid":"578ce330-1cc4-49a3-b230-64fab660f6b7"},"geometry":{"type":"Polygon","coordinates":[[[136.3648415029861,36.10890733324117],[136.36509570008724,36.10881649842314],[136.36497257251494,36.10867265235291],[136.3648433894344,36.108672238819835],[136.36471588991677,36.108555086175755],[136.36468059286827,36.10855762194805],[136.36475901153347,36.108760066659265],[136.3648562168342,36.10883584639137],[136.3648415029861,36.10890733324117]]]}},{"type":"Feature","properties":{"pid":"c08a0bf3-8fb6-4016-927a-ca9ee4c1cc4f"},"geometry":{"type":"Polygon","coordinates":[[[136.36486481623695,36.10913483965277],[136.36488310246898,36.109233926322034],[136.36514460133807,36.10929809683785],[136.36520879118655,36.10936570226244],[136.36530680189503,36.10936540366353],[136.36532441281847,36.10920964704472],[136.36530803455108,36.10908497282745],[136.36525027281877,36.10898783113057],[136.36486481623695,36.10913483965277]]]}},{"type":"Feature","properties":{"pid":"6e657539-c2ee-4658-9a75-69e72119368a"},"geometry":{"type":"Polygon","coordinates":[[[136.36527653224888,36.109480618409904],[136.36532696957804,36.109671612990994],[136.36531383536973,36.10976717833275],[136.3653449386328,36.10976546176536],[136.36538570025795,36.10975113883288],[136.36539923084422,36.109713283719636],[136.36530334097057,36.10948148234331],[136.36527653224888,36.109480618409904]]]}},{"type":"Feature","properties":{"pid":"6de5f29f-5062-4211-8656-3e5bf71b7351"},"geometry":{"type":"Polygon","coordinates":[[[136.36476002809124,36.109579821249625],[136.3646966063589,36.109576899796465],[136.36464156651223,36.109603808308925],[136.36465925709248,36.1096735938799],[136.3647464916662,36.10971577174405],[136.36479281918426,36.109764307325165],[136.36485963746833,36.109751923061744],[136.36491420854932,36.10971541474703],[136.36495437980903,36.10963800656432],[136.36476002809124,36.109579821249625]]]}},{"type":"Feature","properties":{"pid":"4587a3e5-8444-450c-a631-7ee9a4aa8fb9"},"geometry":{"type":"Polygon","coordinates":[[[136.36486548239222,36.10985869612789],[136.36490392713227,36.10992292324645],[136.36497326590992,36.10997876785801],[136.36503736373874,36.10999380636259],[136.36512185636155,36.109886530377814],[136.3651120787225,36.10972445687339],[136.36507712463165,36.109704575176416],[136.3650359502318,36.109766492679626],[136.36486548239222,36.10985869612789]]]}},{"type":"Feature","properties":{"pid":"aeea5fa7-523b-4c7f-9f92-bde823f65f9c"},"geometry":{"type":"Polygon","coordinates":[[[136.36538116446988,36.10999253709158],[136.36544227317145,36.10995270133272],[136.36544687268702,36.10990167373968],[136.36542604976484,36.10985011038672],[136.36539379007692,36.10986120420088],[136.36536884498074,36.109978845438725],[136.36538116446988,36.10999253709158]]]}},{"type":"Feature","properties":{"pid":"c87dbc5f-052e-4a00-b9f2-841d80a35bf1"},"geometry":{"type":"Polygon","coordinates":[[[136.36542259734367,36.1103709308384],[136.36549901115546,36.11033484513954],[136.36550703034146,36.11023067232418],[136.36548244767312,36.11013765663005],[136.3654648097597,36.11011212046327],[136.36543701449622,36.11010805663621],[136.3654018621698,36.11011640107052],[136.36538225141618,36.110225338157925],[136.3654039035387,36.11034986215686],[136.36542259734367,36.1103709308384]]]}},{"type":"Feature","properties":{"pid":"f035b655-2112-46f9-9acc-c47a7077897f"},"geometry":{"type":"Polygon","coordinates":[[[136.36336241422538,36.10731120922428],[136.36337419070475,36.1073988191985],[136.3635092538512,36.107383980473486],[136.3635093627264,36.107264478670494],[136.36337158101088,36.10724360057375],[136.36336241422538,36.10731120922428]]]}},{"type":"Feature","properties":{"pid":"612de11d-14df-4cb9-bf53-1d0e79b2ea22"},"geometry":{"type":"Polygon","coordinates":[[[136.363180801666,36.10739520549975],[136.36321207422785,36.10739787803403],[136.36324800575494,36.10723677861803],[136.36319617206786,36.10723218241502],[136.363180801666,36.10739520549975]]]}}]}