{"type":"FeatureCollection","features":[{"type":"Feature","properties":{"pid":"6d1e99ea-d5be-4047-9308-473a5c792a40"},"geometry":{"type":"Polygon","coordinates":[[[136.09053759273908,35.640135779548],[136.09071795833526,35.64037947084276],[136.09101173132078,35.64035315612267],[136.09104458711357,35.64038115134898],[136.091105497614,35.6405555644257],[136.09120929617862,35.640544722528844],[136.09113560558328,35.640402922006885],[136.09106039267638,35.64012144467305],[136.0910703610992,35.63999487782524],[136.0906606048454,35.640040123739404],[136.09053759273908,35.640135779548]]]}},{"type":"Feature","properties":{"pid":"40b19fc0-66f6-4b22-a3a9-1e2b57aa1860"},"geometry":{"type":"Polygon","coordinates":[[[136.09081858058218,35.63952349961668],[136.09089457292384,35.639514579256485],[136.0908600873686,35.63940707198692],[136.09083924632705,35.63939434667637],[136.09073989309118,35.63939913829692],[136.09078527465763,35.63949628937935],[136.09081858058218,35.63952349961668]]]}},{"type":"Feature","properties":{"pid":"0570df85-0990-4cb2-a924-3392317d932b"},"geometry":{"type":"Polygon","coordinates":[[[136.0908218927664,35.63980132712905],[136.09105738160326,35.639778403501424],[136.0909788880615,35.639709029101056],[136.09088123792253,35.639723423504066],[136.0908218927664,35.63980132712905]]]}},{"type":"Feature","properties":{"pid":"cba485df-ee91-487a-99b9-6dc055e37620"},"geometry":{"type":"Polygon","coordinates":[[[136.09090088856593,35.63916110846717],[136.09065624475818,35.639165045395146],[136.09065804862354,35.639201740577086],[136.09069944000052,35.63929719054794],[136.0908635689512,35.639287991148684],[136.0909084968478,35.63917890896069],[136.09090088856593,35.63916110846717]]]}},{"type":"Feature","properties":{"pid":"41dd3584-e9fc-4eb9-b4b3-47791d8fff3e"},"geometry":{"type":"Polygon","coordinates":[[[136.09063846733684,35.63905487475497],[136.09088083921367,35.639043052396865],[136.09077906529646,35.63865448737872],[136.0906428576994,35.638699083297446],[136.0906396265686,35.63872459958766],[136.09071103129813,35.63889039775984],[136.09068898365783,35.63899672558372],[136.09063846733684,35.63905487475497]]]}},{"type":"Feature","properties":{"pid":"fac389ab-070e-4900-a04b-34891b146833"},"geometry":{"type":"Polygon","coordinates":[[[136.09172095075394,35.63729519901079],[136.09159910171547,35.63734962223216],[136.0917371213312,35.63759859026954],[136.09182307965565,35.63755984035987],[136.0918360564394,35.6375318344707],[136.0918283313146,35.63748673982042],[136.09172095075394,35.63729519901079]]]}},{"type":"Feature","properties":{"pid":"6984e9f5-1238-4de5-a216-10dbaada3bf9"},"geometry":{"type":"Polygon","coordinates":[[[136.0909786869103,35.63765664288104],[136.09104371457087,35.6377838448115],[136.09113188601538,35.63775514484503],[136.0911032236854,35.63770679221167],[136.091017671136,35.637653060313255],[136.0909786869103,35.63765664288104]]]}},{"type":"Feature","properties":{"pid":"c4894429-42df-4b94-8a7b-1493b718ba08"},"geometry":{"type":"Polygon","coordinates":[[[136.09072795080075,35.63744212601078],[136.09078843906184,35.63742950604338],[136.0909491306587,35.63749400359547],[136.09098135888775,35.63747006466373],[136.0908035642669,35.637230453256905],[136.09065342759732,35.63732555533485],[136.09072795080075,35.63744212601078]]]}},{"type":"Feature","properties":{"pid":"39d4ce50-f117-492a-84fc-f1a8d6b44e52"},"geometry":{"type":"Polygon","coordinates":[[[136.09031055549792,35.63714916227296],[136.09023386354644,35.63717693314422],[136.09046440895807,35.6375799720184],[136.090534295354,35.637554364038856],[136.09031055549792,35.63714916227296]]]}},{"type":"Feature","properties":{"pid":"ff7af94a-72fe-4261-bf9e-3419f59d855c"},"geometry":{"type":"Polygon","coordinates":[[[136.09003052121153,35.637246201090726],[136.09026028813255,35.63766126621493],[136.09033166633787,35.63762803825145],[136.0901057572129,35.63721732578085],[136.09003052121153,35.637246201090726]]]}},{"type":"Feature","properties":{"pid":"8fc6d6e3-e109-4c28-aa8d-cf709317feac"},"geometry":{"type":"Polygon","coordinates":[[[136.09036227343182,35.63815789295579],[136.09052857639568,35.63810284760933],[136.09036068662596,35.63779404039573],[136.09018738530503,35.63784785124713],[136.09026071877568,35.638009776699725],[136.090272191613,35.63810015762634],[136.09029878641027,35.63813016038666],[136.09036227343182,35.63815789295579]]]}},{"type":"Feature","properties":{"pid":"7d7cd555-8d3b-49a9-9c4c-62e9c212e4bd"},"geometry":{"type":"Polygon","coordinates":[[[136.0826295282777,35.639741847248395],[136.08314774491632,35.64012086413725],[136.08322785952006,35.6400403783955],[136.08271177222542,35.639666703081275],[136.0826295282777,35.639741847248395]]]}},{"type":"Feature","properties":{"pid":"395b7a2a-2408-4604-ab2d-9ab6f7927f33"},"geometry":{"type":"Polygon","coordinates":[[[136.08285674999001,35.63954822686377],[136.08280179920666,35.63958761993543],[136.08315670268067,35.63985271823028],[136.08310032015467,35.63973542637308],[136.08285674999001,35.63954822686377]]]}},{"type":"Feature","properties":{"pid":"04921e6c-e02e-4926-8bce-6acb51c563e3"},"geometry":{"type":"Polygon","coordinates":[[[136.08185487472886,35.637533080241056],[136.08160771864956,35.63721455094997],[136.08148746781345,35.63726132635305],[136.08185487472886,35.637533080241056]]]}},{"type":"Feature","properties":{"pid":"7b41bf13-a743-4f46-a592-5e70af68938c"},"geometry":{"type":"Polygon","coordinates":[[[136.08136613869874,35.637304240610256],[136.08129012607253,35.637324019332766],[136.0812774989439,35.637353012363],[136.0812857652173,35.637442443581286],[136.08185912003893,35.63785223816546],[136.08196834762785,35.63775088545389],[136.08136613869874,35.637304240610256]]]}},{"type":"Feature","properties":{"pid":"59a46d1b-a5ae-4dd1-a924-11b778d0ef04"},"geometry":{"type":"Polygon","coordinates":[[[136.08127486811642,35.6377601080901],[136.08164500762206,35.63803612154737],[136.08175392181627,35.63793553707901],[136.08127303456544,35.63757895609387],[136.08127486811642,35.6377601080901]]]}},{"type":"Feature","properties":{"pid":"8b37ac9d-b806-48e3-9935-560afeb2dd8b"},"geometry":{"type":"Polygon","coordinates":[[[136.0819895803439,35.637955616263895],[136.08202626006246,35.637979135165764],[136.08230457804737,35.638187125645054],[136.08208642018639,35.637848254584306],[136.0819895803439,35.637955616263895]]]}},{"type":"Feature","properties":{"pid":"341c87d2-88c4-4301-ba00-c91bc7530951"},"geometry":{"type":"Polygon","coordinates":[[[136.08250665065768,35.637467444884706],[136.08277217526626,35.63790395191924],[136.08289635272968,35.637994814890384],[136.08301949142003,35.63787966285846],[136.08255690130892,35.63743149063749],[136.08250665065768,35.637467444884706]]]}},{"type":"Feature","properties":{"pid":"fc544e3d-37d3-4fb3-a627-fe33f7fabe59"},"geometry":{"type":"Polygon","coordinates":[[[136.08228142553858,35.63880467095104],[136.08277509359507,35.639159074695876],[136.0828010723482,35.63913422040746],[136.0827341051413,35.638986473775184],[136.0823717509646,35.6387227065908],[136.08228142553858,35.63880467095104]]]}},{"type":"Feature","properties":{"pid":"768f9898-c8f4-42f5-8ced-dd330a367fd8"},"geometry":{"type":"Polygon","coordinates":[[[136.081828638321,35.6389571447764],[136.08193036722955,35.63887328084756],[136.0813989823498,35.638480625565045],[136.08130067396579,35.63857062987216],[136.081828638321,35.6389571447764]]]}},{"type":"Feature","properties":{"pid":"d7203443-cda6-48f6-9e53-3854eef6692f"},"geometry":{"type":"Polygon","coordinates":[[[136.0814839955692,35.63840324799064],[136.08201233270873,35.63879614833082],[136.0822212087647,35.63860203457708],[136.0817011108646,35.63821182133608],[136.0814839955692,35.63840324799064]]]}},{"type":"Feature","properties":{"pid":"fe7e3376-154c-4d12-84cb-55bc98b058d9"},"geometry":{"type":"Polygon","coordinates":[[[136.08178375658454,35.638133065531946],[136.08230687787454,35.63852354306525],[136.08241994808506,35.63841658865324],[136.08191495548292,35.6380414899592],[136.08189608161527,35.63803766476014],[136.08178375658454,35.638133065531946]]]}},{"type":"Feature","properties":{"pid":"b14529a0-92aa-48b0-88a2-29d92a6bb24a"},"geometry":{"type":"Polygon","coordinates":[[[136.08124762700666,35.63839311339678],[136.08155349819185,35.6381210460022],[136.0812463678656,35.63789756153452],[136.08124762700666,35.63839311339678]]]}},{"type":"Feature","properties":{"pid":"3c42ec4d-e8d0-40d2-93d6-066f9c834735"},"geometry":{"type":"Polygon","coordinates":[[[136.081237918284,35.638652413037725],[136.08123627663358,35.63871214717232],[136.08171573927225,35.63906381771277],[136.0817516814614,35.63903042613064],[136.081237918284,35.638652413037725]]]}},{"type":"Feature","properties":{"pid":"cc3e15fe-1ce6-41a2-b7b7-1dffccafe386"},"geometry":{"type":"Polygon","coordinates":[[[136.08035213112868,35.638638027971496],[136.08107972835572,35.638643187361936],[136.08107835434976,35.63854299549375],[136.08035708878592,35.63854208608983],[136.08035213112868,35.638638027971496]]]}},{"type":"Feature","properties":{"pid":"ccefde97-b065-4402-8361-68876a64f5b3"},"geometry":{"type":"Polygon","coordinates":[[[136.08035119527656,35.63873511470647],[136.08034855657647,35.63880776329767],[136.08107599598347,35.63881284439157],[136.081079028079,35.63873818885037],[136.08035119527656,35.63873511470647]]]}},{"type":"Feature","properties":{"pid":"3c413bb1-2073-4c61-9c6f-3203e802bdc1"},"geometry":{"type":"Polygon","coordinates":[[[136.0803614472981,35.638194499120466],[136.08035885078087,35.63844638341172],[136.08108048111123,35.63844798414499],[136.08108477715137,35.6382019286517],[136.0803614472981,35.638194499120466]]]}},{"type":"Feature","properties":{"pid":"8e7ab862-74f2-456e-9bcf-7dc5bf82ca9b"},"geometry":{"type":"Polygon","coordinates":[[[136.08036941954086,35.63782766942745],[136.08036478120675,35.63809151884977],[136.08108114899923,35.638094503645156],[136.08109748249183,35.63782740351296],[136.08036941954086,35.63782766942745]]]}},{"type":"Feature","properties":{"pid":"64e9f993-7656-4547-a369-8360b5981f61"},"geometry":{"type":"Polygon","coordinates":[[[136.08111510057392,35.637727446214164],[136.08110776034408,35.63736497700765],[136.08071520962204,35.63741156723205],[136.08070830232197,35.637728122446],[136.08111510057392,35.637727446214164]]]}},{"type":"Feature","properties":{"pid":"78ca4791-58f9-4cb7-9b07-e55af4a11cad"},"geometry":{"type":"Polygon","coordinates":[[[136.08036998425214,35.63772676816287],[136.08059412975112,35.63772693183887],[136.0805963196961,35.63742630266347],[136.08037746772612,35.637456332811254],[136.08036998425214,35.63772676816287]]]}},{"type":"Feature","properties":{"pid":"64670968-42da-4450-8866-0d886fae98fd"},"geometry":{"type":"Polygon","coordinates":[[[136.07986924822478,35.63744977776919],[136.07973579477687,35.63744895513797],[136.07973220777595,35.63771858973916],[136.0798845619918,35.63771922409227],[136.07988917440363,35.63748444357029],[136.07986924822478,35.63744977776919]]]}},{"type":"Feature","properties":{"pid":"17db59ec-cb2c-485b-8d82-f366840607d1"},"geometry":{"type":"Polygon","coordinates":[[[136.0800014294602,35.63772015850208],[136.08018979444012,35.63772003278687],[136.08019448694048,35.63745336695776],[136.08000629523744,35.63745451309867],[136.0800014294602,35.63772015850208]]]}},{"type":"Feature","properties":{"pid":"2b794e25-9a58-4030-a310-046f3af6f382"},"geometry":{"type":"Polygon","coordinates":[[[136.07946376272193,35.637965351726],[136.08015430968177,35.63797262643391],[136.0801803352002,35.63795596809289],[136.0801826476595,35.63782428891883],[136.07946824899275,35.63782072750225],[136.07946376272193,35.637965351726]]]}},{"type":"Feature","properties":{"pid":"5dd3777f-fa8e-4e32-9ec8-a21691666318"},"geometry":{"type":"Polygon","coordinates":[[[136.08017772651726,35.63808777411374],[136.080172379063,35.63807062364606],[136.07946095115307,35.63806345587031],[136.0794600262245,35.63808063161961],[136.08017772651726,35.63808777411374]]]}},{"type":"Feature","properties":{"pid":"26ac1f12-8933-4e96-ad90-eb5553b2a721"},"geometry":{"type":"Polygon","coordinates":[[[136.079290734506,35.637442984592504],[136.07906918772127,35.63744379233331],[136.07906583181264,35.63771675510086],[136.07929874271363,35.637714427573016],[136.079290734506,35.637442984592504]]]}},{"type":"Feature","properties":{"pid":"ebc575f8-be7c-4deb-a1a7-9e6782fa94bb"},"geometry":{"type":"Polygon","coordinates":[[[136.079462373323,35.637707365172375],[136.0796123341666,35.6377176473904],[136.0796155961638,35.637449649535775],[136.07949330329905,35.63745014465498],[136.07946469709566,35.63751732758405],[136.079462373323,35.637707365172375]]]}},{"type":"Feature","properties":{"pid":"7edb4657-0ade-46ec-8505-f4a3b56faad6"},"geometry":{"type":"Polygon","coordinates":[[[136.07804293055602,35.6380010943498],[136.0783895898451,35.63800390597852],[136.07839070343857,35.637810112679055],[136.07804172186005,35.63780567111927],[136.07804293055602,35.6380010943498]]]}},{"type":"Feature","properties":{"pid":"f168fe0a-3d7d-4935-a404-d8d37536441d"},"geometry":{"type":"Polygon","coordinates":[[[136.0785888665646,35.63787056521168],[136.07860118861035,35.63788226960986],[136.07928634759432,35.637888089408406],[136.07928507652548,35.63781883825157],[136.0785896101702,35.63781835152915],[136.0785888665646,35.63787056521168]]]}},{"type":"Feature","properties":{"pid":"8b1a5a35-8b4e-448e-9e0f-dc46687cc526"},"geometry":{"type":"Polygon","coordinates":[[[136.07860204174878,35.637978854825946],[136.07858345896378,35.63799468732366],[136.07858238461205,35.63807111855215],[136.07928462981147,35.63807186733714],[136.07928503076712,35.637982437521686],[136.07860204174878,35.637978854825946]]]}},{"type":"Feature","properties":{"pid":"9ae99f4c-efb6-440e-bfc4-f78db50348f6"},"geometry":{"type":"Polygon","coordinates":[[[136.07858147230266,35.63817634873868],[136.07859347712417,35.63818722557571],[136.07928435473954,35.6381979936073],[136.0792843298169,35.63817261228805],[136.07858147230266,35.63817634873868]]]}},{"type":"Feature","properties":{"pid":"a3aeb4dc-f536-43fc-a942-d41b46717253"},"geometry":{"type":"Polygon","coordinates":[[[136.078664960611,35.638286510589886],[136.07871463034655,35.63832551533801],[136.0787768195937,35.638343857973496],[136.07911638378405,35.638341762070574],[136.07911807017447,35.63829305260025],[136.078664960611,35.638286510589886]]]}},{"type":"Feature","properties":{"pid":"bcf35c1c-68d0-453e-9a0c-0151324c1d09"},"geometry":{"type":"Polygon","coordinates":[[[136.07805589988726,35.6385656441235],[136.0781717765762,35.63857493493421],[136.0787649398615,35.6385737000549],[136.0784723940318,35.638353256557345],[136.0781217045636,35.63834827132455],[136.07805456595682,35.63834766235287],[136.07805589988726,35.6385656441235]]]}},{"type":"Feature","properties":{"pid":"045588de-9cbe-435c-ac4f-10b97e11b26c"},"geometry":{"type":"Polygon","coordinates":[[[136.07817322340003,35.638215565383966],[136.07817515132638,35.63824735291039],[136.07838380319325,35.63825267623523],[136.0783843697349,35.63821367835653],[136.07817322340003,35.638215565383966]]]}},{"type":"Feature","properties":{"pid":"d9a7fa5f-08fe-4c07-b491-e142d31f4752"},"geometry":{"type":"Polygon","coordinates":[[[136.07806394356345,35.638871309339685],[136.0780667675896,35.63897636877647],[136.0785242369026,35.63897173357808],[136.07857794055514,35.63886909588724],[136.07806394356345,35.638871309339685]]]}},{"type":"Feature","properties":{"pid":"d481c527-7a88-45ff-a8b3-b2ebf6efcfd1"},"geometry":{"type":"Polygon","coordinates":[[[136.07805833621313,35.63867566634329],[136.07806170614035,35.63877626343254],[136.0787745450018,35.63877226188976],[136.0788673885008,35.63867321388738],[136.07805833621313,35.63867566634329]]]}},{"type":"Feature","properties":{"pid":"ae4a093d-3840-4bd5-85bd-639d18779281"},"geometry":{"type":"Polygon","coordinates":[[[136.07900959851386,35.6385405598975],[136.07927114442407,35.63873545472462],[136.07928048431577,35.63854040174575],[136.07900959851386,35.6385405598975]]]}},{"type":"Feature","properties":{"pid":"90a637f3-e706-4761-aeb6-f7711a09c41e"},"geometry":{"type":"Polygon","coordinates":[[[136.07945635568677,35.63817790959791],[136.07944934528297,35.63843527109009],[136.0801722448037,35.638441735169934],[136.0801770721888,35.63818437788452],[136.07945635568677,35.63817790959791]]]}},{"type":"Feature","properties":{"pid":"b63d0ed9-9b95-4470-b744-d78eff6d1874"},"geometry":{"type":"Polygon","coordinates":[[[136.08017012802787,35.63862521388647],[136.0801716111184,35.63853909976044],[136.07944794193762,35.63853280431831],[136.07944818238045,35.638621602796526],[136.08017012802787,35.63862521388647]]]}},{"type":"Feature","properties":{"pid":"f9c1fae5-0758-4e33-8bb0-9bbc976f7cf9"},"geometry":{"type":"Polygon","coordinates":[[[136.0794467793852,35.63871901678951],[136.07944413629252,35.638796358964996],[136.08016839013854,35.63880248741028],[136.0801612647137,35.63872335829372],[136.0794467793852,35.63871901678951]]]}},{"type":"Feature","properties":{"pid":"31aef548-82fc-45ac-8903-2e79b8df6f9d"},"geometry":{"type":"Polygon","coordinates":[[[136.07957864079364,35.63892086379258],[136.0801576161939,35.63892553718713],[136.0801578510769,35.638906025643884],[136.0795533938483,35.63889983587146],[136.07957864079364,35.63892086379258]]]}},{"type":"Feature","properties":{"pid":"24336377-86c1-40de-8727-be74abb9fab0"},"geometry":{"type":"Polygon","coordinates":[[[136.0801489975749,35.63902826219375],[136.0796970907806,35.639024702813806],[136.0798118450886,35.63911801205245],[136.0801568113763,35.63911778363721],[136.0801489975749,35.63902826219375]]]}},{"type":"Feature","properties":{"pid":"e820d79a-9a2e-46a2-a476-7578b73f8164"},"geometry":{"type":"Polygon","coordinates":[[[136.07994555216914,35.639214638786704],[136.0801512892443,35.639366201793266],[136.08015370187786,35.639216480768674],[136.07994555216914,35.639214638786704]]]}},{"type":"Feature","properties":{"pid":"9088acf6-4f57-43ce-b7ce-a51c0f745bc8"},"geometry":{"type":"Polygon","coordinates":[[[136.08096505168442,35.63997346302558],[136.08145186879477,35.640338163980715],[136.08153484996896,35.64025656476039],[136.08104985461878,35.639900770172154],[136.08096505168442,35.63997346302558]]]}},{"type":"Feature","properties":{"pid":"ed62f61b-9fe1-4678-871f-17d2fe31cbb4"},"geometry":{"type":"Polygon","coordinates":[[[136.08118775558353,35.639771119723534],[136.0811291843855,35.63982644630832],[136.0816147358269,35.64018087895538],[136.0816745846461,35.64013074859666],[136.08118775558353,35.639771119723534]]]}},{"type":"Feature","properties":{"pid":"27d1a21f-b8d4-49e3-a637-aaf38c54839e"},"geometry":{"type":"Polygon","coordinates":[[[136.08053485239935,35.639637238570586],[136.08082251344194,35.63985485510884],[136.08106147945236,35.63963572558897],[136.08053485239935,35.639637238570586]]]}},{"type":"Feature","properties":{"pid":"80414ddf-2989-42b9-a8ac-5d2d31850fb7"},"geometry":{"type":"Polygon","coordinates":[[[136.08034304146946,35.63946685858637],[136.08034349099393,35.63949345450531],[136.0803997588093,35.63954170190917],[136.08106642200642,35.63954125495353],[136.08106912930162,35.639468527632054],[136.08034304146946,35.63946685858637]]]}},{"type":"Feature","properties":{"pid":"eb73a5c6-cfb7-4048-969b-4ac02f358fec"},"geometry":{"type":"Polygon","coordinates":[[[136.08034850242672,35.63890501374173],[136.08034597125564,35.63916240627341],[136.0810760699793,35.63917009247539],[136.0810736230799,35.63890870145812],[136.08034850242672,35.63890501374173]]]}},{"type":"Feature","properties":{"pid":"ed3df46b-12ee-4825-966e-7618b5a8542b"},"geometry":{"type":"Polygon","coordinates":[[[136.08034489187096,35.63936646273279],[136.08107140155897,35.63937096429403],[136.08107493292397,35.639269725356904],[136.08034695174067,35.63926285589471],[136.08034489187096,35.63936646273279]]]}},{"type":"Feature","properties":{"pid":"5879a7cd-f383-4cb3-849a-6607770f8bd6"},"geometry":{"type":"Polygon","coordinates":[[[136.08153853930696,35.63922863673729],[136.0816378177724,35.63913586144338],[136.08123214409943,35.63884225735366],[136.0812260017613,35.63900802567963],[136.08153853930696,35.63922863673729]]]}},{"type":"Feature","properties":{"pid":"d568c0ce-efc1-4041-84aa-ad12d2b3994d"},"geometry":{"type":"Polygon","coordinates":[[[136.0812285364931,35.63913594756122],[136.08122979870132,35.6395046475665],[136.0814596387407,35.63930083150621],[136.0812285364931,35.63913594756122]]]}},{"type":"Feature","properties":{"pid":"4a8c89a1-59eb-452d-8143-4659168b9564"},"geometry":{"type":"Polygon","coordinates":[[[136.08136919789845,35.63959663723557],[136.08186857327257,35.639959777009615],[136.0819741361981,35.63986557881151],[136.0814752919078,35.63951153077975],[136.08136919789845,35.63959663723557]]]}},{"type":"Feature","properties":{"pid":"c4832ecb-b9f0-49e6-9b74-1eec455e5a30"},"geometry":{"type":"Polygon","coordinates":[[[136.08175500385826,35.63926277045344],[136.08224196070654,35.63961809280863],[136.08226163608802,35.639598831485735],[136.08177449207784,35.639244022724874],[136.08175500385826,35.63926277045344]]]}},{"type":"Feature","properties":{"pid":"d6f0e5a5-f328-4dc1-b320-a9ad0b69a11a"},"geometry":{"type":"Polygon","coordinates":[[[136.0816751908844,35.63933309760617],[136.08165484681646,35.639349732193836],[136.08215386464087,35.639702528552654],[136.08216458410251,35.639692046340386],[136.0816751908844,35.63933309760617]]]}},{"type":"Feature","properties":{"pid":"9156b5d2-caed-4ea2-b31a-375aa9f8cfaf"},"geometry":{"type":"Polygon","coordinates":[[[136.08157528738025,35.639421334622305],[136.08155833884337,35.639437145758926],[136.08205561911393,35.63979398284136],[136.08207642015716,35.639775876030775],[136.08157528738025,35.639421334622305]]]}},{"type":"Feature","properties":{"pid":"324115bd-75f8-40fa-9d73-902e3ffbd622"},"geometry":{"type":"Polygon","coordinates":[[[136.08185108257055,35.63916619956413],[136.08234703409445,35.63952579171029],[136.08236747999274,35.63951032009077],[136.08188063590094,35.63915665453154],[136.08185108257055,35.63916619956413]]]}},{"type":"Feature","properties":{"pid":"925004d1-0906-4281-8db6-c3bd99592b20"},"geometry":{"type":"Polygon","coordinates":[[[136.08197388246674,35.63906235138715],[136.08197187339385,35.63909166497758],[136.08245442219706,35.63943882338018],[136.08257729287058,35.6393327628631],[136.08206892982747,35.638981523054326],[136.08197388246674,35.63906235138715]]]}},{"type":"Feature","properties":{"pid":"14606e2b-8db4-45c6-9ffe-319ef0e9dfef"},"geometry":{"type":"Polygon","coordinates":[[[136.08269503244492,35.63923130800238],[136.08219912086315,35.63887536374064],[136.08215333310923,35.638910234320804],[136.08265850418383,35.6392622819554],[136.08269503244492,35.63923130800238]]]}},{"type":"Feature","properties":{"pid":"17ded155-0e99-493e-8983-9ebc2bcb02da"},"geometry":{"type":"Polygon","coordinates":[[[136.0824371873823,35.63992120129513],[136.08294484269223,35.64029807728096],[136.08306564851839,35.64019524209673],[136.08254702603847,35.63981939514416],[136.0824371873823,35.63992120129513]]]}},{"type":"Feature","properties":{"pid":"3a85dd58-ea76-4723-95ad-880556b1e7f9"},"geometry":{"type":"Polygon","coordinates":[[[136.0827808669975,35.640456253237524],[136.0822670377826,35.640080102874215],[136.08220421314317,35.64013876688919],[136.08271254512945,35.640520166402275],[136.0827808669975,35.640456253237524]]]}},{"type":"Feature","properties":{"pid":"033eea39-b12e-4704-ab49-f1ad2754e5eb"},"geometry":{"type":"Polygon","coordinates":[[[136.08286348946146,35.64038130123643],[136.08235589257174,35.639996797707376],[136.08234681104068,35.6400048116197],[136.08286348946146,35.64038130123643]]]}},{"type":"Feature","properties":{"pid":"ee4ab7f6-1a75-402e-95e8-0ca8902f4236"},"geometry":{"type":"Polygon","coordinates":[[[136.0812947087065,35.63967622074213],[136.081264577707,35.63969955125082],[136.08175664373385,35.64006087005361],[136.08178636349675,35.64003495320022],[136.0812947087065,35.63967622074213]]]}},{"type":"Feature","properties":{"pid":"0f18e5b7-0dbe-4917-9241-312d2ac29f74"},"geometry":{"type":"Polygon","coordinates":[[[136.0826340842881,35.640594809796596],[136.08212636191092,35.6402121537148],[136.08204599831163,35.64028734530921],[136.08256917512998,35.640655323263886],[136.0826340842881,35.640594809796596]]]}},{"type":"Feature","properties":{"pid":"fd8c3308-8d38-47ae-a755-b4e6e373f382"},"geometry":{"type":"Polygon","coordinates":[[[136.0754900082935,35.63881530500788],[136.07548922982474,35.63873135120735],[136.07505997388958,35.6387413828295],[136.07506107016582,35.638819489266766],[136.0754900082935,35.63881530500788]]]}},{"type":"Feature","properties":{"pid":"e079aa60-881c-4983-a467-0143fd640936"},"geometry":{"type":"Polygon","coordinates":[[[136.07504720448247,35.638556516023066],[136.07504944606208,35.63863182844366],[136.07530425564892,35.63862677523662],[136.07530698756742,35.63857537626275],[136.07533527343804,35.63855080231002],[136.07504720448247,35.638556516023066]]]}},{"type":"Feature","properties":{"pid":"3f73e498-40f9-4923-a4e3-a9d577d6205d"},"geometry":{"type":"Polygon","coordinates":[[[136.07548042762735,35.63845049560702],[136.07547872071885,35.63836507399932],[136.07504615690624,35.63837106287048],[136.07504677651033,35.638458065430314],[136.07548042762735,35.63845049560702]]]}},{"type":"Feature","properties":{"pid":"62ed10df-39c3-4d90-abad-82c35e7c10d2"},"geometry":{"type":"Polygon","coordinates":[[[136.07504074670032,35.63817298085253],[136.07504306224143,35.63827502400512],[136.07547872756552,35.63826949690648],[136.07547660397412,35.6381678569723],[136.07504074670032,35.63817298085253]]]}},{"type":"Feature","properties":{"pid":"ccb43cf1-7c4e-45fc-b6cf-08fe8208b1fb"},"geometry":{"type":"Polygon","coordinates":[[[136.07566331444497,35.638445635515716],[136.0761037545923,35.63844098182652],[136.07610204656913,35.63835303328294],[136.0756594657751,35.63835903455255],[136.07566331444497,35.638445635515716]]]}},{"type":"Feature","properties":{"pid":"80c79221-08cf-4d6d-8250-85cdd3e5fca8"},"geometry":{"type":"Polygon","coordinates":[[[136.0760969360097,35.63816930447528],[136.07565214368782,35.63817460844051],[136.07565491510368,35.63826111956603],[136.0760997264362,35.63825725020685],[136.0760969360097,35.63816930447528]]]}},{"type":"Feature","properties":{"pid":"0f9642d9-014b-472e-879a-862fa959b7ff"},"geometry":{"type":"Polygon","coordinates":[[[136.0756700855637,35.63862784355624],[136.07611160428854,35.63862792557707],[136.07610768208016,35.63853755152749],[136.07566768796462,35.63854356453243],[136.0756700855637,35.63862784355624]]]}},{"type":"Feature","properties":{"pid":"25db1f2e-632c-4076-b5a3-28af70bed2e5"},"geometry":{"type":"Polygon","coordinates":[[[136.075668956156,35.63880976275982],[136.07611261348052,35.63880948370091],[136.0761125334449,35.63872520352185],[136.0756698665171,35.63872742098444],[136.075668956156,35.63880976275982]]]}},{"type":"Feature","properties":{"pid":"48c46baf-f1e2-4b0d-b871-a3e3cefa6151"},"geometry":{"type":"Polygon","coordinates":[[[136.07625286239585,35.638805080319536],[136.07668071136723,35.63879849312789],[136.07667686524394,35.63871877283171],[136.07625173265066,35.63872189507347],[136.07625286239585,35.638805080319536]]]}},{"type":"Feature","properties":{"pid":"0bdcafaa-6fd7-4c95-8574-66714adf99c5"},"geometry":{"type":"Polygon","coordinates":[[[136.07667448888628,35.6386232563846],[136.07667402403032,35.63852846623553],[136.07624620905395,35.63853300268165],[136.07624853312913,35.638626377704036],[136.07667448888628,35.6386232563846]]]}},{"type":"Feature","properties":{"pid":"39bbc90b-d607-4b41-a6b3-fe5df1a32da3"},"geometry":{"type":"Polygon","coordinates":[[[136.0774338747742,35.63869556625675],[136.0774365843772,35.63878804282707],[136.07788671706385,35.63878201190631],[136.07788335456019,35.638690547964714],[136.0774338747742,35.63869556625675]]]}},{"type":"Feature","properties":{"pid":"cc1a573a-e3b4-4d58-9ed6-8f3bbf60b777"},"geometry":{"type":"Polygon","coordinates":[[[136.07742636963957,35.638546926644246],[136.07742994637235,35.63859969600829],[136.07788047014327,35.63859573293088],[136.07787984280853,35.6385445515113],[136.07742636963957,35.638546926644246]]]}},{"type":"Feature","properties":{"pid":"8d7e75ca-92fe-4ad1-b387-27046242e8da"},"geometry":{"type":"Polygon","coordinates":[[[136.07686234011086,35.63879860140946],[136.07730284486428,35.63879616385473],[136.07730010324266,35.6387028027704],[136.07685997588553,35.63870223502989],[136.07686234011086,35.63879860140946]]]}},{"type":"Feature","properties":{"pid":"38428022-b793-4673-ad13-439869dd593e"},"geometry":{"type":"Polygon","coordinates":[[[136.07685886502335,35.63860723807658],[136.07729752232507,35.638607393987854],[136.07729551064511,35.63851363809279],[136.07685774607188,35.63852415050424],[136.07685886502335,35.63860723807658]]]}},{"type":"Feature","properties":{"pid":"02437aad-3693-4f98-9191-556dffdd2925"},"geometry":{"type":"Polygon","coordinates":[[[136.0774191354067,35.638325235810335],[136.07742012667885,35.638414869058145],[136.0778769358458,35.63841074365922],[136.07787304606856,35.638321028947566],[136.0774191354067,35.638325235810335]]]}},{"type":"Feature","properties":{"pid":"11607038-3737-4d15-a282-1e343a672d4f"},"geometry":{"type":"Polygon","coordinates":[[[136.07741614197656,35.63814444233644],[136.0774170010744,35.6382303252606],[136.07787005799094,35.63822689409354],[136.07786959007325,35.6381419975275],[136.07741614197656,35.63814444233644]]]}},{"type":"Feature","properties":{"pid":"4629b81a-0ba5-46ca-950a-1ef01390dbcd"},"geometry":{"type":"Polygon","coordinates":[[[136.07667168691833,35.63842870927802],[136.07667075093826,35.63834481901401],[136.07624052609813,35.638347720555664],[136.07624303885726,35.638434363931744],[136.07667168691833,35.63842870927802]]]}},{"type":"Feature","properties":{"pid":"394ded58-2a8f-4f00-bc4e-28a2adc9eccc"},"geometry":{"type":"Polygon","coordinates":[[[136.0766653940599,35.63824972122207],[136.07666591672304,35.638191346384424],[136.07623605519635,35.63819114388304],[136.0762376933525,35.63825144122644],[136.0766653940599,35.63824972122207]]]}},{"type":"Feature","properties":{"pid":"479ade77-149c-44ab-b650-607be64c578f"},"geometry":{"type":"Polygon","coordinates":[[[136.07623449788392,35.63797680111966],[136.07623419465648,35.638093944916385],[136.07666358783476,35.63809509502012],[136.07666179139676,35.63797272832769],[136.07623449788392,35.63797680111966]]]}},{"type":"Feature","properties":{"pid":"3769009a-9337-4e0a-a798-b878c53fe927"},"geometry":{"type":"Polygon","coordinates":[[[136.0762288657206,35.63784916139468],[136.07623094793695,35.63788069804863],[136.07666028873308,35.63787661051938],[136.0766596526039,35.63784229813092],[136.0762288657206,35.63784916139468]]]}},{"type":"Feature","properties":{"pid":"a08fbd2c-97d7-4f99-8b2c-c62c729001c2"},"geometry":{"type":"Polygon","coordinates":[[[136.07622362117402,35.63775432771356],[136.07665732310085,35.63774739023483],[136.0766527683034,35.63760945554402],[136.0762195128962,35.63761687031786],[136.07622362117402,35.63775432771356]]]}},{"type":"Feature","properties":{"pid":"b4d8d5b9-cf7f-4977-9420-c3d588bacce8"},"geometry":{"type":"Polygon","coordinates":[[[136.07685117634549,35.638060292269564],[136.07728260721186,35.63805214097838],[136.07728252236103,35.63796436616089],[136.07684332818087,35.63796332901533],[136.07685117634549,35.638060292269564]]]}},{"type":"Feature","properties":{"pid":"14f21f9d-377e-4af1-92e4-2f47cc198f0c"},"geometry":{"type":"Polygon","coordinates":[[[136.0774151321797,35.637964095292524],[136.07741602232915,35.63805095506063],[136.07775138931072,35.638049264544435],[136.0777549040006,35.63801432659176],[136.0777770452498,35.63799070911492],[136.07786858627287,35.63798304787656],[136.07786816878138,35.63795786737949],[136.0774151321797,35.637964095292524]]]}},{"type":"Feature","properties":{"pid":"4295468f-eb84-4e78-9eeb-0253f0ca16ef"},"geometry":{"type":"Polygon","coordinates":[[[136.07741170007606,35.637773694401076],[136.0774119442605,35.63778692289304],[136.07786198470205,35.63778116678474],[136.07786130876522,35.637767466003766],[136.07741170007606,35.637773694401076]]]}},{"type":"Feature","properties":{"pid":"e2ec09e9-c47e-4e2a-864f-d48f3756c489"},"geometry":{"type":"Polygon","coordinates":[[[136.07684035288915,35.63786546556677],[136.07727931293283,35.63786733720169],[136.0772756835399,35.63777772273134],[136.07684018591746,35.63778746127942],[136.07684035288915,35.63786546556677]]]}},{"type":"Feature","properties":{"pid":"c336927a-120b-4aad-9f57-d0a6f1c08e9a"},"geometry":{"type":"Polygon","coordinates":[[[136.07698190629628,35.63760344382504],[136.07698275104343,35.637687760126965],[136.0772801995983,35.63768136447847],[136.07727896585044,35.63759977237252],[136.07698190629628,35.63760344382504]]]}},{"type":"Feature","properties":{"pid":"04e414fa-f7de-4283-86f6-ba9a1c5a5f47"},"geometry":{"type":"Polygon","coordinates":[[[136.07727080285062,35.637501101892056],[136.07727060090411,35.63744614091518],[136.07683656108523,35.63743031458897],[136.07683668734356,35.63750440892735],[136.07727080285062,35.637501101892056]]]}},{"type":"Feature","properties":{"pid":"eea554d7-19d4-444d-b07b-321a45302106"},"geometry":{"type":"Polygon","coordinates":[[[136.07785570088856,35.63758197744791],[136.07740747844804,35.63759255499217],[136.07740934338406,35.63768085817974],[136.0778579817953,35.6376743616759],[136.07785570088856,35.63758197744791]]]}},{"type":"Feature","properties":{"pid":"8f04b43d-9625-44b6-8b8a-46fae53ce74e"},"geometry":{"type":"Polygon","coordinates":[[[136.07740454562497,35.637498757959555],[136.07785069042995,35.63748845732897],[136.0778488170229,35.63744130622708],[136.0774024550539,35.63744750894619],[136.07740454562497,35.637498757959555]]]}},{"type":"Feature","properties":{"pid":"96a5fac4-08c2-484d-956e-0ee0a0f9d9ef"},"geometry":{"type":"Polygon","coordinates":[[[136.07665172301583,35.637507144172204],[136.0766498962719,35.637424126957804],[136.07650556369168,35.63742606327209],[136.07650703879162,35.63750745415852],[136.07665172301583,35.637507144172204]]]}},{"type":"Feature","properties":{"pid":"7d13fe61-1c71-404f-b099-baee7e7b2a78"},"geometry":{"type":"Polygon","coordinates":[[[136.07564053123912,35.63753158188683],[136.07607308333422,35.63752745404977],[136.07607151637353,35.63742417627247],[136.075641127964,35.63743158792499],[136.07564053123912,35.63753158188683]]]}},{"type":"Feature","properties":{"pid":"b2b5543d-439a-46ce-a000-41ca077ce633"},"geometry":{"type":"Polygon","coordinates":[[[136.07565121237022,35.63807549759388],[136.07609509248687,35.63807020530397],[136.07609458243837,35.638013678383075],[136.07565183617945,35.63802017196864],[136.07565121237022,35.63807549759388]]]}},{"type":"Feature","properties":{"pid":"d90d02ae-ff9c-4f0d-996f-52a27abccf7b"},"geometry":{"type":"Polygon","coordinates":[[[136.07564942343896,35.6377966597234],[136.07565185496463,35.63785470561039],[136.0760892094364,35.63785216960425],[136.07608565047337,35.63779310828794],[136.07564942343896,35.6377966597234]]]}},{"type":"Feature","properties":{"pid":"b5319379-5cc0-47a4-aab3-b51012bf5674"},"geometry":{"type":"Polygon","coordinates":[[[136.0756474843707,35.63769729778253],[136.0760750198659,35.63769126487704],[136.07607423906776,35.63762570487466],[136.0756465292968,35.637628110310445],[136.0756474843707,35.63769729778253]]]}},{"type":"Feature","properties":{"pid":"07461851-0a53-4d94-a6a8-bfe1772065e2"},"geometry":{"type":"Polygon","coordinates":[[[136.0750379730813,35.63807305544151],[136.07547309312164,35.63806850407727],[136.07547055384313,35.637994712723966],[136.07503691623148,35.63799927529389],[136.0750379730813,35.63807305544151]]]}},{"type":"Feature","properties":{"pid":"85a2cc7d-2b65-4438-ae94-273f2ec75f23"},"geometry":{"type":"Polygon","coordinates":[[[136.07587467605137,35.636430352162336],[136.07658972163472,35.63644204088624],[136.0766205386175,35.63644243455939],[136.0766204924636,35.63642289993561],[136.0765364222465,35.63641499410053],[136.07651252933368,35.63637965953714],[136.0758748811224,35.63637254301326],[136.07587467605137,35.636430352162336]]]}},{"type":"Feature","properties":{"pid":"3fe70220-a8cb-4afe-88c0-a5c090824179"},"geometry":{"type":"Polygon","coordinates":[[[136.07585957769945,35.63725339854686],[136.07593589677208,35.63726166577159],[136.07593407070428,35.63688013057685],[136.0758686837286,35.63688141278575],[136.07585957769945,35.63725339854686]]]}},{"type":"Feature","properties":{"pid":"06fb868c-c946-4018-8c0d-e24b9206d93d"},"geometry":{"type":"Polygon","coordinates":[[[136.07630292709962,35.6371006332912],[136.07630242105543,35.6368866517849],[136.07605447682826,35.636882614502525],[136.0760560716594,35.6372603574895],[136.0760710405618,35.63726003864957],[136.07607041270433,35.63714061966174],[136.07608975338064,35.63711029833192],[136.07630292709962,35.6371006332912]]]}},{"type":"Feature","properties":{"pid":"a98c67b6-4e37-4d06-8863-79434ade4445"},"geometry":{"type":"Polygon","coordinates":[[[136.0772754259168,35.63728860656073],[136.07727881751518,35.63688371616362],[136.07722964582413,35.636883850349655],[136.07722767402043,35.63728847330426],[136.0772754259168,35.63728860656073]]]}},{"type":"Feature","properties":{"pid":"f83d23f0-0920-4bdb-b512-d17e36d77fae"},"geometry":{"type":"Polygon","coordinates":[[[136.07751258093353,35.63688383740706],[136.07739804478243,35.636884389507266],[136.0773948752962,35.637288271510926],[136.0775139614363,35.6372864451269],[136.07751258093353,35.63688383740706]]]}},{"type":"Feature","properties":{"pid":"5536d32f-fb2b-4070-a5cc-f103f9fb6b0a"},"geometry":{"type":"Polygon","coordinates":[[[136.07751755160706,35.63652846173071],[136.07681363839671,35.636526621722574],[136.07680306642214,35.63678543803669],[136.07751133933016,35.636786009319316],[136.07751755160706,35.63652846173071]]]}},{"type":"Feature","properties":{"pid":"387f5fa7-5518-4ad4-8d01-9b73ebf31736"},"geometry":{"type":"Polygon","coordinates":[[[136.07689666869481,35.63633201330232],[136.0768835791996,35.63642984784877],[136.07751601025706,35.63643210346882],[136.077515919944,35.63633842744764],[136.07689666869481,35.63633201330232]]]}},{"type":"Feature","properties":{"pid":"8033fff2-93b0-4ae7-83a5-c8f0d3d48a5a"},"geometry":{"type":"Polygon","coordinates":[[[136.0768090277614,35.63623453018622],[136.07751712756325,35.6362402370366],[136.07751902404647,35.63616578898648],[136.07680874673838,35.6361637524664],[136.0768090277614,35.63623453018622]]]}},{"type":"Feature","properties":{"pid":"61033d21-0270-4479-baf8-39474632db8f"},"geometry":{"type":"Polygon","coordinates":[[[136.07681112708892,35.63606859860592],[136.0775349977309,35.636069161160954],[136.07754336578117,35.635802461716246],[136.0768191439649,35.63580901292429],[136.07681112708892,35.63606859860592]]]}},{"type":"Feature","properties":{"pid":"abcfd936-570c-48b8-8388-01dfeade24cb"},"geometry":{"type":"Polygon","coordinates":[[[136.07682078041668,35.635705945643785],[136.07754479549095,35.635700623161966],[136.07754479058482,35.63567300745973],[136.07682083122825,35.63567802299772],[136.07682078041668,35.635705945643785]]]}},{"type":"Feature","properties":{"pid":"8aa86fc4-e828-4c4b-826b-90ce3b795c76"},"geometry":{"type":"Polygon","coordinates":[[[136.07682840217592,35.635447017339786],[136.07682897240397,35.635503992573696],[136.07687661368448,35.63552347880462],[136.07688650646327,35.63557542357133],[136.07754557733492,35.63557378345929],[136.07754776333502,35.63545089533714],[136.07682840217592,35.635447017339786]]]}},{"type":"Feature","properties":{"pid":"e46447b0-bf44-412d-9f16-ea8a113df5bc"},"geometry":{"type":"Polygon","coordinates":[[[136.07587367574666,35.6362753639056],[136.07659523643494,35.63628435024109],[136.076625687293,35.636261436301176],[136.07587469627987,35.63624440394675],[136.07587367574666,35.6362753639056]]]}},{"type":"Feature","properties":{"pid":"f1e686b8-0568-485a-b554-a717177af687"},"geometry":{"type":"Polygon","coordinates":[[[136.0768263944972,35.635340523714156],[136.07754756871353,35.635343144388024],[136.0775498557333,35.63509030679529],[136.07683375541848,35.63508877856139],[136.0768263944972,35.635340523714156]]]}},{"type":"Feature","properties":{"pid":"3bf5b04c-1342-4342-802e-341c2a33c492"},"geometry":{"type":"Polygon","coordinates":[[[136.0768358231371,35.6349877606754],[136.077552784282,35.63498924634798],[136.0775605690091,35.634742320934095],[136.07753728221343,35.634722885762606],[136.07683406882919,35.634712629775784],[136.0768358231371,35.6349877606754]]]}},{"type":"Feature","properties":{"pid":"6111733c-d85f-46de-8d93-80337ae6c6a3"},"geometry":{"type":"Polygon","coordinates":[[[136.07755793280214,35.63457168923016],[136.07756617945572,35.63430291881951],[136.07684225355518,35.63429939766559],[136.0768397784164,35.63456185083782],[136.07755793280214,35.63457168923016]]]}},{"type":"Feature","properties":{"pid":"cc429101-a820-4a22-8788-54384878d880"},"geometry":{"type":"Polygon","coordinates":[[[136.07684511233987,35.63417055356265],[136.0768443118379,35.63420184298838],[136.07756637602324,35.63420284270296],[136.07756688683654,35.634176889494206],[136.07684511233987,35.63417055356265]]]}},{"type":"Feature","properties":{"pid":"643ef83a-ee21-4fd2-8c2c-48638a20ab86"},"geometry":{"type":"Polygon","coordinates":[[[136.0759124121538,35.634284807333444],[136.07590767653406,35.63454541445578],[136.07615586016001,35.63454847400977],[136.07615966179517,35.634367608169],[136.07619303022236,35.634331137607134],[136.07649719839296,35.634324106317095],[136.07649719841461,35.63429264441603],[136.0759124121538,35.634284807333444]]]}},{"type":"Feature","properties":{"pid":"81207b24-6b07-4830-b4de-a01412ac452e"},"geometry":{"type":"Polygon","coordinates":[[[136.07593641321589,35.6328377980941],[136.07592738059614,35.633111171379824],[136.07666368570915,35.63311737503776],[136.0766684156882,35.63284717106031],[136.07593641321589,35.6328377980941]]]}},{"type":"Feature","properties":{"pid":"406281df-2ce8-4d3d-ab85-fcfcb3227ffc"},"geometry":{"type":"Polygon","coordinates":[[[136.07687240383387,35.63298652722124],[136.0768679856937,35.63311972996543],[136.07759951857017,35.633120412800885],[136.07760285375892,35.63297089881754],[136.0769029061545,35.632966550299614],[136.07687240383387,35.63298652722124]]]}},{"type":"Feature","properties":{"pid":"54f1acab-24ba-4bff-9a57-60b45b168bd0"},"geometry":{"type":"Polygon","coordinates":[[[136.07688090161454,35.63286000332005],[136.0769024705532,35.632873151591575],[136.07760714817303,35.632874684034526],[136.0776076415465,35.6328601484438],[136.07688090161454,35.63286000332005]]]}},{"type":"Feature","properties":{"pid":"4ced6c4e-e4a0-469f-8150-1cbf7b49335b"},"geometry":{"type":"Polygon","coordinates":[[[136.07716285706636,35.632752061789745],[136.0773156968358,35.63275267728164],[136.07731757149872,35.632496406889224],[136.07728750314655,35.63247568462471],[136.07716915264746,35.632474164033404],[136.07716285706636,35.632752061789745]]]}},{"type":"Feature","properties":{"pid":"e7fcc8bb-0a7e-4feb-8f87-063334ce24ae"},"geometry":{"type":"Polygon","coordinates":[[[136.07750365006055,35.630396980078146],[136.0775274408802,35.630428832683336],[136.07751457649894,35.630194108807075],[136.07752916379627,35.63014278505723],[136.0774944619463,35.63014623241623],[136.07750365006055,35.630396980078146]]]}},{"type":"Feature","properties":{"pid":"c6ccb143-27a8-4e49-ae4e-aa3b752fe574"},"geometry":{"type":"Polygon","coordinates":[[[136.07532100017832,35.624400217504764],[136.07533781445895,35.624409985128025],[136.0754959341772,35.62428380123022],[136.07538077455735,35.62429107002856],[136.07539446615104,35.6243420871483],[136.07532100017832,35.624400217504764]]]}},{"type":"Feature","properties":{"pid":"9ef69451-2b28-47ab-ad34-4750b3972840"},"geometry":{"type":"Polygon","coordinates":[[[136.07501214588808,35.62428573213819],[136.07509481207063,35.62431586788286],[136.07515577090658,35.624358040043944],[136.07520186731958,35.62435045672405],[136.07525595383274,35.624315276906906],[136.0752416140683,35.62429787374487],[136.07501214588808,35.62428573213819]]]}},{"type":"Feature","properties":{"pid":"969cf020-8683-472d-a2bc-340d457f2e53"},"geometry":{"type":"Polygon","coordinates":[[[136.07665241209287,35.62492548169744],[136.076801321358,35.624979914729145],[136.07681948849878,35.624947711050716],[136.0766682902435,35.624891622826844],[136.07665241209287,35.62492548169744]]]}},{"type":"Feature","properties":{"pid":"20a4693b-1134-4c1f-b9b7-2d2184c96769"},"geometry":{"type":"Polygon","coordinates":[[[136.07513025739757,35.62488737303522],[136.07519365671388,35.62488612968339],[136.07524962312056,35.62482764244293],[136.0751371146992,35.624816706460244],[136.07513025739757,35.62488737303522]]]}},{"type":"Feature","properties":{"pid":"c69a06fb-002b-4ef8-aaae-edd015f51c96"},"geometry":{"type":"Polygon","coordinates":[[[136.07537981393293,35.625720382320466],[136.07558826419609,35.62582843689068],[136.07574384616518,35.62572708705268],[136.07561972671616,35.62553120149908],[136.07537981393293,35.625720382320466]]]}},{"type":"Feature","properties":{"pid":"c5253dc3-1713-4122-b4ae-686be8acc774"},"geometry":{"type":"Polygon","coordinates":[[[136.0768780513363,35.627089219790456],[136.07683334181954,35.62699031655338],[136.07667853531711,35.627044603703006],[136.07673256048844,35.62709837847004],[136.07681599131988,35.62711685248581],[136.0768780513363,35.627089219790456]]]}},{"type":"Feature","properties":{"pid":"35e7b423-d7cd-4ea0-9c05-ab3dfa29d8b2"},"geometry":{"type":"Polygon","coordinates":[[[136.0754737612137,35.62711377065079],[136.0755714244819,35.6271733430827],[136.07565318908686,35.6271818352417],[136.07574852906885,35.62704176532304],[136.07561414055232,35.62698851313058],[136.0754737612137,35.62711377065079]]]}},{"type":"Feature","properties":{"pid":"eb14fd42-9b0b-4d7b-b86c-8f3b1171ddb4"},"geometry":{"type":"Polygon","coordinates":[[[136.07516377294525,35.62692821792541],[136.0752518456867,35.62695943205631],[136.0753246745753,35.62701132816992],[136.07546368174923,35.62688313255879],[136.0753209015822,35.62679092100064],[136.07516377294525,35.62692821792541]]]}},{"type":"Feature","properties":{"pid":"13107522-d57f-4f06-bece-c275a733ac4e"},"geometry":{"type":"Polygon","coordinates":[[[136.07749581930193,35.630037058249684],[136.07754741453337,35.63003153033273],[136.07752360440418,35.62988340693106],[136.0774841170457,35.62980795498114],[136.07749581930193,35.630037058249684]]]}},{"type":"Feature","properties":{"pid":"b0ff5083-4f19-4a8e-802a-9ffde2171b44"},"geometry":{"type":"Polygon","coordinates":[[[136.0777649666057,35.631901630520034],[136.0783923361039,35.63192173110213],[136.07840708418536,35.63190078743746],[136.07838483934287,35.63183628858626],[136.07776849514966,35.631820086204975],[136.0777649666057,35.631901630520034]]]}},{"type":"Feature","properties":{"pid":"37fc2c4d-f95f-4970-86d8-3ca387e2ebcd"},"geometry":{"type":"Polygon","coordinates":[[[136.07825759921866,35.6328525027808],[136.07775560619484,35.632857031270106],[136.07774663599153,35.63311805759076],[136.07846235178718,35.633116638451106],[136.07846455971983,35.63295206948415],[136.07825759921866,35.6328525027808]]]}},{"type":"Feature","properties":{"pid":"ccea953b-6d48-416f-929a-d52471553627"},"geometry":{"type":"Polygon","coordinates":[[[136.07773955063672,35.633485482778006],[136.07843459153807,35.63348993578226],[136.07845783613575,35.633473372528016],[136.07846035621716,35.63338875777303],[136.07774074479983,35.63338490879524],[136.07773955063672,35.633485482778006]]]}},{"type":"Feature","properties":{"pid":"c267dcc7-1afa-45b1-8ec1-c6228e2c0f56"},"geometry":{"type":"Polygon","coordinates":[[[136.07774246546197,35.633288147495996],[136.07843879651944,35.63328934003181],[136.07846482412162,35.633271055074516],[136.0784647750082,35.63322080537205],[136.07774431572548,35.633217610653716],[136.07774246546197,35.633288147495996]]]}},{"type":"Feature","properties":{"pid":"f66a6e2b-24e4-411d-b3b6-e7f1fbeb9492"},"geometry":{"type":"Polygon","coordinates":[[[136.0777391530243,35.633583176546026],[136.07773986982508,35.63383568142816],[136.0784291792917,35.633841687522455],[136.07845037714733,35.63382819756877],[136.07845397900064,35.63358709221951],[136.0777391530243,35.633583176546026]]]}},{"type":"Feature","properties":{"pid":"c01ae98a-e3e6-438b-95d8-d5ca251da717"},"geometry":{"type":"Polygon","coordinates":[[[136.0777226569257,35.63420417303292],[136.07843029376463,35.634208904984966],[136.0784529678239,35.634193234828025],[136.07845164303873,35.63394721402908],[136.0777316397449,35.63394020051505],[136.0777226569257,35.63420417303292]]]}},{"type":"Feature","properties":{"pid":"cbab65e5-8d15-4248-bb77-f3e0fdf7270c"},"geometry":{"type":"Polygon","coordinates":[[[136.07771581589284,35.63437499583286],[136.0784480660574,35.63438331257007],[136.07844941304734,35.63430669221084],[136.0777178344036,35.634301666754844],[136.07771581589284,35.63437499583286]]]}},{"type":"Feature","properties":{"pid":"5d5a088d-6ca3-4bc6-aec3-4f961c4be746"},"geometry":{"type":"Polygon","coordinates":[[[136.07863147910822,35.63490072765883],[136.07934003845256,35.63490492697423],[136.0793483466121,35.634741079004435],[136.07863049991897,35.63473179274904],[136.07863147910822,35.63490072765883]]]}},{"type":"Feature","properties":{"pid":"b7be0b2f-5e92-458f-848b-8c12bf222fbb"},"geometry":{"type":"Polygon","coordinates":[[[136.0795150351899,35.6350122676252],[136.07998625733808,35.635013499561914],[136.07988671138355,35.63474161392222],[136.0795091132536,35.63473218839004],[136.0795150351899,35.6350122676252]]]}},{"type":"Feature","properties":{"pid":"b465aea2-52e9-4c02-9d4c-79a224113b9a"},"geometry":{"type":"Polygon","coordinates":[[[136.0800249884639,35.63511293432964],[136.07951819390448,35.63511416041812],[136.0795014716912,35.63538562320231],[136.08015291856825,35.63538656859421],[136.0800249884639,35.63511293432964]]]}},{"type":"Feature","properties":{"pid":"5c9dd1bd-fb5e-4a77-9ba3-ff7ac8a84f2f"},"geometry":{"type":"Polygon","coordinates":[[[136.07949325676503,35.635741705860696],[136.08021834968824,35.635741225028006],[136.0802230545845,35.63551162844874],[136.08020777824024,35.63548725701956],[136.0794977687533,35.635489562011514],[136.07949325676503,35.635741705860696]]]}},{"type":"Feature","properties":{"pid":"a7705a7b-618b-400b-a8b3-5cff31f367ee"},"geometry":{"type":"Polygon","coordinates":[[[136.07949657100124,35.63609721160685],[136.08021446419124,35.63610107589312],[136.08021873512425,35.63584616343388],[136.07949481250145,35.63584375449609],[136.07949657100124,35.63609721160685]]]}},{"type":"Feature","properties":{"pid":"0e8bbfeb-0f28-44e9-875f-966e82b0b218"},"geometry":{"type":"Polygon","coordinates":[[[136.07860162861064,35.63631443264223],[136.07862282579202,35.63633004434256],[136.07931499863153,35.636334075287174],[136.07931889583926,35.63618808118083],[136.07860431268324,35.636184713898004],[136.07860162861064,35.63631443264223]]]}},{"type":"Feature","properties":{"pid":"02587e3d-a941-404a-91ea-1413601db39d"},"geometry":{"type":"Polygon","coordinates":[[[136.0786090297791,35.636065850852084],[136.07860814156408,35.636083226200526],[136.07932789671966,35.63608730634762],[136.07932747157173,35.63605657189887],[136.0786090297791,35.636065850852084]]]}},{"type":"Feature","properties":{"pid":"485b20fc-34c9-43e1-9633-0b900972269f"},"geometry":{"type":"Polygon","coordinates":[[[136.078612434944,35.63595776477076],[136.07933052723922,35.63595490201937],[136.07933249551388,35.63582028220834],[136.0786142489617,35.63581843970384],[136.078612434944,35.63595776477076]]]}},{"type":"Feature","properties":{"pid":"947e38ec-1ecf-41ed-8d5f-27f731de538f"},"geometry":{"type":"Polygon","coordinates":[[[136.07861520850642,35.63569219640936],[136.0786153282841,35.63572211003454],[136.07933366375147,35.63572508052168],[136.0793335109477,35.6356764974897],[136.07863100491392,35.635679831780834],[136.07861520850642,35.63569219640936]]]}},{"type":"Feature","properties":{"pid":"6b018104-6766-409f-91ed-ce4b9ea00d05"},"geometry":{"type":"Polygon","coordinates":[[[136.07861590831183,35.63558227822265],[136.07933338830057,35.63558214694914],[136.0793334516663,35.635456924824354],[136.07862132934423,35.63546553971351],[136.07861590831183,35.63558227822265]]]}},{"type":"Feature","properties":{"pid":"655a85ab-551d-42d8-a6ad-5f787de84247"},"geometry":{"type":"Polygon","coordinates":[[[136.07768493842238,35.636414794203624],[136.07768670978786,35.63643872859551],[136.0783974285779,35.63644227436986],[136.07841438770436,35.63643181800882],[136.07768493842238,35.636414794203624]]]}},{"type":"Feature","properties":{"pid":"058f1e4e-7309-4b11-a869-a35ca57aea7a"},"geometry":{"type":"Polygon","coordinates":[[[136.0776846822206,35.63662047110966],[136.07838405884326,35.636627247477335],[136.07841385000424,35.63661040888798],[136.07841477847262,35.63653749642346],[136.07768740499878,35.63653693672957],[136.0776846822206,35.63662047110966]]]}},{"type":"Feature","properties":{"pid":"b7ad9c1c-070c-49cc-a40c-e327897d8383"},"geometry":{"type":"Polygon","coordinates":[[[136.07768501198396,35.63671894772202],[136.07768489997554,35.636796066314325],[136.07840852793615,35.63680384418283],[136.07841119126115,35.63672608563887],[136.07768501198396,35.63671894772202]]]}},{"type":"Feature","properties":{"pid":"4cd54df6-f227-422c-bb30-9b43f14aef7e"},"geometry":{"type":"Polygon","coordinates":[[[136.0778206163558,35.6372718202602],[136.0778278264661,35.636898911434685],[136.07767862101852,35.63689679750553],[136.07767039038606,35.637280413170224],[136.0778206163558,35.6372718202602]]]}},{"type":"Feature","properties":{"pid":"757559a8-790c-4ede-a3af-3474df995865"},"geometry":{"type":"Polygon","coordinates":[[[136.0779382426696,35.63727207044835],[136.07807875630644,35.63727528793152],[136.07807472543377,35.63689996157449],[136.07794291347838,35.63689810193008],[136.0779382426696,35.63727207044835]]]}},{"type":"Feature","properties":{"pid":"a919c3bc-8fc0-4a56-b01c-8df9dc13b7ba"},"geometry":{"type":"Polygon","coordinates":[[[136.07897676199784,35.63727959663416],[136.07933431223333,35.63729005375768],[136.07933591494043,35.63691250492238],[136.078981220577,35.63691257971326],[136.07897676199784,35.63727959663416]]]}},{"type":"Feature","properties":{"pid":"417b3fbd-91e9-43a2-806b-a0c65e7bba1d"},"geometry":{"type":"Polygon","coordinates":[[[136.07859606401,35.63680217931172],[136.079315100238,35.636812306048334],[136.0793165216508,35.636752987908984],[136.07859603307935,35.636749993517114],[136.07859606401,35.63680217931172]]]}},{"type":"Feature","properties":{"pid":"f9c58c9b-efaf-4fbd-afde-13a1245505e0"},"geometry":{"type":"Polygon","coordinates":[[[136.07859618203503,35.63664947994915],[136.079316608835,35.63665634421802],[136.0793181809476,35.636546829286885],[136.07859999038433,35.63654061226131],[136.07859618203503,35.63664947994915]]]}},{"type":"Feature","properties":{"pid":"47011f59-7f32-4c85-81b8-755deea37462"},"geometry":{"type":"Polygon","coordinates":[[[136.07860042291082,35.63642407431295],[136.07861203789247,35.63644361893101],[136.07931674213694,35.63644996531222],[136.0793157701497,35.63642824033531],[136.07860042291082,35.63642407431295]]]}},{"type":"Feature","properties":{"pid":"d424505d-7f7b-431a-b32d-93d76bc730e1"},"geometry":{"type":"Polygon","coordinates":[[[136.07949198692268,35.63656114104434],[136.07948523075396,35.636816059781495],[136.08019981893617,35.63682287253858],[136.08019804835862,35.636564771830834],[136.07949198692268,35.63656114104434]]]}},{"type":"Feature","properties":{"pid":"d4bc4a59-aeef-4533-a430-d0a763680b44"},"geometry":{"type":"Polygon","coordinates":[[[136.07949389184495,35.636462291449696],[136.08019897392307,35.63646470859671],[136.08020632932693,35.63619967512964],[136.07949820164265,35.636197260506435],[136.07949389184495,35.636462291449696]]]}},{"type":"Feature","properties":{"pid":"510edfdf-2829-4af3-bb3f-2bf44d07d3a0"},"geometry":{"type":"Polygon","coordinates":[[[136.08009295720643,35.637298339426614],[136.08020101263267,35.63729905529172],[136.08020682356263,35.63692861850526],[136.0800981915821,35.63692565562776],[136.08009295720643,35.637298339426614]]]}},{"type":"Feature","properties":{"pid":"d171fc9f-7fd6-452a-ae12-6964970bd850"},"geometry":{"type":"Polygon","coordinates":[[[136.08099480270423,35.63721988342429],[136.08110426645317,35.63720206621961],[136.08111173360064,35.63695382473959],[136.0810004611573,35.63695096213632],[136.08099480270423,35.63721988342429]]]}},{"type":"Feature","properties":{"pid":"d1331f2e-6ab9-4cf7-a764-b94f02c20fb0"},"geometry":{"type":"Polygon","coordinates":[[[136.08128770938512,35.637158272046435],[136.0815010430148,35.63707844578255],[136.08141848265757,35.63696143995985],[136.08128585554502,35.636952791372906],[136.08128770938512,35.637158272046435]]]}},{"type":"Feature","properties":{"pid":"5c111320-0e5f-48cd-ba73-156ff74e150e"},"geometry":{"type":"Polygon","coordinates":[[[136.08113932563887,35.636842274073445],[136.08131063691567,35.63684274362405],[136.08113942332983,35.6366151399204],[136.08113932563887,35.636842274073445]]]}},{"type":"Feature","properties":{"pid":"1cbace10-a116-45ea-918b-c265988b423a"},"geometry":{"type":"Polygon","coordinates":[[[136.08039339342747,35.63622564082845],[136.08039886588048,35.636837584799565],[136.08072707624893,35.63683974198611],[136.0807341238715,35.63622626877398],[136.08039339342747,35.63622564082845]]]}},{"type":"Feature","properties":{"pid":"c4189ca4-e103-479f-bb40-7cfbbcbf9da3"},"geometry":{"type":"Polygon","coordinates":[[[136.08144388244207,35.6359473465995],[136.08154932620903,35.63609189545212],[136.08158007254437,35.63609215344142],[136.08157958349437,35.636059421980505],[136.08144500831207,35.6359224548056],[136.08144388244207,35.6359473465995]]]}},{"type":"Feature","properties":{"pid":"7c1a3560-8b54-4f25-ac4f-2049dbc7a089"},"geometry":{"type":"Polygon","coordinates":[[[136.088626678117,35.63669511390846],[136.08852553593564,35.63652885613354],[136.08847644353185,35.6365469794891],[136.08854543901532,35.636683724960356],[136.088626678117,35.63669511390846]]]}},{"type":"Feature","properties":{"pid":"b7dffe3c-9813-437c-a54e-3ce294dc3449"},"geometry":{"type":"Polygon","coordinates":[[[136.0887046267208,35.63646435262134],[136.0886547008662,35.63648171823229],[136.08878623851572,35.63671942738994],[136.08885020612894,35.63673379105616],[136.0887046267208,35.63646435262134]]]}},{"type":"Feature","properties":{"pid":"86f39d44-d052-4c67-a4d0-9693841029ad"},"geometry":{"type":"Polygon","coordinates":[[[136.08913710588578,35.63676928983144],[136.08890745774818,35.63638388316103],[136.08882031808471,35.6364169892638],[136.08901554639357,35.63676836607009],[136.08907143386156,35.63678069411377],[136.08913710588578,35.63676928983144]]]}},{"type":"Feature","properties":{"pid":"f97ef5bf-7382-430c-87dc-c73aec4b9c2b"},"geometry":{"type":"Polygon","coordinates":[[[136.0882760438861,35.636096467243725],[136.08823779304169,35.63611062722359],[136.08841330131213,35.63643313360911],[136.08845619766768,35.636416682155435],[136.0882760438861,35.636096467243725]]]}},{"type":"Feature","properties":{"pid":"6e6c4196-54b7-40bb-b502-c945bcfeae10"},"geometry":{"type":"Polygon","coordinates":[[[136.08843888094577,35.63603659060293],[136.08841115930602,35.63604734155766],[136.08859185728372,35.636361937659544],[136.08862560205395,35.63634885875773],[136.08843888094577,35.63603659060293]]]}},{"type":"Feature","properties":{"pid":"4df32a6d-96e8-4c16-8bff-2b8b1ea84620"},"geometry":{"type":"Polygon","coordinates":[[[136.0878757050938,35.6358503316514],[136.08796908562454,35.63603491299621],[136.08799024060133,35.6360440144046],[136.08804496683143,35.63602472737579],[136.08790604009965,35.63578092878137],[136.0878757050938,35.6358503316514]]]}},{"type":"Feature","properties":{"pid":"9759e3d2-3a48-40cf-a7e3-67e9dbd246fd"},"geometry":{"type":"Polygon","coordinates":[[[136.0881847124494,35.63596642484473],[136.08806404839956,35.63575880728577],[136.0880412950991,35.635765096119094],[136.08816193355693,35.6359746729913],[136.0881847124494,35.63596642484473]]]}},{"type":"Feature","properties":{"pid":"a9a0bab7-4635-4e96-a555-4e883e470eb5"},"geometry":{"type":"Polygon","coordinates":[[[136.08824670846892,35.635680322590225],[136.0881828647719,35.63569718674948],[136.0883147097688,35.63591977166987],[136.08837492350435,35.63589815113392],[136.08824670846892,35.635680322590225]]]}},{"type":"Feature","properties":{"pid":"62b256d7-963b-428c-972e-292aab3bab1a"},"geometry":{"type":"Polygon","coordinates":[[[136.08838193632948,35.63565366218339],[136.08849597075107,35.63585180486815],[136.0887212745794,35.63576620843948],[136.08861221491154,35.63554236055603],[136.08854320131303,35.63561355982615],[136.08838193632948,35.63565366218339]]]}},{"type":"Feature","properties":{"pid":"305ca907-b073-4b3c-a1e9-e498a010d94f"},"geometry":{"type":"Polygon","coordinates":[[[136.08875982641115,35.63548376290007],[136.08876660052152,35.63554456559225],[136.0888644984729,35.63570891130106],[136.088886527203,35.63569917926008],[136.08875982641115,35.63548376290007]]]}},{"type":"Feature","properties":{"pid":"17eaeab5-83f4-4a5b-a0af-aeb5170ec53c"},"geometry":{"type":"Polygon","coordinates":[[[136.08908572518553,35.63531170707564],[136.08888198809274,35.63539505631713],[136.08901666795705,35.63564327684332],[136.08922574039286,35.63555709261887],[136.08908572518553,35.63531170707564]]]}},{"type":"Feature","properties":{"pid":"4c5572f6-bb5e-456e-bd0e-d6a6924a9fc5"},"geometry":{"type":"Polygon","coordinates":[[[136.08875805501035,35.63593035743838],[136.08892995333645,35.636239271898255],[136.0890348336405,35.636199827819134],[136.08885609300705,35.635892263323626],[136.08875805501035,35.63593035743838]]]}},{"type":"Feature","properties":{"pid":"de16e8ca-e2ba-4e2c-975c-d65bb9c64840"},"geometry":{"type":"Polygon","coordinates":[[[136.08863732040706,35.635975495821484],[136.0885970492807,35.635991002685486],[136.08877207822195,35.636298504546865],[136.08881090270597,35.63628412997287],[136.08863732040706,35.635975495821484]]]}},{"type":"Feature","properties":{"pid":"ae164abc-e8ae-4a3f-b036-d564b9216ff1"},"geometry":{"type":"Polygon","coordinates":[[[136.0899410046249,35.63648436187927],[136.0898161546742,35.636264485271994],[136.0897302922712,35.63607187311808],[136.08965873746817,35.63609845111405],[136.08989279505562,35.63650221906756],[136.0899410046249,35.63648436187927]]]}},{"type":"Feature","properties":{"pid":"bb595ecb-4a3a-49fe-83d9-caa3d9dcc8ca"},"geometry":{"type":"Polygon","coordinates":[[[136.0894919325461,35.63603478900218],[136.08931243868258,35.63570864737906],[136.0892701677162,35.635724477088786],[136.08944690136292,35.63605139261638],[136.0894919325461,35.63603478900218]]]}},{"type":"Feature","properties":{"pid":"f3b4140c-b2d4-4681-8d57-fba4d5ffb08d"},"geometry":{"type":"Polygon","coordinates":[[[136.08932541498183,35.63609465450741],[136.08914425094446,35.63577621707874],[136.08909012496628,35.6357985982036],[136.08927207640244,35.63611323035532],[136.08932541498183,35.63609465450741]]]}},{"type":"Feature","properties":{"pid":"2bca487d-7566-4d78-bc15-563f4333519d"},"geometry":{"type":"Polygon","coordinates":[[[136.090030461415,35.63570009784762],[136.08985114335547,35.635765000134526],[136.08996501412082,35.6360125220772],[136.09016648917802,35.63593980472684],[136.090030461415,35.63570009784762]]]}},{"type":"Feature","properties":{"pid":"a5ae78de-15c0-4b2d-be71-8bccd5a1eba2"},"geometry":{"type":"Polygon","coordinates":[[[136.08975225282109,35.635367126610994],[136.08973703320544,35.63537980853854],[136.08981973906725,35.635601994242684],[136.0899473595405,35.63555783338886],[136.08975225282109,35.635367126610994]]]}},{"type":"Feature","properties":{"pid":"065890b2-3c1e-4b64-810e-ba88f0b2be91"},"geometry":{"type":"Polygon","coordinates":[[[136.0901704861447,35.63563947224782],[136.09030534511922,35.63588108741807],[136.09049076477012,35.6358128047044],[136.09042190307707,35.6356633132075],[136.09034713245208,35.635583438001255],[136.0901704861447,35.63563947224782]]]}},{"type":"Feature","properties":{"pid":"33afb6a3-46f0-4c19-9dc9-9fe825d5a240"},"geometry":{"type":"Polygon","coordinates":[[[136.09008088022568,35.63614432952106],[136.09001143356303,35.63616922730087],[136.09014137793233,35.6364226545945],[136.0902137037949,35.63639513977713],[136.09008088022568,35.63614432952106]]]}},{"type":"Feature","properties":{"pid":"5eb5b4a3-38f4-4529-80fd-c6deefc27bc7"},"geometry":{"type":"Polygon","coordinates":[[[136.09023328054343,35.63608916809149],[136.090202126685,35.63610088160897],[136.09033939692816,35.636349134679726],[136.0903734688975,35.636337011135026],[136.09023328054343,35.63608916809149]]]}},{"type":"Feature","properties":{"pid":"41772d05-3f84-4189-b891-b443be8fe770"},"geometry":{"type":"Polygon","coordinates":[[[136.09039228964613,35.63603608204681],[136.09036853098343,35.63604542852527],[136.090497774462,35.63629050938963],[136.09052485172515,35.63628004612781],[136.09039228964613,35.63603608204681]]]}},{"type":"Feature","properties":{"pid":"bbf39b79-c823-431f-b2c2-e1820d1f3ac8"},"geometry":{"type":"Polygon","coordinates":[[[136.0902315765043,35.6365802560466],[136.09032711699783,35.63675590422171],[136.0904031628043,35.63672783674418],[136.0903052462482,35.6365447174886],[136.0902315765043,35.6365802560466]]]}},{"type":"Feature","properties":{"pid":"55e5e356-d694-461e-aff3-0a8db7af2528"},"geometry":{"type":"Polygon","coordinates":[[[136.09004112385298,35.636734879110364],[136.09008603892318,35.63671884622871],[136.09002527959052,35.63661731357958],[136.0899849125039,35.636633313183985],[136.09004112385298,35.636734879110364]]]}},{"type":"Feature","properties":{"pid":"79e4ec2b-3635-4291-a02e-1b149f1db7a5"},"geometry":{"type":"Polygon","coordinates":[[[136.08977697476163,35.63654697901876],[136.08953599209056,35.63614302921873],[136.08949474073302,35.6361578097982],[136.08972812202916,35.636565717720856],[136.08977697476163,35.63654697901876]]]}},{"type":"Feature","properties":{"pid":"728a5079-c447-47eb-8d84-e2d5914579b0"},"geometry":{"type":"Polygon","coordinates":[[[136.089323074677,35.63623021183191],[136.0895550096879,35.63663002447875],[136.08960291965806,35.63661264408829],[136.0893732459416,35.636211234518356],[136.089323074677,35.63623021183191]]]}},{"type":"Feature","properties":{"pid":"30ff6836-0f47-493d-ba1b-a6f3c4177c30"},"geometry":{"type":"Polygon","coordinates":[[[136.08937561624066,35.63668779566131],[136.08942429451758,35.63666897405662],[136.08919988759402,35.63627864773091],[136.08916032897076,35.63629309081968],[136.08937561624066,35.63668779566131]]]}},{"type":"Feature","properties":{"pid":"6792672f-f088-416d-b472-d197d29ebed8"},"geometry":{"type":"Polygon","coordinates":[[[136.0899168093856,35.63714920224634],[136.08969309952545,35.63674160554137],[136.0896155613591,35.636768915047014],[136.08984484105642,35.637174493138126],[136.0899168093856,35.63714920224634]]]}},{"type":"Feature","properties":{"pid":"812d0560-8997-42a6-91b4-32c63bfa983f"},"geometry":{"type":"Polygon","coordinates":[[[136.08970855919907,35.63721536802837],[136.0897301426931,35.637209800497246],[136.08950469470676,35.63680760268631],[136.08947972120092,35.63681585766767],[136.08970855919907,35.63721536802837]]]}},{"type":"Feature","properties":{"pid":"a0c70786-bbb1-41ec-9241-464b7396d8ec"},"geometry":{"type":"Polygon","coordinates":[[[136.0900889425576,35.63708414222505],[136.08986792948286,35.636676732662536],[136.0898034645698,35.63670091051336],[136.09003214397882,35.63710742653839],[136.0900889425576,35.63708414222505]]]}},{"type":"Feature","properties":{"pid":"3db6acb7-ec4a-4f90-9c12-762fc5fc37e9"},"geometry":{"type":"Polygon","coordinates":[[[136.0902601501964,35.63701974152542],[136.0901344346519,35.63680483815299],[136.09008679982264,35.63682195260681],[136.09020572160233,35.6370411852139],[136.0902601501964,35.63701974152542]]]}},{"type":"Feature","properties":{"pid":"3a18c215-406b-4a49-bf38-146d40a43c69"},"geometry":{"type":"Polygon","coordinates":[[[136.0905947925987,35.63716766289697],[136.09049260947907,35.636984113914544],[136.0904627477753,35.63699618879712],[136.0905688923805,35.63718194524317],[136.0905947925987,35.63716766289697]]]}},{"type":"Feature","properties":{"pid":"be868a05-e18f-4047-b499-66c42dc3ee1e"},"geometry":{"type":"Polygon","coordinates":[[[136.0907059137574,35.636762993150036],[136.09077362474855,35.63687879586623],[136.0907832328284,35.636734685443514],[136.0907059137574,35.636762993150036]]]}},{"type":"Feature","properties":{"pid":"d1376792-7347-4524-bd16-a35a1fd5014a"},"geometry":{"type":"Polygon","coordinates":[[[136.09070804986473,35.63708884351484],[136.09072629256698,35.637069209571045],[136.09058051439453,35.63681562624772],[136.09056283339976,35.63682161463435],[136.09070804986473,35.63708884351484]]]}},{"type":"Feature","properties":{"pid":"f3d101f3-1f27-41bb-a804-017ebbc350bd"},"geometry":{"type":"Polygon","coordinates":[[[136.0907149785466,35.636615082865845],[136.09059974198007,35.63642011926412],[136.09057442139965,35.636429887146576],[136.090683413027,35.636626493515514],[136.0907149785466,35.636615082865845]]]}},{"type":"Feature","properties":{"pid":"6f72d2bc-44d4-452a-b1b6-e304a3f7bcdd"},"geometry":{"type":"Polygon","coordinates":[[[136.09086348295818,35.63645853923549],[136.09080333058978,35.63634204328665],[136.09071471792583,35.63637561380435],[136.09081955560566,35.63654933408331],[136.09082978065274,35.636485825399745],[136.09086348295818,35.63645853923549]]]}},{"type":"Feature","properties":{"pid":"f543bc50-f433-4fcd-906a-d9069cf8e490"},"geometry":{"type":"Polygon","coordinates":[[[136.09099100923234,35.63630444574359],[136.0912064326232,35.6362750618438],[136.09129065680418,35.636179688325655],[136.09101880421193,35.63570070208237],[136.09089268496484,35.635676968915604],[136.09069156492856,35.63574849234274],[136.0907909900603,35.63599560750302],[136.09093132777573,35.63617447666241],[136.09099100923234,35.63630444574359]]]}},{"type":"Feature","properties":{"pid":"a582c0bb-e38d-49bf-a17c-61607da7096b"},"geometry":{"type":"Polygon","coordinates":[[[136.09057389771795,35.63596943551287],[136.0905154217468,35.6359930716457],[136.09064102721462,35.636231721692674],[136.09070744437298,35.63620480437482],[136.09057389771795,35.63596943551287]]]}},{"type":"Feature","properties":{"pid":"fb73070b-2300-4bed-8792-7592d0f0b10b"},"geometry":{"type":"Polygon","coordinates":[[[136.0901127041052,35.63358778801968],[136.089971411846,35.633557607395524],[136.0898432184994,35.633579279477004],[136.08980573491567,35.63362395688791],[136.08977717288445,35.63370074281571],[136.08973758985476,35.63399452341297],[136.0899111151965,35.63403290629147],[136.09006320679663,35.63365178200263],[136.0901127041052,35.63358778801968]]]}},{"type":"Feature","properties":{"pid":"ecc44988-be49-47bb-a8c4-5997f92ec6a8"},"geometry":{"type":"Polygon","coordinates":[[[136.0898548265926,35.63527114209772],[136.08983290822664,35.63529139212545],[136.09006547435953,35.635518798825366],[136.09023035473322,35.63545092518102],[136.09008923191834,35.63539481839151],[136.0898548265926,35.63527114209772]]]}},{"type":"Feature","properties":{"pid":"cf46b32b-4414-43b1-b162-7192e86403e5"},"geometry":{"type":"Polygon","coordinates":[[[136.089434437865,35.635050088180776],[136.0892014411308,35.63524797359994],[136.0893480971111,35.63550348622045],[136.08948020650493,35.6354506124743],[136.089434437865,35.635050088180776]]]}},{"type":"Feature","properties":{"pid":"cbe3723e-e914-485e-ae29-c8a97b3b399d"},"geometry":{"type":"Polygon","coordinates":[[[136.09026563027314,35.633456892243274],[136.09016873913464,35.633434638021875],[136.0900598677422,35.633351258275475],[136.08995961283696,35.633445053347906],[136.09020991853168,35.63350681164971],[136.09026563027314,35.633456892243274]]]}},{"type":"Feature","properties":{"pid":"9380c740-4cb9-49c9-ae40-53a424d57a55"},"geometry":{"type":"Polygon","coordinates":[[[136.0901471882124,35.63328082390945],[136.09023243325203,35.6333428685813],[136.090352848129,35.63336667913665],[136.09053387552905,35.633126799845],[136.0904052930372,35.63304822150105],[136.0901471882124,35.63328082390945]]]}},{"type":"Feature","properties":{"pid":"8ec98fd1-7d16-47b2-b472-91da43d26b70"},"geometry":{"type":"Polygon","coordinates":[[[136.0920074078569,35.63019571338453],[136.09170465698188,35.6302007585026],[136.09172058748686,35.630222232748075],[136.09199484744877,35.63024526692464],[136.0920074078569,35.63019571338453]]]}},{"type":"Feature","properties":{"pid":"a021eda1-df2a-43b6-8d42-36deaaeed3ca"},"geometry":{"type":"Polygon","coordinates":[[[136.091429808621,35.628200226180134],[136.09163335379202,35.6281813064032],[136.09160344495444,35.62810989670866],[136.09153249838957,35.62806425549052],[136.091429808621,35.628200226180134]]]}},{"type":"Feature","properties":{"pid":"cf5f0287-d6fd-4ecd-8adc-caf100259f04"},"geometry":{"type":"Polygon","coordinates":[[[136.09166128409728,35.628276381743596],[136.09136797928872,35.628303036201565],[136.09132403740662,35.628407991066375],[136.0916470918349,35.62838745588954],[136.09166128409728,35.628276381743596]]]}},{"type":"Feature","properties":{"pid":"b03ff217-6d93-4ec2-a4ed-eb3fcf08f046"},"geometry":{"type":"Polygon","coordinates":[[[136.09199934239578,35.63010567488282],[136.09195340093902,35.629991364549305],[136.0919410418554,35.62983178793025],[136.09165590767202,35.629751560759836],[136.09160985318513,35.63007296522961],[136.0916385792328,35.630111686621085],[136.09199934239578,35.63010567488282]]]}}]}