{"type":"FeatureCollection","features":[{"type":"Feature","properties":{"pid":"599dc6cb-89c0-4537-abdc-827f0b30d957"},"geometry":{"type":"Polygon","coordinates":[[[136.22570528760392,35.98184266249267],[136.22603707717388,35.981882447486264],[136.2261011547016,35.981590105204745],[136.22614645053852,35.98109719194955],[136.22575142452754,35.98107162738625],[136.2257105112283,35.98110883332131],[136.2255912649076,35.98130793554323],[136.22569097480053,35.98135449236251],[136.22577956465636,35.98141852501845],[136.22581625008544,35.98146660537341],[136.22570528760392,35.98184266249267]]]}},{"type":"Feature","properties":{"pid":"1a4c5c50-2740-46a2-a813-b1c67c41e7ee"},"geometry":{"type":"Polygon","coordinates":[[[136.22555927009165,35.98196064325189],[136.22552822784107,35.98205280752868],[136.22560111087714,35.98207378039553],[136.22562130109495,35.98211352192624],[136.22555482863433,35.98237441383866],[136.22552331410887,35.98242620797395],[136.22550110791366,35.98255740918963],[136.22567248447797,35.9826153749785],[136.2258665341166,35.98263859228708],[136.2259991970236,35.98201069663358],[136.22555927009165,35.98196064325189]]]}},{"type":"Feature","properties":{"pid":"1cba5cfa-af12-42a5-bef4-ea93960905ca"},"geometry":{"type":"Polygon","coordinates":[[[136.22601891713006,35.983176356328855],[136.22624104543942,35.98320834663698],[136.22622437196705,35.98309349828583],[136.22617373462398,35.98294942176804],[136.22605173549886,35.98295443884345],[136.22601891713006,35.983176356328855]]]}},{"type":"Feature","properties":{"pid":"fbbcc23f-879e-44cb-a4ac-a0c787393d2d"},"geometry":{"type":"Polygon","coordinates":[[[136.22710475493105,35.982492854532964],[136.22738417752188,35.98286816711745],[136.22737336008785,35.98299046533452],[136.22732505473064,35.9832044774336],[136.2273270750861,35.98330261087685],[136.2277728607066,35.98331842774996],[136.22824620660032,35.98345772309257],[136.22793996511427,35.982494285463936],[136.22774549976572,35.9822106205939],[136.22710475493105,35.982492854532964]]]}},{"type":"Feature","properties":{"pid":"2ebe8340-e9a2-4b5b-b141-361c1a5c8393"},"geometry":{"type":"Polygon","coordinates":[[[136.22915713961257,35.98441559446604],[136.22918423278898,35.98443606639834],[136.22924838387513,35.98444629307858],[136.22966234660527,35.98447075367488],[136.229806586459,35.98350198494329],[136.2295126308435,35.98329990758567],[136.22935287774465,35.98324462272225],[136.22915713961257,35.98441559446604]]]}},{"type":"Feature","properties":{"pid":"4af6c9db-4509-4e32-b077-42f6124d73bd"},"geometry":{"type":"Polygon","coordinates":[[[136.2297931804986,35.98448119902045],[136.2299872761322,35.984498274910216],[136.23010814738305,35.98361583017386],[136.22993344429543,35.98353912128002],[136.2297931804986,35.98448119902045]]]}},{"type":"Feature","properties":{"pid":"6c19cbdd-5320-478c-a94d-59cea9b52f02"},"geometry":{"type":"Polygon","coordinates":[[[136.23018482347734,35.98449421753859],[136.23021045803853,35.984532498078885],[136.23031489647033,35.98455508733771],[136.23044088609174,35.98434743363197],[136.23055725330119,35.98367196141681],[136.23030741321352,35.98366312418053],[136.23018482347734,35.98449421753859]]]}},{"type":"Feature","properties":{"pid":"ef9aa01b-7565-4070-aa40-ec9aa74fce39"},"geometry":{"type":"Polygon","coordinates":[[[136.23064774820722,35.984239690615],[136.23062900088425,35.984319593661894],[136.23082374203244,35.98440135127409],[136.23090535821598,35.98436620952117],[136.23081630347872,35.98425900560912],[136.23064774820722,35.984239690615]]]}},{"type":"Feature","properties":{"pid":"dd9aad2c-fce5-4c06-9b73-470be7b43c43"},"geometry":{"type":"Polygon","coordinates":[[[136.22832229231605,35.9827273226467],[136.22853985410305,35.98347542871641],[136.2286410982648,35.983771649824845],[136.228736113778,35.98391412673104],[136.22902717512068,35.983945295746956],[136.22914465021722,35.983189955534755],[136.22839468948675,35.982748972083165],[136.22832229231605,35.9827273226467]]]}},{"type":"Feature","properties":{"pid":"c6cb3e8f-3d6a-41f2-9be7-868fe091b19f"},"geometry":{"type":"Polygon","coordinates":[[[136.22680674851856,35.98209617878285],[136.2268889909756,35.98223087282489],[136.22702295245543,35.98239580735273],[136.22767486945978,35.98211472339474],[136.22743395145505,35.981752602710095],[136.22739371217827,35.98174001793254],[136.22682271317052,35.9819871785483],[136.22680674851856,35.98209617878285]]]}},{"type":"Feature","properties":{"pid":"dcd02929-1355-4c24-a0f2-d92ef1e9fc20"},"geometry":{"type":"Polygon","coordinates":[[[136.22627783189216,35.98201722004755],[136.22662280643567,35.982061397889915],[136.22666657736036,35.981501629866585],[136.22636325180426,35.981482695303086],[136.22629182602157,35.981836961178175],[136.22627783189216,35.98201722004755]]]}},{"type":"Feature","properties":{"pid":"913d271e-6cd3-4787-8b22-f76c1632f254"},"geometry":{"type":"Polygon","coordinates":[[[136.22681660591772,35.981856783309006],[136.22734768163883,35.98163044422434],[136.22698870427106,35.98111010286869],[136.22693975824626,35.9810875217452],[136.22681660591772,35.981856783309006]]]}},{"type":"Feature","properties":{"pid":"5b440585-b333-468d-9251-52cbd8459b86"},"geometry":{"type":"Polygon","coordinates":[[[136.22637886722111,35.98136416856247],[136.2266939009904,35.98138837627208],[136.2267551086288,35.980993314117825],[136.22644422190314,35.98083307116258],[136.22637886722111,35.98136416856247]]]}},{"type":"Feature","properties":{"pid":"7f97f65c-1fa3-4745-a3f2-04829b8e5049"},"geometry":{"type":"Polygon","coordinates":[[[136.22622658926772,35.98008388456181],[136.2262100154392,35.980164155461075],[136.2270219190127,35.980794675567424],[136.22726938529476,35.98090527967258],[136.22726427363432,35.980811660005706],[136.22724356616868,35.98074894387506],[136.22724436582348,35.98058675909774],[136.22727232387155,35.98046763842907],[136.22729767872855,35.98020535216867],[136.22727144392798,35.97978596427289],[136.22730018848446,35.97962497344184],[136.22728155628698,35.9795962956625],[136.22640019833352,35.97940642457945],[136.22630278789612,35.97964422254172],[136.22621552097942,35.97996113159389],[136.22622658926772,35.98008388456181]]]}},{"type":"Feature","properties":{"pid":"f305f1a8-e7b4-4445-8015-3458f0dd42c5"},"geometry":{"type":"Polygon","coordinates":[[[136.22654192406063,35.97890388444174],[136.22642300449613,35.97929425744321],[136.22726561087228,35.97946750112713],[136.22735474242106,35.979261766226585],[136.2275160137296,35.97909800755578],[136.2276232951765,35.978927844511794],[136.2272945217153,35.97885573018276],[136.22726130976324,35.97895490900824],[136.22723224368116,35.978980042949075],[136.2270227921505,35.97894471350733],[136.22698180777115,35.978902589943125],[136.2270152348229,35.97879447432614],[136.22654473931613,35.978691269874446],[136.22654192406063,35.97890388444174]]]}},{"type":"Feature","properties":{"pid":"18a793b0-5e0b-48eb-92f0-7dd06298d2f5"},"geometry":{"type":"Polygon","coordinates":[[[136.22783310631516,35.977434809670214],[136.22780123281368,35.97754022233638],[136.2280001880743,35.97757486427833],[136.2280518162132,35.97748907622516],[136.2278649608237,35.97745625679668],[136.22783310631516,35.977434809670214]]]}},{"type":"Feature","properties":{"pid":"ba8a771e-f2c5-4302-b88b-eb3a319bce60"},"geometry":{"type":"Polygon","coordinates":[[[136.22710814613941,35.97708965783707],[136.22702153196738,35.977393246603704],[136.22768100827238,35.97751785120658],[136.22776789399677,35.977221054628075],[136.22710814613941,35.97708965783707]]]}},{"type":"Feature","properties":{"pid":"50107452-bb28-4a3b-a88b-7df5dabf5be0"},"geometry":{"type":"Polygon","coordinates":[[[136.22699631676642,35.977500565819945],[136.226917078777,35.97788918117454],[136.2266687177535,35.97811521594197],[136.2265768350811,35.97838346316701],[136.22655670956107,35.97852742203144],[136.2276383829757,35.97876035200535],[136.227552797953,35.97855651098189],[136.22754730049274,35.97841101202033],[136.22765622926744,35.978093458968864],[136.22785489372347,35.97785207594561],[136.22794679967504,35.97767717496162],[136.22699631676642,35.977500565819945]]]}},{"type":"Feature","properties":{"pid":"1bc9b4fe-f7f4-4fa3-8601-dd522caf2ee5"},"geometry":{"type":"Polygon","coordinates":[[[136.22585855978724,35.977082371740416],[136.22539812044857,35.978230016545794],[136.2259084304287,35.978365571983474],[136.22601149072779,35.97811064650911],[136.22604654972,35.97809191639746],[136.22615505117997,35.978091109455924],[136.22621594331835,35.97723628611858],[136.22585855978724,35.977082371740416]]]}},{"type":"Feature","properties":{"pid":"d0cf5834-3e21-4d5c-b2d8-8c841fc972fc"},"geometry":{"type":"Polygon","coordinates":[[[136.22514025408913,35.976549386483455],[136.22454954703517,35.97800451701226],[136.22522743557494,35.978183505176474],[136.22578586558436,35.97679836899593],[136.2256237249745,35.97676551622535],[136.2254265983357,35.976702160457386],[136.22514025408913,35.976549386483455]]]}},{"type":"Feature","properties":{"pid":"991dd470-a4b7-40c2-8383-8126aece1136"},"geometry":{"type":"Polygon","coordinates":[[[136.22533760174025,35.97838084510088],[136.224887239567,35.97950068963947],[136.22590178077624,35.979851495562734],[136.22621145968353,35.97888070803941],[136.22622054714623,35.978622980157205],[136.22533760174025,35.97838084510088]]]}},{"type":"Feature","properties":{"pid":"9d324d40-9fdf-4364-94cc-06a5e31db86b"},"geometry":{"type":"Polygon","coordinates":[[[136.22569673612068,35.980938669650016],[136.2261819625061,35.980970694885194],[136.22621638283331,35.98070918517532],[136.22592004010718,35.98032797056148],[136.2256727732277,35.98054511728838],[136.2257255222458,35.98058045333267],[136.22572782596987,35.98064570728286],[136.22557181243093,35.98086797278634],[136.22569673612068,35.980938669650016]]]}},{"type":"Feature","properties":{"pid":"d9bcc83c-dbd7-4f0f-bc3f-1b4a9619bba9"},"geometry":{"type":"Polygon","coordinates":[[[136.23006642878252,35.97418247322983],[136.23090571430745,35.974593138091656],[136.2309572532435,35.974525333807385],[136.23009678570358,35.97413868740835],[136.23006642878252,35.97418247322983]]]}},{"type":"Feature","properties":{"pid":"ae0771b2-2bc7-40ba-9e6d-a2665984d675"},"geometry":{"type":"Polygon","coordinates":[[[136.23040121943325,35.9756027898407],[136.23060557410486,35.975699034896095],[136.2306592150878,35.975692692993725],[136.23090059537637,35.97579145913705],[136.2309329895599,35.97578862403246],[136.23117411954445,35.975653111601794],[136.23138169402748,35.97541632261805],[136.23073094907997,35.975125127280336],[136.23040121943325,35.9756027898407]]]}},{"type":"Feature","properties":{"pid":"ee7dceb2-3009-4856-b924-8ef11f195ea0"},"geometry":{"type":"Polygon","coordinates":[[[136.22938163602484,35.97512911646491],[136.23024092814111,35.97553084562829],[136.23084302276843,35.9746774717799],[136.22999353646358,35.97427239665725],[136.22938163602484,35.97512911646491]]]}},{"type":"Feature","properties":{"pid":"d0f15df3-6b0d-4e47-91c1-3238334ea49c"},"geometry":{"type":"Polygon","coordinates":[[[136.22764283745764,35.97370016980489],[136.2273091402598,35.97416914463534],[136.22816606815906,35.97456925619693],[136.22849315989072,35.974101255928936],[136.22764283745764,35.97370016980489]]]}},{"type":"Feature","properties":{"pid":"d57dc9e6-01c4-4b8d-bf93-3363a6d76928"},"geometry":{"type":"Polygon","coordinates":[[[136.22587432372595,35.974837456509306],[136.22532018524993,35.97629715975645],[136.2253135361535,35.97637371172806],[136.22548285117105,35.976477013180116],[136.2270788789295,35.97421563387316],[136.22623497259303,35.973820938276994],[136.2261011773928,35.9740503918634],[136.22587432372595,35.974837456509306]]]}},{"type":"Feature","properties":{"pid":"c70395e0-4658-45d4-83c5-e95bc935d0d4"},"geometry":{"type":"Polygon","coordinates":[[[136.22727236699902,35.9758383990886],[136.2276215832006,35.97534066091086],[136.22677528274284,35.9749257881448],[136.22672116963747,35.97500476660672],[136.22678238124806,35.97504972575724],[136.2267905977757,35.975179184462604],[136.22674739619353,35.97520299878708],[136.22662828137936,35.97521309744071],[136.22658374049777,35.97519936160058],[136.22642362836245,35.97542450403862],[136.22727236699902,35.9758383990886]]]}},{"type":"Feature","properties":{"pid":"2050393c-8d59-4923-87ce-f4dfe969cb62"},"geometry":{"type":"Polygon","coordinates":[[[136.22768935626635,35.9752528738685],[136.22808666218694,35.974692453237004],[136.22723330363257,35.974285965423306],[136.2268391629761,35.974840193169314],[136.22768935626635,35.9752528738685]]]}},{"type":"Feature","properties":{"pid":"1b49795e-b801-4edf-98a0-8d1fa188f115"},"geometry":{"type":"Polygon","coordinates":[[[136.22828559090206,35.97478306955374],[136.22785188974854,35.975400828378376],[136.22870903272914,35.97580379845204],[136.22915150337286,35.975187907071536],[136.22828559090206,35.97478306955374]]]}},{"type":"Feature","properties":{"pid":"54e53643-d1ce-42d1-934b-9280fe9a4ba9"},"geometry":{"type":"Polygon","coordinates":[[[136.22686722951323,35.97681699271617],[136.22785015761025,35.977016519948954],[136.22865108068763,35.97589457022781],[136.22779138288385,35.9754889953329],[136.22686722951323,35.97681699271617]]]}},{"type":"Feature","properties":{"pid":"7d6c7cd6-d746-4737-b251-ca13a607332e"},"geometry":{"type":"Polygon","coordinates":[[[136.22680503740642,35.97648752223034],[136.22690837401353,35.97634147738162],[136.22691282546882,35.97630382431321],[136.22697039822162,35.97625792475817],[136.2272037845229,35.97592726934996],[136.22636311306155,35.975512256734625],[136.2259470260266,35.97609485249446],[136.22680503740642,35.97648752223034]]]}},{"type":"Feature","properties":{"pid":"0119259a-801d-47a4-b1dc-b078cd8e4eb7"},"geometry":{"type":"Polygon","coordinates":[[[136.22563458499124,35.97653383158737],[136.22659351792308,35.976753536068664],[136.226726359596,35.97659528289368],[136.22671142595092,35.97656084366414],[136.2258812848758,35.976185640302944],[136.22563458499124,35.97653383158737]]]}},{"type":"Feature","properties":{"pid":"20c5473b-a855-48be-bd85-9890d893c137"},"geometry":{"type":"Polygon","coordinates":[[[136.22802790832836,35.97704854693965],[136.22816826711818,35.9770574696567],[136.22837987025005,35.97702403310902],[136.22852722280086,35.97680981405271],[136.22828270251193,35.97670043232244],[136.22802790832836,35.97704854693965]]]}},{"type":"Feature","properties":{"pid":"16629897-6cf3-4743-844d-a251ced5751b"},"geometry":{"type":"Polygon","coordinates":[[[136.22834767632864,35.97659597635453],[136.22861375200236,35.97672322030755],[136.22881584645575,35.97665869531993],[136.22886436017097,35.97666302947534],[136.22901564653867,35.97673193884175],[136.22957504948204,35.976261683025534],[136.22979237558988,35.9761383155915],[136.23014349828136,35.975665712195315],[136.22929511102174,35.97525572056497],[136.22834767632864,35.97659597635453]]]}},{"type":"Feature","properties":{"pid":"debf92cf-4b5e-45e7-8ddc-a66e1a53a0b1"},"geometry":{"type":"Polygon","coordinates":[[[136.23079277947588,35.97504028078853],[136.2314588988314,35.975341014427045],[136.23161292151352,35.97519517702499],[136.23168116272043,35.975109003536026],[136.2318133041188,35.97487862713205],[136.2311127683194,35.97457629366509],[136.23079277947588,35.97504028078853]]]}},{"type":"Feature","properties":{"pid":"fb572c60-da36-49cf-9f07-65b96666d7a4"},"geometry":{"type":"Polygon","coordinates":[[[136.23117476681125,35.97449130816444],[136.23186778742104,35.97478793652743],[136.2319025046267,35.97472003170209],[136.23151637676722,35.97453533911873],[136.23147941630788,35.97458091102339],[136.23143314277664,35.97459159830259],[136.23117476681125,35.97449130816444]]]}},{"type":"Feature","properties":{"pid":"1b381f6f-5873-4e11-a5b3-d1c667c8f216"},"geometry":{"type":"Polygon","coordinates":[[[136.23094183912642,35.98460441374248],[136.23102540305922,35.98465950877777],[136.23102409971509,35.98469022774333],[136.2309949371997,35.98472792313938],[136.23116500380152,35.98483530642652],[136.23137316260951,35.984646591454215],[136.23128147587383,35.98466419309639],[136.23124081457516,35.9846517591948],[136.23112435429937,35.98444069903406],[136.23100803315947,35.98448293762289],[136.23094183912642,35.98460441374248]]]}},{"type":"Feature","properties":{"pid":"1f840fa8-9c58-45cb-ae4f-44ced93ba79d"},"geometry":{"type":"Polygon","coordinates":[[[136.2314965743935,35.98470439380637],[136.23128069929083,35.98490867681242],[136.23143953955906,35.98502570987623],[136.23160901562332,35.98486294396804],[136.23152807000344,35.98477821634949],[136.2314965743935,35.98470439380637]]]}},{"type":"Feature","properties":{"pid":"67533ee5-b35b-4497-9718-b7f944c47518"},"geometry":{"type":"Polygon","coordinates":[[[136.23172513733905,35.98494591353707],[136.23154316141873,35.98510852924902],[136.2316526863468,35.98518667262195],[136.2318765793425,35.9850410493064],[136.23172513733905,35.98494591353707]]]}},{"type":"Feature","properties":{"pid":"c3756c33-77a6-455a-8d86-1838f7cf5fb2"},"geometry":{"type":"Polygon","coordinates":[[[136.24046481436037,35.99066498987717],[136.24050880190487,35.99065004844984],[136.2409195640395,35.99051272176286],[136.2407503385156,35.990388888035],[136.240615175658,35.99031675729635],[136.24026247853368,35.99048472867644],[136.2403927847183,35.990657028152846],[136.24043302934686,35.990651166502104],[136.24046481436037,35.99066498987717]]]}},{"type":"Feature","properties":{"pid":"d6033fab-7e65-42e7-b7a8-dd89f984e504"},"geometry":{"type":"Polygon","coordinates":[[[136.24619702757036,35.99039978883289],[136.24606579795113,35.99038984851652],[136.2460655657324,35.99046171791816],[136.24619453533276,35.99046308812544],[136.24619702757036,35.99039978883289]]]}},{"type":"Feature","properties":{"pid":"5a9a9877-a80b-4d47-b10e-de8bc1c2456b"},"geometry":{"type":"Polygon","coordinates":[[[136.24565682246808,35.99010797276395],[136.24549990804186,35.99008766005224],[136.2454938842806,35.99013940931509],[136.24563688221647,35.990148510579644],[136.24565682246808,35.99010797276395]]]}},{"type":"Feature","properties":{"pid":"320d878e-4ca9-4803-a95f-d30fa9bbd7f2"},"geometry":{"type":"Polygon","coordinates":[[[136.245362777693,35.990046107114324],[136.24512606841995,35.99005143056936],[136.24511592770895,35.99008342381708],[136.2453607454486,35.99008347350209],[136.245362777693,35.990046107114324]]]}},{"type":"Feature","properties":{"pid":"a7bcec06-e6ce-41ff-97d5-1289ee0d4462"},"geometry":{"type":"Polygon","coordinates":[[[136.2446099062527,35.99053996537034],[136.24459318073625,35.99045839172523],[136.24442725776683,35.990486236352645],[136.24447018068096,35.99056664635254],[136.2446099062527,35.99053996537034]]]}}]}