{"type":"FeatureCollection","features":[{"type":"Feature","properties":{"pid":"14ded508-28cf-4fde-94c0-2667e82fac83"},"geometry":{"type":"Polygon","coordinates":[[[136.12869131450117,35.87147131553784],[136.12861484249225,35.87151390163859],[136.12851542301837,35.87153793699486],[136.128688924403,35.87177431668934],[136.12875094518066,35.87175375645453],[136.1288510526696,35.87175697065295],[136.12889910326905,35.871741767941046],[136.12869131450117,35.87147131553784]]]}},{"type":"Feature","properties":{"pid":"0bee8f43-f803-48b9-be0e-e9424417b4c7"},"geometry":{"type":"Polygon","coordinates":[[[136.12817350326156,35.87166850055491],[136.1283029969007,35.871860901778334],[136.1285554653058,35.871817069704264],[136.12836140851658,35.871571854891855],[136.128264794139,35.871607717053195],[136.12817350326156,35.87166850055491]]]}},{"type":"Feature","properties":{"pid":"d7256089-57b6-4278-82bf-08acde05cca0"},"geometry":{"type":"Polygon","coordinates":[[[136.12726949241952,35.871819777875366],[136.12764359369018,35.87191250190425],[136.12777644064155,35.87193054601994],[136.12803007892148,35.871937628262394],[136.12818464422506,35.87190347502068],[136.12806564270704,35.87173118230434],[136.12796559974154,35.87177417857299],[136.1278823734971,35.871788422187905],[136.1276666167862,35.87178741463962],[136.1273182806609,35.8717580514181],[136.12726949241952,35.871819777875366]]]}},{"type":"Feature","properties":{"pid":"aa381fb6-870f-4ffc-9d9e-7052875745ea"},"geometry":{"type":"Polygon","coordinates":[[[136.1270859377238,35.871746381845966],[136.12713795265051,35.8716784923584],[136.12687983256265,35.8715901106081],[136.12683337848648,35.87158607247239],[136.12681380439895,35.87160081692783],[136.12682181417597,35.87162656775155],[136.1270859377238,35.871746381845966]]]}},{"type":"Feature","properties":{"pid":"32fd7191-b475-4160-8a73-db052b8a7c97"},"geometry":{"type":"Polygon","coordinates":[[[136.13553701233337,35.87319292499058],[136.13556360477352,35.87355407661183],[136.13580187561828,35.87347994998096],[136.13585355682312,35.87344902205993],[136.13576288879602,35.87318203191315],[136.13553701233337,35.87319292499058]]]}},{"type":"Feature","properties":{"pid":"fc5662e1-bd8d-4293-b09d-193756ad6dae"},"geometry":{"type":"Polygon","coordinates":[[[136.13557491330116,35.87370766877055],[136.1355840271086,35.87381626191909],[136.13561881708878,35.87385788250987],[136.13588757135676,35.87371900123811],[136.13585109848387,35.87362575558485],[136.13557491330116,35.87370766877055]]]}},{"type":"Feature","properties":{"pid":"9cf43740-403a-4f98-84d9-990c8a9e76e0"},"geometry":{"type":"Polygon","coordinates":[[[136.1321198218148,35.87123138748143],[136.1321918318169,35.871325838152664],[136.13305234566968,35.87089132465589],[136.1330483888713,35.87087360256226],[136.1330180333888,35.8708186864887],[136.13299034952735,35.87079960777291],[136.1321198218148,35.87123138748143]]]}},{"type":"Feature","properties":{"pid":"765c66be-d9aa-4daf-8476-e0dd5d2b7905"},"geometry":{"type":"Polygon","coordinates":[[[136.1309394527754,35.871528099022854],[136.1310541196981,35.87164746265918],[136.1318646305034,35.87123527483961],[136.1317657021794,35.87109703029587],[136.1309394527754,35.871528099022854]]]}},{"type":"Feature","properties":{"pid":"07d53611-53fb-4860-aa2a-1e2f000f5a4c"},"geometry":{"type":"Polygon","coordinates":[[[136.1311290215553,35.87172792106682],[136.13120813373527,35.871815138986086],[136.13126843538456,35.87185426450775],[136.13201329328015,35.87146324585294],[136.13191366019214,35.87132819718928],[136.1311290215553,35.87172792106682]]]}},{"type":"Feature","properties":{"pid":"0b9b75c5-8e48-495a-a038-627d4e468a2f"},"geometry":{"type":"Polygon","coordinates":[[[136.13140910959265,35.871924198401054],[136.13143343698079,35.87193441441229],[136.13200163559537,35.871641308515144],[136.13200873359506,35.871613881549294],[136.13140910959265,35.871924198401054]]]}},{"type":"Feature","properties":{"pid":"42dc85a8-879f-4e03-adfe-be54a9c7b262"},"geometry":{"type":"Polygon","coordinates":[[[136.13160636028599,35.87196141777208],[136.1320184871971,35.871940006185476],[136.13200175518497,35.87186464035126],[136.13200352898738,35.87175658947146],[136.13160636028599,35.87196141777208]]]}},{"type":"Feature","properties":{"pid":"fda22eaa-969b-470b-a77b-c7c4c08441e9"},"geometry":{"type":"Polygon","coordinates":[[[136.13145710472202,35.872344662424446],[136.13152271881134,35.87235119729208],[136.13160853534805,35.87238701664964],[136.1316465781435,35.87233435107972],[136.13147546638606,35.87228132939101],[136.13145710472202,35.872344662424446]]]}},{"type":"Feature","properties":{"pid":"55a61f93-afc0-4f4b-bbf9-383d34677199"},"geometry":{"type":"Polygon","coordinates":[[[136.13150134114767,35.872166232526176],[136.13172166107364,35.87223385554353],[136.13188622204282,35.87212384691484],[136.13150989172905,35.87211704556336],[136.13150134114767,35.872166232526176]]]}},{"type":"Feature","properties":{"pid":"7f62f827-bc84-429a-92f1-8c0a235d938f"},"geometry":{"type":"Polygon","coordinates":[[[136.1307703631849,35.87130541025845],[136.13086712296072,35.87143611235069],[136.13169700230713,35.87100327158822],[136.13160305597395,35.87087697381848],[136.1307703631849,35.87130541025845]]]}},{"type":"Feature","properties":{"pid":"6beef691-7447-4e28-8f1c-18379f108901"},"geometry":{"type":"Polygon","coordinates":[[[136.13027892691508,35.87139707788375],[136.1303076344394,35.8714410960038],[136.13069953783742,35.87147858194114],[136.13054619122863,35.87127925146501],[136.13027892691508,35.87139707788375]]]}},{"type":"Feature","properties":{"pid":"a1efaca2-80e9-4312-903f-47aa6dedf142"},"geometry":{"type":"Polygon","coordinates":[[[136.13001819346545,35.87103627856799],[136.1302190382973,35.87131194908709],[136.13049382402522,35.871189822694625],[136.13025847517258,35.87090466203666],[136.13001819346545,35.87103627856799]]]}},{"type":"Feature","properties":{"pid":"ac70e41d-5956-42e0-9167-98490f965615"},"geometry":{"type":"Polygon","coordinates":[[[136.12939163059326,35.87115663984858],[136.12966936927168,35.87155700892362],[136.12979557589833,35.87154501648384],[136.1295007259022,35.87113818352701],[136.12939163059326,35.87115663984858]]]}},{"type":"Feature","properties":{"pid":"36a02b80-7600-4989-b43e-1a5579ac754c"},"geometry":{"type":"Polygon","coordinates":[[[136.1299197815586,35.87109138879586],[136.1297377561902,35.871191920435976],[136.12995718981372,35.87149036308654],[136.13018325206684,35.8714689904534],[136.1299197815586,35.87109138879586]]]}},{"type":"Feature","properties":{"pid":"edb529e6-8b6d-4f69-a3ab-247a6737f974"},"geometry":{"type":"Polygon","coordinates":[[[136.1287707479407,35.87138891109031],[136.12900438378242,35.87169614249519],[136.12919430261738,35.871611384094514],[136.1289608157621,35.87128936608047],[136.12891440513067,35.87133479156161],[136.1287707479407,35.87138891109031]]]}},{"type":"Feature","properties":{"pid":"c2e2bbdc-0035-452d-bae7-4e3f3468e5c6"},"geometry":{"type":"Polygon","coordinates":[[[136.12904518302128,35.871208551074666],[136.12930982220638,35.87157704018903],[136.1295159781705,35.871547363952644],[136.12926080832048,35.871195024126756],[136.12916374518204,35.871216957050315],[136.12904518302128,35.871208551074666]]]}},{"type":"Feature","properties":{"pid":"cf272882-6517-49df-b150-2dbb61875e2c"},"geometry":{"type":"Polygon","coordinates":[[[136.13042236093003,35.870134666235174],[136.13095801744103,35.869967821578356],[136.1309572832397,35.86996063848504],[136.13093618608977,35.869910126757105],[136.13043292288268,35.87008201771611],[136.13042236093003,35.870134666235174]]]}},{"type":"Feature","properties":{"pid":"57f043a3-f39f-445d-9656-54b4bad845d6"},"geometry":{"type":"Polygon","coordinates":[[[136.13040510089218,35.86982137587003],[136.13040209112546,35.869970674265275],[136.13088981929334,35.86980749341475],[136.1308303454641,35.869685207102485],[136.13040510089218,35.86982137587003]]]}},{"type":"Feature","properties":{"pid":"0d004eec-efe7-47a8-9023-9c68f9bf0314"},"geometry":{"type":"Polygon","coordinates":[[[136.13010439798876,35.869485604718975],[136.13063759849155,35.86930689800173],[136.13057192025917,35.86916932897284],[136.13010952332084,35.86933148312],[136.13010439798876,35.869485604718975]]]}},{"type":"Feature","properties":{"pid":"b6aa9fa7-fd55-4a80-96c9-ce8541cc8a40"},"geometry":{"type":"Polygon","coordinates":[[[136.13018844137687,35.86956739701745],[136.1303407497992,35.86973988005976],[136.13078180528157,35.8695955116347],[136.13067542016205,35.86939911284334],[136.13018844137687,35.86956739701745]]]}},{"type":"Feature","properties":{"pid":"05cec82a-2737-411c-8904-da7c231ba34f"},"geometry":{"type":"Polygon","coordinates":[[[136.13095438652,35.86949881391226],[136.13112396682044,35.869437969229374],[136.13107092211575,35.86930297387362],[136.1308957776255,35.869358977091494],[136.13095438652,35.86949881391226]]]}},{"type":"Feature","properties":{"pid":"fbe24794-e766-40c6-8cfb-d41edf7272b7"},"geometry":{"type":"Polygon","coordinates":[[[136.13117773634457,35.86997337971208],[136.1315094167891,35.869801641115565],[136.13121898852665,35.86955253374433],[136.13102295771162,35.86962409491552],[136.13117773634457,35.86997337971208]]]}},{"type":"Feature","properties":{"pid":"f61f12c0-0427-4d7a-955f-d76472fe1971"},"geometry":{"type":"Polygon","coordinates":[[[136.13036337793037,35.87037269408682],[136.13087472348957,35.870115835948994],[136.13096202436316,35.87007466083289],[136.1303935098931,35.8702539360509],[136.13036337793037,35.87037269408682]]]}},{"type":"Feature","properties":{"pid":"d2e8852e-4beb-4d27-9da0-036ab29af321"},"geometry":{"type":"Polygon","coordinates":[[[136.13029957702085,35.870635524446875],[136.1303577445529,35.87071649968048],[136.13118434725536,35.870309830574776],[136.13112903332495,35.87022805054644],[136.13029957702085,35.870635524446875]]]}},{"type":"Feature","properties":{"pid":"a7c0249e-334a-4671-9391-02998c922fcf"},"geometry":{"type":"Polygon","coordinates":[[[136.13044534980168,35.8708500393164],[136.13052200058502,35.87095510400151],[136.13135149758185,35.870540954725804],[136.13127706691557,35.87043889277568],[136.13044534980168,35.8708500393164]]]}},{"type":"Feature","properties":{"pid":"92171f6e-7337-4f1a-8ee3-ad36ce921f37"},"geometry":{"type":"Polygon","coordinates":[[[136.13061987552197,35.87109345653891],[136.1306911957468,35.87119589271922],[136.13152973665788,35.87076676455616],[136.13145698833364,35.87067525606838],[136.13061987552197,35.87109345653891]]]}},{"type":"Feature","properties":{"pid":"c9db7e2d-d0cf-4e4f-b692-5562b8a435a8"},"geometry":{"type":"Polygon","coordinates":[[[136.13146318645147,35.87035979223564],[136.13154110262724,35.870464410630845],[136.13199918275788,35.870229348160144],[136.13189388586972,35.87014045632748],[136.13146318645147,35.87035979223564]]]}},{"type":"Feature","properties":{"pid":"490182a1-6631-46ec-906d-47b2b21b086d"},"geometry":{"type":"Polygon","coordinates":[[[136.1316051731078,35.870548235243],[136.1317161606253,35.870690129195516],[136.13222285803917,35.87043010214544],[136.13206923177142,35.87030896749429],[136.1316051731078,35.870548235243]]]}},{"type":"Feature","properties":{"pid":"929913e1-66fb-4dc5-9cee-b623ccb0a813"},"geometry":{"type":"Polygon","coordinates":[[[136.13178447189088,35.87078295813246],[136.13179741717224,35.87080139524936],[136.13233777617518,35.87053464977156],[136.1323127233787,35.870512333799844],[136.13178447189088,35.87078295813246]]]}},{"type":"Feature","properties":{"pid":"93cb5586-3134-45e2-b7c7-acc7fc8adc8d"},"geometry":{"type":"Polygon","coordinates":[[[136.13186217390208,35.87088997192971],[136.13188308295065,35.87091646779058],[136.1324536839955,35.87062719334825],[136.1324249352884,35.87060810135419],[136.13186217390208,35.87088997192971]]]}},{"type":"Feature","properties":{"pid":"bde421c8-1544-46bd-ba3a-3049304eb939"},"geometry":{"type":"Polygon","coordinates":[[[136.1319527853982,35.87100479481606],[136.1320549665763,35.871141854467844],[136.1328734862553,35.8707360411602],[136.13269980838706,35.870663760307764],[136.13263100624766,35.870658043115256],[136.1319527853982,35.87100479481606]]]}},{"type":"Feature","properties":{"pid":"11c69549-c29e-404a-bbe7-aeb3e2677bac"},"geometry":{"type":"Polygon","coordinates":[[[136.1312526159008,35.870081434870805],[136.13139930232816,35.87025611608893],[136.13178229549186,35.87007063421864],[136.13160198060604,35.86989152096164],[136.1312526159008,35.870081434870805]]]}},{"type":"Feature","properties":{"pid":"50ffd931-d99a-49f4-a3e3-5643dd2339be"},"geometry":{"type":"Polygon","coordinates":[[[136.13006518383156,35.86824101703876],[136.1300670501534,35.868323672929336],[136.13050772873663,35.8682135504916],[136.13050759813095,35.86813389217489],[136.13036351016862,35.86814596869897],[136.13015192187234,35.868197938770216],[136.13006518383156,35.86824101703876]]]}},{"type":"Feature","properties":{"pid":"c9076a8b-d4c9-43da-b459-5e4cef2e9c89"},"geometry":{"type":"Polygon","coordinates":[[[136.13070538063965,35.86882897917196],[136.13085085251876,35.86882290813075],[136.13084231166175,35.868759198776516],[136.1307329817932,35.868760613232546],[136.13070538063965,35.86882897917196]]]}},{"type":"Feature","properties":{"pid":"a496b1a2-5650-43fa-ac80-e1f7e23d37d3"},"geometry":{"type":"Polygon","coordinates":[[[136.13081442743865,35.86923531026049],[136.13099580114746,35.86918435960682],[136.13088352198437,35.86896118507063],[136.13077679645937,35.86895957752505],[136.13068616471173,35.86898215434984],[136.13081442743865,35.86923531026049]]]}},{"type":"Feature","properties":{"pid":"f334972e-0ec2-450e-a7b3-a72093a341c0"},"geometry":{"type":"Polygon","coordinates":[[[136.1299782517278,35.86908110538808],[136.1299783586883,35.86914621692438],[136.1300323755047,35.86922427977423],[136.13050538744827,35.869060633834856],[136.13049163034543,35.86903360440642],[136.1303990849311,35.869012802172136],[136.13030561727766,35.86896871105396],[136.1299782517278,35.86908110538808]]]}},{"type":"Feature","properties":{"pid":"f9053fa4-929c-4153-b8ae-16943fef1d72"},"geometry":{"type":"Polygon","coordinates":[[[136.13018871646742,35.86859468347263],[136.13041981350926,35.86877652552798],[136.13046342652058,35.86879582147773],[136.1305338351683,35.86870006443804],[136.13051967679263,35.86852479759459],[136.13018871646742,35.86859468347263]]]}},{"type":"Feature","properties":{"pid":"8953f449-9f21-408e-b93a-ade5b25859c6"},"geometry":{"type":"Polygon","coordinates":[[[136.13007766475127,35.868440954122356],[136.13010880800962,35.86848398239853],[136.1305043855101,35.868407362120266],[136.13050059716193,35.86832632528402],[136.13007766475127,35.868440954122356]]]}},{"type":"Feature","properties":{"pid":"642a1325-dafb-4be1-913e-a176d3f2703c"},"geometry":{"type":"Polygon","coordinates":[[[136.129979415262,35.86896011517066],[136.1302112686809,35.86888229036494],[136.12998119891503,35.86870749910373],[136.12995058399122,35.86874659163651],[136.12997761605905,35.86885157644211],[136.129979415262,35.86896011517066]]]}},{"type":"Feature","properties":{"pid":"b4cdfd8e-c4e3-4592-a28e-53551957c9cc"},"geometry":{"type":"Polygon","coordinates":[[[136.14760105206054,35.86389815934784],[136.14765062149098,35.86439231967356],[136.14785711901933,35.864380885542765],[136.1478128508416,35.863856704880035],[136.14760105206054,35.86389815934784]]]}},{"type":"Feature","properties":{"pid":"34360e92-0d5b-49c5-8a4f-44c31b4aa5be"},"geometry":{"type":"Polygon","coordinates":[[[136.14734471579845,35.86461169758122],[136.1474330093165,35.86466691823703],[136.14746825473898,35.86471027412803],[136.14787825123756,35.86472308739595],[136.1478717269605,35.86458423546092],[136.14734471579845,35.86461169758122]]]}},{"type":"Feature","properties":{"pid":"19d0d9df-0d54-4538-baff-d2cd6bb23d14"},"geometry":{"type":"Polygon","coordinates":[[[136.1480125378459,35.86457694690221],[136.14801861179208,35.864722700010816],[136.1482295965611,35.864768488850174],[136.14821215557757,35.86456805048865],[136.1480125378459,35.86457694690221]]]}},{"type":"Feature","properties":{"pid":"6a8713d9-eea1-4cc9-ac1a-f8bf71e26681"},"geometry":{"type":"Polygon","coordinates":[[[136.14833444693113,35.86456152983428],[136.14835379362663,35.864786738700595],[136.14857158801465,35.864899790582946],[136.14853934440328,35.86455359935894],[136.14833444693113,35.86456152983428]]]}},{"type":"Feature","properties":{"pid":"08032d85-68ab-4f16-90fd-1f25858c05bf"},"geometry":{"type":"Polygon","coordinates":[[[136.14793264871042,35.863800992228846],[136.1479787829806,35.86437414832386],[136.14820336187654,35.864362371942796],[136.14816923637312,35.86381358348925],[136.14795152239205,35.863778787424344],[136.14793264871042,35.863800992228846]]]}},{"type":"Feature","properties":{"pid":"6e15b07c-39b9-4fd4-b4e1-b2f03d46324a"},"geometry":{"type":"Polygon","coordinates":[[[136.14866298780544,35.86454881298471],[136.1486997302571,35.86495874628803],[136.14889528712422,35.8650004185344],[136.1490018104069,35.86500108931223],[136.14896203561813,35.86453723711288],[136.14866298780544,35.86454881298471]]]}},{"type":"Feature","properties":{"pid":"0cd31e3a-6a52-4b42-8a6d-0336dfa16b95"},"geometry":{"type":"Polygon","coordinates":[[[136.14875820653046,35.86881158805911],[136.14899743461703,35.868820278798786],[136.14901846616542,35.86834909607626],[136.14876789714364,35.8684715216675],[136.14875820653046,35.86881158805911]]]}},{"type":"Feature","properties":{"pid":"a4ce2807-6506-4948-a1fe-19979841c650"},"geometry":{"type":"Polygon","coordinates":[[[136.1491198671464,35.86941894032635],[136.1493937288177,35.86948180300176],[136.1494030156336,35.86898194831486],[136.14914000808315,35.868976476656876],[136.1491198671464,35.86941894032635]]]}},{"type":"Feature","properties":{"pid":"9406af03-7067-4767-886c-ec161024103e"},"geometry":{"type":"Polygon","coordinates":[[[136.14817231177517,35.86912895326763],[136.148603272954,35.869138103279],[136.1486124483466,35.86896529893316],[136.14821594745027,35.868968734239616],[136.14819905364075,35.86899153151726],[136.14817231177517,35.86912895326763]]]}},{"type":"Feature","properties":{"pid":"fdcd4482-f432-4c96-8ec4-b9d4abb1262b"},"geometry":{"type":"Polygon","coordinates":[[[136.1481763599333,35.868780939511474],[136.1481852855325,35.86880838081668],[136.14861904480497,35.86880681545692],[136.14863310544,35.86850251586158],[136.14852622401983,35.868527359152715],[136.1481763599333,35.868780939511474]]]}},{"type":"Feature","properties":{"pid":"eb01fe53-1597-425a-927a-3fb9c72bb970"},"geometry":{"type":"Polygon","coordinates":[[[136.1458539300653,35.87039723555721],[136.14587198209603,35.870452942214115],[136.14590331800582,35.87048442178504],[136.14590980114704,35.87015514035489],[136.14588791008796,35.87018966835957],[136.1458539300653,35.87039723555721]]]}},{"type":"Feature","properties":{"pid":"e6f76e6f-632e-41f8-91ba-8d2e16418b29"},"geometry":{"type":"Polygon","coordinates":[[[136.14604480095198,35.870505594484484],[136.14615338372204,35.8705229903212],[136.1461752797162,35.87001153684934],[136.14605770670042,35.870054080934416],[136.14604480095198,35.870505594484484]]]}},{"type":"Feature","properties":{"pid":"e6eb5dc2-3a19-4a7d-aa0f-c8adc85a895e"},"geometry":{"type":"Polygon","coordinates":[[[136.1462934209041,35.87052892674403],[136.14638264734208,35.8705209650318],[136.14639975222124,35.86995045141551],[136.1463139555911,35.86996523750095],[136.1462934209041,35.87052892674403]]]}},{"type":"Feature","properties":{"pid":"d844a681-5d72-4795-8c29-c6e7410af1bc"},"geometry":{"type":"Polygon","coordinates":[[[136.14652245410122,35.870407112556336],[136.1466041040522,35.87027004640006],[136.14662361607117,35.86991838911004],[136.14653333651958,35.869932405362036],[136.14652245410122,35.870407112556336]]]}},{"type":"Feature","properties":{"pid":"c28ab191-cc15-4fc8-bb28-30eaf053a4be"},"geometry":{"type":"Polygon","coordinates":[[[136.14737648794812,35.87019716554006],[136.14756947651438,35.870219216841036],[136.14796043063146,35.870341650911904],[136.14802915065675,35.87041207154703],[136.14810662469003,35.8704320302703],[136.14819671498645,35.87041896092467],[136.14750479563676,35.87015901051092],[136.14737648794812,35.87019716554006]]]}},{"type":"Feature","properties":{"pid":"7af4efa6-a1b2-4881-81ac-4e86a78bfcf0"},"geometry":{"type":"Polygon","coordinates":[[[136.14768473334166,35.87010279711212],[136.14826460297348,35.87032259916659],[136.14834271869353,35.87022076386847],[136.14787563794798,35.87005020685479],[136.14768473334166,35.87010279711212]]]}},{"type":"Feature","properties":{"pid":"3f91b605-18a9-436e-a218-fc4dd1411e0d"},"geometry":{"type":"Polygon","coordinates":[[[136.14674389352317,35.870178790527376],[136.14685277179294,35.870153282625225],[136.1468541915464,35.86987689984692],[136.1467600041661,35.86989382931799],[136.14674389352317,35.870178790527376]]]}},{"type":"Feature","properties":{"pid":"b0371b9e-eb29-4a17-8bb5-985634a706cc"},"geometry":{"type":"Polygon","coordinates":[[[136.1469751769018,35.870138230669035],[136.14705262632427,35.87011510886143],[136.1470642615284,35.86981635726151],[136.14697740330223,35.869839833195925],[136.1469751769018,35.870138230669035]]]}},{"type":"Feature","properties":{"pid":"b68bf738-1510-4c1b-b0bb-bec155d62700"},"geometry":{"type":"Polygon","coordinates":[[[136.1472586542404,35.87006642190095],[136.14734990063855,35.87004235544458],[136.14736752601135,35.869702729497035],[136.14726117192697,35.86975920850749],[136.1472586542404,35.87006642190095]]]}},{"type":"Feature","properties":{"pid":"053c2cb1-3809-4d9a-8d41-5da214f3d100"},"geometry":{"type":"Polygon","coordinates":[[[136.14772833332768,35.86994253880967],[136.14783121918168,35.86991540100811],[136.14784838526563,35.8694473691621],[136.14775212631184,35.86949848757922],[136.14772833332768,35.86994253880967]]]}},{"type":"Feature","properties":{"pid":"0d152b01-26ae-49e9-84b8-d51d11c24750"},"geometry":{"type":"Polygon","coordinates":[[[136.14747567947867,35.87000917874311],[136.14760256097557,35.86997571237444],[136.1476212111504,35.86956801061546],[136.14749071453954,35.869637311625276],[136.14747567947867,35.87000917874311]]]}},{"type":"Feature","properties":{"pid":"6f47d4db-2979-4339-a301-d26803b7746c"},"geometry":{"type":"Polygon","coordinates":[[[136.14806044909315,35.86999741304566],[136.1483976245017,35.870116546064224],[136.1484768725754,35.86988838678165],[136.14809417335698,35.86998777929789],[136.14806044909315,35.86999741304566]]]}},{"type":"Feature","properties":{"pid":"5e84480d-4abd-4f58-bb35-bb44a3e53a2c"},"geometry":{"type":"Polygon","coordinates":[[[136.14796759919406,35.86987815263126],[136.14814030580715,35.86983026348135],[136.14816479219576,35.86924021090073],[136.1481141366628,35.86926068396189],[136.1479783602451,35.869385393050756],[136.14796759919406,35.86987815263126]]]}},{"type":"Feature","properties":{"pid":"fb1e8e40-6845-4999-b5fb-1e9fd7882916"},"geometry":{"type":"Polygon","coordinates":[[[136.14827440348964,35.86980628987908],[136.14857216871297,35.869723853805716],[136.14859802396987,35.869236936424414],[136.14829837857485,35.869232069596464],[136.14827440348964,35.86980628987908]]]}},{"type":"Feature","properties":{"pid":"d4212185-cea3-4605-854b-84157cf38df3"},"geometry":{"type":"Polygon","coordinates":[[[136.14870106424667,35.86961659350933],[136.1488267257858,35.86951076672215],[136.1489578000011,35.869426212762285],[136.14898201713265,35.8689688603207],[136.14873870028455,35.86896651655644],[136.14870106424667,35.86961659350933]]]}},{"type":"Feature","properties":{"pid":"c2de88b8-eccf-473d-81d8-5be9d5a69160"},"geometry":{"type":"Polygon","coordinates":[[[136.1404843484941,35.87260016026599],[136.1407910111875,35.872688896756685],[136.14089273728788,35.87265614277386],[136.14084793931406,35.87256349566965],[136.14057169063702,35.87251851553367],[136.1404843484941,35.87260016026599]]]}},{"type":"Feature","properties":{"pid":"bda0f13b-57cd-44cd-8a22-c0c057185ff7"},"geometry":{"type":"Polygon","coordinates":[[[136.14001560582835,35.872894591635614],[136.1404460139528,35.873021060197104],[136.14054529239112,35.87288929954447],[136.14071808434352,35.87277101355479],[136.14037701248574,35.87267434159254],[136.14001560582835,35.872894591635614]]]}},{"type":"Feature","properties":{"pid":"8dea756d-8fd0-4052-aad5-f8a42e92fd78"},"geometry":{"type":"Polygon","coordinates":[[[136.13975915422077,35.87323982672302],[136.14021525104224,35.87339508066495],[136.14029668160904,35.873278901149405],[136.14036486574255,35.87312202609486],[136.13993433629548,35.87300078894737],[136.13987516872118,35.87314281877609],[136.13975915422077,35.87323982672302]]]}},{"type":"Feature","properties":{"pid":"24a10ae3-57e2-4621-bb49-9870283af408"},"geometry":{"type":"Polygon","coordinates":[[[136.13947901198094,35.873402213027035],[136.1397531766371,35.87335419180289],[136.13963569051097,35.873311783847186],[136.13947901198094,35.873402213027035]]]}},{"type":"Feature","properties":{"pid":"862f1085-a59e-4e6c-8682-54d9fdffee75"},"geometry":{"type":"Polygon","coordinates":[[[136.13932550128385,35.87361157212442],[136.13933285615343,35.87363828807839],[136.14012731590688,35.873507247032045],[136.14013372727194,35.87349155459177],[136.14010677059096,35.87348182413937],[136.13932550128385,35.87361157212442]]]}},{"type":"Feature","properties":{"pid":"58d7152a-da96-48c3-aed4-93969b880152"},"geometry":{"type":"Polygon","coordinates":[[[136.13939989389837,35.8738838318341],[136.13940792347333,35.87391355410744],[136.1401040721713,35.87378941645216],[136.140109876808,35.873766758788975],[136.13939989389837,35.8738838318341]]]}},{"type":"Feature","properties":{"pid":"8d4939c6-dcb7-41ae-9f96-22f7b67f9d1e"},"geometry":{"type":"Polygon","coordinates":[[[136.13935854416917,35.873731598117956],[136.1393744291125,35.873789575661185],[136.14011072104609,35.873664673125774],[136.14010336762965,35.87361085026433],[136.13935854416917,35.873731598117956]]]}},{"type":"Feature","properties":{"pid":"f14abc4a-83dd-43d9-88d5-384db79135a2"},"geometry":{"type":"Polygon","coordinates":[[[136.14355817304568,35.873577753045204],[136.14398412644212,35.873557243570254],[136.1440338718462,35.87345429843293],[136.14403381331158,35.87342180722977],[136.14349035769692,35.87341204165701],[136.14355817304568,35.873577753045204]]]}},{"type":"Feature","properties":{"pid":"c3ce9dca-98d4-405d-a8e4-2c9b30ce97eb"},"geometry":{"type":"Polygon","coordinates":[[[136.14984719057833,35.869610140315],[136.1498731489773,35.86899172853526],[136.14952720123844,35.86898453201924],[136.14951639891072,35.86951263043868],[136.14984719057833,35.869610140315]]]}},{"type":"Feature","properties":{"pid":"d46423ed-3a20-4c2e-b9e5-b77d15df3e62"},"geometry":{"type":"Polygon","coordinates":[[[136.14914054744946,35.86882695209997],[136.14983594807885,35.86884889103718],[136.1498495349434,35.868581099988056],[136.1491505708336,35.86855921418071],[136.14914054744946,35.86882695209997]]]}},{"type":"Feature","properties":{"pid":"d63aceaf-0025-4ba4-b988-b60692fe962d"},"geometry":{"type":"Polygon","coordinates":[[[136.14951564149945,35.86792925956539],[136.14930745422805,35.86821971743703],[136.1492238456739,35.868298539440644],[136.14915932640142,35.86832533428602],[136.14915430816782,35.86845938624076],[136.14985461487578,35.86848098949394],[136.14987207185706,35.86802936008508],[136.14980878021558,35.868023717492825],[136.14969417546604,35.8679280893626],[136.14956971249413,35.86787918582725],[136.14951564149945,35.86792925956539]]]}},{"type":"Feature","properties":{"pid":"15b313ee-7b51-447e-b1a2-2cff6b5da2cb"},"geometry":{"type":"Polygon","coordinates":[[[136.14967451175306,35.86505346067256],[136.14976725102107,35.86500114310425],[136.14977718815328,35.864979116923095],[136.1496804567478,35.86488590484184],[136.14949672494654,35.86500779894855],[136.14967451175306,35.86505346067256]]]}},{"type":"Feature","properties":{"pid":"c3d29046-c107-43c3-9117-c98786b91287"},"geometry":{"type":"Polygon","coordinates":[[[136.14963450012485,35.86441642794869],[136.14982170573091,35.86461665939392],[136.15018190837185,35.86437567497077],[136.15018915621292,35.86434470278883],[136.15000698274824,35.864170710011855],[136.14963450012485,35.86441642794869]]]}},{"type":"Feature","properties":{"pid":"32624832-ccc8-4d4a-9c7e-08bf70e568ad"},"geometry":{"type":"Polygon","coordinates":[[[136.14936836517973,35.863240593401216],[136.14944694011814,35.863276679140434],[136.14955794759263,35.86311433269513],[136.14947290403026,35.86307964983272],[136.14936836517973,35.863240593401216]]]}},{"type":"Feature","properties":{"pid":"c62b2ef2-ffba-43ce-aa37-35da7f5c86fc"},"geometry":{"type":"Polygon","coordinates":[[[136.14955936492603,35.863464522280076],[136.1500096726309,35.86358486197906],[136.15020842058996,35.86332989266393],[136.1497828912654,35.86313370054811],[136.14955936492603,35.863464522280076]]]}},{"type":"Feature","properties":{"pid":"9f6127bc-8c08-418e-8c90-c58facc50e78"},"geometry":{"type":"Polygon","coordinates":[[[136.14949646323433,35.86159946612466],[136.14959629544526,35.86197842521252],[136.14971898888618,35.86196274746724],[136.1499333971369,35.861599664959414],[136.15005279599006,35.8615057181443],[136.14949646323433,35.86159946612466]]]}},{"type":"Feature","properties":{"pid":"e0802a97-e3fd-48e4-ba44-fe32ec41a458"},"geometry":{"type":"Polygon","coordinates":[[[136.14942919714625,35.86133922491153],[136.1494699286241,35.86149484116357],[136.15014767020318,35.86138237271327],[136.15012107434455,35.861223642881995],[136.14942919714625,35.86133922491153]]]}},{"type":"Feature","properties":{"pid":"4d367cd0-67da-471d-8e11-2736dbc4d4ea"},"geometry":{"type":"Polygon","coordinates":[[[136.1493656060782,35.861071499347254],[136.14940329374394,35.86123740526197],[136.15009748685705,35.86111804099073],[136.15006188379604,35.86095863981603],[136.1493656060782,35.861071499347254]]]}},{"type":"Feature","properties":{"pid":"bb087980-54ea-44a2-a306-c2595bce795d"},"geometry":{"type":"Polygon","coordinates":[[[136.1492394582498,35.86052952169067],[136.14927995066972,35.86069964156859],[136.14997942981398,35.86058826630432],[136.1499420148589,35.86042283072731],[136.1492394582498,35.86052952169067]]]}},{"type":"Feature","properties":{"pid":"0f7785a2-afce-4e61-9e8b-cb555f471bdf"},"geometry":{"type":"Polygon","coordinates":[[[136.14930373024566,35.86079955231997],[136.14934242239917,35.860969439149336],[136.15004010458514,35.860861131058556],[136.1500017706429,35.86068873983129],[136.14930373024566,35.86079955231997]]]}},{"type":"Feature","properties":{"pid":"04995959-5f60-4c66-84d1-59df4b74fe1b"},"geometry":{"type":"Polygon","coordinates":[[[136.14918708032803,35.860267448776646],[136.14921862248679,35.8604280293637],[136.14991724548062,35.86032120844856],[136.1498777415135,35.86015913895058],[136.14918708032803,35.860267448776646]]]}},{"type":"Feature","properties":{"pid":"3322d427-76f4-41c5-989b-e200ae262fa8"},"geometry":{"type":"Polygon","coordinates":[[[136.14920961753586,35.860100656222684],[136.14982026717428,35.860007643524966],[136.1496226227333,35.859217063669014],[136.14928199802654,35.85929602633254],[136.14898905180675,35.859290503767355],[136.14920961753586,35.860100656222684]]]}},{"type":"Feature","properties":{"pid":"46219ae0-29d2-45f0-9ecb-080f55dfbd29"},"geometry":{"type":"Polygon","coordinates":[[[136.14754319847896,35.85848124862439],[136.14791668349872,35.858644029582834],[136.14800649767514,35.858477479972805],[136.14797224500546,35.85846278394168],[136.14787074292275,35.858499302386086],[136.14778389617325,35.85849680889835],[136.14758578574944,35.85841952278122],[136.14754319847896,35.85848124862439]]]}},{"type":"Feature","properties":{"pid":"ee209437-db4e-4eb3-b78c-afd5a80e54a2"},"geometry":{"type":"Polygon","coordinates":[[[136.14774950921225,35.8604873801568],[136.14802763225248,35.86040505726018],[136.14808847140583,35.86030516236552],[136.1477215835161,35.86041530952974],[136.14774950921225,35.8604873801568]]]}},{"type":"Feature","properties":{"pid":"eacc05da-23b4-409e-8616-e67241dd18cd"},"geometry":{"type":"Polygon","coordinates":[[[136.1475511054824,35.86035408003819],[136.14817479037504,35.86017556887568],[136.14824779365412,35.86007824182129],[136.147552713832,35.86028708056725],[136.1475511054824,35.86035408003819]]]}},{"type":"Feature","properties":{"pid":"6ecbde0c-4951-45b1-8da7-1542a6bfcffb"},"geometry":{"type":"Polygon","coordinates":[[[136.14760057356804,35.86015286529756],[136.1482619692092,35.85996212871499],[136.14823176789997,35.85989907789068],[136.14820438698132,35.85987749028015],[136.14762456974907,35.86006999831063],[136.14760057356804,35.86015286529756]]]}},{"type":"Feature","properties":{"pid":"48020cd2-81a5-4ebf-8c38-f11b5cebca5f"},"geometry":{"type":"Polygon","coordinates":[[[136.14758545301623,35.859898830856665],[136.14759590937516,35.85997060189306],[136.1480540552833,35.85981800218057],[136.1479787552272,35.859765282237916],[136.14758545301623,35.859898830856665]]]}},{"type":"Feature","properties":{"pid":"38a221b1-2fee-48eb-bfeb-a45e4f621431"},"geometry":{"type":"Polygon","coordinates":[[[136.14757121106513,35.8597089968375],[136.14758097481595,35.859772536162154],[136.1478863786602,35.85967253741098],[136.14783237589236,35.859608931122814],[136.14757121106513,35.8597089968375]]]}},{"type":"Feature","properties":{"pid":"a828056a-bf5a-4c66-99a9-9c7691f77ac4"},"geometry":{"type":"Polygon","coordinates":[[[136.14732777152818,35.85960058074524],[136.1473424672698,35.85962014399943],[136.14748443971263,35.85962374631916],[136.14763319512318,35.8595815773112],[136.1477736628145,35.85951869192008],[136.14773056155354,35.8594461501323],[136.14732777152818,35.85960058074524]]]}},{"type":"Feature","properties":{"pid":"6ef2c43d-fea9-4827-85ce-b0150bb5c6b6"},"geometry":{"type":"Polygon","coordinates":[[[136.14706931873712,35.85949314908414],[136.14708164187536,35.85952061051197],[136.1471043783001,35.85952842958539],[136.14714663702932,35.859511032633],[136.14721410226474,35.859522616521396],[136.1476758464468,35.85935219749425],[136.1476363538866,35.859283267872925],[136.14706931873712,35.85949314908414]]]}},{"type":"Feature","properties":{"pid":"e5d846cc-1bf8-492d-b3b5-ff60ee145ebb"},"geometry":{"type":"Polygon","coordinates":[[[136.1469962379389,35.85931664936857],[136.14702053519673,35.85936768922116],[136.14705782229174,35.85938475530153],[136.14758408324724,35.85919352052521],[136.14752956036514,35.859098756153664],[136.1469962379389,35.85931664936857]]]}},{"type":"Feature","properties":{"pid":"1e1b2607-f7bc-4d5b-a05e-3f6928c5938a"},"geometry":{"type":"Polygon","coordinates":[[[136.1469265589963,35.859134465106344],[136.14695825055583,35.85921996042033],[136.14747670128105,35.85900550975567],[136.1474198969281,35.858926689423384],[136.1469265589963,35.859134465106344]]]}},{"type":"Feature","properties":{"pid":"8c40e3b3-c262-480c-938d-e810457b9617"},"geometry":{"type":"Polygon","coordinates":[[[136.14685772504225,35.85896347820861],[136.1468870507669,35.85904120813746],[136.147327168302,35.85885080246155],[136.14720075100365,35.85879027687879],[136.14685772504225,35.85896347820861]]]}},{"type":"Feature","properties":{"pid":"187fda7f-3cea-4bf6-b45b-ac45de57e6a9"},"geometry":{"type":"Polygon","coordinates":[[[136.14890534781506,35.86014590391067],[136.1486961556176,35.859215665643625],[136.1478129304871,35.85880512142222],[136.14772142836458,35.85889967305941],[136.1480736429896,35.85947314975884],[136.14815205540356,35.8595418302868],[136.14842766177793,35.859642360533165],[136.14856111029948,35.8597396769318],[136.14864479020622,35.85990570991773],[136.14870286200568,35.86017836296134],[136.14890534781506,35.86014590391067]]]}},{"type":"Feature","properties":{"pid":"f9d515ff-e4c9-42bc-8dbd-700e3db43da7"},"geometry":{"type":"Polygon","coordinates":[[[136.14840374491757,35.8604060303367],[136.14843236115178,35.86055324374209],[136.1490373337157,35.860462791974264],[136.14900561671465,35.86030861552896],[136.14878464474896,35.8603320216164],[136.14840374491757,35.8604060303367]]]}},{"type":"Feature","properties":{"pid":"b4024151-7d81-4e7d-b323-30add143fd87"},"geometry":{"type":"Polygon","coordinates":[[[136.1484503575012,35.86065159536599],[136.14847937587254,35.86081890538141],[136.1490952705158,35.860724157379714],[136.14905821765657,35.86055891147845],[136.1484503575012,35.86065159536599]]]}},{"type":"Feature","properties":{"pid":"3cba6f5d-f019-463e-b8f9-2299feac00bf"},"geometry":{"type":"Polygon","coordinates":[[[136.14855710375974,35.86119738728676],[136.14859372984537,35.86124569716598],[136.1486263326589,35.861351434266865],[136.14921399408388,35.86125829231132],[136.14917773428826,35.86109718820678],[136.14855710375974,35.86119738728676]]]}},{"type":"Feature","properties":{"pid":"41ad990b-7c19-497f-acd5-2f019b2ee115"},"geometry":{"type":"Polygon","coordinates":[[[136.14849762935188,35.86092122164683],[136.14853004737773,35.8610844261464],[136.1491529154673,35.86098735508794],[136.14911760021585,35.86082610969443],[136.14849762935188,35.86092122164683]]]}},{"type":"Feature","properties":{"pid":"71d4edaa-6cac-4f0e-ae6a-a52e7e8ca477"},"geometry":{"type":"Polygon","coordinates":[[[136.14826854776624,35.86053761318092],[136.14815378654427,35.86080007160295],[136.1481385110811,35.86085103407234],[136.1481500955802,35.86091969543574],[136.14821113864804,35.86098073410356],[136.1483628978834,35.86104314147976],[136.14826854776624,35.86053761318092]]]}},{"type":"Feature","properties":{"pid":"aafcaa4f-1e8c-4c51-a6c9-d32afd045a18"},"geometry":{"type":"Polygon","coordinates":[[[136.14820327978308,35.86211474756178],[136.14827791324672,35.862146646962884],[136.14830394683395,35.862179998792634],[136.14837421478904,35.862173336445935],[136.14842283339925,35.86216163158044],[136.14851197942266,35.8620623997378],[136.14820327978308,35.86211474756178]]]}},{"type":"Feature","properties":{"pid":"37d7da2c-a848-4d82-9779-0154fe5f2a36"},"geometry":{"type":"Polygon","coordinates":[[[136.14804329690824,35.86183757251606],[136.14810488618863,35.86197502215611],[136.14812042958357,35.861981989990916],[136.14856659023394,35.86191845793864],[136.14849182927568,35.86168526018619],[136.14804329690824,35.86183757251606]]]}},{"type":"Feature","properties":{"pid":"3755acd3-ff93-47a1-9787-2f3c397ae469"},"geometry":{"type":"Polygon","coordinates":[[[136.14797555107947,35.86166797498271],[136.14800475399235,35.86173797029897],[136.14845892448872,35.86158262330666],[136.14843080504113,35.861494402917664],[136.14797555107947,35.86166797498271]]]}},{"type":"Feature","properties":{"pid":"74685f67-97be-4f18-bd38-cdf55a22a725"},"geometry":{"type":"Polygon","coordinates":[[[136.14866236451343,35.861454345683704],[136.1487292028437,35.86161378709495],[136.14928145502785,35.861530888338734],[136.14923885524053,35.86136491815504],[136.14866236451343,35.861454345683704]]]}},{"type":"Feature","properties":{"pid":"d27101dc-502c-4fd1-8bd0-477b936b4439"},"geometry":{"type":"Polygon","coordinates":[[[136.14889680343933,35.86199669767172],[136.14895786530545,35.862123496885694],[136.14940207082861,35.86205395116995],[136.1493701520806,35.86193011496302],[136.14889680343933,35.86199669767172]]]}},{"type":"Feature","properties":{"pid":"66348fd8-4a67-47e2-9b7a-b9b0adfa11a8"},"geometry":{"type":"Polygon","coordinates":[[[136.1490065267394,35.86221975782965],[136.1491025568015,35.8623663935772],[136.1493758360413,35.86233051372425],[136.1494381369003,35.86224021617093],[136.14942336737352,35.86215426227125],[136.1490065267394,35.86221975782965]]]}},{"type":"Feature","properties":{"pid":"18351da6-f497-49eb-abaf-0065bf4c51b6"},"geometry":{"type":"Polygon","coordinates":[[[136.14917422928366,35.86247279499607],[136.1492180670115,35.86256057238024],[136.14927641498332,35.86265320240844],[136.14926387565092,35.862514272706264],[136.14928721714034,35.86245480391784],[136.14917422928366,35.86247279499607]]]}},{"type":"Feature","properties":{"pid":"a3e66ba9-dae2-456d-9ea9-9193baa8eeef"},"geometry":{"type":"Polygon","coordinates":[[[136.14868367245543,35.862557347233476],[136.14885939826453,35.862618475544906],[136.14893385696143,35.86256699983111],[136.14886139804835,35.86246042118117],[136.14868367245543,35.862557347233476]]]}},{"type":"Feature","properties":{"pid":"980d1d3e-8523-42ab-afdd-0e456338d1e1"},"geometry":{"type":"Polygon","coordinates":[[[136.14844546281637,35.86226252149449],[136.1484563879345,35.8623354057512],[136.14857016473778,35.86248726472055],[136.14879778304334,35.86236689987484],[136.14864818659214,35.86210218070533],[136.14859685604605,35.86213275533171],[136.1484924761965,35.862247699957294],[136.14844546281637,35.86226252149449]]]}},{"type":"Feature","properties":{"pid":"41dafeb8-350c-4ca5-b99b-72d120478861"},"geometry":{"type":"Polygon","coordinates":[[[136.1489888077972,35.862654234035695],[136.14889792422042,35.86271845349673],[136.14866879418247,35.862893123260704],[136.1488090718106,35.86297981689535],[136.14910774601577,35.86278402363056],[136.1489888077972,35.862654234035695]]]}},{"type":"Feature","properties":{"pid":"15faa2e6-6f29-4b49-923a-e9ec94eee807"},"geometry":{"type":"Polygon","coordinates":[[[136.1491680241456,35.86312846422564],[136.1492645713486,35.86319292506037],[136.1493689739406,35.86303726410857],[136.14925866903147,35.86299227901263],[136.1491680241456,35.86312846422564]]]}},{"type":"Feature","properties":{"pid":"758b14f1-293d-43e3-b65e-2f5231de4d53"},"geometry":{"type":"Polygon","coordinates":[[[136.1478927369686,35.86356063643925],[136.14794370165015,35.8635782881998],[136.14799012156763,35.863553708162925],[136.1480084348972,35.86353422123007],[136.14802156030785,35.86344770619062],[136.14795583882764,35.863419458219916],[136.1478927369686,35.86356063643925]]]}}]}