{"type":"FeatureCollection","features":[{"type":"Feature","properties":{"pid":"f76bf907-7b64-4102-849e-befa5c4ddedf"},"geometry":{"type":"Polygon","coordinates":[[[135.5908916804188,35.4957132247877],[135.59094662217896,35.4956931956566],[135.59097845592055,35.495647178765985],[135.59101666938074,35.49563186354409],[135.59098222073814,35.49555674067911],[135.59087900533365,35.4955910989828],[135.5908916804188,35.4957132247877]]]}},{"type":"Feature","properties":{"pid":"64dff975-bbee-4bdf-8b48-bb85fb79f2d5"},"geometry":{"type":"Polygon","coordinates":[[[135.59030402300974,35.495675264466406],[135.59037219677296,35.49572708741697],[135.59045195092563,35.4957477680945],[135.5907463096242,35.49575063166623],[135.59072744759584,35.49562473923123],[135.59030402300974,35.495675264466406]]]}},{"type":"Feature","properties":{"pid":"69ce997e-4bde-45a5-ad45-75c4020d8a64"},"geometry":{"type":"Polygon","coordinates":[[[135.58048248259504,35.49267649734505],[135.58049229577537,35.49272259097814],[135.5809241797071,35.4926545786313],[135.58093483799223,35.49264238748822],[135.58092519332484,35.49260733889395],[135.58048248259504,35.49267649734505]]]}},{"type":"Feature","properties":{"pid":"9a78e581-9338-4f7a-85c9-02b4457a24d2"},"geometry":{"type":"Polygon","coordinates":[[[135.58035721092304,35.49211774343774],[135.58037571926306,35.49218844532756],[135.58085639995727,35.49202861032466],[135.58081184431651,35.4919534877652],[135.58035721092304,35.49211774343774]]]}},{"type":"Feature","properties":{"pid":"494bb746-fe37-48a3-a08b-1a88c7410215"},"geometry":{"type":"Polygon","coordinates":[[[135.58040195359536,35.492284284000135],[135.58042211892314,35.492353834118724],[135.58095416560874,35.492193630417816],[135.5809078143695,35.49211535073664],[135.58040195359536,35.492284284000135]]]}},{"type":"Feature","properties":{"pid":"05e056da-e953-4749-88cd-62fffe3baaf4"},"geometry":{"type":"Polygon","coordinates":[[[135.58050636086244,35.49282596461633],[135.58125021980715,35.49271829757555],[135.58125843921587,35.49270455179267],[135.58050636086244,35.49282596461633]]]}},{"type":"Feature","properties":{"pid":"fd67a6b7-6512-4677-be17-2cebd2686d61"},"geometry":{"type":"Polygon","coordinates":[[[135.58072106067814,35.49415463484077],[135.58072843580368,35.49417512626636],[135.58111281759585,35.49414776015231],[135.58108140981093,35.49411361168961],[135.58072106067814,35.49415463484077]]]}},{"type":"Feature","properties":{"pid":"65f6f5b7-5c96-4d66-b60e-6c92ecc8cbd8"},"geometry":{"type":"Polygon","coordinates":[[[135.58134070220143,35.49410667002427],[135.58145338862218,35.494216825389216],[135.58150070198218,35.49426489484172],[135.58149969585216,35.49410566548399],[135.58134070220143,35.49410667002427]]]}},{"type":"Feature","properties":{"pid":"b860ed9b-336b-4343-aedb-3da03d03931f"},"geometry":{"type":"Polygon","coordinates":[[[135.58073223153153,35.49459886578665],[135.58131815136542,35.49461263717288],[135.5813283979729,35.494530066184176],[135.58082305947815,35.494528311517826],[135.5807533436327,35.494558419567134],[135.58073223153153,35.49459886578665]]]}},{"type":"Feature","properties":{"pid":"ccea0c15-9cd5-4efa-8570-394b4752b20e"},"geometry":{"type":"Polygon","coordinates":[[[135.58075906892674,35.49426847737568],[135.5807945833271,35.49443183987821],[135.58136764480548,35.49443541547693],[135.58138427475146,35.49442155565621],[135.5812240994964,35.49425912246467],[135.58117497264826,35.49423914851633],[135.58075906892674,35.49426847737568]]]}},{"type":"Feature","properties":{"pid":"c2379b00-ffca-4271-8af0-e7364d110776"},"geometry":{"type":"Polygon","coordinates":[[[135.58066336358516,35.49470965290851],[135.5806347645813,35.49476858936079],[135.5807077988555,35.494779905030974],[135.58088423337966,35.494779905034505],[135.5811000848109,35.49471490440774],[135.58066336358516,35.49470965290851]]]}},{"type":"Feature","properties":{"pid":"e1661cd5-1835-4de5-ab85-0d93a408e3c3"},"geometry":{"type":"Polygon","coordinates":[[[135.5816192027532,35.49431433818481],[135.58183450164847,35.49431499097544],[135.58187472932076,35.49411768829876],[135.58161779698844,35.49410768612839],[135.5816192027532,35.49431433818481]]]}},{"type":"Feature","properties":{"pid":"7d46d073-b1c2-490c-909b-a7144d0a50b0"},"geometry":{"type":"Polygon","coordinates":[[[135.5814505212577,35.493843264226875],[135.58160604875204,35.49388454451296],[135.5817576912822,35.49389123495359],[135.58162865231793,35.49369569270409],[135.5814444958687,35.493772998870746],[135.5814505212577,35.493843264226875]]]}},{"type":"Feature","properties":{"pid":"fdfd5a49-8d99-426a-8519-db337f3f3016"},"geometry":{"type":"Polygon","coordinates":[[[135.58395092571672,35.49527960943704],[135.58416764272633,35.49524504089954],[135.58433204826238,35.49514408692568],[135.58404881078556,35.49515596832949],[135.5839356085573,35.49520403280672],[135.58395092571672,35.49527960943704]]]}},{"type":"Feature","properties":{"pid":"b7c8ecea-38d8-42b3-85c4-c8fbd5ac0ca6"},"geometry":{"type":"Polygon","coordinates":[[[135.58027042884328,35.491855642044264],[135.58066477255966,35.49171834437995],[135.58054496093152,35.491529358447856],[135.58043943741322,35.491423511700795],[135.58012133056766,35.49156490730753],[135.58027042884328,35.491855642044264]]]}},{"type":"Feature","properties":{"pid":"59d9cb19-f39b-4a81-9514-3680ff8a3a5f"},"geometry":{"type":"Polygon","coordinates":[[[135.57949474060496,35.49114269995188],[135.57967818123166,35.49136084137827],[135.579663711237,35.491402675676056],[135.57956456836402,35.491458144035555],[135.5796482913734,35.4916005987311],[135.57980111315845,35.49154220208875],[135.57975607626958,35.49144343402824],[135.5798396824217,35.49134864148471],[135.57976263567343,35.491264662174636],[135.57966903971646,35.491194477271826],[135.57953474216902,35.491124698855536],[135.57949474060496,35.49114269995188]]]}},{"type":"Feature","properties":{"pid":"7dba4f04-8eee-4cb0-87f9-814ff8d4bb28"},"geometry":{"type":"Polygon","coordinates":[[[135.5799559114064,35.49158062879941],[135.58006540920525,35.49177349690399],[135.5800800964684,35.491869394029926],[135.58005763159605,35.49190673941587],[135.5799496461499,35.491940540362876],[135.57996362360782,35.49197450133379],[135.58011773900378,35.492189606154476],[135.58022937337643,35.492153439144566],[135.5801338189286,35.49187665594303],[135.57997442648312,35.49156836703092],[135.5799559114064,35.49158062879941]]]}},{"type":"Feature","properties":{"pid":"46fe607f-d24e-420b-b4d3-90f7ca07804b"},"geometry":{"type":"Polygon","coordinates":[[[135.57901783082502,35.490845145915934],[135.5791018643878,35.490857251557486],[135.5793733361136,35.49027850703021],[135.57907626624979,35.49025668657433],[135.57901783082502,35.490845145915934]]]}},{"type":"Feature","properties":{"pid":"1a1a97ff-1101-45a9-b9e6-7d580497d1b4"},"geometry":{"type":"Polygon","coordinates":[[[135.57872316388014,35.490733903419724],[135.57873511292073,35.49075354832404],[135.57890392620945,35.49080887641271],[135.57896056919256,35.490248188119736],[135.5787803356983,35.49023494868004],[135.57872316388014,35.490733903419724]]]}},{"type":"Feature","properties":{"pid":"ef66e453-d084-4c98-8016-a7a35739a3d6"},"geometry":{"type":"Polygon","coordinates":[[[135.5784544075484,35.490651785237155],[135.57861116042886,35.490710442638196],[135.5786642478063,35.49022642182684],[135.57850471757772,35.49021470303241],[135.5784544075484,35.490651785237155]]]}}]}