{"type":"FeatureCollection","features":[{"type":"Feature","properties":{"pid":"f76bf907-7b64-4102-849e-befa5c4ddedf","full":1.3},"geometry":{"type":"Polygon","coordinates":[[[135.59085,35.49576],[135.59089,35.49576],[135.59095,35.49574],[135.591,35.49572],[135.591,35.4957],[135.59102,35.49568],[135.59109,35.49567],[135.59109,35.49566],[135.59101,35.49549],[135.59091,35.49554],[135.59082,35.49556],[135.59083,35.49571],[135.59085,35.49576]]]}},{"type":"Feature","properties":{"pid":"64dff975-bbee-4bdf-8b48-bb85fb79f2d5","full":3.9},"geometry":{"type":"Polygon","coordinates":[[[135.59021,35.49564],[135.59023,35.49567],[135.5903,35.49574],[135.59035,35.49577],[135.59044,35.49579],[135.59068,35.4958],[135.59078,35.49579],[135.59081,35.49578],[135.59078,35.49563],[135.59078,35.49558],[135.59078,35.49557],[135.59066,35.49559],[135.59021,35.49564]]]}},{"type":"Feature","properties":{"pid":"69ce997e-4bde-45a5-ad45-75c4020d8a64","full":2.1},"geometry":{"type":"Polygon","coordinates":[[[135.58045,35.49278],[135.58098,35.49269],[135.58097,35.49267],[135.581,35.49267],[135.58097,35.49256],[135.58043,35.49264],[135.58043,35.49268],[135.58045,35.49278]]]}},{"type":"Feature","properties":{"pid":"9a78e581-9338-4f7a-85c9-02b4457a24d2","full":3.9},"geometry":{"type":"Polygon","coordinates":[[[135.58029,35.49209],[135.58034,35.49225],[135.58093,35.49205],[135.58084,35.49189],[135.58029,35.49209]]]}},{"type":"Feature","properties":{"pid":"494bb746-fe37-48a3-a08b-1a88c7410215","full":4.4},"geometry":{"type":"Polygon","coordinates":[[[135.58034,35.49226],[135.58038,35.49241],[135.58103,35.49222],[135.58093,35.49206],[135.58034,35.49226]]]}},{"type":"Feature","properties":{"pid":"05e056da-e953-4749-88cd-62fffe3baaf4","full":0.6},"geometry":{"type":"Polygon","coordinates":[[[135.58045,35.49289],[135.58132,35.49275],[135.5813,35.49273],[135.58134,35.49272],[135.58129,35.49265],[135.58045,35.49279],[135.58045,35.49289]]]}},{"type":"Feature","properties":{"pid":"fd67a6b7-6512-4677-be17-2cebd2686d61","full":1.2},"geometry":{"type":"Polygon","coordinates":[[[135.58065,35.49413],[135.58069,35.49422],[135.58119,35.49419],[135.58119,35.49417],[135.58119,35.49416],[135.58111,35.49407],[135.58083,35.49409],[135.58065,35.49413]]]}},{"type":"Feature","properties":{"pid":"65f6f5b7-5c96-4d66-b60e-6c92ecc8cbd8","full":1.3},"geometry":{"type":"Polygon","coordinates":[[[135.58128,35.49406],[135.58128,35.49408],[135.58125,35.49409],[135.58153,35.49436],[135.58154,35.49435],[135.58155,35.49433],[135.58156,35.49421],[135.58155,35.49406],[135.58128,35.49406]]]}},{"type":"Feature","properties":{"pid":"b860ed9b-336b-4343-aedb-3da03d03931f","full":4.3},"geometry":{"type":"Polygon","coordinates":[[[135.58064,35.49464],[135.58136,35.49466],[135.58138,35.49461],[135.58139,35.49449],[135.58078,35.49448],[135.58077,35.49451],[135.58072,35.49451],[135.58068,35.49459],[135.58064,35.49464]]]}},{"type":"Feature","properties":{"pid":"ccea0c15-9cd5-4efa-8570-394b4752b20e","full":9.5},"geometry":{"type":"Polygon","coordinates":[[[135.58069,35.49423],[135.58074,35.49441],[135.58073,35.49448],[135.58139,35.49448],[135.58146,35.49442],[135.58125,35.49421],[135.58122,35.49421],[135.5812,35.49419],[135.58069,35.49423]]]}},{"type":"Feature","properties":{"pid":"c2379b00-ffca-4271-8af0-e7364d110776","full":2.4},"geometry":{"type":"Polygon","coordinates":[[[135.58135,35.49467],[135.58063,35.49466],[135.58059,35.49474],[135.58057,35.4948],[135.5807,35.49482],[135.58089,35.49482],[135.58104,35.49479],[135.58135,35.49467]]]}},{"type":"Feature","properties":{"pid":"e1661cd5-1835-4de5-ab85-0d93a408e3c3","full":4.8},"geometry":{"type":"Polygon","coordinates":[[[135.58154,35.49436],[135.58188,35.49436],[135.58194,35.49407],[135.58156,35.49406],[135.58156,35.49431],[135.58156,35.49434],[135.58154,35.49436]]]}},{"type":"Feature","properties":{"pid":"7d46d073-b1c2-490c-909b-a7144d0a50b0","full":3.7},"geometry":{"type":"Polygon","coordinates":[[[135.5814,35.49388],[135.5816,35.49393],[135.58172,35.49394],[135.58185,35.49393],[135.58165,35.49364],[135.58139,35.49375],[135.5814,35.49388]]]}},{"type":"Feature","properties":{"pid":"fdfd5a49-8d99-426a-8519-db337f3f3016","full":3.0},"geometry":{"type":"Polygon","coordinates":[[[135.58403,35.49511],[135.58387,35.49518],[135.58391,35.49533],[135.58414,35.4953],[135.58419,35.49528],[135.58442,35.49514],[135.58441,35.4951],[135.58403,35.49511]]]}},{"type":"Feature","properties":{"pid":"b7c8ecea-38d8-42b3-85c4-c8fbd5ac0ca6","full":13.4},"geometry":{"type":"Polygon","coordinates":[[[135.58024,35.49192],[135.58074,35.49174],[135.58066,35.49161],[135.58059,35.4915],[135.58045,35.49137],[135.58005,35.49155],[135.58014,35.49172],[135.58024,35.49192]]]}},{"type":"Feature","properties":{"pid":"59d9cb19-f39b-4a81-9514-3680ff8a3a5f","full":6.8},"geometry":{"type":"Polygon","coordinates":[[[135.57962,35.49166],[135.57987,35.49156],[135.57981,35.49145],[135.57991,35.49135],[135.5798,35.49123],[135.5797,35.49116],[135.57954,35.49108],[135.57947,35.4911],[135.57942,35.49114],[135.57962,35.49137],[135.57949,35.49144],[135.57962,35.49166]]]}},{"type":"Feature","properties":{"pid":"7dba4f04-8eee-4cb0-87f9-814ff8d4bb28","full":5.5},"geometry":{"type":"Polygon","coordinates":[[[135.58009,35.49225],[135.58029,35.49218],[135.58019,35.49186],[135.58008,35.49165],[135.57994,35.49141],[135.57989,35.49146],[135.57993,35.49154],[135.57989,35.49156],[135.58001,35.49179],[135.58002,35.49187],[135.57988,35.49191],[135.57991,35.49199],[135.58003,35.49215],[135.58009,35.49225]]]}},{"type":"Feature","properties":{"pid":"46fe607f-d24e-420b-b4d3-90f7ca07804b","full":11.4},"geometry":{"type":"Polygon","coordinates":[[[135.57896,35.49088],[135.57909,35.49092],[135.5791,35.4909],[135.57914,35.4909],[135.57944,35.49026],[135.57942,35.49024],[135.57903,35.49021],[135.57896,35.49088]]]}},{"type":"Feature","properties":{"pid":"1a1a97ff-1101-45a9-b9e6-7d580497d1b4","full":10.0},"geometry":{"type":"Polygon","coordinates":[[[135.57868,35.49078],[135.57895,35.49087],[135.57902,35.49021],[135.57873,35.49019],[135.57867,35.49075],[135.57868,35.49077],[135.57868,35.49078]]]}},{"type":"Feature","properties":{"pid":"ef66e453-d084-4c98-8016-a7a35739a3d6","full":7.5},"geometry":{"type":"Polygon","coordinates":[[[135.57842,35.49069],[135.57866,35.49078],[135.57872,35.49019],[135.57845,35.49017],[135.5784,35.49067],[135.57841,35.49068],[135.57842,35.49069]]]}}],"precision":5}