{"type":"FeatureCollection","features":[{"type":"Feature","properties":{"pid":"73f432d1-2c89-4f2b-a950-cbbfe1fd73f4","full":6.5},"geometry":{"type":"Polygon","coordinates":[[[136.19984,35.73771],[136.20013,35.73777],[136.20016,35.73776],[136.20046,35.73752],[136.20047,35.7375],[136.20028,35.73735],[136.20025,35.73734],[136.19984,35.73771]]]}},{"type":"Feature","properties":{"pid":"fbf14fae-3f85-40f8-b921-801eb5bbc595","full":2.4},"geometry":{"type":"Polygon","coordinates":[[[136.20023,35.7385],[136.20038,35.7384],[136.2004,35.73837],[136.20031,35.73824],[136.20011,35.73808],[136.20007,35.73807],[136.20009,35.73833],[136.20013,35.73835],[136.20019,35.73842],[136.20023,35.7385]]]}},{"type":"Feature","properties":{"pid":"fc9c1c5e-6a08-4557-a38e-1ba816950f83","full":2.2},"geometry":{"type":"Polygon","coordinates":[[[136.20054,35.7389],[136.20059,35.73886],[136.2005,35.73864],[136.20047,35.7385],[136.20042,35.73842],[136.2004,35.73841],[136.20023,35.73851],[136.20032,35.73867],[136.20042,35.7388],[136.20054,35.7389]]]}},{"type":"Feature","properties":{"pid":"9103803c-e55c-415d-bc63-32e9585e159f","full":2.2},"geometry":{"type":"Polygon","coordinates":[[[136.19998,35.73932],[136.20032,35.73902],[136.20008,35.73881],[136.20004,35.73882],[136.20003,35.73884],[136.20005,35.73895],[136.20004,35.73904],[136.20001,35.73912],[136.19999,35.73922],[136.19997,35.7393],[136.19998,35.73932]]]}},{"type":"Feature","properties":{"pid":"2748f620-b5af-4c3b-b48e-2b9373ebab17","full":13.0},"geometry":{"type":"Polygon","coordinates":[[[136.20009,35.73967],[136.20014,35.73968],[136.2005,35.73933],[136.20044,35.73915],[136.20035,35.73904],[136.20031,35.73905],[136.19993,35.73937],[136.19986,35.73951],[136.20009,35.73967]]]}},{"type":"Feature","properties":{"pid":"502bc3ff-1705-4136-8afe-d8dd8d126eb6","full":7.7},"geometry":{"type":"Polygon","coordinates":[[[136.20051,35.73994],[136.20062,35.73952],[136.20062,35.73949],[136.2005,35.73936],[136.20015,35.73971],[136.20029,35.73982],[136.20048,35.73995],[136.20051,35.73994]]]}},{"type":"Feature","properties":{"pid":"972e377f-a4a8-4a76-bbfb-1f3bfcdf410f","full":13.9},"geometry":{"type":"Polygon","coordinates":[[[136.20011,35.74064],[136.20018,35.74058],[136.2005,35.74028],[136.20052,35.74025],[136.20049,35.74006],[136.20035,35.73996],[136.19982,35.74045],[136.20011,35.74064]]]}},{"type":"Feature","properties":{"pid":"663e03f8-f663-491c-9b8d-8992b118c650","full":14.9},"geometry":{"type":"Polygon","coordinates":[[[136.20221,35.7401],[136.20272,35.74031],[136.20275,35.74032],[136.20288,35.74027],[136.20293,35.74026],[136.20301,35.74027],[136.20306,35.74026],[136.20323,35.74021],[136.20324,35.74019],[136.20239,35.73981],[136.20221,35.74008],[136.20221,35.7401]]]}},{"type":"Feature","properties":{"pid":"0a930675-e07c-4d80-a8ff-5e9a45b9171a","full":14.3},"geometry":{"type":"Polygon","coordinates":[[[136.20201,35.74041],[136.20202,35.74043],[136.20265,35.7407],[136.20269,35.74069],[136.2027,35.74064],[136.20269,35.7405],[136.20272,35.74034],[136.20271,35.74033],[136.2022,35.74012],[136.20218,35.74013],[136.20201,35.74041]]]}},{"type":"Feature","properties":{"pid":"8c83ebcc-8a48-4086-9514-b6126c0d7296","full":13.4},"geometry":{"type":"Polygon","coordinates":[[[136.20169,35.7407],[136.20171,35.74069],[136.20173,35.74069],[136.2019,35.74041],[136.20187,35.74039],[136.20129,35.74014],[136.20126,35.74014],[136.20125,35.74018],[136.20122,35.7405],[136.20169,35.7407]]]}},{"type":"Feature","properties":{"pid":"ff272dc7-3434-42c7-8494-57672d2f3a15","full":16.7},"geometry":{"type":"Polygon","coordinates":[[[136.20126,35.74011],[136.2019,35.74038],[136.20191,35.74037],[136.20192,35.74037],[136.20209,35.74009],[136.20141,35.73978],[136.20139,35.73979],[136.20133,35.73992],[136.2013,35.73994],[136.20126,35.74011]]]}},{"type":"Feature","properties":{"pid":"e62065e7-543d-4aba-82c2-20854ec3c1b6","full":16.3},"geometry":{"type":"Polygon","coordinates":[[[136.2014,35.73974],[136.20141,35.73976],[136.2021,35.74006],[136.20212,35.74005],[136.2023,35.73977],[136.20229,35.73976],[136.20166,35.7395],[136.20163,35.73951],[136.20142,35.7397],[136.2014,35.73974]]]}},{"type":"Feature","properties":{"pid":"0ba0564a-2b36-48ba-a8d1-3044dede9ecf","full":24.6},"geometry":{"type":"Polygon","coordinates":[[[136.20241,35.73977],[136.20243,35.73978],[136.20242,35.73981],[136.20328,35.74019],[136.20332,35.74017],[136.20337,35.74012],[136.2034,35.73981],[136.2026,35.73947],[136.20241,35.73977]]]}},{"type":"Feature","properties":{"pid":"93c37d34-18cd-4d3e-85e3-7dee6b1c712c","full":9.5},"geometry":{"type":"Polygon","coordinates":[[[136.20201,35.73921],[136.20251,35.73942],[136.20254,35.73941],[136.20271,35.73913],[136.20269,35.73911],[136.20239,35.73899],[136.20235,35.73899],[136.20229,35.73901],[136.20202,35.73919],[136.20201,35.73921]]]}},{"type":"Feature","properties":{"pid":"fd757d88-6a38-4d93-a6d2-422cdab01d0e","full":15.4},"geometry":{"type":"Polygon","coordinates":[[[136.20167,35.73948],[136.20231,35.73975],[136.20251,35.73944],[136.20197,35.73921],[136.20178,35.73932],[136.20167,35.73946],[136.20167,35.73948]]]}},{"type":"Feature","properties":{"pid":"9bc448e7-8a45-40d1-b7ef-11c839da7f3b","full":5.1},"geometry":{"type":"Polygon","coordinates":[[[136.20241,35.73896],[136.20242,35.73897],[136.20252,35.73902],[136.20271,35.7391],[136.20273,35.7391],[136.20292,35.7388],[136.20271,35.73871],[136.2027,35.73871],[136.20241,35.73896]]]}},{"type":"Feature","properties":{"pid":"dbadce1a-d4d0-4eb1-9fc8-e6d9d7aa7306","full":0.6},"geometry":{"type":"Polygon","coordinates":[[[136.20292,35.73879],[136.203,35.73868],[136.20299,35.73867],[136.2028,35.73859],[136.20278,35.73859],[136.20274,35.73862],[136.20275,35.73866],[136.20271,35.7387],[136.20292,35.73879]]]}},{"type":"Feature","properties":{"pid":"176258b4-777c-4f35-aef1-75ee7c58420d","full":6.3},"geometry":{"type":"Polygon","coordinates":[[[136.20136,35.73888],[136.20139,35.73888],[136.20146,35.73885],[136.2015,35.73888],[136.20152,35.73888],[136.20168,35.73875],[136.20156,35.73849],[136.20153,35.73849],[136.20137,35.73859],[136.20133,35.73855],[136.20131,35.73855],[136.20123,35.73864],[136.20116,35.73874],[136.20136,35.73888]]]}},{"type":"Feature","properties":{"pid":"b358cfa7-7ed4-43d8-93de-59dbdc463ae5","full":0.9},"geometry":{"type":"Polygon","coordinates":[[[136.20089,35.73844],[136.20102,35.73856],[136.20115,35.73861],[136.20124,35.73851],[136.20096,35.73835],[136.20089,35.73844]]]}},{"type":"Feature","properties":{"pid":"3d720666-06e2-4d12-86ca-f32137816d5e","full":5.6},"geometry":{"type":"Polygon","coordinates":[[[136.20019,35.73779],[136.20038,35.73793],[136.20044,35.73794],[136.20074,35.73768],[136.20051,35.73752],[136.20019,35.73779]]]}},{"type":"Feature","properties":{"pid":"870ad10c-6986-4417-b902-db681ae3f4ff","full":5.7},"geometry":{"type":"Polygon","coordinates":[[[136.20065,35.73813],[136.20098,35.73785],[136.20076,35.73769],[136.20043,35.73797],[136.20065,35.73813]]]}},{"type":"Feature","properties":{"pid":"f7bb07c5-5367-417f-88ec-fad5c1ec2d46","full":2.2},"geometry":{"type":"Polygon","coordinates":[[[136.20255,35.73702],[136.20248,35.73711],[136.20242,35.73724],[136.20259,35.73734],[136.20271,35.73721],[136.20276,35.73712],[136.20258,35.73702],[136.20255,35.73702]]]}},{"type":"Feature","properties":{"pid":"36327782-1f90-448b-8808-471507f06d99","full":0.5},"geometry":{"type":"Polygon","coordinates":[[[136.20223,35.73763],[136.20228,35.73766],[136.20227,35.73769],[136.20233,35.73772],[136.20248,35.7375],[136.20234,35.73743],[136.2023,35.73752],[136.20223,35.73763]]]}},{"type":"Feature","properties":{"pid":"b1b943bf-bfbb-4c17-998a-101ccbb7abaf","full":19.2},"geometry":{"type":"Polygon","coordinates":[[[136.20343,35.73819],[136.20396,35.73841],[136.20403,35.7384],[136.20413,35.73839],[136.20432,35.73836],[136.20439,35.73833],[136.20443,35.73828],[136.20446,35.73823],[136.20362,35.73787],[136.20359,35.73788],[136.20343,35.73816],[136.20343,35.73819]]]}},{"type":"Feature","properties":{"pid":"1ad509ed-4504-4982-a3bc-d48c6ddc749a","full":13.6},"geometry":{"type":"Polygon","coordinates":[[[136.20363,35.73785],[136.20447,35.73821],[136.20461,35.73799],[136.20376,35.73763],[136.20372,35.73764],[136.20362,35.73784],[136.20363,35.73785]]]}},{"type":"Feature","properties":{"pid":"2234f09a-671e-462a-be48-12474d290837","full":14.6},"geometry":{"type":"Polygon","coordinates":[[[136.20463,35.73798],[136.20476,35.73776],[136.20386,35.73737],[136.20374,35.73757],[136.20378,35.7376],[136.20377,35.73762],[136.20463,35.73798]]]}},{"type":"Feature","properties":{"pid":"441fda6c-7080-4c23-b27c-1b6837d1edb0","full":17.7},"geometry":{"type":"Polygon","coordinates":[[[136.20417,35.73711],[136.20496,35.73747],[136.20513,35.73719],[136.20437,35.73685],[136.20414,35.73706],[136.20417,35.73708],[136.20417,35.73711]]]}},{"type":"Feature","properties":{"pid":"f99665ca-2720-4dbd-b9ad-2b3b5b4930e2","full":12.7},"geometry":{"type":"Polygon","coordinates":[[[136.20442,35.73685],[136.20513,35.73718],[136.20527,35.73693],[136.20462,35.73662],[136.2044,35.73683],[136.20442,35.73684],[136.20442,35.73685]]]}},{"type":"Feature","properties":{"pid":"fa6c82f9-3c91-48b9-ad8c-fdb83f8e8917","full":14.2},"geometry":{"type":"Polygon","coordinates":[[[136.20399,35.73701],[136.20406,35.73702],[136.20464,35.7365],[136.20421,35.73618],[136.20419,35.73619],[136.20414,35.73636],[136.204,35.73692],[136.20399,35.73701]]]}},{"type":"Feature","properties":{"pid":"351dcd78-c55e-49e6-a00b-02b88783cf85","full":10.2},"geometry":{"type":"Polygon","coordinates":[[[136.20465,35.73663],[136.20528,35.73693],[136.20542,35.73669],[136.20485,35.73642],[136.20465,35.7366],[136.20466,35.73661],[136.20465,35.73663]]]}},{"type":"Feature","properties":{"pid":"549a3759-ad50-4225-9a78-aa3e721a42ab","full":17.4},"geometry":{"type":"Polygon","coordinates":[[[136.20389,35.73737],[136.20477,35.73774],[136.20495,35.7375],[136.20416,35.73716],[136.20413,35.73718],[136.20406,35.73714],[136.20395,35.73723],[136.20388,35.73734],[136.20389,35.73737]]]}},{"type":"Feature","properties":{"pid":"610324cf-0d17-4a23-9757-2572146d4746","full":10.7},"geometry":{"type":"Polygon","coordinates":[[[136.20323,35.7385],[136.20369,35.73869],[136.20374,35.73865],[136.20378,35.73852],[136.20381,35.73848],[136.20391,35.73844],[136.20394,35.73841],[136.20341,35.73819],[136.20323,35.73847],[136.20323,35.7385]]]}},{"type":"Feature","properties":{"pid":"0f250235-7060-437b-93cf-c7f20782ac3b","full":12.3},"geometry":{"type":"Polygon","coordinates":[[[136.20302,35.73882],[136.20363,35.73907],[136.20363,35.73892],[136.20363,35.73887],[136.20369,35.73872],[136.20322,35.73851],[136.20319,35.73852],[136.20301,35.73881],[136.20302,35.73882]]]}},{"type":"Feature","properties":{"pid":"52f8c386-e6d4-4d1a-b9db-357b5a02cdf6","full":18.0},"geometry":{"type":"Polygon","coordinates":[[[136.20282,35.73915],[136.20356,35.73946],[136.20359,35.73943],[136.20358,35.73936],[136.20362,35.7392],[136.20362,35.73908],[136.20301,35.73884],[136.20299,35.73884],[136.20281,35.73913],[136.20282,35.73915]]]}},{"type":"Feature","properties":{"pid":"fd4f6acf-fe37-4048-b61a-f5c75f267867","full":19.0},"geometry":{"type":"Polygon","coordinates":[[[136.20262,35.73947],[136.20339,35.7398],[136.20349,35.73952],[136.20355,35.73947],[136.2028,35.73916],[136.20261,35.73945],[136.20262,35.73947]]]}},{"type":"Feature","properties":{"pid":"3e1959ad-4822-4d10-9f08-698b7880f46d","full":12.8},"geometry":{"type":"Polygon","coordinates":[[[136.21135,35.73579],[136.21153,35.73591],[136.21158,35.73592],[136.21175,35.73591],[136.21176,35.7359],[136.21177,35.73572],[136.21179,35.73567],[136.21184,35.73562],[136.21191,35.73557],[136.21204,35.73555],[136.21219,35.73547],[136.21229,35.73543],[136.21241,35.73541],[136.21241,35.7354],[136.21182,35.73539],[136.21167,35.73537],[136.21162,35.73539],[136.21136,35.73576],[136.21135,35.73579]]]}},{"type":"Feature","properties":{"pid":"12f440cc-1e2f-4a5d-8602-626da972f870","full":16.0},"geometry":{"type":"Polygon","coordinates":[[[136.21048,35.73556],[136.21049,35.73557],[136.21053,35.7356],[136.21074,35.73567],[136.21085,35.73572],[136.2112,35.73523],[136.2112,35.73521],[136.21086,35.73504],[136.21083,35.73505],[136.21048,35.73556]]]}},{"type":"Feature","properties":{"pid":"89e34838-722e-465f-93a2-fb2d5b472000","full":11.8},"geometry":{"type":"Polygon","coordinates":[[[136.21122,35.73524],[136.21087,35.73574],[136.2109,35.73575],[136.21119,35.73573],[136.21129,35.73576],[136.21132,35.73576],[136.21159,35.73537],[136.21157,35.73536],[136.21138,35.7353],[136.21126,35.73524],[136.21124,35.73525],[136.21122,35.73524]]]}},{"type":"Feature","properties":{"pid":"2e915f5e-1db1-4ef5-96ee-4617979b84d3","full":2.7},"geometry":{"type":"Polygon","coordinates":[[[136.21251,35.73543],[136.21255,35.73546],[136.21267,35.73554],[136.21272,35.73556],[136.21312,35.7355],[136.21317,35.73547],[136.21317,35.73539],[136.21313,35.73539],[136.21311,35.73537],[136.21251,35.7354],[136.21251,35.73543]]]}},{"type":"Feature","properties":{"pid":"e8c78905-5e24-4f32-bede-0e3feb7e73f1","full":1.5},"geometry":{"type":"Polygon","coordinates":[[[136.21486,35.73496],[136.21485,35.73494],[136.21447,35.73504],[136.21457,35.73523],[136.21461,35.73523],[136.21467,35.73521],[136.21479,35.73503],[136.21486,35.73496]]]}},{"type":"Feature","properties":{"pid":"85627778-e917-401f-8d9f-1ae10d4524de","full":3.5},"geometry":{"type":"Polygon","coordinates":[[[136.21532,35.73483],[136.21539,35.73498],[136.21543,35.73498],[136.21576,35.73489],[136.21578,35.73488],[136.21569,35.73469],[136.21533,35.7348],[136.21533,35.73483],[136.21532,35.73483]]]}},{"type":"Feature","properties":{"pid":"a67504ad-08d2-4463-b18c-8add50b9c482","full":1.9},"geometry":{"type":"Polygon","coordinates":[[[136.21401,35.7353],[136.21408,35.73529],[136.21412,35.73525],[136.2142,35.73523],[136.21425,35.73523],[136.2144,35.73527],[136.21445,35.73527],[136.21453,35.73525],[136.21446,35.73506],[136.21443,35.73505],[136.21397,35.73518],[136.21396,35.73522],[136.21401,35.7353]]]}},{"type":"Feature","properties":{"pid":"eb0db2c3-ac9e-4c2f-ab89-a9bc4b0cb322","full":13.6},"geometry":{"type":"Polygon","coordinates":[[[136.21304,35.73452],[136.21306,35.73453],[136.21319,35.7345],[136.21339,35.73447],[136.21346,35.73449],[136.21351,35.73448],[136.21362,35.73444],[136.21385,35.73441],[136.21387,35.73439],[136.21365,35.73407],[136.21363,35.73406],[136.21295,35.73437],[136.21295,35.73439],[136.21304,35.73452]]]}},{"type":"Feature","properties":{"pid":"d6f814cf-d6e2-4139-9f44-c60c9d9c91ca","full":15.5},"geometry":{"type":"Polygon","coordinates":[[[136.21384,35.73424],[136.21386,35.73424],[136.21475,35.73384],[136.21476,35.73382],[136.21464,35.7336],[136.21371,35.73402],[136.2137,35.73404],[136.21384,35.73424]]]}},{"type":"Feature","properties":{"pid":"1dec64fa-a9fa-480c-a325-834e3cc1ba86","full":17.2},"geometry":{"type":"Polygon","coordinates":[[[136.21395,35.73438],[136.21402,35.73439],[136.21485,35.73424],[136.21488,35.73405],[136.21488,35.73401],[136.21479,35.73385],[136.21478,35.73384],[136.21386,35.73426],[136.21393,35.73437],[136.21395,35.73438]]]}},{"type":"Feature","properties":{"pid":"cba6018f-442d-4135-b43c-5cf98a3b75ee","full":10.0},"geometry":{"type":"Polygon","coordinates":[[[136.21365,35.73452],[136.21366,35.73452],[136.21376,35.73452],[136.21417,35.73458],[136.21476,35.73451],[136.2148,35.7345],[136.21483,35.73428],[136.21481,35.73427],[136.21366,35.73445],[136.21365,35.73447],[136.21365,35.73452]]]}},{"type":"Feature","properties":{"pid":"5289a29c-d1b1-4c49-92d0-38770e4db9d5","full":36.3},"geometry":{"type":"Polygon","coordinates":[[[136.21505,35.73443],[136.21522,35.73439],[136.21542,35.73432],[136.21564,35.73421],[136.21574,35.73414],[136.21575,35.73412],[136.21527,35.7334],[136.21486,35.73359],[136.21488,35.73365],[136.21486,35.73367],[136.21504,35.73395],[136.21507,35.73404],[136.21502,35.73442],[136.21505,35.73443]]]}},{"type":"Feature","properties":{"pid":"f3894a09-1b88-423d-b16e-b0312c7b6981","full":19.0},"geometry":{"type":"Polygon","coordinates":[[[136.21577,35.73411],[136.21606,35.73388],[136.21563,35.73324],[136.21561,35.73324],[136.21531,35.73338],[136.21532,35.73341],[136.21531,35.73342],[136.21577,35.73411]]]}},{"type":"Feature","properties":{"pid":"5450bac2-510a-4c3f-b91b-3f7d51f026e0","full":14.5},"geometry":{"type":"Polygon","coordinates":[[[136.21483,35.73354],[136.21488,35.73354],[136.21532,35.73334],[136.21535,35.73335],[136.21561,35.73323],[136.21562,35.73321],[136.21546,35.73297],[136.21545,35.73296],[136.21483,35.73323],[136.21483,35.73326],[136.2148,35.73328],[136.2148,35.73347],[136.21482,35.73353],[136.21483,35.73354]]]}},{"type":"Feature","properties":{"pid":"f0cd9404-99f0-4bbd-ac67-3ecf9c6c0562","full":11.8},"geometry":{"type":"Polygon","coordinates":[[[136.21472,35.73316],[136.21474,35.73316],[136.21537,35.73288],[136.21538,35.73287],[136.21524,35.73264],[136.21522,35.73263],[136.2146,35.73291],[136.21459,35.73292],[136.21472,35.73316]]]}},{"type":"Feature","properties":{"pid":"e9749a45-d4de-4787-97f3-0d911541a32b","full":12.7},"geometry":{"type":"Polygon","coordinates":[[[136.21346,35.7334],[136.21441,35.73298],[136.21434,35.73284],[136.21431,35.73276],[136.21429,35.73276],[136.21353,35.73311],[136.21353,35.73313],[136.2135,35.73314],[136.21346,35.7334]]]}},{"type":"Feature","properties":{"pid":"98f1db39-0d29-436e-b99d-c6dedcb40f2f","full":16.3},"geometry":{"type":"Polygon","coordinates":[[[136.21368,35.73399],[136.2137,35.734],[136.21463,35.73358],[136.21459,35.73347],[136.21459,35.73336],[136.21457,35.73334],[136.21454,35.73333],[136.21356,35.73377],[136.21355,35.7338],[136.21368,35.73399]]]}},{"type":"Feature","properties":{"pid":"6041f7eb-b84e-4977-8e6e-7ab493cc5a9f","full":20.0},"geometry":{"type":"Polygon","coordinates":[[[136.21338,35.73375],[136.21342,35.73375],[136.21455,35.73325],[136.21455,35.73323],[136.21443,35.73302],[136.21442,35.73301],[136.21345,35.73344],[136.21342,35.73346],[136.21337,35.73373],[136.21338,35.73375]]]}},{"type":"Feature","properties":{"pid":"fc4c4760-1331-4303-a6e4-2fea84f013a7","full":13.1},"geometry":{"type":"Polygon","coordinates":[[[136.2124,35.73302],[136.21242,35.73304],[136.21339,35.73319],[136.21342,35.73317],[136.21346,35.73296],[136.21342,35.73294],[136.21253,35.73283],[136.21248,35.73288],[136.2124,35.73302]]]}},{"type":"Feature","properties":{"pid":"49b071b3-e531-48fd-a7fd-d161760939bc","full":13.9},"geometry":{"type":"Polygon","coordinates":[[[136.21227,35.73328],[136.21228,35.73329],[136.21334,35.73344],[136.21335,35.73343],[136.2134,35.73323],[136.21339,35.73322],[136.2124,35.73307],[136.21236,35.73309],[136.21227,35.73328]]]}},{"type":"Feature","properties":{"pid":"afd248d7-04af-4ed8-8b3c-e6f9a66904a4","full":15.4},"geometry":{"type":"Polygon","coordinates":[[[136.2121,35.73353],[136.21212,35.73354],[136.21325,35.73371],[136.21329,35.73368],[136.21333,35.73349],[136.21333,35.73348],[136.21224,35.73333],[136.2122,35.73336],[136.2121,35.73353]]]}},{"type":"Feature","properties":{"pid":"a9a59e37-d42c-4f2a-b9ad-4ad53c7811d4","full":12.8},"geometry":{"type":"Polygon","coordinates":[[[136.21208,35.7338],[136.21209,35.73381],[136.21291,35.73393],[136.21325,35.73381],[136.21325,35.73378],[136.21321,35.73377],[136.21321,35.73374],[136.21212,35.73359],[136.2121,35.7336],[136.21208,35.7338]]]}},{"type":"Feature","properties":{"pid":"d8387a91-fc4d-47fa-a3ae-e40d6e0d3aa6","full":11.5},"geometry":{"type":"Polygon","coordinates":[[[136.21275,35.73412],[136.21292,35.73435],[136.21295,35.73435],[136.21363,35.73405],[136.21349,35.73384],[136.21306,35.73401],[136.21284,35.73408],[136.21277,35.7341],[136.21275,35.73412]]]}},{"type":"Feature","properties":{"pid":"65b28f3d-3281-4e67-b87f-c109af802da9","full":18.7},"geometry":{"type":"Polygon","coordinates":[[[136.21225,35.73465],[136.21228,35.73466],[136.21247,35.73465],[136.21294,35.73453],[136.21295,35.73452],[136.21279,35.73428],[136.21279,35.73426],[136.21281,35.73424],[136.21281,35.73422],[136.21274,35.73413],[136.21273,35.73412],[136.21217,35.73429],[136.21216,35.73432],[136.21225,35.73465]]]}},{"type":"Feature","properties":{"pid":"c1e7c17e-a9f5-4ec7-957d-3bc289b36381","full":7.8},"geometry":{"type":"Polygon","coordinates":[[[136.21202,35.73421],[136.21205,35.73422],[136.21282,35.73397],[136.21282,35.73395],[136.21207,35.73383],[136.21206,35.73384],[136.21205,35.73406],[136.21202,35.73421]]]}},{"type":"Feature","properties":{"pid":"256053c3-c5ed-4fd1-8f80-914c435c54f0","full":4.9},"geometry":{"type":"Polygon","coordinates":[[[136.21215,35.73466],[136.21206,35.73432],[136.21205,35.73431],[136.21167,35.7344],[136.21165,35.73442],[136.21168,35.73448],[136.21184,35.73459],[136.21194,35.73463],[136.21212,35.73467],[136.21215,35.73466]]]}},{"type":"Feature","properties":{"pid":"472858ad-8f8b-4b77-bb32-c8d57250414b","full":12.4},"geometry":{"type":"Polygon","coordinates":[[[136.21072,35.73414],[136.21086,35.7342],[136.21109,35.73427],[136.21127,35.7343],[136.2114,35.7343],[136.21141,35.73427],[136.21119,35.73401],[136.21103,35.73374],[136.21097,35.73362],[136.21095,35.73363],[136.21071,35.73413],[136.21072,35.73414]]]}},{"type":"Feature","properties":{"pid":"1987ff8b-7b37-47c4-9b54-bb9e9ce95cfb","full":11.2},"geometry":{"type":"Polygon","coordinates":[[[136.21047,35.734],[136.21046,35.73404],[136.21046,35.73405],[136.21069,35.73414],[136.21094,35.73359],[136.21078,35.7333],[136.21075,35.73331],[136.21044,35.73398],[136.21047,35.734]]]}},{"type":"Feature","properties":{"pid":"f1abbfa0-60c4-4aff-9c06-d0a1f4dc4461","full":12.8},"geometry":{"type":"Polygon","coordinates":[[[136.21279,35.73254],[136.21256,35.73276],[136.21258,35.73278],[136.21346,35.73292],[136.21347,35.7329],[136.21353,35.73266],[136.21351,35.73264],[136.21328,35.73263],[136.21279,35.73254]]]}},{"type":"Feature","properties":{"pid":"e6c8d581-2046-4578-ae54-45c8c04272f7","full":7.5},"geometry":{"type":"Polygon","coordinates":[[[136.21284,35.7325],[136.2133,35.73259],[136.21353,35.73261],[136.21355,35.7326],[136.21358,35.73241],[136.21303,35.7323],[136.21284,35.73247],[136.21283,35.73249],[136.21284,35.7325]]]}},{"type":"Feature","properties":{"pid":"e79d2c95-7bd6-475c-ab42-e759e57f7c67","full":2.7},"geometry":{"type":"Polygon","coordinates":[[[136.21355,35.73158],[136.21363,35.73154],[136.21376,35.73144],[136.21385,35.73135],[136.21389,35.73121],[136.21383,35.73116],[136.21379,35.73116],[136.21371,35.73122],[136.2135,35.73145],[136.21351,35.73152],[136.21355,35.73158]]]}},{"type":"Feature","properties":{"pid":"d5eda72a-30b8-471c-88db-2439416aa652","full":27.2},"geometry":{"type":"Polygon","coordinates":[[[136.21304,35.73224],[136.21356,35.73236],[136.21357,35.73232],[136.21354,35.73231],[136.21359,35.73224],[136.21364,35.73205],[136.21365,35.73188],[136.21358,35.73176],[136.21341,35.73168],[136.21333,35.73166],[136.21325,35.73168],[136.21309,35.73177],[136.213,35.73183],[136.21296,35.73189],[136.21289,35.73211],[136.21289,35.73214],[136.21291,35.73216],[136.21299,35.73219],[136.21304,35.73224]]]}},{"type":"Feature","properties":{"pid":"0ac8f77e-cc67-471c-9eb5-1ad3754cc980","full":8.7},"geometry":{"type":"Polygon","coordinates":[[[136.21359,35.73272],[136.21361,35.73272],[136.21416,35.73246],[136.21416,35.73245],[136.21404,35.73237],[136.2139,35.73225],[136.21379,35.73211],[136.21376,35.73211],[136.21372,35.73212],[136.21363,35.73249],[136.21359,35.73272]]]}},{"type":"Feature","properties":{"pid":"13f729cd-a9a6-4cb5-b493-b8dcf5bf956f","full":10.0},"geometry":{"type":"Polygon","coordinates":[[[136.21353,35.73305],[136.21355,35.73305],[136.21428,35.73273],[136.21423,35.73252],[136.21419,35.73249],[136.2136,35.73276],[136.2136,35.73279],[136.21357,35.7328],[136.21353,35.73305]]]}},{"type":"Feature","properties":{"pid":"d13aae46-2689-4bf0-8ba8-d621a000eb27","full":9.6},"geometry":{"type":"Polygon","coordinates":[[[136.21458,35.73289],[136.2146,35.73289],[136.21519,35.73262],[136.2152,35.73261],[136.21506,35.7324],[136.21504,35.73239],[136.2145,35.73264],[136.21451,35.73274],[136.21458,35.73289]]]}},{"type":"Feature","properties":{"pid":"49d63279-3056-4c22-ac09-7914de8e251d","full":7.3},"geometry":{"type":"Polygon","coordinates":[[[136.21447,35.73263],[136.21449,35.73263],[136.21503,35.73239],[136.21503,35.73237],[136.21492,35.73222],[136.21487,35.73224],[136.21459,35.73226],[136.21454,35.73236],[136.21438,35.73245],[136.21447,35.73263]]]}},{"type":"Feature","properties":{"pid":"9e1f8fe6-10c8-4d45-9d7e-6fca85630f8c","full":15.6},"geometry":{"type":"Polygon","coordinates":[[[136.21544,35.73284],[136.21545,35.73283],[136.21572,35.73271],[136.21521,35.73196],[136.21499,35.73214],[136.21498,35.73217],[136.21544,35.73284]]]}},{"type":"Feature","properties":{"pid":"01f97894-7c02-45b2-b0d9-8ca6afbfea55","full":18.8},"geometry":{"type":"Polygon","coordinates":[[[136.21588,35.73262],[136.21592,35.73262],[136.21616,35.73252],[136.21617,35.73249],[136.2156,35.73166],[136.21548,35.73172],[136.21543,35.73177],[136.21538,35.73183],[136.21535,35.73185],[136.21588,35.73262]]]}},{"type":"Feature","properties":{"pid":"2c91ef4c-fc43-40bc-983b-7ed398b52625","full":5.5},"geometry":{"type":"Polygon","coordinates":[[[136.21572,35.73271],[136.21586,35.73265],[136.21587,35.73263],[136.21535,35.73186],[136.21528,35.73189],[136.21521,35.73195],[136.21572,35.73271]]]}},{"type":"Feature","properties":{"pid":"b9c75173-a9e8-4462-937f-fe80dff5b853","full":18.0},"geometry":{"type":"Polygon","coordinates":[[[136.21617,35.73248],[136.21621,35.73249],[136.21646,35.73237],[136.21591,35.73158],[136.21586,35.73156],[136.21573,35.73159],[136.21563,35.73163],[136.21561,35.73166],[136.21617,35.73248]]]}},{"type":"Feature","properties":{"pid":"0d8cab38-3250-4a45-9820-3ea8bde0cc52","full":12.3},"geometry":{"type":"Polygon","coordinates":[[[136.21693,35.73305],[136.217,35.73303],[136.21712,35.73294],[136.21719,35.73291],[136.2168,35.73232],[136.21652,35.73245],[136.21693,35.73305]]]}},{"type":"Feature","properties":{"pid":"60073f6a-86a9-4d44-8749-8a2573d88add","full":12.0},"geometry":{"type":"Polygon","coordinates":[[[136.21721,35.7329],[136.21725,35.73288],[136.21747,35.73279],[136.21747,35.73277],[136.21711,35.73222],[136.2171,35.73222],[136.21708,35.7322],[136.21681,35.73232],[136.21721,35.7329]]]}},{"type":"Feature","properties":{"pid":"edc7511f-c2c3-4931-809c-e7099a6dcb9c","full":12.2},"geometry":{"type":"Polygon","coordinates":[[[136.2175,35.73278],[136.21767,35.73272],[136.21778,35.73266],[136.21737,35.73206],[136.2171,35.73219],[136.2175,35.73278]]]}},{"type":"Feature","properties":{"pid":"e4aee905-7403-4c7f-84b1-fde3d2283655","full":14.9},"geometry":{"type":"Polygon","coordinates":[[[136.21809,35.73256],[136.2183,35.73256],[136.21846,35.73254],[136.21846,35.73252],[136.21848,35.73251],[136.21804,35.73184],[136.21803,35.73184],[136.21785,35.73192],[136.21786,35.73199],[136.21789,35.73213],[136.218,35.7325],[136.21804,35.73254],[136.21809,35.73256]]]}},{"type":"Feature","properties":{"pid":"7e4fe736-51c2-4133-b2c0-aa12a9afc56a","full":8.2},"geometry":{"type":"Polygon","coordinates":[[[136.21778,35.73265],[136.21782,35.73265],[136.21791,35.73262],[136.21771,35.73195],[136.21767,35.73194],[136.21738,35.73206],[136.21778,35.73265]]]}},{"type":"Feature","properties":{"pid":"7b05fd03-d82f-4c76-8901-27f63743b406","full":6.0},"geometry":{"type":"Polygon","coordinates":[[[136.21738,35.73196],[136.2174,35.73196],[136.21767,35.73184],[136.21769,35.73182],[136.2176,35.73153],[136.21722,35.7317],[136.21722,35.73172],[136.21738,35.73196]]]}},{"type":"Feature","properties":{"pid":"7b88af09-a07c-4976-a6e9-af18a610b052","full":10.5},"geometry":{"type":"Polygon","coordinates":[[[136.21776,35.73179],[136.21779,35.73179],[136.2183,35.73156],[136.21832,35.73154],[136.21816,35.73129],[136.21813,35.73128],[136.21767,35.73148],[136.21776,35.73179]]]}},{"type":"Feature","properties":{"pid":"02c8a4cf-6a3d-4d04-b464-f1574ba7af56","full":7.1},"geometry":{"type":"Polygon","coordinates":[[[136.21767,35.73143],[136.2177,35.73142],[136.21809,35.73126],[136.21792,35.73097],[136.2179,35.73095],[136.21778,35.73106],[136.21756,35.73113],[136.21767,35.73143]]]}},{"type":"Feature","properties":{"pid":"121ea9ee-b4b5-467c-9fc3-02c20c38da46","full":5.8},"geometry":{"type":"Polygon","coordinates":[[[136.2172,35.7317],[136.2176,35.73151],[136.21758,35.7314],[136.21754,35.73142],[136.21751,35.73136],[136.21756,35.73135],[136.21752,35.73126],[136.21705,35.73149],[136.2172,35.7317]]]}},{"type":"Feature","properties":{"pid":"35e233ad-58a6-4aeb-b7d6-acb7ee5a067e","full":9.0},"geometry":{"type":"Polygon","coordinates":[[[136.21704,35.73145],[136.21706,35.73146],[136.21751,35.73124],[136.21753,35.73122],[136.2175,35.73112],[136.21738,35.73104],[136.21733,35.73103],[136.21723,35.73105],[136.21703,35.73115],[136.21692,35.73118],[136.21688,35.73121],[136.21689,35.73124],[136.21704,35.73145]]]}},{"type":"Feature","properties":{"pid":"c66cef6a-4830-4292-be1d-053ce02c473d","full":13.2},"geometry":{"type":"Polygon","coordinates":[[[136.21705,35.73211],[136.21731,35.73199],[136.21729,35.73196],[136.21703,35.73157],[136.21702,35.73156],[136.2168,35.7313],[136.21673,35.73132],[136.21671,35.73134],[136.21657,35.7314],[136.21705,35.73211]]]}},{"type":"Feature","properties":{"pid":"0caaa521-cf42-46ea-8955-8ba6d1332f6d","full":15.9},"geometry":{"type":"Polygon","coordinates":[[[136.21675,35.73222],[136.21681,35.73222],[136.21704,35.73212],[136.21655,35.7314],[136.2165,35.73141],[136.21638,35.73142],[136.21628,35.73148],[136.21626,35.73151],[136.21675,35.73222]]]}},{"type":"Feature","properties":{"pid":"bce0628e-1a01-4d65-990a-daad015469d1","full":16.3},"geometry":{"type":"Polygon","coordinates":[[[136.21647,35.73237],[136.2165,35.73236],[136.21675,35.73225],[136.21625,35.73151],[136.21614,35.73155],[136.21603,35.73156],[136.21597,35.73155],[136.21593,35.73155],[136.21592,35.73157],[136.21647,35.73237]]]}},{"type":"Feature","properties":{"pid":"149ba2f3-0f1b-4da5-908d-18946404039b","full":15.8},"geometry":{"type":"Polygon","coordinates":[[[136.21816,35.7312],[136.21819,35.7312],[136.21913,35.7308],[136.21914,35.73077],[136.21906,35.73065],[136.21895,35.73065],[136.21891,35.7306],[136.21804,35.73099],[136.21816,35.7312]]]}},{"type":"Feature","properties":{"pid":"6d2ed059-f5bb-4c51-99f7-545f107ac81e","full":17.1},"geometry":{"type":"Polygon","coordinates":[[[136.21801,35.73098],[136.21804,35.73098],[136.2189,35.73059],[136.21889,35.73057],[136.21885,35.73056],[136.21884,35.73054],[136.21884,35.73052],[136.21879,35.73051],[136.21858,35.73046],[136.21846,35.73041],[136.21842,35.73041],[136.21837,35.73042],[136.21828,35.7305],[136.21819,35.73053],[136.21809,35.73055],[136.21803,35.73059],[136.21797,35.73073],[136.21797,35.73077],[136.21796,35.73092],[136.21801,35.73098]]]}},{"type":"Feature","properties":{"pid":"2f9fbf49-20fd-479c-b00d-2b4240c0b473","full":12.5},"geometry":{"type":"Polygon","coordinates":[[[136.21942,35.73105],[136.22,35.73079],[136.22001,35.73078],[136.21985,35.73053],[136.21983,35.73052],[136.21979,35.73053],[136.21924,35.73079],[136.21942,35.73105]]]}},{"type":"Feature","properties":{"pid":"72d9785a-3740-416b-b0e1-17361bed5c13","full":13.9},"geometry":{"type":"Polygon","coordinates":[[[136.21923,35.73075],[136.21982,35.73049],[136.21973,35.73036],[136.21964,35.73026],[136.21956,35.73029],[136.21949,35.73028],[136.21937,35.73025],[136.21932,35.73023],[136.21921,35.73023],[136.21918,35.73022],[136.21917,35.73028],[136.21918,35.73046],[136.21907,35.73052],[136.21923,35.73075]]]}},{"type":"Feature","properties":{"pid":"ed0051b4-2ce0-4e70-8c96-815815f82ad3","full":5.7},"geometry":{"type":"Polygon","coordinates":[[[136.21989,35.73048],[136.22028,35.73031],[136.22026,35.73026],[136.2202,35.73021],[136.22015,35.73017],[136.22008,35.73015],[136.21993,35.73015],[136.21986,35.73016],[136.21973,35.73021],[136.2197,35.73023],[136.21989,35.73048]]]}},{"type":"Feature","properties":{"pid":"e77f5e65-5b32-49bb-9534-130d43a7bcdf","full":7.8},"geometry":{"type":"Polygon","coordinates":[[[136.2201,35.73073],[136.22046,35.73058],[136.22046,35.73057],[136.22042,35.73047],[136.2206,35.7304],[136.22059,35.73036],[136.22058,35.73034],[136.22054,35.73034],[136.22033,35.73034],[136.22027,35.73033],[136.21991,35.73048],[136.2199,35.73049],[136.22006,35.7307],[136.2201,35.73073]]]}},{"type":"Feature","properties":{"pid":"1bd054dd-c335-480e-877b-c1aa76da2a7b","full":11.5},"geometry":{"type":"Polygon","coordinates":[[[136.22075,35.73135],[136.2208,35.73134],[136.22101,35.73119],[136.22065,35.73067],[136.22055,35.73069],[136.22042,35.73075],[136.22036,35.73078],[136.22075,35.73135]]]}},{"type":"Feature","properties":{"pid":"c20f736f-8e42-4021-8277-697c2330fb52","full":12.8},"geometry":{"type":"Polygon","coordinates":[[[136.22049,35.73154],[136.22051,35.73153],[136.22072,35.73139],[136.22074,35.73136],[136.22035,35.73079],[136.22031,35.7308],[136.22007,35.73091],[136.22049,35.73154]]]}},{"type":"Feature","properties":{"pid":"e159979b-74e8-461f-8b70-07fed90569ec","full":14.0},"geometry":{"type":"Polygon","coordinates":[[[136.21998,35.73188],[136.22001,35.73188],[136.2202,35.73174],[136.22021,35.73172],[136.21976,35.73105],[136.21949,35.73117],[136.21998,35.73188]]]}},{"type":"Feature","properties":{"pid":"bc840d82-0f0a-4eb7-bbfa-a541b80055bb","full":13.9},"geometry":{"type":"Polygon","coordinates":[[[136.22021,35.73169],[136.22027,35.7317],[136.22048,35.73156],[136.22048,35.73155],[136.22006,35.73092],[136.21978,35.73104],[136.22021,35.73169]]]}},{"type":"Feature","properties":{"pid":"12d9ed49-8164-4f60-bfd8-d8f916962b66","full":24.0},"geometry":{"type":"Polygon","coordinates":[[[136.21836,35.73152],[136.21839,35.73152],[136.21931,35.7311],[136.21933,35.73108],[136.21917,35.73082],[136.21914,35.73081],[136.2182,35.73122],[136.21819,35.73125],[136.21836,35.73152]]]}},{"type":"Feature","properties":{"pid":"2d148a05-cefc-4efb-8976-0c3646687b55","full":18.4},"geometry":{"type":"Polygon","coordinates":[[[136.21917,35.73238],[136.2192,35.73239],[136.21934,35.73234],[136.21944,35.73227],[136.21943,35.73224],[136.21889,35.73143],[136.21879,35.73148],[136.21875,35.73151],[136.21862,35.73157],[136.21917,35.73238]]]}},{"type":"Feature","properties":{"pid":"4bc8be87-006e-46a4-90aa-4ded55a64eea","full":17.5},"geometry":{"type":"Polygon","coordinates":[[[136.21944,35.73223],[136.2195,35.73223],[136.2197,35.7321],[136.2197,35.73208],[136.21919,35.73131],[136.2189,35.73143],[136.21944,35.73223]]]}},{"type":"Feature","properties":{"pid":"8fdad5d1-8131-435a-9ab2-acc5f54a45ba","full":16.4},"geometry":{"type":"Polygon","coordinates":[[[136.2197,35.73206],[136.21975,35.73206],[136.21995,35.73191],[136.21997,35.73189],[136.21948,35.73118],[136.2193,35.73126],[136.21919,35.73129],[136.2197,35.73206]]]}},{"type":"Feature","properties":{"pid":"e48e130f-b9f6-4b7c-9c7b-57825a7fdbfa","full":17.6},"geometry":{"type":"Polygon","coordinates":[[[136.21886,35.73249],[136.21891,35.73249],[136.21916,35.7324],[136.21916,35.73239],[136.21861,35.73159],[136.21859,35.73158],[136.21834,35.73169],[136.21834,35.73172],[136.21886,35.73249]]]}},{"type":"Feature","properties":{"pid":"1121fbf3-0987-46fc-9268-c2ee8ce4f5dc","full":15.2},"geometry":{"type":"Polygon","coordinates":[[[136.21851,35.73253],[136.21862,35.73251],[136.21885,35.7325],[136.21832,35.73172],[136.2183,35.73171],[136.21805,35.73183],[136.21805,35.73184],[136.21851,35.73253]]]}},{"type":"Feature","properties":{"pid":"1138787c-9b60-405a-a30b-85faac95955c","full":9.7},"geometry":{"type":"Polygon","coordinates":[[[136.21851,35.73422],[136.21854,35.73426],[136.21868,35.73414],[136.21871,35.7341],[136.21874,35.73406],[136.21888,35.73377],[136.21865,35.73358],[136.21835,35.73384],[136.21836,35.73387],[136.21849,35.73399],[136.21851,35.73405],[136.21853,35.73412],[136.21853,35.73416],[136.21851,35.73422]]]}},{"type":"Feature","properties":{"pid":"8fa5a16c-6449-492e-9617-b95f53097472","full":11.6},"geometry":{"type":"Polygon","coordinates":[[[136.21888,35.73375],[136.21903,35.73352],[136.21848,35.73304],[136.21827,35.73321],[136.21837,35.73331],[136.21888,35.73375]]]}},{"type":"Feature","properties":{"pid":"0f0ecb01-535b-4d40-812d-355fd1be4083","full":1.2},"geometry":{"type":"Polygon","coordinates":[[[136.21938,35.73302],[136.2196,35.73275],[136.2196,35.7327],[136.21921,35.73285],[136.21923,35.73286],[136.21922,35.73287],[136.21938,35.73302]]]}},{"type":"Feature","properties":{"pid":"dd63f0f5-e3b9-465a-8fae-7cf5c93c4a5b","full":20.9},"geometry":{"type":"Polygon","coordinates":[[[136.21904,35.73351],[136.2192,35.73331],[136.21927,35.73322],[136.21937,35.73303],[136.21918,35.73285],[136.21902,35.73289],[136.21876,35.73293],[136.21859,35.73298],[136.21849,35.73304],[136.21904,35.73351]]]}},{"type":"Feature","properties":{"pid":"7f7a8b9e-90c7-4f12-8a0b-5f60e0dbaa1b","full":6.8},"geometry":{"type":"Polygon","coordinates":[[[136.21833,35.73379],[136.21862,35.73357],[136.21822,35.73325],[136.21798,35.73344],[136.21821,35.73355],[136.21828,35.73362],[136.2183,35.73366],[136.21831,35.73371],[136.21833,35.73379]]]}},{"type":"Feature","properties":{"pid":"b452f5f6-a7e3-493f-a201-99a7af54e22e","full":22.7},"geometry":{"type":"Polygon","coordinates":[[[136.21693,35.73412],[136.2171,35.73403],[136.21753,35.73371],[136.21783,35.73348],[136.21754,35.73327],[136.21727,35.73341],[136.21701,35.73366],[136.21691,35.73387],[136.21688,35.73398],[136.21687,35.7341],[136.21688,35.73412],[136.21693,35.73412]]]}},{"type":"Feature","properties":{"pid":"a57335b2-a508-4939-a0fd-cbbd4b76131a","full":14.7},"geometry":{"type":"Polygon","coordinates":[[[136.21674,35.7333],[136.21695,35.73313],[136.21696,35.73311],[136.21693,35.73308],[136.21691,35.73304],[136.2165,35.73245],[136.21623,35.73258],[136.21672,35.73331],[136.21674,35.7333]]]}},{"type":"Feature","properties":{"pid":"1d728008-3434-4475-ba4b-fe0cb2caa4d9","full":16.5},"geometry":{"type":"Polygon","coordinates":[[[136.21648,35.73352],[136.21651,35.73351],[136.21671,35.73333],[136.21671,35.73331],[136.21621,35.73259],[136.21596,35.73269],[136.21599,35.73274],[136.21597,35.73276],[136.21648,35.73352]]]}},{"type":"Feature","properties":{"pid":"b9aabe7d-ad88-4624-b506-27ec435a7a43","full":11.1},"geometry":{"type":"Polygon","coordinates":[[[136.2163,35.73368],[136.21647,35.73353],[136.21646,35.73352],[136.21596,35.73277],[136.21594,35.73278],[136.21589,35.73273],[136.21571,35.73281],[136.2163,35.73368]]]}},{"type":"Feature","properties":{"pid":"6d7bc111-5ffb-4039-a6a2-040b613be0a6","full":13.0},"geometry":{"type":"Polygon","coordinates":[[[136.21611,35.73382],[136.21618,35.73378],[136.21629,35.73368],[136.21571,35.73281],[136.21552,35.73289],[136.21552,35.73294],[136.2155,35.73295],[136.21611,35.73382]]]}},{"type":"Feature","properties":{"pid":"5d699de1-08e9-4a41-8dc1-fb6485d7dd22","full":6.0},"geometry":{"type":"Polygon","coordinates":[[[136.21629,35.73463],[136.21632,35.73465],[136.2164,35.73467],[136.21652,35.73473],[136.2168,35.73464],[136.21659,35.73436],[136.2165,35.73441],[136.21622,35.73451],[136.21629,35.73463]]]}},{"type":"Feature","properties":{"pid":"e19318af-ebb6-405b-9e80-290897cf757a","full":10.0},"geometry":{"type":"Polygon","coordinates":[[[136.21681,35.73464],[136.21713,35.73459],[136.21719,35.73457],[136.21724,35.73453],[136.21696,35.73417],[136.2166,35.73435],[136.21681,35.73464]]]}},{"type":"Feature","properties":{"pid":"fa5240d0-6d24-4282-ac33-4b35c148e811","full":10.6},"geometry":{"type":"Polygon","coordinates":[[[136.21727,35.73453],[136.21763,35.73437],[136.21736,35.73403],[136.21733,35.73404],[136.21727,35.734],[136.21699,35.73416],[136.21727,35.73453]]]}},{"type":"Feature","properties":{"pid":"e0a99e9e-7875-46e4-abf4-26b28c174bdb","full":9.1},"geometry":{"type":"Polygon","coordinates":[[[136.21763,35.73432],[136.21828,35.73397],[136.21817,35.73387],[136.21816,35.73378],[136.21747,35.73411],[136.21763,35.73432]]]}},{"type":"Feature","properties":{"pid":"47a05a49-ebbc-48ae-a17e-4bb9c3823f1e","full":7.9},"geometry":{"type":"Polygon","coordinates":[[[136.21743,35.73409],[136.21816,35.73372],[136.21809,35.73365],[136.2179,35.73356],[136.21736,35.73395],[136.21735,35.73398],[136.21743,35.73409]]]}},{"type":"Feature","properties":{"pid":"53ec66e0-0513-4c26-9807-4d225c0dc98f","full":6.1},"geometry":{"type":"Polygon","coordinates":[[[136.21766,35.73433],[136.2177,35.73439],[136.2183,35.73432],[136.21836,35.7343],[136.21838,35.73427],[136.2184,35.73416],[136.21838,35.7341],[136.21835,35.73406],[136.2183,35.73402],[136.21766,35.73433]]]}},{"type":"Feature","properties":{"pid":"cfb56352-35c8-49db-a44d-6047af1b41dc","full":4.0},"geometry":{"type":"Polygon","coordinates":[[[136.21583,35.73485],[136.21597,35.73483],[136.21606,35.7348],[136.21624,35.73465],[136.21618,35.73454],[136.21575,35.73466],[136.21574,35.7347],[136.21572,35.73471],[136.21583,35.73485]]]}},{"type":"Feature","properties":{"pid":"c991e0f1-b25d-4abf-ac3e-ae2bb3970d87","full":11.6},"geometry":{"type":"Polygon","coordinates":[[[136.22341,35.7311],[136.22362,35.73117],[136.22381,35.73119],[136.22391,35.73073],[136.22352,35.73066],[136.2235,35.73075],[136.22347,35.73077],[136.22341,35.7311]]]}},{"type":"Feature","properties":{"pid":"be1ecc09-b4f5-46ba-95fc-cdcef6877ab1","full":13.7},"geometry":{"type":"Polygon","coordinates":[[[136.22384,35.7312],[136.22396,35.73122],[136.22422,35.7312],[136.22434,35.73116],[136.2245,35.73104],[136.22443,35.73101],[136.22445,35.73097],[136.22437,35.7309],[136.22423,35.73075],[136.22405,35.73075],[136.22394,35.73074],[136.22384,35.7312]]]}},{"type":"Feature","properties":{"pid":"efb1acdc-a914-434b-a602-9e92cd965449","full":0.8},"geometry":{"type":"Polygon","coordinates":[[[136.22481,35.7313],[136.22478,35.73129],[136.22473,35.73133],[136.22467,35.73141],[136.22461,35.73154],[136.22475,35.73154],[136.22485,35.73153],[136.22481,35.7313]]]}},{"type":"Feature","properties":{"pid":"eb7dfec0-0e75-4a91-8ce0-4abebf9c3da1","full":15.1},"geometry":{"type":"Polygon","coordinates":[[[136.22102,35.73118],[136.22104,35.73117],[136.22107,35.73117],[136.2212,35.73111],[136.22132,35.73096],[136.22133,35.73093],[136.22108,35.73055],[136.22095,35.73057],[136.22068,35.73065],[136.22066,35.73066],[136.22102,35.73118]]]}},{"type":"Feature","properties":{"pid":"3a4f0842-de93-4cad-b24d-1be5e3e156d1","full":10.5},"geometry":{"type":"Polygon","coordinates":[[[136.22179,35.73059],[136.22148,35.73101],[136.2215,35.73102],[136.22171,35.73099],[136.222,35.73099],[136.2221,35.73051],[136.22185,35.73049],[136.22179,35.73059]]]}},{"type":"Feature","properties":{"pid":"4c825d35-cfd8-4c32-8705-38a363d6bf78","full":14.0},"geometry":{"type":"Polygon","coordinates":[[[136.22201,35.73099],[136.22251,35.73099],[136.22261,35.73057],[136.22257,35.73056],[136.22212,35.73052],[136.22201,35.73099]]]}},{"type":"Feature","properties":{"pid":"4bf4d5cb-6d08-40a1-920d-b109585d0997","full":11.3},"geometry":{"type":"Polygon","coordinates":[[[136.22252,35.73099],[136.22255,35.731],[136.22296,35.73103],[136.22303,35.7307],[136.22302,35.73061],[136.22269,35.73056],[136.22262,35.73058],[136.22252,35.73099]]]}},{"type":"Feature","properties":{"pid":"bf978712-592c-4762-ab99-64d7617c373a","full":9.4},"geometry":{"type":"Polygon","coordinates":[[[136.22298,35.73103],[136.22339,35.7311],[136.22345,35.73077],[136.22343,35.73074],[136.22345,35.73065],[136.22319,35.73062],[136.22316,35.73072],[136.22305,35.7307],[136.22298,35.73103]]]}},{"type":"Feature","properties":{"pid":"e3826b77-58cb-47f9-9e94-7fc0fa879704","full":14.8},"geometry":{"type":"Polygon","coordinates":[[[136.21015,35.73384],[136.21016,35.73386],[136.21025,35.7339],[136.21035,35.734],[136.21039,35.73395],[136.21042,35.73396],[136.21076,35.73325],[136.21052,35.73303],[136.21015,35.73384]]]}},{"type":"Feature","properties":{"pid":"c7dd6f1d-d6c1-433d-bd99-6bca27d7402a","full":16.1},"geometry":{"type":"Polygon","coordinates":[[[136.20983,35.73378],[136.2101,35.73388],[136.2105,35.73302],[136.21032,35.73292],[136.21023,35.7329],[136.20983,35.73378]]]}},{"type":"Feature","properties":{"pid":"8398d153-b1ad-4562-97c5-9ba7e5cf49e7","full":17.0},"geometry":{"type":"Polygon","coordinates":[[[136.2092,35.73357],[136.2095,35.73366],[136.2099,35.7328],[136.20968,35.7328],[136.2096,35.73279],[136.20954,35.73277],[136.2092,35.73357]]]}},{"type":"Feature","properties":{"pid":"63f50e65-4263-4584-91d6-8ad0cd494c8a","full":17.7},"geometry":{"type":"Polygon","coordinates":[[[136.20951,35.73366],[136.20981,35.73377],[136.21021,35.73289],[136.2101,35.73282],[136.21003,35.73279],[136.20992,35.7328],[136.20951,35.73366]]]}},{"type":"Feature","properties":{"pid":"a85ee816-630b-4d8e-b788-cd32054d7902","full":16.1},"geometry":{"type":"Polygon","coordinates":[[[136.20887,35.73348],[136.20889,35.73348],[136.20889,35.7335],[136.20919,35.73356],[136.20953,35.73277],[136.20938,35.73274],[136.20924,35.73268],[136.20887,35.73348]]]}},{"type":"Feature","properties":{"pid":"6fae5b04-cc0d-418a-b108-aeb21f7a58f9","full":12.2},"geometry":{"type":"Polygon","coordinates":[[[136.20856,35.73344],[136.20886,35.73348],[136.20923,35.73267],[136.20917,35.73268],[136.20905,35.73272],[136.20885,35.73284],[136.20856,35.73344]]]}},{"type":"Feature","properties":{"pid":"3658044c-02fd-47ac-ba2c-973ca2e29ca1","full":17.9},"geometry":{"type":"Polygon","coordinates":[[[136.20817,35.73342],[136.20851,35.73344],[136.20881,35.73288],[136.20878,35.73287],[136.20863,35.73288],[136.20853,35.73286],[136.2084,35.73281],[136.20832,35.7328],[136.20822,35.73281],[136.20817,35.73342]]]}},{"type":"Feature","properties":{"pid":"958e457b-1688-4eff-a2d3-dbb14782ff01","full":12.7},"geometry":{"type":"Polygon","coordinates":[[[136.20884,35.73413],[136.20883,35.73416],[136.20887,35.7342],[136.20892,35.73428],[136.20912,35.73453],[136.20915,35.73455],[136.20919,35.73461],[136.20926,35.73467],[136.20941,35.73484],[136.20966,35.7345],[136.20966,35.73448],[136.20927,35.73429],[136.20898,35.73417],[136.20887,35.73414],[136.20884,35.73413]]]}},{"type":"Feature","properties":{"pid":"c483fc73-6b6e-4792-824a-3555f5fd1dd1","full":14.2},"geometry":{"type":"Polygon","coordinates":[[[136.20976,35.73514],[136.20977,35.73519],[136.20982,35.73523],[136.20995,35.73529],[136.21006,35.73537],[136.21043,35.73485],[136.21043,35.73484],[136.2101,35.7347],[136.21006,35.73471],[136.20976,35.73514]]]}},{"type":"Feature","properties":{"pid":"1461e622-b73e-4735-814e-931f20bce3c6","full":14.1},"geometry":{"type":"Polygon","coordinates":[[[136.20943,35.7349],[136.20954,35.73509],[136.20963,35.73515],[136.20971,35.73517],[136.21005,35.73469],[136.21005,35.73467],[136.20973,35.73451],[136.2097,35.73451],[136.20943,35.73487],[136.20943,35.7349]]]}},{"type":"Feature","properties":{"pid":"0a3ff7c9-8cef-4cc0-a959-95053e98e0ca","full":17.1},"geometry":{"type":"Polygon","coordinates":[[[136.21008,35.73538],[136.21008,35.73541],[136.21018,35.73551],[136.21039,35.73552],[136.21044,35.73555],[136.21045,35.73555],[136.21082,35.73502],[136.21047,35.73487],[136.21045,35.73487],[136.21008,35.73538]]]}},{"type":"Feature","properties":{"pid":"c9838775-d714-4def-bd8f-550b8051f083","full":21.9},"geometry":{"type":"Polygon","coordinates":[[[136.20651,35.73493],[136.20718,35.73545],[136.20721,35.73544],[136.20726,35.73529],[136.20727,35.73522],[136.20723,35.735],[136.20713,35.73486],[136.20707,35.73474],[136.20704,35.73469],[136.2069,35.73459],[136.20651,35.73493]]]}},{"type":"Feature","properties":{"pid":"cb10c0fe-070a-4149-9a20-a0bc4cf2ad16","full":22.3},"geometry":{"type":"Polygon","coordinates":[[[136.20591,35.73547],[136.2066,35.73597],[136.20679,35.73593],[136.20684,35.7359],[136.2069,35.73582],[136.20692,35.73576],[136.2062,35.73522],[136.20591,35.73547]]]}},{"type":"Feature","properties":{"pid":"8d0c378a-a293-4bc5-8a1f-24b2ef60d77a","full":14.6},"geometry":{"type":"Polygon","coordinates":[[[136.20533,35.73601],[136.20575,35.73632],[136.20583,35.73631],[136.20611,35.73619],[136.20615,35.73615],[136.20562,35.73576],[136.2056,35.73575],[136.20533,35.73599],[136.20533,35.73601]]]}},{"type":"Feature","properties":{"pid":"e72c6693-5842-453c-9ac5-9b8af6dfe490","full":19.1},"geometry":{"type":"Polygon","coordinates":[[[136.20564,35.73575],[136.20617,35.73615],[136.20627,35.73612],[136.20639,35.73608],[136.20657,35.73599],[136.20658,35.73598],[136.2059,35.73548],[136.20564,35.73572],[136.20565,35.73574],[136.20564,35.73575]]]}},{"type":"Feature","properties":{"pid":"c08ac6c9-8139-419d-ae20-44b561ffb945","full":17.6},"geometry":{"type":"Polygon","coordinates":[[[136.20521,35.73495],[136.20584,35.73542],[136.20585,35.73541],[136.20587,35.73541],[136.20615,35.73517],[136.20565,35.7348],[136.20563,35.7348],[136.20521,35.73495]]]}},{"type":"Feature","properties":{"pid":"d3a5cd76-cf25-450d-9d65-634f4b4be027","full":23.2},"geometry":{"type":"Polygon","coordinates":[[[136.20621,35.7352],[136.20692,35.73575],[136.20708,35.73566],[136.20711,35.73564],[136.20719,35.73548],[136.2065,35.73494],[136.20621,35.7352]]]}},{"type":"Feature","properties":{"pid":"37976305-25c0-456e-96b5-94aa00dd7020","full":6.7},"geometry":{"type":"Polygon","coordinates":[[[136.20613,35.73465],[136.20645,35.73489],[136.20696,35.73445],[136.20691,35.7344],[136.20661,35.73447],[136.20662,35.73453],[136.20613,35.73465]]]}},{"type":"Feature","properties":{"pid":"f043f4ce-3f93-4207-b2cb-f024395cf4b9","full":11.7},"geometry":{"type":"Polygon","coordinates":[[[136.20566,35.73479],[136.20614,35.73515],[136.20618,35.73515],[136.20645,35.7349],[136.20612,35.73467],[136.20609,35.73466],[136.20566,35.73479]]]}},{"type":"Feature","properties":{"pid":"8748829a-26f4-4ae5-a43b-17a3c1740a07","full":15.5},"geometry":{"type":"Polygon","coordinates":[[[136.2073,35.73341],[136.20732,35.73341],[136.2075,35.73339],[136.2077,35.73339],[136.20776,35.73275],[136.20761,35.73276],[136.20753,35.73277],[136.20735,35.73286],[136.20732,35.73294],[136.2073,35.73341]]]}},{"type":"Feature","properties":{"pid":"d7839f50-b92c-4245-92b5-f4b5eaf0da92","full":16.8},"geometry":{"type":"Polygon","coordinates":[[[136.20774,35.73338],[136.20776,35.73339],[136.20814,35.73341],[136.20821,35.73281],[136.20795,35.73275],[136.20785,35.73275],[136.20778,35.73275],[136.20774,35.73338]]]}},{"type":"Feature","properties":{"pid":"e02fa0a5-b7e6-4225-814f-6f7f2345c5a1","full":13.7},"geometry":{"type":"Polygon","coordinates":[[[136.20655,35.73353],[136.20655,35.73357],[136.20726,35.73342],[136.2073,35.73295],[136.20716,35.73298],[136.20695,35.7331],[136.20684,35.73321],[136.20657,35.73346],[136.20655,35.73353]]]}},{"type":"Feature","properties":{"pid":"a0b81ccd-98f8-4c9d-84eb-b02b1a7e11fc","full":1.0},"geometry":{"type":"Polygon","coordinates":[[[136.20541,35.73445],[136.20544,35.73445],[136.20564,35.7344],[136.20566,35.73436],[136.20555,35.73424],[136.20553,35.73424],[136.20535,35.73433],[136.20541,35.73445]]]}},{"type":"Feature","properties":{"pid":"06fe23c9-7ca7-40b9-b34a-1a8db522882b","full":21.5},"geometry":{"type":"Polygon","coordinates":[[[136.20486,35.73517],[136.20554,35.73569],[136.20557,35.73568],[136.20584,35.73543],[136.20519,35.73495],[136.20507,35.73501],[136.20487,35.73514],[136.20486,35.73517]]]}},{"type":"Feature","properties":{"pid":"fa43d1ee-94d1-4ca3-b950-4af10b1eecc6","full":26.0},"geometry":{"type":"Polygon","coordinates":[[[136.20454,35.73548],[136.20522,35.736],[136.20555,35.7357],[136.20484,35.73517],[136.20464,35.73536],[136.20454,35.73548]]]}},{"type":"Feature","properties":{"pid":"fd2e96f4-08b5-405d-95f9-79f6c6729aba","full":19.3},"geometry":{"type":"Polygon","coordinates":[[[136.20488,35.73642],[136.20544,35.73669],[136.2056,35.73644],[136.20564,35.7364],[136.20573,35.73633],[136.20531,35.73601],[136.20488,35.7364],[136.20488,35.73642]]]}},{"type":"Feature","properties":{"pid":"a56c46ec-a370-45ce-81bb-d5e899527444","full":15.2},"geometry":{"type":"Polygon","coordinates":[[[136.20421,35.73615],[136.20464,35.73647],[136.20465,35.73647],[136.20467,35.73647],[136.20495,35.73624],[136.20435,35.7358],[136.20434,35.7358],[136.20421,35.73615]]]}},{"type":"Feature","properties":{"pid":"72e282c1-1ff4-4a32-936c-95d9bd6f6e78","full":15.6},"geometry":{"type":"Polygon","coordinates":[[[136.20435,35.73578],[136.20495,35.73621],[136.20499,35.7362],[136.2052,35.73601],[136.20453,35.73551],[136.2045,35.73552],[136.20437,35.73572],[136.20435,35.73578]]]}}],"precision":5}