{"type":"FeatureCollection","features":[{"type":"Feature","properties":{"pid":"eed15dce-97ac-42f8-99fe-51fddfd3e1ea","full":0.8},"geometry":{"type":"Polygon","coordinates":[[[136.39332,35.98544],[136.39317,35.98547],[136.39314,35.98551],[136.39309,35.98557],[136.39307,35.98564],[136.39327,35.98564],[136.39331,35.98559],[136.39333,35.98549],[136.39332,35.98544]]]}},{"type":"Feature","properties":{"pid":"1f5ac3d2-417b-4ff4-910c-c4ebbd30e6a4","full":0.8},"geometry":{"type":"Polygon","coordinates":[[[136.39322,35.98568],[136.39317,35.98568],[136.39307,35.98566],[136.393,35.98579],[136.393,35.98583],[136.39302,35.98586],[136.39308,35.98586],[136.39322,35.98585],[136.39322,35.98568]]]}}],"precision":5}