{"type":"FeatureCollection","features":[{"type":"Feature","properties":{"pid":"55dd9ae2-7839-4b94-b866-7048284dc2d1"},"geometry":{"type":"Polygon","coordinates":[[[135.5717748523275,35.39666859013421],[135.57179584856408,35.39666999678989],[135.57182362545097,35.39662492036272],[135.57188669715174,35.396617087934786],[135.57192046682513,35.39646573144773],[135.5718285688017,35.39646325511054],[135.5717748523275,35.39666859013421]]]}},{"type":"Feature","properties":{"pid":"4b5ab57f-c3d8-4e0a-aa2a-3b86b4a55ad7"},"geometry":{"type":"Polygon","coordinates":[[[135.5715481164929,35.396633116081674],[135.57164531993223,35.39665233173196],[135.57170180740025,35.396446745150854],[135.5716666355783,35.39643893145152],[135.5715481164929,35.396633116081674]]]}}]}