{"type":"FeatureCollection","features":[{"type":"Feature","properties":{"pid":"99c78c71-2cf8-410b-9f19-96ee485e3c27"},"geometry":{"type":"Polygon","coordinates":[[[136.66511817038776,35.90534871235653],[136.66513120567623,35.90537833385342],[136.66534956625415,35.905280227508],[136.66522384930894,35.905285727670496],[136.66515770895276,35.90530894495553],[136.66511817038776,35.90534871235653]]]}},{"type":"Feature","properties":{"pid":"9337eb1b-89d1-42b3-860a-b3eda4625a11"},"geometry":{"type":"Polygon","coordinates":[[[136.66525675059825,35.90546522200861],[136.6652587769686,35.905503376624715],[136.66553295932573,35.90552511417944],[136.66551587051873,35.905435175543104],[136.66546084314587,35.905358255382424],[136.66525675059825,35.90546522200861]]]}},{"type":"Feature","properties":{"pid":"5a28856a-b191-4e42-889b-dc41de516fc2"},"geometry":{"type":"Polygon","coordinates":[[[136.66414515138877,35.90578530786055],[136.6642469676548,35.905778938968794],[136.66421783281905,35.90569146983625],[136.664249695662,35.90564400811687],[136.6642517633304,35.9055985351631],[136.66412821359816,35.905606089011414],[136.66414515138877,35.90578530786055]]]}},{"type":"Feature","properties":{"pid":"70cdac06-a9f2-47b2-9433-7438bba112c5"},"geometry":{"type":"Polygon","coordinates":[[[136.66383638033906,35.90574139393628],[136.66401286223964,35.90583080807863],[136.66398876016052,35.90560915086431],[136.66385273375042,35.90559925106238],[136.66383638033906,35.90574139393628]]]}},{"type":"Feature","properties":{"pid":"8cbd1bcf-b215-4818-9c86-afaf53e2315a"},"geometry":{"type":"Polygon","coordinates":[[[136.65056161364436,35.9019847786863],[136.65075290462508,35.90222530380984],[136.65078957488427,35.90207370307621],[136.65056161364436,35.9019847786863]]]}},{"type":"Feature","properties":{"pid":"fa873879-23df-4c87-a31e-952355862984"},"geometry":{"type":"Polygon","coordinates":[[[136.64995372597411,35.90236962823003],[136.6501574220917,35.9025476942652],[136.6504109392677,35.902426439112254],[136.6502115500709,35.90220828621082],[136.64995372597411,35.90236962823003]]]}},{"type":"Feature","properties":{"pid":"c87cc367-e468-4aef-ac35-af19fc0dfb82"},"geometry":{"type":"Polygon","coordinates":[[[136.65078996095502,35.90304554339997],[136.65082353206668,35.90293993583305],[136.65076111214705,35.902737253704345],[136.65066047784478,35.902666361045924],[136.65046769144746,35.90274171049574],[136.65078996095502,35.90304554339997]]]}},{"type":"Feature","properties":{"pid":"f94ec6b4-8d91-4604-8949-9189ce084a87"},"geometry":{"type":"Polygon","coordinates":[[[136.65046907574572,35.90294627978565],[136.65039945341326,35.90288487706546],[136.65006821084566,35.9031208940026],[136.65013749332803,35.903181214242174],[136.65046907574572,35.90294627978565]]]}},{"type":"Feature","properties":{"pid":"a0285fd6-c26c-4b48-92bc-2a1aa2b2dfc2"},"geometry":{"type":"Polygon","coordinates":[[[136.6502226533037,35.903262080885284],[136.65027461246305,35.90330850214307],[136.6506041413377,35.90307273740545],[136.65055451119648,35.90302412549026],[136.6502226533037,35.903262080885284]]]}},{"type":"Feature","properties":{"pid":"a743fb94-e47d-4ea5-bdbf-f04957dfcba7"},"geometry":{"type":"Polygon","coordinates":[[[136.65041340357666,35.903348464837784],[136.65058062606747,35.90329238695035],[136.65063715546833,35.90325774399329],[136.650700698668,35.90315975621017],[136.65069173902987,35.903151256700205],[136.65041340357666,35.903348464837784]]]}},{"type":"Feature","properties":{"pid":"b64fc82e-83eb-47e3-97d4-23a0d2cd68d3"},"geometry":{"type":"Polygon","coordinates":[[[136.64993650357695,35.90371511602451],[136.6500042171327,35.90377310318297],[136.65017439927232,35.90359379754607],[136.65020557189007,35.90352447928309],[136.64993650357695,35.90371511602451]]]}},{"type":"Feature","properties":{"pid":"95fb7d5e-159c-42c9-b551-291afe33c91b"},"geometry":{"type":"Polygon","coordinates":[[[136.65108532631584,35.9018282718841],[136.65115005618753,35.90178752222849],[136.65126800620408,35.90169926980569],[136.6512210411844,35.90166946804203],[136.6511508387409,35.901720924231306],[136.65108532631584,35.9018282718841]]]}},{"type":"Feature","properties":{"pid":"d9ca94c6-edbc-4a52-8856-bb280efa06a2"},"geometry":{"type":"Polygon","coordinates":[[[136.65080274627445,35.90182845789432],[136.650910983045,35.90187845845278],[136.65093641205928,35.90185649482534],[136.6509439971076,35.901823258661636],[136.65086152647459,35.90179205183227],[136.65080274627445,35.90182845789432]]]}},{"type":"Feature","properties":{"pid":"c92b18fe-befe-4625-a2f2-389e27852580"},"geometry":{"type":"Polygon","coordinates":[[[136.65162074519617,35.90097113469104],[136.65171302183728,35.90104384546386],[136.6517788281472,35.901004720682764],[136.65169339375416,35.900918595661466],[136.65162074519617,35.90097113469104]]]}}]}