{"type":"FeatureCollection","features":[{"type":"Feature","properties":{"pid":"a2c74e57-b155-4b1c-a707-005ebd1d2d3a"},"geometry":{"type":"Polygon","coordinates":[[[135.6796181041391,35.389526989449934],[135.67968264213008,35.38954690062699],[135.67969825973026,35.38923439413728],[135.6796556793209,35.38942510519055],[135.6796181041391,35.389526989449934]]]}},{"type":"Feature","properties":{"pid":"69f57927-d8d9-48d0-8994-b97ef25947c3"},"geometry":{"type":"Polygon","coordinates":[[[135.67938650271745,35.389980412607386],[135.67953757025876,35.38999525118965],[135.6795690611467,35.389887812934454],[135.67938669404535,35.38985889400953],[135.67938650271745,35.389980412607386]]]}}]}