{"type":"FeatureCollection","features":[{"type":"Feature","properties":{"pid":"68e09354-c63a-403f-b8cd-99f48ecb6141","full":5.6},"geometry":{"type":"Polygon","coordinates":[[[136.09543,36.0262],[136.09549,36.02611],[136.09554,36.02608],[136.09568,36.02604],[136.09568,36.02603],[136.09515,36.02578],[136.09515,36.02586],[136.09518,36.02594],[136.09518,36.02604],[136.09517,36.02612],[136.09518,36.02616],[136.09517,36.02619],[136.09519,36.02622],[136.09525,36.02622],[136.09543,36.0262]]]}},{"type":"Feature","properties":{"pid":"7abf88cf-3459-4cdc-b801-a2800c04ba8c","full":2.4},"geometry":{"type":"Polygon","coordinates":[[[136.09584,36.02604],[136.09591,36.02612],[136.09602,36.02615],[136.09605,36.02615],[136.09624,36.02602],[136.09623,36.02596],[136.0962,36.0259],[136.09618,36.02586],[136.09615,36.02585],[136.09584,36.02604]]]}},{"type":"Feature","properties":{"pid":"14151f93-48a0-4657-acd5-ecfad4f1eb4e","full":10.6},"geometry":{"type":"Polygon","coordinates":[[[136.09518,36.02572],[136.09578,36.02597],[136.09582,36.02602],[136.09584,36.02601],[136.09614,36.02584],[136.09614,36.02582],[136.09598,36.02575],[136.09591,36.02571],[136.09553,36.02567],[136.09528,36.02549],[136.09525,36.02549],[136.09523,36.02551],[136.0952,36.02567],[136.09518,36.02572]]]}},{"type":"Feature","properties":{"pid":"862707f4-fb12-4bb6-8b03-080fdbb476ef","full":3.3},"geometry":{"type":"Polygon","coordinates":[[[136.09528,36.02544],[136.09555,36.0256],[136.09586,36.02565],[136.09589,36.02564],[136.09592,36.02548],[136.09592,36.02546],[136.09583,36.02547],[136.09551,36.02542],[136.0954,36.02537],[136.09537,36.02537],[136.09529,36.02542],[136.09528,36.02544]]]}},{"type":"Feature","properties":{"pid":"9d55ac97-a9f3-4df3-ae3d-4dbcd989e3e7","full":1.3},"geometry":{"type":"Polygon","coordinates":[[[136.07659,36.0363],[136.07655,36.03622],[136.07647,36.03642],[136.07659,36.0365],[136.07681,36.03655],[136.07682,36.03653],[136.07674,36.03638],[136.07667,36.03633],[136.07659,36.0363]]]}},{"type":"Feature","properties":{"pid":"836d4d75-3efb-43fd-a068-6f3a96f4be84","full":0.7},"geometry":{"type":"Polygon","coordinates":[[[136.07655,36.0362],[136.07612,36.03604],[136.07611,36.03605],[136.07634,36.03623],[136.0764,36.03636],[136.07647,36.03642],[136.07655,36.0362]]]}},{"type":"Feature","properties":{"pid":"a9d4321a-5d10-4f53-8b9b-ad528655df7e","full":4.8},"geometry":{"type":"Polygon","coordinates":[[[136.09329,36.03507],[136.09318,36.0348],[136.09293,36.03485],[136.09272,36.03497],[136.0927,36.03503],[136.09286,36.03506],[136.09329,36.03507]]]}},{"type":"Feature","properties":{"pid":"b1db711c-b8f2-424d-8771-8b5adf46edda","full":16.7},"geometry":{"type":"Polygon","coordinates":[[[136.09387,36.03469],[136.09377,36.03463],[136.09355,36.03467],[136.09355,36.0351],[136.09364,36.03512],[136.09382,36.03519],[136.09398,36.03524],[136.09402,36.03524],[136.0941,36.03501],[136.09404,36.03477],[136.09387,36.03469]]]}},{"type":"Feature","properties":{"pid":"3b948965-82e5-480c-959a-46f8f49c82fc","full":3.6},"geometry":{"type":"Polygon","coordinates":[[[136.09347,36.03509],[136.0935,36.03503],[136.09353,36.03503],[136.09353,36.03475],[136.09343,36.03476],[136.0932,36.03479],[136.09331,36.03507],[136.09347,36.03509]]]}},{"type":"Feature","properties":{"pid":"a48ecbbd-49a0-4194-b0c4-1f2255f8b82e","full":8.5},"geometry":{"type":"Polygon","coordinates":[[[136.09764,36.03526],[136.09783,36.03522],[136.09785,36.03516],[136.09768,36.03499],[136.09749,36.03492],[136.0972,36.03519],[136.09738,36.03536],[136.09747,36.03531],[136.09764,36.03526]]]}},{"type":"Feature","properties":{"pid":"c29e36fc-6c53-46d3-ae3e-ee222bea8746","full":2.9},"geometry":{"type":"Polygon","coordinates":[[[136.09806,36.03598],[136.09767,36.03567],[136.09764,36.03577],[136.09757,36.03581],[136.09765,36.03585],[136.09769,36.0359],[136.09766,36.03594],[136.09775,36.03597],[136.09792,36.03612],[136.09806,36.03598]]]}},{"type":"Feature","properties":{"pid":"7fe786dd-17d1-4495-9d89-38e863ea7f96","full":4.0},"geometry":{"type":"Polygon","coordinates":[[[136.09764,36.03598],[136.09761,36.03596],[136.0975,36.03604],[136.09757,36.03617],[136.09772,36.03635],[136.09791,36.03627],[136.0979,36.03616],[136.09773,36.036],[136.09764,36.03598]]]}},{"type":"Feature","properties":{"pid":"332a4461-be11-4512-bca9-dfa48b40efb2","full":2.2},"geometry":{"type":"Polygon","coordinates":[[[136.0976,36.0363],[136.09742,36.03604],[136.09727,36.03608],[136.09735,36.03639],[136.0976,36.0363]]]}},{"type":"Feature","properties":{"pid":"35f14226-846c-4b03-9d03-f5c089174704","full":5.0},"geometry":{"type":"Polygon","coordinates":[[[136.09775,36.03773],[136.09737,36.03713],[136.09726,36.03718],[136.09723,36.03721],[136.09722,36.03725],[136.09757,36.0378],[136.09775,36.03773]]]}},{"type":"Feature","properties":{"pid":"d68358db-1183-4df2-ac8a-3897f02c5f34","full":3.9},"geometry":{"type":"Polygon","coordinates":[[[136.09741,36.03702],[136.09713,36.03656],[136.09701,36.0366],[136.09709,36.03681],[136.09709,36.03696],[136.09716,36.03712],[136.09741,36.03702]]]}},{"type":"Feature","properties":{"pid":"2ba881a9-608e-4222-b094-58b4f1f31d96","full":6.1},"geometry":{"type":"Polygon","coordinates":[[[136.09836,36.03748],[136.09799,36.03688],[136.09787,36.03692],[136.09779,36.03697],[136.09817,36.03755],[136.09836,36.03748]]]}},{"type":"Feature","properties":{"pid":"c8529437-fe31-44a1-88c6-e60d5a22c3db","full":5.5},"geometry":{"type":"Polygon","coordinates":[[[136.09815,36.03757],[136.09776,36.03697],[136.09758,36.03705],[136.09796,36.03764],[136.09815,36.03757]]]}},{"type":"Feature","properties":{"pid":"c95cc6ea-6d1d-47eb-91a9-ccc302428a28","full":5.4},"geometry":{"type":"Polygon","coordinates":[[[136.09794,36.03765],[136.09756,36.03706],[136.09739,36.03712],[136.09738,36.03713],[136.09776,36.03772],[136.09794,36.03765]]]}},{"type":"Feature","properties":{"pid":"41695017-b9a3-4c45-bf64-4d5d5355a800","full":1.2},"geometry":{"type":"Polygon","coordinates":[[[136.09755,36.03781],[136.09721,36.03727],[136.09713,36.0374],[136.09743,36.03786],[136.09755,36.03781]]]}},{"type":"Feature","properties":{"pid":"52975311-1a2c-47c2-b90d-782b45b0e313","full":1.0},"geometry":{"type":"Polygon","coordinates":[[[136.09742,36.03787],[136.09712,36.03741],[136.09705,36.03755],[136.09729,36.03791],[136.09742,36.03787]]]}},{"type":"Feature","properties":{"pid":"31143d7d-85b3-441b-b04b-5c45ba083c38","full":9.8},"geometry":{"type":"Polygon","coordinates":[[[136.09758,36.03867],[136.0972,36.03805],[136.09695,36.03815],[136.09734,36.03877],[136.09758,36.03867]]]}},{"type":"Feature","properties":{"pid":"2616cd2d-f476-458e-afb7-95a9ae05ef17","full":1.4},"geometry":{"type":"Polygon","coordinates":[[[136.09797,36.0385],[136.0976,36.03789],[136.09748,36.03794],[136.09785,36.03856],[136.09797,36.0385]]]}},{"type":"Feature","properties":{"pid":"153cc5c7-5848-43c0-91fa-73efdf479e86","full":10.0},"geometry":{"type":"Polygon","coordinates":[[[136.09784,36.03855],[136.09747,36.03794],[136.09722,36.03805],[136.0976,36.03866],[136.09784,36.03855]]]}},{"type":"Feature","properties":{"pid":"4900f51c-74c6-4663-9e26-92dde350087b","full":5.7},"geometry":{"type":"Polygon","coordinates":[[[136.09817,36.03841],[136.09779,36.03781],[136.09761,36.03788],[136.09798,36.03849],[136.09817,36.03841]]]}},{"type":"Feature","properties":{"pid":"3aebf80d-2b9f-4b2e-94e7-75850038609c","full":5.9},"geometry":{"type":"Polygon","coordinates":[[[136.09838,36.03833],[136.09799,36.03773],[136.09781,36.0378],[136.09819,36.03841],[136.09838,36.03833]]]}},{"type":"Feature","properties":{"pid":"c8ad1a1d-bb2c-4329-8704-f1f8336e6c74","full":3.1},"geometry":{"type":"Polygon","coordinates":[[[136.09786,36.03889],[136.09774,36.03871],[136.09734,36.03887],[136.09743,36.03903],[136.09775,36.03891],[136.09786,36.03889]]]}},{"type":"Feature","properties":{"pid":"12adcd90-83a3-47b1-8b4f-575583a3cecf","full":1.2},"geometry":{"type":"Polygon","coordinates":[[[136.0967,36.04025],[136.09638,36.04022],[136.09634,36.04048],[136.09647,36.0404],[136.09655,36.04039],[136.09662,36.04036],[136.09669,36.04031],[136.0967,36.04025]]]}},{"type":"Feature","properties":{"pid":"ee0924e2-883b-4555-92d2-37df5342a09c","full":1.0},"geometry":{"type":"Polygon","coordinates":[[[136.09636,36.04023],[136.09617,36.04021],[136.09615,36.04046],[136.09632,36.04048],[136.09636,36.04023]]]}},{"type":"Feature","properties":{"pid":"58039238-98fd-4e5e-a25f-f25cedd63747","full":1.0},"geometry":{"type":"Polygon","coordinates":[[[136.09616,36.0399],[136.0961,36.03989],[136.09603,36.0399],[136.096,36.03999],[136.09597,36.04003],[136.09593,36.04013],[136.09593,36.04014],[136.096,36.04015],[136.09613,36.04016],[136.09616,36.0399]]]}},{"type":"Feature","properties":{"pid":"a7d3b940-2130-459b-a918-bbe2623eb158","full":0.7},"geometry":{"type":"Polygon","coordinates":[[[136.09686,36.03942],[136.09668,36.03913],[136.09658,36.03919],[136.09676,36.03953],[136.09683,36.0395],[136.09686,36.03942]]]}},{"type":"Feature","properties":{"pid":"253ebb4f-41fe-4d55-97c8-3f0a1fec2d52","full":1.2},"geometry":{"type":"Polygon","coordinates":[[[136.09641,36.04019],[136.09661,36.0402],[136.09661,36.04017],[136.09661,36.04007],[136.09658,36.04001],[136.09657,36.03994],[136.09656,36.03992],[136.09642,36.03992],[136.09641,36.04019]]]}},{"type":"Feature","properties":{"pid":"798d8e6a-56fa-4506-825a-9720a467edf5","full":1.1},"geometry":{"type":"Polygon","coordinates":[[[136.09629,36.0399],[136.09621,36.0399],[136.09618,36.04015],[136.09619,36.04016],[136.09635,36.04017],[136.09638,36.03992],[136.09632,36.03992],[136.09629,36.0399]]]}},{"type":"Feature","properties":{"pid":"a4aa6941-0918-4b72-ac69-e0aec911e1ee","full":7.8},"geometry":{"type":"Polygon","coordinates":[[[136.09915,36.04079],[136.09876,36.04018],[136.09861,36.04024],[136.09856,36.04029],[136.09893,36.04088],[136.09915,36.04079]]]}},{"type":"Feature","properties":{"pid":"f5b24f4a-1489-409b-92df-efd448beb44c","full":7.1},"geometry":{"type":"Polygon","coordinates":[[[136.09906,36.04016],[136.09883,36.04015],[136.09879,36.04016],[136.09918,36.04077],[136.0994,36.04069],[136.09906,36.04016]]]}},{"type":"Feature","properties":{"pid":"7afaf2b6-502f-49e9-9526-4f8645772c14","full":6.3},"geometry":{"type":"Polygon","coordinates":[[[136.09964,36.04059],[136.0993,36.04004],[136.0991,36.04014],[136.09943,36.04067],[136.09964,36.04059]]]}},{"type":"Feature","properties":{"pid":"008ba909-d59e-45c7-8c39-afd3f9de5a84","full":7.5},"geometry":{"type":"Polygon","coordinates":[[[136.09968,36.03984],[136.09958,36.03978],[136.09952,36.03979],[136.09949,36.03982],[136.09992,36.04047],[136.10012,36.04038],[136.10011,36.04033],[136.09982,36.0399],[136.09968,36.03984]]]}},{"type":"Feature","properties":{"pid":"9fe02fdd-68b2-40de-900b-11e2721277f6","full":8.3},"geometry":{"type":"Polygon","coordinates":[[[136.09948,36.03985],[136.09947,36.03984],[136.09931,36.04],[136.09966,36.04057],[136.0999,36.04048],[136.09948,36.03985]]]}},{"type":"Feature","properties":{"pid":"6272801e-2260-4b1b-86fc-a5ad181dde1b","full":1.4},"geometry":{"type":"Polygon","coordinates":[[[136.09813,36.0389],[136.09816,36.0389],[136.09823,36.03884],[136.09841,36.03878],[136.09857,36.03877],[136.09858,36.03875],[136.09848,36.03861],[136.09806,36.03878],[136.09813,36.0389]]]}},{"type":"Feature","properties":{"pid":"a4c0b260-b74f-4381-b58c-e243ae2a7bfa","full":5.4},"geometry":{"type":"Polygon","coordinates":[[[136.09857,36.03824],[136.09819,36.03764],[136.09801,36.03772],[136.0984,36.03832],[136.09857,36.03824]]]}},{"type":"Feature","properties":{"pid":"1710441c-28a0-4d17-88d6-61db079dcaeb","full":2.1},"geometry":{"type":"Polygon","coordinates":[[[136.0989,36.03839],[136.09882,36.03826],[136.09846,36.03841],[136.09855,36.03856],[136.0988,36.03844],[136.0989,36.03843],[136.0989,36.03839]]]}},{"type":"Feature","properties":{"pid":"28b5581a-9a5d-4272-92c7-e175d081e4f3","full":4.5},"geometry":{"type":"Polygon","coordinates":[[[136.09941,36.03791],[136.09903,36.0373],[136.09886,36.03737],[136.09924,36.03798],[136.09941,36.03791]]]}},{"type":"Feature","properties":{"pid":"5bb1c576-a84b-4f8c-9a62-106d69f331ea","full":6.6},"geometry":{"type":"Polygon","coordinates":[[[136.09963,36.03782],[136.09925,36.03721],[136.09905,36.03729],[136.09942,36.0379],[136.09963,36.03782]]]}},{"type":"Feature","properties":{"pid":"03c4ea1e-3f6c-442d-b7f6-39130dc121ea","full":4.5},"geometry":{"type":"Polygon","coordinates":[[[136.09922,36.03798],[136.09885,36.03738],[136.09868,36.03745],[136.09906,36.03805],[136.09922,36.03798]]]}},{"type":"Feature","properties":{"pid":"857586e8-50b1-46ae-9386-0f8a10cc762f","full":6.2},"geometry":{"type":"Polygon","coordinates":[[[136.09903,36.03807],[136.09866,36.03747],[136.09863,36.03747],[136.09846,36.03754],[136.09884,36.03814],[136.09903,36.03807]]]}},{"type":"Feature","properties":{"pid":"cfd7e332-3725-4651-8a4c-a6ef8f05647e","full":4.8},"geometry":{"type":"Polygon","coordinates":[[[136.09875,36.03816],[136.09839,36.03757],[136.09829,36.03761],[136.09825,36.03761],[136.0982,36.03763],[136.09859,36.03824],[136.09873,36.03818],[136.09875,36.03816]]]}},{"type":"Feature","properties":{"pid":"d31c7f7e-2192-4b33-970d-c686b4fee632","full":5.7},"geometry":{"type":"Polygon","coordinates":[[[136.0986,36.03739],[136.09822,36.03678],[136.09802,36.03686],[136.09842,36.03745],[136.0986,36.03739]]]}},{"type":"Feature","properties":{"pid":"7bc50e1d-5722-497f-b530-8445221d8e98","full":7.7},"geometry":{"type":"Polygon","coordinates":[[[136.09903,36.0372],[136.09865,36.0366],[136.09844,36.03669],[136.09881,36.03729],[136.09903,36.0372]]]}},{"type":"Feature","properties":{"pid":"c069521f-677e-4f16-8202-7eebaa1ec163","full":3.6},"geometry":{"type":"Polygon","coordinates":[[[136.0992,36.03713],[136.09882,36.03654],[136.09866,36.03659],[136.09904,36.03719],[136.0992,36.03713]]]}},{"type":"Feature","properties":{"pid":"f5b66977-3fe1-4152-91a3-141028487abe","full":18.2},"geometry":{"type":"Polygon","coordinates":[[[136.09959,36.03698],[136.09919,36.03635],[136.09902,36.03645],[136.09884,36.03654],[136.09921,36.03712],[136.09959,36.03698]]]}},{"type":"Feature","properties":{"pid":"4b7e5746-68a2-403e-be2d-d7be5957c8ba","full":7.7},"geometry":{"type":"Polygon","coordinates":[[[136.09987,36.03773],[136.09947,36.03711],[136.09926,36.0372],[136.09965,36.03782],[136.09987,36.03773]]]}},{"type":"Feature","properties":{"pid":"2c8eff6a-6c54-447d-9d75-1d468cc9c6c9","full":2.3},"geometry":{"type":"Polygon","coordinates":[[[136.10002,36.03765],[136.09968,36.03711],[136.0996,36.03715],[136.09955,36.03708],[136.09949,36.0371],[136.09989,36.03771],[136.10002,36.03765]]]}},{"type":"Feature","properties":{"pid":"8d48a4b4-79eb-4f8c-8e05-35d34fe19876","full":7.1},"geometry":{"type":"Polygon","coordinates":[[[136.0994,36.03624],[136.09932,36.03621],[136.09929,36.03622],[136.09921,36.03634],[136.09961,36.03697],[136.09977,36.03691],[136.09979,36.03688],[136.0994,36.03624]]]}},{"type":"Feature","properties":{"pid":"4aeac7bf-392d-42fb-a1ae-ae03e783b3ba","full":5.4},"geometry":{"type":"Polygon","coordinates":[[[136.09962,36.03622],[136.09956,36.03621],[136.09942,36.03624],[136.09942,36.03626],[136.09981,36.03688],[136.09999,36.03681],[136.09962,36.03622]]]}},{"type":"Feature","properties":{"pid":"bf70ba4f-c2f4-436c-a755-2203f6cd88d6","full":6.4},"geometry":{"type":"Polygon","coordinates":[[[136.09977,36.03623],[136.09965,36.03621],[136.10001,36.0368],[136.10024,36.03671],[136.10024,36.03669],[136.10002,36.03634],[136.09977,36.03623]]]}},{"type":"Feature","properties":{"pid":"a5f94979-7d8c-4101-9e3c-ec31c04aaaa9","full":4.1},"geometry":{"type":"Polygon","coordinates":[[[136.10012,36.03599],[136.09965,36.03581],[136.09962,36.03582],[136.09968,36.03588],[136.09979,36.03603],[136.09978,36.03609],[136.09973,36.03616],[136.1,36.03627],[136.10012,36.03599]]]}},{"type":"Feature","properties":{"pid":"59399af2-9e9e-49be-bcd6-a832f5671823","full":17.3},"geometry":{"type":"Polygon","coordinates":[[[136.1003,36.0356],[136.10016,36.03554],[136.10003,36.03554],[136.09963,36.03542],[136.09951,36.03547],[136.09953,36.03558],[136.09953,36.03572],[136.09959,36.03578],[136.10014,36.03598],[136.1003,36.0356]]]}}],"precision":5}