{"type":"FeatureCollection","features":[{"type":"Feature","properties":{"pid":"e4ff6c2f-97bb-40e0-b680-dd602a5830c0","full":1.2},"geometry":{"type":"Polygon","coordinates":[[[136.17466,36.10421],[136.17451,36.10447],[136.17463,36.10453],[136.17483,36.10428],[136.17466,36.10421]]]}},{"type":"Feature","properties":{"pid":"6d370c3b-3c89-4444-80dc-5570a88feff7","full":0.7},"geometry":{"type":"Polygon","coordinates":[[[136.17466,36.10458],[136.17443,36.10448],[136.17437,36.10461],[136.17458,36.1047],[136.17466,36.10458]]]}},{"type":"Feature","properties":{"pid":"3e97922f-623e-4e7c-8bec-efcabc2933e9","full":6.6},"geometry":{"type":"Polygon","coordinates":[[[136.17458,36.10502],[136.17465,36.10503],[136.17474,36.10508],[136.17498,36.10475],[136.17467,36.1046],[136.17448,36.10489],[136.17454,36.10492],[136.17451,36.10498],[136.17458,36.10502]]]}},{"type":"Feature","properties":{"pid":"b851df16-0a79-431a-88f9-8fda9a7bafb7","full":5.4},"geometry":{"type":"Polygon","coordinates":[[[136.15461,36.10327],[136.15441,36.10322],[136.15413,36.10357],[136.15428,36.10369],[136.15449,36.10355],[136.15457,36.10346],[136.15455,36.10337],[136.15461,36.10327]]]}},{"type":"Feature","properties":{"pid":"8180663f-2682-453f-b81d-6966823f78b5","full":4.9},"geometry":{"type":"Polygon","coordinates":[[[136.15399,36.10275],[136.15384,36.10272],[136.15369,36.1029],[136.15386,36.10324],[136.15393,36.10328],[136.154,36.10326],[136.15399,36.10275]]]}},{"type":"Feature","properties":{"pid":"6ba290ad-8013-4153-9133-a2e26c11719f","full":3.3},"geometry":{"type":"Polygon","coordinates":[[[136.15421,36.10275],[136.15415,36.1027],[136.15409,36.10272],[136.15407,36.10277],[136.15406,36.10324],[136.15411,36.10325],[136.15418,36.10319],[136.15423,36.10313],[136.15427,36.1031],[136.1543,36.10305],[136.15426,36.10284],[136.15421,36.10275]]]}},{"type":"Feature","properties":{"pid":"6c90e3b7-e516-4cbf-8a07-879021c99400","full":4.5},"geometry":{"type":"Polygon","coordinates":[[[136.15462,36.10278],[136.15438,36.10272],[136.15445,36.10315],[136.15465,36.10319],[136.15469,36.10315],[136.15469,36.10305],[136.15462,36.10278]]]}},{"type":"Feature","properties":{"pid":"86d5d696-4556-41d1-a1e9-1f0b926df2d4","full":0.5},"geometry":{"type":"Polygon","coordinates":[[[136.16692,36.1011],[136.16687,36.10111],[136.16676,36.10113],[136.16676,36.1013],[136.16686,36.10134],[136.16698,36.10111],[136.16692,36.1011]]]}},{"type":"Feature","properties":{"pid":"df30c090-6583-490e-81eb-7ed13e3a2615","full":5.9},"geometry":{"type":"Polygon","coordinates":[[[136.1569,36.09768],[136.15686,36.09764],[136.15673,36.09756],[136.1566,36.09744],[136.15653,36.09743],[136.1564,36.09747],[136.15623,36.09756],[136.15623,36.09759],[136.15627,36.09767],[136.15633,36.09773],[136.15655,36.09767],[136.15658,36.09768],[136.1566,36.09776],[136.15665,36.09776],[136.15681,36.09773],[136.15689,36.0977],[136.1569,36.09768]]]}},{"type":"Feature","properties":{"pid":"49c1b1a5-0905-45ca-b45b-a8efd30b4b86","full":1.0},"geometry":{"type":"Polygon","coordinates":[[[136.15295,36.09536],[136.15257,36.09523],[136.15255,36.09536],[136.15289,36.09548],[136.15295,36.09536]]]}},{"type":"Feature","properties":{"pid":"f505b7ad-3370-48eb-87af-7a3e22f7d5f6","full":0.7},"geometry":{"type":"Polygon","coordinates":[[[136.15274,36.09597],[136.15255,36.09571],[136.15251,36.09574],[136.15247,36.0959],[136.15263,36.096],[136.15274,36.09597]]]}},{"type":"Feature","properties":{"pid":"b1f848b5-737a-49fc-b9bf-99a2e748ca1f","full":5.0},"geometry":{"type":"Polygon","coordinates":[[[136.15311,36.09572],[136.15321,36.09578],[136.15324,36.09576],[136.15326,36.09565],[136.15311,36.09548],[136.15299,36.0954],[136.15279,36.0957],[136.15288,36.09583],[136.15311,36.09572]]]}},{"type":"Feature","properties":{"pid":"d223274d-68b9-4936-b6a9-33d6510a71ee","full":3.2},"geometry":{"type":"Polygon","coordinates":[[[136.15316,36.09582],[136.1531,36.09576],[136.15284,36.09588],[136.15288,36.09595],[136.15288,36.09599],[136.15269,36.09605],[136.15268,36.09607],[136.15267,36.0961],[136.15273,36.09614],[136.15287,36.09616],[136.15297,36.09613],[136.15309,36.09599],[136.15312,36.09592],[136.15314,36.09589],[136.15316,36.09582]]]}},{"type":"Feature","properties":{"pid":"22efc9dc-bbe4-4cea-96cd-9838b6f187fc","full":1.1},"geometry":{"type":"Polygon","coordinates":[[[136.15223,36.09609],[136.15213,36.09609],[136.15209,36.09618],[136.15201,36.09629],[136.15203,36.0963],[136.15204,36.09631],[136.15202,36.09634],[136.1522,36.09639],[136.15219,36.09636],[136.15222,36.09634],[136.15225,36.09611],[136.15224,36.0961],[136.15223,36.09609]]]}},{"type":"Feature","properties":{"pid":"ca9c2833-fb4f-4923-8e87-9862ae011dd6","full":0.6},"geometry":{"type":"Polygon","coordinates":[[[136.15196,36.09664],[136.15194,36.09658],[136.15176,36.09658],[136.15173,36.09662],[136.15172,36.09667],[136.15176,36.09671],[136.15181,36.09672],[136.15193,36.09682],[136.15196,36.09681],[136.15193,36.09672],[136.15196,36.09664]]]}},{"type":"Feature","properties":{"pid":"0802bf6c-0208-43bf-aa2e-d93b67fdc738","full":5.6},"geometry":{"type":"Polygon","coordinates":[[[136.15204,36.09711],[136.15202,36.09707],[136.15194,36.09696],[136.15189,36.09685],[136.15182,36.09678],[136.15174,36.09674],[136.1517,36.09679],[136.15167,36.09679],[136.15156,36.09673],[136.15155,36.09674],[136.15149,36.09686],[136.15168,36.09708],[136.15177,36.09707],[136.15192,36.09712],[136.15197,36.09716],[136.15202,36.09714],[136.15204,36.09711]]]}}],"precision":5}