{"type":"FeatureCollection","features":[{"type":"Feature","properties":{"pid":"232d8069-7132-44ce-adbf-47bd412d8dff","full":1.0},"geometry":{"type":"Polygon","coordinates":[[[136.04701,35.8911],[136.047,35.89096],[136.04696,35.89097],[136.04677,35.89107],[136.04673,35.89109],[136.04669,35.89116],[136.04668,35.89122],[136.04673,35.89126],[136.04692,35.89114],[136.047,35.89111],[136.04701,35.8911]]]}},{"type":"Feature","properties":{"pid":"91d51f6a-b472-48b1-ab75-29fce93317bb","full":2.0},"geometry":{"type":"Polygon","coordinates":[[[136.04639,35.8911],[136.04655,35.89091],[136.04649,35.89087],[136.04638,35.89086],[136.04623,35.89085],[136.04618,35.891],[136.04639,35.8911]]]}},{"type":"Feature","properties":{"pid":"fda41f0d-1cc3-4ab1-bed1-ff4a1c30821a","full":1.1},"geometry":{"type":"Polygon","coordinates":[[[136.04671,35.89097],[136.04659,35.89091],[136.04657,35.89092],[136.04641,35.89112],[136.04653,35.89118],[136.04658,35.89122],[136.0466,35.89122],[136.04664,35.89109],[136.04668,35.89104],[136.04673,35.891],[136.04671,35.89097]]]}},{"type":"Feature","properties":{"pid":"fa8300d9-c8b9-4d00-95b4-95bd75911ae5","full":1.2},"geometry":{"type":"Polygon","coordinates":[[[136.04853,35.89113],[136.04869,35.89115],[136.0487,35.89115],[136.04876,35.8909],[136.04857,35.89086],[136.04853,35.89113]]]}},{"type":"Feature","properties":{"pid":"57b054d1-33ac-4214-b335-d9b2834825b0","full":2.9},"geometry":{"type":"Polygon","coordinates":[[[136.04907,35.8912],[136.04908,35.89122],[136.04915,35.89123],[136.04934,35.89129],[136.04935,35.89129],[136.04939,35.89102],[136.04928,35.891],[136.04918,35.89099],[136.0491,35.89098],[136.04907,35.8912]]]}},{"type":"Feature","properties":{"pid":"d4b63501-ab85-4fa8-aba8-77a03fcd11b4","full":3.6},"geometry":{"type":"Polygon","coordinates":[[[136.04874,35.89116],[136.04881,35.89119],[136.0489,35.89124],[136.04903,35.89122],[136.04905,35.89121],[136.04908,35.891],[136.04906,35.89099],[136.04906,35.89097],[136.04896,35.89095],[136.04878,35.89092],[136.04874,35.89116]]]}},{"type":"Feature","properties":{"pid":"f5942af2-f79f-4d81-bb59-5ace671461f3","full":3.6},"geometry":{"type":"Polygon","coordinates":[[[136.04807,35.89112],[136.04814,35.8911],[136.04838,35.89111],[136.04843,35.89083],[136.04832,35.89082],[136.04825,35.89083],[136.04812,35.89088],[136.04811,35.89089],[136.04807,35.89112]]]}},{"type":"Feature","properties":{"pid":"8f4188b6-ef23-4eb9-82e5-353f9382b887","full":1.4},"geometry":{"type":"Polygon","coordinates":[[[136.04783,35.89097],[136.04785,35.8911],[136.04791,35.89118],[136.04794,35.89118],[136.04803,35.89114],[136.04804,35.89113],[136.04808,35.89091],[136.04806,35.89091],[136.04792,35.89095],[136.04785,35.89094],[136.04783,35.89097]]]}},{"type":"Feature","properties":{"pid":"73f00d4c-d919-4792-9f4b-2705d48ed1e7","full":0.5},"geometry":{"type":"Polygon","coordinates":[[[136.04767,35.89098],[136.04769,35.89111],[136.04771,35.89116],[136.04785,35.89118],[136.04788,35.89118],[136.04784,35.89112],[136.04781,35.89104],[136.04781,35.891],[136.04783,35.89094],[136.0478,35.89092],[136.04767,35.89092],[136.04767,35.89098]]]}},{"type":"Feature","properties":{"pid":"383349f0-17a4-4129-80b8-75501efdab23","full":1.3},"geometry":{"type":"Polygon","coordinates":[[[136.04736,35.8909],[136.0474,35.89104],[136.0475,35.89108],[136.04753,35.8911],[136.04756,35.89113],[136.04766,35.89115],[136.04763,35.89092],[136.04736,35.8909]]]}},{"type":"Feature","properties":{"pid":"168b8028-bdd7-4a94-8f2a-537074f0d770","full":1.0},"geometry":{"type":"Polygon","coordinates":[[[136.04705,35.89094],[136.04706,35.89109],[136.04717,35.89105],[136.04727,35.89104],[136.04737,35.89104],[136.04735,35.89098],[136.04733,35.89091],[136.04727,35.89089],[136.04715,35.8909],[136.04705,35.89094]]]}},{"type":"Feature","properties":{"pid":"1120f02a-06ae-4729-9557-4b5134e84ccb","full":5.1},"geometry":{"type":"Polygon","coordinates":[[[136.04938,35.89132],[136.04964,35.89144],[136.04966,35.89141],[136.04973,35.89104],[136.04967,35.89103],[136.04942,35.89102],[136.04937,35.8913],[136.04938,35.89132]]]}},{"type":"Feature","properties":{"pid":"f5a2812a-f378-4bbb-8b7b-e6484dd35576","full":5.7},"geometry":{"type":"Polygon","coordinates":[[[136.0497,35.89144],[136.04992,35.89152],[136.05001,35.89161],[136.05003,35.89161],[136.05005,35.89161],[136.04995,35.89108],[136.04992,35.89106],[136.04976,35.89105],[136.04975,35.89107],[136.04969,35.89142],[136.0497,35.89144]]]}},{"type":"Feature","properties":{"pid":"1842b8aa-677b-471a-90f7-6a87eca5bcab","full":2.3},"geometry":{"type":"Polygon","coordinates":[[[136.04816,35.90646],[136.04818,35.90659],[136.04846,35.90656],[136.04848,35.90654],[136.04845,35.90631],[136.04828,35.90637],[136.04816,35.90646]]]}},{"type":"Feature","properties":{"pid":"5be18d24-34cf-40e4-90a0-ee25597643b3","full":3.5},"geometry":{"type":"Polygon","coordinates":[[[136.04849,35.9063],[136.04852,35.90653],[136.04878,35.9065],[136.04881,35.90648],[136.04875,35.90616],[136.04862,35.90622],[136.04849,35.9063]]]}},{"type":"Feature","properties":{"pid":"4545dfd5-96cd-4046-92a5-28b2c21aa1d3","full":5.5},"geometry":{"type":"Polygon","coordinates":[[[136.04878,35.90615],[136.04886,35.90646],[136.04902,35.90641],[136.04916,35.90636],[136.0491,35.90603],[136.04907,35.90603],[136.04893,35.90606],[136.04886,35.90609],[136.04878,35.90615]]]}},{"type":"Feature","properties":{"pid":"406911ef-49cf-44c1-9bcf-94f4ca826857","full":5.0},"geometry":{"type":"Polygon","coordinates":[[[136.04912,35.90597],[136.04917,35.90633],[136.04919,35.90632],[136.0492,35.90635],[136.04946,35.90626],[136.0494,35.90594],[136.0493,35.90593],[136.04912,35.90597]]]}},{"type":"Feature","properties":{"pid":"09b719c6-4e6f-4cf2-aefb-35d87737cc16","full":3.1},"geometry":{"type":"Polygon","coordinates":[[[136.04976,35.90588],[136.04981,35.90616],[136.05007,35.90614],[136.05003,35.90586],[136.04994,35.90586],[136.04976,35.90588]]]}},{"type":"Feature","properties":{"pid":"9190abf9-62f1-498f-8d3a-d05d9b5ef10a","full":3.8},"geometry":{"type":"Polygon","coordinates":[[[136.04943,35.90593],[136.04949,35.90623],[136.04976,35.90619],[136.04972,35.90589],[136.04943,35.90593]]]}},{"type":"Feature","properties":{"pid":"ea4b9570-8ad0-407e-9e03-cb67524e7aeb","full":1.5},"geometry":{"type":"Polygon","coordinates":[[[136.04999,35.90322],[136.05012,35.90322],[136.05016,35.90321],[136.0501,35.90309],[136.05005,35.90287],[136.05003,35.90276],[136.04985,35.9028],[136.04992,35.90298],[136.04999,35.90322]]]}},{"type":"Feature","properties":{"pid":"7040da5f-e269-454a-8563-dbd88a2da8e4","full":4.1},"geometry":{"type":"Polygon","coordinates":[[[136.04972,35.90316],[136.04994,35.90323],[136.04996,35.90322],[136.04982,35.90281],[136.04951,35.90292],[136.04951,35.90293],[136.04972,35.90316]]]}},{"type":"Feature","properties":{"pid":"f13866cb-e94e-406f-aaad-e2b8fd91cdc2","full":1.8},"geometry":{"type":"Polygon","coordinates":[[[136.04929,35.90306],[136.04944,35.9032],[136.04957,35.90319],[136.04966,35.90319],[136.04966,35.90317],[136.04948,35.90295],[136.04929,35.90299],[136.04927,35.90301],[136.04929,35.90306]]]}},{"type":"Feature","properties":{"pid":"d4009d5d-57b0-45b7-969b-568d54dae43a","full":2.6},"geometry":{"type":"Polygon","coordinates":[[[136.04893,35.90306],[136.0491,35.90325],[136.04932,35.90322],[136.04935,35.9032],[136.04924,35.90298],[136.04893,35.90306]]]}},{"type":"Feature","properties":{"pid":"ed32753a-0d6c-4b7d-bcda-b6e09a2fbdfb","full":6.2},"geometry":{"type":"Polygon","coordinates":[[[136.04734,35.90154],[136.04739,35.90155],[136.04743,35.90154],[136.04771,35.9014],[136.04815,35.90122],[136.04832,35.90109],[136.04833,35.90108],[136.04827,35.90108],[136.04798,35.90112],[136.04783,35.90118],[136.04775,35.90123],[136.04754,35.90124],[136.04747,35.90127],[136.04743,35.90131],[136.04734,35.9015],[136.04733,35.90153],[136.04734,35.90154]]]}},{"type":"Feature","properties":{"pid":"68bc5607-c982-4b81-840c-a0910a441464","full":1.6},"geometry":{"type":"Polygon","coordinates":[[[136.04907,35.90023],[136.04898,35.90005],[136.04887,35.90004],[136.04881,35.90006],[136.04876,35.90009],[136.04886,35.9003],[136.04907,35.90023]]]}},{"type":"Feature","properties":{"pid":"8f53b377-acd2-4fd4-888a-69217a7223ce","full":1.3},"geometry":{"type":"Polygon","coordinates":[[[136.04928,35.90038],[136.04938,35.90038],[136.04941,35.90041],[136.04947,35.90039],[136.04953,35.90036],[136.04953,35.90032],[136.04944,35.90021],[136.04939,35.90018],[136.04921,35.90024],[136.0492,35.90026],[136.04928,35.90038]]]}},{"type":"Feature","properties":{"pid":"52af99f7-48b2-4e70-8834-2c00a57eb11f","full":3.6},"geometry":{"type":"Polygon","coordinates":[[[136.04839,35.90042],[136.04843,35.90044],[136.04848,35.90044],[136.04855,35.90042],[136.04875,35.90035],[136.04877,35.90032],[136.0487,35.90015],[136.04867,35.90014],[136.04834,35.90026],[136.04839,35.90042]]]}},{"type":"Feature","properties":{"pid":"f550f1e4-8390-4e71-a9cc-3d5a8b246c2f","full":0.9},"geometry":{"type":"Polygon","coordinates":[[[136.04844,35.90086],[136.04853,35.90083],[136.04856,35.90079],[136.04856,35.90076],[136.04841,35.90053],[136.04835,35.90056],[136.04831,35.90063],[136.04844,35.90086]]]}},{"type":"Feature","properties":{"pid":"c28392b1-2f9d-4725-b95d-135af016a645","full":1.2},"geometry":{"type":"Polygon","coordinates":[[[136.04989,35.90017],[136.04994,35.90014],[136.05002,35.90011],[136.05003,35.89996],[136.04987,35.89988],[136.04985,35.89991],[136.04981,35.8999],[136.0498,35.89992],[136.04986,35.90014],[136.04988,35.90016],[136.04989,35.90017]]]}},{"type":"Feature","properties":{"pid":"a88e9af9-30d4-4a60-be9e-ba64cedccffb","full":15.0},"geometry":{"type":"Polygon","coordinates":[[[136.04958,35.89947],[136.04955,35.89958],[136.04957,35.8996],[136.04982,35.89974],[136.04989,35.89977],[136.04992,35.89977],[136.0501,35.89932],[136.05012,35.89925],[136.05012,35.89923],[136.04994,35.89915],[136.04985,35.89913],[136.04978,35.89911],[136.04975,35.89912],[136.04969,35.89924],[136.04967,35.89926],[136.04958,35.89947]]]}},{"type":"Feature","properties":{"pid":"a838060d-9603-4c40-b3d3-fa4f2d57ed27","full":13.5},"geometry":{"type":"Polygon","coordinates":[[[136.04895,35.89931],[136.04945,35.89955],[136.04949,35.89951],[136.04957,35.89935],[136.04965,35.89912],[136.04964,35.89911],[136.04939,35.8991],[136.04928,35.89909],[136.04905,35.89904],[136.04894,35.89926],[136.04893,35.89929],[136.04895,35.89931]]]}},{"type":"Feature","properties":{"pid":"1f344c86-deef-455b-882e-3bb4c3548edd","full":1.7},"geometry":{"type":"Polygon","coordinates":[[[136.04871,35.89921],[136.04886,35.89931],[136.04888,35.8993],[136.0489,35.89928],[136.04901,35.89904],[136.04884,35.89897],[136.04872,35.89919],[136.04871,35.89921]]]}},{"type":"Feature","properties":{"pid":"63604e52-ab35-4cdf-bdd1-d5ab10ae76e1","full":8.7},"geometry":{"type":"Polygon","coordinates":[[[136.04869,35.89919],[136.0488,35.89898],[136.0488,35.89897],[136.04828,35.89871],[136.0482,35.89865],[136.04804,35.89872],[136.04804,35.89873],[136.0481,35.89881],[136.0482,35.89891],[136.04836,35.89902],[136.04864,35.89918],[136.04869,35.89919]]]}},{"type":"Feature","properties":{"pid":"bb0e9139-c0ff-4fbb-9574-3426023b6a04","full":1.2},"geometry":{"type":"Polygon","coordinates":[[[136.04842,35.89866],[136.04882,35.89884],[136.04887,35.89886],[136.04888,35.89885],[136.04884,35.89868],[136.04881,35.89866],[136.04864,35.89861],[136.04842,35.89866]]]}},{"type":"Feature","properties":{"pid":"d940b898-d159-4a30-8e87-d12bb970062f","full":3.2},"geometry":{"type":"Polygon","coordinates":[[[136.04803,35.89871],[136.04817,35.89864],[136.04809,35.89846],[136.04801,35.89836],[136.04792,35.89829],[136.04789,35.89827],[136.04781,35.89826],[136.04773,35.89826],[136.04771,35.89826],[136.04771,35.89827],[136.04783,35.89844],[136.048,35.89869],[136.04801,35.89871],[136.04803,35.89871]]]}},{"type":"Feature","properties":{"pid":"a3352732-4284-4599-8499-a733ed74f938","full":3.6},"geometry":{"type":"Polygon","coordinates":[[[136.04762,35.89811],[136.04771,35.89813],[136.04785,35.89813],[136.04789,35.8981],[136.04768,35.89785],[136.04757,35.89778],[136.0474,35.89787],[136.04739,35.8979],[136.04746,35.89794],[136.04762,35.89811]]]}},{"type":"Feature","properties":{"pid":"73f7c451-08f9-41cf-a7c1-83e5f05d803b","full":3.1},"geometry":{"type":"Polygon","coordinates":[[[136.04736,35.89787],[136.04757,35.89776],[136.0475,35.89773],[136.0473,35.89754],[136.04723,35.89747],[136.04718,35.8974],[136.04715,35.89739],[136.04706,35.89739],[136.04707,35.89747],[136.04708,35.89755],[136.04711,35.8976],[136.04717,35.89766],[136.04723,35.89771],[136.04729,35.89777],[136.04734,35.89786],[136.04736,35.89787]]]}},{"type":"Feature","properties":{"pid":"e73877f4-97a6-4493-8766-5682fc362431","full":7.2},"geometry":{"type":"Polygon","coordinates":[[[136.04778,35.89695],[136.04766,35.89685],[136.04753,35.89663],[136.04745,35.89666],[136.04733,35.89668],[136.04734,35.89678],[136.04735,35.89681],[136.04732,35.89689],[136.04731,35.89697],[136.04738,35.89707],[136.04746,35.89715],[136.04778,35.89695]]]}},{"type":"Feature","properties":{"pid":"41681e88-1201-463f-9573-14020f886d85","full":3.8},"geometry":{"type":"Polygon","coordinates":[[[136.04786,35.89749],[136.04789,35.89746],[136.04789,35.89727],[136.04792,35.89718],[136.04789,35.89708],[136.04774,35.89713],[136.04761,35.89721],[136.04763,35.89727],[136.04765,35.89743],[136.04769,35.89746],[136.04786,35.89749]]]}},{"type":"Feature","properties":{"pid":"9b2ca90b-5751-4b08-9bac-7dd6e22b571f","full":0.8},"geometry":{"type":"Polygon","coordinates":[[[136.0481,35.89498],[136.04814,35.89505],[136.04828,35.89508],[136.04831,35.89501],[136.04833,35.89494],[136.04819,35.89487],[136.04817,35.89487],[136.04815,35.89488],[136.0481,35.89498]]]}},{"type":"Feature","properties":{"pid":"802f3497-f1fd-4c21-bf39-2f2a15bf4877","full":3.6},"geometry":{"type":"Polygon","coordinates":[[[136.04862,35.89474],[136.04848,35.89454],[136.04824,35.89462],[136.04824,35.89469],[136.04826,35.89476],[136.04824,35.8948],[136.04824,35.89482],[136.04837,35.89489],[136.04862,35.89474]]]}},{"type":"Feature","properties":{"pid":"9e17ff86-abf8-4c44-8dbb-d6d175e7bd02","full":0.6},"geometry":{"type":"Polygon","coordinates":[[[136.04959,35.89496],[136.04928,35.89493],[136.04927,35.89499],[136.04928,35.89501],[136.0493,35.89504],[136.04963,35.89508],[136.04963,35.89502],[136.04962,35.89497],[136.04959,35.89496]]]}},{"type":"Feature","properties":{"pid":"3a897011-7c92-4c7d-ad9b-5e7bef671676","full":1.5},"geometry":{"type":"Polygon","coordinates":[[[136.04853,35.89516],[136.04863,35.89518],[136.04873,35.89518],[136.04879,35.89516],[136.04887,35.89511],[136.04893,35.89505],[136.04891,35.89502],[136.04875,35.89502],[136.04853,35.89504],[136.04851,35.89506],[136.0485,35.8951],[136.04851,35.89515],[136.04853,35.89516]]]}},{"type":"Feature","properties":{"pid":"3b97b388-60c7-469b-9a6f-1a27e8b361e1","full":1.6},"geometry":{"type":"Polygon","coordinates":[[[136.04924,35.89577],[136.04944,35.89578],[136.04957,35.8958],[136.04987,35.89571],[136.0498,35.89568],[136.04974,35.89568],[136.04961,35.89566],[136.04937,35.8956],[136.04924,35.89577]]]}},{"type":"Feature","properties":{"pid":"164c1580-4a5c-4e50-8319-b7a23f446f00","full":10.8},"geometry":{"type":"Polygon","coordinates":[[[136.04945,35.89553],[136.04991,35.89565],[136.04995,35.89523],[136.04946,35.89519],[136.04944,35.89529],[136.04943,35.8955],[136.04944,35.89552],[136.04945,35.89553]]]}},{"type":"Feature","properties":{"pid":"df14e23c-e0cc-4b35-834c-5031f28bd5a0","full":10.9},"geometry":{"type":"Polygon","coordinates":[[[136.04924,35.89441],[136.04929,35.89452],[136.04932,35.89452],[136.04935,35.89458],[136.04934,35.8946],[136.04937,35.89465],[136.0494,35.89467],[136.04945,35.89469],[136.04948,35.89465],[136.04954,35.89467],[136.05016,35.89467],[136.05018,35.89454],[136.05018,35.89449],[136.05014,35.89444],[136.04924,35.89441]]]}},{"type":"Feature","properties":{"pid":"3864a29e-6b89-4066-9c96-a98c4fff7991","full":12.5},"geometry":{"type":"Polygon","coordinates":[[[136.04912,35.89416],[136.04924,35.89439],[136.04926,35.8944],[136.05009,35.89441],[136.05011,35.89441],[136.05012,35.8944],[136.04999,35.89422],[136.04997,35.89418],[136.04994,35.89415],[136.04917,35.89414],[136.04912,35.89416]]]}},{"type":"Feature","properties":{"pid":"a68172da-796d-4b4c-8583-365c7c8c445a","full":12.2},"geometry":{"type":"Polygon","coordinates":[[[136.04904,35.89385],[136.05,35.89388],[136.05001,35.89387],[136.05001,35.8936],[136.04968,35.89358],[136.04951,35.89361],[136.04942,35.89367],[136.04937,35.89369],[136.04931,35.89367],[136.04927,35.89367],[136.04913,35.89371],[136.0491,35.89372],[136.04905,35.89378],[136.04903,35.89383],[136.04904,35.89385]]]}},{"type":"Feature","properties":{"pid":"7b1e971b-fffd-4dd5-9de0-a638c0d674f4","full":12.3},"geometry":{"type":"Polygon","coordinates":[[[136.04903,35.89387],[136.04903,35.89389],[136.04908,35.89408],[136.04909,35.89409],[136.04915,35.89409],[136.04917,35.8941],[136.04918,35.89412],[136.04996,35.89414],[136.04996,35.89404],[136.04996,35.89398],[136.05001,35.8939],[136.04903,35.89387]]]}},{"type":"Feature","properties":{"pid":"4af912e1-a9c5-4884-b244-5c01b2bdaf36","full":7.3},"geometry":{"type":"Polygon","coordinates":[[[136.04872,35.89381],[136.04883,35.8938],[136.04887,35.89378],[136.04893,35.89365],[136.04897,35.8936],[136.04906,35.89353],[136.04903,35.89349],[136.04899,35.89344],[136.0489,35.89336],[136.0487,35.89333],[136.04866,35.89332],[136.04862,35.89345],[136.0486,35.8936],[136.04861,35.89365],[136.04867,35.89367],[136.04871,35.89368],[136.04871,35.89377],[136.04872,35.89381]]]}},{"type":"Feature","properties":{"pid":"21300ec0-d978-469e-a548-b20523bfd1e6","full":4.7},"geometry":{"type":"Polygon","coordinates":[[[136.04262,35.89589],[136.04265,35.89585],[136.04267,35.89581],[136.04266,35.89575],[136.04258,35.8957],[136.04249,35.89567],[136.04198,35.89567],[136.04197,35.89568],[136.0421,35.89583],[136.04262,35.89589]]]}},{"type":"Feature","properties":{"pid":"aec7a7d1-97a6-4e39-afa2-f018c4b43774","full":4.4},"geometry":{"type":"Polygon","coordinates":[[[136.04218,35.89547],[136.04197,35.89537],[136.04182,35.89532],[136.04178,35.89532],[136.04175,35.89533],[136.04174,35.89534],[136.04173,35.89536],[136.04181,35.8955],[136.04188,35.89559],[136.04192,35.89562],[136.0424,35.89563],[136.04218,35.89547]]]}},{"type":"Feature","properties":{"pid":"5482bbcf-b6a8-4f90-9996-3346347d02ca","full":6.5},"geometry":{"type":"Polygon","coordinates":[[[136.04036,35.89553],[136.04045,35.8955],[136.0405,35.8954],[136.04059,35.89512],[136.04058,35.89507],[136.04049,35.89498],[136.04033,35.8949],[136.04031,35.89498],[136.04032,35.89519],[136.04028,35.89528],[136.04023,35.89533],[136.04021,35.8954],[136.0403,35.89548],[136.04033,35.89551],[136.04036,35.89553]]]}},{"type":"Feature","properties":{"pid":"93a407cf-57fa-4767-a88f-a09866bf15c0","full":1.1},"geometry":{"type":"Polygon","coordinates":[[[136.03998,35.89477],[136.04008,35.89463],[136.0398,35.89454],[136.03977,35.89466],[136.03978,35.89469],[136.03984,35.89472],[136.03998,35.89477]]]}},{"type":"Feature","properties":{"pid":"dc45dbb0-0aa7-40dd-b284-216faa02b26e","full":1.5},"geometry":{"type":"Polygon","coordinates":[[[136.04024,35.89504],[136.04029,35.89486],[136.04026,35.89472],[136.04015,35.89466],[136.04004,35.89481],[136.04024,35.89504]]]}},{"type":"Feature","properties":{"pid":"b5895ba1-f986-43c7-a7dd-981fcc046dfd","full":2.4},"geometry":{"type":"Polygon","coordinates":[[[136.04052,35.89549],[136.04063,35.89557],[136.04074,35.89561],[136.04081,35.89537],[136.04065,35.89518],[136.04052,35.89549]]]}},{"type":"Feature","properties":{"pid":"29d07da1-7a77-4652-a6d1-1bcb05082029","full":7.6},"geometry":{"type":"Polygon","coordinates":[[[136.04173,35.89587],[136.04196,35.89584],[136.04199,35.89583],[136.04199,35.89581],[136.04193,35.89574],[136.04189,35.89569],[136.04185,35.89566],[136.04182,35.89566],[136.0413,35.89574],[136.04121,35.89576],[136.04113,35.8958],[136.04101,35.89583],[136.04092,35.89587],[136.04091,35.89588],[136.04091,35.89591],[136.04093,35.89594],[136.04102,35.89597],[136.04106,35.89597],[136.04112,35.89597],[136.04124,35.89594],[136.04147,35.89587],[136.04154,35.89586],[136.04173,35.89587]]]}},{"type":"Feature","properties":{"pid":"77d20972-da3b-4f9b-909f-96c374ee40a9","full":4.3},"geometry":{"type":"Polygon","coordinates":[[[136.04135,35.89612],[136.04185,35.89613],[136.04186,35.89601],[136.04167,35.89592],[136.04158,35.89591],[136.0415,35.89591],[136.04132,35.89596],[136.04135,35.89612]]]}},{"type":"Feature","properties":{"pid":"077ac3fb-1af5-4f39-8063-5e61f8b6e2a1","full":4.0},"geometry":{"type":"Polygon","coordinates":[[[136.04075,35.89631],[136.04105,35.89613],[136.04105,35.8961],[136.04105,35.89608],[136.04102,35.89606],[136.04088,35.89604],[136.04072,35.896],[136.04064,35.896],[136.04051,35.89602],[136.0407,35.89627],[136.04073,35.8963],[136.04075,35.89631]]]}},{"type":"Feature","properties":{"pid":"3fa3a28c-1852-40f4-94b8-d40535f81603","full":6.7},"geometry":{"type":"Polygon","coordinates":[[[136.04091,35.89661],[136.04108,35.89654],[136.04118,35.89649],[136.04121,35.89641],[136.04127,35.89637],[136.04127,35.89622],[136.04125,35.89621],[136.04109,35.89623],[136.04094,35.8963],[136.04071,35.89643],[136.04076,35.89649],[136.04086,35.89658],[136.04091,35.89661]]]}},{"type":"Feature","properties":{"pid":"ee4580ce-fe32-4a8e-a30d-4629c3308c36","full":1.2},"geometry":{"type":"Polygon","coordinates":[[[136.04131,35.89637],[136.04151,35.89636],[136.04161,35.89631],[136.04176,35.89625],[136.04134,35.89618],[136.04131,35.89637]]]}},{"type":"Feature","properties":{"pid":"41dd4805-323c-4f79-a928-66138317505c","full":2.6},"geometry":{"type":"Polygon","coordinates":[[[136.04103,35.89694],[136.04109,35.89693],[136.04121,35.89694],[136.04119,35.89658],[136.04109,35.8966],[136.0409,35.8967],[136.04099,35.89683],[136.04103,35.89694]]]}},{"type":"Feature","properties":{"pid":"dac480d8-cb5f-4c02-9eaf-ac1b3b31b4f3","full":5.0},"geometry":{"type":"Polygon","coordinates":[[[136.04001,35.89708],[136.04016,35.89702],[136.04032,35.89697],[136.04035,35.89693],[136.04038,35.89685],[136.04024,35.89671],[136.03987,35.8969],[136.03987,35.89692],[136.04001,35.89708]]]}},{"type":"Feature","properties":{"pid":"dec54515-5277-40b0-9841-16cf4701f9ee","full":1.0},"geometry":{"type":"Polygon","coordinates":[[[136.03936,35.8972],[136.03942,35.89721],[136.03957,35.89717],[136.03968,35.89719],[136.03984,35.89713],[136.03991,35.89713],[136.03992,35.89712],[136.03991,35.89709],[136.0398,35.89698],[136.03938,35.89717],[136.03935,35.89718],[136.03936,35.8972]]]}},{"type":"Feature","properties":{"pid":"00e34580-cc10-4d22-8512-b3d49b616dcc","full":11.0},"geometry":{"type":"Polygon","coordinates":[[[136.03936,35.89702],[136.03946,35.89697],[136.03978,35.89674],[136.03963,35.89655],[136.03948,35.89655],[136.03933,35.89658],[136.03919,35.89664],[136.03912,35.89667],[136.03911,35.89668],[136.03936,35.89702]]]}},{"type":"Feature","properties":{"pid":"d4500684-5615-4708-8015-59580aba1a5b","full":3.6},"geometry":{"type":"Polygon","coordinates":[[[136.03988,35.89669],[136.04002,35.89655],[136.04005,35.89648],[136.04005,35.89637],[136.04003,35.89632],[136.03996,35.89625],[136.0398,35.8964],[136.03973,35.89643],[136.03971,35.89646],[136.03972,35.8965],[136.03988,35.89669]]]}},{"type":"Feature","properties":{"pid":"0dcf7068-2d57-4770-b12a-dd145f54437d","full":5.7},"geometry":{"type":"Polygon","coordinates":[[[136.04044,35.89685],[136.04065,35.89677],[136.04081,35.89668],[136.04082,35.89666],[136.04075,35.89654],[136.04066,35.89647],[136.04064,35.89647],[136.04027,35.89667],[136.04028,35.89669],[136.04031,35.89673],[136.04044,35.89685]]]}},{"type":"Feature","properties":{"pid":"2645d144-a917-4482-b317-3281fe383c92","full":10.6},"geometry":{"type":"Polygon","coordinates":[[[136.04019,35.89661],[136.04046,35.89647],[136.0407,35.89634],[136.04069,35.89632],[136.04071,35.89631],[136.04051,35.89603],[136.04049,35.89603],[136.04028,35.89613],[136.04021,35.89619],[136.04018,35.89623],[136.04017,35.89632],[136.04018,35.89644],[136.04015,35.89655],[136.04019,35.89661]]]}},{"type":"Feature","properties":{"pid":"b781b6c0-5acc-4c20-807a-84c8142a4628","full":1.0},"geometry":{"type":"Polygon","coordinates":[[[136.03733,35.89745],[136.03735,35.89732],[136.0372,35.89734],[136.03719,35.89731],[136.0371,35.89731],[136.03708,35.89746],[136.03715,35.89746],[136.03717,35.89747],[136.03718,35.8975],[136.03718,35.89754],[136.03734,35.89756],[136.03733,35.89745]]]}},{"type":"Feature","properties":{"pid":"3dfd1294-9350-4eaa-a647-a9ef09b1bed5","full":1.1},"geometry":{"type":"Polygon","coordinates":[[[136.03765,35.89763],[136.03765,35.89747],[136.03735,35.8975],[136.03736,35.89758],[136.03737,35.89759],[136.03743,35.89762],[136.03749,35.89763],[136.03765,35.89763]]]}},{"type":"Feature","properties":{"pid":"f6ae06dc-d18c-4c4a-82ef-686017fba571","full":1.4},"geometry":{"type":"Polygon","coordinates":[[[136.03765,35.89746],[136.03764,35.89729],[136.03737,35.89732],[136.03735,35.89749],[136.03765,35.89746]]]}},{"type":"Feature","properties":{"pid":"5c071de0-69b7-4ffd-95ca-53993fe18d96","full":6.8},"geometry":{"type":"Polygon","coordinates":[[[136.03779,35.89763],[136.03784,35.89764],[136.03798,35.89758],[136.0381,35.89757],[136.03825,35.89756],[136.03828,35.89755],[136.03829,35.89754],[136.03808,35.89727],[136.03805,35.89724],[136.03798,35.89727],[136.03776,35.89729],[136.03779,35.89763]]]}},{"type":"Feature","properties":{"pid":"a31c651b-cacc-4bf9-9d79-74442c10a21f","full":12.2},"geometry":{"type":"Polygon","coordinates":[[[136.03841,35.89755],[136.03878,35.89736],[136.03879,35.89734],[136.03861,35.89707],[136.03857,35.89702],[136.03854,35.89701],[136.0385,35.89701],[136.03847,35.89703],[136.03813,35.8972],[136.03841,35.89755]]]}},{"type":"Feature","properties":{"pid":"4428517c-2cbb-4017-b73d-d5b5dfb03940","full":13.4},"geometry":{"type":"Polygon","coordinates":[[[136.0389,35.8973],[136.03929,35.89706],[136.0393,35.89705],[136.03905,35.89671],[136.03903,35.89671],[136.03901,35.89672],[136.03898,35.89676],[136.03888,35.89684],[136.03866,35.89692],[136.03862,35.89694],[136.0386,35.89697],[136.0386,35.89699],[136.03885,35.8973],[136.03888,35.89731],[136.0389,35.8973]]]}},{"type":"Feature","properties":{"pid":"d7aee380-5e52-41a4-81fc-e64d0dcfa657","full":1.1},"geometry":{"type":"Polygon","coordinates":[[[136.03734,35.89821],[136.03772,35.89774],[136.03749,35.8977],[136.0374,35.89798],[136.03734,35.89806],[136.03729,35.89815],[136.03729,35.89819],[136.03734,35.89821]]]}},{"type":"Feature","properties":{"pid":"be9d0d6e-a13b-4550-b8c8-f5fed38da894","full":1.4},"geometry":{"type":"Polygon","coordinates":[[[136.03706,35.89873],[136.03713,35.8987],[136.03723,35.89852],[136.03727,35.89827],[136.03719,35.89826],[136.03708,35.89843],[136.03703,35.89859],[136.03702,35.8987],[136.03706,35.89873]]]}},{"type":"Feature","properties":{"pid":"a9854371-efb4-4feb-afe5-6be88036051e","full":1.0},"geometry":{"type":"Polygon","coordinates":[[[136.04239,35.89641],[136.04241,35.8962],[136.04217,35.89618],[136.04215,35.89622],[136.04219,35.89626],[136.0422,35.89633],[136.04223,35.89635],[136.04226,35.89638],[136.0423,35.8964],[136.04239,35.89641]]]}},{"type":"Feature","properties":{"pid":"ff16cb48-ca8a-49f0-9bb6-ff7d15b11a5a","full":4.5},"geometry":{"type":"Polygon","coordinates":[[[136.04218,35.89588],[136.04216,35.89589],[136.04217,35.89591],[136.0423,35.89606],[136.04252,35.89609],[136.04293,35.89611],[136.04294,35.8961],[136.04293,35.89605],[136.04274,35.89593],[136.04218,35.89588]]]}},{"type":"Feature","properties":{"pid":"1dd9c28b-6d88-42dd-af57-9eb02b19201d","full":5.0},"geometry":{"type":"Polygon","coordinates":[[[136.04332,35.89625],[136.04288,35.89623],[136.04286,35.89624],[136.04286,35.89629],[136.04287,35.89635],[136.04304,35.89651],[136.04314,35.89656],[136.04318,35.89658],[136.0432,35.89657],[136.04324,35.89652],[136.04332,35.89629],[136.04332,35.89625]]]}},{"type":"Feature","properties":{"pid":"428148b7-ea78-42a7-94e1-47ff3fcee356","full":0.6},"geometry":{"type":"Polygon","coordinates":[[[136.0437,35.89643],[136.04363,35.89626],[136.04352,35.89626],[136.04345,35.89642],[136.04346,35.89642],[136.0437,35.89643]]]}},{"type":"Feature","properties":{"pid":"2ca04d7a-9185-4906-9311-ee3f0d9887d5","full":1.1},"geometry":{"type":"Polygon","coordinates":[[[136.04385,35.89626],[136.04385,35.89628],[136.04387,35.89632],[136.04392,35.89642],[136.04391,35.89648],[136.04406,35.89645],[136.04408,35.89643],[136.0441,35.89641],[136.04413,35.89627],[136.04385,35.89626]]]}},{"type":"Feature","properties":{"pid":"4735e164-6f54-4ab5-a706-8b7a9401742c","full":0.5},"geometry":{"type":"Polygon","coordinates":[[[136.04377,35.89627],[136.04373,35.89626],[136.04367,35.89626],[136.04367,35.89627],[136.04376,35.89652],[136.04377,35.89653],[136.0439,35.89649],[136.0439,35.89644],[136.0439,35.89642],[136.04383,35.89631],[136.04378,35.89632],[136.04377,35.89627]]]}},{"type":"Feature","properties":{"pid":"72cc3cc2-34dd-4765-ab19-d474f6d0977e","full":1.1},"geometry":{"type":"Polygon","coordinates":[[[136.04492,35.89631],[136.04467,35.89628],[136.04459,35.89645],[136.04476,35.89649],[136.04492,35.89634],[136.04492,35.89631]]]}},{"type":"Feature","properties":{"pid":"fbbc4acb-db9d-4206-a60e-a5ce24a5c9ae","full":0.5},"geometry":{"type":"Polygon","coordinates":[[[136.04436,35.89641],[136.0445,35.89644],[136.04452,35.89644],[136.04453,35.89644],[136.04458,35.89631],[136.04457,35.8963],[136.04455,35.89628],[136.04438,35.89628],[136.04436,35.89638],[136.04436,35.89641]]]}},{"type":"Feature","properties":{"pid":"b362393b-7441-451b-94c0-fe31f037a5f6","full":1.3},"geometry":{"type":"Polygon","coordinates":[[[136.04526,35.89635],[136.04565,35.89663],[136.04575,35.89643],[136.04541,35.89634],[136.04527,35.89632],[136.04526,35.89635]]]}},{"type":"Feature","properties":{"pid":"e3261a1c-ea65-4eeb-be77-42fd70e6511f","full":6.9},"geometry":{"type":"Polygon","coordinates":[[[136.0457,35.89666],[136.04597,35.89685],[136.046,35.89684],[136.04603,35.89685],[136.04622,35.89661],[136.04614,35.89655],[136.04594,35.89646],[136.04586,35.89644],[136.0458,35.89644],[136.0457,35.89666]]]}},{"type":"Feature","properties":{"pid":"3d8d9b71-61a7-4d1e-b1af-c3d1fc66d867","full":6.1},"geometry":{"type":"Polygon","coordinates":[[[136.04635,35.89712],[136.04658,35.89691],[136.04627,35.89667],[136.04625,35.89666],[136.04623,35.89666],[136.04606,35.89687],[136.04606,35.89689],[136.04621,35.89699],[136.04635,35.89712]]]}},{"type":"Feature","properties":{"pid":"34129aab-db91-417a-9dc5-e4079bbe0a00","full":3.9},"geometry":{"type":"Polygon","coordinates":[[[136.0461,35.89759],[136.04628,35.89769],[136.0463,35.89769],[136.04654,35.89743],[136.04637,35.89728],[136.04636,35.89729],[136.04633,35.8973],[136.0461,35.89756],[136.04609,35.89758],[136.0461,35.89759]]]}},{"type":"Feature","properties":{"pid":"1964629e-6617-44c8-bbf3-3c650bc31d62","full":7.8},"geometry":{"type":"Polygon","coordinates":[[[136.04701,35.89761],[136.04698,35.89749],[136.04697,35.89736],[136.04697,35.89726],[136.04693,35.89721],[136.0466,35.89699],[136.04646,35.89715],[136.04645,35.89717],[136.04646,35.89719],[136.04674,35.89744],[136.04698,35.89761],[136.047,35.89762],[136.04701,35.89761]]]}},{"type":"Feature","properties":{"pid":"c4213b21-eaa1-4e29-8c59-187e8066bb75","full":1.7},"geometry":{"type":"Polygon","coordinates":[[[136.03562,35.89754],[136.03559,35.89742],[136.03557,35.89741],[136.03508,35.89742],[136.03512,35.89747],[136.03519,35.89751],[136.03531,35.89756],[136.03539,35.89757],[136.03549,35.89756],[136.03562,35.89754]]]}},{"type":"Feature","properties":{"pid":"31d52920-abdd-4fe0-986f-d9ff5c60740f","full":3.4},"geometry":{"type":"Polygon","coordinates":[[[136.03601,35.89759],[136.03624,35.89757],[136.03626,35.89745],[136.03626,35.89739],[136.03622,35.89736],[136.03604,35.89735],[136.03593,35.89736],[136.03589,35.89741],[136.03585,35.89751],[136.03588,35.89754],[136.03596,35.89755],[136.03601,35.89759]]]}},{"type":"Feature","properties":{"pid":"6492d625-7f02-4227-8938-31b557ef91ff","full":5.7},"geometry":{"type":"Polygon","coordinates":[[[136.0364,35.89753],[136.03654,35.89756],[136.03665,35.89753],[136.0368,35.89751],[136.03693,35.8975],[136.03697,35.89746],[136.03699,35.8974],[136.03697,35.89733],[136.03693,35.8973],[136.03638,35.89734],[136.0364,35.89753]]]}},{"type":"Feature","properties":{"pid":"de228394-9016-41e4-884b-f3cd7b41d08f","full":0.8},"geometry":{"type":"Polygon","coordinates":[[[136.0259,35.8909],[136.02582,35.89075],[136.02572,35.8908],[136.0256,35.89083],[136.02569,35.89098],[136.02578,35.89095],[136.0259,35.8909]]]}},{"type":"Feature","properties":{"pid":"99586323-37dd-48c3-9708-384c4a6d09aa","full":1.1},"geometry":{"type":"Polygon","coordinates":[[[136.02565,35.891],[136.02556,35.89084],[136.02531,35.8909],[136.02542,35.89105],[136.0256,35.89102],[136.02565,35.891]]]}},{"type":"Feature","properties":{"pid":"0902f33a-64f3-46f0-bb3d-f8f5cba4f46d","full":1.4},"geometry":{"type":"Polygon","coordinates":[[[136.02537,35.89108],[136.02527,35.89095],[136.0252,35.89101],[136.02517,35.89103],[136.025,35.89106],[136.02509,35.89121],[136.02524,35.89118],[136.02528,35.89117],[136.02537,35.89108]]]}}],"precision":5}