{"type":"FeatureCollection","features":[{"type":"Feature","properties":{"pid":"b1a5683e-e645-4b2f-b625-2bf40b2228f9","full":24.9},"geometry":{"type":"Polygon","coordinates":[[[136.14893,35.84324],[136.1493,35.84347],[136.14943,35.84345],[136.14957,35.84338],[136.14963,35.84332],[136.14973,35.84313],[136.14998,35.84296],[136.14997,35.84292],[136.14989,35.84279],[136.14983,35.8428],[136.14966,35.84287],[136.14958,35.8429],[136.14946,35.84291],[136.1494,35.84291],[136.14935,35.84289],[136.14932,35.84287],[136.14893,35.84324]]]}},{"type":"Feature","properties":{"pid":"1dd3463f-8b6d-43da-a94a-52afa46299a6","full":0.8},"geometry":{"type":"Polygon","coordinates":[[[136.14966,35.84371],[136.14995,35.84314],[136.14987,35.84317],[136.14984,35.8432],[136.14978,35.8433],[136.14966,35.84345],[136.1496,35.84349],[136.1495,35.84353],[136.1495,35.84354],[136.14966,35.84371]]]}},{"type":"Feature","properties":{"pid":"e28321b2-ff4d-4619-8882-de43eb8eafe0","full":4.6},"geometry":{"type":"Polygon","coordinates":[[[136.14967,35.84372],[136.14979,35.84386],[136.15023,35.84301],[136.15016,35.84303],[136.15005,35.84308],[136.14996,35.84314],[136.14967,35.84372]]]}},{"type":"Feature","properties":{"pid":"66b85cd6-3416-4041-a22e-450f63afc7a2","full":10.5},"geometry":{"type":"Polygon","coordinates":[[[136.14896,35.84254],[136.14904,35.8426],[136.14911,35.84268],[136.14934,35.8428],[136.14942,35.84283],[136.14949,35.84283],[136.14965,35.84277],[136.1497,35.8427],[136.14972,35.84265],[136.14948,35.84259],[136.14941,35.84254],[136.1493,35.84241],[136.14929,35.84236],[136.14924,35.84232],[136.14919,35.84232],[136.14913,35.84236],[136.14904,35.84247],[136.14896,35.84254]]]}},{"type":"Feature","properties":{"pid":"0ff3332c-af07-42ad-9d19-73f4aeb80248","full":13.5},"geometry":{"type":"Polygon","coordinates":[[[136.14717,35.8411],[136.14719,35.84106],[136.14723,35.84104],[136.14738,35.84106],[136.14739,35.84105],[136.14745,35.84092],[136.14737,35.84081],[136.14725,35.84067],[136.14714,35.84065],[136.14705,35.84065],[136.14701,35.84066],[136.14682,35.84067],[136.1468,35.8407],[136.14679,35.84076],[136.1468,35.84095],[136.14682,35.84096],[136.14695,35.841],[136.14717,35.8411]]]}},{"type":"Feature","properties":{"pid":"7cbf28fc-06bd-4f9f-b2fd-55265937e6ba","full":7.2},"geometry":{"type":"Polygon","coordinates":[[[136.14846,35.84181],[136.14844,35.84174],[136.14845,35.84172],[136.14837,35.84163],[136.14832,35.84155],[136.14829,35.84152],[136.14821,35.8415],[136.14815,35.84147],[136.14806,35.84133],[136.14802,35.84134],[136.148,35.84136],[136.14798,35.84157],[136.14799,35.84165],[136.14805,35.84175],[136.14812,35.84181],[136.14821,35.84183],[136.14832,35.84184],[136.14843,35.84183],[136.14846,35.84181]]]}},{"type":"Feature","properties":{"pid":"0a300a08-6671-4e0b-80c5-104698757e9d","full":5.7},"geometry":{"type":"Polygon","coordinates":[[[136.14896,35.8425],[136.14908,35.84237],[136.14917,35.8423],[136.14909,35.84229],[136.14906,35.84227],[136.14895,35.84221],[136.14883,35.84209],[136.14877,35.84206],[136.14874,35.84203],[136.14873,35.84185],[136.14867,35.84183],[136.14862,35.84183],[136.14843,35.84187],[136.14842,35.84192],[136.14846,35.84196],[136.14857,35.8421],[136.14865,35.84217],[136.14881,35.84226],[136.14893,35.84248],[136.14896,35.8425]]]}},{"type":"Feature","properties":{"pid":"c8d02f3d-877e-4606-8fa2-d3a4483804a5","full":25.2},"geometry":{"type":"Polygon","coordinates":[[[136.14824,35.84266],[136.1483,35.84265],[136.1487,35.84239],[136.14868,35.84234],[136.14862,35.84231],[136.1485,35.84229],[136.14842,35.84227],[136.14839,35.84225],[136.14837,35.84221],[136.14836,35.84213],[136.14838,35.84206],[136.14838,35.84203],[136.14834,35.842],[136.14829,35.84198],[136.14823,35.84196],[136.14809,35.84194],[136.14805,35.84192],[136.14795,35.84185],[136.14791,35.84178],[136.1478,35.84184],[136.14768,35.84189],[136.14776,35.8421],[136.14787,35.84218],[136.14801,35.84235],[136.14812,35.84248],[136.1482,35.84263],[136.14824,35.84266]]]}},{"type":"Feature","properties":{"pid":"2da4bea4-9971-44f3-a093-9e56cc3b174c","full":15.0},"geometry":{"type":"Polygon","coordinates":[[[136.14698,35.8416],[136.14733,35.84181],[136.14757,35.84198],[136.1476,35.84196],[136.14753,35.84171],[136.14744,35.8413],[136.14743,35.84128],[136.14718,35.84129],[136.14715,35.84127],[136.14688,35.84154],[136.14689,35.84156],[136.14698,35.8416]]]}},{"type":"Feature","properties":{"pid":"d1d6b14e-0859-4a84-9de9-1efff324db7c","full":6.4},"geometry":{"type":"Polygon","coordinates":[[[136.14764,35.84179],[136.14768,35.84182],[136.14784,35.84172],[136.14785,35.8417],[136.14783,35.8416],[136.14785,35.84146],[136.14784,35.84138],[136.14782,35.84136],[136.14772,35.8413],[136.14751,35.84122],[136.14748,35.84123],[136.14764,35.84179]]]}},{"type":"Feature","properties":{"pid":"765741c0-e5cc-4af0-88bb-c8af12ce1567","full":1.6},"geometry":{"type":"Polygon","coordinates":[[[136.14789,35.84125],[136.14781,35.84115],[136.14774,35.84108],[136.14763,35.84102],[136.14746,35.84095],[136.14741,35.84105],[136.14738,35.84108],[136.14721,35.84107],[136.14719,35.84109],[136.1472,35.84112],[136.14724,35.84113],[136.14739,35.84113],[136.14751,35.84114],[136.14786,35.84125],[136.14789,35.84125]]]}},{"type":"Feature","properties":{"pid":"5581212f-5be6-4acc-993e-b0cda8a31c67","full":6.4},"geometry":{"type":"Polygon","coordinates":[[[136.14681,35.84109],[136.14659,35.84131],[136.14667,35.84141],[136.14677,35.84148],[136.14686,35.84154],[136.1471,35.84125],[136.14684,35.84108],[136.14682,35.84108],[136.14681,35.84109]]]}},{"type":"Feature","properties":{"pid":"3be4beaf-f85d-4a11-b18d-e8fbc48aa5ac","full":9.2},"geometry":{"type":"Polygon","coordinates":[[[136.14659,35.84121],[136.14666,35.84119],[136.14677,35.84108],[136.14668,35.84102],[136.14666,35.84071],[136.14665,35.84069],[136.14664,35.84069],[136.14642,35.84073],[136.14621,35.84091],[136.1463,35.84097],[136.14646,35.84116],[136.14648,35.84118],[136.14654,35.84121],[136.14659,35.84121]]]}},{"type":"Feature","properties":{"pid":"95796597-9e3a-4667-97fe-094de5563c11","full":0.5},"geometry":{"type":"Polygon","coordinates":[[[136.1454,35.84048],[136.14567,35.84065],[136.14575,35.84069],[136.14581,35.84058],[136.14571,35.84054],[136.14558,35.84047],[136.14553,35.84043],[136.14547,35.84036],[136.1454,35.84048]]]}},{"type":"Feature","properties":{"pid":"aa2446b1-510d-42ce-80e0-15699639b719","full":2.7},"geometry":{"type":"Polygon","coordinates":[[[136.14577,35.8407],[136.14602,35.8408],[136.1461,35.84084],[136.14618,35.84089],[136.14619,35.84089],[136.14634,35.84074],[136.14635,35.84073],[136.14625,35.84067],[136.1462,35.84066],[136.14614,35.84064],[136.146,35.84065],[136.14593,35.84064],[136.14582,35.84059],[136.14577,35.8407]]]}},{"type":"Feature","properties":{"pid":"6756c323-50fc-42fd-9867-6a31a95bc5ea","full":10.5},"geometry":{"type":"Polygon","coordinates":[[[136.13739,35.84756],[136.13738,35.84735],[136.1374,35.84723],[136.13754,35.84694],[136.13722,35.84689],[136.13717,35.84701],[136.13713,35.84718],[136.13711,35.84737],[136.1371,35.84761],[136.13715,35.84759],[136.13726,35.84757],[136.13739,35.84756]]]}},{"type":"Feature","properties":{"pid":"90c9b318-cc7d-42cc-8784-af4aa46dbc88","full":3.3},"geometry":{"type":"Polygon","coordinates":[[[136.13735,35.84653],[136.13759,35.84655],[136.13763,35.84651],[136.13767,35.84643],[136.13771,35.84632],[136.13769,35.8463],[136.13755,35.84627],[136.13742,35.84626],[136.13735,35.8465],[136.13735,35.84653]]]}},{"type":"Feature","properties":{"pid":"ae86c372-6b4b-40b5-84ec-72c84fa1682d","full":4.1},"geometry":{"type":"Polygon","coordinates":[[[136.13756,35.84688],[136.13758,35.8468],[136.13759,35.84668],[136.13758,35.84662],[136.13756,35.8466],[136.13746,35.84658],[136.13733,35.84657],[136.13726,35.84676],[136.13724,35.84685],[136.1374,35.84688],[136.13756,35.84688]]]}},{"type":"Feature","properties":{"pid":"9938c784-07a9-4268-b576-31599ab671aa","full":13.0},"geometry":{"type":"Polygon","coordinates":[[[136.13681,35.84939],[136.13712,35.84953],[136.13715,35.84951],[136.13717,35.84948],[136.13716,35.84941],[136.13726,35.84924],[136.13727,35.84917],[136.13719,35.84882],[136.13714,35.84876],[136.13705,35.84875],[136.13699,35.84877],[136.13695,35.8488],[136.13694,35.84882],[136.13694,35.84902],[136.13691,35.84916],[136.13681,35.84939]]]}},{"type":"Feature","properties":{"pid":"7c224c5e-c048-4962-9484-ac53ac44e92d","full":0.9},"geometry":{"type":"Polygon","coordinates":[[[136.14824,35.84323],[136.14815,35.84312],[136.14786,35.84332],[136.14787,35.84335],[136.14793,35.84335],[136.14802,35.84337],[136.14817,35.84328],[136.14824,35.84323]]]}},{"type":"Feature","properties":{"pid":"b1db7284-ddab-4fb1-b7f6-3b05e8d65128","full":3.2},"geometry":{"type":"Polygon","coordinates":[[[136.14868,35.84316],[136.14828,35.8429],[136.14816,35.8431],[136.14826,35.84322],[136.14828,35.84322],[136.14836,35.84319],[136.14866,35.84318],[136.14868,35.84316]]]}},{"type":"Feature","properties":{"pid":"28f52b26-afc7-43b0-b369-f06babfd837e","full":24.3},"geometry":{"type":"Polygon","coordinates":[[[136.14889,35.84321],[136.14891,35.8432],[136.14918,35.84289],[136.14918,35.84288],[136.14901,35.84277],[136.14896,35.84269],[136.14884,35.84259],[136.14874,35.84245],[136.14873,35.84245],[136.14827,35.84272],[136.14827,35.84273],[136.14831,35.84283],[136.14837,35.84289],[136.14883,35.84317],[136.14889,35.84321]]]}},{"type":"Feature","properties":{"pid":"7a3f7ef2-0c98-4c7b-b261-6f7d81dea77c","full":2.6},"geometry":{"type":"Polygon","coordinates":[[[136.13897,35.85252],[136.13925,35.85257],[136.13925,35.85229],[136.13899,35.85227],[136.13899,35.85249],[136.13897,35.85252]]]}},{"type":"Feature","properties":{"pid":"72489778-4481-422e-84e4-7cd25ac7ff38","full":9.7},"geometry":{"type":"Polygon","coordinates":[[[136.13949,35.8526],[136.13951,35.85261],[136.13955,35.85262],[136.13973,35.85263],[136.13993,35.8526],[136.14011,35.85258],[136.14022,35.85239],[136.13973,35.85233],[136.13952,35.85231],[136.13949,35.8526]]]}},{"type":"Feature","properties":{"pid":"d526e435-a975-4748-940c-39a155622d90","full":2.1},"geometry":{"type":"Polygon","coordinates":[[[136.13927,35.85256],[136.13942,35.85258],[136.13948,35.85256],[136.1395,35.8523],[136.13927,35.85228],[136.13927,35.85256]]]}},{"type":"Feature","properties":{"pid":"cdc457a6-676f-481a-bc89-1dfafbe31d55","full":3.0},"geometry":{"type":"Polygon","coordinates":[[[136.1406,35.85313],[136.14082,35.85321],[136.14094,35.85292],[136.14069,35.85285],[136.1406,35.85309],[136.1406,35.85313]]]}},{"type":"Feature","properties":{"pid":"f55db85c-8183-4ec6-a20a-7071c2e1a28b","full":1.2},"geometry":{"type":"Polygon","coordinates":[[[136.14039,35.85303],[136.14053,35.85311],[136.14066,35.85283],[136.14052,35.85279],[136.1405,35.8528],[136.14039,35.853],[136.14039,35.85303]]]}},{"type":"Feature","properties":{"pid":"bf4c5bd8-a875-49ae-945c-cdfa788ebca7","full":7.7},"geometry":{"type":"Polygon","coordinates":[[[136.14061,35.85248],[136.14038,35.85241],[136.14024,35.85263],[136.14094,35.85282],[136.14098,35.85265],[136.14061,35.85248]]]}},{"type":"Feature","properties":{"pid":"d7d83d5f-9b0a-41f2-9b0e-ef276ea4a447","full":8.4},"geometry":{"type":"Polygon","coordinates":[[[136.14083,35.85321],[136.14127,35.85334],[136.14134,35.85335],[136.14144,35.85309],[136.14119,35.85301],[136.14095,35.85293],[136.14083,35.85321]]]}},{"type":"Feature","properties":{"pid":"dc43dfff-f2b3-4419-8c3c-84864cb9d4e4","full":2.7},"geometry":{"type":"Polygon","coordinates":[[[136.14135,35.85335],[136.14145,35.85338],[136.14159,35.85345],[136.14169,35.85316],[136.14156,35.85312],[136.1415,35.8531],[136.14146,35.85309],[136.14135,35.85335]]]}},{"type":"Feature","properties":{"pid":"d5f6a690-38ad-4028-90bd-090aeb40fd2d","full":24.4},"geometry":{"type":"Polygon","coordinates":[[[136.14394,35.85515],[136.14397,35.85515],[136.14408,35.85511],[136.14428,35.85503],[136.1443,35.85503],[136.1443,35.85501],[136.14426,35.85491],[136.14397,35.85453],[136.14388,35.85446],[136.14374,35.85438],[136.14343,35.85474],[136.14371,35.85495],[136.14394,35.85515]]]}},{"type":"Feature","properties":{"pid":"e9032941-cb44-48e9-8512-d8391a545045","full":5.4},"geometry":{"type":"Polygon","coordinates":[[[136.14316,35.85455],[136.14334,35.85468],[136.14337,35.85469],[136.14366,35.85436],[136.14366,35.85434],[136.14345,35.85422],[136.14343,35.85422],[136.14316,35.85455]]]}},{"type":"Feature","properties":{"pid":"eff3217c-cc74-4b76-9746-d3995e7d1bf7","full":6.5},"geometry":{"type":"Polygon","coordinates":[[[136.14289,35.85438],[136.1431,35.8545],[136.14314,35.85454],[136.14342,35.85422],[136.14342,35.85421],[136.14338,35.85419],[136.14326,35.85411],[136.14317,35.85404],[136.14316,35.85404],[136.14289,35.85438]]]}},{"type":"Feature","properties":{"pid":"77662013-9d98-44d6-a387-776f573f9b0b","full":17.1},"geometry":{"type":"Polygon","coordinates":[[[136.14234,35.85419],[136.14247,35.85424],[136.14262,35.85428],[136.14285,35.85436],[136.14313,35.85401],[136.14269,35.85374],[136.14234,35.85419]]]}},{"type":"Feature","properties":{"pid":"9adf88e9-e72f-42a4-9ed5-dbade5d3954d","full":17.9},"geometry":{"type":"Polygon","coordinates":[[[136.14195,35.8538],[136.1422,35.85409],[136.14226,35.85414],[136.14231,35.85418],[136.14268,35.85373],[136.14241,35.85357],[136.14223,35.85345],[136.14195,35.8538]]]}},{"type":"Feature","properties":{"pid":"d0f94cd2-8408-48d1-8b8b-f4734cfb8de6","full":11.1},"geometry":{"type":"Polygon","coordinates":[[[136.1416,35.85345],[136.14164,35.85347],[136.14173,35.85355],[136.14194,35.85378],[136.1422,35.85343],[136.14215,35.85341],[136.14182,35.85319],[136.14171,35.85316],[136.1416,35.85345]]]}},{"type":"Feature","properties":{"pid":"c7bf7b8b-e493-4149-9581-089be6e3ffc7","full":2.5},"geometry":{"type":"Polygon","coordinates":[[[136.1449,35.85623],[136.14475,35.85603],[136.1445,35.85611],[136.14462,35.85632],[136.1449,35.85623]]]}},{"type":"Feature","properties":{"pid":"aa810b33-1986-4473-bd7e-53caae1a4da4","full":24.4},"geometry":{"type":"Polygon","coordinates":[[[136.14446,35.85603],[136.14471,35.85594],[136.14473,35.85592],[136.14478,35.85581],[136.14481,35.85571],[136.14481,35.85568],[136.1448,35.85565],[136.14456,35.85541],[136.14442,35.85515],[136.1444,35.85515],[136.14404,35.85526],[136.14402,35.85527],[136.14445,35.85602],[136.14446,35.85603]]]}},{"type":"Feature","properties":{"pid":"5f3bfbb5-eb4d-4fba-a1e2-9dabc760a951","full":5.3},"geometry":{"type":"Polygon","coordinates":[[[136.13063,35.85368],[136.1309,35.85371],[136.13096,35.8535],[136.13107,35.85351],[136.13109,35.85347],[136.13105,35.85342],[136.13102,35.85339],[136.13098,35.85338],[136.13092,35.85338],[136.13086,35.85339],[136.13063,35.85344],[136.13055,35.85344],[136.13052,35.85343],[136.13053,35.85351],[136.13054,35.85355],[136.13063,35.85368]]]}},{"type":"Feature","properties":{"pid":"4725ca1a-eda1-406e-a539-752a42379da2","full":7.8},"geometry":{"type":"Polygon","coordinates":[[[136.13207,35.85382],[136.13195,35.8534],[136.13186,35.85341],[136.13154,35.8535],[136.13146,35.85355],[136.13139,35.85361],[136.13142,35.85375],[136.13144,35.85376],[136.13155,35.85371],[136.13176,35.8537],[136.13187,35.85373],[136.13207,35.85382]]]}},{"type":"Feature","properties":{"pid":"9996d786-f008-4b56-bc65-b0348e8c0055","full":9.4},"geometry":{"type":"Polygon","coordinates":[[[136.13238,35.85345],[136.13237,35.8534],[136.13221,35.85341],[136.13204,35.85339],[136.132,35.8534],[136.13217,35.85388],[136.13223,35.8539],[136.13232,35.85392],[136.13239,35.85393],[136.13254,35.85392],[136.13255,35.85391],[136.13239,35.85361],[136.13239,35.85352],[136.13238,35.85345]]]}},{"type":"Feature","properties":{"pid":"926c2f9a-0028-4376-9270-dc12c860c938","full":4.5},"geometry":{"type":"Polygon","coordinates":[[[136.13281,35.85355],[136.1328,35.8536],[136.13282,35.85365],[136.13284,35.85367],[136.13286,35.85368],[136.13295,35.85369],[136.13312,35.8537],[136.13332,35.85367],[136.13339,35.85365],[136.13339,35.85362],[136.13341,35.85362],[136.13338,35.85346],[136.13286,35.85354],[136.13281,35.85355]]]}},{"type":"Feature","properties":{"pid":"d75351d7-1607-42bf-983e-21455563c965","full":4.4},"geometry":{"type":"Polygon","coordinates":[[[136.13655,35.85351],[136.13685,35.85349],[136.13689,35.85348],[136.1369,35.85347],[136.13701,35.85324],[136.13694,35.85322],[136.13688,35.85321],[136.13681,35.85321],[136.13678,35.85321],[136.13674,35.85323],[136.13676,35.85326],[136.13653,35.85333],[136.13648,35.85341],[136.13656,35.85344],[136.13654,35.85349],[136.13656,35.85349],[136.13655,35.85351]]]}},{"type":"Feature","properties":{"pid":"267793bc-f8dc-443e-b71f-ba41b540a0f9","full":9.7},"geometry":{"type":"Polygon","coordinates":[[[136.13727,35.85271],[136.13709,35.85258],[136.13708,35.85258],[136.13706,35.85259],[136.13685,35.85272],[136.13673,35.85281],[136.13661,35.85282],[136.13658,35.85281],[136.13656,35.85284],[136.13659,35.85285],[136.13665,35.85291],[136.13671,35.85299],[136.13674,35.85302],[136.13678,35.85304],[136.13695,35.8531],[136.13696,35.8531],[136.13727,35.85271]]]}},{"type":"Feature","properties":{"pid":"e1e0ce5d-54ab-49b3-b2aa-8f7f87c88c19","full":7.8},"geometry":{"type":"Polygon","coordinates":[[[136.13798,35.85261],[136.13776,35.85243],[136.13774,35.85243],[136.13745,35.85251],[136.13734,35.85257],[136.13733,35.85259],[136.13773,35.85285],[136.13775,35.85285],[136.13777,35.85284],[136.1378,35.85283],[136.13783,35.85275],[136.13787,35.85271],[136.13798,35.85261]]]}},{"type":"Feature","properties":{"pid":"15fc5f55-0bc4-485b-b6fd-f3b4173be94a","full":10.9},"geometry":{"type":"Polygon","coordinates":[[[136.13709,35.85319],[136.13726,35.85328],[136.13736,35.85325],[136.13738,35.85326],[136.1374,35.85324],[136.13745,35.85323],[136.13772,35.85297],[136.1374,35.85275],[136.13738,35.85276],[136.13707,35.85314],[136.13705,35.85316],[136.13709,35.85319]]]}},{"type":"Feature","properties":{"pid":"c6c7ce53-ee98-48b1-80a9-7a9c6cf480a8","full":13.3},"geometry":{"type":"Polygon","coordinates":[[[136.13768,35.85331],[136.13779,35.85329],[136.13784,35.85327],[136.13793,35.85323],[136.13837,35.85309],[136.1384,35.85306],[136.13841,35.85304],[136.13825,35.85263],[136.1382,35.85266],[136.13808,35.85276],[136.13796,35.85292],[136.13779,35.85305],[136.13761,35.85325],[136.1376,35.85327],[136.13762,35.85328],[136.13768,35.85331]]]}},{"type":"Feature","properties":{"pid":"4f97d4ea-8a3a-4565-9465-f9a69e4d743e","full":22.9},"geometry":{"type":"Polygon","coordinates":[[[136.13847,35.85305],[136.1385,35.85306],[136.13852,35.85306],[136.13853,35.85307],[136.13856,35.85307],[136.13857,35.85309],[136.13948,35.8528],[136.13947,35.85275],[136.13877,35.85262],[136.13875,35.85259],[136.1387,35.85257],[136.1385,35.85256],[136.13834,35.85257],[136.1383,35.85259],[136.13829,35.8526],[136.13847,35.85305]]]}},{"type":"Feature","properties":{"pid":"329f326f-f7e0-496e-90f0-5d64406c58dd","full":2.8},"geometry":{"type":"Polygon","coordinates":[[[136.13824,35.85248],[136.13814,35.85232],[136.13774,35.85241],[136.13799,35.85261],[136.13813,35.85252],[136.13824,35.85248]]]}},{"type":"Feature","properties":{"pid":"bc7139fe-1eff-49de-909c-0aa707e1bc23","full":3.5},"geometry":{"type":"Polygon","coordinates":[[[136.13868,35.85248],[136.13868,35.85227],[136.13847,35.85228],[136.13823,35.85231],[136.13821,35.85231],[136.1382,35.85233],[136.13831,35.8525],[136.13847,35.85248],[136.13867,35.85249],[136.13868,35.85248]]]}},{"type":"Feature","properties":{"pid":"ccf9660e-0302-4c33-809b-c9953f2a2217","full":2.1},"geometry":{"type":"Polygon","coordinates":[[[136.13871,35.85247],[136.13895,35.85252],[136.13896,35.8525],[136.13897,35.85226],[136.1387,35.85226],[136.13871,35.85247]]]}},{"type":"Feature","properties":{"pid":"28becdfb-0427-4bef-9171-2870e8d8a1c5","full":7.3},"geometry":{"type":"Polygon","coordinates":[[[136.13373,35.85333],[136.13427,35.85328],[136.13428,35.85327],[136.13425,35.85312],[136.13351,35.85313],[136.13349,35.85314],[136.13349,35.85316],[136.13348,35.85334],[136.1335,35.85337],[136.13353,35.85338],[136.13373,35.85333]]]}},{"type":"Feature","properties":{"pid":"d0d8f5ea-6430-4a8d-92b0-7419e870c8a9","full":5.9},"geometry":{"type":"Polygon","coordinates":[[[136.13298,35.85343],[136.13299,35.85344],[136.13338,35.85338],[136.13338,35.8531],[136.13296,35.85313],[136.13295,35.85314],[136.133,35.85336],[136.13298,35.85343]]]}},{"type":"Feature","properties":{"pid":"3b108cdb-c2dd-48b6-9c37-5e1306335f17","full":4.4},"geometry":{"type":"Polygon","coordinates":[[[136.13205,35.85331],[136.13224,35.85332],[136.13243,35.85331],[136.13266,35.85332],[136.13276,35.8533],[136.13293,35.85333],[136.13293,35.85331],[136.13292,35.85314],[136.13232,35.85316],[136.13227,35.85319],[136.13213,35.85324],[136.13203,35.85325],[136.13205,35.85331]]]}},{"type":"Feature","properties":{"pid":"190b05f3-a5fd-4cf4-b6a7-ab778b45644f","full":1.5},"geometry":{"type":"Polygon","coordinates":[[[136.13058,35.85315],[136.13054,35.85323],[136.13053,35.8533],[136.13054,35.85336],[136.1306,35.85338],[136.13067,35.85336],[136.13083,35.85333],[136.13104,35.85331],[136.13101,35.85328],[136.13058,35.85315]]]}},{"type":"Feature","properties":{"pid":"7a557040-4bcb-4f0e-94a5-b4e8cce82ef5","full":9.2},"geometry":{"type":"Polygon","coordinates":[[[136.12989,35.85345],[136.13019,35.85354],[136.13023,35.85351],[136.1302,35.85342],[136.1302,35.85332],[136.13021,35.85326],[136.13012,35.8531],[136.12975,35.85295],[136.12974,35.853],[136.12981,35.85326],[136.12989,35.85345]]]}},{"type":"Feature","properties":{"pid":"655939d3-bee1-447d-84ed-62d2379177e4","full":9.2},"geometry":{"type":"Polygon","coordinates":[[[136.12902,35.85305],[136.12919,35.85312],[136.12936,35.85316],[136.12966,35.85321],[136.1297,35.85321],[136.12971,35.85319],[136.12964,35.85294],[136.12958,35.85292],[136.12921,35.8529],[136.12913,35.85287],[136.129,35.85279],[136.12895,35.85278],[136.12889,35.85285],[136.12889,35.85288],[136.12892,35.85291],[136.12895,35.85297],[136.12897,35.853],[136.12902,35.85305]]]}}],"precision":5}