{"type":"FeatureCollection","features":[{"type":"Feature","properties":{"pid":"077f2925-482d-4001-832c-c3977ae20583","full":2.8},"geometry":{"type":"Polygon","coordinates":[[[136.07118,36.01967],[136.07119,36.01969],[136.07122,36.01969],[136.07148,36.01965],[136.0715,36.01963],[136.07132,36.01939],[136.07106,36.01953],[136.07106,36.01955],[136.07113,36.01961],[136.07118,36.01967]]]}},{"type":"Feature","properties":{"pid":"431f918c-5ed4-4668-ad64-0816bdd04ed2","full":5.0},"geometry":{"type":"Polygon","coordinates":[[[136.07151,36.01958],[136.07177,36.01948],[136.07176,36.01931],[136.07172,36.01925],[136.07168,36.01923],[136.07148,36.01923],[136.0714,36.01934],[136.07135,36.01937],[136.07151,36.01958]]]}},{"type":"Feature","properties":{"pid":"f783061f-b504-48e3-97f2-cff2e05c3b54","full":0.9},"geometry":{"type":"Polygon","coordinates":[[[136.07202,36.0195],[136.072,36.01949],[136.07192,36.01953],[136.07184,36.01961],[136.07179,36.01966],[136.0717,36.01971],[136.0717,36.01973],[136.0719,36.01985],[136.07192,36.01984],[136.07194,36.01981],[136.07196,36.0196],[136.07201,36.01953],[136.07202,36.0195]]]}},{"type":"Feature","properties":{"pid":"32d6415c-84a5-476b-b4ba-06a78f8331cb","full":2.3},"geometry":{"type":"Polygon","coordinates":[[[136.07224,36.01963],[136.07232,36.01969],[136.07242,36.01973],[136.07253,36.01969],[136.07263,36.01958],[136.07253,36.01943],[136.07238,36.01953],[136.07224,36.01963]]]}},{"type":"Feature","properties":{"pid":"6629b7b5-00cd-4749-8aea-09272b598c93","full":4.1},"geometry":{"type":"Polygon","coordinates":[[[136.07221,36.01935],[136.07211,36.01948],[136.07222,36.01959],[136.07252,36.01938],[136.07252,36.01929],[136.07243,36.01919],[136.07228,36.01919],[136.07221,36.01935]]]}},{"type":"Feature","properties":{"pid":"4d127653-a055-4de3-94c1-8d9c0c1ea51a","full":1.7},"geometry":{"type":"Polygon","coordinates":[[[136.07187,36.01947],[136.07212,36.01935],[136.0722,36.01914],[136.07212,36.01913],[136.07204,36.01914],[136.07201,36.01915],[136.07196,36.01924],[136.07187,36.01929],[136.07189,36.01938],[136.07186,36.01943],[136.07187,36.01947]]]}},{"type":"Feature","properties":{"pid":"bbfcecc9-dccf-42ea-a1f2-4e9a56a08202","full":1.1},"geometry":{"type":"Polygon","coordinates":[[[136.07239,36.01862],[136.07243,36.01868],[136.07249,36.01872],[136.0726,36.01865],[136.07265,36.0186],[136.07266,36.01856],[136.07252,36.01844],[136.07246,36.01844],[136.07247,36.01852],[136.07241,36.0186],[136.07239,36.01862]]]}},{"type":"Feature","properties":{"pid":"e976230c-3f26-4641-8067-a370ef5d8325","full":3.0},"geometry":{"type":"Polygon","coordinates":[[[136.07492,36.01816],[136.07466,36.01813],[136.07467,36.01842],[136.07484,36.01844],[136.0749,36.01844],[136.07493,36.01843],[136.07492,36.01816]]]}},{"type":"Feature","properties":{"pid":"9172aa19-e7ac-4049-bcf8-56a3a9f6aca9","full":7.8},"geometry":{"type":"Polygon","coordinates":[[[136.07412,36.01827],[136.07425,36.01833],[136.07441,36.01838],[136.07452,36.01841],[136.0746,36.01842],[136.07461,36.01839],[136.07461,36.01829],[136.07458,36.01811],[136.07454,36.0181],[136.07451,36.018],[136.07435,36.01801],[136.07429,36.01807],[136.07426,36.01809],[136.07411,36.01811],[136.07411,36.01819],[136.07412,36.01827]]]}},{"type":"Feature","properties":{"pid":"0306b962-1c72-41f0-96b8-4873d25ea570","full":3.4},"geometry":{"type":"Polygon","coordinates":[[[136.06843,36.00773],[136.06847,36.00771],[136.06856,36.0075],[136.06855,36.00733],[136.06845,36.00735],[136.06837,36.00736],[136.06821,36.00734],[136.0682,36.00734],[136.06833,36.0076],[136.06838,36.00768],[136.06843,36.00773]]]}},{"type":"Feature","properties":{"pid":"04eead8d-fc92-4a9d-a360-4c7371312831","full":0.7},"geometry":{"type":"Polygon","coordinates":[[[136.06885,36.00756],[136.06869,36.00748],[136.06866,36.0076],[136.06858,36.00777],[136.06866,36.0078],[136.06878,36.0077],[136.06885,36.00756]]]}},{"type":"Feature","properties":{"pid":"cb514e3b-8e13-4fb9-9e32-3a9199148e13","full":11.6},"geometry":{"type":"Polygon","coordinates":[[[136.06976,36.00737],[136.06995,36.00783],[136.07001,36.00792],[136.07014,36.00805],[136.07021,36.00806],[136.07018,36.00757],[136.07013,36.00743],[136.07002,36.00718],[136.06991,36.00723],[136.06985,36.00728],[136.06976,36.00737]]]}},{"type":"Feature","properties":{"pid":"6cada038-26c1-4dec-b392-db6d92fb603d","full":1.9},"geometry":{"type":"Polygon","coordinates":[[[136.07012,36.00827],[136.07017,36.00823],[136.06993,36.008],[136.06983,36.00781],[136.06979,36.00782],[136.06979,36.00798],[136.06972,36.00801],[136.06972,36.00808],[136.06994,36.00822],[136.07012,36.00827]]]}},{"type":"Feature","properties":{"pid":"12932916-4643-4eeb-9d6e-cb8572862812","full":5.9},"geometry":{"type":"Polygon","coordinates":[[[136.07042,36.00815],[136.07053,36.00819],[136.0706,36.00819],[136.07072,36.00815],[136.07076,36.00812],[136.07105,36.00786],[136.07102,36.00777],[136.07081,36.00774],[136.0707,36.00783],[136.07052,36.00813],[136.07043,36.00812],[136.07042,36.00815]]]}},{"type":"Feature","properties":{"pid":"a1ecf718-6bfa-40e2-b020-50a33cf72ebb","full":2.3},"geometry":{"type":"Polygon","coordinates":[[[136.07036,36.00807],[136.07045,36.00808],[136.07049,36.00806],[136.07058,36.00786],[136.07058,36.0078],[136.0705,36.00779],[136.07046,36.00775],[136.07042,36.00745],[136.07029,36.00745],[136.07033,36.0077],[136.07036,36.00807]]]}},{"type":"Feature","properties":{"pid":"b81f2c79-3483-47ea-95bb-8ff8de82c8e1","full":7.0},"geometry":{"type":"Polygon","coordinates":[[[136.06869,36.00747],[136.06886,36.00755],[136.06892,36.00743],[136.06896,36.00734],[136.069,36.0073],[136.06913,36.0072],[136.06917,36.00713],[136.06916,36.00709],[136.06899,36.00691],[136.06893,36.00706],[136.06888,36.0071],[136.06878,36.00715],[136.06873,36.00721],[136.06869,36.00728],[136.0687,36.0074],[136.06869,36.00747]]]}},{"type":"Feature","properties":{"pid":"b47d6a9a-1536-4c36-a17e-0a4fbf6ffe3b","full":1.2},"geometry":{"type":"Polygon","coordinates":[[[136.06575,36.0127],[136.06546,36.01258],[136.06538,36.01263],[136.0654,36.01267],[136.06546,36.01274],[136.06552,36.01278],[136.06563,36.01284],[136.06575,36.0127]]]}},{"type":"Feature","properties":{"pid":"7bed974a-1dd0-46cf-80b8-ab9bcbfb2e0e","full":10.4},"geometry":{"type":"Polygon","coordinates":[[[136.06659,36.01274],[136.06733,36.0125],[136.06729,36.01234],[136.0673,36.01232],[136.0673,36.01224],[136.06719,36.01216],[136.06691,36.01231],[136.06678,36.01232],[136.06675,36.01237],[136.0668,36.01246],[136.0668,36.01252],[136.0667,36.01261],[136.06656,36.01268],[136.06659,36.01274]]]}},{"type":"Feature","properties":{"pid":"05beeb47-c541-455a-ba43-96829dfe44bc","full":3.1},"geometry":{"type":"Polygon","coordinates":[[[136.06667,36.0129],[136.06738,36.01266],[136.06741,36.01263],[136.06741,36.01259],[136.06736,36.01252],[136.06669,36.01274],[136.06671,36.01279],[136.06662,36.01283],[136.06667,36.0129]]]}},{"type":"Feature","properties":{"pid":"f93fe4d6-2b7e-439a-8b8f-ff894af05927","full":3.1},"geometry":{"type":"Polygon","coordinates":[[[136.06683,36.01325],[136.06733,36.01309],[136.06736,36.01299],[136.0674,36.01294],[136.06734,36.01291],[136.06677,36.01311],[136.06683,36.01325]]]}},{"type":"Feature","properties":{"pid":"16505863-ebe2-450d-bd3c-126bcb26914d","full":4.8},"geometry":{"type":"Polygon","coordinates":[[[136.06675,36.01309],[136.06746,36.01284],[136.06749,36.01281],[136.06749,36.01276],[136.06748,36.01271],[136.06745,36.01268],[136.06674,36.01292],[136.06674,36.01293],[136.06669,36.01295],[136.06675,36.01309]]]}},{"type":"Feature","properties":{"pid":"3af77bc8-4266-477d-adee-c1fc583fa56c","full":2.2},"geometry":{"type":"Polygon","coordinates":[[[136.06626,36.01325],[136.06668,36.01311],[136.06657,36.0129],[136.06655,36.0129],[136.06637,36.013],[136.06636,36.01309],[136.06632,36.01318],[136.06625,36.01322],[136.06625,36.01324],[136.06626,36.01325]]]}},{"type":"Feature","properties":{"pid":"54979904-7ca2-40d9-b50f-6fbea1b668c8","full":2.7},"geometry":{"type":"Polygon","coordinates":[[[136.06631,36.01343],[136.06677,36.01328],[136.0667,36.01313],[136.06625,36.01327],[136.06631,36.01343]]]}},{"type":"Feature","properties":{"pid":"e9722f22-50af-40d8-bd62-b5540d088819","full":2.6},"geometry":{"type":"Polygon","coordinates":[[[136.06639,36.01359],[136.06686,36.01345],[136.06679,36.0133],[136.06632,36.01345],[136.06639,36.01359]]]}},{"type":"Feature","properties":{"pid":"bd23c2be-89cc-4f5f-b4b5-4eecabfec948","full":2.8},"geometry":{"type":"Polygon","coordinates":[[[136.06641,36.01362],[136.0665,36.01369],[136.06663,36.01372],[136.0668,36.01371],[136.06695,36.01365],[136.06687,36.01347],[136.06641,36.01362]]]}},{"type":"Feature","properties":{"pid":"b35d8d3a-3082-4f51-b6ec-a7aa81ab60db","full":2.0},"geometry":{"type":"Polygon","coordinates":[[[136.06702,36.01362],[136.06728,36.0135],[136.06729,36.01348],[136.06727,36.01342],[136.06728,36.01332],[136.06693,36.01344],[136.06702,36.01362]]]}},{"type":"Feature","properties":{"pid":"b6fbfb89-de14-4ebc-b8f7-9e511cb60b9c","full":2.3},"geometry":{"type":"Polygon","coordinates":[[[136.06691,36.01342],[136.06727,36.0133],[136.06729,36.0132],[136.06732,36.01311],[136.06688,36.01326],[136.06688,36.01327],[136.06685,36.01329],[136.06691,36.01342]]]}},{"type":"Feature","properties":{"pid":"ab9f3671-8764-445f-8bad-49487273a627","full":3.3},"geometry":{"type":"Polygon","coordinates":[[[136.06629,36.01406],[136.06635,36.01411],[136.06645,36.01412],[136.06652,36.01409],[136.0666,36.01404],[136.06672,36.01399],[136.06673,36.01397],[136.06671,36.01395],[136.06662,36.01393],[136.06651,36.01388],[136.06643,36.01384],[136.06631,36.01374],[136.06629,36.01374],[136.06629,36.01406]]]}},{"type":"Feature","properties":{"pid":"5a4a0159-1893-4f01-b2e6-202bbd3b5c46","full":4.9},"geometry":{"type":"Polygon","coordinates":[[[136.06595,36.01403],[136.06626,36.01404],[136.06626,36.01374],[136.0662,36.01367],[136.06596,36.01367],[136.06599,36.01396],[136.06595,36.014],[136.06595,36.01403]]]}},{"type":"Feature","properties":{"pid":"486e7b82-bba6-486a-b52e-8b0cf442d808","full":2.9},"geometry":{"type":"Polygon","coordinates":[[[136.06598,36.01364],[136.0662,36.01363],[136.06616,36.01331],[136.0661,36.01323],[136.06589,36.01343],[136.06594,36.01346],[136.06596,36.01349],[136.06598,36.01364]]]}},{"type":"Feature","properties":{"pid":"329c586a-544e-403c-b7ef-93a8edfc9795","full":1.2},"geometry":{"type":"Polygon","coordinates":[[[136.06589,36.01343],[136.06609,36.01321],[136.06598,36.01311],[136.06593,36.01309],[136.06578,36.01337],[136.06589,36.01343]]]}},{"type":"Feature","properties":{"pid":"f329f321-9506-48e6-a355-32fede705619","full":1.3},"geometry":{"type":"Polygon","coordinates":[[[136.06558,36.0134],[136.06562,36.01339],[136.0658,36.01307],[136.06568,36.01301],[136.06556,36.0132],[136.06548,36.01323],[136.06546,36.01327],[136.06552,36.01333],[136.06556,36.01339],[136.06558,36.0134]]]}},{"type":"Feature","properties":{"pid":"a64da69c-c26a-4070-bf26-015b5feec7c8","full":1.6},"geometry":{"type":"Polygon","coordinates":[[[136.06596,36.01279],[136.06582,36.01273],[136.06568,36.01289],[136.0657,36.01298],[136.06581,36.01304],[136.06598,36.01282],[136.06596,36.01279]]]}},{"type":"Feature","properties":{"pid":"e5b49e5c-0acc-4a7b-aa10-1389aa7ba7f6","full":2.3},"geometry":{"type":"Polygon","coordinates":[[[136.06267,36.01695],[136.06278,36.01704],[136.06282,36.01705],[136.06292,36.0169],[136.06308,36.01673],[136.06312,36.01659],[136.06301,36.01657],[136.06297,36.01662],[136.06296,36.01665],[136.06292,36.01667],[136.06267,36.01695]]]}},{"type":"Feature","properties":{"pid":"5b695f66-77af-4d5f-8cd3-8ccff1f3a2d1","full":1.6},"geometry":{"type":"Polygon","coordinates":[[[136.06102,36.02126],[136.06092,36.02123],[136.06086,36.02131],[136.06078,36.02146],[136.06076,36.02155],[136.06093,36.02157],[136.06107,36.02129],[136.06102,36.02126]]]}},{"type":"Feature","properties":{"pid":"aee15bc7-e82a-43df-93b0-c3e3ab9d05e5","full":8.9},"geometry":{"type":"Polygon","coordinates":[[[136.06102,36.02114],[136.06123,36.02123],[136.06124,36.02119],[136.0613,36.02112],[136.06134,36.02108],[136.06158,36.02093],[136.0616,36.0209],[136.06158,36.02071],[136.06159,36.02067],[136.06159,36.02063],[136.06146,36.02062],[136.06123,36.02085],[136.06105,36.02104],[136.06104,36.0211],[136.06102,36.02114]]]}},{"type":"Feature","properties":{"pid":"c18a7e11-91c1-40ac-84dc-bb4cce36c7da","full":0.9},"geometry":{"type":"Polygon","coordinates":[[[136.06121,36.02134],[136.06109,36.0213],[136.06094,36.02158],[136.06112,36.02159],[136.06121,36.02134]]]}},{"type":"Feature","properties":{"pid":"297faf5a-2b04-4b19-9a61-f7e38f09d992","full":1.4},"geometry":{"type":"Polygon","coordinates":[[[136.06151,36.02126],[136.06134,36.02123],[136.06129,36.02149],[136.06143,36.02153],[136.06146,36.02151],[136.06154,36.02128],[136.06151,36.02126]]]}},{"type":"Feature","properties":{"pid":"5636a91a-6f82-40fa-80d0-ba0a10e6aa99","full":0.8},"geometry":{"type":"Polygon","coordinates":[[[136.06074,36.02175],[136.06078,36.0218],[136.06092,36.0218],[136.06095,36.02176],[136.06092,36.02173],[136.06092,36.0217],[136.06091,36.02164],[136.06092,36.02157],[136.06076,36.02156],[136.06074,36.02175]]]}},{"type":"Feature","properties":{"pid":"9a92b8de-78bd-48dc-b9d3-baad9a12caa3","full":1.8},"geometry":{"type":"Polygon","coordinates":[[[136.06094,36.02202],[136.06102,36.02193],[136.06108,36.02182],[136.06073,36.02183],[136.0607,36.022],[136.06094,36.02202]]]}},{"type":"Feature","properties":{"pid":"c1854897-9001-4997-a74a-6c169cf011ce","full":2.4},"geometry":{"type":"Polygon","coordinates":[[[136.0607,36.02201],[136.0607,36.02217],[136.06074,36.02237],[136.0609,36.02235],[136.06091,36.02234],[136.06092,36.02213],[136.06094,36.02204],[136.0607,36.02201]]]}},{"type":"Feature","properties":{"pid":"da2e719c-8311-4400-940f-5bf891a5ebf3","full":2.3},"geometry":{"type":"Polygon","coordinates":[[[136.06581,36.0241],[136.066,36.0241],[136.06604,36.02408],[136.06606,36.02406],[136.06606,36.02403],[136.06598,36.02394],[136.06596,36.02391],[136.06594,36.02385],[136.06594,36.0238],[136.06596,36.02371],[136.06589,36.02363],[136.06578,36.02354],[136.06581,36.0241]]]}},{"type":"Feature","properties":{"pid":"437be0a3-cf1a-416b-bba2-509a0c66bd41","full":2.1},"geometry":{"type":"Polygon","coordinates":[[[136.06555,36.0242],[136.06558,36.02421],[136.06569,36.02412],[136.06577,36.02408],[136.06574,36.02355],[136.06571,36.02351],[136.06566,36.02348],[136.06554,36.02347],[136.06552,36.02348],[136.06553,36.02351],[136.06559,36.02361],[136.06558,36.02366],[136.06556,36.0237],[136.06557,36.02373],[136.06555,36.02377],[136.06555,36.02382],[136.06562,36.02383],[136.06566,36.02385],[136.06564,36.02392],[136.0656,36.02406],[136.06555,36.0242]]]}}],"precision":5}