{"type":"FeatureCollection","features":[{"type":"Feature","properties":{"pid":"315d30bb-6892-40b8-b75e-2bc6c9831861","full":1.9},"geometry":{"type":"Polygon","coordinates":[[[136.04964,35.9256],[136.04965,35.92561],[136.04981,35.92563],[136.04993,35.92563],[136.05001,35.92562],[136.05016,35.92563],[136.05019,35.9256],[136.0502,35.92556],[136.05017,35.92555],[136.05017,35.92553],[136.04986,35.92547],[136.04971,35.92547],[136.04964,35.9256]]]}},{"type":"Feature","properties":{"pid":"de211eee-a6f2-482b-865c-c7db2295fc9c","full":0.6},"geometry":{"type":"Polygon","coordinates":[[[136.04945,35.92557],[136.04962,35.92561],[136.04969,35.92545],[136.04967,35.92544],[136.04946,35.92543],[136.04945,35.92557]]]}},{"type":"Feature","properties":{"pid":"19bc901f-8ac7-43d4-8242-38f13b3aae67","full":2.2},"geometry":{"type":"Polygon","coordinates":[[[136.04973,35.92533],[136.04985,35.9251],[136.04975,35.92506],[136.04963,35.92506],[136.0496,35.92506],[136.04958,35.92508],[136.04952,35.9253],[136.04973,35.92533]]]}},{"type":"Feature","properties":{"pid":"b272a51a-ee59-42bc-ba57-318372fce026","full":6.5},"geometry":{"type":"Polygon","coordinates":[[[136.0481,35.92517],[136.04846,35.9252],[136.04848,35.92493],[136.04844,35.92493],[136.04826,35.92481],[136.04808,35.92485],[136.0481,35.92517]]]}},{"type":"Feature","properties":{"pid":"826cd6e1-acd1-4212-be02-3cf58f111d46","full":3.0},"geometry":{"type":"Polygon","coordinates":[[[136.0476,35.92515],[136.04804,35.92519],[136.04807,35.92517],[136.04809,35.92517],[136.04807,35.92485],[136.04797,35.92486],[136.04792,35.92489],[136.04782,35.92505],[136.04774,35.92509],[136.04767,35.9251],[136.0476,35.92515]]]}},{"type":"Feature","properties":{"pid":"7d120281-f0ec-40df-815b-3157fae9cbb9","full":1.5},"geometry":{"type":"Polygon","coordinates":[[[136.04747,35.92544],[136.04762,35.92543],[136.04779,35.92536],[136.04788,35.92535],[136.04795,35.92536],[136.04796,35.92529],[136.04748,35.92524],[136.04747,35.92544]]]}},{"type":"Feature","properties":{"pid":"324d95a5-2bfa-44bb-9571-23cb50620515","full":1.7},"geometry":{"type":"Polygon","coordinates":[[[136.04946,35.9253],[136.04954,35.92506],[136.04927,35.92509],[136.04919,35.92527],[136.04946,35.9253]]]}},{"type":"Feature","properties":{"pid":"2ed0ef62-fcf8-447e-8c38-940ac75a8390","full":0.5},"geometry":{"type":"Polygon","coordinates":[[[136.04944,35.92557],[136.04943,35.92543],[136.04919,35.92541],[136.04922,35.92553],[136.04925,35.92556],[136.04944,35.92557]]]}},{"type":"Feature","properties":{"pid":"da4112fd-afe2-4cc3-bb76-4b760d496bc6","full":5.7},"geometry":{"type":"Polygon","coordinates":[[[136.04702,35.93242],[136.04711,35.93283],[136.04719,35.93283],[136.04747,35.93279],[136.04742,35.93253],[136.04728,35.93252],[136.04702,35.93242]]]}},{"type":"Feature","properties":{"pid":"33ee1533-62be-48a9-b318-ad1896de77d0","full":3.6},"geometry":{"type":"Polygon","coordinates":[[[136.04749,35.93278],[136.04778,35.93277],[136.04792,35.93262],[136.04761,35.93253],[136.04745,35.93255],[136.04749,35.93278]]]}},{"type":"Feature","properties":{"pid":"9339d7da-31e0-4a1a-bc33-1a3e40d5b3a7","full":1.6},"geometry":{"type":"Polygon","coordinates":[[[136.04882,35.94023],[136.04876,35.94016],[136.04867,35.9402],[136.04847,35.94026],[136.04838,35.94033],[136.04827,35.94043],[136.04826,35.94049],[136.04827,35.94052],[136.04829,35.94054],[136.0488,35.94025],[136.04882,35.94023]]]}},{"type":"Feature","properties":{"pid":"27e73ffd-3de9-4a32-8322-b8a04df580e8","full":2.5},"geometry":{"type":"Polygon","coordinates":[[[136.04779,35.94006],[136.04796,35.94046],[136.04813,35.94039],[136.04793,35.93994],[136.04779,35.94006]]]}},{"type":"Feature","properties":{"pid":"613359a1-076b-446d-9492-3ca4d537fdd1","full":1.4},"geometry":{"type":"Polygon","coordinates":[[[136.04761,35.94016],[136.04778,35.94052],[136.04792,35.94046],[136.04774,35.94008],[136.04761,35.94016]]]}},{"type":"Feature","properties":{"pid":"c78d0608-c0f8-4eab-896d-05545b819442","full":4.5},"geometry":{"type":"Polygon","coordinates":[[[136.04714,35.94075],[136.04715,35.94076],[136.04754,35.9406],[136.04735,35.9403],[136.04724,35.94024],[136.04714,35.94075]]]}},{"type":"Feature","properties":{"pid":"af75fbdc-163d-4150-866f-776fbc3d99a4","full":2.7},"geometry":{"type":"Polygon","coordinates":[[[136.0474,35.9403],[136.04757,35.9406],[136.04775,35.94052],[136.04759,35.94018],[136.0474,35.9403]]]}},{"type":"Feature","properties":{"pid":"99d3dab2-7b8c-4cb0-8b9f-7e6fd202bc42","full":1.5},"geometry":{"type":"Polygon","coordinates":[[[136.04718,35.94012],[136.04728,35.94018],[136.0476,35.93986],[136.04749,35.93979],[136.04745,35.93976],[136.04718,35.94012]]]}},{"type":"Feature","properties":{"pid":"1dadc13f-81a2-49d0-ba63-5c854bd5d36d","full":2.0},"geometry":{"type":"Polygon","coordinates":[[[136.048,35.9399],[136.04816,35.94028],[136.04817,35.94029],[136.0482,35.94028],[136.04831,35.9402],[136.04814,35.93979],[136.048,35.9399]]]}},{"type":"Feature","properties":{"pid":"36980a6b-09a4-4135-a1f1-8cfc30638e26","full":1.3},"geometry":{"type":"Polygon","coordinates":[[[136.04799,35.9396],[136.04776,35.93988],[136.04778,35.9399],[136.04783,35.93993],[136.04817,35.93969],[136.04799,35.9396]]]}},{"type":"Feature","properties":{"pid":"675d2ddc-01c7-4650-90fe-5218f42e70aa","full":2.1},"geometry":{"type":"Polygon","coordinates":[[[136.0476,35.9398],[136.04762,35.93982],[136.04772,35.93988],[136.04803,35.9395],[136.04785,35.93945],[136.0476,35.9398]]]}},{"type":"Feature","properties":{"pid":"fa433ba3-0524-4c30-9aba-e2dac9eea535","full":1.0},"geometry":{"type":"Polygon","coordinates":[[[136.048,35.93944],[136.04813,35.9395],[136.04845,35.93916],[136.04833,35.93911],[136.048,35.93944]]]}},{"type":"Feature","properties":{"pid":"24434577-4f9a-4475-b441-cf1895fdb424","full":1.4},"geometry":{"type":"Polygon","coordinates":[[[136.04785,35.93936],[136.04786,35.93938],[136.04796,35.93943],[136.0483,35.9391],[136.04824,35.93906],[136.04816,35.93903],[136.04785,35.93936]]]}},{"type":"Feature","properties":{"pid":"a09b8e82-c3d3-4222-88ee-ab071375a3bc","full":1.0},"geometry":{"type":"Polygon","coordinates":[[[136.04697,35.93848],[136.04722,35.93854],[136.04729,35.93837],[136.0472,35.93836],[136.04695,35.93837],[136.04695,35.93845],[136.04697,35.93848]]]}},{"type":"Feature","properties":{"pid":"1b47f59d-e566-4a46-abd1-2a0eea29584b","full":1.2},"geometry":{"type":"Polygon","coordinates":[[[136.04779,35.93917],[136.04778,35.93925],[136.04779,35.93929],[136.0478,35.93932],[136.04783,35.93934],[136.04813,35.93901],[136.04802,35.93893],[136.04779,35.93917]]]}},{"type":"Feature","properties":{"pid":"e05f1e9f-ae41-40b2-a96b-68cba1663b40","full":1.0},"geometry":{"type":"Polygon","coordinates":[[[136.04862,35.93915],[136.04885,35.93923],[136.04923,35.93895],[136.04917,35.93892],[136.04912,35.93892],[136.04905,35.93898],[136.04896,35.93903],[136.04886,35.93904],[136.04862,35.93915]]]}},{"type":"Feature","properties":{"pid":"5d54ff37-d5ba-47b8-bf65-118512a58182","full":3.2},"geometry":{"type":"Polygon","coordinates":[[[136.04888,35.93924],[136.04916,35.93935],[136.04941,35.93897],[136.04934,35.93897],[136.04931,35.93897],[136.04925,35.93896],[136.04888,35.93924]]]}},{"type":"Feature","properties":{"pid":"74f1bcac-9cf7-4673-9941-36c690656668","full":3.5},"geometry":{"type":"Polygon","coordinates":[[[136.04896,35.93937],[136.0491,35.93987],[136.04916,35.93985],[136.04922,35.93978],[136.04926,35.93972],[136.04928,35.93959],[136.04929,35.93949],[136.04896,35.93937]]]}},{"type":"Feature","properties":{"pid":"9e8462ed-c720-4ff3-9821-67316cb75be7","full":1.8},"geometry":{"type":"Polygon","coordinates":[[[136.04819,35.93946],[136.04828,35.93956],[136.0483,35.93955],[136.04864,35.93925],[136.04854,35.93921],[136.04848,35.93918],[136.04832,35.93932],[136.04819,35.93946]]]}},{"type":"Feature","properties":{"pid":"1ac6422b-856b-4fdc-a4c7-dd0076ade8b5","full":1.9},"geometry":{"type":"Polygon","coordinates":[[[136.04866,35.93932],[136.04882,35.94],[136.04896,35.93994],[136.04879,35.9393],[136.0487,35.93928],[136.04866,35.93932]]]}},{"type":"Feature","properties":{"pid":"db5d41e1-4bb1-472d-9e2b-deca4855831d","full":2.3},"geometry":{"type":"Polygon","coordinates":[[[136.04849,35.93948],[136.04868,35.94005],[136.0488,35.94001],[136.04863,35.93933],[136.04849,35.93948]]]}},{"type":"Feature","properties":{"pid":"efabe4ff-add3-452e-a6ec-8fa133c3ac69","full":2.2},"geometry":{"type":"Polygon","coordinates":[[[136.04834,35.93962],[136.0485,35.94012],[136.04866,35.94007],[136.04846,35.9395],[136.04834,35.93962]]]}},{"type":"Feature","properties":{"pid":"dc7af5f0-0a09-4dc1-bed2-8d8cf197d019","full":2.8},"geometry":{"type":"Polygon","coordinates":[[[136.04817,35.93978],[136.04833,35.94019],[136.04848,35.94011],[136.04832,35.93963],[136.04817,35.93978]]]}},{"type":"Feature","properties":{"pid":"e7890df3-9f78-4f83-92d8-a80137abbf44","full":1.7},"geometry":{"type":"Polygon","coordinates":[[[136.04983,35.93909],[136.05003,35.93902],[136.05003,35.93875],[136.04977,35.93892],[136.04983,35.93909]]]}},{"type":"Feature","properties":{"pid":"6b34ba2f-ba71-4228-953d-3031efbd737b","full":15.6},"geometry":{"type":"Polygon","coordinates":[[[136.04969,35.937],[136.04986,35.93745],[136.05026,35.93738],[136.0499,35.93643],[136.04983,35.93647],[136.0498,35.93656],[136.04983,35.93671],[136.04983,35.93694],[136.04969,35.937]]]}},{"type":"Feature","properties":{"pid":"951c0a3e-4502-4dbc-919f-fa5fba6cfefb","full":1.8},"geometry":{"type":"Polygon","coordinates":[[[136.04796,35.93797],[136.04801,35.93823],[136.04822,35.9382],[136.0482,35.93795],[136.04796,35.93797]]]}},{"type":"Feature","properties":{"pid":"a2451d06-2113-48b1-96c0-6079f1740c6c","full":9.6},"geometry":{"type":"Polygon","coordinates":[[[136.04485,35.93663],[136.04497,35.93663],[136.04501,35.9366],[136.04501,35.93635],[136.04479,35.93626],[136.0447,35.93632],[136.04452,35.93641],[136.04445,35.93668],[136.04451,35.9367],[136.04475,35.93664],[136.04485,35.93663]]]}},{"type":"Feature","properties":{"pid":"be75a324-e356-4459-933a-7226f165a177","full":5.2},"geometry":{"type":"Polygon","coordinates":[[[136.04566,35.93754],[136.0462,35.93759],[136.04623,35.93742],[136.04607,35.93738],[136.04594,35.93737],[136.04588,35.93735],[136.0457,35.93731],[136.04567,35.93733],[136.04564,35.93742],[136.04566,35.93754]]]}},{"type":"Feature","properties":{"pid":"041bc66c-148c-4825-bc2b-28227403676a","full":1.1},"geometry":{"type":"Polygon","coordinates":[[[136.04474,35.93766],[136.04515,35.93768],[136.04552,35.93772],[136.04553,35.93761],[136.04475,35.93754],[136.04474,35.93766]]]}},{"type":"Feature","properties":{"pid":"1fd1cc3b-52df-4ad7-ade7-0746987ac84b","full":0.7},"geometry":{"type":"Polygon","coordinates":[[[136.04545,35.93821],[136.04548,35.93812],[136.04483,35.93808],[136.0448,35.93815],[136.04479,35.9382],[136.04545,35.93821]]]}},{"type":"Feature","properties":{"pid":"c20b663f-268b-4dbf-a1e3-3f9c19c99ad3","full":0.7},"geometry":{"type":"Polygon","coordinates":[[[136.04484,35.93805],[136.04549,35.93809],[136.04548,35.93805],[136.04545,35.93799],[136.0451,35.93795],[136.04487,35.93797],[136.04484,35.93805]]]}},{"type":"Feature","properties":{"pid":"5535a278-ccb7-41da-b6bc-11c552e797ae","full":7.2},"geometry":{"type":"Polygon","coordinates":[[[136.04477,35.93747],[136.04554,35.93754],[136.04558,35.93735],[136.04543,35.93733],[136.04528,35.93728],[136.04516,35.93731],[136.0451,35.93731],[136.04478,35.93729],[136.04477,35.93747]]]}},{"type":"Feature","properties":{"pid":"7cc57075-41b2-442e-a18c-17fc529ddce5","full":10.7},"geometry":{"type":"Polygon","coordinates":[[[136.04553,35.93688],[136.04557,35.93674],[136.04558,35.93662],[136.04519,35.93648],[136.04514,35.93646],[136.04512,35.93647],[136.04509,35.93649],[136.04509,35.93669],[136.04511,35.93694],[136.04514,35.93696],[136.04518,35.93696],[136.04531,35.93691],[136.04539,35.93689],[136.04551,35.93689],[136.04553,35.93688]]]}},{"type":"Feature","properties":{"pid":"16672610-c74e-44f5-b7a1-d9b2c82059e1","full":4.2},"geometry":{"type":"Polygon","coordinates":[[[136.04459,35.93697],[136.04463,35.937],[136.04482,35.93706],[136.04494,35.93707],[136.04496,35.9368],[136.04485,35.93677],[136.04471,35.93677],[136.04463,35.93679],[136.04459,35.93695],[136.04459,35.93697]]]}},{"type":"Feature","properties":{"pid":"d562a507-1563-441e-bbf9-c09a81d1fb4c","full":11.7},"geometry":{"type":"Polygon","coordinates":[[[136.04431,35.93713],[136.04456,35.93718],[136.04456,35.93682],[136.04443,35.93683],[136.0442,35.93678],[136.04393,35.93677],[136.04381,35.93683],[136.04384,35.93692],[136.04388,35.93697],[136.04431,35.93713]]]}},{"type":"Feature","properties":{"pid":"ef12ff7e-0f86-4177-93ec-4448f301b946","full":4.0},"geometry":{"type":"Polygon","coordinates":[[[136.04308,35.93686],[136.04321,35.93688],[136.04342,35.93691],[136.04363,35.93694],[136.04366,35.93692],[136.04366,35.93689],[136.04364,35.93683],[136.04345,35.93676],[136.04331,35.93668],[136.04313,35.93663],[136.04312,35.93666],[136.04308,35.93668],[136.04308,35.93686]]]}},{"type":"Feature","properties":{"pid":"11d7ff6d-436f-4bcb-8dd2-f85ae8122253","full":2.2},"geometry":{"type":"Polygon","coordinates":[[[136.04303,35.93708],[136.04372,35.93716],[136.04375,35.93715],[136.04372,35.93712],[136.04366,35.93702],[136.04304,35.93695],[136.04303,35.93708]]]}},{"type":"Feature","properties":{"pid":"4abb5b8b-935f-44e4-8625-144e49d02904","full":3.6},"geometry":{"type":"Polygon","coordinates":[[[136.04297,35.93726],[136.04375,35.93734],[136.04377,35.9372],[136.043,35.93712],[136.04297,35.93726]]]}},{"type":"Feature","properties":{"pid":"e1ce4787-ecda-4676-abb2-011b35c30b7f","full":2.2},"geometry":{"type":"Polygon","coordinates":[[[136.04296,35.93743],[136.043,35.93745],[136.04371,35.93751],[136.04373,35.9374],[136.04298,35.93731],[136.04296,35.93743]]]}},{"type":"Feature","properties":{"pid":"eb524f4b-4f00-4011-afb2-665034e27069","full":7.2},"geometry":{"type":"Polygon","coordinates":[[[136.04467,35.93727],[136.04426,35.93717],[136.04405,35.93712],[136.04401,35.93713],[136.04398,35.93717],[136.04395,35.93733],[136.04396,35.93736],[136.04463,35.93743],[136.04467,35.93727]]]}},{"type":"Feature","properties":{"pid":"73ee32f2-c25b-4846-bcb9-e13594a30bcc","full":2.5},"geometry":{"type":"Polygon","coordinates":[[[136.04394,35.93757],[136.04462,35.93765],[136.04467,35.93751],[136.044,35.93746],[136.04396,35.93747],[136.04394,35.93757]]]}},{"type":"Feature","properties":{"pid":"484ac4af-0f5d-419a-8063-71ff899fd7f1","full":1.2},"geometry":{"type":"Polygon","coordinates":[[[136.04397,35.93775],[136.04455,35.93781],[136.04459,35.9378],[136.04461,35.9377],[136.04426,35.93766],[136.04397,35.93765],[136.04397,35.93775]]]}},{"type":"Feature","properties":{"pid":"c52943e5-8da8-4879-99bc-885280ca3c68","full":6.9},"geometry":{"type":"Polygon","coordinates":[[[136.04391,35.93801],[136.04445,35.93812],[136.04454,35.93811],[136.04457,35.93798],[136.04456,35.93787],[136.04454,35.93786],[136.04394,35.93784],[136.04391,35.93801]]]}},{"type":"Feature","properties":{"pid":"57e74aed-08ca-45e8-9641-8572f7b75a19","full":2.3},"geometry":{"type":"Polygon","coordinates":[[[136.04397,35.93832],[136.04407,35.93832],[136.04452,35.93838],[136.04453,35.93826],[136.04432,35.93822],[136.04387,35.93817],[136.04386,35.93825],[136.04397,35.93832]]]}},{"type":"Feature","properties":{"pid":"a53a0156-474a-4515-a1c1-c0a4f10ea9cb","full":6.4},"geometry":{"type":"Polygon","coordinates":[[[136.04352,35.93837],[136.0435,35.93817],[136.0429,35.93805],[136.04289,35.93828],[136.0429,35.93829],[136.04352,35.93837]]]}},{"type":"Feature","properties":{"pid":"113100a8-5b9b-4f43-aa03-0166785be4de","full":4.6},"geometry":{"type":"Polygon","coordinates":[[[136.04299,35.93794],[136.04302,35.93795],[136.04357,35.93801],[136.04364,35.938],[136.04368,35.93785],[136.04365,35.93784],[136.04341,35.9378],[136.04306,35.93781],[136.04302,35.93783],[136.04299,35.93794]]]}},{"type":"Feature","properties":{"pid":"47a3201f-23f2-4575-a414-e8902bcd76c4","full":0.7},"geometry":{"type":"Polygon","coordinates":[[[136.04294,35.93761],[136.04366,35.93769],[136.0437,35.93759],[136.04301,35.93751],[136.04297,35.93752],[136.04294,35.93761]]]}},{"type":"Feature","properties":{"pid":"c57b9a66-48a1-4958-9ceb-0ddac3d02510","full":5.8},"geometry":{"type":"Polygon","coordinates":[[[136.04219,35.93776],[136.04215,35.93783],[136.04215,35.93785],[136.04221,35.93787],[136.04242,35.9379],[136.04253,35.9379],[136.04275,35.93793],[136.04278,35.9377],[136.04241,35.93764],[136.04236,35.93765],[136.04233,35.93768],[136.0423,35.93775],[136.04219,35.93776]]]}},{"type":"Feature","properties":{"pid":"82f6fbde-094a-4f0a-b234-f10c18540bc3","full":2.4},"geometry":{"type":"Polygon","coordinates":[[[136.04205,35.93714],[136.04282,35.93722],[136.04283,35.93714],[136.04285,35.93714],[136.04286,35.9371],[136.04206,35.93702],[136.04205,35.93714]]]}},{"type":"Feature","properties":{"pid":"b543a126-e91f-4c7f-8ec0-26e6523e4011","full":1.5},"geometry":{"type":"Polygon","coordinates":[[[136.04206,35.93732],[136.04281,35.93741],[136.04282,35.93739],[136.04283,35.93729],[136.04206,35.93722],[136.04205,35.93724],[136.04203,35.93729],[136.04206,35.93732]]]}},{"type":"Feature","properties":{"pid":"94196743-48bc-4a41-839c-8ca29d690264","full":2.4},"geometry":{"type":"Polygon","coordinates":[[[136.0429,35.93687],[136.04289,35.93676],[136.0421,35.93668],[136.04211,35.93669],[136.04208,35.93669],[136.04209,35.9368],[136.0429,35.93687]]]}},{"type":"Feature","properties":{"pid":"a82dd2e1-a932-4b5d-8352-696f4627a5eb","full":3.6},"geometry":{"type":"Polygon","coordinates":[[[136.04207,35.937],[136.04286,35.93708],[136.04288,35.93693],[136.04209,35.93686],[136.04207,35.937]]]}},{"type":"Feature","properties":{"pid":"69cdb507-5d51-49b5-85aa-a8f7eec3ed85","full":11.8},"geometry":{"type":"Polygon","coordinates":[[[136.0417,35.93582],[136.04172,35.93619],[136.04185,35.93617],[136.04214,35.93615],[136.04233,35.93617],[136.0424,35.93593],[136.04203,35.93584],[136.0417,35.93582]]]}},{"type":"Feature","properties":{"pid":"017eee03-e44a-455c-94e3-e21b8e636e3e","full":3.8},"geometry":{"type":"Polygon","coordinates":[[[136.04303,35.93644],[136.04314,35.93615],[136.04287,35.93606],[136.04276,35.93637],[136.04303,35.93644]]]}},{"type":"Feature","properties":{"pid":"9936f053-fb58-49cb-a718-e3009356072a","full":4.1},"geometry":{"type":"Polygon","coordinates":[[[136.04239,35.93622],[136.04268,35.93633],[136.04278,35.93606],[136.04247,35.93595],[136.04239,35.93622]]]}},{"type":"Feature","properties":{"pid":"c5f27168-e175-4da5-9633-ef5b9f0edc0f","full":9.4},"geometry":{"type":"Polygon","coordinates":[[[136.04214,35.93631],[136.04214,35.93659],[136.04215,35.93661],[136.0429,35.93671],[136.04291,35.9367],[136.04293,35.93657],[136.04256,35.93645],[136.0422,35.93628],[136.04216,35.93628],[136.04214,35.93631]]]}},{"type":"Feature","properties":{"pid":"38ef1304-9b3c-45ef-9c5b-3d11450bf385","full":12.1},"geometry":{"type":"Polygon","coordinates":[[[136.04308,35.93646],[136.04329,35.93658],[136.04337,35.93662],[136.04364,35.93668],[136.04371,35.93638],[136.04371,35.93635],[136.04367,35.93633],[136.04343,35.93626],[136.04318,35.93616],[136.04308,35.93646]]]}},{"type":"Feature","properties":{"pid":"a3ed407c-4b8a-4b51-a6ed-25a3fdf4982e","full":8.2},"geometry":{"type":"Polygon","coordinates":[[[136.04401,35.93666],[136.0444,35.93667],[136.04447,35.93641],[136.04439,35.93643],[136.04426,35.93644],[136.04407,35.93643],[136.04385,35.93637],[136.04383,35.93638],[136.04377,35.93666],[136.04379,35.93669],[136.04401,35.93666]]]}},{"type":"Feature","properties":{"pid":"12720fb0-4e1a-4f2e-bc57-0cc4a4b27381","full":1.2},"geometry":{"type":"Polygon","coordinates":[[[136.04156,35.93569],[136.04186,35.93569],[136.04187,35.93565],[136.04178,35.9356],[136.04168,35.93552],[136.04143,35.93531],[136.04137,35.93529],[136.04131,35.93536],[136.04144,35.93543],[136.0415,35.9355],[136.04154,35.93557],[136.04156,35.93569]]]}},{"type":"Feature","properties":{"pid":"9821b946-a1d8-4ad4-8f60-a9ee77547069","full":9.9},"geometry":{"type":"Polygon","coordinates":[[[136.04107,35.93593],[136.04116,35.93627],[136.04126,35.93626],[136.04129,35.93624],[136.0414,35.93623],[136.04158,35.93619],[136.04159,35.93619],[136.0416,35.93583],[136.04107,35.93593]]]}},{"type":"Feature","properties":{"pid":"a73d730e-f2c4-462b-8cd0-260b020cc7f5","full":13.8},"geometry":{"type":"Polygon","coordinates":[[[136.04126,35.93669],[136.04192,35.93677],[136.04192,35.93672],[136.04195,35.93671],[136.04192,35.93636],[136.04188,35.93635],[136.04127,35.93644],[136.04126,35.93669]]]}},{"type":"Feature","properties":{"pid":"cd0c373e-7880-480b-8811-ef4692203bf5","full":4.1},"geometry":{"type":"Polygon","coordinates":[[[136.04074,35.936],[136.04081,35.93629],[136.04102,35.93628],[136.04111,35.93626],[136.04103,35.93596],[136.04074,35.936]]]}},{"type":"Feature","properties":{"pid":"badbc29a-0fa9-45b7-abbe-80e12a7498e2","full":2.9},"geometry":{"type":"Polygon","coordinates":[[[136.04051,35.93633],[136.04067,35.93629],[136.04078,35.93629],[136.0407,35.93602],[136.04056,35.93604],[136.04044,35.93608],[136.04051,35.93633]]]}},{"type":"Feature","properties":{"pid":"f936141b-d1e6-493e-96e1-03f857df2207","full":3.5},"geometry":{"type":"Polygon","coordinates":[[[136.04016,35.9365],[136.04029,35.93642],[136.04046,35.93635],[136.0404,35.93612],[136.04009,35.93622],[136.04016,35.9365]]]}},{"type":"Feature","properties":{"pid":"e5c9177b-6771-4c4f-a6b4-af7e74ef1285","full":11.4},"geometry":{"type":"Polygon","coordinates":[[[136.0396,35.9367],[136.03967,35.93672],[136.04,35.93656],[136.04009,35.93649],[136.04006,35.93633],[136.04002,35.93622],[136.03985,35.93619],[136.03963,35.93612],[136.03963,35.93634],[136.0396,35.9367]]]}},{"type":"Feature","properties":{"pid":"498d52bc-1dea-4698-8014-8ca7194256ab","full":9.1},"geometry":{"type":"Polygon","coordinates":[[[136.03915,35.93648],[136.03931,35.93656],[136.03951,35.93665],[136.03953,35.93612],[136.03926,35.93601],[136.03915,35.93648]]]}},{"type":"Feature","properties":{"pid":"ea5f7555-0066-422a-bb37-91010435465f","full":0.8},"geometry":{"type":"Polygon","coordinates":[[[136.03772,35.93612],[136.03773,35.93613],[136.03781,35.93615],[136.03788,35.93621],[136.03796,35.9363],[136.03801,35.93632],[136.03804,35.93606],[136.038,35.93604],[136.03791,35.93607],[136.03774,35.93606],[136.03772,35.93612]]]}},{"type":"Feature","properties":{"pid":"01c0e222-e7f2-41c7-b563-dc469bfd2e97","full":5.2},"geometry":{"type":"Polygon","coordinates":[[[136.03805,35.93636],[136.03816,35.93639],[136.03825,35.93639],[136.03842,35.93636],[136.03845,35.93613],[136.03824,35.93607],[136.03814,35.93608],[136.0381,35.9361],[136.03805,35.93636]]]}},{"type":"Feature","properties":{"pid":"c9bfc44f-adb9-444c-aba8-9ce3cc8a48b6","full":5.8},"geometry":{"type":"Polygon","coordinates":[[[136.03848,35.93636],[136.03871,35.9364],[136.0388,35.93589],[136.03859,35.93579],[136.03855,35.93602],[136.03849,35.93615],[136.03848,35.93636]]]}},{"type":"Feature","properties":{"pid":"850698ec-d553-4c81-8028-132c1e49d424","full":9.4},"geometry":{"type":"Polygon","coordinates":[[[136.0389,35.93591],[136.03879,35.93642],[136.03881,35.93644],[136.03889,35.93646],[136.0391,35.93647],[136.03921,35.936],[136.03914,35.93595],[136.03892,35.93588],[136.0389,35.93591]]]}},{"type":"Feature","properties":{"pid":"e66a59ec-55a9-4bba-a839-0ead6852f177","full":3.8},"geometry":{"type":"Polygon","coordinates":[[[136.03876,35.93771],[136.03894,35.93773],[136.03903,35.93702],[136.03895,35.93702],[136.03886,35.93704],[136.03876,35.93771]]]}},{"type":"Feature","properties":{"pid":"55d172b9-23e6-41ef-adc0-50a458b7c555","full":3.2},"geometry":{"type":"Polygon","coordinates":[[[136.03861,35.93729],[136.03855,35.9377],[136.03873,35.93771],[136.03883,35.93705],[136.03873,35.93708],[136.03861,35.93729]]]}},{"type":"Feature","properties":{"pid":"7ce41b06-fa04-4a12-8daa-41a3db54274a","full":28.5},"geometry":{"type":"Polygon","coordinates":[[[136.03776,35.93785],[136.0378,35.93787],[136.03807,35.9381],[136.03817,35.93811],[136.0382,35.93809],[136.03831,35.93734],[136.03808,35.93733],[136.03787,35.93734],[136.03771,35.93736],[136.03763,35.93741],[136.03757,35.93784],[136.03776,35.93785]]]}},{"type":"Feature","properties":{"pid":"00613311-ac6e-44cb-851c-a0b5fb82dd88","full":4.6},"geometry":{"type":"Polygon","coordinates":[[[136.03827,35.93821],[136.0384,35.93829],[136.03849,35.93827],[136.03856,35.93779],[136.03833,35.93778],[136.03827,35.93821]]]}},{"type":"Feature","properties":{"pid":"6c8f5c4b-fe0f-4b2e-ad58-9728d1fa8b7d","full":1.7},"geometry":{"type":"Polygon","coordinates":[[[136.03839,35.93736],[136.03834,35.93769],[136.03851,35.9377],[136.03857,35.93732],[136.03839,35.93736]]]}},{"type":"Feature","properties":{"pid":"fcefa75c-90af-4fac-b0d5-0c7a3b754a35","full":9.3},"geometry":{"type":"Polygon","coordinates":[[[136.03853,35.93831],[136.03857,35.93831],[136.0386,35.93829],[136.03866,35.93827],[136.03877,35.93826],[136.03891,35.93828],[136.03898,35.93787],[136.03895,35.93787],[136.03895,35.93783],[136.03861,35.93782],[136.03853,35.93831]]]}},{"type":"Feature","properties":{"pid":"4fbc8bcb-701e-4aa1-8d35-161b24511020","full":2.2},"geometry":{"type":"Polygon","coordinates":[[[136.03905,35.9381],[136.03909,35.93816],[136.03931,35.93817],[136.03945,35.93819],[136.03957,35.93827],[136.03964,35.9383],[136.03975,35.93838],[136.03977,35.93837],[136.03979,35.93812],[136.03906,35.93805],[136.03905,35.9381]]]}},{"type":"Feature","properties":{"pid":"5c272367-f699-4a42-979c-dda92627c15d","full":5.0},"geometry":{"type":"Polygon","coordinates":[[[136.03906,35.93803],[136.03979,35.9381],[136.0398,35.93795],[136.03935,35.93788],[136.03908,35.93787],[136.03906,35.93803]]]}},{"type":"Feature","properties":{"pid":"8842b0c9-381f-4d2f-8bc7-60a20da5d0fd","full":3.2},"geometry":{"type":"Polygon","coordinates":[[[136.03994,35.93827],[136.03996,35.9383],[136.04077,35.93838],[136.04078,35.93826],[136.04001,35.93816],[136.03995,35.93818],[136.03994,35.93827]]]}},{"type":"Feature","properties":{"pid":"844b1b49-682d-46a8-96de-414a5cab0c4d","full":4.7},"geometry":{"type":"Polygon","coordinates":[[[136.03996,35.93812],[136.04078,35.93821],[136.0408,35.93807],[136.04021,35.93797],[136.03999,35.93798],[136.03996,35.93812]]]}},{"type":"Feature","properties":{"pid":"534b3b1b-49a9-45c4-afa0-6cf58f333a63","full":7.4},"geometry":{"type":"Polygon","coordinates":[[[136.04005,35.93786],[136.04059,35.93792],[136.04083,35.93792],[136.04084,35.93773],[136.04006,35.93767],[136.04005,35.93786]]]}},{"type":"Feature","properties":{"pid":"26a0566f-e074-41af-b89a-867b51e5753c","full":8.7},"geometry":{"type":"Polygon","coordinates":[[[136.04002,35.93759],[136.04044,35.93762],[136.04087,35.93764],[136.0409,35.93753],[136.04091,35.93745],[136.04017,35.93738],[136.04015,35.93742],[136.04005,35.93742],[136.04002,35.93759]]]}},{"type":"Feature","properties":{"pid":"73bc813d-0838-4182-a5d4-1383ffba428e","full":4.2},"geometry":{"type":"Polygon","coordinates":[[[136.03954,35.93783],[136.03983,35.93784],[136.03984,35.9377],[136.03913,35.93762],[136.03911,35.93777],[136.03954,35.93783]]]}},{"type":"Feature","properties":{"pid":"6acdc806-0c55-4dac-a3f4-3af609d86f60","full":2.8},"geometry":{"type":"Polygon","coordinates":[[[136.03917,35.93759],[136.03985,35.93766],[136.03986,35.93753],[136.03922,35.93745],[136.03917,35.93759]]]}},{"type":"Feature","properties":{"pid":"1d20f615-e346-468f-87a5-e16ca11ed1ba","full":13.3},"geometry":{"type":"Polygon","coordinates":[[[136.03921,35.93742],[136.03989,35.93749],[136.03993,35.93717],[136.03934,35.9371],[136.03928,35.93712],[136.03921,35.93742]]]}},{"type":"Feature","properties":{"pid":"45b9381f-4758-47f6-9c7b-911449bff39e","full":1.0},"geometry":{"type":"Polygon","coordinates":[[[136.03933,35.93707],[136.03992,35.93712],[136.03994,35.93702],[136.0398,35.937],[136.03966,35.937],[136.03955,35.93698],[136.03945,35.93694],[136.03935,35.93695],[136.03933,35.93707]]]}},{"type":"Feature","properties":{"pid":"0676234b-d1f4-4aad-9413-3b03ec2bf6bb","full":4.5},"geometry":{"type":"Polygon","coordinates":[[[136.04013,35.93681],[136.04011,35.93696],[136.04098,35.93705],[136.04101,35.93691],[136.04013,35.93681]]]}},{"type":"Feature","properties":{"pid":"a0f15f6f-07f3-4aac-a563-b379f61ef156","full":3.3},"geometry":{"type":"Polygon","coordinates":[[[136.04008,35.93701],[136.04007,35.93715],[136.04095,35.93723],[136.04101,35.93711],[136.04008,35.93701]]]}},{"type":"Feature","properties":{"pid":"6c68cee0-c1ec-42da-bb58-1a4a8fa1763c","full":3.7},"geometry":{"type":"Polygon","coordinates":[[[136.04004,35.93734],[136.04094,35.93742],[136.04097,35.93729],[136.04005,35.9372],[136.04004,35.93734]]]}},{"type":"Feature","properties":{"pid":"bc7e4d93-ffe7-4fd2-a641-57cdff5f7929","full":4.9},"geometry":{"type":"Polygon","coordinates":[[[136.041,35.93687],[136.04103,35.93685],[136.04105,35.93668],[136.04102,35.93666],[136.04079,35.93664],[136.04061,35.93668],[136.04047,35.93667],[136.04035,35.93672],[136.04018,35.93675],[136.04017,35.93679],[136.041,35.93687]]]}},{"type":"Feature","properties":{"pid":"86965a66-4a72-471d-b42d-c50f9804d40f","full":23.8},"geometry":{"type":"Polygon","coordinates":[[[136.04114,35.93724],[136.04182,35.9373],[136.04188,35.93714],[136.04192,35.93696],[136.04192,35.93682],[136.04125,35.93674],[136.04114,35.93724]]]}},{"type":"Feature","properties":{"pid":"d0af0347-7618-4e6a-9814-3b1ff83d7743","full":18.0},"geometry":{"type":"Polygon","coordinates":[[[136.04113,35.93778],[136.04173,35.93784],[136.0418,35.93744],[136.04179,35.93742],[136.04117,35.93734],[136.04114,35.9375],[136.04113,35.93778]]]}},{"type":"Feature","properties":{"pid":"9bde3e16-1dab-48a1-b5c6-5675814c78de","full":1.7},"geometry":{"type":"Polygon","coordinates":[[[136.04161,35.93841],[136.04161,35.93829],[136.04094,35.93821],[136.04089,35.93823],[136.04088,35.93832],[136.04161,35.93841]]]}},{"type":"Feature","properties":{"pid":"415bc8ee-438b-4a8a-a627-0779594761c2","full":3.2},"geometry":{"type":"Polygon","coordinates":[[[136.04158,35.9386],[136.04159,35.93846],[136.04086,35.93836],[136.04085,35.93845],[136.04082,35.9385],[136.04158,35.9386]]]}},{"type":"Feature","properties":{"pid":"479ecc48-dd59-496b-99af-66040869861e","full":9.3},"geometry":{"type":"Polygon","coordinates":[[[136.04092,35.93872],[136.04142,35.9389],[136.04154,35.93893],[136.0416,35.93891],[136.04159,35.93866],[136.04157,35.93863],[136.04083,35.93854],[136.04083,35.9386],[136.04083,35.93866],[136.04086,35.9387],[136.04092,35.93872]]]}},{"type":"Feature","properties":{"pid":"0e551248-b89d-4d99-96a4-8a4def1712b3","full":4.7},"geometry":{"type":"Polygon","coordinates":[[[136.04156,35.93905],[136.04099,35.93883],[136.04086,35.9388],[136.04081,35.93883],[136.0408,35.93886],[136.04079,35.93895],[136.04154,35.93919],[136.04156,35.93905]]]}},{"type":"Feature","properties":{"pid":"fab41330-6325-445d-99f4-393108a1f672","full":3.2},"geometry":{"type":"Polygon","coordinates":[[[136.04147,35.93934],[136.04149,35.93933],[136.04153,35.93921],[136.0408,35.93898],[136.04081,35.93906],[136.04084,35.9391],[136.04096,35.93919],[136.04117,35.93926],[136.04147,35.93934]]]}},{"type":"Feature","properties":{"pid":"de0ec75d-3614-4b32-8bba-c46c5ca9b623","full":2.9},"geometry":{"type":"Polygon","coordinates":[[[136.04143,35.93957],[136.04147,35.93941],[136.04147,35.93939],[136.04145,35.93937],[136.04102,35.93926],[136.04101,35.93941],[136.04106,35.93944],[136.0412,35.93948],[136.04138,35.93957],[136.04143,35.93957]]]}},{"type":"Feature","properties":{"pid":"c53d95c2-419e-4e50-8a05-9cb9bf1838bb","full":2.6},"geometry":{"type":"Polygon","coordinates":[[[136.04001,35.93857],[136.04027,35.93866],[136.04049,35.93872],[136.04056,35.93879],[136.04061,35.93882],[136.04069,35.93882],[136.04071,35.93859],[136.03997,35.93851],[136.04001,35.93857]]]}},{"type":"Feature","properties":{"pid":"9a0991ea-3cb6-4529-8464-33d7139967c2","full":3.4},"geometry":{"type":"Polygon","coordinates":[[[136.03991,35.93848],[136.03993,35.93849],[136.04071,35.93857],[136.04072,35.93844],[136.03991,35.93834],[136.03991,35.93848]]]}},{"type":"Feature","properties":{"pid":"9a2cb0f4-adef-4845-add0-c67402191a59","full":15.0},"geometry":{"type":"Polygon","coordinates":[[[136.04341,35.94025],[136.04356,35.94026],[136.04356,35.94029],[136.04411,35.94037],[136.0442,35.94036],[136.04424,35.94006],[136.04346,35.93996],[136.04345,35.94],[136.04341,35.94025]]]}},{"type":"Feature","properties":{"pid":"6bb1ae22-2958-4de3-ad36-0bee58dfb207","full":2.9},"geometry":{"type":"Polygon","coordinates":[[[136.04253,35.94043],[136.04265,35.9405],[136.04315,35.94072],[136.04318,35.94072],[136.0432,35.94061],[136.04249,35.94025],[136.04247,35.94031],[136.04247,35.94035],[136.04249,35.94038],[136.04253,35.94043]]]}},{"type":"Feature","properties":{"pid":"6b3c0d44-cdb0-4d9c-8f8a-0ae7710f1ce2","full":8.0},"geometry":{"type":"Polygon","coordinates":[[[136.0425,35.94021],[136.04317,35.94056],[136.04322,35.94056],[136.04326,35.94024],[136.04256,35.94012],[136.04253,35.94013],[136.04253,35.94015],[136.0425,35.94014],[136.0425,35.94021]]]}},{"type":"Feature","properties":{"pid":"8ae52113-448b-4d0e-8293-41b41484e7fe","full":5.5},"geometry":{"type":"Polygon","coordinates":[[[136.04159,35.93991],[136.04161,35.93992],[136.04189,35.93998],[136.04241,35.94006],[136.04243,35.9399],[136.04239,35.93987],[136.04236,35.93986],[136.04163,35.93978],[136.04159,35.93991]]]}},{"type":"Feature","properties":{"pid":"98399f5f-9c2a-436d-8e1f-e31938b46cf9","full":5.9},"geometry":{"type":"Polygon","coordinates":[[[136.0416,35.93972],[136.04246,35.9398],[136.04246,35.93965],[136.04245,35.93964],[136.04162,35.93955],[136.0416,35.93972]]]}},{"type":"Feature","properties":{"pid":"75cf4e19-10ba-45c8-9f1e-d42db9caab55","full":11.8},"geometry":{"type":"Polygon","coordinates":[[[136.04256,35.93986],[136.04256,35.93987],[136.04254,35.93988],[136.0425,35.94009],[136.04327,35.94022],[136.04333,35.93993],[136.04256,35.93986]]]}},{"type":"Feature","properties":{"pid":"d475dbbf-eca8-4438-914e-82962067a625","full":5.5},"geometry":{"type":"Polygon","coordinates":[[[136.04261,35.93983],[136.04334,35.93989],[136.04335,35.93977],[136.04335,35.93975],[136.04333,35.93973],[136.04272,35.93965],[136.04259,35.93964],[136.04257,35.93981],[136.04261,35.93983]]]}},{"type":"Feature","properties":{"pid":"719243e5-17a7-4905-9d89-af8c7ead5157","full":7.4},"geometry":{"type":"Polygon","coordinates":[[[136.04266,35.93958],[136.04299,35.93962],[136.04339,35.93963],[136.04342,35.93947],[136.04339,35.93945],[136.04278,35.93938],[136.04274,35.93939],[136.0427,35.93941],[136.04268,35.93944],[136.04266,35.93958]]]}},{"type":"Feature","properties":{"pid":"496dcaeb-b724-440d-ae84-8783a7350088","full":3.0},"geometry":{"type":"Polygon","coordinates":[[[136.04264,35.93931],[136.04342,35.93939],[136.04344,35.93924],[136.04301,35.93921],[136.04265,35.93919],[136.04264,35.93931]]]}},{"type":"Feature","properties":{"pid":"f8ea27d7-04af-4413-9a04-1e08bd30a65a","full":7.0},"geometry":{"type":"Polygon","coordinates":[[[136.04251,35.93934],[136.04199,35.9393],[136.0417,35.93929],[136.04166,35.93944],[136.04182,35.93947],[136.04248,35.93954],[136.04251,35.93934]]]}},{"type":"Feature","properties":{"pid":"e6e39121-5685-426c-9fbd-2007b8146a69","full":1.2},"geometry":{"type":"Polygon","coordinates":[[[136.04204,35.93912],[136.04172,35.9391],[136.04171,35.93919],[136.0421,35.93924],[136.04253,35.93927],[136.04254,35.9392],[136.04253,35.93917],[136.04242,35.93916],[136.04204,35.93912]]]}},{"type":"Feature","properties":{"pid":"04345a6e-cbfb-4377-bcc9-27f1d23222f8","full":1.0},"geometry":{"type":"Polygon","coordinates":[[[136.04182,35.93879],[136.04249,35.93886],[136.04258,35.93886],[136.04258,35.93876],[136.04253,35.93875],[136.04184,35.93869],[136.04182,35.93879]]]}},{"type":"Feature","properties":{"pid":"dcf2c26f-0a37-4d43-81ed-9a28ed9b10c7","full":2.3},"geometry":{"type":"Polygon","coordinates":[[[136.0418,35.93886],[136.04178,35.93897],[136.04238,35.93905],[136.04254,35.93905],[136.04254,35.93893],[136.0418,35.93886]]]}},{"type":"Feature","properties":{"pid":"4e3cb740-9f1e-4ea1-a2dc-1c3caf1385e7","full":1.1},"geometry":{"type":"Polygon","coordinates":[[[136.04188,35.93851],[136.04188,35.93861],[136.04191,35.93862],[136.04261,35.93868],[136.0426,35.93858],[136.04188,35.93851]]]}},{"type":"Feature","properties":{"pid":"c7ef7a38-df4d-4b8c-a7f1-87b3352385a8","full":0.7},"geometry":{"type":"Polygon","coordinates":[[[136.04344,35.93862],[136.04345,35.9385],[136.04312,35.93848],[136.04284,35.93844],[136.04283,35.93852],[136.04284,35.93854],[136.04309,35.93857],[136.04344,35.93862]]]}},{"type":"Feature","properties":{"pid":"d6d916cd-291a-4fdd-9483-dd177b62359c","full":1.1},"geometry":{"type":"Polygon","coordinates":[[[136.04344,35.93878],[136.04344,35.93875],[136.04342,35.93865],[136.04281,35.9386],[136.04278,35.93869],[136.0431,35.93874],[136.04344,35.93878]]]}},{"type":"Feature","properties":{"pid":"4df3a70a-72d9-45fb-8d81-a1c6fc1502dc","full":1.1},"geometry":{"type":"Polygon","coordinates":[[[136.04348,35.93896],[136.04342,35.93885],[136.04279,35.93878],[136.04279,35.93889],[136.04297,35.9389],[136.04303,35.93893],[136.04348,35.93896]]]}},{"type":"Feature","properties":{"pid":"1adbf460-7356-4d41-97e9-e2631e0b15a2","full":2.2},"geometry":{"type":"Polygon","coordinates":[[[136.04273,35.93895],[136.04274,35.93907],[136.04343,35.93915],[136.04347,35.93913],[136.04344,35.93902],[136.04273,35.93895]]]}},{"type":"Feature","properties":{"pid":"a44b130b-18db-4973-aac6-e9a86890043f","full":1.3},"geometry":{"type":"Polygon","coordinates":[[[136.04378,35.93839],[136.04379,35.93848],[136.04382,35.9385],[136.04448,35.93859],[136.04451,35.93858],[136.04451,35.93847],[136.04378,35.93839]]]}},{"type":"Feature","properties":{"pid":"16da1cc2-12db-4fd9-902a-32475dd0a61e","full":1.4},"geometry":{"type":"Polygon","coordinates":[[[136.04374,35.93859],[136.04376,35.9387],[136.04394,35.93873],[136.04446,35.9388],[136.04444,35.93868],[136.04374,35.93859]]]}},{"type":"Feature","properties":{"pid":"5a1910a3-5c5d-4034-ac2d-f5018e2c3589","full":0.7},"geometry":{"type":"Polygon","coordinates":[[[136.0437,35.93886],[136.04372,35.93889],[136.0444,35.939],[136.04436,35.93888],[136.04369,35.93879],[136.0437,35.93886]]]}},{"type":"Feature","properties":{"pid":"2ff4ad58-aae8-4ba8-a34e-19d76b2e9ac2","full":3.2},"geometry":{"type":"Polygon","coordinates":[[[136.04361,35.93898],[136.04363,35.93911],[136.04366,35.93913],[136.04442,35.93921],[136.04438,35.9391],[136.04433,35.93907],[136.04361,35.93898]]]}},{"type":"Feature","properties":{"pid":"f63eab0e-8d97-4711-a3c5-f9434658e438","full":5.0},"geometry":{"type":"Polygon","coordinates":[[[136.04386,35.93967],[136.04433,35.93972],[136.04434,35.93957],[136.04354,35.93948],[136.0435,35.93957],[136.04348,35.93967],[136.04386,35.93967]]]}},{"type":"Feature","properties":{"pid":"803a7a3d-9b5a-4671-b493-0ab4c4256b94","full":3.0},"geometry":{"type":"Polygon","coordinates":[[[136.04353,35.93939],[136.04434,35.93949],[136.04435,35.93936],[136.04355,35.93926],[136.04353,35.93939]]]}},{"type":"Feature","properties":{"pid":"3d70d868-e58d-4031-9e03-e47c790616c9","full":5.4},"geometry":{"type":"Polygon","coordinates":[[[136.04425,35.93982],[136.04352,35.93973],[136.04349,35.93975],[136.04347,35.93985],[136.0435,35.9399],[136.04429,35.93999],[136.04431,35.93982],[136.04425,35.93982]]]}},{"type":"Feature","properties":{"pid":"d5b9172c-656f-4b46-9acd-aca54ad3071c","full":2.1},"geometry":{"type":"Polygon","coordinates":[[[136.04444,35.93972],[136.0452,35.93978],[136.04524,35.93966],[136.04446,35.9396],[136.04444,35.93972]]]}},{"type":"Feature","properties":{"pid":"a4a5b3c1-6eb7-4b14-84e4-9dc4228ef93e","full":4.9},"geometry":{"type":"Polygon","coordinates":[[[136.04444,35.93979],[136.04445,35.93989],[136.04455,35.9399],[136.04467,35.93992],[136.04473,35.93994],[136.0448,35.94],[136.04483,35.94001],[136.04496,35.94002],[136.04512,35.94006],[136.04515,35.94006],[136.04519,35.94003],[136.04523,35.93987],[136.04524,35.93985],[136.04444,35.93979]]]}},{"type":"Feature","properties":{"pid":"96a17e0d-8527-4178-ad32-b5b4bfdd3013","full":8.3},"geometry":{"type":"Polygon","coordinates":[[[136.04529,35.94013],[136.04527,35.94015],[136.04531,35.94017],[136.04547,35.94019],[136.04552,35.94018],[136.04556,35.94014],[136.04564,35.94003],[136.04573,35.93986],[136.04572,35.93977],[136.04569,35.93977],[136.04566,35.93967],[136.04541,35.93973],[136.04536,35.93988],[136.04535,35.9399],[136.04533,35.93992],[136.04529,35.94013]]]}},{"type":"Feature","properties":{"pid":"7ec6539d-4580-419b-80d0-e1efa766e5f4","full":3.9},"geometry":{"type":"Polygon","coordinates":[[[136.04526,35.93957],[136.04528,35.93943],[136.04452,35.93937],[136.04451,35.93941],[136.04447,35.93951],[136.04521,35.93958],[136.04526,35.93957]]]}},{"type":"Feature","properties":{"pid":"62a2cc90-c8e6-4e34-81be-822153aaa9c4","full":0.7},"geometry":{"type":"Polygon","coordinates":[[[136.04535,35.93884],[136.04539,35.93881],[136.0454,35.93874],[136.04468,35.93869],[136.04467,35.93879],[136.04535,35.93884]]]}},{"type":"Feature","properties":{"pid":"e7d1be4e-6375-45ae-905a-9bf4f392fab0","full":0.8},"geometry":{"type":"Polygon","coordinates":[[[136.04477,35.93844],[136.04543,35.93848],[136.04542,35.93841],[136.04529,35.93838],[136.04478,35.93831],[136.04477,35.93844]]]}},{"type":"Feature","properties":{"pid":"5ddeaf50-8100-46dc-bf20-218318448582","full":2.0},"geometry":{"type":"Polygon","coordinates":[[[136.04629,35.93907],[136.04636,35.93935],[136.04641,35.93933],[136.04658,35.93921],[136.04653,35.93903],[136.04629,35.93907]]]}},{"type":"Feature","properties":{"pid":"12678beb-de25-435d-89b5-e7cce9f0c292","full":10.4},"geometry":{"type":"Polygon","coordinates":[[[136.04624,35.93984],[136.04671,35.93948],[136.04693,35.93935],[136.04707,35.93922],[136.04711,35.93915],[136.04712,35.93904],[136.0471,35.93898],[136.04702,35.93893],[136.04695,35.93891],[136.04687,35.93893],[136.04687,35.939],[136.04684,35.93914],[136.04673,35.93927],[136.04658,35.93938],[136.04626,35.93959],[136.0462,35.93965],[136.0461,35.9397],[136.04624,35.93984]]]}},{"type":"Feature","properties":{"pid":"8890cb21-b1df-417c-81dc-a6680e9b95e0","full":8.6},"geometry":{"type":"Polygon","coordinates":[[[136.0454,35.93964],[136.04542,35.93964],[136.04566,35.93964],[136.0458,35.93954],[136.04586,35.93952],[136.04592,35.93951],[136.04599,35.93947],[136.04626,35.93926],[136.04625,35.93912],[136.04578,35.93935],[136.04546,35.9394],[136.0454,35.93964]]]}},{"type":"Feature","properties":{"pid":"b9ddb724-f239-4cef-b06f-b228e808c1ca","full":6.4},"geometry":{"type":"Polygon","coordinates":[[[136.04604,35.93972],[136.04601,35.93976],[136.04598,35.93991],[136.04593,35.94],[136.04625,35.94023],[136.04648,35.94008],[136.04622,35.93988],[136.04604,35.93972]]]}},{"type":"Feature","properties":{"pid":"937ab7d6-3b0b-4ad2-9332-e346ae5c4590","full":4.2},"geometry":{"type":"Polygon","coordinates":[[[136.04565,35.94033],[136.04617,35.9407],[136.04628,35.94061],[136.04627,35.94055],[136.04579,35.94021],[136.04578,35.94022],[136.04572,35.94029],[136.0457,35.94031],[136.04565,35.94033]]]}},{"type":"Feature","properties":{"pid":"e535b5d0-4c2a-4773-bd49-083b96679772","full":2.9},"geometry":{"type":"Polygon","coordinates":[[[136.04581,35.94019],[136.04629,35.94052],[136.0463,35.94042],[136.04621,35.94034],[136.0462,35.9403],[136.04623,35.94025],[136.04591,35.94003],[136.04581,35.94016],[136.04581,35.94019]]]}},{"type":"Feature","properties":{"pid":"eba22245-8069-4593-bdfc-dafaa6e1a9b3","full":2.1},"geometry":{"type":"Polygon","coordinates":[[[136.04432,35.94057],[136.04435,35.94058],[136.0444,35.94059],[136.0445,35.94053],[136.04456,35.94044],[136.04456,35.9404],[136.04455,35.94033],[136.0444,35.94013],[136.04438,35.94013],[136.04432,35.94057]]]}},{"type":"Feature","properties":{"pid":"35214642-006c-4900-8d60-32af9e9ebb54","full":2.3},"geometry":{"type":"Polygon","coordinates":[[[136.03139,35.93853],[136.0314,35.93832],[136.03125,35.93834],[136.0312,35.93834],[136.03114,35.93833],[136.03109,35.93834],[136.03105,35.93837],[136.03102,35.93843],[136.03105,35.93846],[136.03115,35.93852],[136.03128,35.93854],[136.03139,35.93853]]]}},{"type":"Feature","properties":{"pid":"4fc5aac0-1c8b-4ad5-bde1-cf6ecfd16981","full":5.1},"geometry":{"type":"Polygon","coordinates":[[[136.03177,35.93858],[136.03171,35.93822],[136.03161,35.9382],[136.03156,35.9382],[136.03147,35.93828],[136.0314,35.93831],[136.0314,35.93854],[136.03144,35.93853],[136.03177,35.93858]]]}},{"type":"Feature","properties":{"pid":"88d87da4-cc38-4496-b7c8-8c763f9dde4e","full":3.7},"geometry":{"type":"Polygon","coordinates":[[[136.03321,35.93847],[136.03313,35.93834],[136.03296,35.93844],[136.03282,35.93848],[136.03269,35.93854],[136.03254,35.93852],[136.03244,35.93849],[136.03233,35.93849],[136.03238,35.93864],[136.0325,35.93867],[136.03263,35.93867],[136.03277,35.93865],[136.03295,35.93859],[136.0331,35.93854],[136.03321,35.93847]]]}},{"type":"Feature","properties":{"pid":"c2d3f715-2f8c-427e-b3ad-0d6b02285f41","full":2.4},"geometry":{"type":"Polygon","coordinates":[[[136.03203,35.93862],[136.03232,35.93865],[136.03226,35.93848],[136.0322,35.93838],[136.03201,35.93829],[136.03203,35.93862]]]}},{"type":"Feature","properties":{"pid":"5e006d40-bdd4-4b3f-b9af-43a8ce74548b","full":3.6},"geometry":{"type":"Polygon","coordinates":[[[136.03178,35.93858],[136.03202,35.93861],[136.032,35.93828],[136.03197,35.93827],[136.03173,35.93823],[136.03178,35.93858]]]}},{"type":"Feature","properties":{"pid":"5f300f67-b1ee-4702-9f87-a2a5967bccf4","full":3.4},"geometry":{"type":"Polygon","coordinates":[[[136.0337,35.93802],[136.03356,35.93802],[136.03342,35.93809],[136.03336,35.93812],[136.0333,35.93819],[136.03325,35.93823],[136.03326,35.93827],[136.03318,35.93833],[136.03324,35.9384],[136.03328,35.93844],[136.03361,35.93818],[136.03379,35.93805],[136.0337,35.93802]]]}},{"type":"Feature","properties":{"pid":"27200058-995d-40e7-a1aa-12258a5c9d22","full":0.6},"geometry":{"type":"Polygon","coordinates":[[[136.03081,35.93827],[136.031,35.93811],[136.03104,35.93808],[136.03092,35.93808],[136.03074,35.93811],[136.03068,35.93813],[136.03067,35.93816],[136.03068,35.93818],[136.03075,35.93825],[136.03081,35.93827]]]}},{"type":"Feature","properties":{"pid":"22b8b285-d84f-4efd-a4a7-5dd491aed285","full":0.8},"geometry":{"type":"Polygon","coordinates":[[[136.03055,35.9384],[136.03068,35.93842],[136.03088,35.93842],[136.03088,35.9384],[136.03088,35.93839],[136.03062,35.9382],[136.03059,35.93822],[136.03055,35.9384]]]}},{"type":"Feature","properties":{"pid":"b415f838-574a-462c-b87a-b468c891a3a8","full":1.7},"geometry":{"type":"Polygon","coordinates":[[[136.02955,35.93793],[136.03,35.93799],[136.03006,35.93799],[136.03007,35.93797],[136.03006,35.93788],[136.03004,35.93786],[136.0299,35.93786],[136.02983,35.93785],[136.02967,35.93779],[136.02959,35.93777],[136.02957,35.93777],[136.02954,35.9379],[136.02955,35.93793]]]}},{"type":"Feature","properties":{"pid":"0d2b720e-2d36-4177-a0e9-21cebf252f29","full":3.0},"geometry":{"type":"Polygon","coordinates":[[[136.03005,35.93829],[136.03016,35.93832],[136.03024,35.93836],[136.03029,35.93837],[136.03033,35.93839],[136.03041,35.93841],[136.03049,35.9384],[136.03053,35.9382],[136.03044,35.93821],[136.0301,35.93815],[136.03005,35.93829]]]}},{"type":"Feature","properties":{"pid":"93f04c0d-d170-4983-89a8-3fce5b70fb4f","full":4.6},"geometry":{"type":"Polygon","coordinates":[[[136.02997,35.93827],[136.03004,35.93811],[136.02998,35.93807],[136.02994,35.93805],[136.02958,35.938],[136.02957,35.938],[136.02956,35.93801],[136.02949,35.9382],[136.02974,35.93824],[136.02986,35.93825],[136.02997,35.93827]]]}},{"type":"Feature","properties":{"pid":"1b5893a0-55be-477f-a5a8-baadf7481ca9","full":2.9},"geometry":{"type":"Polygon","coordinates":[[[136.0291,35.93811],[136.02931,35.93816],[136.0294,35.93817],[136.02945,35.93818],[136.02949,35.93801],[136.02947,35.93801],[136.02899,35.93793],[136.02897,35.93793],[136.02895,35.938],[136.02895,35.93805],[136.0291,35.93811]]]}},{"type":"Feature","properties":{"pid":"8a351817-6dcb-4a84-8c71-0c0849078fbd","full":1.9},"geometry":{"type":"Polygon","coordinates":[[[136.02883,35.93769],[136.02882,35.9377],[136.02881,35.93774],[136.02893,35.93785],[136.02948,35.93795],[136.02952,35.93779],[136.02949,35.93778],[136.02935,35.9378],[136.02925,35.93779],[136.02883,35.93769]]]}},{"type":"Feature","properties":{"pid":"3626a93f-348c-4d9b-9485-c51130cf6d9a","full":2.8},"geometry":{"type":"Polygon","coordinates":[[[136.02856,35.93808],[136.02867,35.9381],[136.02887,35.9381],[136.02884,35.93795],[136.0288,35.93787],[136.02875,35.9378],[136.02859,35.93773],[136.0286,35.93793],[136.02856,35.93808]]]}},{"type":"Feature","properties":{"pid":"13e9378c-63a5-4d22-b77b-6d1ba425fe8b","full":0.7},"geometry":{"type":"Polygon","coordinates":[[[136.02824,35.93802],[136.02849,35.93806],[136.02851,35.93794],[136.0283,35.93788],[136.02826,35.93789],[136.02824,35.93802]]]}},{"type":"Feature","properties":{"pid":"94d680ea-31ff-476a-ae61-ad4caa183fc2","full":1.0},"geometry":{"type":"Polygon","coordinates":[[[136.02789,35.93799],[136.02818,35.938],[136.02819,35.93791],[136.02817,35.93788],[136.0281,35.93785],[136.02803,35.93784],[136.02791,35.93786],[136.02789,35.93799]]]}},{"type":"Feature","properties":{"pid":"02ccca17-fb3f-4421-a31c-87edf61eefed","full":0.8},"geometry":{"type":"Polygon","coordinates":[[[136.02726,35.93752],[136.02686,35.93782],[136.02706,35.93784],[136.02737,35.93756],[136.02726,35.93752]]]}},{"type":"Feature","properties":{"pid":"f48b74b3-c345-40d4-9499-8122712772b4","full":5.6},"geometry":{"type":"Polygon","coordinates":[[[136.02715,35.93749],[136.02697,35.93742],[136.02695,35.93742],[136.02669,35.93752],[136.02661,35.93756],[136.02657,35.9376],[136.0265,35.93767],[136.02649,35.93773],[136.02653,35.93775],[136.02679,35.93776],[136.02715,35.93749]]]}},{"type":"Feature","properties":{"pid":"c1a7cd8f-12ca-4869-a968-c0db668e6951","full":1.0},"geometry":{"type":"Polygon","coordinates":[[[136.04581,35.9336],[136.04596,35.93367],[136.04605,35.9336],[136.04607,35.93347],[136.04596,35.93342],[136.04581,35.9336]]]}},{"type":"Feature","properties":{"pid":"c5454b4c-9881-4243-8640-18704100ff8e","full":2.4},"geometry":{"type":"Polygon","coordinates":[[[136.04597,35.9334],[136.04609,35.93345],[136.04619,35.93331],[136.04625,35.9332],[136.04635,35.93312],[136.04615,35.93301],[136.04612,35.93305],[136.04607,35.93312],[136.04597,35.9334]]]}},{"type":"Feature","properties":{"pid":"223f70e1-756f-4f09-ba56-196d5d01bc11","full":10.0},"geometry":{"type":"Polygon","coordinates":[[[136.0453,35.93198],[136.04534,35.93211],[136.04534,35.93215],[136.04536,35.93223],[136.04543,35.93241],[136.04553,35.9325],[136.0456,35.93253],[136.04579,35.93246],[136.04564,35.93214],[136.04557,35.93191],[136.04555,35.93189],[136.04534,35.93193],[136.0453,35.93198]]]}},{"type":"Feature","properties":{"pid":"2a45ed85-22bc-4e78-a83a-537ae403aed4","full":5.1},"geometry":{"type":"Polygon","coordinates":[[[136.04618,35.93299],[136.04638,35.9331],[136.04646,35.93303],[136.04672,35.93286],[136.04675,35.93282],[136.04674,35.93282],[136.04629,35.93273],[136.04627,35.93285],[136.04618,35.93299]]]}},{"type":"Feature","properties":{"pid":"4239beab-b114-4b28-a14d-87d9fa82f722","full":4.6},"geometry":{"type":"Polygon","coordinates":[[[136.04646,35.93269],[136.0467,35.93273],[136.0466,35.93228],[136.04642,35.93219],[136.04636,35.93214],[136.04634,35.93214],[136.04646,35.93269]]]}},{"type":"Feature","properties":{"pid":"4bd6a359-93e5-4b9e-9a3e-0e489e623de6","full":5.6},"geometry":{"type":"Polygon","coordinates":[[[136.04673,35.93272],[136.04703,35.93278],[136.04698,35.93243],[136.04663,35.93227],[136.04673,35.93272]]]}},{"type":"Feature","properties":{"pid":"a8b3cf37-8c04-4ed9-8e1d-6ad7ae1143c3","full":6.5},"geometry":{"type":"Polygon","coordinates":[[[136.04624,35.93264],[136.04643,35.93267],[136.0463,35.93205],[136.04632,35.93197],[136.04602,35.93208],[136.04624,35.93264]]]}},{"type":"Feature","properties":{"pid":"0a18f791-23cf-4249-8f85-f91f3ba57186","full":2.7},"geometry":{"type":"Polygon","coordinates":[[[136.04563,35.93188],[136.04568,35.9321],[136.04574,35.93223],[136.04585,35.93245],[136.04598,35.93239],[136.04578,35.93186],[136.04576,35.93185],[136.04563,35.93188]]]}},{"type":"Feature","properties":{"pid":"1d2df8fb-512e-4360-9ba2-41878e369207","full":11.4},"geometry":{"type":"Polygon","coordinates":[[[136.04571,35.93137],[136.04573,35.93142],[136.04587,35.93173],[136.04597,35.93198],[136.04599,35.93198],[136.04629,35.9319],[136.04629,35.93189],[136.04622,35.93183],[136.04614,35.93174],[136.04612,35.93168],[136.04612,35.93155],[136.04616,35.93143],[136.04603,35.93129],[136.04571,35.93137]]]}},{"type":"Feature","properties":{"pid":"63d99778-0c79-4f15-80e5-6e43655122b7","full":5.1},"geometry":{"type":"Polygon","coordinates":[[[136.04554,35.93181],[136.04575,35.93174],[136.04559,35.93144],[136.04551,35.93143],[136.04542,35.93146],[136.04536,35.93146],[136.04541,35.93183],[136.04554,35.93181]]]}},{"type":"Feature","properties":{"pid":"27df4af7-02a9-4798-b55c-f563b5325672","full":3.0},"geometry":{"type":"Polygon","coordinates":[[[136.04484,35.93223],[136.04489,35.93222],[136.04506,35.93215],[136.04519,35.93215],[136.04528,35.93209],[136.04522,35.93196],[136.04495,35.932],[136.04482,35.93204],[136.04481,35.93212],[136.04484,35.93223]]]}},{"type":"Feature","properties":{"pid":"8bcf8b5c-f424-46c6-99a2-b8227924a4b7","full":3.3},"geometry":{"type":"Polygon","coordinates":[[[136.04471,35.93185],[136.04478,35.93186],[136.04487,35.93183],[136.04482,35.93145],[136.04447,35.93163],[136.04448,35.93171],[136.0445,35.93173],[136.04466,35.93171],[136.04469,35.93183],[136.04471,35.93185]]]}},{"type":"Feature","properties":{"pid":"e20b3b8c-78b5-44f7-9cf6-86fcf0fef117","full":5.2},"geometry":{"type":"Polygon","coordinates":[[[136.04491,35.93181],[136.04519,35.93173],[136.04517,35.93152],[136.045,35.93133],[136.04486,35.93142],[136.04491,35.93181]]]}},{"type":"Feature","properties":{"pid":"4c8af988-ddbd-4a0f-b9f8-6df34992b9a4","full":4.8},"geometry":{"type":"Polygon","coordinates":[[[136.04443,35.93149],[136.04437,35.93104],[136.0443,35.93105],[136.04409,35.93113],[136.04415,35.93127],[136.04422,35.93154],[136.04433,35.93153],[136.04443,35.93149]]]}},{"type":"Feature","properties":{"pid":"e3a397e0-fb3d-424e-872a-8e655af3db0b","full":3.7},"geometry":{"type":"Polygon","coordinates":[[[136.04418,35.93153],[136.04406,35.93115],[136.04384,35.93122],[136.04393,35.93154],[136.04399,35.93155],[136.04407,35.93154],[136.04415,35.93154],[136.04418,35.93153]]]}},{"type":"Feature","properties":{"pid":"bc18fc26-be40-4996-bbf2-78308ca82be4","full":3.2},"geometry":{"type":"Polygon","coordinates":[[[136.04365,35.93155],[136.04376,35.93156],[136.04389,35.93154],[136.04378,35.93122],[136.04373,35.93122],[136.04353,35.9312],[136.04365,35.93155]]]}},{"type":"Feature","properties":{"pid":"effe05bd-28bd-42a0-8266-331cb6c48889","full":3.9},"geometry":{"type":"Polygon","coordinates":[[[136.04334,35.93156],[136.04343,35.93157],[136.04352,35.93157],[136.0436,35.93156],[136.04348,35.93118],[136.0434,35.93118],[136.04325,35.93121],[136.04334,35.93156]]]}},{"type":"Feature","properties":{"pid":"3ee5ac66-57f6-4eb4-a665-50b35fbf6e91","full":2.3},"geometry":{"type":"Polygon","coordinates":[[[136.04177,35.93194],[136.0418,35.93199],[136.04185,35.93205],[136.04193,35.93205],[136.04238,35.93187],[136.04243,35.93184],[136.04235,35.93179],[136.04226,35.93177],[136.04216,35.9318],[136.04206,35.93186],[136.04177,35.93194]]]}},{"type":"Feature","properties":{"pid":"45ef475f-f070-423b-970f-29dc44d06b7e","full":3.5},"geometry":{"type":"Polygon","coordinates":[[[136.04281,35.93164],[136.04287,35.93166],[136.04293,35.93157],[136.04303,35.93152],[136.04289,35.93118],[136.04269,35.93121],[136.04281,35.93164]]]}},{"type":"Feature","properties":{"pid":"b195cf7c-f52b-4c9a-bbd6-14feaf7ca79d","full":2.9},"geometry":{"type":"Polygon","coordinates":[[[136.04308,35.93153],[136.04323,35.93156],[136.04331,35.93155],[136.0432,35.93122],[136.0431,35.93122],[136.04295,35.9312],[136.04308,35.93153]]]}},{"type":"Feature","properties":{"pid":"ac770f52-a72f-470e-a661-42e1697567f7","full":3.4},"geometry":{"type":"Polygon","coordinates":[[[136.04451,35.92963],[136.04425,35.92949],[136.04395,35.92962],[136.04398,35.92967],[136.04407,35.92972],[136.04413,35.9298],[136.04451,35.92963]]]}},{"type":"Feature","properties":{"pid":"4f10da6b-fdc3-41d2-a6b4-d524faa56e59","full":4.8},"geometry":{"type":"Polygon","coordinates":[[[136.04468,35.93137],[136.0447,35.93131],[136.04461,35.93093],[136.04459,35.93092],[136.04453,35.93094],[136.0444,35.931],[136.0444,35.93102],[136.04439,35.93102],[136.04447,35.93147],[136.04468,35.93137]]]}},{"type":"Feature","properties":{"pid":"c1ffa59b-3e12-4e98-afc4-5ca0d4f83b44","full":4.9},"geometry":{"type":"Polygon","coordinates":[[[136.04493,35.93116],[136.04502,35.9308],[136.04489,35.93079],[136.04489,35.9308],[136.04488,35.9308],[136.04487,35.93079],[136.04465,35.93088],[136.04476,35.93127],[136.04493,35.93116]]]}},{"type":"Feature","properties":{"pid":"8b8b906d-3587-4340-a154-4a651378939d","full":5.9},"geometry":{"type":"Polygon","coordinates":[[[136.04491,35.9307],[136.04526,35.93075],[136.04526,35.93073],[136.04528,35.93073],[136.04519,35.93056],[136.04505,35.93034],[136.04476,35.93043],[136.04491,35.9307]]]}},{"type":"Feature","properties":{"pid":"f7b58e1d-1ef0-43ab-84f9-2c453dc6e936","full":1.7},"geometry":{"type":"Polygon","coordinates":[[[136.04529,35.93087],[136.04536,35.93142],[136.04556,35.93134],[136.04536,35.93083],[136.0453,35.93085],[136.0453,35.93086],[136.04529,35.93087]]]}},{"type":"Feature","properties":{"pid":"db0dcf59-6398-4885-8a8c-8b06513802a8","full":9.1},"geometry":{"type":"Polygon","coordinates":[[[136.04569,35.9313],[136.04597,35.93122],[136.0459,35.93112],[136.04586,35.9309],[136.04583,35.93085],[136.04577,35.93081],[136.04569,35.93078],[136.04543,35.93077],[136.04565,35.93129],[136.04569,35.93128],[136.04569,35.9313]]]}},{"type":"Feature","properties":{"pid":"eddab703-fcab-489d-a81a-18216848ccf0","full":7.1},"geometry":{"type":"Polygon","coordinates":[[[136.04476,35.93042],[136.04504,35.93031],[136.04495,35.93015],[136.04473,35.9299],[136.04456,35.92998],[136.04457,35.93002],[136.04454,35.93005],[136.04474,35.9304],[136.04476,35.93042]]]}},{"type":"Feature","properties":{"pid":"3d11cce3-38d0-4ee1-8469-583652e73809","full":5.8},"geometry":{"type":"Polygon","coordinates":[[[136.04432,35.93],[136.04455,35.92992],[136.0447,35.92985],[136.0446,35.9297],[136.04452,35.92964],[136.04414,35.92981],[136.04414,35.92986],[136.04416,35.92991],[136.0442,35.92993],[136.04429,35.92996],[136.04432,35.93]]]}},{"type":"Feature","properties":{"pid":"650f508b-8e36-499b-941c-cf1865c36ed2","full":4.1},"geometry":{"type":"Polygon","coordinates":[[[136.04338,35.92825],[136.04366,35.92891],[136.04367,35.92892],[136.04382,35.92883],[136.04356,35.9282],[136.04338,35.92825]]]}},{"type":"Feature","properties":{"pid":"08247e3e-fbee-44b4-a018-d1e33a335dbc","full":2.6},"geometry":{"type":"Polygon","coordinates":[[[136.04026,35.92444],[136.04038,35.92456],[136.04041,35.92462],[136.04049,35.92457],[136.0406,35.92452],[136.04066,35.92452],[136.04078,35.92452],[136.04069,35.92437],[136.04069,35.92432],[136.04068,35.92431],[136.04052,35.92437],[136.04026,35.92444]]]}},{"type":"Feature","properties":{"pid":"67f15cd3-7cd2-410a-aee5-f1b08676daff","full":4.3},"geometry":{"type":"Polygon","coordinates":[[[136.04085,35.92414],[136.04084,35.92416],[136.04097,35.92453],[136.04101,35.92451],[136.04115,35.92446],[136.04127,35.92443],[136.04128,35.92442],[136.04099,35.92406],[136.04085,35.92414]]]}},{"type":"Feature","properties":{"pid":"0fd8fd87-3b6e-4cbb-abcd-4fd9ea7ca19b","full":2.3},"geometry":{"type":"Polygon","coordinates":[[[136.04105,35.92406],[136.04133,35.92442],[136.04145,35.92431],[136.0412,35.92396],[136.04105,35.92406]]]}},{"type":"Feature","properties":{"pid":"a577648a-df99-446f-97de-ee7bec00ae01","full":1.2},"geometry":{"type":"Polygon","coordinates":[[[136.04452,35.92522],[136.04454,35.92537],[136.04458,35.92539],[136.04471,35.92538],[136.04476,35.92539],[136.04493,35.92534],[136.04492,35.92526],[136.04452,35.92522]]]}},{"type":"Feature","properties":{"pid":"49c0255f-1993-4edf-98fe-30b1c1fa3f88","full":0.9},"geometry":{"type":"Polygon","coordinates":[[[136.04496,35.92525],[136.04497,35.92514],[136.04455,35.92508],[136.0445,35.9252],[136.04496,35.92525]]]}},{"type":"Feature","properties":{"pid":"2854a133-90d8-4887-9629-c7151ed05fee","full":1.0},"geometry":{"type":"Polygon","coordinates":[[[136.04517,35.92535],[136.0452,35.92516],[136.04498,35.92514],[136.04496,35.92532],[136.04517,35.92535]]]}},{"type":"Feature","properties":{"pid":"e7b82ed0-b4d7-44be-b5f0-22058d6c3424","full":4.9},"geometry":{"type":"Polygon","coordinates":[[[136.04666,35.92519],[136.04666,35.92535],[136.04691,35.92539],[136.04714,35.92543],[136.04727,35.92543],[136.04728,35.92523],[136.04666,35.92519]]]}},{"type":"Feature","properties":{"pid":"2e5d5f32-0ba7-44a1-85b3-6121fb83fe1a","full":1.6},"geometry":{"type":"Polygon","coordinates":[[[136.04519,35.92515],[136.04521,35.92503],[136.04459,35.92495],[136.04456,35.92507],[136.04519,35.92515]]]}},{"type":"Feature","properties":{"pid":"8be0c8bd-9ecb-46ff-95ec-966dee8e3070","full":4.5},"geometry":{"type":"Polygon","coordinates":[[[136.04315,35.92441],[136.0434,35.92468],[136.0435,35.9247],[136.04371,35.92472],[136.04368,35.92462],[136.04367,35.92459],[136.04364,35.92458],[136.04335,35.92432],[136.04332,35.92432],[136.04315,35.92441]]]}},{"type":"Feature","properties":{"pid":"68016151-f5ce-41f9-82f7-1d622975d531","full":0.5},"geometry":{"type":"Polygon","coordinates":[[[136.0421,35.92485],[136.04218,35.92478],[136.04199,35.92461],[136.0419,35.92466],[136.04189,35.9247],[136.04197,35.92478],[136.0421,35.92485]]]}},{"type":"Feature","properties":{"pid":"ab8f979f-648f-4167-8427-74ab25f68bfb","full":1.1},"geometry":{"type":"Polygon","coordinates":[[[136.04326,35.92421],[136.04317,35.92408],[136.04291,35.9242],[136.04305,35.92432],[136.04326,35.92421]]]}},{"type":"Feature","properties":{"pid":"a142c09f-1d14-4798-9176-4c8f4a1a3304","full":0.6},"geometry":{"type":"Polygon","coordinates":[[[136.04289,35.92419],[136.04316,35.92406],[136.04314,35.92402],[136.04305,35.92395],[136.04299,35.92399],[136.04287,35.92404],[136.04289,35.92419]]]}},{"type":"Feature","properties":{"pid":"a018c142-5791-4fc7-a7fb-a6820572aae1","full":0.8},"geometry":{"type":"Polygon","coordinates":[[[136.04148,35.92382],[136.04172,35.92416],[136.04173,35.92416],[136.0418,35.92404],[136.04163,35.9238],[136.04158,35.92378],[136.04148,35.92382]]]}},{"type":"Feature","properties":{"pid":"469e437c-5139-46eb-973e-d01bb6cae6b9","full":4.6},"geometry":{"type":"Polygon","coordinates":[[[136.04124,35.92396],[136.04148,35.92429],[136.04155,35.9243],[136.0417,35.92421],[136.04144,35.92383],[136.04124,35.92396]]]}}],"precision":5}