{"type":"FeatureCollection","features":[{"type":"Feature","properties":{"pid":"a7af8b35-9688-4e53-9292-76a2b57439db","full":10.6},"geometry":{"type":"Polygon","coordinates":[[[135.8675,35.4569],[135.86752,35.45693],[135.86749,35.45698],[135.86751,35.45702],[135.86754,35.45703],[135.86755,35.45708],[135.86751,35.45712],[135.86752,35.45715],[135.86755,35.45716],[135.86828,35.45691],[135.86814,35.45668],[135.8675,35.4569]]]}},{"type":"Feature","properties":{"pid":"56b6c70c-44e0-4a10-bb4d-e770f0031081","full":11.0},"geometry":{"type":"Polygon","coordinates":[[[135.8678,35.45649],[135.86729,35.45671],[135.86735,35.45686],[135.86737,35.45688],[135.86739,35.45685],[135.86743,35.45685],[135.86749,35.45686],[135.86751,35.45689],[135.86814,35.45666],[135.86801,35.45645],[135.86798,35.45644],[135.8678,35.45649]]]}},{"type":"Feature","properties":{"pid":"a9c42ead-39e5-445c-ba1c-6bea085ac8bf","full":1.2},"geometry":{"type":"Polygon","coordinates":[[[135.86698,35.45682],[135.86678,35.45689],[135.86685,35.45702],[135.8669,35.4571],[135.86698,35.4571],[135.86705,35.45708],[135.86698,35.45682]]]}},{"type":"Feature","properties":{"pid":"ffa54243-3216-4368-9928-d7250502fe94","full":4.9},"geometry":{"type":"Polygon","coordinates":[[[135.86654,35.45675],[135.86657,35.45665],[135.86658,35.45653],[135.86659,35.45648],[135.86658,35.45646],[135.86622,35.4565],[135.86618,35.45664],[135.86622,35.45677],[135.86627,35.45679],[135.86633,35.45676],[135.8664,35.45675],[135.86654,35.45675]]]}},{"type":"Feature","properties":{"pid":"5b830127-0c4b-45df-8f38-41ee32766536","full":1.0},"geometry":{"type":"Polygon","coordinates":[[[135.86626,35.45698],[135.8662,35.45682],[135.86617,35.45677],[135.86615,35.45668],[135.86606,35.45669],[135.86603,35.45678],[135.86604,35.45685],[135.8661,35.45702],[135.86613,35.45702],[135.86626,35.45698]]]}},{"type":"Feature","properties":{"pid":"6f9e8cd0-916f-4af9-9312-2fe2d4c596f1","full":1.0},"geometry":{"type":"Polygon","coordinates":[[[135.86655,35.4569],[135.86655,35.45681],[135.86643,35.45679],[135.86637,35.45679],[135.86634,35.4568],[135.86628,35.45682],[135.86626,35.45682],[135.86621,35.45681],[135.86624,35.4569],[135.86627,35.45697],[135.86655,35.4569]]]}},{"type":"Feature","properties":{"pid":"00edfe45-13e5-447c-a06e-0b62391a6a83","full":3.9},"geometry":{"type":"Polygon","coordinates":[[[135.86555,35.45712],[135.86602,35.457],[135.86595,35.45687],[135.86595,35.45678],[135.8656,35.45688],[135.86555,35.45712]]]}},{"type":"Feature","properties":{"pid":"15324530-4546-47db-be3b-e72c341aa5f2","full":4.7},"geometry":{"type":"Polygon","coordinates":[[[135.86565,35.45685],[135.8658,35.45679],[135.86595,35.45676],[135.86597,35.45666],[135.86582,35.45652],[135.86551,35.45661],[135.86559,35.45686],[135.86565,35.45685]]]}},{"type":"Feature","properties":{"pid":"b1b52d5c-5a7d-4a15-a379-4f6e9badee8c","full":0.9},"geometry":{"type":"Polygon","coordinates":[[[135.86534,35.45661],[135.86527,35.45645],[135.86505,35.4565],[135.86511,35.45665],[135.86517,35.45665],[135.86534,35.45661]]]}},{"type":"Feature","properties":{"pid":"3922ae7d-95f0-425e-b97b-ea2f3a74f925","full":2.4},"geometry":{"type":"Polygon","coordinates":[[[135.8652,35.45689],[135.86555,35.4568],[135.86548,35.45662],[135.86518,35.4567],[135.86516,35.45672],[135.86515,35.45674],[135.8652,35.45689]]]}},{"type":"Feature","properties":{"pid":"d5053978-626d-4344-9748-33d341e5583c","full":2.8},"geometry":{"type":"Polygon","coordinates":[[[135.86488,35.45686],[135.86511,35.45681],[135.865,35.45654],[135.86478,35.4566],[135.86477,35.45664],[135.86485,35.45682],[135.86488,35.45686]]]}},{"type":"Feature","properties":{"pid":"ef07a4a3-32e5-4fa0-84fe-6d1685a74cd4","full":7.1},"geometry":{"type":"Polygon","coordinates":[[[135.86395,35.45684],[135.86448,35.45677],[135.86445,35.4566],[135.86443,35.45658],[135.86429,35.45659],[135.86426,35.45651],[135.86426,35.45642],[135.8641,35.4565],[135.86402,35.45655],[135.86397,35.45661],[135.86394,35.45669],[135.86393,35.45682],[135.86395,35.45684]]]}},{"type":"Feature","properties":{"pid":"75307496-08ff-4ed4-9401-6b01e8efc2af","full":5.6},"geometry":{"type":"Polygon","coordinates":[[[135.86398,35.45712],[135.86414,35.45708],[135.86433,35.45704],[135.86433,35.45701],[135.86443,35.45698],[135.86448,35.45697],[135.86448,35.45694],[135.86451,35.45694],[135.86448,35.45679],[135.86395,35.45687],[135.86394,35.4569],[135.86398,35.45712]]]}},{"type":"Feature","properties":{"pid":"50779ad0-7e4d-4d2a-be45-ac326a902667","full":1.3},"geometry":{"type":"Polygon","coordinates":[[[135.86478,35.45657],[135.86498,35.45651],[135.86498,35.4565],[135.86489,35.45631],[135.86487,35.45631],[135.86469,35.45638],[135.86475,35.45651],[135.86476,35.45651],[135.86477,35.45656],[135.86478,35.45657]]]}},{"type":"Feature","properties":{"pid":"1e731a90-31b1-4e6d-811a-f6e1db4251ac","full":0.6},"geometry":{"type":"Polygon","coordinates":[[[135.86489,35.45617],[135.86497,35.45631],[135.86517,35.45623],[135.86512,35.45617],[135.86506,35.45612],[135.86489,35.45617]]]}},{"type":"Feature","properties":{"pid":"10c93936-0dbb-41e1-8c72-a2b9b552d928","full":1.2},"geometry":{"type":"Polygon","coordinates":[[[135.86485,35.45594],[135.86484,35.45601],[135.86484,35.45606],[135.86488,35.45616],[135.86506,35.45609],[135.8651,35.45607],[135.86498,35.4559],[135.86485,35.45594]]]}},{"type":"Feature","properties":{"pid":"4f867e5d-aaa0-470c-9e1b-668b2058ff99","full":2.4},"geometry":{"type":"Polygon","coordinates":[[[135.86534,35.45579],[135.86503,35.4559],[135.86511,35.45601],[135.86525,35.45607],[135.86542,35.45603],[135.86541,35.45596],[135.86538,35.45596],[135.86534,35.45579]]]}},{"type":"Feature","properties":{"pid":"b4619d57-e221-4a73-b144-de6e4b3a6751","full":0.5},"geometry":{"type":"Polygon","coordinates":[[[135.86502,35.45566],[135.86489,35.45571],[135.86495,35.45586],[135.86544,35.45572],[135.86541,35.45561],[135.86506,35.45574],[135.86502,35.45566]]]}},{"type":"Feature","properties":{"pid":"a016482f-7926-42d2-b517-f02ccc5ad54c","full":1.5},"geometry":{"type":"Polygon","coordinates":[[[135.86471,35.45544],[135.86452,35.45547],[135.8645,35.45554],[135.86451,35.45557],[135.86452,35.4556],[135.86458,35.45569],[135.86478,35.45563],[135.86471,35.45544]]]}},{"type":"Feature","properties":{"pid":"b8965e37-2d04-434d-bd64-0a7e1b71008c","full":1.0},"geometry":{"type":"Polygon","coordinates":[[[135.86506,35.45526],[135.86501,35.45517],[135.86499,35.45514],[135.86488,35.45518],[135.86475,35.45518],[135.86476,35.45536],[135.86477,35.45538],[135.86493,35.45531],[135.86506,35.45526]]]}},{"type":"Feature","properties":{"pid":"8b6a5063-7700-4c47-9c93-6e0a33f15219","full":1.2},"geometry":{"type":"Polygon","coordinates":[[[135.86506,35.45527],[135.86477,35.45539],[135.86482,35.45555],[135.86497,35.45549],[135.865,35.45544],[135.86499,35.45543],[135.86514,35.45537],[135.86508,35.45528],[135.86506,35.45527]]]}},{"type":"Feature","properties":{"pid":"eebe34b3-a51e-4421-8648-745e123a0602","full":1.4},"geometry":{"type":"Polygon","coordinates":[[[135.86511,35.45487],[135.8651,35.45494],[135.86496,35.45495],[135.86494,35.45501],[135.86502,35.45504],[135.86512,35.4551],[135.86518,35.45507],[135.86536,35.45498],[135.86526,35.45488],[135.86511,35.45487]]]}},{"type":"Feature","properties":{"pid":"5e60009b-508b-468d-beab-04aea3e7cb26","full":1.6},"geometry":{"type":"Polygon","coordinates":[[[135.8642,35.45499],[135.86427,35.45504],[135.86431,35.45513],[135.86463,35.45505],[135.86459,35.45499],[135.86457,35.4549],[135.8642,35.45499]]]}},{"type":"Feature","properties":{"pid":"3407022f-182a-497c-9b14-1121c512c56b","full":2.7},"geometry":{"type":"Polygon","coordinates":[[[135.86417,35.45498],[135.86457,35.45488],[135.86458,35.45471],[135.8641,35.45482],[135.86409,35.45485],[135.8641,35.45488],[135.86417,35.45498]]]}},{"type":"Feature","properties":{"pid":"e12e303f-4c85-4ac6-86ae-1534b0ddb8d7","full":2.4},"geometry":{"type":"Polygon","coordinates":[[[135.86442,35.45382],[135.8647,35.45381],[135.86469,35.45355],[135.86466,35.45353],[135.86438,35.45367],[135.86441,35.45372],[135.86442,35.45382]]]}},{"type":"Feature","properties":{"pid":"d91badaf-9520-46d2-b93a-39acc4b6f0b9","full":3.7},"geometry":{"type":"Polygon","coordinates":[[[135.86435,35.45365],[135.86466,35.45349],[135.86464,35.45346],[135.86452,35.45337],[135.86443,35.45329],[135.86421,35.45344],[135.8643,35.4536],[135.86435,35.45365]]]}},{"type":"Feature","properties":{"pid":"9e0458fb-78a4-470f-b2c6-bfd7174dfcf9","full":2.3},"geometry":{"type":"Polygon","coordinates":[[[135.86419,35.45341],[135.86441,35.45326],[135.8644,35.4532],[135.86437,35.45316],[135.86431,35.45311],[135.86427,35.45309],[135.86417,35.45317],[135.86411,35.45322],[135.86408,35.45328],[135.86417,35.45341],[135.86419,35.45341]]]}},{"type":"Feature","properties":{"pid":"91c4a0ef-30d8-48b6-96bf-bd0440420695","full":2.1},"geometry":{"type":"Polygon","coordinates":[[[135.86447,35.45315],[135.86448,35.4532],[135.86451,35.45325],[135.86458,35.45331],[135.86466,35.45326],[135.8648,35.45313],[135.86478,35.4531],[135.86467,35.45298],[135.86447,35.45315]]]}},{"type":"Feature","properties":{"pid":"32626e05-79aa-40fe-9357-b9b4ef32d832","full":2.0},"geometry":{"type":"Polygon","coordinates":[[[135.86508,35.45321],[135.86536,35.45308],[135.86528,35.45293],[135.86501,35.45298],[135.86506,35.45319],[135.86508,35.45321]]]}},{"type":"Feature","properties":{"pid":"e5283cd6-d61c-4a61-a868-2f6758af93c3","full":1.0},"geometry":{"type":"Polygon","coordinates":[[[135.86514,35.45339],[135.86515,35.4534],[135.86548,35.45327],[135.8654,35.45313],[135.86513,35.45327],[135.86514,35.45339]]]}},{"type":"Feature","properties":{"pid":"9a119977-342f-4f86-b1d1-f4fc977a2ac2","full":1.6},"geometry":{"type":"Polygon","coordinates":[[[135.86496,35.45395],[135.86495,35.45396],[135.86491,35.45397],[135.86492,35.45409],[135.86494,35.45414],[135.8652,35.45412],[135.86516,35.45392],[135.86496,35.45395]]]}},{"type":"Feature","properties":{"pid":"26a2e70f-c13d-4632-a093-60b4c4fa29d5","full":1.8},"geometry":{"type":"Polygon","coordinates":[[[135.86488,35.45433],[135.86512,35.45433],[135.86518,35.45431],[135.86521,35.45428],[135.86522,35.45423],[135.86522,35.45419],[135.8652,35.45414],[135.86491,35.45417],[135.86488,35.45433]]]}},{"type":"Feature","properties":{"pid":"e042a94e-08a5-4b58-af71-b8ebfd7a7d3e","full":2.8},"geometry":{"type":"Polygon","coordinates":[[[135.8644,35.45403],[135.86475,35.45407],[135.86477,35.45405],[135.86477,35.454],[135.86471,35.45383],[135.86443,35.45384],[135.8644,35.4539],[135.86439,35.45402],[135.8644,35.45403]]]}},{"type":"Feature","properties":{"pid":"3ed2470d-e39f-4678-a57b-22f223c706e7","full":2.3},"geometry":{"type":"Polygon","coordinates":[[[135.86477,35.45429],[135.8648,35.45423],[135.8648,35.45419],[135.86478,35.45413],[135.86476,35.45409],[135.8644,35.45405],[135.86438,35.45412],[135.86437,35.45418],[135.86477,35.45429]]]}},{"type":"Feature","properties":{"pid":"48843eef-2be4-4774-97ec-1e7f0fa5ce24","full":1.8},"geometry":{"type":"Polygon","coordinates":[[[135.86398,35.45465],[135.86449,35.45453],[135.86427,35.45444],[135.86419,35.45442],[135.86405,35.45447],[135.86401,35.45452],[135.86397,35.4546],[135.86397,35.45463],[135.86398,35.45465]]]}},{"type":"Feature","properties":{"pid":"cc7abc66-c595-4549-83bb-c204fa7be070","full":3.4},"geometry":{"type":"Polygon","coordinates":[[[135.86407,35.45481],[135.86458,35.45469],[135.86459,35.45459],[135.86458,35.45457],[135.86456,35.45456],[135.8645,35.45454],[135.86399,35.45467],[135.86407,35.45481]]]}},{"type":"Feature","properties":{"pid":"4f906e6d-24a7-4368-bfd3-37446f41486c","full":2.2},"geometry":{"type":"Polygon","coordinates":[[[135.86527,35.4545],[135.86525,35.45437],[135.86505,35.45439],[135.8648,35.4544],[135.86476,35.45451],[135.86487,35.45455],[135.86501,35.45458],[135.86506,35.45457],[135.86509,35.45455],[135.86511,35.45454],[135.86511,35.45451],[135.86527,35.4545]]]}},{"type":"Feature","properties":{"pid":"478ca40c-ae9d-45b8-b3f9-f420c1f19e4e","full":4.7},"geometry":{"type":"Polygon","coordinates":[[[135.86539,35.45489],[135.86544,35.45492],[135.86564,35.45492],[135.86564,35.45487],[135.86553,35.45443],[135.86535,35.45446],[135.86535,35.45471],[135.86539,35.45489]]]}},{"type":"Feature","properties":{"pid":"e15f32d9-480e-4e95-b90c-8b0eec936ce7","full":2.1},"geometry":{"type":"Polygon","coordinates":[[[135.86591,35.4547],[135.86606,35.45467],[135.86599,35.45435],[135.86586,35.45437],[135.86579,35.4544],[135.86586,35.45469],[135.86591,35.4547]]]}},{"type":"Feature","properties":{"pid":"663c4ee3-2d77-46be-aea2-a611fc478213","full":1.8},"geometry":{"type":"Polygon","coordinates":[[[135.86582,35.45469],[135.86576,35.4544],[135.86558,35.45443],[135.86567,35.45487],[135.86571,35.45487],[135.86575,35.45476],[135.86582,35.45469]]]}},{"type":"Feature","properties":{"pid":"84369a9e-18ba-4233-a535-f86d6023d5ea","full":3.3},"geometry":{"type":"Polygon","coordinates":[[[135.86608,35.45466],[135.86619,35.45463],[135.86624,35.45467],[135.86629,35.45465],[135.86632,35.4546],[135.86633,35.45453],[135.86628,35.4544],[135.86622,35.45432],[135.86601,35.45435],[135.86608,35.45466]]]}},{"type":"Feature","properties":{"pid":"fbc21a83-4c79-49db-9179-73b0dc31fd15","full":4.4},"geometry":{"type":"Polygon","coordinates":[[[135.86633,35.4542],[135.86638,35.45426],[135.8665,35.4542],[135.86655,35.45416],[135.86657,35.4541],[135.86657,35.45407],[135.86655,35.45403],[135.86645,35.45392],[135.8664,35.45389],[135.86636,35.45387],[135.86615,35.45396],[135.86633,35.4542]]]}},{"type":"Feature","properties":{"pid":"56cc0894-a187-4a14-9296-2f316f141a5e","full":6.2},"geometry":{"type":"Polygon","coordinates":[[[135.86578,35.45429],[135.86614,35.45423],[135.86607,35.45409],[135.86592,35.45389],[135.86588,35.45389],[135.86581,35.45379],[135.86571,35.4538],[135.86569,35.45381],[135.86574,35.45413],[135.86578,35.45429]]]}},{"type":"Feature","properties":{"pid":"d97481f6-d69b-48bd-acc6-5f58708ddc43","full":3.1},"geometry":{"type":"Polygon","coordinates":[[[135.86535,35.45435],[135.8655,35.45433],[135.86541,35.45383],[135.86538,35.45382],[135.86523,35.45385],[135.86532,35.45432],[135.86535,35.45435]]]}},{"type":"Feature","properties":{"pid":"1f0163e1-9485-451c-b637-900d59b9d527","full":3.2},"geometry":{"type":"Polygon","coordinates":[[[135.86555,35.45433],[135.86573,35.4543],[135.8657,35.45416],[135.86564,35.45378],[135.86545,35.45381],[135.86555,35.45433]]]}},{"type":"Feature","properties":{"pid":"3eaf5685-7703-4eb4-91fb-3cb9904e1ffc","full":0.6},"geometry":{"type":"Polygon","coordinates":[[[135.86557,35.45373],[135.86578,35.45369],[135.86563,35.45345],[135.86557,35.45348],[135.86555,35.45349],[135.86555,35.45363],[135.86557,35.45373]]]}},{"type":"Feature","properties":{"pid":"43004aba-180b-4114-aa5a-43bb8c5ac077","full":2.1},"geometry":{"type":"Polygon","coordinates":[[[135.86577,35.45336],[135.86613,35.45331],[135.86618,35.4533],[135.86611,35.45315],[135.8657,35.45322],[135.8657,35.45327],[135.86577,35.45336]]]}},{"type":"Feature","properties":{"pid":"0012cb12-7764-4e70-882a-14ee3ced95fd","full":2.5},"geometry":{"type":"Polygon","coordinates":[[[135.86627,35.45329],[135.86663,35.45324],[135.86665,35.45305],[135.86621,35.45313],[135.86627,35.45329]]]}},{"type":"Feature","properties":{"pid":"703042b8-3c24-4489-9315-65c5af057b31","full":2.4},"geometry":{"type":"Polygon","coordinates":[[[135.86628,35.4531],[135.86665,35.45304],[135.86666,35.45288],[135.86615,35.45296],[135.86617,35.45304],[135.86621,35.45303],[135.86623,35.45307],[135.86627,35.45309],[135.86628,35.4531]]]}},{"type":"Feature","properties":{"pid":"1e745622-9b3c-4fd9-9638-646cd81a59cf","full":1.6},"geometry":{"type":"Polygon","coordinates":[[[135.86634,35.45347],[135.86664,35.45341],[135.86662,35.45333],[135.86663,35.45325],[135.86628,35.4533],[135.86634,35.45347]]]}},{"type":"Feature","properties":{"pid":"79b2093a-e425-4704-ba4d-6b492c53b8c1","full":3.2},"geometry":{"type":"Polygon","coordinates":[[[135.86643,35.45369],[135.86646,35.4537],[135.86668,35.45366],[135.86672,35.45364],[135.86673,35.45362],[135.86671,35.45353],[135.86665,35.45342],[135.86634,35.45348],[135.8664,35.45365],[135.86643,35.45369]]]}},{"type":"Feature","properties":{"pid":"74b04094-e266-4579-b3f9-ef075081dd42","full":1.6},"geometry":{"type":"Polygon","coordinates":[[[135.86588,35.45353],[135.86621,35.45348],[135.86616,35.45333],[135.86581,35.45339],[135.86583,35.45346],[135.86588,35.45353]]]}},{"type":"Feature","properties":{"pid":"bc360069-e303-4582-9995-0c0996c5bb1f","full":1.3},"geometry":{"type":"Polygon","coordinates":[[[135.866,35.4537],[135.86625,35.45366],[135.86621,35.4535],[135.86591,35.45355],[135.86593,35.45359],[135.866,35.4537]]]}},{"type":"Feature","properties":{"pid":"c83579b0-cc67-4f54-8280-31872f433426","full":0.7},"geometry":{"type":"Polygon","coordinates":[[[135.86605,35.45376],[135.86616,35.45388],[135.8663,35.45381],[135.86625,35.45368],[135.86604,35.45371],[135.86605,35.45376]]]}},{"type":"Feature","properties":{"pid":"10dee2ac-2acb-4d7b-aaba-9289ce94a72b","full":11.4},"geometry":{"type":"Polygon","coordinates":[[[135.86758,35.45321],[135.86791,35.45324],[135.868,35.45324],[135.86809,35.4529],[135.8676,35.45279],[135.86757,35.45281],[135.86755,35.45283],[135.86755,35.45287],[135.86758,35.45321]]]}},{"type":"Feature","properties":{"pid":"ba2a42ae-1587-4dd0-8cbc-2d71d759b84b","full":1.9},"geometry":{"type":"Polygon","coordinates":[[[135.86778,35.45341],[135.86775,35.45327],[135.86758,35.45327],[135.86756,35.4533],[135.86757,35.4534],[135.8676,35.45349],[135.86766,35.45356],[135.86782,35.45355],[135.86783,35.45347],[135.86781,35.45342],[135.86778,35.45341]]]}},{"type":"Feature","properties":{"pid":"f28310d5-eb5a-492d-a8b0-0a767e743d94","full":2.2},"geometry":{"type":"Polygon","coordinates":[[[135.8675,35.45418],[135.86781,35.45414],[135.86778,35.45405],[135.86777,35.45394],[135.86754,35.45397],[135.86746,35.45408],[135.86749,35.45417],[135.8675,35.45418]]]}},{"type":"Feature","properties":{"pid":"597cd4d0-fb19-4533-8ab9-8162518d1028","full":1.0},"geometry":{"type":"Polygon","coordinates":[[[135.86711,35.45423],[135.86686,35.45426],[135.86674,35.45429],[135.86675,35.45432],[135.86679,35.45437],[135.8668,35.4544],[135.86685,35.45445],[135.86691,35.45447],[135.86693,35.45446],[135.86695,35.45442],[135.86699,35.45436],[135.86713,35.45429],[135.86711,35.45423]]]}},{"type":"Feature","properties":{"pid":"81585f67-1884-4801-9591-3b05c860c448","full":13.9},"geometry":{"type":"Polygon","coordinates":[[[135.86788,35.45445],[135.86729,35.4546],[135.86727,35.45458],[135.86718,35.4546],[135.86713,35.45462],[135.86713,35.45464],[135.86741,35.45477],[135.86733,35.45493],[135.86728,35.45499],[135.8673,35.455],[135.86757,35.45491],[135.86806,35.45472],[135.86789,35.45447],[135.86788,35.45445]]]}},{"type":"Feature","properties":{"pid":"83511d73-054b-460f-802f-e7a78ea68782","full":2.9},"geometry":{"type":"Polygon","coordinates":[[[135.86787,35.45445],[135.86786,35.45433],[135.86735,35.45441],[135.86734,35.4544],[135.86719,35.45446],[135.8673,35.45459],[135.86787,35.45445]]]}},{"type":"Feature","properties":{"pid":"de958301-44c6-4db0-aa3a-1d53805788e5","full":17.6},"geometry":{"type":"Polygon","coordinates":[[[135.86757,35.45498],[135.86719,35.45511],[135.86753,35.45573],[135.86782,35.45563],[135.8679,35.45559],[135.86757,35.45498]]]}},{"type":"Feature","properties":{"pid":"239b0372-dd88-4d67-b5f1-1dfd9a6ad7d5","full":16.3},"geometry":{"type":"Polygon","coordinates":[[[135.86686,35.45524],[135.86702,35.45566],[135.86701,35.45578],[135.86707,35.45589],[135.86741,35.45577],[135.86749,35.45573],[135.86717,35.45513],[135.86693,35.45521],[135.86686,35.45524]]]}},{"type":"Feature","properties":{"pid":"a5ee3674-b433-41a6-9522-60d33b7d0ded","full":3.2},"geometry":{"type":"Polygon","coordinates":[[[135.86673,35.45519],[135.86701,35.45511],[135.86686,35.45497],[135.86683,35.45497],[135.86669,35.45499],[135.86641,35.45499],[135.86639,35.455],[135.86659,35.45516],[135.86665,35.45519],[135.86673,35.45519]]]}},{"type":"Feature","properties":{"pid":"de1bb909-89e2-41ac-bfb3-5701c941cb5f","full":1.4},"geometry":{"type":"Polygon","coordinates":[[[135.86654,35.45473],[135.86644,35.45478],[135.86621,35.45488],[135.86638,35.45493],[135.86641,35.45492],[135.86655,35.45493],[135.86672,35.45492],[135.86674,35.45491],[135.86654,35.45473]]]}},{"type":"Feature","properties":{"pid":"37686ad8-611f-4ee6-82a2-2134caef7b83","full":1.3},"geometry":{"type":"Polygon","coordinates":[[[135.86538,35.45502],[135.86516,35.45514],[135.86514,35.45516],[135.86519,35.45528],[135.8657,35.45503],[135.86569,35.45502],[135.86552,35.45504],[135.86538,35.45502]]]}},{"type":"Feature","properties":{"pid":"ded78ec1-9c60-4a1c-a703-008d31e47b54","full":3.1},"geometry":{"type":"Polygon","coordinates":[[[135.86571,35.45504],[135.86522,35.45528],[135.86525,35.45533],[135.86533,35.45533],[135.86563,35.45534],[135.86571,35.45529],[135.86574,35.45508],[135.86571,35.45504]]]}},{"type":"Feature","properties":{"pid":"8d18671e-f033-49b6-a49e-ab5e853acaf1","full":3.4},"geometry":{"type":"Polygon","coordinates":[[[135.8658,35.45576],[135.86584,35.45573],[135.86585,35.45569],[135.86585,35.45559],[135.86578,35.45547],[135.86549,35.45552],[135.8655,35.45557],[135.86543,35.45559],[135.86548,35.45571],[135.8656,35.45571],[135.8658,35.45576]]]}},{"type":"Feature","properties":{"pid":"bc9ceb9a-79b5-4357-8947-3c0c1f0d7ee5","full":4.9},"geometry":{"type":"Polygon","coordinates":[[[135.86661,35.4556],[135.86686,35.4555],[135.86677,35.45528],[135.86675,35.45526],[135.86661,35.45526],[135.8665,35.45529],[135.86639,35.45534],[135.86653,35.45552],[135.86661,35.4556]]]}},{"type":"Feature","properties":{"pid":"c67c41fe-f48e-4c6c-9976-79d972de34c7","full":9.7},"geometry":{"type":"Polygon","coordinates":[[[135.86685,35.45588],[135.86685,35.45585],[135.86689,35.45573],[135.8669,35.45568],[135.86685,35.45553],[135.86635,35.45575],[135.86633,35.45573],[135.86624,35.45575],[135.8664,35.45588],[135.86665,35.45602],[135.86672,35.45604],[135.86679,35.45598],[135.86685,35.45588]]]}},{"type":"Feature","properties":{"pid":"9d023560-06c1-4db0-8b58-3f663a902e79","full":5.2},"geometry":{"type":"Polygon","coordinates":[[[135.86526,35.45609],[135.86541,35.45631],[135.86551,35.45627],[135.8656,35.45622],[135.86562,35.45623],[135.86583,35.45619],[135.86578,35.45597],[135.86526,35.45609]]]}},{"type":"Feature","properties":{"pid":"ec4fd53c-2a9d-4132-8b62-f21cc6a346d7","full":1.2},"geometry":{"type":"Polygon","coordinates":[[[135.86672,35.45617],[135.86651,35.45606],[135.86644,35.456],[135.86647,35.45606],[135.86654,35.45615],[135.86655,35.45617],[135.86657,35.45616],[135.86659,35.45618],[135.86657,35.4562],[135.86658,35.45628],[135.86662,35.45637],[135.86667,35.45642],[135.86668,35.45642],[135.86672,35.45638],[135.86675,35.45637],[135.86679,35.45628],[135.86679,35.45621],[135.86676,35.45617],[135.86672,35.45617]]]}},{"type":"Feature","properties":{"pid":"ba5beadd-bbfb-4b98-a654-da765a90dff1","full":11.2},"geometry":{"type":"Polygon","coordinates":[[[135.86692,35.45623],[135.86692,35.4564],[135.86699,35.45653],[135.86709,35.45666],[135.8674,35.45658],[135.86712,35.45607],[135.86707,35.45599],[135.86701,35.45599],[135.86693,35.45602],[135.8669,35.45602],[135.86686,35.45604],[135.86683,35.45607],[135.86688,35.45613],[135.86691,35.45618],[135.86692,35.45623]]]}},{"type":"Feature","properties":{"pid":"b982ef13-d3a9-40a7-b3aa-c33d72db9da2","full":19.5},"geometry":{"type":"Polygon","coordinates":[[[135.86753,35.4558],[135.86785,35.45639],[135.86788,35.4564],[135.86827,35.45627],[135.86794,35.45566],[135.86783,35.45568],[135.86756,35.45578],[135.86753,35.4558]]]}},{"type":"Feature","properties":{"pid":"3855c1dc-5e99-48eb-8668-0926a5f4ff53","full":19.0},"geometry":{"type":"Polygon","coordinates":[[[135.86711,35.45595],[135.86743,35.45654],[135.86756,35.45651],[135.86784,35.45642],[135.86752,35.45582],[135.86741,35.45584],[135.86711,35.45595]]]}},{"type":"Feature","properties":{"pid":"31fc1dfe-193e-45a3-a747-600cde44532a","full":15.4},"geometry":{"type":"Polygon","coordinates":[[[135.86819,35.45556],[135.86797,35.45565],[135.86829,35.45625],[135.86867,35.45612],[135.86834,35.45552],[135.86819,35.45556]],[[135.86835,35.45587],[135.86834,35.45585],[135.86836,35.4558],[135.86839,35.45581],[135.86838,35.45585],[135.86836,35.45588],[135.86835,35.45587]]]}},{"type":"Feature","properties":{"pid":"b8ef2a1c-4a43-4c83-883a-71f5f49c4246","full":17.0},"geometry":{"type":"Polygon","coordinates":[[[135.86877,35.45537],[135.86836,35.4555],[135.86869,35.4561],[135.86905,35.45596],[135.86877,35.45537]]]}},{"type":"Feature","properties":{"pid":"38ab1e15-0bc4-48eb-bd09-0e7170c5461d","full":12.1},"geometry":{"type":"Polygon","coordinates":[[[135.87089,35.45619],[135.8709,35.45618],[135.8709,35.45616],[135.87079,35.45597],[135.86988,35.45632],[135.86978,35.45637],[135.86974,35.45639],[135.86971,35.45644],[135.86973,35.45648],[135.86983,35.45644],[135.87005,35.45641],[135.87029,35.45643],[135.87089,35.45619]]]}},{"type":"Feature","properties":{"pid":"e6818dd8-ce4c-4b73-83ca-65276ae9b663","full":7.6},"geometry":{"type":"Polygon","coordinates":[[[135.87077,35.45594],[135.87064,35.45572],[135.87024,35.45588],[135.87016,35.45598],[135.87007,35.4562],[135.87008,35.45621],[135.87077,35.45594]]]}},{"type":"Feature","properties":{"pid":"cc7cbbe8-97dd-4dda-9665-ec437e607b53","full":0.6},"geometry":{"type":"Polygon","coordinates":[[[135.87025,35.45585],[135.87064,35.45571],[135.8706,35.45566],[135.87051,35.45557],[135.87043,35.45564],[135.87034,35.45573],[135.87025,35.45585]]]}},{"type":"Feature","properties":{"pid":"35209af1-55dc-4af3-ab15-bf91f9459b56","full":8.5},"geometry":{"type":"Polygon","coordinates":[[[135.86867,35.45502],[135.86903,35.45489],[135.86895,35.45465],[135.86894,35.45464],[135.86892,35.45459],[135.86881,35.4546],[135.86851,35.45465],[135.86848,35.45467],[135.86867,35.45502]]]}},{"type":"Feature","properties":{"pid":"12bb62da-3184-4b8e-8768-bc7d070e3b07","full":18.1},"geometry":{"type":"Polygon","coordinates":[[[135.86797,35.45483],[135.86759,35.45496],[135.86763,35.45503],[135.86792,35.45559],[135.8682,35.4555],[135.8683,35.45544],[135.86797,35.45483]]]}},{"type":"Feature","properties":{"pid":"500b0ca7-068d-496d-832f-ae269189f803","full":15.6},"geometry":{"type":"Polygon","coordinates":[[[135.86799,35.45481],[135.86834,35.45544],[135.86867,35.45533],[135.86834,35.45469],[135.86799,35.45481]]]}},{"type":"Feature","properties":{"pid":"de158dd7-6de8-4e70-a3c5-baca08ed0d3e","full":0.9},"geometry":{"type":"Polygon","coordinates":[[[135.86799,35.45458],[135.86809,35.45471],[135.86833,35.45461],[135.86835,35.4545],[135.86823,35.45451],[135.86799,35.45458]]]}},{"type":"Feature","properties":{"pid":"e8072de6-9952-4307-bcaf-4ad4c59688a9","full":0.9},"geometry":{"type":"Polygon","coordinates":[[[135.86835,35.45449],[135.86836,35.45442],[135.86789,35.45442],[135.86789,35.45443],[135.8679,35.45447],[135.86799,35.45458],[135.86823,35.45451],[135.86835,35.45449]]]}},{"type":"Feature","properties":{"pid":"41967388-b5d4-49ae-ac75-85305927b81d","full":3.3},"geometry":{"type":"Polygon","coordinates":[[[135.86884,35.45452],[135.86884,35.45447],[135.86882,35.45445],[135.8687,35.45438],[135.86857,35.4543],[135.86845,35.45427],[135.86842,35.45458],[135.86843,35.45459],[135.86884,35.45452]]]}},{"type":"Feature","properties":{"pid":"e1a88809-e5a6-4249-8d5f-ef6dfa42dc9a","full":5.1},"geometry":{"type":"Polygon","coordinates":[[[135.86889,35.45452],[135.86906,35.45452],[135.86905,35.45446],[135.86905,35.45439],[135.86907,35.45431],[135.8692,35.4543],[135.86918,35.45423],[135.86939,35.45419],[135.86927,35.45398],[135.86876,35.45418],[135.86878,35.45418],[135.86888,35.4542],[135.86892,35.45422],[135.86889,35.45452]]]}},{"type":"Feature","properties":{"pid":"6bbcf274-c479-4eb2-8331-e1d56f0915cf","full":0.7},"geometry":{"type":"Polygon","coordinates":[[[135.86927,35.45397],[135.86918,35.4538],[135.86903,35.45385],[135.86903,35.45388],[135.86903,35.4539],[135.86909,35.45402],[135.86911,35.45403],[135.86927,35.45397]]]}},{"type":"Feature","properties":{"pid":"110bd0c4-1a5f-4299-93c8-84dc392a8e78","full":1.1},"geometry":{"type":"Polygon","coordinates":[[[135.86794,35.45364],[135.86787,35.45366],[135.86787,35.45367],[135.86787,35.4537],[135.8679,35.45375],[135.86795,35.45377],[135.86803,35.45377],[135.86808,35.45376],[135.86821,35.4537],[135.86824,35.45356],[135.86796,35.45364],[135.86794,35.45364]]]}},{"type":"Feature","properties":{"pid":"02c60322-73d3-43ee-9148-d8131a15cb3d","full":7.0},"geometry":{"type":"Polygon","coordinates":[[[135.86817,35.45323],[135.8684,35.45329],[135.8685,35.45296],[135.86813,35.45288],[135.86802,35.45323],[135.86805,35.45324],[135.86817,35.45323]]]}},{"type":"Feature","properties":{"pid":"2ba33fac-42f5-47ae-a317-00c57f00b4d3","full":4.3},"geometry":{"type":"Polygon","coordinates":[[[135.86844,35.45335],[135.86885,35.45321],[135.86885,35.45319],[135.86869,35.45287],[135.86864,35.45281],[135.86861,35.45282],[135.86847,35.45326],[135.86844,35.45335]]]}},{"type":"Feature","properties":{"pid":"ed23fd6d-2e28-4485-8f6c-dda2ca74c8d1","full":6.7},"geometry":{"type":"Polygon","coordinates":[[[135.86832,35.45364],[135.86862,35.45355],[135.86898,35.45343],[135.86893,35.45333],[135.86886,35.45323],[135.86844,35.45337],[135.86835,35.45349],[135.86833,35.45354],[135.86832,35.45364]]]}},{"type":"Feature","properties":{"pid":"fe789e9a-5979-44df-bf6c-d8bcdc653e18","full":8.3},"geometry":{"type":"Polygon","coordinates":[[[135.8683,35.45391],[135.86908,35.45363],[135.86908,35.45361],[135.86899,35.45344],[135.86831,35.45366],[135.86829,35.45387],[135.8683,35.45391]]]}},{"type":"Feature","properties":{"pid":"87fff260-650c-4709-b0e8-6a062e859e18","full":5.6},"geometry":{"type":"Polygon","coordinates":[[[135.86841,35.45407],[135.869,35.45385],[135.86918,35.45379],[135.86909,35.45365],[135.8683,35.45393],[135.86841,35.45407]]]}},{"type":"Feature","properties":{"pid":"886ba124-9e26-4d10-ab36-350f263e80d2","full":18.3},"geometry":{"type":"Polygon","coordinates":[[[135.86938,35.45399],[135.87001,35.45378],[135.86991,35.45364],[135.86978,35.45339],[135.86918,35.4536],[135.86921,35.45368],[135.86938,35.45399]]]}},{"type":"Feature","properties":{"pid":"855996f7-c211-46f6-9c63-5f890108f659","full":19.3},"geometry":{"type":"Polygon","coordinates":[[[135.86957,35.45297],[135.86896,35.45319],[135.86916,35.45359],[135.86978,35.45336],[135.86957,35.45297]]]}},{"type":"Feature","properties":{"pid":"d6c30e6d-6523-418a-9714-aaf1f72f4f13","full":8.3},"geometry":{"type":"Polygon","coordinates":[[[135.8695,35.45422],[135.87018,35.45399],[135.87013,35.45394],[135.87001,35.4538],[135.8694,35.45401],[135.86942,35.45408],[135.8695,35.45422]]]}},{"type":"Feature","properties":{"pid":"4c36528f-823b-4410-8316-b3d2b2fc9818","full":1.5},"geometry":{"type":"Polygon","coordinates":[[[135.8694,35.45476],[135.86965,35.45468],[135.86957,35.45452],[135.86944,35.45455],[135.86931,35.45457],[135.8694,35.45476]]]}},{"type":"Feature","properties":{"pid":"725056bd-7949-4e19-a5b0-b87c1fe43658","full":1.0},"geometry":{"type":"Polygon","coordinates":[[[135.8693,35.45457],[135.8692,35.45458],[135.86917,35.4546],[135.86916,35.45464],[135.86917,35.45484],[135.86932,35.45479],[135.86934,35.45478],[135.86934,35.45477],[135.86939,35.45475],[135.8693,35.45457]]]}},{"type":"Feature","properties":{"pid":"bf7baae4-696b-4b94-ba8c-3aac34841f7e","full":14.6},"geometry":{"type":"Polygon","coordinates":[[[135.87151,35.45394],[135.87124,35.45404],[135.87168,35.45482],[135.87189,35.45479],[135.87196,35.45476],[135.87151,35.45394]]]}},{"type":"Feature","properties":{"pid":"0552eca9-7624-4fee-8a6e-3cd2b7ea06ab","full":6.8},"geometry":{"type":"Polygon","coordinates":[[[135.87166,35.45483],[135.87122,35.45404],[135.87105,35.45411],[135.87144,35.45485],[135.87166,35.45483]]]}},{"type":"Feature","properties":{"pid":"37779397-9de1-4acb-9269-d1d18f97b421","full":11.4},"geometry":{"type":"Polygon","coordinates":[[[135.87196,35.45343],[135.87199,35.4534],[135.87198,35.45316],[135.8719,35.45306],[135.8716,35.45317],[135.87155,35.45327],[135.87151,35.45332],[135.87146,35.45338],[135.87145,35.45345],[135.87139,35.45357],[135.87142,35.45363],[135.87196,35.45343]]]}},{"type":"Feature","properties":{"pid":"12529e09-87c9-4846-8f64-079ea8cf13b3","full":6.1},"geometry":{"type":"Polygon","coordinates":[[[135.87152,35.45384],[135.87187,35.45371],[135.87211,35.45361],[135.87201,35.45343],[135.87146,35.45363],[135.87144,35.45368],[135.87144,35.4537],[135.87152,35.45384]]]}},{"type":"Feature","properties":{"pid":"8888e873-f64d-471d-97e5-2cdfab4235ad","full":16.0},"geometry":{"type":"Polygon","coordinates":[[[135.87225,35.45463],[135.87181,35.45382],[135.87153,35.45393],[135.87197,35.45475],[135.87201,35.45474],[135.87225,35.45463]]]}},{"type":"Feature","properties":{"pid":"d1b0e603-6672-4544-b7d9-131a86c2f2ee","full":14.5},"geometry":{"type":"Polygon","coordinates":[[[135.87246,35.45433],[135.87248,35.45424],[135.8724,35.45421],[135.87245,35.4541],[135.8723,35.454],[135.87214,35.45388],[135.87204,35.45378],[135.87199,35.45377],[135.87184,35.45382],[135.87226,35.45461],[135.87232,35.45459],[135.87238,35.45452],[135.87242,35.45445],[135.87246,35.45433]]]}},{"type":"Feature","properties":{"pid":"f3150175-8b46-4861-a78a-9a765f2dd694","full":15.9},"geometry":{"type":"Polygon","coordinates":[[[135.87304,35.45536],[135.87306,35.45535],[135.87306,35.45532],[135.87294,35.45512],[135.87198,35.45549],[135.87198,35.45552],[135.872,35.45557],[135.87206,35.45566],[135.87211,35.45572],[135.87304,35.45536]]]}},{"type":"Feature","properties":{"pid":"eee1a546-62ef-4ba7-bcd1-21eec306a65c","full":17.0},"geometry":{"type":"Polygon","coordinates":[[[135.87292,35.45511],[135.87293,35.4551],[135.8728,35.45488],[135.87183,35.45525],[135.87182,35.45529],[135.87193,35.45548],[135.87196,35.45549],[135.87292,35.45511]]]}},{"type":"Feature","properties":{"pid":"2357f3f5-03a9-448a-928a-3de258b4f25e","full":2.2},"geometry":{"type":"Polygon","coordinates":[[[135.87113,35.45502],[135.87104,35.45502],[135.87094,35.45509],[135.87056,35.45534],[135.87059,35.4554],[135.87124,35.45514],[135.87113,35.45502]]]}},{"type":"Feature","properties":{"pid":"e6d6ea15-8224-437a-b167-29e30cfd4511","full":15.6},"geometry":{"type":"Polygon","coordinates":[[[135.87077,35.45567],[135.87081,35.45576],[135.87089,35.4559],[135.87187,35.45552],[135.87186,35.45549],[135.87174,35.45529],[135.87077,35.45567]]]}},{"type":"Feature","properties":{"pid":"6030326f-4949-48d5-a91d-50c00e6b7231","full":11.3},"geometry":{"type":"Polygon","coordinates":[[[135.87076,35.45565],[135.87125,35.45546],[135.87173,35.45528],[135.87171,35.45525],[135.87163,35.45527],[135.87158,35.45527],[135.87154,35.45526],[135.87124,35.45519],[135.87089,35.45532],[135.87073,35.45539],[135.87066,35.45544],[135.87067,35.45549],[135.87076,35.45565]]]}},{"type":"Feature","properties":{"pid":"414c6b3b-255e-4984-9513-ae92b355c49e","full":16.3},"geometry":{"type":"Polygon","coordinates":[[[135.87104,35.45615],[135.87199,35.45577],[135.872,35.45573],[135.87188,35.45553],[135.87093,35.45591],[135.87092,35.45593],[135.87092,35.45595],[135.87104,35.45615]]]}},{"type":"Feature","properties":{"pid":"f922c26e-26aa-4713-abe9-4f8223b51091","full":15.8},"geometry":{"type":"Polygon","coordinates":[[[135.87216,35.45599],[135.87211,35.45591],[135.87202,35.45578],[135.87105,35.45616],[135.87117,35.45636],[135.8712,35.45637],[135.87158,35.45624],[135.87216,35.45599]]]}},{"type":"Feature","properties":{"pid":"91c8b6a5-009a-4d0d-a854-a4bfa2a2de84","full":3.4},"geometry":{"type":"Polygon","coordinates":[[[135.87035,35.45644],[135.87037,35.45645],[135.87065,35.45648],[135.87087,35.45647],[135.87105,35.45644],[135.87097,35.4563],[135.87099,35.45629],[135.87094,35.45621],[135.87035,35.45644]]]}},{"type":"Feature","properties":{"pid":"f2b45e4a-8bfc-4938-9f82-9befacb6ad07","full":8.5},"geometry":{"type":"Polygon","coordinates":[[[135.87236,35.45637],[135.87218,35.45615],[135.8717,35.45634],[135.87192,35.4566],[135.87194,35.4566],[135.87236,35.45637]]]}},{"type":"Feature","properties":{"pid":"9b3337f9-357b-44b0-b9d9-7698cc135f00","full":12.7},"geometry":{"type":"Polygon","coordinates":[[[135.87223,35.45596],[135.87226,35.45595],[135.87319,35.45554],[135.87318,35.45553],[135.87312,35.45541],[135.87308,35.45537],[135.87213,35.45574],[135.87212,35.45578],[135.87223,35.45596]]]}},{"type":"Feature","properties":{"pid":"167fa423-67b8-4b79-a02a-08bbdb943641","full":11.3},"geometry":{"type":"Polygon","coordinates":[[[135.87219,35.45614],[135.87236,35.45635],[135.87238,35.45635],[135.87327,35.45585],[135.87317,35.45573],[135.87219,35.45614]]]}},{"type":"Feature","properties":{"pid":"43c78347-4249-4b58-aeae-ee4abbe899a9","full":11.8},"geometry":{"type":"Polygon","coordinates":[[[135.87168,35.45635],[135.87118,35.45652],[135.87148,35.45687],[135.87191,35.45662],[135.87168,35.45635]]]}},{"type":"Feature","properties":{"pid":"939ddc12-6eb2-4bad-8435-3d59ac60a405","full":19.8},"geometry":{"type":"Polygon","coordinates":[[[135.87054,35.45658],[135.87102,35.45714],[135.87105,35.45715],[135.87147,35.45689],[135.87116,35.45653],[135.8711,35.45655],[135.87097,35.45656],[135.87076,35.45658],[135.87054,35.45657],[135.87054,35.45658]]]}},{"type":"Feature","properties":{"pid":"9f89e60c-85f4-4979-b662-a1a60f9ac5a0","full":15.3},"geometry":{"type":"Polygon","coordinates":[[[135.8705,35.45657],[135.87008,35.45654],[135.87076,35.4573],[135.87079,35.45731],[135.87101,35.45718],[135.87101,35.45715],[135.8705,35.45657]]]}},{"type":"Feature","properties":{"pid":"0a1b99d5-d98a-4b63-a810-b65d5a443c46","full":19.9},"geometry":{"type":"Polygon","coordinates":[[[135.8705,35.45748],[135.87077,35.45732],[135.87006,35.45654],[135.86995,35.45655],[135.86977,35.45661],[135.86978,35.45663],[135.86976,35.45664],[135.8705,35.45748]]]}},{"type":"Feature","properties":{"pid":"92aae635-ae03-4932-815c-1a48eae00c7e","full":8.8},"geometry":{"type":"Polygon","coordinates":[[[135.86848,35.45721],[135.86861,35.45714],[135.8687,35.45707],[135.86894,35.45685],[135.86921,35.45658],[135.86838,35.45688],[135.8684,35.45693],[135.86836,35.45698],[135.86848,35.45721]]]}},{"type":"Feature","properties":{"pid":"ec215d0d-4464-4d68-a5f3-c9e4eaec3393","full":1.6},"geometry":{"type":"Polygon","coordinates":[[[135.87494,35.45688],[135.87503,35.45679],[135.87438,35.45634],[135.87428,35.45641],[135.87494,35.45688]]]}},{"type":"Feature","properties":{"pid":"5e06b6ba-7be4-4991-a2e4-648933a4a620","full":4.2},"geometry":{"type":"Polygon","coordinates":[[[135.87493,35.45688],[135.87427,35.45642],[135.87414,35.45651],[135.87482,35.45699],[135.87493,35.45688]]]}},{"type":"Feature","properties":{"pid":"ffaab418-f3f6-477d-a350-46fbf9e29f6b","full":14.7},"geometry":{"type":"Polygon","coordinates":[[[135.87451,35.45729],[135.87472,35.45709],[135.874,35.45659],[135.87375,35.45675],[135.87451,35.45729]]]}},{"type":"Feature","properties":{"pid":"bfb3c6aa-ebdd-4eda-a8e0-c8afae844d67","full":12.3},"geometry":{"type":"Polygon","coordinates":[[[135.87525,35.45659],[135.87465,35.45617],[135.87442,35.45632],[135.87445,35.45634],[135.87442,35.45636],[135.87504,35.45679],[135.87525,35.45659]]]}},{"type":"Feature","properties":{"pid":"8a74f1ac-caf5-4a82-87cd-85e10cad10b8","full":6.4},"geometry":{"type":"Polygon","coordinates":[[[135.87467,35.45472],[135.87425,35.45489],[135.87425,35.45491],[135.87442,35.45514],[135.87481,35.45495],[135.87467,35.45472]]]}},{"type":"Feature","properties":{"pid":"7c4df91f-2ce5-4aed-9483-78d742424290","full":9.7},"geometry":{"type":"Polygon","coordinates":[[[135.87413,35.45496],[135.87316,35.45533],[135.87318,35.45539],[135.87324,35.45548],[135.87327,35.4555],[135.87369,35.45531],[135.87425,35.45516],[135.87427,35.45512],[135.87417,35.45497],[135.87414,35.45497],[135.87413,35.45496]]]}},{"type":"Feature","properties":{"pid":"d6936f23-7837-442f-a402-61721bbaa6b7","full":15.2},"geometry":{"type":"Polygon","coordinates":[[[135.87313,35.45529],[135.87316,35.4553],[135.87413,35.45492],[135.87414,35.4549],[135.87401,35.4547],[135.87302,35.45509],[135.87302,35.45512],[135.87305,35.45517],[135.87313,35.45529]]]}},{"type":"Feature","properties":{"pid":"0190894b-65ea-4fb2-8dec-65da1bac0e2b","full":16.4},"geometry":{"type":"Polygon","coordinates":[[[135.87288,35.45484],[135.87288,35.45486],[135.873,35.45507],[135.87311,35.45504],[135.87397,35.45469],[135.874,35.45467],[135.87387,35.45446],[135.87288,35.45484]]]}},{"type":"Feature","properties":{"pid":"7bd46391-5782-486e-9c3d-d0c6a398c5c9","full":17.2},"geometry":{"type":"Polygon","coordinates":[[[135.87383,35.45444],[135.87385,35.45441],[135.87373,35.45422],[135.87372,35.45421],[135.8737,35.45422],[135.87272,35.45459],[135.87275,35.45466],[135.87282,35.45479],[135.87285,35.45482],[135.87287,35.45483],[135.87383,35.45444]]]}},{"type":"Feature","properties":{"pid":"ee7cf2d2-0348-47ef-b8d0-526da73d6bf7","full":5.4},"geometry":{"type":"Polygon","coordinates":[[[135.8745,35.45448],[135.87435,35.45426],[135.87395,35.45442],[135.87408,35.45463],[135.8741,35.45463],[135.8745,35.45448]]]}},{"type":"Feature","properties":{"pid":"c832c799-7a19-430f-bac8-b67e0c06fe7c","full":3.3},"geometry":{"type":"Polygon","coordinates":[[[135.87435,35.45425],[135.87426,35.4541],[135.87422,35.45409],[135.87384,35.45425],[135.87394,35.4544],[135.87395,35.45441],[135.87435,35.45425]]]}},{"type":"Feature","properties":{"pid":"706537dd-56eb-47c5-b073-2a569f4a8578","full":15.9},"geometry":{"type":"Polygon","coordinates":[[[135.87272,35.45458],[135.87366,35.45422],[135.87369,35.45417],[135.87359,35.45398],[135.87355,35.45398],[135.87262,35.45435],[135.87261,35.45438],[135.87263,35.45443],[135.87267,35.45452],[135.87272,35.45458]]]}},{"type":"Feature","properties":{"pid":"fafece4c-933e-4cfa-a389-728c4a10f6fb","full":6.5},"geometry":{"type":"Polygon","coordinates":[[[135.87353,35.45397],[135.87349,35.4538],[135.87348,35.4538],[135.87299,35.454],[135.8729,35.45407],[135.87284,35.45407],[135.87273,35.454],[135.87262,35.45433],[135.87265,35.45433],[135.87353,35.45397]]]}},{"type":"Feature","properties":{"pid":"ff39f089-f52b-44e2-b1c1-1f3e9929ec7d","full":1.1},"geometry":{"type":"Polygon","coordinates":[[[135.87316,35.4539],[135.87348,35.45378],[135.87343,35.45365],[135.8733,35.45367],[135.87322,35.45372],[135.87318,35.45378],[135.8732,35.45382],[135.87314,35.45385],[135.87314,35.45387],[135.87316,35.4539]]]}},{"type":"Feature","properties":{"pid":"3eeffc4a-1bd3-44aa-9d66-99c5c9d81c40","full":0.8},"geometry":{"type":"Polygon","coordinates":[[[135.87353,35.45311],[135.87347,35.45298],[135.87332,35.45303],[135.87343,35.45325],[135.87355,35.45322],[135.87354,35.45315],[135.87353,35.45311]]]}},{"type":"Feature","properties":{"pid":"1f9b4429-5f60-4584-a66c-6a6ce60a9227","full":20.1},"geometry":{"type":"Polygon","coordinates":[[[135.87434,35.45398],[135.87511,35.45354],[135.87488,35.45328],[135.87412,35.45368],[135.87434,35.45398]]]}},{"type":"Feature","properties":{"pid":"915316ab-b4c2-4b79-a749-4e6a49521447","full":1.3},"geometry":{"type":"Polygon","coordinates":[[[135.87491,35.45323],[135.87493,35.45322],[135.87489,35.45311],[135.87456,35.45322],[135.87458,35.45327],[135.87464,35.45338],[135.87491,35.45323]]]}},{"type":"Feature","properties":{"pid":"13c55d97-952d-4ce7-a103-d1d46ef3a0e5","full":14.4},"geometry":{"type":"Polygon","coordinates":[[[135.87529,35.45377],[135.8753,35.45376],[135.87512,35.45355],[135.87435,35.45399],[135.87452,35.45421],[135.87529,35.45377]]]}},{"type":"Feature","properties":{"pid":"3be50fe5-8880-422f-aae7-f244f02e4226","full":5.8},"geometry":{"type":"Polygon","coordinates":[[[135.87451,35.45449],[135.87411,35.45464],[135.87411,35.45467],[135.87423,35.45488],[135.87466,35.45471],[135.87451,35.45449]]]}},{"type":"Feature","properties":{"pid":"ec1c748c-0b5e-45ce-a7c7-2e6f4e4ccbe6","full":16.3},"geometry":{"type":"Polygon","coordinates":[[[135.87506,35.45109],[135.8749,35.45092],[135.87407,35.4514],[135.8741,35.45168],[135.87504,35.45114],[135.87504,35.45112],[135.87506,35.45109]]]}},{"type":"Feature","properties":{"pid":"1d2dcd7b-5f6f-410f-8be6-f1e46ef0e6a1","full":9.9},"geometry":{"type":"Polygon","coordinates":[[[135.8741,35.45181],[135.87443,35.45181],[135.87483,35.4517],[135.87471,35.45148],[135.87499,35.45141],[135.87488,35.45126],[135.87409,35.45172],[135.8741,35.45181]]]}},{"type":"Feature","properties":{"pid":"0dbaef43-f0b6-4753-b6bd-f74dca92c6d6","full":2.5},"geometry":{"type":"Polygon","coordinates":[[[135.87475,35.45205],[135.87464,35.45178],[135.87443,35.45183],[135.87444,35.45205],[135.87446,35.45206],[135.87475,35.45205]]]}},{"type":"Feature","properties":{"pid":"06638199-0dcd-40a8-bc49-82c3246fcdc1","full":5.4},"geometry":{"type":"Polygon","coordinates":[[[135.87494,35.45226],[135.87486,35.4521],[135.87485,35.45206],[135.87448,35.45208],[135.87458,35.4524],[135.87468,35.45238],[135.87476,35.45236],[135.87485,35.45232],[135.87494,35.45226]]]}},{"type":"Feature","properties":{"pid":"fb44ef4a-bda6-44ba-bc1e-25b88453fac8","full":6.8},"geometry":{"type":"Polygon","coordinates":[[[135.87386,35.45315],[135.87403,35.4531],[135.87402,35.45309],[135.87414,35.45288],[135.87414,35.45285],[135.87397,35.45278],[135.87398,35.45275],[135.8739,35.45269],[135.87385,35.45262],[135.87367,35.45268],[135.87363,35.45273],[135.87363,35.45275],[135.87383,35.45298],[135.87381,35.45301],[135.87386,35.45315]]]}},{"type":"Feature","properties":{"pid":"6d09808e-7af0-4d4c-a7e1-be1cc0c9c964","full":3.7},"geometry":{"type":"Polygon","coordinates":[[[135.87409,35.45209],[135.8742,35.45211],[135.8743,35.45211],[135.87441,35.45208],[135.8744,35.45183],[135.87409,35.45184],[135.8741,35.45199],[135.87409,35.45209]]]}},{"type":"Feature","properties":{"pid":"0e15e333-dfde-438d-a4a0-3cfbddd83d48","full":0.7},"geometry":{"type":"Polygon","coordinates":[[[135.87363,35.45152],[135.87392,35.45151],[135.87393,35.4515],[135.87393,35.45137],[135.87392,35.45135],[135.87377,35.45135],[135.87375,35.4514],[135.87372,35.45143],[135.87362,35.4515],[135.87363,35.45152]]]}},{"type":"Feature","properties":{"pid":"1894fd5a-bab5-42db-a5b3-77f7f619022e","full":6.7},"geometry":{"type":"Polygon","coordinates":[[[135.87443,35.4505],[135.87449,35.45047],[135.87448,35.45045],[135.87449,35.45042],[135.87433,35.45025],[135.87397,35.45046],[135.87401,35.45074],[135.87443,35.4505]]]}},{"type":"Feature","properties":{"pid":"7dc2a6d6-bed8-4b41-bf30-9096ff2cb544","full":2.5},"geometry":{"type":"Polygon","coordinates":[[[135.87388,35.45105],[135.87386,35.45087],[135.87388,35.45085],[135.87388,35.45073],[135.87357,35.45087],[135.87363,35.45106],[135.87388,35.45105]]]}},{"type":"Feature","properties":{"pid":"e9d164f1-3b96-4715-8467-5b92beea6c9a","full":1.0},"geometry":{"type":"Polygon","coordinates":[[[135.87389,35.45131],[135.87388,35.45106],[135.87366,35.45107],[135.87375,35.45129],[135.87376,35.4513],[135.87378,35.45131],[135.87389,35.45131]]]}},{"type":"Feature","properties":{"pid":"4b79dd0b-92ae-43cb-8f52-3d4f485baa22","full":12.8},"geometry":{"type":"Polygon","coordinates":[[[135.87487,35.45086],[135.87471,35.45069],[135.87404,35.45108],[135.87408,35.45137],[135.8743,35.45124],[135.87486,35.45091],[135.87485,35.45089],[135.87487,35.45086]]]}},{"type":"Feature","properties":{"pid":"64729da4-a151-4d2d-a386-3e33e8bc580b","full":10.6},"geometry":{"type":"Polygon","coordinates":[[[135.87476,35.45062],[135.87539,35.45026],[135.87526,35.45004],[135.87459,35.45043],[135.87476,35.45062]]]}},{"type":"Feature","properties":{"pid":"561b8904-dead-4b2d-9104-19d404cd43d8","full":9.7},"geometry":{"type":"Polygon","coordinates":[[[135.87468,35.45064],[135.87451,35.45048],[135.874,35.45078],[135.87403,35.45093],[135.87405,35.45105],[135.87466,35.4507],[135.87466,35.45068],[135.87468,35.45064]]]}},{"type":"Feature","properties":{"pid":"33aaa4f6-7884-41f8-88c0-621e1329cb79","full":11.5},"geometry":{"type":"Polygon","coordinates":[[[135.87525,35.45002],[135.87524,35.44996],[135.87518,35.44986],[135.87515,35.44978],[135.8744,35.45021],[135.87458,35.4504],[135.87516,35.45006],[135.87525,35.45002]]]}},{"type":"Feature","properties":{"pid":"fcd4a582-8700-4f48-937f-8c3424d7d62d","full":12.6},"geometry":{"type":"Polygon","coordinates":[[[135.87421,35.45],[135.87439,35.45019],[135.8746,35.45007],[135.87513,35.44976],[135.87508,35.44964],[135.87498,35.44955],[135.87421,35.45]]]}},{"type":"Feature","properties":{"pid":"aded786e-0c24-48c0-b357-73cdcc0498b0","full":7.9},"geometry":{"type":"Polygon","coordinates":[[[135.8742,35.44996],[135.87476,35.44965],[135.87495,35.44954],[135.87488,35.44947],[135.87474,35.44952],[135.87467,35.44952],[135.87463,35.44951],[135.87455,35.44946],[135.87424,35.44964],[135.87423,35.44969],[135.8742,35.4498],[135.87415,35.44991],[135.8742,35.44996]]]}},{"type":"Feature","properties":{"pid":"5d772e49-9add-4dd6-ba15-2c8fd9d55ce2","full":1.6},"geometry":{"type":"Polygon","coordinates":[[[135.87424,35.44962],[135.87454,35.44944],[135.87447,35.44937],[135.87438,35.44935],[135.87426,35.44935],[135.87422,35.44942],[135.87424,35.44962]]]}},{"type":"Feature","properties":{"pid":"53279e95-b175-4307-bfbc-b8589e540c37","full":3.6},"geometry":{"type":"Polygon","coordinates":[[[135.87398,35.45042],[135.87431,35.45022],[135.8741,35.44999],[135.87395,35.4501],[135.87398,35.45042]]]}},{"type":"Feature","properties":{"pid":"7b2dc14e-7a61-4c19-a932-e0cc549f4f28","full":2.8},"geometry":{"type":"Polygon","coordinates":[[[135.87416,35.44959],[135.8742,35.44958],[135.87417,35.44945],[135.87418,35.44938],[135.87421,35.44933],[135.87426,35.44928],[135.87428,35.44924],[135.87429,35.4492],[135.87429,35.44917],[135.87426,35.44911],[135.87408,35.44907],[135.87405,35.44914],[135.87399,35.4492],[135.87399,35.44928],[135.87409,35.4494],[135.87412,35.44949],[135.87416,35.44959]]]}},{"type":"Feature","properties":{"pid":"4183c88d-06ca-46b3-bd08-bb3f0719ef31","full":6.0},"geometry":{"type":"Polygon","coordinates":[[[135.86779,35.44911],[135.86781,35.44922],[135.86777,35.44942],[135.86779,35.44946],[135.86783,35.44955],[135.86823,35.44949],[135.86816,35.44937],[135.86811,35.44931],[135.86805,35.44925],[135.86799,35.44921],[135.86795,35.44917],[135.86793,35.4491],[135.86779,35.44911]]]}},{"type":"Feature","properties":{"pid":"208e191a-e9a6-49b3-95c8-2d9ea3c80abf","full":1.5},"geometry":{"type":"Polygon","coordinates":[[[135.87197,35.45266],[135.87189,35.45259],[135.87172,35.45249],[135.87168,35.45256],[135.87167,35.45262],[135.87167,35.45276],[135.87168,35.45281],[135.87197,35.45266]]]}},{"type":"Feature","properties":{"pid":"128ef6bc-1384-4fe4-b0ad-3054145da6b5","full":4.3},"geometry":{"type":"Polygon","coordinates":[[[135.87189,35.45255],[135.87202,35.45242],[135.87202,35.45237],[135.8719,35.45224],[135.87187,35.45219],[135.87163,35.4522],[135.87165,35.45235],[135.8717,35.45242],[135.87176,35.45247],[135.87189,35.45255]]]}},{"type":"Feature","properties":{"pid":"81168dac-57df-402f-987b-d131f5e84f7d","full":1.4},"geometry":{"type":"Polygon","coordinates":[[[135.8716,35.45315],[135.87188,35.45305],[135.87188,35.45302],[135.87174,35.4528],[135.87168,35.45282],[135.87161,35.45309],[135.8716,35.45315]]]}},{"type":"Feature","properties":{"pid":"f53e8f3c-3623-4779-9862-41eaf6aa5159","full":6.7},"geometry":{"type":"Polygon","coordinates":[[[135.86894,35.45318],[135.86956,35.45295],[135.86942,35.45277],[135.86883,35.45299],[135.86894,35.45318]]]}},{"type":"Feature","properties":{"pid":"877ca661-4cb6-430d-ab7c-c45483728e07","full":9.5},"geometry":{"type":"Polygon","coordinates":[[[135.86895,35.45223],[135.86883,35.45217],[135.86873,35.45246],[135.86867,35.45271],[135.86871,35.45277],[135.86924,35.45258],[135.8691,35.45243],[135.86898,35.45226],[135.86895,35.45223]]]}},{"type":"Feature","properties":{"pid":"3c82f7dd-8d60-48fe-94d9-84885ea60ad4","full":6.3},"geometry":{"type":"Polygon","coordinates":[[[135.86873,35.45278],[135.86876,35.45287],[135.86883,35.45298],[135.86941,35.45276],[135.86925,35.45259],[135.86873,35.45278]]]}},{"type":"Feature","properties":{"pid":"9ef4b7c1-2242-44ac-8b72-8387b835b5a6","full":10.9},"geometry":{"type":"Polygon","coordinates":[[[135.86775,35.45254],[135.86774,35.45265],[135.8677,35.45271],[135.86762,35.45277],[135.86851,35.45293],[135.86857,35.45271],[135.86775,35.45254]]]}},{"type":"Feature","properties":{"pid":"9e08d3a0-08ca-4d95-80b0-3621d9d946fe","full":4.1},"geometry":{"type":"Polygon","coordinates":[[[135.86867,35.45238],[135.8687,35.45219],[135.86851,35.45215],[135.86824,35.45211],[135.86819,35.45216],[135.86816,35.45225],[135.86816,35.45227],[135.86818,35.45229],[135.86867,35.45238]]]}},{"type":"Feature","properties":{"pid":"65482173-3d83-416b-b977-e0e284efb6d4","full":3.9},"geometry":{"type":"Polygon","coordinates":[[[135.86858,35.45156],[135.86858,35.45151],[135.86868,35.45151],[135.86869,35.45134],[135.86868,35.45128],[135.86866,35.45123],[135.86853,35.45128],[135.86842,35.4513],[135.86826,35.45163],[135.86827,35.45166],[135.8683,35.45168],[135.86833,35.45168],[135.86839,35.45157],[135.86841,35.45156],[135.86858,35.45156]]]}},{"type":"Feature","properties":{"pid":"f78931a7-d295-4d1d-894a-af542b0de483","full":8.2},"geometry":{"type":"Polygon","coordinates":[[[135.8677,35.4517],[135.86773,35.4517],[135.8678,35.45169],[135.86804,35.45163],[135.86817,35.45136],[135.86823,35.45125],[135.86824,35.45116],[135.86824,35.45108],[135.86823,35.45105],[135.86819,35.451],[135.86816,35.451],[135.86811,35.45122],[135.86793,35.45129],[135.86784,35.45136],[135.86768,35.45153],[135.8677,35.4517]]]}},{"type":"Feature","properties":{"pid":"383bf0e9-1e27-47f1-bbac-c5c8d9b8334b","full":4.4},"geometry":{"type":"Polygon","coordinates":[[[135.86797,35.45038],[135.86798,35.45041],[135.86813,35.45058],[135.8685,35.45054],[135.86841,35.45031],[135.86797,35.45038]]]}},{"type":"Feature","properties":{"pid":"59048795-015e-4e48-8fde-bec9971d3a51","full":6.5},"geometry":{"type":"Polygon","coordinates":[[[135.86787,35.45021],[135.86795,35.45036],[135.86841,35.4503],[135.86838,35.45023],[135.86834,35.45014],[135.86832,35.45],[135.86828,35.44999],[135.868,35.45004],[135.86799,35.45006],[135.868,35.45013],[135.86787,35.45021]]]}},{"type":"Feature","properties":{"pid":"511289c6-7d4b-4bad-bfe1-da44c2b73a2c","full":3.1},"geometry":{"type":"Polygon","coordinates":[[[135.86797,35.44997],[135.86833,35.4499],[135.86833,35.44981],[135.86829,35.44971],[135.8679,35.44978],[135.86789,35.44983],[135.86792,35.44988],[135.86797,35.44997]]]}},{"type":"Feature","properties":{"pid":"c0f09dc8-a608-4f46-a745-468c40bf6023","full":3.6},"geometry":{"type":"Polygon","coordinates":[[[135.8679,35.44977],[135.8683,35.4497],[135.86822,35.4495],[135.86784,35.44956],[135.86785,35.44961],[135.8679,35.44977]]]}},{"type":"Feature","properties":{"pid":"919de4a2-d41e-4566-b2a5-d8098a684b97","full":8.5},"geometry":{"type":"Polygon","coordinates":[[[135.86521,35.45112],[135.86578,35.45096],[135.8658,35.45093],[135.86575,35.45082],[135.8657,35.45073],[135.86507,35.45091],[135.86505,35.45095],[135.86521,35.45112]]]}},{"type":"Feature","properties":{"pid":"3ffd403b-4a73-4021-9371-1f129314dfad","full":2.1},"geometry":{"type":"Polygon","coordinates":[[[135.86541,35.45122],[135.86586,35.45113],[135.8658,35.45097],[135.86526,35.45112],[135.86525,35.45115],[135.86531,35.45116],[135.86535,35.45117],[135.86541,35.45122]]]}},{"type":"Feature","properties":{"pid":"b4032ec7-0d55-4344-882e-b91a54283416","full":2.5},"geometry":{"type":"Polygon","coordinates":[[[135.86761,35.45196],[135.86763,35.45196],[135.86792,35.45195],[135.86798,35.4519],[135.86805,35.4517],[135.86772,35.45177],[135.8677,35.45179],[135.86768,35.45186],[135.86761,35.45196]]]}},{"type":"Feature","properties":{"pid":"9536c12a-6eb3-40f9-89e5-3654c2cd59f4","full":0.8},"geometry":{"type":"Polygon","coordinates":[[[135.86765,35.45227],[135.86775,35.4523],[135.86792,35.45213],[135.86791,35.45209],[135.86787,35.45208],[135.8678,35.45208],[135.86773,35.45211],[135.8677,35.45213],[135.86766,35.45218],[135.86764,35.45225],[135.86765,35.45227]]]}},{"type":"Feature","properties":{"pid":"581d0510-8c50-483d-98d3-eb974fbe143b","full":20.5},"geometry":{"type":"Polygon","coordinates":[[[135.86675,35.45227],[135.86681,35.45272],[135.86681,35.45281],[135.86681,35.45304],[135.86675,35.45329],[135.867,35.45321],[135.86708,35.45317],[135.86714,35.45307],[135.8672,35.45285],[135.86719,35.45277],[135.86714,35.45256],[135.86709,35.45247],[135.86689,35.45219],[135.86677,35.45201],[135.86663,35.45185],[135.86663,35.4519],[135.86675,35.45227]]]}},{"type":"Feature","properties":{"pid":"f2b403d7-1f4a-46ce-8c5d-d7d74462c875","full":3.7},"geometry":{"type":"Polygon","coordinates":[[[135.86607,35.45272],[135.86667,35.45262],[135.86668,35.45252],[135.86666,35.45245],[135.86604,35.45256],[135.86607,35.45272]]]}},{"type":"Feature","properties":{"pid":"11cbe53b-25bf-4544-a881-86d773e9d4cf","full":5.2},"geometry":{"type":"Polygon","coordinates":[[[135.86668,35.45285],[135.86666,35.45264],[135.86612,35.45273],[135.8661,35.45277],[135.86613,35.45291],[135.86616,35.45293],[135.86668,35.45285]]]}},{"type":"Feature","properties":{"pid":"0bd1a9df-bd8c-493f-83db-84488a5323d3","full":3.1},"geometry":{"type":"Polygon","coordinates":[[[135.86596,35.45259],[135.86595,35.45258],[135.86542,35.45267],[135.86542,35.45271],[135.86542,35.45275],[135.86545,35.45283],[135.86597,35.45274],[135.86599,35.45271],[135.86596,35.45259]]]}},{"type":"Feature","properties":{"pid":"03a233ff-c0bb-49c9-8f0d-cf38fe9c801a","full":3.4},"geometry":{"type":"Polygon","coordinates":[[[135.86606,35.45291],[135.86605,35.45284],[135.86603,35.45278],[135.86601,35.45276],[135.86598,35.45275],[135.86546,35.45285],[135.86547,35.45288],[135.86551,35.45296],[135.86554,35.453],[135.86606,35.45291]]]}},{"type":"Feature","properties":{"pid":"1b8386d4-cfce-40f2-92a7-95feeb1d14a3","full":2.7},"geometry":{"type":"Polygon","coordinates":[[[135.86541,35.45247],[135.86592,35.45238],[135.86587,35.45222],[135.86543,35.4523],[135.86542,35.45235],[135.86541,35.45247]]]}},{"type":"Feature","properties":{"pid":"be708e31-c170-4fce-9976-df4cd9cbfe16","full":3.3},"geometry":{"type":"Polygon","coordinates":[[[135.86596,35.45256],[135.86592,35.4524],[135.86542,35.45249],[135.8654,35.45251],[135.86539,35.45255],[135.86541,35.45265],[135.86545,35.45265],[135.86596,35.45256]]]}},{"type":"Feature","properties":{"pid":"83a98ffb-e28e-402a-b437-9ee00b699dca","full":2.3},"geometry":{"type":"Polygon","coordinates":[[[135.86544,35.45228],[135.86587,35.4522],[135.8658,35.45203],[135.86551,35.45211],[135.86547,35.45211],[135.86544,35.45228]]]}},{"type":"Feature","properties":{"pid":"819b5ec0-b0a6-4ce9-aa34-6cbbd7dbc775","full":3.8},"geometry":{"type":"Polygon","coordinates":[[[135.86578,35.45117],[135.86544,35.45124],[135.86548,35.45142],[135.86551,35.45143],[135.86592,35.45135],[135.86592,35.45133],[135.86588,35.45117],[135.86578,35.45117]]]}},{"type":"Feature","properties":{"pid":"8e9f852a-42f7-4c14-a3f3-84d493ae0096","full":4.4},"geometry":{"type":"Polygon","coordinates":[[[135.86521,35.45259],[135.86492,35.45263],[135.86493,35.45277],[135.86499,35.45295],[135.86502,35.45296],[135.86526,35.45291],[135.86522,35.45275],[135.86521,35.45259]]]}},{"type":"Feature","properties":{"pid":"1357f253-0269-4336-bddf-477eb93fd466","full":2.3},"geometry":{"type":"Polygon","coordinates":[[[135.86432,35.45304],[135.86438,35.45307],[135.86444,35.45312],[135.86445,35.45312],[135.86479,35.45283],[135.86472,35.45278],[135.86465,35.45274],[135.8644,35.45295],[135.86432,35.45304]]]}},{"type":"Feature","properties":{"pid":"bd11a41d-0e3d-4ffb-ac4c-0a102f41df37","full":2.6},"geometry":{"type":"Polygon","coordinates":[[[135.8639,35.45268],[135.86389,35.45275],[135.86391,35.45279],[135.86397,35.45284],[135.86399,35.45285],[135.86435,35.45253],[135.86422,35.45244],[135.8639,35.45268]]]}},{"type":"Feature","properties":{"pid":"202f2356-e939-485a-8626-baf2ae632876","full":3.2},"geometry":{"type":"Polygon","coordinates":[[[135.86353,35.45219],[135.86357,35.45226],[135.86362,35.45231],[135.86372,35.45239],[135.86377,35.4524],[135.86396,35.45226],[135.86395,35.45223],[135.86381,35.45214],[135.86369,35.4521],[135.86353,35.45219]]]}},{"type":"Feature","properties":{"pid":"146d348d-52ce-4d9b-ab66-70c3630c0b2e","full":2.2},"geometry":{"type":"Polygon","coordinates":[[[135.86352,35.45193],[135.86348,35.45191],[135.86329,35.452],[135.86329,35.45206],[135.86333,35.45213],[135.86345,35.45215],[135.86348,35.45217],[135.86367,35.45207],[135.86352,35.45193]]]}}],"precision":5}