{"type":"FeatureCollection","features":[{"type":"Feature","properties":{"pid":"ccf850a6-755b-4cc3-980b-ac54ab1b922d"},"geometry":{"type":"Polygon","coordinates":[[[136.42112726154446,36.0568958447341],[136.42112067741172,36.05717828748126],[136.4211828668342,36.057187511242475],[136.42121021366557,36.057209406004404],[136.42130986321507,36.05721157492663],[136.42132366768612,36.05717924625437],[136.42131973492081,36.05708614655426],[136.42128175036814,36.056993177193576],[136.42112726154446,36.0568958447341]]]}},{"type":"Feature","properties":{"pid":"c95b448b-ea76-4918-a0bd-6096cff1a158"},"geometry":{"type":"Polygon","coordinates":[[[136.42050594538165,36.057026048108426],[136.42055516352016,36.05705972637834],[136.42055285876887,36.056828818989565],[136.4205451386404,36.0568360462922],[136.42050594538165,36.057026048108426]]]}},{"type":"Feature","properties":{"pid":"cf2cd695-38f8-4672-aed5-7c1d9a39c85e"},"geometry":{"type":"Polygon","coordinates":[[[136.42067636693682,36.05682803117339],[136.42067812633076,36.05715866926681],[136.42071828649202,36.05715851083021],[136.42072285141887,36.056829758040735],[136.42067636693682,36.05682803117339]]]}},{"type":"Feature","properties":{"pid":"eeab6889-5f9b-4d07-bebc-587d0ca43609"},"geometry":{"type":"Polygon","coordinates":[[[136.42060402597204,36.05665775250379],[136.42059740712025,36.0566814384303],[136.42093447492155,36.056698292416655],[136.4210028893132,36.05669144059427],[136.4210051907252,36.05665745571149],[136.42060402597204,36.05665775250379]]]}},{"type":"Feature","properties":{"pid":"bcca342f-fb7c-489b-93e6-7a45c08aa859"},"geometry":{"type":"Polygon","coordinates":[[[136.42087816700814,36.056832266592345],[136.4208496573108,36.056838584741],[136.42084532653183,36.057159950122255],[136.42087819506844,36.05716184187405],[136.42087816700814,36.056832266592345]]]}},{"type":"Feature","properties":{"pid":"f7d7ecbe-632b-49d9-ac1d-2c34a12c9d47"},"geometry":{"type":"Polygon","coordinates":[[[136.4207356493443,36.05637952073759],[136.42096801693788,36.0563778550578],[136.42092625231695,36.056240454707044],[136.42075380162188,36.056258578422195],[136.4207356493443,36.05637952073759]]]}},{"type":"Feature","properties":{"pid":"2ad17240-5bdc-4118-a610-18155fe6f281"},"geometry":{"type":"Polygon","coordinates":[[[136.42068134752762,36.05647673637556],[136.42064168644887,36.05656005238402],[136.4210055647883,36.05655961884031],[136.42099644124866,36.05647236435362],[136.42068134752762,36.05647673637556]]]}}]}