{"type":"FeatureCollection","features":[{"type":"Feature","properties":{"pid":"ddb7aebb-2d34-4133-8980-aabdfb6dedef","full":10.1},"geometry":{"type":"Polygon","coordinates":[[[136.12903,36.13905],[136.12896,36.13872],[136.12844,36.13881],[136.12852,36.13913],[136.12903,36.13905]]]}},{"type":"Feature","properties":{"pid":"f0e17568-1d87-490f-bc84-22a049e09fa7","full":9.3},"geometry":{"type":"Polygon","coordinates":[[[136.12895,36.13869],[136.12889,36.13838],[136.12835,36.13846],[136.12842,36.13876],[136.12895,36.13869]]]}},{"type":"Feature","properties":{"pid":"aebf774a-0e68-4223-99d0-78fb975baebb","full":20.3},"geometry":{"type":"Polygon","coordinates":[[[136.127,36.13859],[136.127,36.13856],[136.12703,36.13856],[136.12686,36.13803],[136.12635,36.13811],[136.12649,36.13867],[136.127,36.13859]]]}},{"type":"Feature","properties":{"pid":"04bab861-3c1d-40c3-b33f-4f09cad74388","full":3.0},"geometry":{"type":"Polygon","coordinates":[[[136.12749,36.13791],[136.12746,36.13775],[136.12694,36.13781],[136.12699,36.13798],[136.12749,36.13791]]]}},{"type":"Feature","properties":{"pid":"fe67d1ad-8e4d-49ad-a896-b2c4070a1b78","full":2.5},"geometry":{"type":"Polygon","coordinates":[[[136.12743,36.13771],[136.12741,36.13756],[136.12703,36.1376],[136.12695,36.13769],[136.12693,36.13774],[136.12695,36.13779],[136.12743,36.13771]]]}},{"type":"Feature","properties":{"pid":"1a3f4b4a-5b86-4eec-b623-eb2ae11cdb45","full":3.1},"geometry":{"type":"Polygon","coordinates":[[[136.12753,36.1381],[136.12751,36.13793],[136.127,36.138],[136.12704,36.13817],[136.12753,36.1381]]]}},{"type":"Feature","properties":{"pid":"4c6b69e7-4ea1-46c0-8c62-b161cc6d2890","full":4.0},"geometry":{"type":"Polygon","coordinates":[[[136.12762,36.13849],[136.12758,36.13831],[136.12708,36.13838],[136.12712,36.13857],[136.12761,36.1385],[136.12762,36.13849]]]}},{"type":"Feature","properties":{"pid":"43fe817f-5bff-44e1-8706-cb1d5faada61","full":3.0},"geometry":{"type":"Polygon","coordinates":[[[136.1282,36.1382],[136.12816,36.13803],[136.12762,36.13811],[136.12767,36.13826],[136.1282,36.1382]]]}},{"type":"Feature","properties":{"pid":"e380d13a-e4be-4c4c-90a5-6ca8f14d3626","full":3.6},"geometry":{"type":"Polygon","coordinates":[[[136.12825,36.1384],[136.1282,36.13823],[136.12766,36.1383],[136.12771,36.13848],[136.12825,36.1384]]]}},{"type":"Feature","properties":{"pid":"36c8b5ce-5420-4e85-9fc5-7f99c04336ed","full":3.5},"geometry":{"type":"Polygon","coordinates":[[[136.12885,36.13822],[136.12884,36.13814],[136.12831,36.13821],[136.12834,36.13837],[136.12835,36.13838],[136.12887,36.13831],[136.12885,36.13822]]]}},{"type":"Feature","properties":{"pid":"c9874b37-52e7-4194-8805-0f04002baea0","full":2.4},"geometry":{"type":"Polygon","coordinates":[[[136.12884,36.13809],[136.12881,36.13794],[136.12827,36.13803],[136.12831,36.13817],[136.12884,36.13809]]]}},{"type":"Feature","properties":{"pid":"e39994be-57b1-4be0-8d81-b2639831159f","full":3.0},"geometry":{"type":"Polygon","coordinates":[[[136.12881,36.13791],[136.12877,36.13775],[136.12822,36.13783],[136.12826,36.13799],[136.12881,36.13791]]]}},{"type":"Feature","properties":{"pid":"ed4c2ff6-e891-4fa2-8f73-223cd85926dd","full":3.9},"geometry":{"type":"Polygon","coordinates":[[[136.12876,36.13773],[136.12872,36.13756],[136.12817,36.13763],[136.12821,36.13781],[136.12876,36.13773]]]}},{"type":"Feature","properties":{"pid":"579d6c1d-1d52-4036-9ccf-f944f336ace8","full":2.7},"geometry":{"type":"Polygon","coordinates":[[[136.12816,36.138],[136.12813,36.13784],[136.1276,36.13792],[136.12764,36.13807],[136.12816,36.138]]]}},{"type":"Feature","properties":{"pid":"3e75a5e6-fad0-40b8-8591-1f3664cc101e","full":2.8},"geometry":{"type":"Polygon","coordinates":[[[136.12812,36.13781],[136.12808,36.13765],[136.12756,36.13773],[136.1276,36.13789],[136.12812,36.13781]]]}},{"type":"Feature","properties":{"pid":"67337dd4-8577-4f20-90cd-a155ba63fdbc","full":2.1},"geometry":{"type":"Polygon","coordinates":[[[136.12808,36.13761],[136.12804,36.13746],[136.12754,36.13754],[136.12757,36.13767],[136.12808,36.13761]]]}},{"type":"Feature","properties":{"pid":"b96483f7-3256-4e42-acbc-809406a6b87b","full":2.9},"geometry":{"type":"Polygon","coordinates":[[[136.12804,36.13743],[136.12799,36.13727],[136.12746,36.13735],[136.1275,36.13751],[136.12804,36.13743]]]}},{"type":"Feature","properties":{"pid":"77ac368b-0296-47d3-8138-5e17bc18a54e","full":2.1},"geometry":{"type":"Polygon","coordinates":[[[136.12867,36.13753],[136.12847,36.13739],[136.12813,36.13745],[136.12817,36.1376],[136.12867,36.13753]]]}},{"type":"Feature","properties":{"pid":"377be763-2ce9-4183-a970-6e507decbc30","full":0.6},"geometry":{"type":"Polygon","coordinates":[[[136.12842,36.13735],[136.12809,36.13718],[136.12807,36.1372],[136.12807,36.13725],[136.12811,36.1374],[136.12842,36.13735]]]}},{"type":"Feature","properties":{"pid":"f76cb32e-66b0-4441-bc20-37431494130c","full":0.7},"geometry":{"type":"Polygon","coordinates":[[[136.1274,36.1375],[136.12738,36.13734],[136.12716,36.13741],[136.12706,36.13755],[136.1274,36.1375]]]}},{"type":"Feature","properties":{"pid":"5d43a8ed-ce63-4d70-a236-597fe8b1209e","full":5.9},"geometry":{"type":"Polygon","coordinates":[[[136.12643,36.13868],[136.1263,36.13812],[136.12608,36.13814],[136.12606,36.13837],[136.12629,36.1387],[136.12643,36.13868]]]}},{"type":"Feature","properties":{"pid":"814aecd0-b624-414a-a85b-2dd3a7e50f51","full":0.9},"geometry":{"type":"Polygon","coordinates":[[[136.12861,36.12854],[136.12835,36.12852],[136.12829,36.12863],[136.12845,36.12867],[136.12869,36.1287],[136.12861,36.12861],[136.12861,36.12854]]]}},{"type":"Feature","properties":{"pid":"0dde5a25-b673-4f74-b1ee-8b9264d6ec4f","full":0.8},"geometry":{"type":"Polygon","coordinates":[[[136.12884,36.12859],[136.12884,36.12853],[136.12861,36.12854],[136.12861,36.12861],[136.12869,36.1287],[136.1289,36.12871],[136.12884,36.12859]]]}},{"type":"Feature","properties":{"pid":"4a18c9fd-5f93-492a-a37e-05ae6344ac86","full":1.4},"geometry":{"type":"Polygon","coordinates":[[[136.12781,36.13215],[136.12746,36.13203],[136.1274,36.13205],[136.12735,36.13211],[136.12739,36.13216],[136.12769,36.13226],[136.12777,36.1322],[136.12781,36.13215]]]}},{"type":"Feature","properties":{"pid":"ac495d12-40a3-4bb4-bc78-4942311106b2","full":2.1},"geometry":{"type":"Polygon","coordinates":[[[136.12701,36.13223],[136.12685,36.13222],[136.12674,36.13235],[136.12672,36.13243],[136.12679,36.1325],[136.12703,36.13241],[136.127,36.13228],[136.12701,36.13223]]]}},{"type":"Feature","properties":{"pid":"15cf23a5-e9f6-4513-bb1b-6cd3fb89394f","full":0.6},"geometry":{"type":"Polygon","coordinates":[[[136.12938,36.13107],[136.12928,36.13107],[136.12925,36.13116],[136.12924,36.13142],[136.12923,36.13146],[136.12939,36.1314],[136.12937,36.13133],[136.12941,36.13119],[136.12938,36.13107]]]}},{"type":"Feature","properties":{"pid":"1d70955f-dc1a-4f4d-9447-b2ac86fa1b9c","full":0.9},"geometry":{"type":"Polygon","coordinates":[[[136.12964,36.13131],[136.1299,36.13131],[136.12975,36.13124],[136.12942,36.13114],[136.12942,36.13121],[136.1294,36.13129],[136.12941,36.13137],[136.12964,36.13131]]]}},{"type":"Feature","properties":{"pid":"9b8362c9-3a35-4f01-9673-5a69d97a09a4","full":10.7},"geometry":{"type":"Polygon","coordinates":[[[136.1296,36.13098],[136.12959,36.13099],[136.12961,36.13101],[136.12988,36.13128],[136.12994,36.1313],[136.12998,36.13131],[136.13002,36.13129],[136.13014,36.13119],[136.13026,36.13105],[136.13026,36.13104],[136.13015,36.13101],[136.12989,36.13078],[136.12987,36.13078],[136.1296,36.13098]]]}},{"type":"Feature","properties":{"pid":"55880b42-982c-48fa-87b6-fd99ba38ce0b","full":0.8},"geometry":{"type":"Polygon","coordinates":[[[136.12952,36.13101],[136.12944,36.13107],[136.12941,36.13114],[136.12973,36.13122],[136.12985,36.13128],[136.12984,36.13125],[136.12977,36.13118],[136.12958,36.13101],[136.12955,36.13101],[136.12952,36.13101]]]}},{"type":"Feature","properties":{"pid":"d2e02002-36ae-45a8-8610-0e87323e1f38","full":2.5},"geometry":{"type":"Polygon","coordinates":[[[136.13078,36.13021],[136.13062,36.13032],[136.13062,36.13034],[136.13075,36.13045],[136.13079,36.13051],[136.13081,36.13052],[136.13092,36.1305],[136.13095,36.13046],[136.13096,36.13043],[136.13101,36.13037],[136.13078,36.13021]]]}},{"type":"Feature","properties":{"pid":"edf9ba7e-043a-4b87-9d08-a05040e03807","full":0.8},"geometry":{"type":"Polygon","coordinates":[[[136.1315,36.12999],[136.13141,36.12997],[136.13131,36.13],[136.13131,36.1301],[136.13139,36.13012],[136.13169,36.13014],[136.13169,36.13012],[136.13159,36.13009],[136.13156,36.13002],[136.1315,36.12999]]]}},{"type":"Feature","properties":{"pid":"fae93056-eb75-44a3-86c0-6bff63e221e6","full":4.0},"geometry":{"type":"Polygon","coordinates":[[[136.1355,36.13221],[136.13581,36.13229],[136.13584,36.13232],[136.13591,36.13232],[136.13595,36.13197],[136.13591,36.13196],[136.13582,36.13198],[136.1357,36.13204],[136.13563,36.1321],[136.13554,36.13215],[136.1355,36.13221]]]}},{"type":"Feature","properties":{"pid":"b18232c4-6064-428e-9380-7472639a12a8","full":2.9},"geometry":{"type":"Polygon","coordinates":[[[136.13578,36.13241],[136.13543,36.13229],[136.13539,36.1324],[136.13551,36.13251],[136.13583,36.13269],[136.13578,36.13241]]]}},{"type":"Feature","properties":{"pid":"d81e5d86-9ee5-47af-af0e-3fb50c8a5b8d","full":0.9},"geometry":{"type":"Polygon","coordinates":[[[136.13766,36.13052],[136.13759,36.13053],[136.1374,36.13052],[136.13737,36.13057],[136.13737,36.13064],[136.13758,36.13067],[136.1376,36.13071],[136.13774,36.13058],[136.13766,36.13052]]]}},{"type":"Feature","properties":{"pid":"6eb6bf2d-ecaf-4428-b83b-d15020b95132","full":3.5},"geometry":{"type":"Polygon","coordinates":[[[136.1389,36.13107],[136.1386,36.13093],[136.13844,36.13093],[136.13841,36.13109],[136.13869,36.13119],[136.13876,36.13123],[136.1389,36.13107]]]}},{"type":"Feature","properties":{"pid":"f8ff7831-c940-4aef-a2fa-e443fc0b365a","full":0.7},"geometry":{"type":"Polygon","coordinates":[[[136.13897,36.13074],[136.13882,36.13071],[136.13868,36.13095],[136.13881,36.13101],[136.13897,36.13074]]]}},{"type":"Feature","properties":{"pid":"6a9e0de6-0337-4ab1-9340-8063121d8c83","full":0.7},"geometry":{"type":"Polygon","coordinates":[[[136.13905,36.13074],[136.13897,36.13074],[136.13881,36.13101],[136.13891,36.13106],[136.13893,36.13108],[136.1391,36.13077],[136.13905,36.13074]]]}},{"type":"Feature","properties":{"pid":"bfe53e9b-2179-4567-b3f8-179c82a5b98d","full":0.7},"geometry":{"type":"Polygon","coordinates":[[[136.13863,36.13063],[136.13834,36.13054],[136.13827,36.1306],[136.13826,36.13066],[136.1386,36.13073],[136.13863,36.13063]]]}},{"type":"Feature","properties":{"pid":"6437d98f-bcb3-4521-9c65-0fef0aedc636","full":1.7},"geometry":{"type":"Polygon","coordinates":[[[136.13826,36.13052],[136.13817,36.13052],[136.1381,36.1306],[136.13801,36.13084],[136.13813,36.13091],[136.13818,36.1309],[136.13827,36.1306],[136.13827,36.13055],[136.13826,36.13052]]]}},{"type":"Feature","properties":{"pid":"182a6e5d-7881-49f3-bbe1-dd788a012195","full":2.4},"geometry":{"type":"Polygon","coordinates":[[[136.1381,36.1306],[136.13817,36.13052],[136.13791,36.13054],[136.13776,36.13077],[136.13801,36.13084],[136.1381,36.1306]]]}},{"type":"Feature","properties":{"pid":"848a7ee5-b4e7-4989-8901-4805346e4735","full":0.9},"geometry":{"type":"Polygon","coordinates":[[[136.13817,36.13052],[136.13825,36.13052],[136.13792,36.13038],[136.13782,36.13042],[136.13772,36.13048],[136.13762,36.1305],[136.13774,36.13057],[136.13784,36.13054],[136.13817,36.13052]]]}},{"type":"Feature","properties":{"pid":"d5cf57e2-95e6-4158-8981-22e101fa735c","full":6.9},"geometry":{"type":"Polygon","coordinates":[[[136.13714,36.13047],[136.13687,36.13036],[136.13673,36.13028],[136.13657,36.13027],[136.13655,36.13031],[136.13645,36.13034],[136.13643,36.13044],[136.13639,36.13044],[136.13635,36.13055],[136.13666,36.13064],[136.13685,36.13048],[136.13698,36.13046],[136.13713,36.13047],[136.13714,36.13047]]]}},{"type":"Feature","properties":{"pid":"20d9c5ff-4f41-43d3-a0ab-5133933c38af","full":1.3},"geometry":{"type":"Polygon","coordinates":[[[136.13596,36.13007],[136.1359,36.12999],[136.13574,36.13004],[136.13575,36.13017],[136.1357,36.13017],[136.13573,36.13021],[136.13597,36.13028],[136.13602,36.13023],[136.13603,36.13019],[136.13594,36.13015],[136.13596,36.13007]]]}},{"type":"Feature","properties":{"pid":"bb9352f0-5eb8-4905-a4c0-610fb9bdbce1","full":6.0},"geometry":{"type":"Polygon","coordinates":[[[136.13642,36.13031],[136.13645,36.13033],[136.13655,36.13031],[136.13657,36.13027],[136.13655,36.1302],[136.13644,36.13016],[136.13637,36.13016],[136.13619,36.13009],[136.13602,36.12999],[136.13596,36.13007],[136.13594,36.13015],[136.13603,36.13019],[136.13602,36.13023],[136.13597,36.13028],[136.13607,36.13034],[136.13616,36.13043],[136.13618,36.13039],[136.13642,36.13031]]]}},{"type":"Feature","properties":{"pid":"7796d775-c6cc-4ef7-a8a4-c6db489234a4","full":3.4},"geometry":{"type":"Polygon","coordinates":[[[136.14175,36.12468],[136.14156,36.1243],[136.14143,36.12433],[136.14143,36.12445],[136.14141,36.1245],[136.14153,36.12475],[136.14175,36.12468]]]}},{"type":"Feature","properties":{"pid":"377e1ad4-9517-440c-bb3e-7a605e2b7ddd","full":0.7},"geometry":{"type":"Polygon","coordinates":[[[136.14153,36.12475],[136.14141,36.1245],[136.1414,36.12454],[136.1413,36.12471],[136.14131,36.12475],[136.14137,36.1248],[136.14153,36.12475]]]}},{"type":"Feature","properties":{"pid":"1ab795b6-bd4f-49d4-b6fb-d99199358d8b","full":8.6},"geometry":{"type":"Polygon","coordinates":[[[136.14178,36.1257],[136.14157,36.12528],[136.14156,36.12529],[136.14156,36.12537],[136.14153,36.12542],[136.14149,36.12546],[136.14118,36.12556],[136.14134,36.12585],[136.14178,36.1257]]]}},{"type":"Feature","properties":{"pid":"5e4d75bf-1ec1-4fea-b980-2737cd695014","full":5.2},"geometry":{"type":"Polygon","coordinates":[[[136.14121,36.12621],[136.14095,36.1257],[136.14083,36.12575],[136.14081,36.12594],[136.1409,36.12612],[136.14095,36.12618],[136.14099,36.12627],[136.14121,36.12621]]]}},{"type":"Feature","properties":{"pid":"6c0dc573-7902-43c2-96f5-08680b8c59b6","full":2.3},"geometry":{"type":"Polygon","coordinates":[[[136.14134,36.12585],[136.14118,36.12556],[136.14098,36.12563],[136.14115,36.12592],[136.14134,36.12585]]]}},{"type":"Feature","properties":{"pid":"3b851743-e97c-4403-b027-998d0b23d1f4","full":10.5},"geometry":{"type":"Polygon","coordinates":[[[136.14175,36.12622],[136.14154,36.12581],[136.14115,36.12594],[136.14138,36.12634],[136.14175,36.12622]]]}},{"type":"Feature","properties":{"pid":"ba1f5297-574c-4292-a16c-b660fcc21308","full":3.1},"geometry":{"type":"Polygon","coordinates":[[[136.14193,36.12616],[136.14172,36.12574],[136.14154,36.12581],[136.14175,36.12622],[136.14193,36.12616]]]}},{"type":"Feature","properties":{"pid":"016aee1a-27ea-4975-99d1-2faece828d95","full":5.2},"geometry":{"type":"Polygon","coordinates":[[[136.14217,36.12608],[136.14196,36.12566],[136.14172,36.12574],[136.14193,36.12616],[136.14217,36.12608]]]}},{"type":"Feature","properties":{"pid":"b2f086da-49c9-4757-adb7-e503a12614c9","full":4.5},"geometry":{"type":"Polygon","coordinates":[[[136.14214,36.12558],[136.14193,36.12517],[136.1417,36.12524],[136.14193,36.12565],[136.14214,36.12558]]]}},{"type":"Feature","properties":{"pid":"e1c7f735-560a-49c5-8134-d894b987fbf1","full":4.3},"geometry":{"type":"Polygon","coordinates":[[[136.14235,36.12551],[136.14214,36.1251],[136.14193,36.12517],[136.14214,36.12558],[136.14235,36.12551]]]}},{"type":"Feature","properties":{"pid":"78b82d45-7e9e-457b-9d1b-5750971383ca","full":7.5},"geometry":{"type":"Polygon","coordinates":[[[136.14267,36.12541],[136.14246,36.12499],[136.14216,36.12509],[136.14237,36.1255],[136.14267,36.12541]]]}},{"type":"Feature","properties":{"pid":"571547fa-a5eb-4585-9157-a3cc700d9f9e","full":3.4},"geometry":{"type":"Polygon","coordinates":[[[136.14298,36.12581],[136.14277,36.12539],[136.14257,36.12546],[136.14279,36.12587],[136.14298,36.12581]]]}},{"type":"Feature","properties":{"pid":"ea0b4523-f15e-4ce5-b05f-8adf7d4f4ab0","full":3.3},"geometry":{"type":"Polygon","coordinates":[[[136.14279,36.12587],[136.14257,36.12546],[136.14239,36.12553],[136.1426,36.12593],[136.14279,36.12587]]]}},{"type":"Feature","properties":{"pid":"6c857ba6-6698-4d5e-bb89-b0b7e129d033","full":8.1},"geometry":{"type":"Polygon","coordinates":[[[136.14256,36.12594],[136.14236,36.12553],[136.14205,36.12563],[136.14225,36.12605],[136.14256,36.12594]]]}},{"type":"Feature","properties":{"pid":"8daaa9cc-249b-4588-bfb4-b6f73bf73740","full":2.5},"geometry":{"type":"Polygon","coordinates":[[[136.14321,36.12627],[136.14301,36.12585],[136.14283,36.12591],[136.14305,36.12632],[136.14321,36.12627]]]}},{"type":"Feature","properties":{"pid":"66a9e10e-e900-48fb-922e-1efbf08aad55","full":3.2},"geometry":{"type":"Polygon","coordinates":[[[136.14343,36.1262],[136.14321,36.12578],[136.14303,36.12584],[136.14324,36.12626],[136.14343,36.1262]]]}},{"type":"Feature","properties":{"pid":"85de9aa3-4634-43ff-b002-dabbe2741884","full":13.6},"geometry":{"type":"Polygon","coordinates":[[[136.14358,36.12561],[136.14316,36.12526],[136.14281,36.12539],[136.14301,36.1258],[136.14358,36.12561]]]}},{"type":"Feature","properties":{"pid":"f706da57-e19c-4d5c-87a1-d8a5b657e30a","full":0.7},"geometry":{"type":"Polygon","coordinates":[[[136.1431,36.12478],[136.14287,36.12487],[136.14309,36.12505],[136.14317,36.12502],[136.14315,36.12497],[136.1431,36.12478]]]}},{"type":"Feature","properties":{"pid":"e7594bf4-c4a2-4d6e-9443-06454c82aa4b","full":0.7},"geometry":{"type":"Polygon","coordinates":[[[136.14283,36.12473],[136.14287,36.12487],[136.1431,36.12477],[136.14307,36.12463],[136.14283,36.12473]]]}},{"type":"Feature","properties":{"pid":"65b346ba-0e8f-43d4-bc81-0b11a12dfcf0","full":3.1},"geometry":{"type":"Polygon","coordinates":[[[136.1427,36.12439],[136.14276,36.12452],[136.14279,36.12463],[136.14305,36.12453],[136.14299,36.12427],[136.1427,36.12439]]]}},{"type":"Feature","properties":{"pid":"ea2d20f1-1111-450b-a2c2-097fcabb2304","full":2.2},"geometry":{"type":"Polygon","coordinates":[[[136.14279,36.12463],[136.14275,36.12453],[136.14269,36.12439],[136.14241,36.12451],[136.14263,36.1247],[136.14279,36.12463]]]}},{"type":"Feature","properties":{"pid":"03f26020-c3a1-43f4-98fd-55ec53c0aff5","full":1.4},"geometry":{"type":"Polygon","coordinates":[[[136.14217,36.12455],[136.14238,36.12496],[136.14258,36.12489],[136.14236,36.12464],[136.14222,36.12453],[136.14217,36.12455]]]}},{"type":"Feature","properties":{"pid":"ee7e1f9e-2dc1-4014-b7a3-e74cc9ac91a3","full":0.6},"geometry":{"type":"Polygon","coordinates":[[[136.14296,36.1253],[136.14262,36.12494],[136.14257,36.12496],[136.14279,36.12536],[136.14296,36.1253]]]}},{"type":"Feature","properties":{"pid":"b7906106-07ed-4650-9c7f-ab9c6487379b","full":25.7},"geometry":{"type":"Polygon","coordinates":[[[136.14236,36.12497],[136.14216,36.12455],[136.14138,36.12482],[136.14145,36.12491],[136.14149,36.125],[136.14155,36.12524],[136.14236,36.12497]]]}},{"type":"Feature","properties":{"pid":"394caa00-8725-48ca-ac37-c79d2edefbbb","full":6.1},"geometry":{"type":"Polygon","coordinates":[[[136.14222,36.12451],[136.14176,36.12423],[136.14162,36.12429],[136.1418,36.12466],[136.14222,36.12451]]]}},{"type":"Feature","properties":{"pid":"3144d58b-c0c2-403c-b136-446c9c659467","full":21.1},"geometry":{"type":"Polygon","coordinates":[[[136.14269,36.12439],[136.14263,36.12428],[136.14248,36.12407],[136.14226,36.12383],[136.14171,36.12405],[136.14221,36.12439],[136.14241,36.12451],[136.14269,36.12439]]]}},{"type":"Feature","properties":{"pid":"2036ea63-83f6-4aa6-a7b8-15da5bfa1747","full":10.3},"geometry":{"type":"Polygon","coordinates":[[[136.14227,36.12383],[136.14248,36.12407],[136.14264,36.12428],[136.1427,36.12439],[136.14299,36.12427],[136.14285,36.12408],[136.14269,36.12391],[136.1425,36.12374],[136.14227,36.12383]]]}},{"type":"Feature","properties":{"pid":"4287abf9-3fe3-481d-b86e-4f8d2ee557fb","full":10.8},"geometry":{"type":"Polygon","coordinates":[[[136.14722,36.12414],[136.14722,36.12412],[136.14626,36.12418],[136.14634,36.12438],[136.14744,36.12432],[136.14726,36.12416],[136.14722,36.12414]]]}},{"type":"Feature","properties":{"pid":"3dbd20c6-df53-4409-80a7-e8f82e1a3214","full":12.1},"geometry":{"type":"Polygon","coordinates":[[[136.14699,36.1239],[136.14696,36.12386],[136.14617,36.12392],[136.14618,36.12402],[136.14625,36.12416],[136.14722,36.1241],[136.14717,36.12404],[136.14702,36.12396],[136.14699,36.1239]]]}},{"type":"Feature","properties":{"pid":"b309b4a7-f815-410d-a8b2-64d1711467f1","full":1.2},"geometry":{"type":"Polygon","coordinates":[[[136.14676,36.1257],[136.1465,36.12567],[136.14652,36.12586],[136.14676,36.12588],[136.14676,36.1257]]]}},{"type":"Feature","properties":{"pid":"c138b97c-a216-4bfd-b9df-fae7e55acc12","full":18.4},"geometry":{"type":"Polygon","coordinates":[[[136.14756,36.12529],[136.14756,36.12507],[136.14677,36.12512],[136.14684,36.12517],[136.14687,36.12522],[136.14689,36.12528],[136.14689,36.12549],[136.14751,36.12554],[136.14756,36.12529]]]}},{"type":"Feature","properties":{"pid":"286b8fc6-b92e-4e3c-9c42-296683e1177d","full":3.6},"geometry":{"type":"Polygon","coordinates":[[[136.14749,36.12555],[136.14689,36.12551],[136.14688,36.12565],[136.1469,36.12567],[136.14744,36.12572],[136.14749,36.12555]]]}},{"type":"Feature","properties":{"pid":"234f4646-4476-4c85-917c-f418133b13fe","full":13.3},"geometry":{"type":"Polygon","coordinates":[[[136.14756,36.12504],[136.14755,36.12479],[136.14666,36.12482],[136.1466,36.12481],[136.14662,36.12494],[136.14674,36.12508],[136.14741,36.12505],[136.14756,36.12504]]]}},{"type":"Feature","properties":{"pid":"a22f360a-6dc1-47f3-8a6e-10528831b5e8","full":1.8},"geometry":{"type":"Polygon","coordinates":[[[136.14753,36.12456],[136.14751,36.12452],[136.14649,36.12455],[136.14657,36.12466],[136.14753,36.12464],[136.14753,36.12456]]]}},{"type":"Feature","properties":{"pid":"970bfa89-a75a-45e4-8f91-e5bf02228652","full":4.2},"geometry":{"type":"Polygon","coordinates":[[[136.14746,36.12437],[136.14744,36.12435],[136.14636,36.1244],[136.14647,36.12452],[136.14751,36.12449],[136.14751,36.12446],[136.14746,36.12437]]]}},{"type":"Feature","properties":{"pid":"9b766082-e1f7-4ef9-8090-0e8f229368e6","full":1.3},"geometry":{"type":"Polygon","coordinates":[[[136.14755,36.12475],[136.14755,36.12466],[136.14658,36.12469],[136.14659,36.12475],[136.14665,36.12475],[136.14665,36.12479],[136.14753,36.12477],[136.14755,36.12475]]]}},{"type":"Feature","properties":{"pid":"8bc5f41e-8b13-4fde-8b45-e233cb935c90","full":9.9},"geometry":{"type":"Polygon","coordinates":[[[136.14728,36.1274],[136.14694,36.12689],[136.1467,36.12737],[136.14722,36.12754],[136.14728,36.1274]]]}},{"type":"Feature","properties":{"pid":"90937704-cf9e-4d98-897a-cd359d21619a","full":3.4},"geometry":{"type":"Polygon","coordinates":[[[136.14722,36.12754],[136.1467,36.12738],[136.14663,36.12754],[136.14715,36.12769],[136.14722,36.12754]]]}},{"type":"Feature","properties":{"pid":"0bc71ebe-c9ae-47fc-895d-af6f25a24700","full":3.9},"geometry":{"type":"Polygon","coordinates":[[[136.14715,36.12769],[136.14663,36.12754],[136.14655,36.12771],[136.14707,36.12786],[136.14715,36.12769]]]}},{"type":"Feature","properties":{"pid":"ecc30d27-ba8e-44e1-a901-6bbfede5e214","full":3.7},"geometry":{"type":"Polygon","coordinates":[[[136.14707,36.12786],[136.14655,36.12771],[136.14648,36.12787],[136.14699,36.12802],[136.14707,36.12786]]]}},{"type":"Feature","properties":{"pid":"7ab0e066-25ac-451f-a43e-fd1cd433d34b","full":2.6},"geometry":{"type":"Polygon","coordinates":[[[136.14719,36.1277],[136.1477,36.12786],[136.14771,36.12782],[136.1473,36.12745],[136.14719,36.1277]]]}},{"type":"Feature","properties":{"pid":"ecd8fa31-6f09-4dd9-84be-e31c63407dd5","full":3.8},"geometry":{"type":"Polygon","coordinates":[[[136.14873,36.1284],[136.14822,36.12823],[136.14814,36.1284],[136.14865,36.12856],[136.14873,36.1284]]]}},{"type":"Feature","properties":{"pid":"60f1eca8-303c-4b00-b7cf-8297facd5e16","full":3.5},"geometry":{"type":"Polygon","coordinates":[[[136.14865,36.12856],[136.14814,36.1284],[136.14806,36.12856],[136.14858,36.12872],[136.14865,36.12856]]]}},{"type":"Feature","properties":{"pid":"8ab6dd3c-229b-4046-8c5f-ecbbf3f59eca","full":5.4},"geometry":{"type":"Polygon","coordinates":[[[136.14921,36.1287],[136.1487,36.12853],[136.1486,36.12873],[136.14912,36.12889],[136.14921,36.1287]]]}},{"type":"Feature","properties":{"pid":"6643c0c2-eaa7-4cc7-8e98-21176edaa9df","full":3.8},"geometry":{"type":"Polygon","coordinates":[[[136.14929,36.12854],[136.14878,36.12836],[136.1487,36.12853],[136.14921,36.1287],[136.14929,36.12854]]]}},{"type":"Feature","properties":{"pid":"744eb6ac-f707-4229-bc28-5fe8e9e289ff","full":7.3},"geometry":{"type":"Polygon","coordinates":[[[136.1491,36.12893],[136.14857,36.12877],[136.14846,36.129],[136.14898,36.12917],[136.1491,36.12893]]]}},{"type":"Feature","properties":{"pid":"a1faaec1-e43e-4421-8640-a9c82194567d","full":2.5},"geometry":{"type":"Polygon","coordinates":[[[136.14957,36.12929],[136.14906,36.12913],[136.14898,36.12927],[136.1495,36.12943],[136.14957,36.12929]]]}},{"type":"Feature","properties":{"pid":"d9d108e4-e6e2-49fb-a785-57196000653b","full":3.3},"geometry":{"type":"Polygon","coordinates":[[[136.1495,36.12943],[136.14898,36.12927],[136.14891,36.12942],[136.14943,36.12958],[136.1495,36.12943]]]}},{"type":"Feature","properties":{"pid":"176b9580-7a6a-4b98-8bb1-d541fb1e4e90","full":2.3},"geometry":{"type":"Polygon","coordinates":[[[136.14943,36.12958],[136.14891,36.12943],[136.14885,36.12956],[136.14929,36.12969],[136.14937,36.12968],[136.14943,36.12958]]]}},{"type":"Feature","properties":{"pid":"d1874f2b-4961-4ab6-9b37-7b8a525345d2","full":10.1},"geometry":{"type":"Polygon","coordinates":[[[136.14898,36.12917],[136.14846,36.12901],[136.14832,36.1293],[136.14884,36.12947],[136.14898,36.12917]]]}},{"type":"Feature","properties":{"pid":"40be93f1-bd05-428e-989c-4c9c4704b8dd","full":2.4},"geometry":{"type":"Polygon","coordinates":[[[136.14884,36.12947],[136.14832,36.1293],[136.14828,36.12939],[136.14829,36.12948],[136.14866,36.12953],[136.14864,36.12962],[136.14871,36.12963],[136.14876,36.12963],[136.14884,36.12947]]]}},{"type":"Feature","properties":{"pid":"82378c18-c788-4d7a-a56e-5d200306ebe1","full":1.1},"geometry":{"type":"Polygon","coordinates":[[[136.14834,36.12922],[136.14807,36.12913],[136.14805,36.12919],[136.1481,36.12934],[136.14826,36.12938],[136.14834,36.12922]]]}},{"type":"Feature","properties":{"pid":"f27cb0fc-41dd-4d11-a3ea-450c2991e047","full":5.2},"geometry":{"type":"Polygon","coordinates":[[[136.14848,36.12892],[136.14803,36.12879],[136.14806,36.12895],[136.14811,36.12907],[136.14807,36.12913],[136.14834,36.12922],[136.14848,36.12892]]]}},{"type":"Feature","properties":{"pid":"4021d4aa-d868-414f-93c7-7827dca1d508","full":3.7},"geometry":{"type":"Polygon","coordinates":[[[136.14855,36.12876],[136.14804,36.1286],[136.148,36.12869],[136.14803,36.12879],[136.14848,36.12892],[136.14855,36.12876]]]}},{"type":"Feature","properties":{"pid":"0402cb22-cb4f-449e-8b10-0c904af965ac","full":8.3},"geometry":{"type":"Polygon","coordinates":[[[136.14797,36.1287],[136.14788,36.1287],[136.14779,36.12871],[136.14773,36.12873],[136.14765,36.12879],[136.14757,36.12882],[136.1477,36.12916],[136.14775,36.12916],[136.14778,36.1291],[136.14807,36.12907],[136.14803,36.12896],[136.14801,36.12878],[136.14797,36.1287]]]}},{"type":"Feature","properties":{"pid":"496f595d-2e7a-453f-9e18-e683ef68d0cf","full":3.2},"geometry":{"type":"Polygon","coordinates":[[[136.14769,36.12916],[136.14757,36.12882],[136.14747,36.12884],[136.14738,36.12884],[136.14744,36.12922],[136.14769,36.12916]]]}},{"type":"Feature","properties":{"pid":"452e7896-f3bf-4be2-b26b-086b8b7d7b11","full":3.3},"geometry":{"type":"Polygon","coordinates":[[[136.14806,36.1291],[136.14807,36.12907],[136.14778,36.1291],[136.14775,36.12916],[136.14786,36.12941],[136.14809,36.12939],[136.14808,36.12932],[136.14804,36.12923],[136.14804,36.12918],[136.14804,36.12914],[136.14806,36.1291]]]}},{"type":"Feature","properties":{"pid":"7f9892ec-07fa-4825-86fe-8bd91e350b53","full":7.0},"geometry":{"type":"Polygon","coordinates":[[[136.14811,36.12962],[136.14807,36.12942],[136.14786,36.12943],[136.14782,36.12941],[136.1478,36.12933],[136.14769,36.12935],[136.14768,36.12974],[136.14767,36.12977],[136.14769,36.12983],[136.14775,36.12985],[136.14784,36.12976],[136.14809,36.12966],[136.14811,36.12962]]]}},{"type":"Feature","properties":{"pid":"5f1cbab8-57bd-46cc-86ff-81e741fd0e63","full":4.8},"geometry":{"type":"Polygon","coordinates":[[[136.14769,36.12935],[136.14765,36.1292],[136.14747,36.12923],[136.14744,36.12965],[136.14756,36.1297],[136.14768,36.12974],[136.14769,36.12935]]]}},{"type":"Feature","properties":{"pid":"e590d526-7e5b-4e65-9a04-d06a7140efe7","full":1.1},"geometry":{"type":"Polygon","coordinates":[[[136.14724,36.12954],[136.14723,36.12925],[136.14721,36.12923],[136.14707,36.12924],[136.14707,36.12952],[136.1471,36.12953],[136.14712,36.12952],[136.14724,36.12954]]]}},{"type":"Feature","properties":{"pid":"1bbe5818-5eee-42c9-a227-1cb99e9c6081","full":1.7},"geometry":{"type":"Polygon","coordinates":[[[136.14742,36.12964],[136.14746,36.12924],[136.14738,36.12925],[136.1473,36.12927],[136.14725,36.12927],[136.14726,36.12954],[136.14731,36.12955],[136.14737,36.12961],[136.14742,36.12964]]]}},{"type":"Feature","properties":{"pid":"51a70386-7ff1-4e12-bae1-1471a96eb7fc","full":0.5},"geometry":{"type":"Polygon","coordinates":[[[136.14725,36.12955],[136.14712,36.12954],[136.14713,36.12958],[136.14711,36.12964],[136.14739,36.12973],[136.14744,36.12967],[136.14731,36.12957],[136.14725,36.12955]]]}},{"type":"Feature","properties":{"pid":"f346a21e-3cf9-4af9-a2b4-73d190c39980","full":7.2},"geometry":{"type":"Polygon","coordinates":[[[136.14704,36.12924],[136.14676,36.12925],[136.14657,36.12916],[136.14656,36.12918],[136.14654,36.1293],[136.14651,36.12937],[136.14651,36.12941],[136.14665,36.12949],[136.14683,36.12956],[136.14685,36.12956],[136.14686,36.12955],[136.14687,36.1295],[136.14692,36.12948],[136.14704,36.12951],[136.14705,36.1295],[136.14705,36.12925],[136.14704,36.12924]]]}},{"type":"Feature","properties":{"pid":"354b82b1-4577-4e01-aba6-dd4c3081e6f6","full":8.3},"geometry":{"type":"Polygon","coordinates":[[[136.14744,36.12922],[136.14738,36.12884],[136.14729,36.12882],[136.14721,36.12878],[136.14716,36.12872],[136.14707,36.12872],[136.14704,36.12922],[136.1472,36.12921],[136.14723,36.12922],[136.14725,36.12925],[136.1473,36.12925],[136.14744,36.12922]]]}},{"type":"Feature","properties":{"pid":"59ef1997-61a6-42a1-ac17-4e2578c55654","full":1.5},"geometry":{"type":"Polygon","coordinates":[[[136.14707,36.12872],[136.14692,36.12871],[136.14691,36.12923],[136.14704,36.12922],[136.14707,36.12872]]]}},{"type":"Feature","properties":{"pid":"5c5713de-0c70-4718-81f7-2309e92d9c8d","full":2.3},"geometry":{"type":"Polygon","coordinates":[[[136.14692,36.12871],[136.14678,36.1287],[136.14673,36.12908],[136.14677,36.12924],[136.1469,36.12923],[136.14692,36.12871]]]}},{"type":"Feature","properties":{"pid":"68e81393-ab38-4f0e-acb7-c1cd7b35fb6c","full":13.1},"geometry":{"type":"Polygon","coordinates":[[[136.14728,36.12877],[136.14745,36.12841],[136.14693,36.12825],[136.14674,36.12867],[136.14695,36.12869],[136.14714,36.12869],[136.14728,36.12877]]]}},{"type":"Feature","properties":{"pid":"9ec83996-dd25-4060-aa2f-1f911cbfd4a8","full":7.6},"geometry":{"type":"Polygon","coordinates":[[[136.148,36.12858],[136.14748,36.12841],[136.1473,36.12878],[136.14737,36.1288],[136.14751,36.12881],[136.14762,36.12877],[136.14771,36.12871],[136.14782,36.12868],[136.14795,36.12866],[136.148,36.12858]]]}},{"type":"Feature","properties":{"pid":"a8aa7f67-a626-413c-acb3-d8b6b1a5bba6","full":4.0},"geometry":{"type":"Polygon","coordinates":[[[136.14809,36.12836],[136.14758,36.12821],[136.1475,36.12838],[136.14801,36.12854],[136.14809,36.12836]]]}},{"type":"Feature","properties":{"pid":"05c03438-53b9-4d48-bc3c-5486d0e4c85c","full":3.6},"geometry":{"type":"Polygon","coordinates":[[[136.14817,36.12821],[136.14765,36.12804],[136.14758,36.12821],[136.14809,36.12836],[136.14817,36.12821]]]}},{"type":"Feature","properties":{"pid":"88fe9c58-3c3b-492e-ae28-d61341091f80","full":3.3},"geometry":{"type":"Polygon","coordinates":[[[136.14822,36.1281],[136.14775,36.12784],[136.14765,36.12804],[136.14817,36.12821],[136.14822,36.1281]]]}},{"type":"Feature","properties":{"pid":"d46e0568-0ab9-42b0-a1a4-5a5a81396323","full":3.3},"geometry":{"type":"Polygon","coordinates":[[[136.1477,36.12787],[136.14719,36.12772],[136.14712,36.12787],[136.14763,36.12803],[136.1477,36.12787]]]}},{"type":"Feature","properties":{"pid":"84c3689d-c19c-4ddd-a394-c4aa48e95799","full":3.7},"geometry":{"type":"Polygon","coordinates":[[[136.14763,36.12803],[136.14712,36.12787],[136.14705,36.12804],[136.14755,36.12819],[136.14763,36.12803]]]}},{"type":"Feature","properties":{"pid":"534b9390-941d-4c70-a6e9-12ac684a99a6","full":3.8},"geometry":{"type":"Polygon","coordinates":[[[136.14755,36.12821],[136.14704,36.12805],[136.14696,36.12821],[136.14747,36.12837],[136.14755,36.12821]]]}},{"type":"Feature","properties":{"pid":"d84ed151-0931-44c5-a88e-6dedd61b860a","full":3.9},"geometry":{"type":"Polygon","coordinates":[[[136.14699,36.12803],[136.14648,36.12787],[136.14639,36.12804],[136.1469,36.12819],[136.14699,36.12803]]]}},{"type":"Feature","properties":{"pid":"e96f0785-6876-423f-badb-41507badb94d","full":3.5},"geometry":{"type":"Polygon","coordinates":[[[136.14636,36.12806],[136.14582,36.12789],[136.14575,36.12805],[136.14628,36.12821],[136.14636,36.12806]]]}},{"type":"Feature","properties":{"pid":"1f0a96c5-9bb5-4158-a01a-ef3c760b98d1","full":4.0},"geometry":{"type":"Polygon","coordinates":[[[136.14578,36.12788],[136.14526,36.12772],[136.14517,36.12788],[136.1457,36.12805],[136.14578,36.12788]]]}},{"type":"Feature","properties":{"pid":"04e7f202-b36a-4fee-80b7-18a8e4df12b5","full":4.8},"geometry":{"type":"Polygon","coordinates":[[[136.14628,36.12821],[136.14575,36.12805],[136.14565,36.12823],[136.1462,36.12839],[136.14628,36.12821]]]}},{"type":"Feature","properties":{"pid":"bc85f406-5341-4897-bc4b-260327501cb5","full":4.4},"geometry":{"type":"Polygon","coordinates":[[[136.14619,36.12839],[136.14565,36.12823],[136.14557,36.12841],[136.14611,36.12856],[136.14619,36.12839]]]}},{"type":"Feature","properties":{"pid":"7e7063bf-2674-4156-94e2-dcf41a6e48d8","full":4.0},"geometry":{"type":"Polygon","coordinates":[[[136.14611,36.12857],[136.14557,36.12841],[136.14549,36.12857],[136.14603,36.12873],[136.14611,36.12857]]]}},{"type":"Feature","properties":{"pid":"c65a257e-7b31-4d15-a1ed-2207ba08af8e","full":2.7},"geometry":{"type":"Polygon","coordinates":[[[136.14641,36.12866],[136.14612,36.12858],[136.14598,36.12889],[136.14617,36.12888],[136.14625,36.12885],[136.1463,36.12879],[136.14635,36.1287],[136.14641,36.12866]]]}},{"type":"Feature","properties":{"pid":"c572c15d-045d-4c9d-9a03-7be2949cc956","full":12.0},"geometry":{"type":"Polygon","coordinates":[[[136.14689,36.12823],[136.14638,36.12807],[136.14621,36.12841],[136.14672,36.12857],[136.14689,36.12823]]]}},{"type":"Feature","properties":{"pid":"1abdd9ee-1173-493b-af95-929c37f06776","full":2.6},"geometry":{"type":"Polygon","coordinates":[[[136.14667,36.12866],[136.14672,36.12857],[136.14621,36.12841],[136.14613,36.12856],[136.14643,36.12865],[136.14651,36.12865],[136.14667,36.12866]]]}},{"type":"Feature","properties":{"pid":"7b3a5f1e-8f41-4c71-8835-1b71d8e54be2","full":2.1},"geometry":{"type":"Polygon","coordinates":[[[136.14678,36.1287],[136.14654,36.12868],[136.14657,36.12894],[136.14666,36.12906],[136.14673,36.12908],[136.14678,36.1287]]]}},{"type":"Feature","properties":{"pid":"01a174c2-3449-44b9-9bff-c418ccefb8e3","full":4.0},"geometry":{"type":"Polygon","coordinates":[[[136.14641,36.12875],[136.14641,36.12869],[136.14635,36.12873],[136.14634,36.12879],[136.14629,36.12886],[136.14625,36.12888],[136.14622,36.12889],[136.1462,36.12919],[136.14636,36.12928],[136.14643,36.12927],[136.14645,36.12922],[136.14644,36.12897],[136.14647,36.12894],[136.14642,36.12884],[136.14641,36.12875]]]}},{"type":"Feature","properties":{"pid":"5b6d0baa-9bf3-4e29-bdfc-73161344f632","full":1.5},"geometry":{"type":"Polygon","coordinates":[[[136.14653,36.12868],[136.14647,36.12868],[136.14641,36.12869],[136.14641,36.12875],[136.14643,36.12884],[136.14647,36.12894],[136.14644,36.12897],[136.14645,36.12922],[136.14643,36.12927],[136.14636,36.12928],[136.14649,36.12939],[136.14654,36.12929],[136.14655,36.12918],[136.14657,36.12915],[136.14677,36.12924],[136.14673,36.12908],[136.14666,36.12906],[136.14656,36.12894],[136.14653,36.12868]]]}},{"type":"Feature","properties":{"pid":"24230810-d79d-4cdd-8e45-c79834a96258","full":1.1},"geometry":{"type":"Polygon","coordinates":[[[136.1462,36.12919],[136.14621,36.12889],[136.14598,36.12892],[136.14592,36.12896],[136.1462,36.12919]]]}},{"type":"Feature","properties":{"pid":"d3590794-4c1d-4164-a8f0-9dff14645349","full":3.1},"geometry":{"type":"Polygon","coordinates":[[[136.14603,36.12873],[136.14549,36.12857],[136.14546,36.12863],[136.14588,36.12894],[136.14596,36.1289],[136.14603,36.12873]]]}},{"type":"Feature","properties":{"pid":"7d0c07a1-2b7f-477a-881e-49fe7cb73e2a","full":3.6},"geometry":{"type":"Polygon","coordinates":[[[136.14467,36.12873],[136.14447,36.12833],[136.14427,36.1284],[136.14446,36.12878],[136.14467,36.12873]]]}},{"type":"Feature","properties":{"pid":"4a1d6d4b-0585-4abb-be7c-3baaab5612f1","full":3.1},"geometry":{"type":"Polygon","coordinates":[[[136.14446,36.12878],[136.14427,36.1284],[136.14408,36.12846],[136.14427,36.12885],[136.14437,36.12881],[136.14446,36.12878]]]}},{"type":"Feature","properties":{"pid":"362ce702-dcdf-4533-b760-80753b201b47","full":19.7},"geometry":{"type":"Polygon","coordinates":[[[136.14505,36.12839],[136.14492,36.12817],[136.14448,36.12832],[136.14468,36.12872],[136.14478,36.12871],[136.14487,36.12871],[136.14494,36.12875],[136.14527,36.12882],[136.14534,36.12878],[136.14538,36.1287],[136.14523,36.12858],[136.14505,36.12839]]]}},{"type":"Feature","properties":{"pid":"03356e21-d183-4f44-817a-79839837bc64","full":5.3},"geometry":{"type":"Polygon","coordinates":[[[136.14543,36.12832],[136.14555,36.12836],[136.14562,36.12822],[136.14508,36.12805],[136.14503,36.12815],[136.14509,36.12825],[136.14517,36.12835],[136.14538,36.12841],[136.14543,36.12832]]]}},{"type":"Feature","properties":{"pid":"500907c1-8d3f-4fa4-b6f1-177dc31117a0","full":4.1},"geometry":{"type":"Polygon","coordinates":[[[136.1457,36.12805],[136.14519,36.12789],[136.14516,36.12791],[136.14509,36.12805],[136.14562,36.12822],[136.1457,36.12805]]]}},{"type":"Feature","properties":{"pid":"d899de12-9abd-4b18-9152-89095c37971b","full":14.0},"geometry":{"type":"Polygon","coordinates":[[[136.14473,36.1282],[136.14441,36.12758],[136.14411,36.12782],[136.14436,36.12831],[136.14473,36.1282]]]}},{"type":"Feature","properties":{"pid":"a0a66c7f-0913-49a7-a94a-05d6d1f01d36","full":0.7},"geometry":{"type":"Polygon","coordinates":[[[136.14438,36.12711],[136.14433,36.12697],[136.14411,36.12703],[136.14419,36.12717],[136.14438,36.12711]]]}},{"type":"Feature","properties":{"pid":"d740e1f7-01c2-465f-bf86-8740b7f0a17e","full":4.1},"geometry":{"type":"Polygon","coordinates":[[[136.14539,36.12733],[136.1449,36.12717],[136.14482,36.12735],[136.14531,36.1275],[136.14539,36.12733]]]}},{"type":"Feature","properties":{"pid":"8ace5951-599a-48bb-864f-afe4ff361e2d","full":10.4},"geometry":{"type":"Polygon","coordinates":[[[136.14556,36.12699],[136.14512,36.12687],[136.14493,36.1271],[136.1449,36.12716],[136.1454,36.12732],[136.14556,36.12699]]]}},{"type":"Feature","properties":{"pid":"ecbce692-f532-4cc6-9825-1f6d747dd923","full":3.3},"geometry":{"type":"Polygon","coordinates":[[[136.14531,36.1275],[136.14482,36.12735],[136.14474,36.1275],[136.14523,36.12766],[136.14531,36.1275]]]}},{"type":"Feature","properties":{"pid":"af1b59d7-d2e4-43b3-9278-b6b0530e424e","full":4.6},"geometry":{"type":"Polygon","coordinates":[[[136.14522,36.1277],[136.14473,36.12755],[136.14501,36.1281],[136.14505,36.12803],[136.14522,36.1277]]]}},{"type":"Feature","properties":{"pid":"bbbe3491-a9fe-4475-9618-abf1f3a59991","full":5.0},"geometry":{"type":"Polygon","coordinates":[[[136.14589,36.12765],[136.14537,36.12749],[136.14528,36.12768],[136.14579,36.12784],[136.14589,36.12765]]]}},{"type":"Feature","properties":{"pid":"6ee81208-18f3-468a-9463-9901cecaf9f4","full":4.3},"geometry":{"type":"Polygon","coordinates":[[[136.14644,36.12784],[136.14593,36.12769],[136.14585,36.12785],[136.14635,36.12802],[136.14644,36.12784]]]}},{"type":"Feature","properties":{"pid":"3e697307-4578-40d8-8ccd-d2f34f8f9206","full":3.7},"geometry":{"type":"Polygon","coordinates":[[[136.14653,36.12768],[136.14601,36.12752],[136.14593,36.12768],[136.14644,36.12784],[136.14653,36.12768]]]}},{"type":"Feature","properties":{"pid":"26d35126-0e40-4da1-be76-8e31b66c2386","full":3.9},"geometry":{"type":"Polygon","coordinates":[[[136.14661,36.12751],[136.14609,36.12735],[136.14601,36.12752],[136.14653,36.12768],[136.14661,36.12751]]]}},{"type":"Feature","properties":{"pid":"74fcde08-f2aa-42de-a2cb-e6482136e049","full":10.3},"geometry":{"type":"Polygon","coordinates":[[[136.14675,36.12721],[136.14624,36.12705],[136.14609,36.12735],[136.14661,36.12751],[136.14675,36.12721]]]}},{"type":"Feature","properties":{"pid":"31701d5e-063d-4171-816a-3401c4260a79","full":5.1},"geometry":{"type":"Polygon","coordinates":[[[136.14685,36.12702],[136.14633,36.12685],[136.14624,36.12705],[136.14675,36.12721],[136.14685,36.12702]]]}},{"type":"Feature","properties":{"pid":"5ef58757-ebeb-4aa1-952a-f7d1bdc0138e","full":3.8},"geometry":{"type":"Polygon","coordinates":[[[136.1462,36.127],[136.14568,36.12684],[136.1456,36.12701],[136.14612,36.12717],[136.1462,36.127]]]}},{"type":"Feature","properties":{"pid":"3d35e12e-6952-45a5-88fa-29557603a46b","full":4.8},"geometry":{"type":"Polygon","coordinates":[[[136.14612,36.12717],[136.1456,36.12701],[136.14551,36.12719],[136.14603,36.12735],[136.14612,36.12717]]]}},{"type":"Feature","properties":{"pid":"2c43d838-ab41-459b-b408-6ea52986b255","full":10.0},"geometry":{"type":"Polygon","coordinates":[[[136.14603,36.12736],[136.14551,36.12719],[136.14537,36.12748],[136.14589,36.12765],[136.14603,36.12736]]]}},{"type":"Feature","properties":{"pid":"9aa7fdc7-73b5-4fa6-82d8-3cff464bd36f","full":3.9},"geometry":{"type":"Polygon","coordinates":[[[136.14636,36.12667],[136.14584,36.12651],[136.14576,36.12667],[136.14628,36.12683],[136.14636,36.12667]]]}},{"type":"Feature","properties":{"pid":"ae74a653-2dfc-4418-94fd-ffce44c2b278","full":4.1},"geometry":{"type":"Polygon","coordinates":[[[136.14628,36.12683],[136.14576,36.12667],[136.14568,36.12684],[136.1462,36.127],[136.14628,36.12683]]]}},{"type":"Feature","properties":{"pid":"8293c30c-6d87-4c3d-8cd8-56162227a10b","full":12.9},"geometry":{"type":"Polygon","coordinates":[[[136.14692,36.12686],[136.14677,36.12653],[136.14669,36.12644],[136.14657,36.12636],[136.14633,36.12685],[136.14685,36.12702],[136.14692,36.12686]]]}},{"type":"Feature","properties":{"pid":"2b1fbb7b-b574-45b0-b816-43a55fdd54cb","full":3.8},"geometry":{"type":"Polygon","coordinates":[[[136.14644,36.1265],[136.14592,36.12634],[136.14584,36.12651],[136.14636,36.12667],[136.14644,36.1265]]]}},{"type":"Feature","properties":{"pid":"502189ac-7693-4881-918a-7b45e8ab5243","full":1.8},"geometry":{"type":"Polygon","coordinates":[[[136.14652,36.12634],[136.14634,36.1263],[136.14622,36.12629],[136.14595,36.12631],[136.14592,36.12634],[136.14644,36.1265],[136.14652,36.12634]]]}},{"type":"Feature","properties":{"pid":"731024fd-c9cf-4b7a-9473-4997905773c0","full":4.0},"geometry":{"type":"Polygon","coordinates":[[[136.14604,36.12609],[136.14595,36.1263],[136.14623,36.12629],[136.14634,36.1263],[136.14652,36.12634],[136.14659,36.12621],[136.14657,36.1262],[136.1463,36.12612],[136.14614,36.12609],[136.14604,36.12609]]]}},{"type":"Feature","properties":{"pid":"090525df-8573-44aa-89dc-38d503cabd93","full":3.1},"geometry":{"type":"Polygon","coordinates":[[[136.14523,36.1265],[136.14572,36.12665],[136.1458,36.12649],[136.14543,36.12638],[136.14526,36.12641],[136.14525,36.12643],[136.14523,36.1265]]]}},{"type":"Feature","properties":{"pid":"a7d70ff1-19bc-47bc-8d80-6b96b7076e28","full":3.4},"geometry":{"type":"Polygon","coordinates":[[[136.14572,36.12665],[136.14523,36.12651],[136.14518,36.12668],[136.14564,36.12682],[136.14572,36.12665]]]}},{"type":"Feature","properties":{"pid":"77c1d55a-8512-472a-aa85-9945b224af37","full":3.5},"geometry":{"type":"Polygon","coordinates":[[[136.14564,36.12682],[136.14518,36.12668],[136.14513,36.12686],[136.14556,36.12699],[136.14564,36.12682]]]}},{"type":"Feature","properties":{"pid":"07c4afa0-585a-49af-a3e2-4a2b612bbe07","full":5.7},"geometry":{"type":"Polygon","coordinates":[[[136.14491,36.12642],[136.14464,36.12639],[136.14456,36.12684],[136.14483,36.12687],[136.14483,36.12679],[136.14491,36.12642]]]}},{"type":"Feature","properties":{"pid":"5ea2dcab-a18b-4fdd-b428-6b26e6150678","full":6.6},"geometry":{"type":"Polygon","coordinates":[[[136.14463,36.12639],[136.14461,36.12637],[136.14419,36.1265],[136.14435,36.12682],[136.14456,36.12684],[136.14463,36.12639]]]}},{"type":"Feature","properties":{"pid":"3a17d9cd-6505-4f5b-95f6-25d1f664dcac","full":9.7},"geometry":{"type":"Polygon","coordinates":[[[136.14433,36.12598],[136.14424,36.12594],[136.14396,36.12604],[136.14418,36.12647],[136.14452,36.12636],[136.14433,36.12598]]]}},{"type":"Feature","properties":{"pid":"663e6957-43a6-402d-ae22-65809ad284ec","full":8.7},"geometry":{"type":"Polygon","coordinates":[[[136.14386,36.12656],[136.14364,36.12612],[136.14333,36.12624],[136.14354,36.12667],[136.14386,36.12656]]]}},{"type":"Feature","properties":{"pid":"b715f267-7ed0-4db6-ab61-025b3f11dffe","full":4.4},"geometry":{"type":"Polygon","coordinates":[[[136.14406,36.12649],[136.14387,36.12606],[136.14364,36.12612],[136.14386,36.12656],[136.14406,36.12649]]]}},{"type":"Feature","properties":{"pid":"3b046f45-65ca-47bf-bdd7-064abd104f27","full":11.4},"geometry":{"type":"Polygon","coordinates":[[[136.14344,36.1267],[136.14322,36.12628],[136.14283,36.12641],[136.14304,36.12683],[136.14344,36.1267]]]}},{"type":"Feature","properties":{"pid":"8c583bc3-2122-49ce-9f21-2d01838d7810","full":47.1},"geometry":{"type":"Polygon","coordinates":[[[136.14407,36.12655],[136.14295,36.12693],[136.14295,36.12696],[136.14306,36.12719],[136.14312,36.12722],[136.14318,36.12722],[136.14324,36.12721],[136.1433,36.12731],[136.14334,36.12734],[136.14373,36.12733],[136.14402,36.12729],[136.14403,36.12727],[136.14403,36.12724],[136.14397,36.12709],[136.14397,36.12706],[136.14428,36.12697],[136.14429,36.12695],[136.1441,36.12656],[136.14407,36.12655]]]}},{"type":"Feature","properties":{"pid":"488cf8eb-25b8-48ad-8142-bd8a9aa96c89","full":0.9},"geometry":{"type":"Polygon","coordinates":[[[136.14427,36.12735],[136.14411,36.12703],[136.14398,36.12707],[136.14408,36.12731],[136.14412,36.12735],[136.14427,36.12735]]]}},{"type":"Feature","properties":{"pid":"5e38ad1e-ed2b-42c0-b420-1c9b0a1ded03","full":4.8},"geometry":{"type":"Polygon","coordinates":[[[136.14288,36.12719],[136.14298,36.12722],[136.14303,36.12721],[136.14303,36.12718],[136.14292,36.12696],[136.14289,36.12695],[136.14237,36.12711],[136.14237,36.12712],[136.14252,36.12723],[136.14259,36.12723],[136.14288,36.12719]]]}},{"type":"Feature","properties":{"pid":"ee058b19-5f83-47c6-932d-2f0d7bdfecd3","full":10.4},"geometry":{"type":"Polygon","coordinates":[[[136.14259,36.12698],[136.14239,36.12657],[136.14199,36.1267],[136.1421,36.12693],[136.14234,36.12706],[136.14259,36.12698]]]}},{"type":"Feature","properties":{"pid":"2d070be1-c347-4aa3-94f9-3d1cd5293126","full":11.7},"geometry":{"type":"Polygon","coordinates":[[[136.14302,36.12683],[136.14281,36.12643],[136.1424,36.12655],[136.14261,36.12697],[136.14301,36.12685],[136.14302,36.12683]]]}},{"type":"Feature","properties":{"pid":"e8a44016-9fb2-4082-8261-4f49921cecda","full":1.7},"geometry":{"type":"Polygon","coordinates":[[[136.1428,36.1264],[136.14259,36.12599],[136.14244,36.12604],[136.14266,36.12646],[136.1428,36.1264]]]}},{"type":"Feature","properties":{"pid":"0d18de26-54b6-4806-b6af-4067b0f0ad77","full":4.0},"geometry":{"type":"Polygon","coordinates":[[[136.14303,36.12633],[136.14282,36.12592],[136.14262,36.12598],[136.14283,36.1264],[136.14303,36.12633]]]}},{"type":"Feature","properties":{"pid":"d9b9f659-9fdb-4beb-91ef-2124948cb64a","full":1.1},"geometry":{"type":"Polygon","coordinates":[[[136.14266,36.12646],[136.14244,36.12604],[136.14231,36.12609],[136.14252,36.1265],[136.14266,36.12646]]]}},{"type":"Feature","properties":{"pid":"11651667-2c3b-4930-86ae-a9f516ab61b8","full":1.4},"geometry":{"type":"Polygon","coordinates":[[[136.14252,36.1265],[136.14231,36.12609],[136.14217,36.12613],[136.14238,36.12655],[136.14252,36.1265]]]}},{"type":"Feature","properties":{"pid":"3440925f-7f8a-424c-ae20-354959a25eba","full":3.6},"geometry":{"type":"Polygon","coordinates":[[[136.14238,36.12655],[136.14217,36.12613],[136.14198,36.1262],[136.14218,36.12661],[136.14238,36.12655]]]}},{"type":"Feature","properties":{"pid":"a5c3b769-6756-4475-b697-2ea1c3e8fd0b","full":17.2},"geometry":{"type":"Polygon","coordinates":[[[136.14218,36.12661],[136.14198,36.1262],[136.1414,36.1264],[136.14163,36.12677],[136.14169,36.12677],[136.14218,36.12661]]]}},{"type":"Feature","properties":{"pid":"a13e28eb-516d-4074-8b6b-136d34111563","full":3.0},"geometry":{"type":"Polygon","coordinates":[[[136.14136,36.12649],[136.14122,36.12623],[136.141,36.12629],[136.14102,36.12638],[136.14106,36.12649],[136.1411,36.12653],[136.1412,36.12656],[136.14136,36.12649]]]}},{"type":"Feature","properties":{"pid":"87cc7908-6cdb-48db-b9eb-22c97d102d27","full":3.4},"geometry":{"type":"Polygon","coordinates":[[[136.14297,36.12946],[136.14232,36.12928],[136.14228,36.12936],[136.14227,36.12943],[136.14288,36.12959],[136.14293,36.12954],[136.14297,36.12946]]]}},{"type":"Feature","properties":{"pid":"4d28d9bb-d6d5-4789-8975-d3590c1ad399","full":12.4},"geometry":{"type":"Polygon","coordinates":[[[136.14286,36.12908],[136.14255,36.12896],[136.14235,36.12926],[136.14299,36.12943],[136.14311,36.12926],[136.14325,36.12918],[136.14323,36.12917],[136.14286,36.12908]]]}},{"type":"Feature","properties":{"pid":"33c4bb3e-1df4-4953-8011-2cf5284cabd2","full":8.1},"geometry":{"type":"Polygon","coordinates":[[[136.14361,36.12893],[136.14332,36.12838],[136.1431,36.12854],[136.14336,36.12907],[136.14348,36.12896],[136.14361,36.12893]]]}},{"type":"Feature","properties":{"pid":"2f839fea-c1e0-4cd0-9b84-4afcb6b425bc","full":1.3},"geometry":{"type":"Polygon","coordinates":[[[136.14364,36.12855],[136.14349,36.12826],[136.14335,36.12836],[136.14348,36.12861],[136.14364,36.12855]]]}},{"type":"Feature","properties":{"pid":"bb921dad-46f6-425c-a9c7-bc322354e155","full":0.7},"geometry":{"type":"Polygon","coordinates":[[[136.14396,36.12844],[136.14377,36.12806],[136.14366,36.12814],[136.14384,36.12848],[136.14396,36.12844]]]}},{"type":"Feature","properties":{"pid":"61804a8b-8bd2-4cee-9d8b-351101bb8799","full":12.1},"geometry":{"type":"Polygon","coordinates":[[[136.14436,36.12831],[136.14411,36.12782],[136.14377,36.12806],[136.14396,36.12844],[136.14436,36.12831]]]}},{"type":"Feature","properties":{"pid":"98314eb5-ee94-4b85-91db-e96e16080055","full":2.0},"geometry":{"type":"Polygon","coordinates":[[[136.14384,36.12848],[136.14366,36.12814],[136.14351,36.12825],[136.14366,36.12854],[136.14384,36.12848]]]}},{"type":"Feature","properties":{"pid":"096d509b-e148-47b1-86de-55cc62e2310a","full":8.0},"geometry":{"type":"Polygon","coordinates":[[[136.14409,36.1289],[136.1439,36.12852],[136.1435,36.12865],[136.14364,36.12892],[136.14386,36.1289],[136.14409,36.1289]]]}},{"type":"Feature","properties":{"pid":"268da96f-074c-41b7-b9cb-35a89d57d6fc","full":2.7},"geometry":{"type":"Polygon","coordinates":[[[136.14426,36.12885],[136.14408,36.12846],[136.1439,36.12852],[136.1441,36.1289],[136.14418,36.12889],[136.14426,36.12885]]]}},{"type":"Feature","properties":{"pid":"d5aec258-1d06-457f-b3df-088f1c6c2e52","full":8.6},"geometry":{"type":"Polygon","coordinates":[[[136.14336,36.12907],[136.1431,36.12854],[136.14282,36.12875],[136.14295,36.12902],[136.14329,36.1291],[136.14336,36.12907]]]}},{"type":"Feature","properties":{"pid":"f1be1e12-1e39-4ce1-af97-528fecf7e034","full":3.9},"geometry":{"type":"Polygon","coordinates":[[[136.14255,36.13088],[136.14252,36.13069],[136.14239,36.1307],[136.14222,36.13067],[136.14221,36.13078],[136.14219,36.13083],[136.14215,36.13086],[136.14212,36.13103],[136.14228,36.13099],[136.1423,36.13096],[136.14255,36.13088]]]}},{"type":"Feature","properties":{"pid":"0caaac15-1a30-4e19-a3f4-1d34d52b0e02","full":1.7},"geometry":{"type":"Polygon","coordinates":[[[136.14258,36.13128],[136.14255,36.13112],[136.14215,36.13122],[136.14217,36.13136],[136.14258,36.13128]]]}},{"type":"Feature","properties":{"pid":"0e9b751f-9bb0-4e17-a5d3-f27d47d59aab","full":3.7},"geometry":{"type":"Polygon","coordinates":[[[136.14255,36.13112],[136.14255,36.13088],[136.1423,36.13096],[136.14228,36.13099],[136.14212,36.13103],[136.14215,36.13122],[136.14255,36.13112]]]}},{"type":"Feature","properties":{"pid":"7565214f-39b1-4ecf-abef-17e7b1db8fe2","full":3.3},"geometry":{"type":"Polygon","coordinates":[[[136.14265,36.13042],[136.14188,36.1302],[136.14188,36.13034],[136.1426,36.13055],[136.14264,36.13054],[136.14265,36.13042]]]}},{"type":"Feature","properties":{"pid":"8ee1c8d7-f953-4d71-b95e-6401a58736a3","full":2.6},"geometry":{"type":"Polygon","coordinates":[[[136.14239,36.13052],[136.14187,36.13038],[136.1419,36.13053],[136.14236,36.13067],[136.14252,36.13067],[136.14256,36.13058],[136.14239,36.13052]]]}},{"type":"Feature","properties":{"pid":"28f2102a-bc17-442c-9225-7a54dab294ce","full":4.6},"geometry":{"type":"Polygon","coordinates":[[[136.14271,36.13024],[136.14191,36.13003],[136.14188,36.13009],[136.1419,36.13018],[136.14265,36.1304],[136.14269,36.13036],[136.14271,36.13024]]]}},{"type":"Feature","properties":{"pid":"c8110f95-79a0-442f-8b7a-47c01cb3d3ec","full":4.8},"geometry":{"type":"Polygon","coordinates":[[[136.14278,36.1301],[136.142,36.12987],[136.14198,36.1299],[136.14195,36.12989],[136.1419,36.13002],[136.1427,36.13023],[136.14271,36.1302],[136.14278,36.1301]]]}},{"type":"Feature","properties":{"pid":"f1147694-cc24-4387-b390-a4b71e5dd64a","full":1.0},"geometry":{"type":"Polygon","coordinates":[[[136.1428,36.12994],[136.14204,36.12971],[136.14199,36.12981],[136.14281,36.13005],[136.14281,36.13001],[136.1428,36.12994]]]}},{"type":"Feature","properties":{"pid":"d7fc8810-a4c5-4690-aeb4-397e2c993cad","full":4.5},"geometry":{"type":"Polygon","coordinates":[[[136.14278,36.12975],[136.14214,36.12957],[136.14205,36.12971],[136.1428,36.12994],[136.14278,36.12975]]]}},{"type":"Feature","properties":{"pid":"86bdf179-dd41-4b38-806e-b5ce49927e4d","full":1.7},"geometry":{"type":"Polygon","coordinates":[[[136.14105,36.13065],[136.14103,36.1304],[136.14095,36.13041],[136.1408,36.13045],[136.14082,36.13064],[136.14105,36.13065]]]}},{"type":"Feature","properties":{"pid":"970a4575-109e-4683-87c6-7027a89ad8be","full":0.6},"geometry":{"type":"Polygon","coordinates":[[[136.13931,36.13091],[136.1391,36.13077],[136.13904,36.13089],[136.13924,36.13096],[136.1392,36.13103],[136.1393,36.13104],[136.13928,36.13109],[136.13964,36.131],[136.13931,36.13091]]]}},{"type":"Feature","properties":{"pid":"a2145423-d4c5-47dd-ab52-4ad3fd71ecbc","full":1.9},"geometry":{"type":"Polygon","coordinates":[[[136.14132,36.13082],[136.14125,36.13065],[136.14121,36.13064],[136.14105,36.13065],[136.14082,36.13065],[136.14085,36.13077],[136.14132,36.13082]]]}},{"type":"Feature","properties":{"pid":"88cdaa3c-d2db-45bf-9fab-2c74de07ee84","full":5.8},"geometry":{"type":"Polygon","coordinates":[[[136.14187,36.13082],[136.14183,36.13069],[136.14164,36.1307],[136.14165,36.13059],[136.14135,36.1306],[136.14126,36.13064],[136.14132,36.13082],[136.14172,36.13088],[136.14187,36.13088],[136.14187,36.13082]]]}},{"type":"Feature","properties":{"pid":"33487ff1-9f44-4af6-aed1-4010ea3ac7f8","full":5.0},"geometry":{"type":"Polygon","coordinates":[[[136.14299,36.13291],[136.14294,36.13283],[136.14273,36.13288],[136.14272,36.13292],[136.14282,36.13322],[136.14284,36.13337],[136.14296,36.13339],[136.14297,36.13328],[136.14306,36.13317],[136.14302,36.13301],[136.14299,36.13291]]]}},{"type":"Feature","properties":{"pid":"0f776eaa-9cb7-43d6-9cfa-8b2091534e92","full":0.6},"geometry":{"type":"Polygon","coordinates":[[[136.14288,36.13274],[136.1428,36.13258],[136.14263,36.13263],[136.14269,36.13279],[136.14288,36.13274]]]}},{"type":"Feature","properties":{"pid":"2e0c927e-a965-4193-8bef-7058d3f9c4a1","full":0.5},"geometry":{"type":"Polygon","coordinates":[[[136.14261,36.13203],[136.14258,36.13187],[136.14238,36.13192],[136.14243,36.13207],[136.14261,36.13203]]]}},{"type":"Feature","properties":{"pid":"48af2af1-1a99-4d7f-aa37-998660919d92","full":0.8},"geometry":{"type":"Polygon","coordinates":[[[136.14263,36.13213],[136.14261,36.13203],[136.14244,36.13207],[136.14251,36.13228],[136.14268,36.13224],[136.14263,36.13213]]]}},{"type":"Feature","properties":{"pid":"2d23834b-c3c5-4dae-80a9-61f154f2ad27","full":7.0},"geometry":{"type":"Polygon","coordinates":[[[136.1485,36.13004],[136.14844,36.12965],[136.14826,36.12965],[136.14804,36.12973],[136.14806,36.12994],[136.1485,36.13004]]]}},{"type":"Feature","properties":{"pid":"f5fd2a41-7cb0-4115-a5f3-923c70d9b21c","full":8.6},"geometry":{"type":"Polygon","coordinates":[[[136.14866,36.12965],[136.14846,36.12964],[136.14853,36.13005],[136.14888,36.13012],[136.14885,36.12967],[136.14866,36.12965]]]}},{"type":"Feature","properties":{"pid":"824fb654-cedc-4973-8637-fda2c2c6078e","full":1.8},"geometry":{"type":"Polygon","coordinates":[[[136.14922,36.12972],[136.14907,36.12971],[136.1491,36.13015],[136.14928,36.13018],[136.14922,36.12972]]]}},{"type":"Feature","properties":{"pid":"bb63d7a5-0426-48f9-ada6-cb448a314505","full":2.8},"geometry":{"type":"Polygon","coordinates":[[[136.14907,36.12971],[136.14887,36.12967],[136.1489,36.13012],[136.1491,36.13015],[136.14907,36.12971]]]}},{"type":"Feature","properties":{"pid":"069dc0e5-434c-473a-837f-65ed6ceb9748","full":1.3},"geometry":{"type":"Polygon","coordinates":[[[136.14901,36.13973],[136.14886,36.13962],[136.14873,36.1398],[136.14878,36.13986],[136.14879,36.13989],[136.14886,36.13998],[136.14901,36.13973]]]}},{"type":"Feature","properties":{"pid":"8ba7e1e9-b3b7-459a-bed4-9958c8d9e1a5","full":6.6},"geometry":{"type":"Polygon","coordinates":[[[136.14764,36.13978],[136.14755,36.13978],[136.14758,36.14014],[136.14797,36.14011],[136.14796,36.13984],[136.14764,36.13978]]]}},{"type":"Feature","properties":{"pid":"69dc6859-36f4-4303-98e4-21cc09f0ac7b","full":2.6},"geometry":{"type":"Polygon","coordinates":[[[136.14754,36.13978],[136.14744,36.13977],[136.14734,36.13979],[136.14736,36.14015],[136.14757,36.14014],[136.14754,36.13978]]]}},{"type":"Feature","properties":{"pid":"aa5ebfb1-0d81-4561-a057-11150ac27498","full":6.8},"geometry":{"type":"Polygon","coordinates":[[[136.14735,36.14014],[136.14734,36.1398],[136.14721,36.13981],[136.14707,36.13981],[136.14693,36.13979],[136.14694,36.1401],[136.14716,36.14013],[136.14735,36.14014]]]}},{"type":"Feature","properties":{"pid":"f0be6f25-80be-458d-aad8-19c2a0088391","full":7.3},"geometry":{"type":"Polygon","coordinates":[[[136.14673,36.13974],[136.14651,36.13972],[136.14652,36.14004],[136.14675,36.14008],[136.14694,36.1401],[136.14692,36.13978],[136.14673,36.13974]]]}},{"type":"Feature","properties":{"pid":"737baa53-947a-4c43-942d-f47fc3a4adf0","full":9.3},"geometry":{"type":"Polygon","coordinates":[[[136.14632,36.13997],[136.14649,36.13995],[136.14649,36.13977],[136.14634,36.13972],[136.14614,36.13968],[136.14599,36.13968],[136.1459,36.1397],[136.1459,36.13999],[136.14603,36.14001],[136.14632,36.13997]]]}},{"type":"Feature","properties":{"pid":"8654ae54-79da-4b1d-8713-6e6f0995a97c","full":3.1},"geometry":{"type":"Polygon","coordinates":[[[136.14589,36.13999],[136.14589,36.1397],[136.14569,36.13973],[136.14552,36.13978],[136.14537,36.13981],[136.14544,36.13985],[136.14574,36.13996],[136.14589,36.13999]]]}},{"type":"Feature","properties":{"pid":"c5d911e7-d3cf-4094-84dd-23bddce2b9d0","full":1.4},"geometry":{"type":"Polygon","coordinates":[[[136.14255,36.13744],[136.14229,36.13743],[136.14225,36.13746],[136.14226,36.13762],[136.14242,36.13761],[136.14243,36.13758],[136.14254,36.13758],[136.14255,36.13744]]]}},{"type":"Feature","properties":{"pid":"97defd59-9d1d-4926-99d5-01abaffc4ab4","full":2.0},"geometry":{"type":"Polygon","coordinates":[[[136.14165,36.1382],[136.14153,36.13815],[136.14144,36.1383],[136.14161,36.13839],[136.14175,36.1384],[136.14177,36.13837],[136.14183,36.13825],[136.14165,36.1382]]]}},{"type":"Feature","properties":{"pid":"e9f3dced-6e0f-4413-a76d-e9ffad895c84","full":0.5},"geometry":{"type":"Polygon","coordinates":[[[136.1425,36.13968],[136.1422,36.13965],[136.14218,36.13977],[136.14249,36.13979],[136.1425,36.13968]]]}},{"type":"Feature","properties":{"pid":"ee1c684e-4017-422d-86a6-7698716abe50","full":7.6},"geometry":{"type":"Polygon","coordinates":[[[136.14256,36.1398],[136.1423,36.13979],[136.14226,36.14022],[136.14253,36.14025],[136.14264,36.13994],[136.14265,36.13987],[136.14256,36.1398]]]}},{"type":"Feature","properties":{"pid":"a0eaea69-7473-4296-98e9-e5122871884d","full":25.6},"geometry":{"type":"Polygon","coordinates":[[[136.14216,36.13978],[136.1413,36.13971],[136.14124,36.14014],[136.14212,36.1402],[136.14216,36.13978]]]}},{"type":"Feature","properties":{"pid":"a14c19cf-70f7-4813-bca2-5b762f766e52","full":12.2},"geometry":{"type":"Polygon","coordinates":[[[136.14188,36.13941],[136.14175,36.13938],[136.14157,36.13941],[136.14138,36.13955],[136.14132,36.13964],[136.1413,36.13969],[136.14218,36.13977],[136.1422,36.13965],[136.14207,36.1396],[136.14188,36.13941]]]}},{"type":"Feature","properties":{"pid":"6c251595-a518-430a-8397-aed097e21860","full":5.7},"geometry":{"type":"Polygon","coordinates":[[[136.14113,36.14014],[136.14118,36.13971],[136.1408,36.1399],[136.14077,36.14012],[136.14113,36.14014]]]}},{"type":"Feature","properties":{"pid":"d3d1bdb4-b270-46d1-93f6-b33f96b06736","full":1.4},"geometry":{"type":"Polygon","coordinates":[[[136.14059,36.14011],[136.14061,36.13995],[136.14053,36.13996],[136.14036,36.13996],[136.1402,36.13992],[136.14019,36.14007],[136.14059,36.14011]]]}},{"type":"Feature","properties":{"pid":"f9f0b5bd-2988-44e7-8aa5-b23ca4181ca5","full":4.1},"geometry":{"type":"Polygon","coordinates":[[[136.1402,36.13881],[136.14022,36.13874],[136.14024,36.13871],[136.14019,36.13842],[136.14,36.13847],[136.13996,36.1389],[136.14008,36.13889],[136.1402,36.13881]]]}},{"type":"Feature","properties":{"pid":"2c706e7c-e795-4c25-9a4c-d452246a34e5","full":2.9},"geometry":{"type":"Polygon","coordinates":[[[136.13996,36.1389],[136.13999,36.13848],[136.13993,36.13851],[136.13978,36.1385],[136.13975,36.1389],[136.13996,36.1389]]]}},{"type":"Feature","properties":{"pid":"896d58de-691c-4de7-be3d-9c0574471980","full":4.8},"geometry":{"type":"Polygon","coordinates":[[[136.13977,36.1385],[136.13954,36.13849],[136.13953,36.1385],[136.13951,36.1385],[136.13948,36.13891],[136.13974,36.13891],[136.13977,36.1385]]]}},{"type":"Feature","properties":{"pid":"249c56ac-8397-47e0-b2fe-071b80c48a49","full":3.2},"geometry":{"type":"Polygon","coordinates":[[[136.1391,36.1389],[136.13913,36.13888],[136.13928,36.13853],[136.13899,36.13851],[136.13896,36.1389],[136.1391,36.1389]]]}},{"type":"Feature","properties":{"pid":"1a321209-e693-438e-93c6-4ebab6f103e5","full":2.4},"geometry":{"type":"Polygon","coordinates":[[[136.13946,36.13848],[136.13937,36.13853],[136.13922,36.1389],[136.13948,36.13891],[136.1395,36.1385],[136.13946,36.13848]]]}},{"type":"Feature","properties":{"pid":"bfed01ca-ff9f-49b3-b7cc-557a429fcc91","full":0.9},"geometry":{"type":"Polygon","coordinates":[[[136.14062,36.13853],[136.14059,36.13832],[136.14039,36.13837],[136.14042,36.13852],[136.14062,36.13853]]]}},{"type":"Feature","properties":{"pid":"17ab6fbe-42cb-4c3f-ba2f-ab661a1b5dd2","full":2.4},"geometry":{"type":"Polygon","coordinates":[[[136.14087,36.13854],[136.14088,36.13825],[136.14061,36.13831],[136.14063,36.13853],[136.14087,36.13854]]]}},{"type":"Feature","properties":{"pid":"ed6967ec-d4ad-4e07-8f43-6a7086b03d6b","full":0.9},"geometry":{"type":"Polygon","coordinates":[[[136.14321,36.13552],[136.14324,36.13534],[136.14295,36.1354],[136.14304,36.13554],[136.14321,36.13552]]]}},{"type":"Feature","properties":{"pid":"1dd045b3-0767-4a4e-a070-b95f79112193","full":4.3},"geometry":{"type":"Polygon","coordinates":[[[136.14319,36.13513],[136.14315,36.13509],[136.14278,36.13516],[136.14295,36.1354],[136.14324,36.13534],[136.14319,36.13513]]]}},{"type":"Feature","properties":{"pid":"36657226-6745-4e22-bceb-c38c7cbea12e","full":1.3},"geometry":{"type":"Polygon","coordinates":[[[136.14315,36.13501],[136.14314,36.13488],[136.14269,36.13497],[136.14275,36.13509],[136.14315,36.13501]]]}},{"type":"Feature","properties":{"pid":"0bd69bfc-835f-49dc-b0eb-13429edaf541","full":4.6},"geometry":{"type":"Polygon","coordinates":[[[136.1421,36.13512],[136.14192,36.13479],[136.14183,36.1348],[136.14168,36.13486],[136.14183,36.1352],[136.1421,36.13512]]]}},{"type":"Feature","properties":{"pid":"60cf3c57-4874-4901-98da-a9c8397abaef","full":1.6},"geometry":{"type":"Polygon","coordinates":[[[136.14173,36.13523],[136.14182,36.1352],[136.14167,36.13487],[136.14156,36.13493],[136.14148,36.13502],[136.14173,36.13523]]]}},{"type":"Feature","properties":{"pid":"da7949f9-34b2-42c7-b3d7-331b120d5b45","full":1.6},"geometry":{"type":"Polygon","coordinates":[[[136.14306,36.13422],[136.14304,36.1341],[136.14265,36.13416],[136.14262,36.13433],[136.14306,36.13422]]]}},{"type":"Feature","properties":{"pid":"53427978-eb78-4e16-8a3f-997b6d58a59b","full":0.6},"geometry":{"type":"Polygon","coordinates":[[[136.1431,36.13448],[136.14308,36.13437],[136.1426,36.13446],[136.14258,36.13456],[136.1426,36.13456],[136.1431,36.13448]]]}},{"type":"Feature","properties":{"pid":"0dfc05c2-91c9-4ded-a9cf-5004abe841e7","full":2.6},"geometry":{"type":"Polygon","coordinates":[[[136.14311,36.13464],[136.1431,36.13448],[136.1426,36.13456],[136.14259,36.13462],[136.14261,36.13472],[136.14311,36.13464]]]}},{"type":"Feature","properties":{"pid":"4f71cbb1-4f30-42ba-a02b-d34edc2b718a","full":7.2},"geometry":{"type":"Polygon","coordinates":[[[136.14219,36.13502],[136.1423,36.135],[136.14233,36.13503],[136.14251,36.13494],[136.14242,36.13457],[136.1424,36.13457],[136.14229,36.13462],[136.14218,36.13466],[136.14203,36.13471],[136.14219,36.13502]]]}},{"type":"Feature","properties":{"pid":"a48aa00f-4dab-4905-8146-468f58065233","full":4.9},"geometry":{"type":"Polygon","coordinates":[[[136.14311,36.13467],[136.14311,36.13464],[136.14261,36.13472],[136.14264,36.13484],[136.14268,36.13494],[136.14313,36.13486],[136.1431,36.13469],[136.14311,36.13467]]]}},{"type":"Feature","properties":{"pid":"29229a80-155f-47f0-9dc4-f1b96e6aff7a","full":1.3},"geometry":{"type":"Polygon","coordinates":[[[136.14296,36.13353],[136.14279,36.13352],[136.14275,36.1337],[136.14281,36.13374],[136.14299,36.13376],[136.14296,36.13353]]]}},{"type":"Feature","properties":{"pid":"b87e637e-2957-49ed-be87-7ef49b243617","full":0.8},"geometry":{"type":"Polygon","coordinates":[[[136.14299,36.13381],[136.14274,36.13378],[136.14269,36.13394],[136.14302,36.13392],[136.14299,36.13381]]]}},{"type":"Feature","properties":{"pid":"d2673890-8c45-4773-8814-a6df952db30d","full":2.6},"geometry":{"type":"Polygon","coordinates":[[[136.14304,36.1341],[136.14302,36.13392],[136.14269,36.13394],[136.14265,36.13416],[136.14304,36.1341]]]}},{"type":"Feature","properties":{"pid":"8330e5e1-eb7c-4f69-9cc2-fdc3f91b9b1c","full":2.2},"geometry":{"type":"Polygon","coordinates":[[[136.13334,36.13851],[136.13334,36.1384],[136.13319,36.13841],[136.13314,36.1384],[136.13299,36.13831],[136.13294,36.13829],[136.1329,36.1383],[136.13282,36.13836],[136.13282,36.13851],[136.13334,36.13851]]]}},{"type":"Feature","properties":{"pid":"906be955-b1f9-4f7b-80c7-9c8a26d2d426","full":1.8},"geometry":{"type":"Polygon","coordinates":[[[136.13276,36.13836],[136.13258,36.13828],[136.13254,36.1383],[136.13247,36.13842],[136.13247,36.13851],[136.13277,36.13851],[136.13276,36.13836]]]}},{"type":"Feature","properties":{"pid":"a56031c5-e875-4197-84fa-3f06cbb80d92","full":7.2},"geometry":{"type":"Polygon","coordinates":[[[136.12958,36.13859],[136.12945,36.13847],[136.12939,36.13832],[136.12896,36.13838],[136.12902,36.13866],[136.12958,36.13859]]]}},{"type":"Feature","properties":{"pid":"2acf9d0e-df86-48d4-8f9a-06020988cdb9","full":2.9},"geometry":{"type":"Polygon","coordinates":[[[136.13102,36.13841],[136.13098,36.13843],[136.13096,36.13873],[136.13124,36.13874],[136.13127,36.13858],[136.13106,36.13842],[136.13102,36.13841]]]}},{"type":"Feature","properties":{"pid":"df1ff203-9b6b-4410-8857-4e6ee536052d","full":5.0},"geometry":{"type":"Polygon","coordinates":[[[136.1315,36.13876],[136.13097,36.13875],[136.13096,36.13893],[136.13098,36.13896],[136.13151,36.13897],[136.1315,36.13876]]]}},{"type":"Feature","properties":{"pid":"541d07b2-6a72-45ba-b2b0-4ea0e5a49ca7","full":2.5},"geometry":{"type":"Polygon","coordinates":[[[136.13083,36.13906],[136.13023,36.13905],[136.13027,36.13913],[136.13037,36.1392],[136.13082,36.13921],[136.13083,36.13906]]]}},{"type":"Feature","properties":{"pid":"a291af01-78b7-4797-9d90-8d4e1eb89c4b","full":9.8},"geometry":{"type":"Polygon","coordinates":[[[136.13087,36.13875],[136.13011,36.13873],[136.13011,36.13894],[136.13023,36.13898],[136.13085,36.13898],[136.13085,36.13896],[136.13087,36.13896],[136.13087,36.13875]]]}},{"type":"Feature","properties":{"pid":"a0405001-1c88-4949-83be-a5319a9b82bb","full":7.5},"geometry":{"type":"Polygon","coordinates":[[[136.13088,36.13864],[136.13086,36.13846],[136.13061,36.13851],[136.1304,36.13851],[136.13012,36.1385],[136.13012,36.1387],[136.13087,36.13872],[136.13088,36.13864]]]}},{"type":"Feature","properties":{"pid":"e95cac16-541d-4606-8357-b1b136431270","full":15.5},"geometry":{"type":"Polygon","coordinates":[[[136.12968,36.1387],[136.12958,36.13862],[136.12903,36.13869],[136.12911,36.13907],[136.12973,36.13898],[136.12976,36.13893],[136.12968,36.1387]]]}},{"type":"Feature","properties":{"pid":"f92aa5d0-2d58-4a61-a6bc-8ef34d4fa1c2","full":12.0},"geometry":{"type":"Polygon","coordinates":[[[136.12966,36.13935],[136.12963,36.13924],[136.12962,36.13908],[136.12908,36.13916],[136.12913,36.13938],[136.12932,36.13931],[136.12953,36.13965],[136.12971,36.1397],[136.12979,36.13955],[136.12978,36.1395],[136.12966,36.13935]]]}},{"type":"Feature","properties":{"pid":"398ee782-3aec-484b-a37b-5f74db5ff3b3","full":6.2},"geometry":{"type":"Polygon","coordinates":[[[136.13182,36.13973],[136.13174,36.13972],[136.13162,36.13972],[136.13143,36.13975],[136.13137,36.13992],[136.13137,36.14],[136.13141,36.14],[136.13149,36.14004],[136.13154,36.14004],[136.13176,36.14003],[136.13182,36.13973]]]}},{"type":"Feature","properties":{"pid":"a649f786-e91f-4ce9-8bc0-59dc665ae9cc","full":1.2},"geometry":{"type":"Polygon","coordinates":[[[136.13226,36.13977],[136.1321,36.13976],[136.1321,36.14001],[136.13213,36.14001],[136.13229,36.13994],[136.13233,36.13993],[136.13231,36.13979],[136.13226,36.13977]]]}},{"type":"Feature","properties":{"pid":"c249c93b-e8f8-4f31-b63c-047e13821a40","full":5.4},"geometry":{"type":"Polygon","coordinates":[[[136.1318,36.13875],[136.13158,36.13876],[136.13158,36.13896],[136.13213,36.13898],[136.13214,36.13877],[136.1318,36.13875]]]}},{"type":"Feature","properties":{"pid":"3c51dcb2-bd47-4996-9e11-3cc4d4ad3d12","full":1.2},"geometry":{"type":"Polygon","coordinates":[[[136.13276,36.13854],[136.13247,36.13853],[136.13245,36.1386],[136.13241,36.13868],[136.13275,36.13869],[136.13276,36.13854]]]}},{"type":"Feature","properties":{"pid":"c640c441-7175-4079-a5a9-a9911297a40b","full":3.8},"geometry":{"type":"Polygon","coordinates":[[[136.13272,36.13894],[136.13223,36.13892],[136.13222,36.13911],[136.13273,36.13913],[136.13274,36.13896],[136.13272,36.13894]]]}},{"type":"Feature","properties":{"pid":"ad94e563-7c42-4612-b7ab-cc1503c1aa75","full":1.3},"geometry":{"type":"Polygon","coordinates":[[[136.13335,36.13943],[136.13334,36.13918],[136.13316,36.13918],[136.13315,36.13943],[136.13335,36.13943]]]}},{"type":"Feature","properties":{"pid":"675a8bc3-118f-44ed-91bf-5165741d8729","full":6.8},"geometry":{"type":"Polygon","coordinates":[[[136.13333,36.13887],[136.1328,36.13886],[136.13282,36.13914],[136.13333,36.13911],[136.13333,36.13887]]]}},{"type":"Feature","properties":{"pid":"975e1f53-2e15-4854-82a8-e5077c607215","full":1.0},"geometry":{"type":"Polygon","coordinates":[[[136.13335,36.13854],[136.13282,36.13853],[136.13281,36.13865],[136.13335,36.13865],[136.13335,36.13854]]]}},{"type":"Feature","properties":{"pid":"e5835e18-e5f7-455f-85aa-a9fbc4cf2290","full":6.0},"geometry":{"type":"Polygon","coordinates":[[[136.13321,36.13993],[136.133,36.13983],[136.1327,36.13971],[136.13248,36.13976],[136.13242,36.13976],[136.13241,36.13978],[136.13236,36.13979],[136.13239,36.13993],[136.13249,36.13993],[136.13256,36.13995],[136.13287,36.13997],[136.1332,36.13994],[136.13321,36.13993]]]}},{"type":"Feature","properties":{"pid":"c37cfc02-850d-44a8-976a-d30b45d639f4","full":7.3},"geometry":{"type":"Polygon","coordinates":[[[136.13405,36.14005],[136.13411,36.13967],[136.13403,36.13967],[136.134,36.13981],[136.13347,36.13976],[136.13345,36.14],[136.13405,36.14005]]]}},{"type":"Feature","properties":{"pid":"bf987a38-2014-4241-a5a7-c3b78ef2dd81","full":3.7},"geometry":{"type":"Polygon","coordinates":[[[136.13446,36.14016],[136.13359,36.14008],[136.13357,36.14019],[136.13371,36.14023],[136.13444,36.1403],[136.13446,36.14016]]]}},{"type":"Feature","properties":{"pid":"11a84bd2-d9cf-4591-b1fd-7b8f1d85fb45","full":5.5},"geometry":{"type":"Polygon","coordinates":[[[136.13495,36.13996],[136.13409,36.13989],[136.13407,36.14005],[136.13493,36.14012],[136.13495,36.13996]]]}},{"type":"Feature","properties":{"pid":"13d99c7f-c0f8-46da-8e26-b663b843cf16","full":3.5},"geometry":{"type":"Polygon","coordinates":[[[136.13899,36.13852],[136.13876,36.13849],[136.13873,36.1389],[136.13895,36.1389],[136.13899,36.13852]]]}},{"type":"Feature","properties":{"pid":"aa0f7b6d-1856-45bd-ad32-ddf53c7f9a2f","full":3.5},"geometry":{"type":"Polygon","coordinates":[[[136.13875,36.13849],[136.13853,36.13845],[136.13851,36.1389],[136.13872,36.1389],[136.13875,36.13849]]]}},{"type":"Feature","properties":{"pid":"969fa61a-edc7-4ce6-b725-680904c17ebc","full":2.2},"geometry":{"type":"Polygon","coordinates":[[[136.13829,36.13873],[136.1385,36.13878],[136.13852,36.13845],[136.13833,36.1384],[136.13829,36.13873]]]}},{"type":"Feature","properties":{"pid":"9f1786c2-682d-4b05-85e0-bac0c3f23aa8","full":19.5},"geometry":{"type":"Polygon","coordinates":[[[136.1349,36.1402],[136.13448,36.14016],[136.13443,36.14055],[136.13456,36.14059],[136.13475,36.14073],[136.13483,36.14076],[136.13504,36.14076],[136.13509,36.14047],[136.13501,36.14039],[136.13498,36.14032],[136.13496,36.14023],[136.1349,36.1402]]]}},{"type":"Feature","properties":{"pid":"2da97d3f-5b3c-411e-910f-eadcc05f3556","full":3.2},"geometry":{"type":"Polygon","coordinates":[[[136.1393,36.14007],[136.13911,36.14005],[136.13905,36.14051],[136.13925,36.14053],[136.1393,36.14007]]]}},{"type":"Feature","properties":{"pid":"eeefc3d3-defb-4260-a8c5-171b60121a3a","full":3.4},"geometry":{"type":"Polygon","coordinates":[[[136.13951,36.14008],[136.13931,36.14006],[136.13926,36.14053],[136.13946,36.14055],[136.13951,36.14008]]]}},{"type":"Feature","properties":{"pid":"99c7fb66-3251-48b2-90dc-982d8ca05a04","full":3.0},"geometry":{"type":"Polygon","coordinates":[[[136.13971,36.14009],[136.13952,36.14008],[136.13947,36.14055],[136.13966,36.14056],[136.13971,36.14009]]]}},{"type":"Feature","properties":{"pid":"cae58e40-d1ed-4ced-9a16-52852484a3aa","full":3.3},"geometry":{"type":"Polygon","coordinates":[[[136.13992,36.14011],[136.13973,36.14009],[136.13967,36.14057],[136.13987,36.14058],[136.13992,36.14011]]]}},{"type":"Feature","properties":{"pid":"58608f2e-2d3a-46ff-80a4-7b79a83cf1e4","full":3.4},"geometry":{"type":"Polygon","coordinates":[[[136.14017,36.14012],[136.13998,36.14011],[136.13992,36.14059],[136.14012,36.1406],[136.14017,36.14012]]]}},{"type":"Feature","properties":{"pid":"39f4120d-d84c-4260-b80d-ad0e60d70909","full":4.2},"geometry":{"type":"Polygon","coordinates":[[[136.1404,36.14014],[136.14018,36.14012],[136.14013,36.1406],[136.14034,36.14062],[136.1404,36.14014]]]}},{"type":"Feature","properties":{"pid":"d9d09324-bbec-4015-8fbf-05e61be40132","full":2.4},"geometry":{"type":"Polygon","coordinates":[[[136.14058,36.14015],[136.14041,36.14014],[136.14035,36.14062],[136.14052,36.14063],[136.14058,36.14015]]]}},{"type":"Feature","properties":{"pid":"9c839369-131c-4c35-a850-3d43be5b53f6","full":1.8},"geometry":{"type":"Polygon","coordinates":[[[136.14075,36.14016],[136.14059,36.14015],[136.14053,36.14063],[136.14069,36.14064],[136.14075,36.14016]]]}},{"type":"Feature","properties":{"pid":"b1f77cda-689a-4936-a9a6-2ebce370ce40","full":10.4},"geometry":{"type":"Polygon","coordinates":[[[136.14113,36.14019],[136.14076,36.14017],[136.1407,36.14064],[136.14107,36.14068],[136.14113,36.14019]]]}},{"type":"Feature","properties":{"pid":"44a97a5c-58cc-4cd3-a95a-25aa66f1f78d","full":1.6},"geometry":{"type":"Polygon","coordinates":[[[136.14137,36.14021],[136.14122,36.1402],[136.14117,36.14068],[136.14132,36.14069],[136.14137,36.14021]]]}},{"type":"Feature","properties":{"pid":"1ab038f6-03fd-4bb4-892d-31564f41b9b7","full":1.3},"geometry":{"type":"Polygon","coordinates":[[[136.14152,36.14022],[136.14138,36.14021],[136.14133,36.14069],[136.14147,36.1407],[136.14152,36.14022]]]}},{"type":"Feature","properties":{"pid":"50a2164c-ca79-4c2a-ab5c-be691ad83554","full":3.7},"geometry":{"type":"Polygon","coordinates":[[[136.14205,36.14026],[136.14184,36.14025],[136.14179,36.14073],[136.14199,36.14075],[136.14205,36.14026]]]}},{"type":"Feature","properties":{"pid":"c0952ee7-4723-4a89-9af6-be26340f1d70","full":3.3},"geometry":{"type":"Polygon","coordinates":[[[136.14184,36.14025],[136.14164,36.14023],[136.14159,36.14071],[136.14178,36.14073],[136.14184,36.14025]]]}},{"type":"Feature","properties":{"pid":"543c1d5b-9479-4db7-a089-b91c0352c1f1","full":3.4},"geometry":{"type":"Polygon","coordinates":[[[136.14225,36.14027],[136.14206,36.14026],[136.142,36.14075],[136.1422,36.14076],[136.14225,36.14027]]]}},{"type":"Feature","properties":{"pid":"e7d0f9b3-b801-4ecb-8b77-0f958ff698ea","full":3.3},"geometry":{"type":"Polygon","coordinates":[[[136.14251,36.1403],[136.14227,36.14028],[136.14221,36.14076],[136.14235,36.14077],[136.14252,36.14032],[136.14251,36.1403]]]}},{"type":"Feature","properties":{"pid":"25fff7cf-da36-466e-9c8c-37c411e231fc","full":2.0},"geometry":{"type":"Polygon","coordinates":[[[136.14966,36.14002],[136.14944,36.13997],[136.14931,36.14022],[136.1495,36.14028],[136.14966,36.14002]]]}},{"type":"Feature","properties":{"pid":"86864158-6708-4a01-a0dd-7c5e1b825bf4","full":2.5},"geometry":{"type":"Polygon","coordinates":[[[136.14938,36.12972],[136.14922,36.12972],[136.14928,36.13018],[136.14948,36.13019],[136.14938,36.12972]]]}},{"type":"Feature","properties":{"pid":"9c7d794e-d7e3-4683-94d5-32bba45e4858","full":10.4},"geometry":{"type":"Polygon","coordinates":[[[136.14989,36.13013],[136.14974,36.12969],[136.14962,36.12972],[136.14938,36.12972],[136.14948,36.13019],[136.14978,36.13017],[136.14989,36.13013]]]}},{"type":"Feature","properties":{"pid":"64e75ac4-540c-4295-a485-44693d92687c","full":6.2},"geometry":{"type":"Polygon","coordinates":[[[136.15019,36.12929],[136.14968,36.12912],[136.14958,36.12934],[136.1501,36.1295],[136.15019,36.12929]]]}},{"type":"Feature","properties":{"pid":"a3b1f4f2-5b5e-4219-b861-0c4b0373e79b","full":2.9},"geometry":{"type":"Polygon","coordinates":[[[136.15009,36.1295],[136.14958,36.12934],[136.14951,36.12949],[136.14993,36.12962],[136.15005,36.12961],[136.15009,36.1295]]]}},{"type":"Feature","properties":{"pid":"264467f7-4cd7-4c94-be98-c56d5d758108","full":1.2},"geometry":{"type":"Polygon","coordinates":[[[136.14992,36.12962],[136.14951,36.12949],[136.14942,36.12968],[136.14962,36.12968],[136.14971,36.12965],[136.14992,36.12962]]]}},{"type":"Feature","properties":{"pid":"82f9c25c-a78d-4c8b-a46f-662aa55b6fd5","full":4.3},"geometry":{"type":"Polygon","coordinates":[[[136.14965,36.12912],[136.14915,36.12896],[136.14906,36.12913],[136.14957,36.12929],[136.14965,36.12912]]]}},{"type":"Feature","properties":{"pid":"8b0b5878-b284-48a2-b62c-c0b30c7061ae","full":4.0},"geometry":{"type":"Polygon","coordinates":[[[136.14976,36.12891],[136.14924,36.12874],[136.14916,36.12891],[136.14968,36.12907],[136.14976,36.12891]]]}},{"type":"Feature","properties":{"pid":"e577d8b2-b8da-46ee-8643-8525823f4fcc","full":6.7},"geometry":{"type":"Polygon","coordinates":[[[136.1499,36.1286],[136.14962,36.1286],[136.14948,36.12859],[136.14933,36.12856],[136.14924,36.12874],[136.14976,36.12891],[136.1499,36.1286]]]}}],"precision":5}