{"type":"FeatureCollection","features":[{"type":"Feature","properties":{"pid":"508bac15-bbc8-4570-b0b2-5dcb2523b787"},"geometry":{"type":"Polygon","coordinates":[[[136.46702883911422,35.97875795151963],[136.46712977933342,35.97875294239455],[136.46712299152853,35.97867261247655],[136.46702503644474,35.97868044683117],[136.46702883911422,35.97875795151963]]]}},{"type":"Feature","properties":{"pid":"c8677c5d-239d-4c9a-93dc-63e4c42d6813"},"geometry":{"type":"Polygon","coordinates":[[[136.46673626446602,35.97876972755846],[136.4668713655195,35.978767449300115],[136.46687246997425,35.978684830124884],[136.46673266628986,35.97869345567719],[136.46673626446602,35.97876972755846]]]}},{"type":"Feature","properties":{"pid":"9d0b4dc8-14b1-4e20-9fdd-a560e789516b"},"geometry":{"type":"Polygon","coordinates":[[[136.4664922858505,35.978771390486834],[136.46661088375916,35.97877407197162],[136.46660769912464,35.97868946530127],[136.4665384873841,35.97868870496063],[136.4665021121549,35.9787268996767],[136.4664922858505,35.978771390486834]]]}},{"type":"Feature","properties":{"pid":"406cb715-2a07-47ea-89ff-e2aca9800c0a"},"geometry":{"type":"Polygon","coordinates":[[[136.46750843186967,35.97865596962385],[136.46751086616612,35.97874288456736],[136.46785921033143,35.97873354964177],[136.4678951747487,35.978700046919606],[136.46771064150772,35.97864816698791],[136.46750843186967,35.97865596962385]]]}},{"type":"Feature","properties":{"pid":"2b07d8dc-1cf1-4d5b-9f30-1110aa12eb58"},"geometry":{"type":"Polygon","coordinates":[[[136.4680550982834,35.97889112130639],[136.46812319070207,35.97886737218559],[136.46810262287033,35.978816439455095],[136.46805661123292,35.97877647569091],[136.4679941856562,35.978818226307204],[136.4680550982834,35.97889112130639]]]}},{"type":"Feature","properties":{"pid":"edaba9bb-b90c-4158-8972-81b538189d73"},"geometry":{"type":"Polygon","coordinates":[[[136.46880546644067,35.97997842094406],[136.46913900525624,35.97997493686877],[136.46911510012595,35.979895038190406],[136.46881542564407,35.97980561124777],[136.46880546644067,35.97997842094406]]]}},{"type":"Feature","properties":{"pid":"ba26d1ed-6b16-43ed-a368-9336d6ac5363"},"geometry":{"type":"Polygon","coordinates":[[[136.46753669850938,35.97986431389409],[136.4675495319986,35.980007958874126],[136.46862668949788,35.97998300926779],[136.4686156620096,35.979831644652045],[136.46753669850938,35.97986431389409]]]}},{"type":"Feature","properties":{"pid":"c7c95834-f4b2-4332-9785-548d197ecbb7"},"geometry":{"type":"Polygon","coordinates":[[[136.4675396881849,35.979734066887055],[136.4685759306264,35.97970067015095],[136.46857551800085,35.9796895365986],[136.46827001235584,35.97956697868681],[136.46752575363038,35.97958552036479],[136.4675396881849,35.979734066887055]]]}},{"type":"Feature","properties":{"pid":"05449a49-08fe-4c91-93de-968b63f16c1f"},"geometry":{"type":"Polygon","coordinates":[[[136.46753595249066,35.97945486355983],[136.46810421575617,35.979437675714955],[136.46804084669455,35.979353673537354],[136.46802451947727,35.97930402318305],[136.46752399486164,35.9793149549584],[136.46753595249066,35.97945486355983]]]}},{"type":"Feature","properties":{"pid":"1e730cc5-ed08-4227-ac15-38f5af96bffe"},"geometry":{"type":"Polygon","coordinates":[[[136.46751097191301,35.9790502600611],[136.46752211242082,35.97918086875415],[136.46796599598702,35.97917007076997],[136.4679406725576,35.97910335860694],[136.46788806507638,35.979037773880904],[136.46751097191301,35.9790502600611]]]}},{"type":"Feature","properties":{"pid":"9fe1815b-8037-4581-b42c-3d86b42f70fe"},"geometry":{"type":"Polygon","coordinates":[[[136.46626457481082,35.97922982688643],[136.46728881411119,35.97918684945491],[136.46727990597034,35.97906301066589],[136.4663310448118,35.97908562007198],[136.46627154949547,35.979149722941216],[136.46626457481082,35.97922982688643]]]}},{"type":"Feature","properties":{"pid":"6f016446-dfdb-4bac-b522-b9374a80d9c5"},"geometry":{"type":"Polygon","coordinates":[[[136.46627920359256,35.97950346366672],[136.46730431528857,35.97946662377287],[136.46729154623617,35.9793242453596],[136.46627832956614,35.979354785750104],[136.46627920359256,35.97950346366672]]]}},{"type":"Feature","properties":{"pid":"bbf1d835-20e1-46a8-9421-b72d18eaa2a2"},"geometry":{"type":"Polygon","coordinates":[[[136.4662856653101,35.97962815927537],[136.46629099884294,35.979770626590955],[136.4673147566307,35.97973875649783],[136.4673092446589,35.97959051253649],[136.4662856653101,35.97962815927537]]]}},{"type":"Feature","properties":{"pid":"e4205e3d-110d-40b4-af57-40c987c6c101"},"geometry":{"type":"Polygon","coordinates":[[[136.46629659552525,35.9798960509079],[136.46630275644026,35.98004617446604],[136.46733162450346,35.980018002992246],[136.46732205025634,35.97986201248505],[136.46629659552525,35.9798960509079]]]}},{"type":"Feature","properties":{"pid":"cb3c3e99-4479-43fc-b103-a592e66ec935"},"geometry":{"type":"Polygon","coordinates":[[[136.46630812667618,35.980171456141576],[136.4663119622739,35.980308664121175],[136.46733395781183,35.98028640104688],[136.4673323228895,35.98013745871566],[136.46630812667618,35.980171456141576]]]}},{"type":"Feature","properties":{"pid":"844ec7db-8c57-400f-a43d-9c50d179e1b9"},"geometry":{"type":"Polygon","coordinates":[[[136.4665898164098,35.98065275532054],[136.46733983511254,35.98063132298343],[136.46733017725612,35.98047047997828],[136.46658668561446,35.980506908762564],[136.4665898164098,35.98065275532054]]]}},{"type":"Feature","properties":{"pid":"eca501e4-58a2-4df8-9e72-7dc853068aee"},"geometry":{"type":"Polygon","coordinates":[[[136.46634033879965,35.980935316447066],[136.46735228267463,35.980894939890014],[136.4673499140438,35.98074981881113],[136.46634383390594,35.98078566333063],[136.46634033879965,35.980935316447066]]]}},{"type":"Feature","properties":{"pid":"c30fa333-eb9b-49d1-a6cc-a66a37f8fe1d"},"geometry":{"type":"Polygon","coordinates":[[[136.46762383112127,35.980750117355555],[136.46762543991073,35.980891674005115],[136.4686533095461,35.98086247479327],[136.46864301533833,35.98072212631917],[136.46762383112127,35.980750117355555]]]}},{"type":"Feature","properties":{"pid":"eb90ba28-1bed-4d81-aa88-aeb5131acc41"},"geometry":{"type":"Polygon","coordinates":[[[136.46810091849292,35.98046527785212],[136.4681017913873,35.98061308420979],[136.46863072321992,35.98059483485852],[136.46862606032275,35.980448037913696],[136.46810091849292,35.98046527785212]]]}},{"type":"Feature","properties":{"pid":"ef1f9942-455b-4032-bc77-efd8431f5e64"},"geometry":{"type":"Polygon","coordinates":[[[136.46761337829713,35.98062380929412],[136.46797672276213,35.980615008401806],[136.4679743536244,35.98046764123323],[136.46761552593395,35.980480146265414],[136.46761337829713,35.98062380929412]]]}},{"type":"Feature","properties":{"pid":"63c55d71-87fa-4cb1-8f87-9439b7b65f15"},"geometry":{"type":"Polygon","coordinates":[[[136.4675631651181,35.98031307279313],[136.4686252515525,35.980287464892264],[136.46861048806852,35.98010793653486],[136.4675488960585,35.980137037885065],[136.4675631651181,35.98031307279313]]]}},{"type":"Feature","properties":{"pid":"1517d4b7-4465-4691-be3a-7f9ff26127d7"},"geometry":{"type":"Polygon","coordinates":[[[136.46881021305293,35.980283497750534],[136.46918711067906,35.980276299704755],[136.46915274246362,35.9801010192788],[136.46880574644925,35.980101591617014],[136.46881021305293,35.980283497750534]]]}},{"type":"Feature","properties":{"pid":"52c41955-dd0d-47e1-a687-a16145dcd2cb"},"geometry":{"type":"Polygon","coordinates":[[[136.4688247532744,35.9808719767322],[136.4695524295832,35.98085323414873],[136.46954296424795,35.98069510120152],[136.46883040773832,35.98071393126057],[136.4688247532744,35.9808719767322]]]}},{"type":"Feature","properties":{"pid":"59f0d35d-7f2b-4cbf-97f3-5cbe35af2539"},"geometry":{"type":"Polygon","coordinates":[[[136.46882568281674,35.980599144143355],[136.46943849554825,35.980573059616844],[136.46924439658753,35.98043256390167],[136.46882636282075,35.98044236743192],[136.46882568281674,35.980599144143355]]]}},{"type":"Feature","properties":{"pid":"1dc6d22a-261d-4c19-989f-5ee1851d8e0e"},"geometry":{"type":"Polygon","coordinates":[[[136.46971940512194,35.98072227354396],[136.46972578415287,35.980906429000726],[136.47005630224166,35.980899549457995],[136.46971940512194,35.98072227354396]]]}},{"type":"Feature","properties":{"pid":"c8ca223e-ef90-49e0-98f1-716020a02fed"},"geometry":{"type":"Polygon","coordinates":[[[136.47019685289044,35.98204453699294],[136.4702320315146,35.982024827405496],[136.47030859029837,35.98185869438612],[136.47028237641572,35.98163992909403],[136.47018531857003,35.98163822025857],[136.47019685289044,35.98204453699294]]]}},{"type":"Feature","properties":{"pid":"18ba2fc4-83dd-49cc-a1a5-15c7959b16da"},"geometry":{"type":"Polygon","coordinates":[[[136.46997736400576,35.9816519910785],[136.47000659377576,35.982136622763235],[136.47007376450486,35.982107803326805],[136.47006170979884,35.98164470267938],[136.46997736400576,35.9816519910785]]]}},{"type":"Feature","properties":{"pid":"8b2e4ff1-a887-4071-b68b-f68d5bee49b8"},"geometry":{"type":"Polygon","coordinates":[[[136.46979446176616,35.982213536389644],[136.46985609183997,35.98218499131444],[136.46984240442825,35.98165725450141],[136.46975598945124,35.9816628152407],[136.46979446176616,35.982213536389644]]]}},{"type":"Feature","properties":{"pid":"df2c94c4-b9c0-4220-bbf6-0a93ae2d18ed"},"geometry":{"type":"Polygon","coordinates":[[[136.4692830664589,35.982344209322164],[136.46952695505462,35.98233802024541],[136.46959238928062,35.98228873098271],[136.46954994093997,35.981665073319135],[136.46929160726438,35.98165647467576],[136.4692830664589,35.982344209322164]]]}},{"type":"Feature","properties":{"pid":"374033ea-378b-42a3-85e3-12b3b005368c"},"geometry":{"type":"Polygon","coordinates":[[[136.46885297202888,35.9812516960551],[136.46885979651134,35.98148885517851],[136.4695488431759,35.98146429230907],[136.46953955110266,35.98123566284269],[136.46885297202888,35.9812516960551]]]}},{"type":"Feature","properties":{"pid":"694c9019-d21a-4905-8355-8cb729b1941c"},"geometry":{"type":"Polygon","coordinates":[[[136.47017622969534,35.981276060689126],[136.4701853781138,35.98145075336098],[136.47029005841776,35.98144802676003],[136.47029242442437,35.98127295207292],[136.47017622969534,35.981276060689126]]]}},{"type":"Feature","properties":{"pid":"5ac37574-389b-4389-8281-a50dd33ce662"},"geometry":{"type":"Polygon","coordinates":[[[136.46972462831204,35.98104412638022],[136.46974961536202,35.98145379026779],[136.4698249061421,35.98145112355156],[136.4698135500386,35.98104283985405],[136.46972462831204,35.98104412638022]]]}},{"type":"Feature","properties":{"pid":"0b5801ae-0d1f-4244-ad99-aadb760f360a"},"geometry":{"type":"Polygon","coordinates":[[[136.4699513586005,35.98103392642397],[136.469971786474,35.98145416569765],[136.47005903626692,35.98145028778444],[136.47005103946137,35.981032497706025],[136.4699513586005,35.98103392642397]]]}},{"type":"Feature","properties":{"pid":"1678132a-dee4-4f88-a719-4950e83cf46b"},"geometry":{"type":"Polygon","coordinates":[[[136.47018045894544,35.98117289626813],[136.47029769158615,35.9811697598879],[136.47029868802935,35.9810777075276],[136.4702476298957,35.98102984571206],[136.47017881514154,35.981028680893274],[136.47018045894544,35.98117289626813]]]}},{"type":"Feature","properties":{"pid":"f2c213d6-8e24-4234-93e2-ffe6b6f8e71a"},"geometry":{"type":"Polygon","coordinates":[[[136.46884700191717,35.980991819312095],[136.46884719525534,35.98114450819872],[136.46953965056213,35.98112325663029],[136.4695315208074,35.9809717529798],[136.46884700191717,35.980991819312095]]]}},{"type":"Feature","properties":{"pid":"6f76ca7b-8917-4b2a-bb28-7c85a7484b47"},"geometry":{"type":"Polygon","coordinates":[[[136.46765369285333,35.98129226012109],[136.4676502174642,35.98153046647219],[136.46868689876334,35.98150358844134],[136.4686719518284,35.981257309597254],[136.46765369285333,35.98129226012109]]]}},{"type":"Feature","properties":{"pid":"bf66c887-b7aa-45e4-81a1-3cfa80aca5f9"},"geometry":{"type":"Polygon","coordinates":[[[136.46763590672728,35.98101810006403],[136.46763901239188,35.981163674302145],[136.46866497124282,35.981141124318384],[136.46865812349216,35.98098977699778],[136.46763590672728,35.98101810006403]]]}},{"type":"Feature","properties":{"pid":"ab5f1a26-4917-40f1-ab29-2e1fea3d1b0f"},"geometry":{"type":"Polygon","coordinates":[[[136.4663458426784,35.98105457250981],[136.4663540864482,35.9812027138525],[136.46735793534359,35.9811700212343],[136.4673531975057,35.98102232633566],[136.4663458426784,35.98105457250981]]]}},{"type":"Feature","properties":{"pid":"ee26be42-adbf-48f6-b22e-662cfca2b909"},"geometry":{"type":"Polygon","coordinates":[[[136.46635515146988,35.981555804042266],[136.4673851727744,35.981534781586035],[136.46736897843198,35.98129742669897],[136.4663581575901,35.9813273911351],[136.46635515146988,35.981555804042266]]]}},{"type":"Feature","properties":{"pid":"784d0a43-51a4-4fa0-93c4-1d37970e9617"},"geometry":{"type":"Polygon","coordinates":[[[136.4663632749451,35.98173751032766],[136.4663681119748,35.98188784109355],[136.46736997179576,35.981857310986356],[136.46735919294446,35.981698057462026],[136.4663632749451,35.98173751032766]]]}},{"type":"Feature","properties":{"pid":"58d300b7-8924-432b-983d-7ab7df8219e0"},"geometry":{"type":"Polygon","coordinates":[[[136.46637664807986,35.98200279373142],[136.46638318277093,35.98216701773845],[136.4673729965317,35.98214066914154],[136.46736343384916,35.9819717003338],[136.46637664807986,35.98200279373142]]]}},{"type":"Feature","properties":{"pid":"97b930e1-7d7f-44d7-b1c1-f427c77b8718"},"geometry":{"type":"Polygon","coordinates":[[[136.46639429768575,35.9822783957711],[136.46639986727567,35.98243720997608],[136.46738726311784,35.98240250499624],[136.46737794183073,35.98225063591608],[136.46639429768575,35.9822783957711]]]}},{"type":"Feature","properties":{"pid":"260688f3-df0d-46a7-b09f-4225afdc1f5e"},"geometry":{"type":"Polygon","coordinates":[[[136.4677377436495,35.98253173783831],[136.4677450303537,35.982690433940554],[136.46872426787718,35.982668481872224],[136.4687175996659,35.9825021639667],[136.4677377436495,35.98253173783831]]]}},{"type":"Feature","properties":{"pid":"9e5b74fc-317d-4885-aefe-090d3d792ba1"},"geometry":{"type":"Polygon","coordinates":[[[136.4677171723212,35.98223813209912],[136.4677270036385,35.98239710862323],[136.4687159165055,35.98237259286704],[136.46870548844333,35.982214469208515],[136.4677171723212,35.98223813209912]]]}},{"type":"Feature","properties":{"pid":"edd03210-aa06-43d5-a52a-f3e311e518eb"},"geometry":{"type":"Polygon","coordinates":[[[136.46767931248962,35.981865324989144],[136.46868940945396,35.98184262483299],[136.46867968458525,35.98166317127099],[136.46767183142194,35.981695525769574],[136.46767931248962,35.981865324989144]]]}},{"type":"Feature","properties":{"pid":"c13fbaae-65a9-44f3-a3b7-f60eace0c86d"},"geometry":{"type":"Polygon","coordinates":[[[136.4677012680338,35.98197747095304],[136.4677107901473,35.98212295157272],[136.46869510366207,35.98209835039294],[136.46869673549187,35.98194594202147],[136.4677012680338,35.98197747095304]]]}},{"type":"Feature","properties":{"pid":"d1d4cecd-4dee-4b67-94c8-b4173e62ac4a"},"geometry":{"type":"Polygon","coordinates":[[[136.46888885671606,35.98175976799373],[136.46889777586333,35.98235287026141],[136.46915453715704,35.98234493640037],[136.4691295606197,35.981758452370386],[136.46888885671606,35.98175976799373]]]}},{"type":"Feature","properties":{"pid":"483ff067-3cf7-4d2b-97af-52dd0a2a4c2f"},"geometry":{"type":"Polygon","coordinates":[[[136.46889338202897,35.98250145780288],[136.46893217019934,35.98320641247253],[136.46908740463715,35.98320120478342],[136.46914548256174,35.98299585591073],[136.469135002764,35.98249565474442],[136.46889338202897,35.98250145780288]]]}},{"type":"Feature","properties":{"pid":"67527653-0433-46e3-995d-831268038b6e"},"geometry":{"type":"Polygon","coordinates":[[[136.46776901112796,35.983169857587484],[136.46776050361373,35.98323532005288],[136.4687301916057,35.98320814709871],[136.4687303583052,35.98314885561542],[136.46776901112796,35.983169857587484]]]}},{"type":"Feature","properties":{"pid":"3212164f-fdeb-4238-83ce-fe6f795c7d74"},"geometry":{"type":"Polygon","coordinates":[[[136.46776414051214,35.98334209705957],[136.46777557049285,35.98350800505097],[136.46874292874202,35.983483536012436],[136.46873632060837,35.98331264379051],[136.46776414051214,35.98334209705957]]]}},{"type":"Feature","properties":{"pid":"5395063d-05f6-43e5-a025-1cc6b45d9672"},"geometry":{"type":"Polygon","coordinates":[[[136.4677505167689,35.98280717139123],[136.46775614753034,35.98296288259641],[136.46873274295564,35.982938317109685],[136.4687262752157,35.98277864807594],[136.46836490410436,35.98277442733583],[136.4677505167689,35.98280717139123]]]}},{"type":"Feature","properties":{"pid":"7c6992c8-85f9-4356-a0dd-aad1f0526d1a"},"geometry":{"type":"Polygon","coordinates":[[[136.46726789744363,35.98281246369589],[136.46727899605372,35.98297986856532],[136.467402799499,35.982974957676596],[136.46739163896402,35.982808292847665],[136.46726789744363,35.98281246369589]]]}},{"type":"Feature","properties":{"pid":"a570dcff-9897-4cc0-86b3-db399852d9b2"},"geometry":{"type":"Polygon","coordinates":[[[136.46640192003673,35.98255951331356],[136.46641047436356,35.98273556229209],[136.4673889650354,35.982705845147066],[136.46738191910808,35.98252353518687],[136.46640192003673,35.98255951331356]]]}},{"type":"Feature","properties":{"pid":"01ec49c8-1d31-4b1f-b0a4-084166eb6e51"},"geometry":{"type":"Polygon","coordinates":[[[136.46641562215578,35.98284119193669],[136.46643045139862,35.98301352458178],[136.4671536281209,35.982984841313694],[136.46714448569483,35.982816624120666],[136.46641562215578,35.98284119193669]]]}},{"type":"Feature","properties":{"pid":"c16d5b86-b39e-4051-9712-9314d9e2dc24"},"geometry":{"type":"Polygon","coordinates":[[[136.46644129153995,35.98311394959177],[136.46644318567857,35.98319471099617],[136.4666215504559,35.983276750211054],[136.46740854561256,35.983251794703854],[136.46740991517171,35.983083502142634],[136.46644129153995,35.98311394959177]]]}},{"type":"Feature","properties":{"pid":"973186fb-25c4-427c-9a41-f55724123b3b"},"geometry":{"type":"Polygon","coordinates":[[[136.46685523120706,35.983379187782205],[136.4674245545206,35.983632680394734],[136.4674155298454,35.98335735020229],[136.46685523120706,35.983379187782205]]]}},{"type":"Feature","properties":{"pid":"f1f0ee0d-69c8-4794-9318-6af027074ab0"},"geometry":{"type":"Polygon","coordinates":[[[136.46642078063607,35.98359961084772],[136.46680585777727,35.983584959717014],[136.4664937925572,35.98345273452678],[136.46642078063607,35.98359961084772]]]}},{"type":"Feature","properties":{"pid":"a65d2310-3b8e-47a6-9564-41eece0d6c16"},"geometry":{"type":"Polygon","coordinates":[[[136.4673764128857,35.98384144171294],[136.46702057535705,35.98369688313504],[136.46639500046783,35.98372183079017],[136.4662595203974,35.98387461181012],[136.4662624039853,35.98388622951002],[136.4673764128857,35.98384144171294]]]}},{"type":"Feature","properties":{"pid":"595d436a-fd8e-4eef-a6e7-fdb89de3b07d"},"geometry":{"type":"Polygon","coordinates":[[[136.46628311811523,35.98399810815819],[136.46631122846603,35.98405844873556],[136.46631683358154,35.984148910945834],[136.46742906542136,35.98410873611644],[136.46741973733114,35.98394995630881],[136.46628311811523,35.98399810815819]]]}},{"type":"Feature","properties":{"pid":"828fe924-d287-4fb1-89f3-9c29f02aa7e4"},"geometry":{"type":"Polygon","coordinates":[[[136.4663326817473,35.984259621299266],[136.46634655020614,35.98442146044706],[136.46744677389742,35.98437634455004],[136.4674396847449,35.98421738023572],[136.4663326817473,35.984259621299266]]]}},{"type":"Feature","properties":{"pid":"6aa64370-e820-422c-bda0-5cea740f06b4"},"geometry":{"type":"Polygon","coordinates":[[[136.46781574151981,35.9843767435732],[136.4683658431338,35.984360599605175],[136.46820293640528,35.98420760609731],[136.46784013485828,35.98402689642508],[136.46781968539872,35.98403405459769],[136.46781574151981,35.9843767435732]]]}},{"type":"Feature","properties":{"pid":"7bdeaac1-5a3c-4e4f-b2fd-182d96f10b48"},"geometry":{"type":"Polygon","coordinates":[[[136.46778687395712,35.98361107618371],[136.46779216520017,35.98380153418759],[136.46858976517393,35.9841623611067],[136.46876564083198,35.98395605161115],[136.46876322335044,35.98358753107827],[136.46778687395712,35.98361107618371]]]}},{"type":"Feature","properties":{"pid":"c13abbff-5caa-4e43-8597-06b46068e01a"},"geometry":{"type":"Polygon","coordinates":[[[136.46893907992614,35.983319810254464],[136.46895500251162,35.983753909071964],[136.46907067747333,35.98337520583473],[136.46906833628984,35.98332150454253],[136.46893907992614,35.983319810254464]]]}},{"type":"Feature","properties":{"pid":"bb5893d3-5136-44bc-aa79-fd911f1774fa"},"geometry":{"type":"Polygon","coordinates":[[[136.46928974196626,35.98281433400293],[136.46931775008036,35.982810233295616],[136.46940361333438,35.98267887442903],[136.4694948476351,35.98248355751662],[136.46927644675964,35.982494981565196],[136.46928974196626,35.98281433400293]]]}},{"type":"Feature","properties":{"pid":"54f568c5-4b5a-4e4e-b15a-35d9e0ac4c4e"},"geometry":{"type":"Polygon","coordinates":[[[136.4717642520545,35.987541744059214],[136.47198168709681,35.98757265806706],[136.47197074751494,35.9875377069565],[136.4720007655997,35.987453662511825],[136.47189358498267,35.98740727557728],[136.4718102885906,35.98732249956425],[136.4717642520545,35.987541744059214]]]}},{"type":"Feature","properties":{"pid":"762153c9-5231-4c79-b52a-5bb12aebd14b"},"geometry":{"type":"Polygon","coordinates":[[[136.4717280429577,35.987721963087814],[136.47177102082387,35.987755277362645],[136.47178911217893,35.9879376817351],[136.4720141779023,35.98798885298818],[136.4720881168925,35.98770018288307],[136.4717377971357,35.98765640258915],[136.4717280429577,35.987721963087814]]]}},{"type":"Feature","properties":{"pid":"996cdd29-072a-4436-91e3-f67381e666d8"},"geometry":{"type":"Polygon","coordinates":[[[136.47247162187548,35.987629141442326],[136.47249461636468,35.98763772379082],[136.4729049058306,35.987599499066626],[136.47289661570778,35.98749601359198],[136.47248648204754,35.98751353857648],[136.47247162187548,35.987629141442326]]]}},{"type":"Feature","properties":{"pid":"e93fc592-9117-474e-b1f5-94e22d46864c"},"geometry":{"type":"Polygon","coordinates":[[[136.4730182766585,35.98773469291908],[136.47308551369412,35.98816446060153],[136.47378179916328,35.98806459831938],[136.4735189351262,35.98748090865474],[136.47307878331478,35.98752485022102],[136.47310330418074,35.98768898114976],[136.47306530301776,35.98772609518923],[136.4730182766585,35.98773469291908]]]}},{"type":"Feature","properties":{"pid":"4e6417f8-f11d-49a7-9fa3-464f1ba1791e"},"geometry":{"type":"Polygon","coordinates":[[[136.47372377803674,35.98738428267306],[136.4738665762666,35.98773158534387],[136.47409568070847,35.98766778624075],[136.47395434487905,35.98731491593729],[136.47372377803674,35.98738428267306]]]}},{"type":"Feature","properties":{"pid":"4985ad3f-22ec-4526-b2d4-0fdb643b5c3c"},"geometry":{"type":"Polygon","coordinates":[[[136.47497703405412,35.98711009539385],[136.475016842873,35.98706140748976],[136.47496263628864,35.98703472931335],[136.47490230302262,35.98703910746944],[136.47489633184762,35.98707486283007],[136.47497703405412,35.98711009539385]]]}},{"type":"Feature","properties":{"pid":"f47026c1-d283-4de8-887b-b194ff7aa636"},"geometry":{"type":"Polygon","coordinates":[[[136.4740709614944,35.987272403109756],[136.4742475175627,35.98770490612557],[136.47457756245007,35.98762360246442],[136.47478143380005,35.987365509481144],[136.4747434727723,35.98734558610755],[136.47472839530428,35.98731889770344],[136.47475473432218,35.98707556325053],[136.4746145956954,35.98710524689679],[136.4740709614944,35.987272403109756]]]}},{"type":"Feature","properties":{"pid":"1b202e2b-7cc1-41f1-ad09-b2fa764570a8"},"geometry":{"type":"Polygon","coordinates":[[[136.47424525256974,35.99019913229706],[136.47427406422273,35.99051338781158],[136.47445216710545,35.990472378032706],[136.47440724638082,35.990194325080274],[136.47424525256974,35.99019913229706]]]}},{"type":"Feature","properties":{"pid":"67d071fc-1303-468d-a66e-fc2b82b963ca"},"geometry":{"type":"Polygon","coordinates":[[[136.47461708820984,35.990394990487296],[136.47462571616435,35.990518205864255],[136.47466766281218,35.99059039306984],[136.474988099008,35.990506135248225],[136.4750074789969,35.990473850707474],[136.47494881471948,35.99030949364383],[136.47461708820984,35.990394990487296]]]}},{"type":"Feature","properties":{"pid":"3655f7d5-8561-41d9-b537-4b0a102dd1e6"},"geometry":{"type":"Polygon","coordinates":[[[136.47456024275886,35.98975984385036],[136.47459369765008,35.98992459159323],[136.4748082513376,35.98986584189529],[136.474755730271,35.98971552182808],[136.47456024275886,35.98975984385036]]]}},{"type":"Feature","properties":{"pid":"2e0af077-231d-4531-bfea-9b8839540bd6"},"geometry":{"type":"Polygon","coordinates":[[[136.47457970212463,35.9901737115497],[136.4746016733016,35.99029125026549],[136.47491624763134,35.99021150137682],[136.4748503055941,35.989975776067645],[136.4746132619647,35.99003845704492],[136.47461679688723,35.990141511164964],[136.47457970212463,35.9901737115497]]]}},{"type":"Feature","properties":{"pid":"be357bff-d8cf-40ea-86ff-dfa080ece8f1"},"geometry":{"type":"Polygon","coordinates":[[[136.47171885626096,35.99024705684167],[136.47177838856896,35.9903960187018],[136.4721090716016,35.99035237598323],[136.47208611555953,35.990095622749855],[136.47188333930828,35.99013192026167],[136.47171885626096,35.99024705684167]]]}},{"type":"Feature","properties":{"pid":"d7da78e8-4dfb-460b-b220-fc4d429ecc28"},"geometry":{"type":"Polygon","coordinates":[[[136.47147646084528,35.98973706384058],[136.4715834800991,35.990193906382785],[136.4718338946897,35.990037274999516],[136.47205876768115,35.98998664342422],[136.47207727557273,35.989965875792485],[136.47204511257013,35.98968115442737],[136.47147646084528,35.98973706384058]]]}},{"type":"Feature","properties":{"pid":"1aec6f9b-2cb2-4ad5-b449-5cb2814fdf70"},"geometry":{"type":"Polygon","coordinates":[[[136.4713282722432,35.98941490754957],[136.4713459407838,35.9894740289679],[136.4713853987556,35.98947401213422],[136.4714286969742,35.98950035034325],[136.47146340717364,35.989636803353854],[136.47204284609953,35.98957576498501],[136.47200251378817,35.98927322436003],[136.4713282722432,35.98941490754957]]]}},{"type":"Feature","properties":{"pid":"267ebc54-ae3c-406f-be40-37818afa421b"},"geometry":{"type":"Polygon","coordinates":[[[136.47153431456007,35.989227178621114],[136.4719854847884,35.98914018887046],[136.47194384464777,35.98863465350522],[136.47185633736876,35.98861707382294],[136.47152347729528,35.988645696422],[136.47153431456007,35.989227178621114]]]}},{"type":"Feature","properties":{"pid":"f4c8c5f8-9980-4216-9a3a-b91e5a97fe3f"},"geometry":{"type":"Polygon","coordinates":[[[136.4727449090025,35.98851566506065],[136.4727844995804,35.988938080120874],[136.47310189130377,35.98887090384202],[136.47307382105595,35.988476367752305],[136.4727449090025,35.98851566506065]]]}},{"type":"Feature","properties":{"pid":"7e0300a1-ddb7-4b0c-b6cc-aab0a1e79f07"},"geometry":{"type":"Polygon","coordinates":[[[136.47320683659927,35.988459449102045],[136.47323219240386,35.988843574132474],[136.4735536205316,35.98878046189135],[136.47352619776055,35.988421812707706],[136.47320683659927,35.988459449102045]]]}},{"type":"Feature","properties":{"pid":"c64ab11b-0fdd-4a5f-9dae-b909b1dc09c8"},"geometry":{"type":"Polygon","coordinates":[[[136.47213023570063,35.98824857791257],[136.47227177142202,35.98825563641637],[136.4729443325346,35.98816963234747],[136.47288619740831,35.987746075871875],[136.47244156378727,35.987787045772144],[136.47224403438142,35.98776098026539],[136.47220983033418,35.98786015472665],[136.47213023570063,35.98824857791257]]]}},{"type":"Feature","properties":{"pid":"0c2c1e0c-48aa-4a02-97cd-ee7619da4844"},"geometry":{"type":"Polygon","coordinates":[[[136.47217085923643,35.98907774713133],[136.47266076173898,35.98896929109233],[136.47262079067622,35.98852820660217],[136.47230133500807,35.98854881278433],[136.4721358093683,35.98859818286125],[136.47217085923643,35.98907774713133]]]}},{"type":"Feature","properties":{"pid":"1e08c6ba-941b-41d1-9a0a-01c9922da279"},"geometry":{"type":"Polygon","coordinates":[[[136.4716759437179,35.98800914266241],[136.4716347929208,35.98831359821149],[136.47169198310382,35.98832220994084],[136.47181151047894,35.98830878419312],[136.4719594550704,35.98825691855327],[136.47198709366145,35.988097064969146],[136.47175140952973,35.98804956456029],[136.4716759437179,35.98800914266241]]]}},{"type":"Feature","properties":{"pid":"2fe6956a-2e9e-42fd-81eb-123b2f20a3d9"},"geometry":{"type":"Polygon","coordinates":[[[136.4703615773996,35.98799029852788],[136.4703910568862,35.988426075514994],[136.47108029734002,35.98842122945969],[136.47143044466983,35.98837792799695],[136.47145227113577,35.988341486245396],[136.47150604341147,35.9879724243034],[136.4703615773996,35.98799029852788]]]}},{"type":"Feature","properties":{"pid":"c4915cde-0ec0-43b5-80c4-ff07ca16fad5"},"geometry":{"type":"Polygon","coordinates":[[[136.4691703110679,35.987996730442305],[136.46917794762575,35.988178046563775],[136.47017576534762,35.988158576858524],[136.47016665978043,35.98796277045774],[136.4691703110679,35.987996730442305]]]}},{"type":"Feature","properties":{"pid":"1f3c1085-78be-4739-ab9b-b4015d5e9d76"},"geometry":{"type":"Polygon","coordinates":[[[136.46918504411033,35.98828326196933],[136.46919313735557,35.98843811164783],[136.47018744931924,35.988433353650244],[136.4701760011883,35.988267271039334],[136.46918504411033,35.98828326196933]]]}},{"type":"Feature","properties":{"pid":"b2e9f977-d87d-41aa-a5d0-110037827bd9"},"geometry":{"type":"Polygon","coordinates":[[[136.46918760270302,35.98858328874335],[136.46919404072597,35.988635380436946],[136.46971598795693,35.9885801328998],[136.46918760270302,35.98858328874335]]]}},{"type":"Feature","properties":{"pid":"3c2124f8-7874-4c9b-80af-1e1281a103a5"},"geometry":{"type":"Polygon","coordinates":[[[136.4692645258796,35.98912655036716],[136.46929759419305,35.989298723700585],[136.4701933066701,35.98928138230543],[136.47018401894385,35.98911360843683],[136.4692645258796,35.98912655036716]]]}},{"type":"Feature","properties":{"pid":"917b4a5b-6eb2-4536-b5b9-bacc138ff1a8"},"geometry":{"type":"Polygon","coordinates":[[[136.46924800743435,35.98902785730923],[136.47016542562474,35.989007221436744],[136.470152748392,35.98880622398342],[136.46923374177388,35.98890969700149],[136.46924800743435,35.98902785730923]]]}},{"type":"Feature","properties":{"pid":"0e9f8277-4f1e-42de-aa6d-682f5ed91b82"},"geometry":{"type":"Polygon","coordinates":[[[136.46932675449844,35.98941019742779],[136.46937779555,35.989569631413275],[136.4701506142423,35.98952291383259],[136.47018068811693,35.989492490253944],[136.47017640549677,35.98939655098125],[136.46932675449844,35.98941019742779]]]}},{"type":"Feature","properties":{"pid":"fd4d2868-b1b3-4a23-9178-10b2c7c29619"},"geometry":{"type":"Polygon","coordinates":[[[136.47119657080256,35.98943468805502],[136.47054838063178,35.98957963741843],[136.47121212639811,35.98950064489641],[136.47119657080256,35.98943468805502]]]}},{"type":"Feature","properties":{"pid":"18c2f55b-6bbe-4ceb-bb25-74ea60edf09e"},"geometry":{"type":"Polygon","coordinates":[[[136.47038418691943,35.98938608448159],[136.47039474954795,35.989452964015925],[136.4708170464053,35.98937330485076],[136.47038418691943,35.98938608448159]]]}},{"type":"Feature","properties":{"pid":"18bfd0f6-44be-4413-8793-2c81b9fd2c1e"},"geometry":{"type":"Polygon","coordinates":[[[136.47035219478178,35.988781956925685],[136.47036992105734,35.98900154826491],[136.4713545046366,35.988988986114386],[136.4713385203241,35.98866933714884],[136.47035219478178,35.988781956925685]]]}},{"type":"Feature","properties":{"pid":"e183903b-a9de-4f81-bf2a-7f53264344dc"},"geometry":{"type":"Polygon","coordinates":[[[136.47036658828173,35.989116186532],[136.47037542962,35.98928384461557],[136.47136637681803,35.98926001403119],[136.47135626342885,35.98909174144168],[136.47036658828173,35.989116186532]]]}},{"type":"Feature","properties":{"pid":"71044c3b-29c7-461a-b038-1f821c35102f"},"geometry":{"type":"Polygon","coordinates":[[[136.47046302906526,35.98969812993134],[136.47066566014772,35.99053689744902],[136.47163104956076,35.99042025197019],[136.4715935952584,35.99031021889827],[136.47152177051575,35.9903162816371],[136.4714830178167,35.990285951935974],[136.47131420611598,35.989597976569094],[136.47114810917225,35.98963003941555],[136.47046302906526,35.98969812993134]]]}},{"type":"Feature","properties":{"pid":"8387774d-4fb7-4f78-8a54-b3597106e233"},"geometry":{"type":"Polygon","coordinates":[[[136.47033284747678,35.98969395090446],[136.47049464391918,35.990361023232765],[136.4705111097442,35.99037736477692],[136.4703464933737,35.98969448931119],[136.47033284747678,35.98969395090446]]]}},{"type":"Feature","properties":{"pid":"6fcc0fd4-f6ea-47b6-9537-af0d37e9461e"},"geometry":{"type":"Polygon","coordinates":[[[136.46948632114814,35.98968352896072],[136.46968765257745,35.990455595927365],[136.47031096328743,35.99033702987909],[136.47015879533708,35.98964883528265],[136.46948632114814,35.98968352896072]]]}},{"type":"Feature","properties":{"pid":"aac8bb52-2dde-4456-b21f-1325a6b1d468"},"geometry":{"type":"Polygon","coordinates":[[[136.46925586155243,35.98970449547997],[136.46946041541065,35.99049258847978],[136.46954414495914,35.990477249326815],[136.4693542798552,35.98969486461489],[136.46925586155243,35.98970449547997]]]}},{"type":"Feature","properties":{"pid":"df00c37b-d80d-4011-beb3-50ac19f391c0"},"geometry":{"type":"Polygon","coordinates":[[[136.46891231710424,35.989758778420914],[136.469120116395,35.990540471528625],[136.46913682015114,35.990550520313555],[136.46932037100095,35.9905204803616],[136.4691067385262,35.98973221482436],[136.46891231710424,35.989758778420914]]]}},{"type":"Feature","properties":{"pid":"5540c6e5-8fe4-4643-a4f9-31e38d2121cf"},"geometry":{"type":"Polygon","coordinates":[[[136.4679447196826,35.990029309949726],[136.46812823165902,35.990716842406385],[136.468234151994,35.990679020533186],[136.46832342488733,35.99067905689462],[136.46815293485398,35.99000652428013],[136.4679447196826,35.990029309949726]]]}},{"type":"Feature","properties":{"pid":"1000a425-a5b9-4896-b364-c59dae70656e"},"geometry":{"type":"Polygon","coordinates":[[[136.46827991772997,35.98999325994668],[136.46844421275108,35.990651145347215],[136.4686465813498,35.990620174666],[136.468458082252,35.98983748519346],[136.46839012793043,35.98984994609873],[136.4684005831289,35.98993583993212],[136.46838526094442,35.98996717544534],[136.46827991772997,35.98999325994668]]]}},{"type":"Feature","properties":{"pid":"5cda5e98-c56f-44c5-8b8e-a0eaaaa6f200"},"geometry":{"type":"Polygon","coordinates":[[[136.46857911242643,35.98981191878528],[136.46878568639536,35.99060115371263],[136.46898144107018,35.99056347741657],[136.46878397376187,35.9897823427955],[136.46857911242643,35.98981191878528]]]}},{"type":"Feature","properties":{"pid":"1506bd1a-2c08-423b-830f-05f6848243bb"},"geometry":{"type":"Polygon","coordinates":[[[136.46644009889988,35.989307355214784],[136.4666209798729,35.99001565390762],[136.46701413637211,35.98995524317925],[136.46703666208106,35.989925135135394],[136.4669658903055,35.98943326425246],[136.46696870216283,35.989265954395194],[136.46665104575453,35.98933477460309],[136.466598969825,35.98933478858021],[136.46649025393214,35.98930047264538],[136.46644009889988,35.989307355214784]]]}},{"type":"Feature","properties":{"pid":"103e4f69-7fd2-40cc-8cfa-f47bda43acb5"},"geometry":{"type":"Polygon","coordinates":[[[136.4675178936529,35.98996806362293],[136.46824421662168,35.98986846189768],[136.46815266638393,35.98927269754785],[136.46806528525445,35.98905893433189],[136.46745242095207,35.989148105367924],[136.46739864889992,35.98926562645976],[136.4675178936529,35.98996806362293]]]}},{"type":"Feature","properties":{"pid":"6272046a-7d72-4dfe-84c5-1b5250d4b4ca"},"geometry":{"type":"Polygon","coordinates":[[[136.46832403627386,35.989500838754175],[136.46836165785047,35.98973869150317],[136.46922462467728,35.989583984283584],[136.46915970571487,35.9894015586511],[136.46832403627386,35.989500838754175]]]}},{"type":"Feature","properties":{"pid":"31b9a6e5-c30d-4496-b128-f20b22a108d0"},"geometry":{"type":"Polygon","coordinates":[[[136.46820033203818,35.989033517733695],[136.46826574924503,35.98920802660042],[136.46869792004588,35.98916466959531],[136.46866731500222,35.98905112053345],[136.4686732808663,35.98902489939621],[136.46871106862383,35.98899067919916],[136.4688265913547,35.98896749948622],[136.46881973072914,35.98895086202647],[136.46820033203818,35.989033517733695]]]}},{"type":"Feature","properties":{"pid":"7656cd93-fa8d-4db5-9454-6ee72a3fb13e"},"geometry":{"type":"Polygon","coordinates":[[[136.46829281099085,35.9893122754243],[136.46830677960327,35.98939325108044],[136.46915268042747,35.98929031770597],[136.46909566093487,35.98892359344652],[136.46895199893441,35.98893301382329],[136.4689774001326,35.98899594569395],[136.46895429140594,35.9890351764446],[136.46880901201183,35.98907858921011],[136.46884979365058,35.98919679565909],[136.46882432278193,35.98923854244762],[136.46829281099085,35.9893122754243]]]}},{"type":"Feature","properties":{"pid":"c78102d9-203a-45b7-8cb5-ddb654a1533a"},"geometry":{"type":"Polygon","coordinates":[[[136.4679586806795,35.98839193104841],[136.4680380521881,35.98876667830512],[136.46830545750132,35.98870134762206],[136.4684107280415,35.98866081067481],[136.46836254077456,35.98838205505293],[136.4679586806795,35.98839193104841]]]}},{"type":"Feature","properties":{"pid":"4ff870fa-2de1-4f0b-82e7-e0e5e83e4056"},"geometry":{"type":"Polygon","coordinates":[[[136.46886905565802,35.98866073058765],[136.4690700417349,35.988649247848215],[136.4690661424637,35.98859777575559],[136.46886905565802,35.98866073058765]]]}},{"type":"Feature","properties":{"pid":"f5f952cb-fddd-4a8b-82f0-a37c741aaf3a"},"geometry":{"type":"Polygon","coordinates":[[[136.46848946534394,35.98838311250119],[136.4685343349993,35.988621692350804],[136.4690033687091,35.988476680981336],[136.46899083733555,35.98836746164992],[136.46848946534394,35.98838311250119]]]}},{"type":"Feature","properties":{"pid":"c758ae80-d90e-42e6-a290-77ed33b10d5c"},"geometry":{"type":"Polygon","coordinates":[[[136.46767308086197,35.98828777533545],[136.46898485279232,35.98825490020857],[136.4689586225397,35.988000715988036],[136.46773603080374,35.988033430492926],[136.46767308086197,35.98828777533545]]]}},{"type":"Feature","properties":{"pid":"e7ffa75d-5f4c-4923-991f-da612034cb18"},"geometry":{"type":"Polygon","coordinates":[[[136.4675767218259,35.988698647254736],[136.4678877158988,35.98868416046533],[136.46782773308735,35.9883909826999],[136.46763139625932,35.988393933048116],[136.46755813938407,35.98867882187078],[136.4675767218259,35.988698647254736]]]}},{"type":"Feature","properties":{"pid":"b91c6fb2-280b-48f7-8b3f-ebde1ba02e50"},"geometry":{"type":"Polygon","coordinates":[[[136.46654073978434,35.98845304265764],[136.46656250108435,35.98863177404408],[136.46698474200576,35.98886223314338],[136.4670835962593,35.98884322233778],[136.46717809072095,35.988734414575966],[136.467263533017,35.98842682632892],[136.46654073978434,35.98845304265764]]]}},{"type":"Feature","properties":{"pid":"adf545a7-a1c9-4f56-9ac2-5bebdd2142aa"},"geometry":{"type":"Polygon","coordinates":[[[136.4665413311718,35.988344973071314],[136.4672864470595,35.98832195788382],[136.46735420475594,35.98808469285866],[136.46652202272514,35.98811191071638],[136.4665413311718,35.988344973071314]]]}},{"type":"Feature","properties":{"pid":"49802e5e-6261-4c2c-8795-ac720d142fdf"},"geometry":{"type":"Polygon","coordinates":[[[136.466508541521,35.98770344486515],[136.4674755757315,35.98766171840029],[136.4675066529702,35.98750127530634],[136.4665099557689,35.987533811182566],[136.466508541521,35.98770344486515]]]}},{"type":"Feature","properties":{"pid":"798a0bee-6843-4931-bb03-c5015cbc6d99"},"geometry":{"type":"Polygon","coordinates":[[[136.46651300099757,35.988015413998745],[136.46738271532092,35.98798172867879],[136.4674459317564,35.987777753400295],[136.4665075152709,35.987808621310315],[136.46651300099757,35.988015413998745]]]}},{"type":"Feature","properties":{"pid":"8f5c0661-0a15-4660-a9a9-9a4312710232"},"geometry":{"type":"Polygon","coordinates":[[[136.46649465650555,35.98713840298047],[136.46756044193896,35.987118212116826],[136.46755822328976,35.98695555274899],[136.4664925431424,35.986984413484436],[136.46649465650555,35.98713840298047]]]}},{"type":"Feature","properties":{"pid":"0dec060a-39f7-495f-8b0d-6445fff0cc89"},"geometry":{"type":"Polygon","coordinates":[[[136.46649511946433,35.98726179192441],[136.46650878927994,35.98742665834877],[136.46754095744927,35.98739052451113],[136.46755950417503,35.98722492430709],[136.46649511946433,35.98726179192441]]]}},{"type":"Feature","properties":{"pid":"bd2b8490-9c78-4dc9-82fb-ad626eff6969"},"geometry":{"type":"Polygon","coordinates":[[[136.46648347751216,35.98670990992017],[136.46649167007553,35.98688030790308],[136.4675496255143,35.986847172026735],[136.46754497516076,35.98668112559076],[136.46648347751216,35.98670990992017]]]}},{"type":"Feature","properties":{"pid":"4f08929c-c125-4534-a498-a4ce4b31f880"},"geometry":{"type":"Polygon","coordinates":[[[136.46645606822753,35.9861387881774],[136.4664643065963,35.986320248891005],[136.46753093244158,35.98628437529705],[136.4675247094158,35.98610846379498],[136.46645606822753,35.9861387881774]]]}},{"type":"Feature","properties":{"pid":"df5a7ef8-a570-4f91-a59e-a3e5cc3e07bf"},"geometry":{"type":"Polygon","coordinates":[[[136.46646799644049,35.98642582253333],[136.46648510968342,35.986607687452235],[136.46754545738733,35.98657133746002],[136.46753128855633,35.98639828993502],[136.46646799644049,35.98642582253333]]]}},{"type":"Feature","properties":{"pid":"2c8dfefb-7671-4327-856b-fd5d4b45bbca"},"geometry":{"type":"Polygon","coordinates":[[[136.4679057009786,35.98683462707975],[136.4689044644031,35.986808367459226],[136.46889958608244,35.9866556232001],[136.4679063744141,35.986678395901706],[136.4679057009786,35.98683462707975]]]}},{"type":"Feature","properties":{"pid":"9dc294e9-586e-4a06-ad1a-9c366ef92b6f"},"geometry":{"type":"Polygon","coordinates":[[[136.4678808176454,35.98611062254597],[136.46788370643193,35.9862812123872],[136.4688500954061,35.98626832071266],[136.46884369667342,35.98617648494151],[136.46876420336267,35.986103659327654],[136.4678808176454,35.98611062254597]]]}},{"type":"Feature","properties":{"pid":"83ce2ebb-b8d4-4bff-859b-d7c490e96010"},"geometry":{"type":"Polygon","coordinates":[[[136.46789887856312,35.98642474041601],[136.46790206312963,35.98657524019774],[136.46889875826528,35.98655055372501],[136.46889712426434,35.986407060885526],[136.46789887856312,35.98642474041601]]]}},{"type":"Feature","properties":{"pid":"2f1533ab-9e1b-47bb-8963-b01affc8e70d"},"geometry":{"type":"Polygon","coordinates":[[[136.4679166421504,35.98709685527514],[136.46892059782087,35.98706971850653],[136.46892056381762,35.98691337735996],[136.46791337401876,35.98694240695341],[136.4679166421504,35.98709685527514]]]}},{"type":"Feature","properties":{"pid":"02c0c2e3-cd77-4568-8c90-4f7079fe8841"},"geometry":{"type":"Polygon","coordinates":[[[136.46789719195618,35.987374825899884],[136.46894137683844,35.98734328557727],[136.46893964144078,35.987189304624835],[136.46791322542245,35.98721319025923],[136.46789719195618,35.987374825899884]]]}},{"type":"Feature","properties":{"pid":"0b21d019-7a90-4552-870f-065643de3e17"},"geometry":{"type":"Polygon","coordinates":[[[136.4678424096803,35.98764667080538],[136.46894088218744,35.987615933246694],[136.4689287631581,35.98745044393315],[136.4678806160583,35.98748518415624],[136.4678424096803,35.98764667080538]]]}},{"type":"Feature","properties":{"pid":"9841bba3-4aa0-457c-9498-9f7ba7ef40fd"},"geometry":{"type":"Polygon","coordinates":[[[136.4677673721203,35.98792965134847],[136.46896067049994,35.98788689986751],[136.46895209564303,35.9877234471138],[136.46781305382987,35.987751565393026],[136.4677673721203,35.98792965134847]]]}},{"type":"Feature","properties":{"pid":"a6f7ce4d-23f7-4876-a727-311763c325aa"},"geometry":{"type":"Polygon","coordinates":[[[136.4691568474103,35.98772531798852],[136.4691621559118,35.98788598907582],[136.47017010695,35.987858255883886],[136.47016829087372,35.98768943703028],[136.4691568474103,35.98772531798852]]]}},{"type":"Feature","properties":{"pid":"a5be56d0-7c41-42e9-b720-8d1008a9d449"},"geometry":{"type":"Polygon","coordinates":[[[136.47015100300817,35.987421945693306],[136.46914503242854,35.9874637766706],[136.46915999296627,35.987613076681335],[136.47016496042443,35.987586715743944],[136.47015100300817,35.987421945693306]]]}},{"type":"Feature","properties":{"pid":"e32c267a-b3b0-4c56-8ca9-d68235e54486"},"geometry":{"type":"Polygon","coordinates":[[[136.4691402256898,35.9871776698939],[136.4691485045494,35.987331946786],[136.47015453021083,35.98731462333712],[136.47014868374046,35.98715032587295],[136.4691402256898,35.9871776698939]]]}},{"type":"Feature","properties":{"pid":"a15620e1-ac3e-4771-bc57-b491100da689"},"geometry":{"type":"Polygon","coordinates":[[[136.470344793126,35.9876044981298],[136.47156527920848,35.98759591812769],[136.47158703627866,35.98743495889665],[136.47034229458257,35.98744534740146],[136.470344793126,35.9876044981298]]]}},{"type":"Feature","properties":{"pid":"826d5a8a-5b83-467c-9fe8-e6e0f080d1b0"},"geometry":{"type":"Polygon","coordinates":[[[136.47034812293768,35.987718622613784],[136.47035382213528,35.98788302633159],[136.4715240910616,35.987856204885276],[136.4715419089316,35.98770330159894],[136.47034812293768,35.987718622613784]]]}},{"type":"Feature","properties":{"pid":"cccdbba0-775e-40c1-9367-a037f3bae71f"},"geometry":{"type":"Polygon","coordinates":[[[136.47092926413427,35.987306948506024],[136.47162320312734,35.987297030133945],[136.4716636344206,35.98715188723585],[136.47096889603998,35.98695282095559],[136.47092926413427,35.987306948506024]]]}},{"type":"Feature","properties":{"pid":"c355e271-136d-4520-8cbe-e49c0f1a8251"},"geometry":{"type":"Polygon","coordinates":[[[136.4703027424814,35.98712334178163],[136.47032003550078,35.98730621067033],[136.47073359321857,35.98729479736947],[136.47074392237394,35.98720035094548],[136.47052396851416,35.98712904229825],[136.47045998860236,35.987153810967385],[136.47039006368237,35.987155806223896],[136.4703027424814,35.98712334178163]]]}},{"type":"Feature","properties":{"pid":"3142140f-eff9-47a5-a345-8151f9a6b52b"},"geometry":{"type":"Polygon","coordinates":[[[136.46912188966928,35.986919214596014],[136.4691379767466,35.987069999897635],[136.47013510201643,35.9870424886064],[136.4701326751022,35.986916318010735],[136.4701063142215,35.98689693628008],[136.46912188966928,35.986919214596014]]]}},{"type":"Feature","properties":{"pid":"79053363-f67c-42b1-b903-24f63871b7ce"},"geometry":{"type":"Polygon","coordinates":[[[136.46908635189598,35.986378326501615],[136.46910373688146,35.98679356118716],[136.47007539334064,35.98677200692755],[136.47007632286176,35.98675503592069],[136.46996014384104,35.98669250349041],[136.469425065602,35.98658555138418],[136.46935728838588,35.986531240810955],[136.46908635189598,35.986378326501615]]]}},{"type":"Feature","properties":{"pid":"4c2dd8ff-ad09-42a4-ae06-db81637602c3"},"geometry":{"type":"Polygon","coordinates":[[[136.46781747920537,35.98448946746903],[136.4678322552721,35.98505598533744],[136.4684542820965,35.98504256613769],[136.46840879896405,35.98447487845949],[136.46781747920537,35.98448946746903]]]}},{"type":"Feature","properties":{"pid":"01bfadc0-a15f-40e5-827c-820fac25905b"},"geometry":{"type":"Polygon","coordinates":[[[136.4678797974519,35.98583892330473],[136.46788460447152,35.9859994666006],[136.4686785793616,35.98598237312724],[136.46859019638754,35.985832708946894],[136.4678797974519,35.98583892330473]]]}},{"type":"Feature","properties":{"pid":"0aed72f5-6a01-48b5-bb8d-56e20306dbf0"},"geometry":{"type":"Polygon","coordinates":[[[136.4678645283226,35.985725325014364],[136.46853170257393,35.9857162176075],[136.46845099656704,35.985606950798854],[136.46844126065952,35.98556246251916],[136.4678643616106,35.98556471419857],[136.4678645283226,35.985725325014364]]]}},{"type":"Feature","properties":{"pid":"2642a573-5b78-4f27-8910-e50a8b0da9cb"},"geometry":{"type":"Polygon","coordinates":[[[136.4678500303393,35.98516791148249],[136.4678554361532,35.98545972702992],[136.46844181952704,35.98545827228824],[136.46847135454232,35.98538103381717],[136.46846426725764,35.98515070897351],[136.4678500303393,35.98516791148249]]]}},{"type":"Feature","properties":{"pid":"15f9850b-9460-4b72-a7be-3460d6d2e220"},"geometry":{"type":"Polygon","coordinates":[[[136.4664413406782,35.98587003201291],[136.46645062816538,35.98603276596046],[136.46751583747258,35.98599292492105],[136.4675137106678,35.98584626786137],[136.4664413406782,35.98587003201291]]]}},{"type":"Feature","properties":{"pid":"5ec74c17-5772-48a3-882f-6192f267f1a6"},"geometry":{"type":"Polygon","coordinates":[[[136.4664203036059,35.98560124752947],[136.4664353597572,35.98576711382095],[136.46750668069743,35.98573268839334],[136.46750095452353,35.985574886166546],[136.4664203036059,35.98560124752947]]]}},{"type":"Feature","properties":{"pid":"1463a339-3170-46e0-ae04-7f526ea5faf5"},"geometry":{"type":"Polygon","coordinates":[[[136.46639410331375,35.98534166951416],[136.46641352739334,35.985493157544916],[136.46749184370017,35.98546645192783],[136.46748840212095,35.985301101702426],[136.46639410331375,35.98534166951416]]]}},{"type":"Feature","properties":{"pid":"5220cd53-6319-40bb-ab48-20bdd49f50c1"},"geometry":{"type":"Polygon","coordinates":[[[136.46635631010145,35.98480263398547],[136.46636831775996,35.98496338180107],[136.46747731625487,35.98492332284065],[136.46746899563806,35.9847564150004],[136.46635631010145,35.98480263398547]]]}},{"type":"Feature","properties":{"pid":"9c9b6a36-74e7-4db1-9983-0a5db0fbb82d"},"geometry":{"type":"Polygon","coordinates":[[[136.46637044431665,35.98507723344685],[136.46638552856015,35.985225407196936],[136.46748256611488,35.98518397945399],[136.46747571394974,35.98503369626394],[136.46637044431665,35.98507723344685]]]}},{"type":"Feature","properties":{"pid":"b9e36c0a-d198-4f6e-b1a8-b22ce2eec238"},"geometry":{"type":"Polygon","coordinates":[[[136.4663546386403,35.98468869278501],[136.46746655227798,35.98464232222934],[136.46745593693905,35.98449031252494],[136.4663551311908,35.98453270472848],[136.4663546386403,35.98468869278501]]]}},{"type":"Feature","properties":{"pid":"6edc89d2-52b4-4f2a-9d89-feb2eb6200d7"},"geometry":{"type":"Polygon","coordinates":[[[136.46502262376782,35.98517307879531],[136.4660787416953,35.98515109889437],[136.46602488489222,35.984387676959],[136.465047586198,35.984413499630975],[136.46505126063124,35.98459182240919],[136.46500429207785,35.985020525613564],[136.46502262376782,35.98517307879531]]]}},{"type":"Feature","properties":{"pid":"e42e69ed-41bd-4e81-9ee1-cec91ab51ad5"},"geometry":{"type":"Polygon","coordinates":[[[136.46502661169092,35.98609499148172],[136.4661615986854,35.98607354811532],[136.46611020104342,35.9852996091873],[136.46503751591803,35.98531294900988],[136.46504203833842,35.98548194173863],[136.46501298060434,35.98570864838474],[136.46502661169092,35.98609499148172]]]}},{"type":"Feature","properties":{"pid":"51fd7469-ac47-4950-9807-e88dee108f92"},"geometry":{"type":"Polygon","coordinates":[[[136.4635949118343,35.98611214993954],[136.46479221418082,35.98609955122863],[136.46477107655204,35.9859506284918],[136.46477790832193,35.98546897283056],[136.46360344435067,35.98549192564031],[136.4635949118343,35.98611214993954]]]}},{"type":"Feature","properties":{"pid":"980a556e-5e51-4620-9a68-f6c553665edb"},"geometry":{"type":"Polygon","coordinates":[[[136.46358105083016,35.985333269538856],[136.46476923536096,35.98531147402538],[136.46474655625872,35.98514219134429],[136.4647766525449,35.984856739945705],[136.4647540782684,35.98473090185747],[136.46357730861612,35.98474857557973],[136.4635632634216,35.98499377841213],[136.46358105083016,35.985333269538856]]]}},{"type":"Feature","properties":{"pid":"363e56e3-87f0-42d3-a0dc-5eee80d5fdf2"},"geometry":{"type":"Polygon","coordinates":[[[136.46253804163757,35.98564625736673],[136.46336434647947,35.98562539307369],[136.46334921524377,35.984994446970475],[136.46331271747349,35.98470771968992],[136.4628275727458,35.98472429011796],[136.46282479765398,35.9848074605624],[136.46264517123547,35.98527931109718],[136.46265727339951,35.985325637474496],[136.46261437091715,35.98548218320068],[136.4625583809334,35.98556890756082],[136.46253804163757,35.98564625736673]]]}},{"type":"Feature","properties":{"pid":"7b908576-81d5-4ad6-9b35-6bf6cd68b069"},"geometry":{"type":"Polygon","coordinates":[[[136.46198824169156,35.984863413454526],[136.4621300567969,35.98504954889787],[136.4623094811074,35.985039000291486],[136.46247548844872,35.98502104302709],[136.4625366930592,35.98480725725139],[136.46198824169156,35.984863413454526]]]}},{"type":"Feature","properties":{"pid":"43d8a9eb-19a1-44f9-b153-66d8a4aa4168"},"geometry":{"type":"Polygon","coordinates":[[[136.46226149078146,35.98515265910086],[136.4623259700002,35.98535431067057],[136.46236199185947,35.98535622576138],[136.462437307365,35.98512943785539],[136.46226149078146,35.98515265910086]]]}},{"type":"Feature","properties":{"pid":"b611034f-2c74-4264-95de-1571f48f4e63"},"geometry":{"type":"Polygon","coordinates":[[[136.46209520569803,35.98571042819561],[136.46225267093152,35.9856964439098],[136.46226257809303,35.98566554234291],[136.46210372484848,35.98567348122451],[136.46209520569803,35.98571042819561]]]}},{"type":"Feature","properties":{"pid":"a2322ca1-aed5-4e34-9e6f-f3b577854d8c"},"geometry":{"type":"Polygon","coordinates":[[[136.462085364497,35.98605291332407],[136.46214458815157,35.98605330240857],[136.46221583832673,35.985827874528475],[136.46214698573843,35.98583062798028],[136.462085364497,35.98605291332407]]]}},{"type":"Feature","properties":{"pid":"5ac80aac-42a9-4b92-9a49-c0811b2cd82e"},"geometry":{"type":"Polygon","coordinates":[[[136.46238557111838,35.986141393324665],[136.46259509400835,35.986152069420235],[136.46337975129413,35.98612116195809],[136.4633919762367,35.98598788105019],[136.46337761856893,35.985770008261504],[136.4625053100379,35.98578901423908],[136.46243148587072,35.985974256341436],[136.46238557111838,35.986141393324665]]]}},{"type":"Feature","properties":{"pid":"7de815e8-f348-4d6c-9de3-83b9ecaa16fd"},"geometry":{"type":"Polygon","coordinates":[[[136.46290541721152,35.98634893143158],[136.46294394682607,35.98760228539241],[136.46320526823393,35.987613621790665],[136.46363883309374,35.98760041334081],[136.46360064539186,35.986333462615],[136.46290541721152,35.98634893143158]]]}},{"type":"Feature","properties":{"pid":"415f2405-a6f4-4506-9273-61d2745d751d"},"geometry":{"type":"Polygon","coordinates":[[[136.46199520560054,35.98763302087185],[136.46279372137397,35.98761361787224],[136.46276140218632,35.986356491624235],[136.4626982087152,35.98633716105103],[136.4622892495886,35.98636720300241],[136.46201847301708,35.98712554473164],[136.4619949588203,35.987364877723614],[136.46199520560054,35.98763302087185]]]}},{"type":"Feature","properties":{"pid":"ab622e27-78bf-4cf8-b6fb-4dcabadcd3b0"},"geometry":{"type":"Polygon","coordinates":[[[136.46376147592753,35.98634266828315],[136.4637916928705,35.987591456610225],[136.46406296882262,35.987602278846936],[136.46450382501993,35.987592551270836],[136.46453119695053,35.98757787525372],[136.46449495731378,35.98633142931148],[136.46376147592753,35.98634266828315]]]}},{"type":"Feature","properties":{"pid":"c96a7980-8b92-44a9-95ae-36f5ef17aa8f"},"geometry":{"type":"Polygon","coordinates":[[[136.46465244618634,35.986343305257996],[136.46468201982103,35.987590017968046],[136.46542718444957,35.98758321381054],[136.46538234514713,35.98629604522055],[136.4649854421761,35.98633435450274],[136.46465244618634,35.986343305257996]]]}},{"type":"Feature","properties":{"pid":"8d788223-1979-4d53-8fb9-642583300828"},"geometry":{"type":"Polygon","coordinates":[[[136.46552246894,35.98629147918566],[136.46556188694055,35.98754751699651],[136.4655923600298,35.98757729419948],[136.46621889943026,35.98756400057673],[136.46623585223165,35.98754670204173],[136.4662294619621,35.98695692115207],[136.4661658051172,35.98628518298025],[136.46552246894,35.98629147918566]]]}},{"type":"Feature","properties":{"pid":"5b45eefe-4138-4d0f-81bd-b98430d40107"},"geometry":{"type":"Polygon","coordinates":[[[136.4655717178187,35.98773358801864],[136.46560861482214,35.98903445030434],[136.4663831251875,35.988927317132244],[136.46636543351886,35.98873452490216],[136.4663050532205,35.98868363735701],[136.466242000131,35.98822767500783],[136.46624737305024,35.98808884677024],[136.46622492866783,35.98773816335161],[136.46619857345198,35.98771994145625],[136.4655717178187,35.98773358801864]]]}},{"type":"Feature","properties":{"pid":"eda65cd7-2a91-4015-bb3c-097176d81b50"},"geometry":{"type":"Polygon","coordinates":[[[136.46385580904294,35.987780746004965],[136.46389467555966,35.989042364608025],[136.4643013427725,35.98913126666312],[136.46454188031674,35.989139977191776],[136.46450110260866,35.987758965437216],[136.46385580904294,35.987780746004965]]]}},{"type":"Feature","properties":{"pid":"82fb78c9-f47f-4fba-98ec-2db93fb603df"},"geometry":{"type":"Polygon","coordinates":[[[136.46465160984624,35.98775524097222],[136.46469584864283,35.98913455679776],[136.46545869720322,35.98906455411594],[136.46542119395014,35.98775074348855],[136.46540594237013,35.987734321138106],[136.46465160984624,35.98775524097222]]]}},{"type":"Feature","properties":{"pid":"dfd102bc-16d9-4264-8400-5aa3cc578466"},"geometry":{"type":"Polygon","coordinates":[[[136.46610551070614,35.98935271362616],[136.4663042516782,35.99007909343894],[136.466504060437,35.99004183345908],[136.46630668612724,35.989328987298165],[136.46610551070614,35.98935271362616]]]}},{"type":"Feature","properties":{"pid":"bfa40153-1958-44e6-afb4-7318e226c142"},"geometry":{"type":"Polygon","coordinates":[[[136.46577064886327,35.98940194020586],[136.4659724563579,35.99013812502251],[136.46618016573862,35.9900981427008],[136.46598170060537,35.98937196981348],[136.46577064886327,35.98940194020586]]]}},{"type":"Feature","properties":{"pid":"230474ae-f2af-4de6-9653-052debf98a3a"},"geometry":{"type":"Polygon","coordinates":[[[136.4654514511489,35.989445296706755],[136.46564278151507,35.990193760797936],[136.4658355629362,35.99016202310837],[136.4656416488035,35.989420996105025],[136.4654514511489,35.989445296706755]]]}},{"type":"Feature","properties":{"pid":"9b9c648a-2228-45ad-9f58-3ed208ac9123"},"geometry":{"type":"Polygon","coordinates":[[[136.4651384655364,35.98949555500217],[136.46532090699276,35.99024038813999],[136.46551377015575,35.99021115120408],[136.46531980526342,35.98946358741531],[136.4651384655364,35.98949555500217]]]}},{"type":"Feature","properties":{"pid":"ebd8c5b0-d7b9-4a18-83bf-b82b5c5f8fd3"},"geometry":{"type":"Polygon","coordinates":[[[136.4644795471313,35.98959334224286],[136.46466795872342,35.99035475402668],[136.46486661499614,35.990319698340144],[136.46467437928382,35.98956129374378],[136.4644795471313,35.98959334224286]]]}},{"type":"Feature","properties":{"pid":"97e7e337-781a-4476-a7fc-c494e882eb1a"},"geometry":{"type":"Polygon","coordinates":[[[136.4647928069066,35.98954577271995],[136.46500397421607,35.990299745903044],[136.46518265291613,35.99026818941139],[136.4649905486416,35.98951668180826],[136.4647928069066,35.98954577271995]]]}},{"type":"Feature","properties":{"pid":"a911cfdf-d548-4aa3-a507-e1ba38f0b2e8"},"geometry":{"type":"Polygon","coordinates":[[[136.46408047901394,35.989631835172936],[136.4642848138192,35.990424449013084],[136.46450906153896,35.99038375343655],[136.46429233604132,35.989597414876414],[136.46408047901394,35.989631835172936]]]}},{"type":"Feature","properties":{"pid":"6fb22815-05b5-4677-aa7b-2c31b576b61e"},"geometry":{"type":"Polygon","coordinates":[[[136.4637541560529,35.98968287551373],[136.46395558689318,35.99047278334767],[136.46415111412753,35.99044257380187],[136.46395057605835,35.98965115933204],[136.4637541560529,35.98968287551373]]]}},{"type":"Feature","properties":{"pid":"e5750c98-080f-425c-a496-14b0c238163b"},"geometry":{"type":"Polygon","coordinates":[[[136.46343123921295,35.98973881089848],[136.46363278806345,35.99053044823307],[136.46382688582068,35.9904983356893],[136.46362803501322,35.98970478346731],[136.46343123921295,35.98973881089848]]]}},{"type":"Feature","properties":{"pid":"cedc4d01-2c67-499f-a563-3079e8cb38e9"},"geometry":{"type":"Polygon","coordinates":[[[136.4627776844988,35.98984431307407],[136.46298087372878,35.99063628902759],[136.46316642889244,35.9906064264327],[136.46297880516258,35.98981272880998],[136.4627776844988,35.98984431307407]]]}},{"type":"Feature","properties":{"pid":"babc6550-8fc9-47f1-99f7-ecb810a97cac"},"geometry":{"type":"Polygon","coordinates":[[[136.46311472480167,35.98978624385227],[136.46330624273173,35.99058118590527],[136.46350378799247,35.990550226923006],[136.46329937688705,35.9897588507966],[136.46311472480167,35.98978624385227]]]}},{"type":"Feature","properties":{"pid":"b48e9d0c-3bec-4a96-a7d6-23ae4e3c08c8"},"geometry":{"type":"Polygon","coordinates":[[[136.46245353429435,35.989887103238004],[136.462662261476,35.99069568437947],[136.46284791855308,35.99066283353594],[136.46264408953203,35.989857121673744],[136.46245353429435,35.989887103238004]]]}},{"type":"Feature","properties":{"pid":"c69217f5-7f4e-4f59-a4dc-34d8d429b31e"},"geometry":{"type":"Polygon","coordinates":[[[136.46175750393277,35.98950055257664],[136.46187692905536,35.98950102639071],[136.46186555492167,35.989095815007246],[136.46177333387314,35.98911342785933],[136.46175750393277,35.98950055257664]]]}},{"type":"Feature","properties":{"pid":"506554c8-9350-4e9a-8a49-f90b5c184d35"},"geometry":{"type":"Polygon","coordinates":[[[136.46152231237352,35.98949736020739],[136.46160741442674,35.98949778482943],[136.4616304624704,35.989121196729656],[136.46155052845486,35.989113035969964],[136.46152231237352,35.98949736020739]]]}},{"type":"Feature","properties":{"pid":"5552f1d0-a456-41f0-b832-e7ac87aa1e98"},"geometry":{"type":"Polygon","coordinates":[[[136.46225457347407,35.989103784822056],[136.46237664291345,35.98955780569823],[136.46256682814166,35.98953045739913],[136.46246685243577,35.989119696264716],[136.46225457347407,35.989103784822056]]]}},{"type":"Feature","properties":{"pid":"973862dd-5c94-4f61-a2af-c01479703883"},"geometry":{"type":"Polygon","coordinates":[[[136.4626068255179,35.98913804293302],[136.462699657239,35.989510534114444],[136.46289533511265,35.989481319028855],[136.46281985644697,35.98916851111853],[136.4626068255179,35.98913804293302]]]}},{"type":"Feature","properties":{"pid":"3f43071d-7818-4c0a-a1bb-87c310186943"},"geometry":{"type":"Polygon","coordinates":[[[136.4629532731993,35.98915489212006],[136.4630231527916,35.98946127618416],[136.4632213855603,35.98942989323345],[136.46315793158456,35.98915706854207],[136.4629532731993,35.98915489212006]]]}},{"type":"Feature","properties":{"pid":"b7774b7e-5ecf-4f43-9910-53e3719714d8"},"geometry":{"type":"Polygon","coordinates":[[[136.46366646373554,35.989296049823984],[136.46367921137005,35.989352231474456],[136.46386944800187,35.98931979101585],[136.46375918326416,35.98931147633778],[136.46366646373554,35.989296049823984]]]}},{"type":"Feature","properties":{"pid":"8055bc92-cd07-458b-b4a4-20d31b1e9fd5"},"geometry":{"type":"Polygon","coordinates":[[[136.46329554693597,35.98917395468065],[136.46335360756814,35.98940993460241],[136.4635462354698,35.98937826356644],[136.46350912657087,35.98923879535611],[136.46329554693597,35.98917395468065]]]}},{"type":"Feature","properties":{"pid":"c75e25ae-6b3a-40c8-88b1-c7d580a8f92f"},"geometry":{"type":"Polygon","coordinates":[[[136.4629379506345,35.987808970314894],[136.46296644862477,35.988877235018556],[136.46338591540513,35.988927630740854],[136.46373491464865,35.98901640601628],[136.46369171093463,35.98776991025975],[136.46325242505844,35.987777137592325],[136.4629379506345,35.987808970314894]]]}},{"type":"Feature","properties":{"pid":"dea288b5-46c0-41c6-a3d8-da0312d2cb4e"},"geometry":{"type":"Polygon","coordinates":[[[136.46200685013636,35.98813002784299],[136.46208462133973,35.988822106556384],[136.46247272553168,35.98885360998389],[136.46265022568892,35.9888847974241],[136.46280035952455,35.98888197938902],[136.4627705680552,35.98781803331737],[136.462734923486,35.98779457189577],[136.4620086007566,35.987823210253275],[136.4620256110085,35.988098382998366],[136.46200685013636,35.98813002784299]]]}},{"type":"Feature","properties":{"pid":"4c5359b6-266c-4daa-baad-03ebfa0f2ba8"},"geometry":{"type":"Polygon","coordinates":[[[136.4616250957964,35.98887621464591],[136.46175662676248,35.98887126852452],[136.46182233724872,35.98884126505482],[136.46178014383838,35.98835218050221],[136.46164967287527,35.988358114866294],[136.4616250957964,35.98887621464591]]]}},{"type":"Feature","properties":{"pid":"5df83723-3c74-4c53-8e17-b08066a2a952"},"geometry":{"type":"Polygon","coordinates":[[[136.46141816970348,35.98836077456863],[136.46140007308364,35.988871325386995],[136.46149984584292,35.9888762474936],[136.46152022443064,35.98836113638956],[136.46141816970348,35.98836077456863]]]}},{"type":"Feature","properties":{"pid":"f466177e-f279-4c83-80f5-e1e9ecc34dd4"},"geometry":{"type":"Polygon","coordinates":[[[136.46158364473038,35.98823327085062],[136.46178832301254,35.98823248358116],[136.46178704679215,35.9881727617274],[136.4615834502658,35.98819986454038],[136.46158364473038,35.98823327085062]]]}},{"type":"Feature","properties":{"pid":"8d56b97b-5eaa-4908-a3a7-619a841bc872"},"geometry":{"type":"Polygon","coordinates":[[[136.4609886186175,35.98821088405281],[136.46111234797954,35.988212172730876],[136.46110943449509,35.9879146213814],[136.46109617823228,35.98790807465335],[136.46099827678077,35.98790943795822],[136.4609886186175,35.98821088405281]]]}},{"type":"Feature","properties":{"pid":"c7cf1e05-4bce-4964-9f31-861629b6fc37"},"geometry":{"type":"Polygon","coordinates":[[[136.46118922821228,35.988353802551195],[136.46118493537534,35.9888593007284],[136.4612074801096,35.98885992714177],[136.46122312984824,35.98835345386943],[136.46118922821228,35.988353802551195]]]}},{"type":"Feature","properties":{"pid":"44eac729-d1e1-4ba4-a1ce-b7de016e6bfe"},"geometry":{"type":"Polygon","coordinates":[[[136.46097924376798,35.98834130410861],[136.46097465574636,35.988837969050095],[136.46105004738138,35.98884876322461],[136.46106406148593,35.98834267271878],[136.46097924376798,35.98834130410861]]]}},{"type":"Feature","properties":{"pid":"000b53fe-d75f-4f6c-8a7e-cbbce56249d6"},"geometry":{"type":"Polygon","coordinates":[[[136.46075656811328,35.98834444770316],[136.46073110120255,35.98875718508764],[136.4608262334091,35.98879461810139],[136.46084036492402,35.988345949369766],[136.46075656811328,35.98834444770316]]]}},{"type":"Feature","properties":{"pid":"a79ff5cb-5b8b-4a9a-9774-0f54a20c07fb"},"geometry":{"type":"Polygon","coordinates":[[[136.46051918588464,35.988342777785505],[136.46049091846436,35.98863673912029],[136.46054848101872,35.9886849595662],[136.46061253303805,35.988709114002724],[136.46063059383027,35.988346502811176],[136.46051918588464,35.988342777785505]]]}},{"type":"Feature","properties":{"pid":"393158b8-3fb7-43bb-b1de-e23d91eaaa76"},"geometry":{"type":"Polygon","coordinates":[[[136.4600665011915,35.988445751186916],[136.4603055349094,35.98847698123781],[136.46031368322645,35.98832561955532],[136.46008703990816,35.98828296005862],[136.4600665011915,35.988445751186916]]]}},{"type":"Feature","properties":{"pid":"ac12c184-7531-4233-9caf-3dbfa0aabbae"},"geometry":{"type":"Polygon","coordinates":[[[136.46053339839116,35.988199807853114],[136.46084510314486,35.98820311454424],[136.4608529816447,35.987907832094194],[136.46055934138684,35.98790101550383],[136.46053339839116,35.988199807853114]]]}},{"type":"Feature","properties":{"pid":"19518c22-0f67-4152-998c-6689f96151e8"},"geometry":{"type":"Polygon","coordinates":[[[136.4599429478485,35.988420098240994],[136.45996123031205,35.9882629938495],[136.45994534909,35.98826083945798],[136.4599381898499,35.98832895891563],[136.45991954411457,35.98835636667902],[136.45988267500516,35.988372729827866],[136.45982183377936,35.98836566577467],[136.4598112916746,35.98838672021353],[136.4599429478485,35.988420098240994]]]}},{"type":"Feature","properties":{"pid":"6cc84d7f-8934-4427-a8bb-710ca232db7a"},"geometry":{"type":"Polygon","coordinates":[[[136.45950156545814,35.98798728728074],[136.45947620261362,35.988046707475476],[136.45953097252087,35.98808538259457],[136.4596251804104,35.98810714725867],[136.45964495492063,35.988047870960706],[136.45953144359206,35.988028834154484],[136.45950156545814,35.98798728728074]]]}},{"type":"Feature","properties":{"pid":"18758724-8fb1-45e2-bfec-f2c133e6d745"},"geometry":{"type":"Polygon","coordinates":[[[136.45907024118847,35.98831126960154],[136.45907300082922,35.98835249121112],[136.459138362958,35.988443090920654],[136.45917441120383,35.988442952804306],[136.45917402417902,35.98837622633274],[136.45907024118847,35.98831126960154]]]}},{"type":"Feature","properties":{"pid":"e3a4cf38-0ba6-43bc-adac-a9f5926ffd7a"},"geometry":{"type":"Polygon","coordinates":[[[136.45952722335605,35.988778294840046],[136.4595241658751,35.98846427573612],[136.45950391615054,35.98845679193413],[136.45935341111857,35.98850058954555],[136.45936135495285,35.988637087817175],[136.45941589293187,35.98877492322572],[136.45952722335605,35.988778294840046]]]}},{"type":"Feature","properties":{"pid":"5a3c1ad8-377c-4fa5-abbc-9cf1e2211be6"},"geometry":{"type":"Polygon","coordinates":[[[136.45973637742009,35.98881183750471],[136.45974114821738,35.988754395199585],[136.45974529332545,35.98866103630775],[136.45964653534386,35.98873023707755],[136.45965894884569,35.98881325854188],[136.45973637742009,35.98881183750471]]]}},{"type":"Feature","properties":{"pid":"3dd79afd-e251-44cf-a56e-6dcf7bf3b9cc"},"geometry":{"type":"Polygon","coordinates":[[[136.45987438688977,35.98900145828365],[136.460282724047,35.98901037504488],[136.4602965537765,35.98898466777372],[136.46029559559378,35.98886040132834],[136.4601535393173,35.9888422884766],[136.4600850910861,35.98881518689206],[136.4599916096613,35.9887685204042],[136.45987948676992,35.988678678989906],[136.45987438688977,35.98900145828365]]]}},{"type":"Feature","properties":{"pid":"906268ab-2c04-404d-9da6-3f8249928566"},"geometry":{"type":"Polygon","coordinates":[[[136.46051149941994,35.9888960804653],[136.46051750538356,35.98910607145427],[136.4606570426791,35.98912893179727],[136.46068689183255,35.98910857003979],[136.46074932085668,35.989104378808044],[136.46074946214665,35.989008223877775],[136.46051149941994,35.9888960804653]]]}},{"type":"Feature","properties":{"pid":"7f6ad1a9-49a0-45ca-a7d3-eeec4f694804"},"geometry":{"type":"Polygon","coordinates":[[[136.4608533543086,35.98947871137055],[136.46094353314598,35.989478813746665],[136.4609768088229,35.989052485939204],[136.46088139445354,35.98903274503004],[136.4608533543086,35.98947871137055]]]}},{"type":"Feature","properties":{"pid":"b30c6288-2f21-4796-860f-0e1d04ca73ae"},"geometry":{"type":"Polygon","coordinates":[[[136.46130130381422,35.98948963054511],[136.46138499336286,35.98949274320679],[136.46141005614277,35.9890972778037],[136.46132402802013,35.9890947839116],[136.46130130381422,35.98948963054511]]]}},{"type":"Feature","properties":{"pid":"7c458cf7-641b-44dc-9a7e-b0e0420a496a"},"geometry":{"type":"Polygon","coordinates":[[[136.4610771519918,35.989635366197795],[136.46106980098793,35.98974938505192],[136.46115759208485,35.98973491327323],[136.4611670844377,35.98963576668083],[136.4610771519918,35.989635366197795]]]}},{"type":"Feature","properties":{"pid":"628fef39-14b8-4d90-b02a-72fe421be968"},"geometry":{"type":"Polygon","coordinates":[[[136.46129558914774,35.989644749470365],[136.46129354300146,35.9897185390531],[136.4613898488868,35.98969958937016],[136.46139881516322,35.98964679596568],[136.46129558914774,35.989644749470365]]]}},{"type":"Feature","properties":{"pid":"3848f096-eed4-4dba-8223-0bdc74137431"},"geometry":{"type":"Polygon","coordinates":[[[136.46083811029368,35.989782571068396],[136.4609334389504,35.989771706545746],[136.46095181897778,35.98963224004206],[136.46084655229885,35.98964035504868],[136.46083811029368,35.989782571068396]]]}},{"type":"Feature","properties":{"pid":"4c274c48-e938-40da-9137-4ca66a61326e"},"geometry":{"type":"Polygon","coordinates":[[[136.46056758876708,35.98981584010198],[136.46063449247015,35.98980851775086],[136.46063832682665,35.98962280445028],[136.46056889441144,35.98962221216439],[136.46056758876708,35.98981584010198]]]}},{"type":"Feature","properties":{"pid":"d511a67e-d377-4301-9a45-22cadf9a0089"},"geometry":{"type":"Polygon","coordinates":[[[136.46058716178453,35.99020862664947],[136.46082401805364,35.99023650184652],[136.4608299105664,35.990174885981595],[136.46060147868806,35.990145655170664],[136.46058716178453,35.99020862664947]]]}},{"type":"Feature","properties":{"pid":"d7c850f9-c66a-481f-bd00-7444a0fadcf0"},"geometry":{"type":"Polygon","coordinates":[[[136.4585855804616,35.98774539613103],[136.45871645348333,35.98769932775216],[136.45864065390163,35.98762401334365],[136.4585638199147,35.98770602689509],[136.4585855804616,35.98774539613103]]]}},{"type":"Feature","properties":{"pid":"d847a36e-2765-4ef3-acc2-550dfc262dff"},"geometry":{"type":"Polygon","coordinates":[[[136.4612348427621,35.98651056074438],[136.4613899732914,35.98646648185014],[136.4613799077668,35.9864185196349],[136.46130892122616,35.98639309371315],[136.46120362939737,35.986408640280764],[136.4612348427621,35.98651056074438]]]}},{"type":"Feature","properties":{"pid":"3ecfea02-a0f2-41ab-9a1b-01755cfd5872"},"geometry":{"type":"Polygon","coordinates":[[[136.46091645075032,35.98332193409316],[136.4611422969875,35.98333375076604],[136.46113893464485,35.983210177136385],[136.46110618986086,35.98308538974086],[136.46099163597992,35.98312933294384],[136.46091645075032,35.98332193409316]]]}},{"type":"Feature","properties":{"pid":"e04508b4-5cb8-40a1-990b-4095447c5ac1"},"geometry":{"type":"Polygon","coordinates":[[[136.46059137199856,35.983684305052016],[136.46073503226592,35.98365634703326],[136.46069834206264,35.98356789830802],[136.46072159922824,35.98344076114525],[136.46066714813972,35.98342749618531],[136.46061482899734,35.9834440191929],[136.46059137199856,35.983684305052016]]]}},{"type":"Feature","properties":{"pid":"eadc58fe-0992-4707-a23c-0733cea7e6c0"},"geometry":{"type":"Polygon","coordinates":[[[136.46095327244782,35.983489366390344],[136.46094117157654,35.983571166993585],[136.46102138665756,35.983735408502085],[136.4615287334815,35.98368161772368],[136.46131754518825,35.98358933569103],[136.46124777614958,35.983517813147415],[136.46095327244782,35.983489366390344]]]}},{"type":"Feature","properties":{"pid":"7b91ad11-ea6b-4629-86b1-e1ac085f2933"},"geometry":{"type":"Polygon","coordinates":[[[136.4610858505445,35.98385132378682],[136.4612435199747,35.98413601728143],[136.46126472250026,35.98414345959752],[136.46197675370945,35.984061995249775],[136.46197825497063,35.98386372995246],[136.46178109270937,35.983793550460824],[136.4610858505445,35.98385132378682]]]}},{"type":"Feature","properties":{"pid":"d7a028af-db77-406d-ab78-2c6e39391408"},"geometry":{"type":"Polygon","coordinates":[[[136.46132586672374,35.984258666069486],[136.46146630535284,35.984457992131034],[136.46161332733297,35.98442103181179],[136.4622180374543,35.98436326932669],[136.46222344422483,35.98425532109608],[136.4620363684956,35.9842539380087],[136.4619982948998,35.9842248777385],[136.46198955153136,35.98418705000599],[136.46132586672374,35.984258666069486]]]}},{"type":"Feature","properties":{"pid":"f98a5395-9481-44d7-9108-78a6fc366fbd"},"geometry":{"type":"Polygon","coordinates":[[[136.46133710344014,35.98328401571761],[136.46135236118565,35.98335012256583],[136.4614852746763,35.983323046798404],[136.4614710376919,35.98326529451168],[136.46133710344014,35.98328401571761]]]}},{"type":"Feature","properties":{"pid":"fd8d46b7-c54c-41f0-bb75-c0970237ff86"},"geometry":{"type":"Polygon","coordinates":[[[136.46149292195463,35.982933578496265],[136.46153228941057,35.9830758046202],[136.46165653891052,35.98304894907981],[136.46166406224913,35.98299724928181],[136.46163197737974,35.982905942278876],[136.46149292195463,35.982933578496265]]]}},{"type":"Feature","properties":{"pid":"69643b86-c49d-4a0e-8ee6-ba08fa140240"},"geometry":{"type":"Polygon","coordinates":[[[136.46236775284834,35.983066317930046],[136.4628816216325,35.98299744357527],[136.46288696193142,35.98285139306231],[136.46287534317668,35.982813403796754],[136.46255289546227,35.982853780920266],[136.46251562287603,35.98281860462826],[136.46252678010842,35.98273092013915],[136.46241031235235,35.98269644689163],[136.46232517713756,35.9828118874934],[136.46236775284834,35.983066317930046]]]}},{"type":"Feature","properties":{"pid":"94e58564-392a-4198-8dd8-48ed1b11b856"},"geometry":{"type":"Polygon","coordinates":[[[136.4623781832308,35.98320452727196],[136.46240295878982,35.9833219106506],[136.46281427180227,35.98327271762282],[136.46285276079158,35.98325521698424],[136.46288117870694,35.98313442206452],[136.4623781832308,35.98320452727196]]]}},{"type":"Feature","properties":{"pid":"c473b578-7846-4479-a045-521db85ed72f"},"geometry":{"type":"Polygon","coordinates":[[[136.46310016845794,35.98314591245318],[136.4634371405488,35.98317566581547],[136.46345535432,35.983075429536356],[136.46311873186835,35.98305425238881],[136.46310016845794,35.98314591245318]]]}},{"type":"Feature","properties":{"pid":"0f2a2195-2810-4675-b355-081e9a1f1514"},"geometry":{"type":"Polygon","coordinates":[[[136.4631274121557,35.9829207980116],[136.46342858797993,35.982951495909795],[136.46343752233054,35.98289675913861],[136.46315570309417,35.98280873892243],[136.4631274121557,35.9829207980116]]]}},{"type":"Feature","properties":{"pid":"bb33bc39-1078-4f54-bf5b-46a84cde916f"},"geometry":{"type":"Polygon","coordinates":[[[136.4635957520815,35.983305765048094],[136.4637966448751,35.983334587035515],[136.4638183898163,35.983365147365795],[136.46381132577835,35.983448870303214],[136.46406722317923,35.983460356867106],[136.46406383922087,35.983064728846976],[136.46364710735662,35.98301922441845],[136.4635957520815,35.983305765048094]]]}},{"type":"Feature","properties":{"pid":"4790e173-e192-491d-b6bc-0a7d79719045"},"geometry":{"type":"Polygon","coordinates":[[[136.46347897317307,35.9836543677758],[136.46360021937568,35.98365805900074],[136.4636379425477,35.9834570041988],[136.4635190494517,35.98344418278978],[136.46347897317307,35.9836543677758]]]}},{"type":"Feature","properties":{"pid":"7e828cb3-9447-4568-a514-40b502c59ead"},"geometry":{"type":"Polygon","coordinates":[[[136.46313137961658,35.98362032953614],[136.46315205082323,35.98365307011076],[136.46328459759616,35.983655371970265],[136.46328242052158,35.983609368942204],[136.46313137961658,35.98362032953614]]]}},{"type":"Feature","properties":{"pid":"23542275-7efc-4145-8e3a-91e664bbe922"},"geometry":{"type":"Polygon","coordinates":[[[136.4630277209951,35.98386692418486],[136.46329303477367,35.983852418243956],[136.4632927978031,35.98381194536003],[136.4630622133719,35.98381740697448],[136.4630277209951,35.98386692418486]]]}},{"type":"Feature","properties":{"pid":"252822be-f861-4cfe-81f8-7d487ec3a7c6"},"geometry":{"type":"Polygon","coordinates":[[[136.46283656563273,35.98415050233985],[136.4629756719859,35.98419522882988],[136.46298272658197,35.98414789792284],[136.46285554231946,35.984101505151386],[136.46283656563273,35.98415050233985]]]}},{"type":"Feature","properties":{"pid":"512cca5c-f799-43c4-a4db-b82315d7a005"},"geometry":{"type":"Polygon","coordinates":[[[136.46280038882898,35.984563549607124],[136.4633454873766,35.9845446126652],[136.463326360699,35.984035419444886],[136.46314331619755,35.98404552581548],[136.46309167995744,35.98438771313813],[136.4630494236073,35.98441104074017],[136.46281001397134,35.98441558156739],[136.46280038882898,35.984563549607124]]]}},{"type":"Feature","properties":{"pid":"54d04643-07ba-4e3d-a197-f75c46dce1a8"},"geometry":{"type":"Polygon","coordinates":[[[136.46353326789847,35.98457579242855],[136.46474465511625,35.98455133361502],[136.46472028547336,35.98386570964248],[136.46420296934141,35.98387483925433],[136.46422335941352,35.98393995547078],[136.46418230267548,35.983976532902815],[136.46352738947854,35.98401838106203],[136.46353326789847,35.98457579242855]]]}},{"type":"Feature","properties":{"pid":"cef636a1-8276-4ed4-9541-41dc95228c50"},"geometry":{"type":"Polygon","coordinates":[[[136.46501390740679,35.98425734991047],[136.46601770244376,35.98423293648419],[136.46602433185592,35.98412586920916],[136.4649969142162,35.98414581000288],[136.46501390740679,35.98425734991047]]]}},{"type":"Feature","properties":{"pid":"81ae7d4f-de72-4c31-94eb-b451e777f47b"},"geometry":{"type":"Polygon","coordinates":[[[136.46498877491302,35.98391761774948],[136.46499400622974,35.984051056664576],[136.46594919391657,35.984029207538555],[136.4658190801541,35.98386228101382],[136.46498877491302,35.98391761774948]]]}},{"type":"Feature","properties":{"pid":"a3e17228-739c-4308-860d-1bfb8cce7742"},"geometry":{"type":"Polygon","coordinates":[[[136.46510663651767,35.98364090529998],[136.46577224571166,35.98361778908206],[136.4657720025866,35.98357643808716],[136.4655058531655,35.98329582769745],[136.46543213413096,35.98325893603911],[136.46522889682734,35.98322541244501],[136.46519946524893,35.983394806814935],[136.46515128091283,35.983426100410334],[136.4650978709245,35.98342898908292],[136.46510663651767,35.98364090529998]]]}},{"type":"Feature","properties":{"pid":"41d53753-3059-4eec-9807-76b263b71a6a"},"geometry":{"type":"Polygon","coordinates":[[[136.46599221212642,35.98257377395005],[136.46601787576313,35.98307731192912],[136.46623271231465,35.98312607153876],[136.46622343402845,35.982566089543134],[136.46599221212642,35.98257377395005]]]}},{"type":"Feature","properties":{"pid":"eb6c5eeb-585c-46e0-92e8-81f0556d6de5"},"geometry":{"type":"Polygon","coordinates":[[[136.46584637562185,35.98258324287432],[136.46544653065936,35.98260244236621],[136.4654767492209,35.98300007648515],[136.4658650074924,35.9830494535371],[136.46584637562185,35.98258324287432]]]}},{"type":"Feature","properties":{"pid":"bbf2a18a-f7cc-42d9-a863-9ca80280e1b3"},"geometry":{"type":"Polygon","coordinates":[[[136.46490015571212,35.98260577020347],[136.46491943065413,35.982928998872644],[136.4652625002217,35.98297920514461],[136.46523512962963,35.98259243437921],[136.46490015571212,35.98260577020347]]]}},{"type":"Feature","properties":{"pid":"20aa8659-f9fe-4cdc-84c7-0c847d333158"},"geometry":{"type":"Polygon","coordinates":[[[136.464471520651,35.98262456976903],[136.46449558855687,35.98287477855074],[136.46477793353927,35.98291230057632],[136.46476161273532,35.98261076161052],[136.464471520651,35.98262456976903]]]}},{"type":"Feature","properties":{"pid":"6d992d12-949d-4244-bb5b-9a209d612ab6"},"geometry":{"type":"Polygon","coordinates":[[[136.46466292133795,35.98365814046736],[136.46495792616184,35.98365403395973],[136.46494868768673,35.983434371754704],[136.46481909895073,35.98343857716647],[136.46475633554508,35.98341080730371],[136.464745901195,35.98338050117258],[136.46477406992952,35.98310789252378],[136.46467618035257,35.983095276127685],[136.46466292133795,35.98365814046736]]]}},{"type":"Feature","properties":{"pid":"7a87847d-e0a5-4d89-8eb9-2a4731edad06"},"geometry":{"type":"Polygon","coordinates":[[[136.46433119801975,35.98366520863567],[136.46453455715613,35.98366860496764],[136.46454680237093,35.983078994555314],[136.46433114465293,35.98305144821761],[136.46433119801975,35.98366520863567]]]}},{"type":"Feature","properties":{"pid":"50123287-2fdd-48f9-99e4-ba877db174aa"},"geometry":{"type":"Polygon","coordinates":[[[136.464010626292,35.982631210782415],[136.46401253583358,35.98264909855417],[136.46433092927504,35.982640090481695],[136.46432917669063,35.9826198443139],[136.464010626292,35.982631210782415]]]}},{"type":"Feature","properties":{"pid":"f0eabf18-9432-4e71-a849-abe33ac3d454"},"geometry":{"type":"Polygon","coordinates":[[[136.4644180497,35.982073150001725],[136.46444917830067,35.98249135712419],[136.4645228592254,35.982488379239406],[136.46450167822132,35.98206849379469],[136.4644180497,35.982073150001725]]]}},{"type":"Feature","properties":{"pid":"646300db-95ae-41d4-a757-4bfa288f429f"},"geometry":{"type":"Polygon","coordinates":[[[136.46423592351695,35.98249890796072],[136.46431140805137,35.98249735090206],[136.46427965044722,35.9820185913799],[136.46421497767784,35.98201008783649],[136.4641922247364,35.98204002730144],[136.46423592351695,35.98249890796072]]]}},{"type":"Feature","properties":{"pid":"dec952d6-fab9-4469-b45b-61ec16697dd3"},"geometry":{"type":"Polygon","coordinates":[[[136.46398961289418,35.982503862836566],[136.46408174380053,35.982497614867164],[136.46406223457507,35.9821092779498],[136.46397808785636,35.98224104450566],[136.46398961289418,35.982503862836566]]]}},{"type":"Feature","properties":{"pid":"6469d1af-04c2-4184-b621-5e1faee3f7e9"},"geometry":{"type":"Polygon","coordinates":[[[136.46508100744938,35.981982376970194],[136.46510184027093,35.98246999366631],[136.46521050488278,35.98246597707594],[136.46519172021507,35.981980368395945],[136.46508100744938,35.981982376970194]]]}},{"type":"Feature","properties":{"pid":"f6ade398-f237-46c7-b05e-29f36c4f7973"},"geometry":{"type":"Polygon","coordinates":[[[136.46485509837765,35.98199273686883],[136.4648798429659,35.98247806491204],[136.464967854231,35.982473982793344],[136.4649445999664,35.98199397453676],[136.46485509837765,35.98199273686883]]]}},{"type":"Feature","properties":{"pid":"4d7195b2-eeec-4d2c-b9cd-ad5df584ee27"},"geometry":{"type":"Polygon","coordinates":[[[136.4646494128391,35.981998960492675],[136.46467487782618,35.982483135516176],[136.4647528792619,35.9824813544819],[136.46472809673187,35.98199673579652],[136.4646494128391,35.981998960492675]]]}},{"type":"Feature","properties":{"pid":"2cd2c9ac-baf9-42eb-8d22-1fa4a69221d1"},"geometry":{"type":"Polygon","coordinates":[[[136.4659446439054,35.98175380171039],[136.46597572194432,35.98244820787717],[136.46620820620544,35.98243513616678],[136.46617272097802,35.9817481801841],[136.4659446439054,35.98175380171039]]]}},{"type":"Feature","properties":{"pid":"c95ed7b5-4e68-49a5-b503-1808d24ab783"},"geometry":{"type":"Polygon","coordinates":[[[136.4655770229485,35.98176761269145],[136.4656037396017,35.98245460233096],[136.46584310741767,35.98244746326158],[136.4658130895497,35.981758644644415],[136.4655770229485,35.98176761269145]]]}},{"type":"Feature","properties":{"pid":"6bb9df7f-9961-4c23-a3bd-779a364e25e2"},"geometry":{"type":"Polygon","coordinates":[[[136.46543855728635,35.982458133029866],[136.46547529393837,35.9824562998195],[136.46543882272042,35.981766264559724],[136.46541257419196,35.98176814494792],[136.46543855728635,35.982458133029866]]]}},{"type":"Feature","properties":{"pid":"6697abbe-83a2-4372-ae9a-f4f8be174119"},"geometry":{"type":"Polygon","coordinates":[[[136.4654011057617,35.981583370703284],[136.46580316869654,35.9815701374724],[136.4657761080553,35.981088542412785],[136.46560201312607,35.981092653006655],[136.46539350550418,35.981405830786564],[136.4654011057617,35.981583370703284]]]}},{"type":"Feature","properties":{"pid":"2b71b1cd-2500-46ae-a531-f6b1a25dd18b"},"geometry":{"type":"Polygon","coordinates":[[[136.46590508722434,35.981088760011644],[136.46593975526878,35.981567577187235],[136.466157698397,35.98155718948937],[136.46614480575067,35.981080333560605],[136.46590508722434,35.981088760011644]]]}},{"type":"Feature","properties":{"pid":"6d012515-c466-40d9-bfac-14ce59e27759"},"geometry":{"type":"Polygon","coordinates":[[[136.46565862510943,35.98094681920744],[136.4661288028811,35.98092790167091],[136.4661294635925,35.98077530199436],[136.46599690158874,35.98078344307728],[136.46588721016445,35.9808819364426],[136.46567909828693,35.98086856865429],[136.46565862510943,35.98094681920744]]]}},{"type":"Feature","properties":{"pid":"dbb1110f-041f-458c-aa52-f049f419aa07"},"geometry":{"type":"Polygon","coordinates":[[[136.46497774003447,35.98110040925246],[136.46494722888394,35.981150604107285],[136.46525764618357,35.98122121384432],[136.46512464641404,35.98116198295648],[136.46497774003447,35.98110040925246]]]}},{"type":"Feature","properties":{"pid":"c08da28f-8c0f-4ec3-9567-60630f9cade5"},"geometry":{"type":"Polygon","coordinates":[[[136.46507420946975,35.98162419263085],[136.46508237588367,35.98179327718808],[136.46519063674143,35.981789309319964],[136.46518076011446,35.98162001685526],[136.46507420946975,35.98162419263085]]]}},{"type":"Feature","properties":{"pid":"c6ae9ca5-e048-40fd-8840-ace7e4cfe22c"},"geometry":{"type":"Polygon","coordinates":[[[136.4648419843874,35.98137847347186],[136.46485672207692,35.981713241421076],[136.46494815455964,35.98171006755022],[136.46492779596588,35.98135892326051],[136.46486241152348,35.981345598144514],[136.4648419843874,35.98137847347186]]]}},{"type":"Feature","properties":{"pid":"0e4c4e13-d0e2-4dba-9ac1-9b1ece978584"},"geometry":{"type":"Polygon","coordinates":[[[136.46459541251036,35.981722310716506],[136.4647165462914,35.981718106092735],[136.46471171467326,35.981588124093115],[136.46468803063772,35.98162575875946],[136.46459541251036,35.981722310716506]]]}},{"type":"Feature","properties":{"pid":"96e62e78-11bb-4e22-adf6-4ae5744e8f9c"},"geometry":{"type":"Polygon","coordinates":[[[136.46342000103354,35.98222639698843],[136.46351006076648,35.98205091818286],[136.46338145571355,35.98202000611715],[136.46329953091023,35.982020322587246],[136.46325838487732,35.98206535804423],[136.4632642069806,35.98209295066021],[136.46342000103354,35.98222639698843]]]}},{"type":"Feature","properties":{"pid":"4b9bcc44-62c2-4367-91cf-ddb9410aa1e0"},"geometry":{"type":"Polygon","coordinates":[[[136.46361335571643,35.9823570184732],[136.46378239884754,35.98272346186586],[136.4638666210523,35.982744618788296],[136.46389012471062,35.982793610056596],[136.4638848732594,35.982633573799355],[136.46384704251017,35.98262021269273],[136.4638305631107,35.98259377207867],[136.46382008124638,35.98237574282943],[136.4637369138611,35.98238938514526],[136.46361335571643,35.9823570184732]]]}},{"type":"Feature","properties":{"pid":"d2a68e0b-a6f6-4572-849a-f60f590f931a"},"geometry":{"type":"Polygon","coordinates":[[[136.4631355888359,35.98229583528937],[136.46318003003483,35.98241880587981],[136.46338141896575,35.98246446501372],[136.4633606133535,35.98241766082687],[136.46320949331323,35.9823501630172],[136.4631695893354,35.982293890574866],[136.4631355888359,35.98229583528937]]]}},{"type":"Feature","properties":{"pid":"3c730097-98f6-41dd-97a6-bd9296245744"},"geometry":{"type":"Polygon","coordinates":[[[136.46286162580793,35.982433517151215],[136.4630417398692,35.98242317334337],[136.4630121844351,35.982317906176306],[136.4629949723764,35.98231130837976],[136.46291375978453,35.98236763501182],[136.46286162580793,35.982433517151215]]]}},{"type":"Feature","properties":{"pid":"e638b6d3-9466-4a15-bb88-2b5508d88f6b"},"geometry":{"type":"Polygon","coordinates":[[[136.4620621685989,35.98217852292716],[136.46207167580772,35.98223875508357],[136.46225643259297,35.982308373261446],[136.46227295322126,35.98224545892942],[136.46213026152785,35.98210088903363],[136.4620621685989,35.98217852292716]]]}},{"type":"Feature","properties":{"pid":"58e96447-c069-4d0f-b6e6-095b7a4b5170"},"geometry":{"type":"Polygon","coordinates":[[[136.4618264064272,35.98203912219295],[136.4619014699519,35.98212905270609],[136.46201503636036,35.98201363895955],[136.46191915853,35.981921514040486],[136.4618264064272,35.98203912219295]]]}},{"type":"Feature","properties":{"pid":"216d2d0b-91c3-4b55-8063-7c91c219ac83"},"geometry":{"type":"Polygon","coordinates":[[[136.46149550575612,35.98171575568537],[136.46154558813657,35.98185952587301],[136.46176564015707,35.98179209189726],[136.4615259087341,35.98170106299507],[136.46149550575612,35.98171575568537]]]}},{"type":"Feature","properties":{"pid":"59273b1c-6c2e-4882-bd7b-f6e5a8d86958"},"geometry":{"type":"Polygon","coordinates":[[[136.46531132294112,35.98069187966156],[136.465375807101,35.980706219014095],[136.46541581174387,35.98068539941737],[136.46550341878998,35.98069588496511],[136.46551208861914,35.98065457528599],[136.46540564218498,35.98063902280506],[136.46531132294112,35.98069187966156]]]}},{"type":"Feature","properties":{"pid":"a1bed281-fb26-46f8-a903-21c8e5a0a46c"},"geometry":{"type":"Polygon","coordinates":[[[136.46631674982112,35.98051961577701],[136.46632389247824,35.98066238871],[136.46646618209454,35.980658365655366],[136.4664623208784,35.98051158073862],[136.46631674982112,35.98051961577701]]]}},{"type":"Feature","properties":{"pid":"0c82b60d-b981-49b7-833e-36e62869593b"},"geometry":{"type":"Polygon","coordinates":[[[136.46598130965526,35.97988501995299],[136.4660069523257,35.98032584672326],[136.4661058779523,35.980317641567765],[136.46608947289124,35.97987812443901],[136.46598130965526,35.97988501995299]]]}},{"type":"Feature","properties":{"pid":"b037d7ee-3b10-412d-9aea-4e18582e6ee1"},"geometry":{"type":"Polygon","coordinates":[[[136.46573071987805,35.97989298878479],[136.46578873828435,35.98004039389388],[136.46584186895478,35.98003934120115],[136.46583177409872,35.979886740896184],[136.46573071987805,35.97989298878479]]]}},{"type":"Feature","properties":{"pid":"2fa11571-30fc-413d-9581-b8fb6b9097cf"},"geometry":{"type":"Polygon","coordinates":[[[136.4657609531546,35.980190797625525],[136.4657939226601,35.98021280339875],[136.46584477995438,35.9803127178999],[136.46583602442362,35.98014855716357],[136.46578716259597,35.98014643397575],[136.4657609531546,35.980190797625525]]]}},{"type":"Feature","properties":{"pid":"c2ffc63d-c095-4b70-8fb9-f8c794247581"},"geometry":{"type":"Polygon","coordinates":[[[136.46543935649044,35.980284314528646],[136.46555681209188,35.98034680638305],[136.46557764282292,35.98032527844356],[136.46551032521242,35.98022202541785],[136.46543935649044,35.980284314528646]]]}},{"type":"Feature","properties":{"pid":"a3e56e21-889f-44af-8d44-ccee8aace816"},"geometry":{"type":"Polygon","coordinates":[[[136.46580978065435,35.97973528919427],[136.4660689943175,35.979717147238645],[136.4660610254654,35.979350646014424],[136.46597774992694,35.979488057433265],[136.46594428452826,35.97950932011856],[136.46580978065435,35.97973528919427]]]}},{"type":"Feature","properties":{"pid":"c6fa816c-53ab-4099-a578-88a1b7dbb36c"},"geometry":{"type":"Polygon","coordinates":[[[136.4661683252486,35.97870255922936],[136.46619207126062,35.978759646687784],[136.46617527113764,35.97883516028071],[136.46625554091924,35.9788553949362],[136.46632220918232,35.97872927572088],[136.4661683252486,35.97870255922936]]]}}]}