{"type":"FeatureCollection","features":[{"type":"Feature","properties":{"pid":"3d3035ee-8220-49cc-a4b5-82ffe390aa40"},"geometry":{"type":"Polygon","coordinates":[[[135.64886792843777,35.47737718504738],[135.64834377301133,35.47749620566774],[135.64836740427867,35.47755660896898],[135.64889114660582,35.477438295617745],[135.64886792843777,35.47737718504738]]]}},{"type":"Feature","properties":{"pid":"a2357306-7554-45e4-8030-c394ccca92c9"},"geometry":{"type":"Polygon","coordinates":[[[135.64811019369716,35.47684483956851],[135.64817397602178,35.477025524026566],[135.64882512391097,35.47688907330015],[135.6487722487637,35.4767537293766],[135.64855512137464,35.47691621265416],[135.64842303392575,35.47694995023366],[135.64831590060035,35.47693916756889],[135.64811019369716,35.47684483956851]]]}},{"type":"Feature","properties":{"pid":"2e6c8175-1de7-450c-bbb1-b33c407fda5c"},"geometry":{"type":"MultiPolygon","coordinates":[[[[135.6492441107738,35.477402052954325],[135.64946236457496,35.47734933443841],[135.64918612408212,35.47724123830748],[135.6492441107738,35.477402052954325]]],[[[135.6495705316659,35.47732320684806],[135.6498170196637,35.47726366763641],[135.6498236818624,35.477183365283565],[135.64962731552592,35.477272206161864],[135.6495705316659,35.47732320684806]]]]}},{"type":"Feature","properties":{"pid":"35e604b0-3bbc-4efc-a410-611fc768cbe4"},"geometry":{"type":"Polygon","coordinates":[[[135.64949362245935,35.477482844141306],[135.6498419765708,35.47741265422224],[135.64983634330633,35.47737906953476],[135.64948899169627,35.47746976807972],[135.64949362245935,35.477482844141306]]]}},{"type":"Feature","properties":{"pid":"e49e43bb-0a2a-46b2-b291-ef0119941351"},"geometry":{"type":"Polygon","coordinates":[[[135.64959769145054,35.47487116462502],[135.64974460073557,35.474863495685284],[135.64975266964234,35.47478633711585],[135.64968855029545,35.474820626784265],[135.64959769145054,35.47487116462502]]]}},{"type":"Feature","properties":{"pid":"8abbe707-4b56-46c4-b391-5fa096e8617b"},"geometry":{"type":"Polygon","coordinates":[[[135.64281956405014,35.476685302932566],[135.64284960467648,35.476964325018805],[135.6429321201986,35.47694860214171],[135.64290494225276,35.47670670288624],[135.64281956405014,35.476685302932566]]]}},{"type":"Feature","properties":{"pid":"f29bc07b-082d-4393-9d92-63bd85bf0d4f"},"geometry":{"type":"Polygon","coordinates":[[[135.6430564578646,35.476939418035805],[135.64322838293333,35.47695258862488],[135.64327908248148,35.47697948822077],[135.64318142219943,35.47683945840023],[135.64317144362866,35.47677563467091],[135.6430319308429,35.476732441542545],[135.6430564578646,35.476939418035805]]]}},{"type":"Feature","properties":{"pid":"5de04d93-db76-465f-82af-8f84161bf587"},"geometry":{"type":"Polygon","coordinates":[[[135.64628625753832,35.477368516340945],[135.64657240306136,35.477514548202734],[135.6467497298691,35.47730310420571],[135.6467063730073,35.47730189612384],[135.64650676510968,35.47735526868094],[135.64637058809308,35.47735261959449],[135.64628625753832,35.477368516340945]]]}},{"type":"Feature","properties":{"pid":"85749390-84c6-480e-9a52-033e78365d6a"},"geometry":{"type":"Polygon","coordinates":[[[135.64695631840274,35.4760752333134],[135.64732549173695,35.47598741736629],[135.6471970591328,35.47592393153246],[135.64712668280805,35.4759265680894],[135.64705940827625,35.47596198799943],[135.6470133037171,35.47603524925628],[135.64695631840274,35.4760752333134]]]}},{"type":"Feature","properties":{"pid":"4c0f259f-0831-4051-8020-3b8225d46963"},"geometry":{"type":"Polygon","coordinates":[[[135.64702542627896,35.47644972431435],[135.647062471093,35.47651048702318],[135.64765858203103,35.4763792735117],[135.64761031266707,35.476313653995206],[135.64702542627896,35.47644972431435]]]}},{"type":"Feature","properties":{"pid":"5e3deacf-6e62-4035-8a98-91a039f114ca"},"geometry":{"type":"Polygon","coordinates":[[[135.64717649666935,35.47667198823959],[135.64776891217787,35.47653517098747],[135.64773012295495,35.47646691130261],[135.64713375568112,35.47660009031499],[135.64717649666935,35.47667198823959]]]}},{"type":"Feature","properties":{"pid":"c2415f70-0dbe-4110-b122-43928360881f"},"geometry":{"type":"Polygon","coordinates":[[[135.64720472340636,35.476851473278494],[135.64783307176086,35.47670830266492],[135.64780747759593,35.47663958839896],[135.6472115629792,35.4767826166119],[135.64720472340636,35.476851473278494]]]}},{"type":"Feature","properties":{"pid":"ca6408a1-713e-418d-abec-d82fb480ee8a"},"geometry":{"type":"Polygon","coordinates":[[[135.64718498713395,35.47744320919848],[135.64799667235067,35.47724970031503],[135.64797202632425,35.47718324341588],[135.64715414887962,35.477364142031746],[135.64718498713395,35.47744320919848]]]}},{"type":"Feature","properties":{"pid":"92a96151-486b-4b8d-a2e2-06e61f0b2015"},"geometry":{"type":"Polygon","coordinates":[[[135.6471747577264,35.47705713261765],[135.64788504260207,35.47690467475387],[135.6478581039049,35.476819724786125],[135.64720524645242,35.47696478506648],[135.6471747577264,35.47705713261765]]]}},{"type":"Feature","properties":{"pid":"7ec8406a-8900-4c3f-b002-7535e878aa60"},"geometry":{"type":"Polygon","coordinates":[[[135.6466851768224,35.4775607388618],[135.64703147940594,35.47747720805852],[135.64696850240148,35.47729209587203],[135.64690871914343,35.47730268365732],[135.6466851768224,35.4775607388618]]]}},{"type":"Feature","properties":{"pid":"1ee909ee-9c73-44b2-83f2-19fe6b178508"},"geometry":{"type":"Polygon","coordinates":[[[135.64675131712124,35.477690254289804],[135.64707594093636,35.477620239128186],[135.64706212931878,35.47758376337282],[135.64673612239045,35.47765881325611],[135.64675131712124,35.477690254289804]]]}},{"type":"Feature","properties":{"pid":"f2ae196b-1933-46b7-9a0b-e93220021f23"},"geometry":{"type":"Polygon","coordinates":[[[135.64725342224008,35.47761834146393],[135.6480586808002,35.47742640658336],[135.64802817270098,35.477351001328024],[135.64722350009194,35.47754157665873],[135.64725342224008,35.47761834146393]]]}},{"type":"Feature","properties":{"pid":"216be74d-b5ef-4dee-812d-68535dc9c182"},"geometry":{"type":"Polygon","coordinates":[[[135.64731172705663,35.47778830981981],[135.6481344064906,35.477602040574354],[135.64809954327575,35.47752198695029],[135.64728914250895,35.477717519069984],[135.64731172705663,35.47778830981981]]]}},{"type":"Feature","properties":{"pid":"254dbdcf-216b-45cc-b1d1-ae3b2dcc8e28"},"geometry":{"type":"Polygon","coordinates":[[[135.64736026897035,35.477924415358665],[135.6481863201741,35.47772979968815],[135.6481759329426,35.47770301150652],[135.64734681747785,35.47789003299212],[135.64736026897035,35.477924415358665]]]}},{"type":"Feature","properties":{"pid":"d3694a82-1239-466f-81d6-c8fc75034b2f"},"geometry":{"type":"Polygon","coordinates":[[[135.64678605941634,35.477921486870045],[135.6471531171643,35.47783980010306],[135.6471109831135,35.47771224865719],[135.64677084440774,35.47778553782259],[135.64678605941634,35.477921486870045]]]}},{"type":"Feature","properties":{"pid":"42e3d3b3-d95c-4234-9811-65ac6e4c2e28"},"geometry":{"type":"Polygon","coordinates":[[[135.63788659510047,35.47820749196307],[135.6379049868504,35.47829414814098],[135.63834973521384,35.478150301848395],[135.63837123267743,35.478089203845386],[135.63835514247535,35.47800391926475],[135.63788659510047,35.47820749196307]]]}},{"type":"Feature","properties":{"pid":"cdc77dc1-4b86-49d6-9d27-1cc8dfc2a45d"},"geometry":{"type":"Polygon","coordinates":[[[135.6376707915611,35.4775625038038],[135.6377564018226,35.47792901349703],[135.63791759196982,35.47785312262188],[135.63788292685044,35.4775314586967],[135.6376707915611,35.4775625038038]]]}},{"type":"Feature","properties":{"pid":"3cdf6ee3-332e-4d1e-8302-def65874f613"},"geometry":{"type":"Polygon","coordinates":[[[135.63810387472367,35.47782208000645],[135.6383106680882,35.47773409768901],[135.63829203410023,35.477599303685786],[135.63808437979202,35.477629467088754],[135.63810387472367,35.47782208000645]]]}},{"type":"Feature","properties":{"pid":"20407dc3-e249-479b-a5e4-c34d02e74264"},"geometry":{"type":"Polygon","coordinates":[[[135.63803534897394,35.47736895555633],[135.63889045964504,35.47722962609777],[135.63886117954993,35.477164748495106],[135.63802998354478,35.47729186846472],[135.63803534897394,35.47736895555633]]]}},{"type":"Feature","properties":{"pid":"7382e20a-8b03-42f6-8d64-b75732783867"},"geometry":{"type":"Polygon","coordinates":[[[135.63794447576862,35.47692354925168],[135.63801410008972,35.47719549820652],[135.6388220460234,35.47706563669488],[135.63870682611758,35.476807793078414],[135.63794447576862,35.47692354925168]]]}},{"type":"Feature","properties":{"pid":"d578ddad-e646-49b2-a060-2ffcf6780aa4"},"geometry":{"type":"Polygon","coordinates":[[[135.63774349042325,35.47606495396211],[135.63776044899828,35.47613243830499],[135.63844294356502,35.47602711716895],[135.63844751206702,35.475988883960476],[135.63774349042325,35.47606495396211]]]}},{"type":"Feature","properties":{"pid":"b8806895-e993-4bb4-bdf8-38e407456f7e"},"geometry":{"type":"Polygon","coordinates":[[[135.6378221983028,35.476339342686934],[135.63785998934924,35.47650000661605],[135.6383997485611,35.47641551137109],[135.63842457847707,35.47624888024111],[135.6378221983028,35.476339342686934]]]}},{"type":"Feature","properties":{"pid":"fa60b6f8-c22b-44be-9371-c32cbafe1452"},"geometry":{"type":"Polygon","coordinates":[[[135.63923447591444,35.47648047505961],[135.63928038227522,35.4767956733772],[135.6393287861836,35.476785871438366],[135.63928944801785,35.47647465755018],[135.63923447591444,35.47648047505961]]]}},{"type":"Feature","properties":{"pid":"5f16910e-02e5-4b8e-9437-000e6350cb63"},"geometry":{"type":"Polygon","coordinates":[[[135.63889797563175,35.47629273990977],[135.63888778417288,35.476397295139236],[135.63908927640637,35.47638351603496],[135.63909176598753,35.47628886875393],[135.63889797563175,35.47629273990977]]]}},{"type":"Feature","properties":{"pid":"6147acda-579c-40dd-af7e-b7c213993341"},"geometry":{"type":"Polygon","coordinates":[[[135.63922035238687,35.4763693833634],[135.63928659883626,35.47636492125063],[135.63927368477562,35.47624826912179],[135.6392298523814,35.476248480386516],[135.63922035238687,35.4763693833634]]]}},{"type":"Feature","properties":{"pid":"02aaa133-a5f1-4c1f-820f-3d14bf047637"},"geometry":{"type":"Polygon","coordinates":[[[135.63944947783367,35.476167933660044],[135.63947151896642,35.4763593504308],[135.6397218532842,35.4762950084516],[135.63966539600887,35.47614688796739],[135.6396455939141,35.4761346869448],[135.63944947783367,35.476167933660044]]]}},{"type":"Feature","properties":{"pid":"ff503bde-fbaa-4565-a287-6d11d87f15b6"},"geometry":{"type":"Polygon","coordinates":[[[135.63952498183775,35.476461059073245],[135.63953285259467,35.476511870281065],[135.6401995745552,35.47632531155772],[135.64018585490092,35.476292513672604],[135.63952498183775,35.476461059073245]]]}},{"type":"Feature","properties":{"pid":"064c1363-fb61-4ab3-975b-6480bb627d7a"},"geometry":{"type":"Polygon","coordinates":[[[135.63954328163885,35.47661591172313],[135.63955636055377,35.47669491232557],[135.64027115736567,35.476496427947524],[135.64024072434208,35.47642368106165],[135.63954328163885,35.47661591172313]]]}},{"type":"Feature","properties":{"pid":"414fe724-7fe4-4892-8a32-fe92950fd895"},"geometry":{"type":"Polygon","coordinates":[[[135.63957037866712,35.47692643046798],[135.64005921037102,35.47679243390357],[135.64035466825067,35.476710301674814],[135.64031061160824,35.476605047819724],[135.63958088659973,35.47680897533089],[135.63957037866712,35.47692643046798]]]}},{"type":"Feature","properties":{"pid":"f98216c5-0e12-410e-bb5b-414fa2e65d89"},"geometry":{"type":"Polygon","coordinates":[[[135.64047776916956,35.47691171255383],[135.64044387294373,35.47683098545094],[135.63958737176463,35.477064444375586],[135.639581575628,35.47714700872068],[135.64047776916956,35.47691171255383]]]}},{"type":"Feature","properties":{"pid":"a8b863d0-a016-4070-85bd-5e6467dd4640"},"geometry":{"type":"Polygon","coordinates":[[[135.6396166647401,35.47741289601032],[135.64014577198148,35.47735613097977],[135.64026260746942,35.47736116217404],[135.6402442592129,35.477244493179974],[135.6396166647401,35.47741289601032]]]}},{"type":"Feature","properties":{"pid":"67d7c4a9-313d-41ec-a5ce-88fd91c41639"},"geometry":{"type":"Polygon","coordinates":[[[135.6395746604034,35.47725898419179],[135.63958434249486,35.477307821487216],[135.64053682861405,35.47704588375657],[135.64051914753873,35.47700692759632],[135.6395746604034,35.47725898419179]]]}},{"type":"Feature","properties":{"pid":"c33477bb-b143-4975-9838-6636cd3ce11c"},"geometry":{"type":"Polygon","coordinates":[[[135.6393190812773,35.47766173140472],[135.6393893665701,35.47780563331931],[135.6395102705192,35.47776448825607],[135.63941281304506,35.477640185484006],[135.6393190812773,35.47766173140472]]]}},{"type":"Feature","properties":{"pid":"ce9fd735-23b6-4f44-9151-f843ed08612e"},"geometry":{"type":"Polygon","coordinates":[[[135.64036424250645,35.4772114738077],[135.64038986315512,35.477370910764215],[135.64067779320172,35.47736560529766],[135.64058674114654,35.47714850711964],[135.64036424250645,35.4772114738077]]]}},{"type":"Feature","properties":{"pid":"3d3e0668-f6a6-4992-a2e3-a127d97887b0"},"geometry":{"type":"Polygon","coordinates":[[[135.64219201595174,35.47668438089928],[135.64221156392009,35.477222704850156],[135.64226884760438,35.47718138430367],[135.64229437290766,35.47714138161659],[135.64223467153388,35.47668543811006],[135.64219201595174,35.47668438089928]]]}},{"type":"Feature","properties":{"pid":"940c295b-7ca6-412a-82de-fee6aa89af50"},"geometry":{"type":"Polygon","coordinates":[[[135.64237675922192,35.476690432362965],[135.64241879973372,35.47702520535652],[135.64249092792934,35.47700015352974],[135.6424879599924,35.47691993410852],[135.6424568985011,35.4766877834308],[135.64237675922192,35.476690432362965]]]}},{"type":"Feature","properties":{"pid":"73a94976-0db2-4ddf-b1ca-428f5129ca82"},"geometry":{"type":"Polygon","coordinates":[[[135.64260196190853,35.47667834676571],[135.6426330130061,35.4769608262252],[135.6427097972656,35.476958817364775],[135.64267672293414,35.47667574048604],[135.64260196190853,35.47667834676571]]]}},{"type":"Feature","properties":{"pid":"d4cd74f4-fc54-4d60-815a-da2e1f61f48b"},"geometry":{"type":"Polygon","coordinates":[[[135.64234697837836,35.47641837335457],[135.64236780326976,35.47653831387133],[135.64251203175567,35.47653211201483],[135.64256480730262,35.47651422369367],[135.64247211716398,35.4763918584719],[135.6423601191532,35.47635052168618],[135.64234697837836,35.47641837335457]]]}},{"type":"Feature","properties":{"pid":"6d1fcda6-3165-40e9-ac47-a9c4637cbc92"},"geometry":{"type":"Polygon","coordinates":[[[135.64188141214788,35.476364001412975],[135.64190597210285,35.476553227599176],[135.64218347797123,35.476543614687714],[135.64218081008696,35.47650407132478],[135.6420763572625,35.47645739321062],[135.64199491072588,35.47639381392944],[135.64188141214788,35.476364001412975]]]}},{"type":"Feature","properties":{"pid":"0b874225-70b1-4ab0-9f21-e8939c0de5ab"},"geometry":{"type":"Polygon","coordinates":[[[135.64072875361808,35.47601065836263],[135.6408147111854,35.476226155215876],[135.64117280123986,35.47616835167606],[135.64112271882172,35.47613085323786],[135.64108755728716,35.47607040965421],[135.64105759801075,35.47595492001285],[135.64072875361808,35.47601065836263]]]}},{"type":"Feature","properties":{"pid":"c881041f-7b8b-4614-99ba-b5bf5b0fb8e5"},"geometry":{"type":"Polygon","coordinates":[[[135.6408488347446,35.47633159209677],[135.64086979909516,35.47638756107136],[135.64159853247705,35.47627644195988],[135.64151591512217,35.47625786288319],[135.6413203605478,35.4762555260841],[135.6408488347446,35.47633159209677]]]}},{"type":"Feature","properties":{"pid":"a3fa588d-d8bc-4781-85b6-574cba626132"},"geometry":{"type":"Polygon","coordinates":[[[135.6409004811152,35.476499126928125],[135.64097699188332,35.47669466378191],[135.64129991711536,35.4766320323352],[135.64173691358886,35.47657220137027],[135.64171382438008,35.47636814395013],[135.6409004811152,35.476499126928125]]]}},{"type":"Feature","properties":{"pid":"9ce3f4b6-1351-48f3-9973-1beb447a8122"},"geometry":{"type":"Polygon","coordinates":[[[135.64042757258852,35.47639224179044],[135.640464999622,35.476485075723154],[135.64069666098743,35.47642236971954],[135.64066455072827,35.47633786480535],[135.64042757258852,35.47639224179044]]]}},{"type":"Feature","properties":{"pid":"48e7eecf-4ac7-4993-ada7-7d6b2ad3ab42"},"geometry":{"type":"Polygon","coordinates":[[[135.64020918119903,35.47583861232769],[135.64024260502882,35.475928432015145],[135.6405821756795,35.475876413552434],[135.64055599273115,35.475747590267495],[135.64020918119903,35.47583861232769]]]}},{"type":"Feature","properties":{"pid":"e2b0cc43-1054-4e79-822e-fc31ca6b525a"},"geometry":{"type":"Polygon","coordinates":[[[135.6406805809677,35.47567048827321],[135.64074222601724,35.47588104523185],[135.6410056205673,35.47583598762555],[135.64098768880103,35.475727561697504],[135.6410436061455,35.475553845563596],[135.64070740052512,35.47559653164561],[135.6406805809677,35.47567048827321]]]}},{"type":"Feature","properties":{"pid":"f6d26396-ea8b-44b1-876f-365da5cb7677"},"geometry":{"type":"Polygon","coordinates":[[[135.64064831666846,35.47523146450716],[135.64072034535835,35.47548458263291],[135.64113190711527,35.47543268000355],[135.64136905654277,35.47525318575762],[135.64151068235245,35.475221940762786],[135.64147274813453,35.47512661753268],[135.64064831666846,35.47523146450716]]]}},{"type":"Feature","properties":{"pid":"a66bb2ea-fec0-4d31-a54f-32429e62378f"},"geometry":{"type":"Polygon","coordinates":[[[135.64131371068163,35.474081869608675],[135.64191549446318,35.47452565802576],[135.64197373388382,35.47449979972844],[135.64142864160138,35.474010292025994],[135.64137217120887,35.47401356205437],[135.64131371068163,35.474081869608675]]]}},{"type":"Feature","properties":{"pid":"e4f04b0c-cbaa-49b5-a384-079e0d5131d9"},"geometry":{"type":"Polygon","coordinates":[[[135.64108726297266,35.474286310135675],[135.64174023972896,35.47463303371309],[135.64178651341714,35.474589636948814],[135.6411886356985,35.474149152777386],[135.6411090226734,35.4741769130935],[135.64108726297266,35.474286310135675]]]}},{"type":"Feature","properties":{"pid":"ebe9bbe8-2381-48a9-8194-def75f6dbc38"},"geometry":{"type":"Polygon","coordinates":[[[135.64097305281607,35.47462151320013],[135.6415108080286,35.474899662576675],[135.64154803973784,35.47481099386857],[135.6416314561909,35.4747194138018],[135.641042093243,35.47440632286713],[135.64097305281607,35.47462151320013]]]}},{"type":"Feature","properties":{"pid":"0925f112-f13e-4fd3-8d7d-49dd68715d14"},"geometry":{"type":"Polygon","coordinates":[[[135.64062243725112,35.475126961642076],[135.64126541692045,35.47504393596965],[135.6408410952083,35.47494081445593],[135.6405884381342,35.474974487349165],[135.64062243725112,35.475126961642076]]]}},{"type":"Feature","properties":{"pid":"fc6ecb88-2823-4e43-a0ec-e5619cf26fd1"},"geometry":{"type":"Polygon","coordinates":[[[135.64125535821236,35.47488476309109],[135.64094371813553,35.47472561552283],[135.64092304999394,35.47479895836911],[135.64125535821236,35.47488476309109]]]}},{"type":"Feature","properties":{"pid":"a7aa0182-be44-4b94-a733-471a33cfc49a"},"geometry":{"type":"Polygon","coordinates":[[[135.64047234945824,35.47452032691633],[135.64052828084877,35.47479299229949],[135.64078054560102,35.474763223436035],[135.6408626233616,35.47448012327024],[135.64047234945824,35.47452032691633]]]}},{"type":"Feature","properties":{"pid":"63ebf8db-6898-429a-95fe-443bf895e010"},"geometry":{"type":"Polygon","coordinates":[[[135.640421084236,35.47422953212758],[135.6404463387763,35.474377533740764],[135.640885845299,35.47433288734733],[135.6409270683356,35.474211630277615],[135.64087074185701,35.474221414923704],[135.64063524007656,35.47420442076473],[135.640421084236,35.47422953212758]]]}},{"type":"Feature","properties":{"pid":"5ea90268-a3a3-4fe3-aee9-637a30384155"},"geometry":{"type":"Polygon","coordinates":[[[135.64016004738914,35.47459564877769],[135.6402320714504,35.47483785322502],[135.6403329548396,35.47482381930936],[135.64024608807986,35.474460994168936],[135.64016004738914,35.47459564877769]]]}},{"type":"Feature","properties":{"pid":"757f3347-68a4-45c0-bbdf-9e8613db0658"},"geometry":{"type":"Polygon","coordinates":[[[135.64006466719206,35.475379715103],[135.6404671772183,35.475263925658474],[135.64042651708417,35.4750877312588],[135.6400190529114,35.475183535211784],[135.64006466719206,35.475379715103]]]}},{"type":"Feature","properties":{"pid":"842f381b-df49-493f-b1eb-f0c5af0fcdfb"},"geometry":{"type":"Polygon","coordinates":[[[135.6398732321582,35.475290656359334],[135.63969435496585,35.47531464229488],[135.63969733154508,35.47546522118031],[135.6399154396862,35.475479083697984],[135.6398732321582,35.475290656359334]]]}},{"type":"Feature","properties":{"pid":"d1c82c2f-fceb-4ed3-9c3d-4c0036e176c4"},"geometry":{"type":"Polygon","coordinates":[[[135.63925600705807,35.47533837240355],[135.63925517976077,35.47536913746489],[135.63955594816036,35.475380506461626],[135.63955405108715,35.47531321645694],[135.63925600705807,35.47533837240355]]]}},{"type":"Feature","properties":{"pid":"c6651829-efeb-406a-ac14-9465bcc8e7dc"},"geometry":{"type":"Polygon","coordinates":[[[135.63932562841669,35.475230893869565],[135.63934451608858,35.47522910753807],[135.63954033862655,35.47521274639267],[135.63952491147884,35.475161485471865],[135.63936776499665,35.4751841638923],[135.63932562841669,35.475230893869565]]]}},{"type":"Feature","properties":{"pid":"3d8bfbb0-f838-4c89-9ece-65735bd68b53"},"geometry":{"type":"Polygon","coordinates":[[[135.6376453992866,35.47553244294966],[135.63772029643332,35.47582326891718],[135.63866762755057,35.47570947713901],[135.63863197619474,35.47567210766134],[135.63858742343587,35.475548554884604],[135.63857989073273,35.47544424466126],[135.6376453992866,35.47553244294966]]]}},{"type":"Feature","properties":{"pid":"dd0b9846-4a1a-4f65-8298-a98dffbd3b4c"},"geometry":{"type":"Polygon","coordinates":[[[135.637718179407,35.475924419672566],[135.63772657947982,35.4759513609664],[135.63867871929844,35.47584449968323],[135.63867525888926,35.47581978810783],[135.637718179407,35.475924419672566]]]}},{"type":"Feature","properties":{"pid":"203b5510-b553-4722-bc33-10e57fed7ac5"},"geometry":{"type":"Polygon","coordinates":[[[135.63757526871822,35.47527435325343],[135.63761581121184,35.47543342552272],[135.6386307062369,35.47533946023556],[135.63860874555297,35.475205858382374],[135.63757526871822,35.47527435325343]]]}},{"type":"Feature","properties":{"pid":"aa4d291e-1aa6-4706-8374-72c46eb13eba"},"geometry":{"type":"Polygon","coordinates":[[[135.63749540257595,35.47484425103529],[135.63755996952668,35.47512293628901],[135.63790881446917,35.47509378013573],[135.6378498457878,35.47479540207818],[135.63749540257595,35.47484425103529]]]}},{"type":"Feature","properties":{"pid":"31f86343-12ef-4d56-9646-1c3df86424e0"},"geometry":{"type":"Polygon","coordinates":[[[135.6379840453891,35.47476737764982],[135.63804113266139,35.47508321051628],[135.6382752786332,35.475065833704036],[135.6382468882444,35.474732574669616],[135.6379840453891,35.47476737764982]]]}},{"type":"Feature","properties":{"pid":"d9f50e45-5e15-4daa-a265-17fa777a5934"},"geometry":{"type":"Polygon","coordinates":[[[135.63744918254932,35.47461521471393],[135.63747194506593,35.47472774800267],[135.63822758856804,35.474628821101234],[135.6382275132645,35.47451755576054],[135.63744918254932,35.47461521471393]]]}},{"type":"Feature","properties":{"pid":"a26c2313-7d52-4163-9b57-87054fb1c1e7"},"geometry":{"type":"Polygon","coordinates":[[[135.63741283408953,35.474407611584475],[135.6374332009179,35.47450568841852],[135.63823384418444,35.474403193207706],[135.6382475363152,35.47429843973837],[135.63741283408953,35.474407611584475]]]}},{"type":"Feature","properties":{"pid":"3aeb7f4b-cfbc-409a-9730-6a6e52608f0b"},"geometry":{"type":"Polygon","coordinates":[[[135.6373518088472,35.47410520895292],[135.63739303229548,35.4743041700506],[135.63811744945008,35.47421039890948],[135.6377560669429,35.47405134119166],[135.6373518088472,35.47410520895292]]]}},{"type":"Feature","properties":{"pid":"b971db36-0de4-42dc-b887-87d07b3deea3"},"geometry":{"type":"Polygon","coordinates":[[[135.63804617616034,35.47400701655545],[135.63808554594465,35.47402339594575],[135.6380936926998,35.473976650750814],[135.63813125805635,35.47395277785685],[135.6383109819536,35.47396305860738],[135.63832477091503,35.47392822873574],[135.638149512921,35.47385824470158],[135.63804617616034,35.47400701655545]]]}},{"type":"Feature","properties":{"pid":"50c66b64-8e3f-494a-ad72-692167edbe31"},"geometry":{"type":"Polygon","coordinates":[[[135.63877799962353,35.47383865890005],[135.6387801876109,35.47399048477206],[135.63894828954525,35.47394278380962],[135.639123172535,35.473853298460774],[135.63920436583504,35.473831356552374],[135.63922970482545,35.47375544004333],[135.63877799962353,35.47383865890005]]]}},{"type":"Feature","properties":{"pid":"1ca5f36b-f7fa-46c2-89f5-d378aed2bf52"},"geometry":{"type":"Polygon","coordinates":[[[135.6415895873858,35.47400390289637],[135.6420913389299,35.474454094339656],[135.64215137888823,35.47442416660099],[135.64168782313442,35.47397607755916],[135.6415895873858,35.47400390289637]]]}},{"type":"Feature","properties":{"pid":"479fb84b-d8d4-408f-bb57-12b46d6cd94c"},"geometry":{"type":"Polygon","coordinates":[[[135.6418957238899,35.47387997323043],[135.64225606687862,35.474227875596476],[135.64228205832333,35.47425075479314],[135.6423288789241,35.474176504236084],[135.64195373861077,35.47384904378623],[135.6418957238899,35.47387997323043]]]}},{"type":"Feature","properties":{"pid":"e9748b68-2a4c-4189-a89d-187b26287c63"},"geometry":{"type":"Polygon","coordinates":[[[135.6425287373048,35.47360209529571],[135.64283297073308,35.47387489843175],[135.6428932413333,35.47385894340163],[135.64257661786698,35.47357606179897],[135.6425287373048,35.47360209529571]]]}},{"type":"Feature","properties":{"pid":"8de6cc21-029d-4012-8d76-91e218e03aaf"},"geometry":{"type":"Polygon","coordinates":[[[135.64227326773766,35.47364654390843],[135.6426288456403,35.47399163701752],[135.64269933940108,35.47393277636256],[135.64238193078737,35.473644973538136],[135.64227326773766,35.47364654390843]]]}},{"type":"Feature","properties":{"pid":"3d10f12c-386e-471d-9504-3b2b73cf63f1"},"geometry":{"type":"Polygon","coordinates":[[[135.6420409443706,35.47376104325876],[135.64242254580682,35.47408985372355],[135.64250954580618,35.47404903253838],[135.64209712788463,35.4736611902406],[135.6420409443706,35.47376104325876]]]}},{"type":"Feature","properties":{"pid":"16b58cd3-d423-4ac0-9d52-579ddd9f2d7f"},"geometry":{"type":"Polygon","coordinates":[[[135.6372884688317,35.473810817941505],[135.6373287386696,35.47399891697236],[135.63761755212053,35.47396176540208],[135.6374115553311,35.473867270088924],[135.6372884688317,35.473810817941505]]]}},{"type":"Feature","properties":{"pid":"28356e10-b79f-4a77-92f8-6ec33d378157"},"geometry":{"type":"Polygon","coordinates":[[[135.63603893612904,35.474049088660074],[135.6361210507379,35.47415467789943],[135.63713649069766,35.474015028243194],[135.63711427272582,35.473905461218614],[135.63603893612904,35.474049088660074]]]}},{"type":"Feature","properties":{"pid":"e8b51569-3f89-4640-b0b6-64cf7a9135a6"},"geometry":{"type":"Polygon","coordinates":[[[135.6359913841467,35.47386285675799],[135.6360062959272,35.47394413878939],[135.6370891659557,35.473797897509904],[135.63697260470607,35.473733361697064],[135.6359913841467,35.47386285675799]]]}},{"type":"Feature","properties":{"pid":"dfd966ca-790f-486e-96ac-e5d632ed363d"},"geometry":{"type":"Polygon","coordinates":[[[135.63106821164598,35.4739671884207],[135.63108669330924,35.47402230123082],[135.6321739981251,35.47379546108771],[135.63215322980747,35.47374691932856],[135.63106821164598,35.4739671884207]]]}},{"type":"Feature","properties":{"pid":"34829d23-2a88-42b5-8057-1d06df929ef0"},"geometry":{"type":"Polygon","coordinates":[[[135.63220570969543,35.47413623837981],[135.63224630406947,35.47409108455463],[135.63223792914798,35.474034028719764],[135.6311555583558,35.47425862929458],[135.63118210738438,35.47434257140527],[135.63220570969543,35.47413623837981]]]}},{"type":"Feature","properties":{"pid":"a00d7685-659f-41ce-9d7c-1090e71306f5"},"geometry":{"type":"Polygon","coordinates":[[[135.63111689520983,35.474127148252805],[135.6311267581484,35.474156737021474],[135.63221403199145,35.473926884991315],[135.63220467552244,35.473893643189335],[135.63111689520983,35.474127148252805]]]}},{"type":"Feature","properties":{"pid":"45687b75-8edb-4626-991d-f02e44f32574"},"geometry":{"type":"Polygon","coordinates":[[[135.62850196721502,35.47798130927624],[135.6285881737569,35.478232000384295],[135.6290041058948,35.47818990095691],[135.62893631209946,35.47799743618807],[135.6286601713086,35.47794665951059],[135.62850196721502,35.47798130927624]]]}},{"type":"Feature","properties":{"pid":"21f1ac28-a62d-40f4-b281-acec2fb6fa2d"},"geometry":{"type":"Polygon","coordinates":[[[135.62914758906672,35.478217460730065],[135.6291164318903,35.47832975247871],[135.62914338690683,35.47839095589966],[135.62919777557593,35.4783761268369],[135.62932074574212,35.47821688566743],[135.62946639006063,35.478081032683065],[135.62934485138706,35.47808101196766],[135.6291750829735,35.478028290083856],[135.62907847469282,35.47801834869042],[135.62914758906672,35.478217460730065]]]}},{"type":"Feature","properties":{"pid":"b37ed225-f65c-4347-9169-3f9a63c555ce"},"geometry":{"type":"Polygon","coordinates":[[[135.62944545038195,35.478455422651166],[135.62929839042545,35.478503147351184],[135.6292625613973,35.47851623200058],[135.62938257398318,35.47861801691737],[135.62952472062943,35.47854925816537],[135.62944545038195,35.478455422651166]]]}},{"type":"Feature","properties":{"pid":"080c43a6-45d2-4ab5-a936-a55ed32d7ee5"},"geometry":{"type":"Polygon","coordinates":[[[135.62839009220625,35.47801313885746],[135.62825436656956,35.47798341361817],[135.62842821486404,35.47844704396302],[135.6285285720645,35.47842123828675],[135.62839009220625,35.47801313885746]]]}},{"type":"Feature","properties":{"pid":"4df34888-0a98-4168-b0c1-3003a3faa06b"},"geometry":{"type":"Polygon","coordinates":[[[135.6279771459014,35.47797748362053],[135.62814882011557,35.47846203576054],[135.62819254242712,35.478449184261734],[135.62802327720692,35.477969839437485],[135.6279771459014,35.47797748362053]]]}},{"type":"Feature","properties":{"pid":"7b038f6f-24c1-41fc-b1ac-0bea04bc87e8"},"geometry":{"type":"Polygon","coordinates":[[[135.62781294433375,35.47839119736247],[135.6279796101447,35.47835282862575],[135.62785390958132,35.47799235448844],[135.62765837398013,35.477993225286006],[135.62781294433375,35.47839119736247]]]}},{"type":"Feature","properties":{"pid":"88644807-5a3f-4cc3-854e-0ab0de9f2ebf"},"geometry":{"type":"Polygon","coordinates":[[[135.63090996995527,35.47557026181819],[135.6309502144829,35.47571133412937],[135.63094949853115,35.47578677588758],[135.63096754528507,35.47584692689948],[135.63140597209542,35.47575398130275],[135.63132557320074,35.47548130132222],[135.63090996995527,35.47557026181819]]]}},{"type":"Feature","properties":{"pid":"68390319-8797-422e-b319-34cd008495f7"},"geometry":{"type":"Polygon","coordinates":[[[135.63080113536674,35.47533783687415],[135.6308320117564,35.47543857896531],[135.63126345080505,35.47534532713493],[135.6311596340233,35.47500512518036],[135.63089994450002,35.47505779409215],[135.6309297077033,35.47522009221795],[135.63080113536674,35.47533783687415]]]}},{"type":"Feature","properties":{"pid":"11513920-d6a9-469f-971f-40fc70ffd9b7"},"geometry":{"type":"Polygon","coordinates":[[[135.63136252258695,35.47497169158345],[135.63139735820775,35.4750797321702],[135.63214781971655,35.4749247912183],[135.63216655881558,35.47480847301022],[135.63136252258695,35.47497169158345]]]}},{"type":"Feature","properties":{"pid":"48ef66af-40db-441d-b6ad-a9883a089eb3"},"geometry":{"type":"Polygon","coordinates":[[[135.6322160363469,35.47433720621616],[135.63225942196513,35.47429846963278],[135.63226024216078,35.47422860217509],[135.63121571208,35.474442101791155],[135.63124326459973,35.47454085588793],[135.6322160363469,35.47433720621616]]]}},{"type":"Feature","properties":{"pid":"3aed8479-2f27-4ca9-aa36-5319f9ca4a13"},"geometry":{"type":"Polygon","coordinates":[[[135.63142672934316,35.47518221895306],[135.631516894888,35.47547349930495],[135.63208248654988,35.47535732953317],[135.63213135127756,35.47503582600306],[135.63142672934316,35.47518221895306]]]}},{"type":"Feature","properties":{"pid":"d4bcba9e-b1a2-4b4f-b582-da30250d7d38"},"geometry":{"type":"Polygon","coordinates":[[[135.63154964283393,35.475578109470575],[135.63156772429153,35.47563571219986],[135.63206304562254,35.47552787959343],[135.63206913202154,35.475470836737685],[135.63154964283393,35.475578109470575]]]}},{"type":"Feature","properties":{"pid":"1cdf45d0-3bef-48bb-beb9-7f90d04c6a55"},"geometry":{"type":"Polygon","coordinates":[[[135.63207386960727,35.47578269581502],[135.6320625525073,35.4756471178375],[135.63159757304993,35.47574673034065],[135.63163880529655,35.47587449626889],[135.63207386960727,35.47578269581502]]]}},{"type":"Feature","properties":{"pid":"18256297-c784-457c-8501-1d1d67b86f63"},"geometry":{"type":"Polygon","coordinates":[[[135.6319187337036,35.476733351312504],[135.6319795086212,35.47692662834831],[135.63259948638776,35.47679915735628],[135.63244877528703,35.476628767247256],[135.6319187337036,35.476733351312504]]]}},{"type":"Feature","properties":{"pid":"215a3582-2396-43df-977f-f253a1021da1"},"geometry":{"type":"Polygon","coordinates":[[[135.6309986029903,35.475959612993876],[135.63109989857804,35.47627947009391],[135.63154595775367,35.47618014149407],[135.63145451397293,35.47587018976596],[135.6309986029903,35.475959612993876]]]}},{"type":"Feature","properties":{"pid":"7e399936-c464-4fc9-bf37-42f6fb1ac656"},"geometry":{"type":"Polygon","coordinates":[[[135.63092856416878,35.47740602685556],[135.63101245949213,35.47768687883365],[135.63108785614122,35.47766330195154],[135.63100379196854,35.477385573672265],[135.63092856416878,35.47740602685556]]]}},{"type":"Feature","properties":{"pid":"4fd53a37-c3ce-4cb4-9ec4-a7ffdebee475"},"geometry":{"type":"Polygon","coordinates":[[[135.63107914654827,35.47722327710171],[135.63120569463064,35.47762685432848],[135.63158913645668,35.47750555901418],[135.63146553821787,35.47710871253071],[135.63107914654827,35.47722327710171]]]}},{"type":"Feature","properties":{"pid":"653cbecb-ec75-4b11-b334-f3bab85b787f"},"geometry":{"type":"Polygon","coordinates":[[[135.63234614531575,35.47695983030837],[135.632457114689,35.477316927856315],[135.63267083428084,35.477276246467596],[135.63255935725732,35.47691691815839],[135.63234614531575,35.47695983030837]]]}},{"type":"Feature","properties":{"pid":"e2e7f024-37ed-4a1e-86ad-3e090b303f3d"},"geometry":{"type":"Polygon","coordinates":[[[135.6324627712652,35.477490979675736],[135.63252311302966,35.477699154424265],[135.63297582227312,35.47760896456783],[135.6329174075199,35.477406136557384],[135.6324627712652,35.477490979675736]]]}},{"type":"Feature","properties":{"pid":"efd74970-3c58-4a43-a448-343edf90f0de"},"geometry":{"type":"Polygon","coordinates":[[[135.633187417429,35.47768457024529],[135.63325754148164,35.47792612284884],[135.63405468064633,35.47776620688503],[135.63403867815495,35.477725608896286],[135.6338321471726,35.47756224289747],[135.633187417429,35.47768457024529]]]}},{"type":"Feature","properties":{"pid":"9bf76e9a-107d-40b2-9129-b610365009b2"},"geometry":{"type":"Polygon","coordinates":[[[135.63657286494683,35.47508183773342],[135.6367235213866,35.47521770767237],[135.63737412993225,35.47513578820568],[135.63734296087134,35.474976854677045],[135.63657286494683,35.47508183773342]]]}},{"type":"Feature","properties":{"pid":"8125021d-0a36-4f65-8b71-166f5b38a923"},"geometry":{"type":"Polygon","coordinates":[[[135.63634501482196,35.47482450595714],[135.63646611294737,35.474976470061776],[135.63730653774203,35.47486591051562],[135.63727542642695,35.47470361545833],[135.63634501482196,35.47482450595714]]]}},{"type":"Feature","properties":{"pid":"d66a6c67-7568-4df6-91db-db7d8e612227"},"geometry":{"type":"Polygon","coordinates":[[[135.63615022821693,35.47429633858732],[135.63620695790658,35.47446435130217],[135.63719690946212,35.47433502924889],[135.63716366533558,35.47416246013122],[135.63615022821693,35.47429633858732]]]}},{"type":"Feature","properties":{"pid":"b79d7024-e0c3-4165-b37b-4635d46cbafc"},"geometry":{"type":"Polygon","coordinates":[[[135.63623216124972,35.47457578343311],[135.6363050639324,35.47472740172272],[135.63724855039692,35.474598138185684],[135.63721773314376,35.474441891848635],[135.63623216124972,35.47457578343311]]]}},{"type":"Feature","properties":{"pid":"5e369332-e3cd-4d96-9877-5b4288dbd127"},"geometry":{"type":"Polygon","coordinates":[[[135.63672953111265,35.47537375112587],[135.63673746832185,35.47555983773243],[135.63742723011936,35.47545348152542],[135.63739140159697,35.47529045861937],[135.63672953111265,35.47537375112587]]]}},{"type":"Feature","properties":{"pid":"c6b52936-f388-496c-9907-c6a1b778d8fc"},"geometry":{"type":"Polygon","coordinates":[[[135.6368055139961,35.47590329118754],[135.63686879637075,35.47601558983884],[135.6375315161321,35.475909462278814],[135.6375027635047,35.47579060885943],[135.6368055139961,35.47590329118754]]]}},{"type":"Feature","properties":{"pid":"1b1285f0-eff9-4d16-8c44-830cd4dcba21"},"geometry":{"type":"Polygon","coordinates":[[[135.63674795682135,35.475673421103394],[135.63675707114422,35.4758057991779],[135.63747832857777,35.47569126227939],[135.63744670258245,35.47555949062231],[135.63674795682135,35.475673421103394]]]}},{"type":"Feature","properties":{"pid":"4a46875f-2abb-449d-a81d-3a798f243009"},"geometry":{"type":"Polygon","coordinates":[[[135.6369072391568,35.47610980621549],[135.63691906658096,35.47628029286891],[135.63759009952437,35.476173998062805],[135.6375509893446,35.47600571544564],[135.6369072391568,35.47610980621549]]]}},{"type":"Feature","properties":{"pid":"2401f999-1702-4114-9047-870c9e48b1bd"},"geometry":{"type":"Polygon","coordinates":[[[135.63695790668405,35.47690910221486],[135.63774347209537,35.4767880824301],[135.6377031672752,35.476630168523855],[135.6369756451317,35.476739938585354],[135.63695790668405,35.47690910221486]]]}},{"type":"Feature","properties":{"pid":"dc89ebda-7df7-41dd-9bba-779696d45629"},"geometry":{"type":"Polygon","coordinates":[[[135.63698338069074,35.476400127924514],[135.6369935632783,35.476476063178666],[135.63698348144013,35.47663095118937],[135.63767363132484,35.47652420516248],[135.63762200259765,35.47629820960483],[135.63698338069074,35.476400127924514]]]}},{"type":"Feature","properties":{"pid":"c30bb3cb-8393-4c03-be88-4e9d4dff4535"},"geometry":{"type":"Polygon","coordinates":[[[135.63719906610362,35.477263132122744],[135.63698583745958,35.4772967420261],[135.6369952135782,35.47733868693169],[135.6372089930107,35.47730662343349],[135.63719906610362,35.477263132122744]]]}},{"type":"Feature","properties":{"pid":"c19addd7-63e4-423b-ba02-367f905eba83"},"geometry":{"type":"Polygon","coordinates":[[[135.6368545109337,35.477204492888944],[135.6378243997129,35.477054057511474],[135.63779888497174,35.476944949729635],[135.63692395380903,35.47707917216299],[135.6368545109337,35.477204492888944]]]}},{"type":"Feature","properties":{"pid":"00298537-91ca-4be5-a20d-bed8c30a6248"},"geometry":{"type":"Polygon","coordinates":[[[135.63732605164242,35.47725516124852],[135.63733944289777,35.47731260723558],[135.6378595860197,35.47722747796709],[135.63784779258955,35.4771717987456],[135.63732605164242,35.47725516124852]]]}},{"type":"Feature","properties":{"pid":"3fcc32db-c8c7-4ec8-b6ee-0ed8b1db9c67"},"geometry":{"type":"Polygon","coordinates":[[[135.63670044722784,35.477514300752524],[135.63666445339157,35.47758461453732],[135.6378670574451,35.477398109601765],[135.63786729776018,35.477334468551895],[135.63670044722784,35.477514300752524]]]}},{"type":"Feature","properties":{"pid":"7609a3ff-44a4-421c-810b-722fd79ac703"},"geometry":{"type":"Polygon","coordinates":[[[135.63741230430657,35.477601324369886],[135.63752616196035,35.47808466745804],[135.63755015195,35.47807440620206],[135.63755554824652,35.47801126820855],[135.6376431203771,35.47796744865547],[135.63755427511808,35.47757982907108],[135.63741230430657,35.477601324369886]]]}},{"type":"Feature","properties":{"pid":"65ca5beb-58b2-4cdd-b0d2-61ffa7b7634b"},"geometry":{"type":"Polygon","coordinates":[[[135.63710997874423,35.477647465832895],[135.6372398809175,35.47820361366658],[135.6374142446265,35.47813210920232],[135.63729333753489,35.47761941991034],[135.63710997874423,35.477647465832895]]]}},{"type":"Feature","properties":{"pid":"a8a1e9e0-0c33-4412-8755-22f356506bd9"},"geometry":{"type":"Polygon","coordinates":[[[135.63697562554958,35.47830457821407],[135.63712414290043,35.4782492819292],[135.63698910089968,35.47766623530338],[135.63683984359693,35.47768973961934],[135.63697562554958,35.47830457821407]]]}},{"type":"Feature","properties":{"pid":"e3e39997-1ddc-41ae-8b7d-f26b6296acb9"},"geometry":{"type":"Polygon","coordinates":[[[135.63670562540707,35.477708852381824],[135.63658501002757,35.477739752452145],[135.6365228420117,35.47783565529834],[135.6365050482644,35.477893985863325],[135.63654518961275,35.47805647201157],[135.63653875342888,35.478192463757786],[135.63659879546353,35.478421140926166],[135.63685181281562,35.47834569237577],[135.63670562540707,35.477708852381824]]]}},{"type":"Feature","properties":{"pid":"6f0195f4-d2eb-4a8f-9fc3-498935aea241"},"geometry":{"type":"Polygon","coordinates":[[[135.63618943332008,35.47854514944907],[135.6364739324962,35.47848314865676],[135.63642567648475,35.478296729216105],[135.63619540631944,35.47843676306929],[135.6362091628247,35.478486073880056],[135.63618943332008,35.47854514944907]]]}},{"type":"Feature","properties":{"pid":"9cff7a21-a6c8-4acb-9a87-0a7c63fa7827"},"geometry":{"type":"Polygon","coordinates":[[[135.63328667217007,35.47802615690793],[135.63333476220023,35.47819535711497],[135.63364575650414,35.4782778753904],[135.6337849036503,35.47802697597673],[135.63383732362323,35.47800096898002],[135.63401388963047,35.477973850284364],[135.6340394321823,35.477953110575854],[135.63405713242764,35.477876256665716],[135.63328667217007,35.47802615690793]]]}},{"type":"Feature","properties":{"pid":"cbb10d4e-6931-4c75-83b8-9f43158b1494"},"geometry":{"type":"Polygon","coordinates":[[[135.63300389259396,35.477707385762564],[135.6325511882111,35.47779649290519],[135.63264239716588,35.478112713415335],[135.63314409001035,35.47820538135684],[135.63300389259396,35.477707385762564]]]}}]}