{"type":"FeatureCollection","features":[{"type":"Feature","properties":{"pid":"8e2329c8-89b9-4499-8997-f0fe21941eba","full":0.9},"geometry":{"type":"Polygon","coordinates":[[[136.05185,35.99884],[136.05189,35.99888],[136.052,35.99897],[136.05215,35.99869],[136.05202,35.99868],[136.05185,35.99884]]]}},{"type":"Feature","properties":{"pid":"4f9a0ffb-731a-4222-b3f0-228239ef4a30","full":8.9},"geometry":{"type":"Polygon","coordinates":[[[136.05262,35.99937],[136.05266,35.99903],[136.05221,35.99903],[136.05219,35.99908],[136.05217,35.99929],[136.05223,35.99934],[136.05232,35.99938],[136.05244,35.99939],[136.05262,35.99937]]]}},{"type":"Feature","properties":{"pid":"98618b5d-03c8-4945-8d24-72e56964df76","full":5.9},"geometry":{"type":"Polygon","coordinates":[[[136.05229,35.99895],[136.05265,35.99895],[136.05268,35.99861],[136.05264,35.99859],[136.05228,35.99872],[136.05225,35.9988],[136.05228,35.99885],[136.05229,35.99895]]]}},{"type":"Feature","properties":{"pid":"d7f286f2-6b10-44a1-8807-62d4a3a02de1","full":4.4},"geometry":{"type":"Polygon","coordinates":[[[136.05427,35.99993],[136.05407,35.99987],[136.05401,35.99992],[136.0542,36.00021],[136.05436,36.00047],[136.0544,36.00047],[136.05441,36.00023],[136.05439,36.00006],[136.05435,35.99998],[136.05427,35.99993]]]}},{"type":"Feature","properties":{"pid":"b538e218-b4d7-4ff6-a6d7-a1f3ef002b65","full":1.1},"geometry":{"type":"Polygon","coordinates":[[[136.05628,36.0022],[136.05639,36.00227],[136.05652,36.00233],[136.05655,36.00233],[136.0567,36.00233],[136.05677,36.00222],[136.0565,36.00218],[136.05641,36.00215],[136.05633,36.00211],[136.05628,36.00213],[136.05627,36.00216],[136.05628,36.0022]]]}},{"type":"Feature","properties":{"pid":"3b91bb83-5d16-4d6e-acaf-0e224c75e6a4","full":0.5},"geometry":{"type":"Polygon","coordinates":[[[136.063,36.00475],[136.06313,36.00466],[136.06313,36.00463],[136.06304,36.00453],[136.06295,36.00457],[136.06292,36.00463],[136.0629,36.00468],[136.063,36.00475]]]}},{"type":"Feature","properties":{"pid":"6f16425a-8ec9-4ab3-95a9-f34550d4a302","full":8.9},"geometry":{"type":"Polygon","coordinates":[[[136.06712,36.00466],[136.06732,36.00441],[136.0672,36.00435],[136.06699,36.00421],[136.06687,36.00416],[136.06668,36.00435],[136.06676,36.00443],[136.06712,36.00466]]]}},{"type":"Feature","properties":{"pid":"27278d08-a2f1-4635-ba1f-2de19f5999e6","full":11.7},"geometry":{"type":"Polygon","coordinates":[[[136.05181,35.99876],[136.05196,35.99862],[136.05205,35.99846],[136.05165,35.99825],[136.0514,35.99827],[136.05134,35.99831],[136.05144,35.99846],[136.05155,35.99857],[136.05161,35.99863],[136.05181,35.99876]]]}},{"type":"Feature","properties":{"pid":"07abecdf-e430-42b9-9213-d33cf50dad41","full":2.7},"geometry":{"type":"Polygon","coordinates":[[[136.07111,35.99058],[136.07109,35.99057],[136.07087,35.99057],[136.07083,35.99058],[136.07083,35.9906],[136.07083,35.99089],[136.07086,35.9909],[136.07091,35.99089],[136.071,35.99086],[136.07105,35.99083],[136.07107,35.9908],[136.07107,35.99071],[136.07108,35.99064],[136.07111,35.99058]]]}},{"type":"Feature","properties":{"pid":"a4a6cd8b-14a4-4ce9-92a9-3309ba813b48","full":2.3},"geometry":{"type":"Polygon","coordinates":[[[136.07065,35.9909],[136.07079,35.99087],[136.07079,35.99057],[136.07056,35.99057],[136.07057,35.99072],[136.07061,35.99088],[136.07061,35.9909],[136.07065,35.9909]]]}},{"type":"Feature","properties":{"pid":"a83e3633-3dc1-443a-9c1d-252e57ea446b","full":1.2},"geometry":{"type":"Polygon","coordinates":[[[136.07057,35.99097],[136.07053,35.99089],[136.07039,35.99091],[136.07034,35.99092],[136.07018,35.9909],[136.07023,35.99101],[136.07034,35.99112],[136.07051,35.991],[136.07057,35.99097]]]}},{"type":"Feature","properties":{"pid":"f8899d4b-2438-462f-83e7-1449e51b1116","full":4.3},"geometry":{"type":"Polygon","coordinates":[[[136.0717,35.99086],[136.07171,35.99083],[136.07175,35.99083],[136.07172,35.99054],[136.07166,35.99054],[136.07165,35.99057],[136.0716,35.9906],[136.07151,35.99063],[136.07145,35.99063],[136.07136,35.99065],[136.07134,35.99067],[136.0713,35.99075],[136.07136,35.99077],[136.0714,35.99081],[136.07143,35.99087],[136.07145,35.99088],[136.0717,35.99086]]]}},{"type":"Feature","properties":{"pid":"de5d91e4-4578-409f-824b-3a9ad365b1c1","full":1.6},"geometry":{"type":"Polygon","coordinates":[[[136.07158,35.99108],[136.07178,35.99107],[136.07177,35.99089],[136.07147,35.99091],[136.07145,35.99091],[136.07145,35.99093],[136.07149,35.99103],[136.07158,35.99108]]]}},{"type":"Feature","properties":{"pid":"d0ef2a8c-5842-4809-83fa-97f2d8a10063","full":3.0},"geometry":{"type":"Polygon","coordinates":[[[136.07194,35.99137],[136.0721,35.99159],[136.07212,35.99158],[136.07216,35.99162],[136.07235,35.99158],[136.07232,35.99154],[136.07228,35.99148],[136.07225,35.9913],[136.07197,35.99133],[136.07197,35.99135],[136.07194,35.99137]]]}},{"type":"Feature","properties":{"pid":"01dd2206-dbbc-42dc-bb65-1972de7bf40a","full":2.8},"geometry":{"type":"Polygon","coordinates":[[[136.07189,35.99127],[136.07221,35.99124],[136.07223,35.99122],[136.07221,35.99118],[136.07209,35.99109],[136.072,35.99091],[136.07186,35.99091],[136.07189,35.99127]]]}},{"type":"Feature","properties":{"pid":"fd12b213-5014-4590-ad39-9c7d7a375d81","full":6.2},"geometry":{"type":"Polygon","coordinates":[[[136.0723,35.99202],[136.07269,35.992],[136.07247,35.99171],[136.07235,35.99161],[136.07217,35.99165],[136.07216,35.99169],[136.07213,35.9917],[136.07227,35.99192],[136.0723,35.99202]]]}},{"type":"Feature","properties":{"pid":"8a978702-933b-437a-821e-fef012da9166","full":7.8},"geometry":{"type":"Polygon","coordinates":[[[136.07277,35.99243],[136.07281,35.99241],[136.07282,35.99238],[136.07278,35.99226],[136.0728,35.99222],[136.07282,35.99219],[136.07271,35.99203],[136.07231,35.99206],[136.07229,35.99214],[136.07232,35.9922],[136.07245,35.99232],[136.07254,35.99237],[136.07277,35.99243]]]}},{"type":"Feature","properties":{"pid":"fd3b4268-6276-42e7-a5b2-f72d55f78a7e","full":3.8},"geometry":{"type":"Polygon","coordinates":[[[136.07016,36.00217],[136.06991,36.00182],[136.06974,36.00199],[136.06989,36.00221],[136.06994,36.00224],[136.06999,36.00225],[136.07016,36.00217]]]}},{"type":"Feature","properties":{"pid":"47bd8f5e-6eeb-48fe-a000-b5f857ed183b","full":2.5},"geometry":{"type":"Polygon","coordinates":[[[136.07049,36.00215],[136.07012,36.00159],[136.07005,36.00162],[136.07002,36.00174],[136.07033,36.00216],[136.07037,36.0022],[136.07049,36.00215]]]}},{"type":"Feature","properties":{"pid":"431d72a4-c522-447d-98ca-a833aa528ac8","full":10.1},"geometry":{"type":"Polygon","coordinates":[[[136.07082,36.00201],[136.0705,36.00151],[136.07025,36.00157],[136.07019,36.00159],[136.07055,36.00212],[136.07082,36.00201]]]}},{"type":"Feature","properties":{"pid":"e8699a5d-2368-4770-b7a8-38f94552be64","full":1.4},"geometry":{"type":"Polygon","coordinates":[[[136.07131,36.00222],[136.07109,36.0019],[136.07094,36.00195],[136.07116,36.00228],[136.07131,36.00222]]]}},{"type":"Feature","properties":{"pid":"341d7eb9-e99d-4f47-913f-a24c4271a7e0","full":1.7},"geometry":{"type":"Polygon","coordinates":[[[136.07105,36.00183],[136.07073,36.00134],[136.07059,36.00141],[136.07091,36.00186],[136.07095,36.00187],[136.07105,36.00183]]]}},{"type":"Feature","properties":{"pid":"9177885f-d1e4-41c7-9d79-80c809ee834b","full":3.9},"geometry":{"type":"Polygon","coordinates":[[[136.07108,36.0018],[136.07116,36.00178],[136.07125,36.00174],[136.07089,36.00121],[136.07081,36.00125],[136.07074,36.00131],[136.07108,36.0018]]]}},{"type":"Feature","properties":{"pid":"f5d2138e-e941-4d7a-b93d-da760dc4133d","full":3.6},"geometry":{"type":"Polygon","coordinates":[[[136.07128,36.00172],[136.07137,36.0017],[136.07144,36.00166],[136.07112,36.00116],[136.07101,36.00117],[136.07093,36.0012],[136.07128,36.00172]]]}},{"type":"Feature","properties":{"pid":"2da5bae7-e7bf-4fe2-80b2-cb2b6a63aa8c","full":6.8},"geometry":{"type":"Polygon","coordinates":[[[136.07167,36.00155],[136.07179,36.00153],[136.07204,36.00152],[136.07213,36.00145],[136.07199,36.00123],[136.07169,36.00128],[136.0715,36.00127],[136.07167,36.00155]]]}},{"type":"Feature","properties":{"pid":"6e01919d-c15e-405c-a789-40e8fd58bf82","full":2.6},"geometry":{"type":"Polygon","coordinates":[[[136.07147,36.00163],[136.07162,36.00158],[136.07146,36.00127],[136.07133,36.00119],[136.07116,36.00116],[136.07147,36.00163]]]}},{"type":"Feature","properties":{"pid":"fd39aaf3-9e7b-4122-89c0-9107a6c99c80","full":3.6},"geometry":{"type":"Polygon","coordinates":[[[136.07148,36.00198],[136.07178,36.00179],[136.07192,36.00176],[136.07205,36.00163],[136.07181,36.00164],[136.07156,36.0017],[136.07137,36.00177],[136.07148,36.00198]]]}},{"type":"Feature","properties":{"pid":"f737f037-f0be-4d35-bc7d-575271649b0b","full":1.5},"geometry":{"type":"Polygon","coordinates":[[[136.07145,36.00201],[136.07131,36.00179],[136.07116,36.00185],[136.07114,36.00186],[136.07133,36.00215],[136.07145,36.00201]]]}},{"type":"Feature","properties":{"pid":"22758183-b1ac-44ff-be50-93bdc8e25c5d","full":6.7},"geometry":{"type":"Polygon","coordinates":[[[136.07129,36.00285],[136.07158,36.00271],[136.07143,36.00253],[136.07139,36.00245],[136.07139,36.00234],[136.07137,36.00232],[136.07135,36.00232],[136.0713,36.00235],[136.07106,36.0025],[136.07129,36.00285]]]}},{"type":"Feature","properties":{"pid":"5847e428-d9cb-461f-b4f1-740e55c8cb20","full":15.2},"geometry":{"type":"Polygon","coordinates":[[[136.07134,36.00325],[136.07146,36.00333],[136.0715,36.00334],[136.07158,36.00332],[136.07173,36.00331],[136.07178,36.00328],[136.0718,36.00323],[136.0718,36.00306],[136.07183,36.00299],[136.07183,36.00295],[136.07172,36.00289],[136.0716,36.00279],[136.07117,36.00299],[136.07134,36.00325]]]}},{"type":"Feature","properties":{"pid":"26ddd25f-bee2-4b30-b2ab-a2251477c287","full":3.1},"geometry":{"type":"Polygon","coordinates":[[[136.07088,36.00327],[136.07094,36.0033],[136.07102,36.00327],[136.07118,36.00319],[136.07107,36.00299],[136.07072,36.00314],[136.07088,36.00327]]]}},{"type":"Feature","properties":{"pid":"84502d48-8927-46b1-a52f-243fdf9b31d1","full":4.5},"geometry":{"type":"Polygon","coordinates":[[[136.07043,36.00381],[136.07051,36.00377],[136.07059,36.00362],[136.07048,36.00334],[136.07019,36.00346],[136.07043,36.00381]]]}},{"type":"Feature","properties":{"pid":"3e5cd371-8718-4a19-a920-23b130b504d9","full":12.6},"geometry":{"type":"Polygon","coordinates":[[[136.07,36.00402],[136.07012,36.00398],[136.07016,36.00395],[136.07041,36.00382],[136.07016,36.00346],[136.06973,36.00365],[136.07,36.00402]]]}},{"type":"Feature","properties":{"pid":"45709fdf-ef3c-4f42-96f1-b1271ad14140","full":11.5},"geometry":{"type":"Polygon","coordinates":[[[136.07014,36.00341],[136.07043,36.00327],[136.07046,36.00324],[136.07044,36.00318],[136.07037,36.00306],[136.07039,36.00301],[136.07023,36.00284],[136.06985,36.00301],[136.07014,36.00341]]]}},{"type":"Feature","properties":{"pid":"15fb05bc-7637-48db-9c03-ec0830a3dae6","full":17.4},"geometry":{"type":"Polygon","coordinates":[[[136.07123,36.00284],[136.07101,36.00249],[136.0708,36.00261],[136.07063,36.00268],[136.07036,36.00278],[136.07069,36.00311],[136.07104,36.00295],[136.07108,36.00291],[136.07123,36.00284]]]}},{"type":"Feature","properties":{"pid":"dc88386b-7807-48d1-83c4-05f4c059eb95","full":22.9},"geometry":{"type":"Polygon","coordinates":[[[136.07032,36.0027],[136.07064,36.0026],[136.07079,36.00253],[136.07102,36.00241],[136.07082,36.00209],[136.07061,36.00218],[136.07052,36.00218],[136.07038,36.00224],[136.07029,36.00223],[136.07028,36.00221],[136.07006,36.0023],[136.07015,36.00254],[136.07032,36.0027]]]}},{"type":"Feature","properties":{"pid":"675bb067-673f-496a-8359-471f4d6fd992","full":3.4},"geometry":{"type":"Polygon","coordinates":[[[136.06949,36.00244],[136.06968,36.00233],[136.06972,36.00234],[136.06985,36.00228],[136.06986,36.00224],[136.0697,36.00205],[136.06953,36.00221],[136.06937,36.00231],[136.06949,36.00244]]]}},{"type":"Feature","properties":{"pid":"2ae66357-0d4b-4f39-8e8c-1e73f9606447","full":9.3},"geometry":{"type":"Polygon","coordinates":[[[136.06981,36.00294],[136.06985,36.00296],[136.07018,36.0028],[136.06984,36.00245],[136.06957,36.00256],[136.06955,36.00258],[136.06981,36.00294]]]}},{"type":"Feature","properties":{"pid":"f635dbf6-e86d-43c8-beb6-57191cd305a9","full":9.2},"geometry":{"type":"Polygon","coordinates":[[[136.0698,36.00297],[136.06954,36.0026],[136.06924,36.00272],[136.06942,36.0031],[136.06947,36.00312],[136.0698,36.00297]]]}},{"type":"Feature","properties":{"pid":"9eed7867-b857-4938-b896-20b22f4c7181","full":1.9},"geometry":{"type":"Polygon","coordinates":[[[136.06862,36.00351],[136.06878,36.00342],[136.06859,36.00315],[136.06842,36.00324],[136.06862,36.00351]]]}},{"type":"Feature","properties":{"pid":"0ed6e3d4-cd61-47b7-86cd-d134a3ca500b","full":1.0},"geometry":{"type":"Polygon","coordinates":[[[136.06842,36.00359],[136.06854,36.00351],[136.06832,36.00321],[136.06825,36.00323],[136.0682,36.00331],[136.06828,36.00338],[136.06842,36.00359]]]}},{"type":"Feature","properties":{"pid":"5f5b2c93-188f-4862-8b42-90180995e296","full":0.8},"geometry":{"type":"Polygon","coordinates":[[[136.06873,36.00403],[136.06884,36.00398],[136.06858,36.00359],[136.06847,36.00362],[136.06845,36.00363],[136.06873,36.00403]]]}},{"type":"Feature","properties":{"pid":"0a4e8831-1c41-41e8-83bc-82cf34fd9180","full":1.5},"geometry":{"type":"Polygon","coordinates":[[[136.06892,36.00394],[136.06905,36.00389],[136.06878,36.00348],[136.06865,36.00356],[136.06892,36.00394]]]}},{"type":"Feature","properties":{"pid":"655cdd9f-1d91-4b96-a104-9fbb10d4d1dd","full":5.9},"geometry":{"type":"Polygon","coordinates":[[[136.06935,36.00375],[136.06908,36.00336],[136.06888,36.00345],[136.06891,36.0035],[136.06889,36.00354],[136.0691,36.00386],[136.06935,36.00375]]]}},{"type":"Feature","properties":{"pid":"426131fc-8a42-413a-ba50-c67d26919d03","full":13.6},"geometry":{"type":"Polygon","coordinates":[[[136.06863,36.00316],[136.06882,36.0034],[136.06936,36.00315],[136.06927,36.003],[136.06907,36.00282],[136.06863,36.00316]]]}},{"type":"Feature","properties":{"pid":"59b427b7-9999-4c06-a427-0397d79aeff6","full":3.3},"geometry":{"type":"Polygon","coordinates":[[[136.06989,36.00351],[136.0696,36.00313],[136.06946,36.00319],[136.06946,36.00322],[136.06945,36.00323],[136.06969,36.0036],[136.06989,36.00351]]]}},{"type":"Feature","properties":{"pid":"9ec8f9f5-adcd-47f0-891a-34e81c290e02","full":5.0},"geometry":{"type":"Polygon","coordinates":[[[136.06961,36.00312],[136.0699,36.00351],[136.07012,36.00341],[136.06984,36.00305],[136.06981,36.00305],[136.0698,36.00303],[136.06961,36.00312]]]}},{"type":"Feature","properties":{"pid":"e4323570-a5f1-408e-b942-9f4394907cc7","full":8.5},"geometry":{"type":"Polygon","coordinates":[[[136.06937,36.00374],[136.06966,36.00361],[136.06942,36.00324],[136.06938,36.00322],[136.06909,36.00335],[136.06937,36.00374]]]}},{"type":"Feature","properties":{"pid":"a9aefe07-7c48-4e36-b6e0-d8357449671f","full":10.4},"geometry":{"type":"Polygon","coordinates":[[[136.06934,36.00382],[136.06956,36.00416],[136.06984,36.0041],[136.06996,36.00404],[136.06971,36.00366],[136.06934,36.00382]]]}},{"type":"Feature","properties":{"pid":"27f887f0-8003-4d59-9305-462b34d53255","full":5.4},"geometry":{"type":"Polygon","coordinates":[[[136.0699,36.00464],[136.07033,36.00445],[136.07031,36.00441],[136.07012,36.00443],[136.07002,36.0044],[136.06997,36.00435],[136.06982,36.00415],[136.06963,36.00427],[136.0699,36.00464]]]}},{"type":"Feature","properties":{"pid":"dc1747e2-07f1-45ff-99eb-0075761dff47","full":0.5},"geometry":{"type":"Polygon","coordinates":[[[136.0697,36.00473],[136.06981,36.00468],[136.06953,36.00427],[136.06943,36.00433],[136.0697,36.00473]]]}},{"type":"Feature","properties":{"pid":"41c0b0dd-0f5e-421b-9f48-7c8bfa27a87a","full":0.9},"geometry":{"type":"Polygon","coordinates":[[[136.06929,36.00484],[136.06943,36.00477],[136.06924,36.00451],[136.0691,36.00455],[136.06929,36.00484]]]}},{"type":"Feature","properties":{"pid":"1ad458f4-efaa-4fd9-a4e9-dc9b5a21bd7f","full":1.8},"geometry":{"type":"Polygon","coordinates":[[[136.06856,36.00415],[136.06882,36.00454],[136.06897,36.00447],[136.06872,36.00412],[136.06869,36.00411],[136.06867,36.0041],[136.06856,36.00415]]]}},{"type":"Feature","properties":{"pid":"f2e9c627-62fa-4d8f-823c-2566adfdb437","full":1.5},"geometry":{"type":"Polygon","coordinates":[[[136.06878,36.00412],[136.06902,36.00446],[136.06908,36.00443],[136.06915,36.00439],[136.06893,36.00407],[136.06887,36.00407],[136.06878,36.00412]]]}},{"type":"Feature","properties":{"pid":"4603a412-f0da-48f4-8dc8-00d761c0c820","full":1.8},"geometry":{"type":"Polygon","coordinates":[[[136.06897,36.00405],[136.06919,36.00436],[136.06936,36.00431],[136.06914,36.004],[136.06909,36.004],[136.06897,36.00405]]]}},{"type":"Feature","properties":{"pid":"71cb1c24-5f72-46b0-9f9f-8a1d714ad3ad","full":0.6},"geometry":{"type":"Polygon","coordinates":[[[136.06853,36.00412],[136.06865,36.00406],[136.0684,36.00371],[136.06829,36.00376],[136.06853,36.00412]]]}},{"type":"Feature","properties":{"pid":"f684d62e-305b-454f-9ebb-6f67f0cb9770","full":2.9},"geometry":{"type":"Polygon","coordinates":[[[136.06834,36.0042],[136.06851,36.00412],[136.06825,36.00376],[136.06807,36.00381],[136.06834,36.0042]]]}},{"type":"Feature","properties":{"pid":"8c58b05a-47fa-4634-aed3-d104f7a33a77","full":1.1},"geometry":{"type":"Polygon","coordinates":[[[136.06813,36.00428],[136.06825,36.00422],[136.06799,36.00384],[136.06788,36.00392],[136.06813,36.00428]]]}},{"type":"Feature","properties":{"pid":"64caee8c-d090-47d5-92f8-8e44947d4539","full":2.7},"geometry":{"type":"Polygon","coordinates":[[[136.06791,36.00439],[136.06809,36.00431],[136.06784,36.00394],[136.06775,36.00405],[136.06772,36.00412],[136.06791,36.00439]]]}},{"type":"Feature","properties":{"pid":"633adb37-ddb4-48a5-b3d9-43723e62a5ca","full":1.1},"geometry":{"type":"Polygon","coordinates":[[[136.06788,36.00441],[136.06771,36.00415],[136.06767,36.00424],[136.06761,36.00434],[136.0677,36.00449],[136.06788,36.00441]]]}},{"type":"Feature","properties":{"pid":"4f6eb502-30b4-4d5d-a636-ff4e5c52a64e","full":12.9},"geometry":{"type":"Polygon","coordinates":[[[136.0679,36.00491],[136.06755,36.00438],[136.06745,36.00453],[136.06728,36.00473],[136.06732,36.00481],[136.06733,36.00498],[136.06743,36.00503],[136.0679,36.00491]]]}},{"type":"Feature","properties":{"pid":"a5074067-8a3d-4b26-ab7c-2698c4cf557a","full":3.1},"geometry":{"type":"Polygon","coordinates":[[[136.06816,36.00481],[136.06791,36.00444],[136.06773,36.00452],[136.06796,36.00487],[136.06816,36.00481]]]}},{"type":"Feature","properties":{"pid":"e41ffa8e-f5f5-4a57-b4dc-7e3aaa011f12","full":4.0},"geometry":{"type":"Polygon","coordinates":[[[136.06817,36.0048],[136.06828,36.00477],[136.06837,36.00472],[136.06812,36.00434],[136.06792,36.00442],[136.06817,36.0048]]]}},{"type":"Feature","properties":{"pid":"db9d8384-362a-40a2-9a81-60da3788d591","full":1.1},"geometry":{"type":"Polygon","coordinates":[[[136.06842,36.00472],[136.06853,36.00465],[136.06826,36.00423],[136.06823,36.00425],[136.06825,36.00428],[136.06815,36.00432],[136.06842,36.00472]]]}},{"type":"Feature","properties":{"pid":"d0f970e7-74dd-4492-acce-1d2a69cc4df4","full":2.9},"geometry":{"type":"Polygon","coordinates":[[[136.06834,36.00422],[136.06861,36.00461],[136.06865,36.00463],[136.06879,36.00454],[136.06854,36.00419],[136.06845,36.00422],[136.06842,36.00419],[136.06834,36.00422]]]}},{"type":"Feature","properties":{"pid":"b4b79daf-c72b-4e6b-9a0f-fd7a7be6b071","full":1.9},"geometry":{"type":"Polygon","coordinates":[[[136.06874,36.00515],[136.06888,36.00509],[136.06862,36.00471],[136.06859,36.00472],[136.06848,36.00479],[136.06874,36.00515]]]}},{"type":"Feature","properties":{"pid":"82b1b884-7113-4467-a158-5114ae94451c","full":1.8},"geometry":{"type":"Polygon","coordinates":[[[136.06836,36.00533],[136.0685,36.00526],[136.06824,36.00487],[136.06811,36.00496],[136.06836,36.00533]]]}},{"type":"Feature","properties":{"pid":"04b777d4-6d9b-42b1-a687-71e93b668bb8","full":4.3},"geometry":{"type":"Polygon","coordinates":[[[136.0679,36.00548],[136.06807,36.00541],[136.06811,36.00542],[136.06826,36.00536],[136.06804,36.00501],[136.06777,36.00512],[136.0679,36.0052],[136.06795,36.00528],[136.06794,36.00535],[136.06787,36.00543],[136.0679,36.00545],[136.0679,36.00548]]]}},{"type":"Feature","properties":{"pid":"64902de8-5c8a-434b-a793-77791158889b","full":1.0},"geometry":{"type":"Polygon","coordinates":[[[136.06861,36.00569],[136.06876,36.00566],[136.06853,36.00533],[136.06841,36.00538],[136.06841,36.0054],[136.06861,36.00569]]]}},{"type":"Feature","properties":{"pid":"ddf3381a-25f3-4638-a70b-3ce6a0f03d99","full":7.0},"geometry":{"type":"Polygon","coordinates":[[[136.06924,36.0055],[136.0695,36.00534],[136.06926,36.00499],[136.06898,36.00512],[136.06924,36.0055]]]}},{"type":"Feature","properties":{"pid":"b7b1cd4a-caca-4455-af19-c50c80cfed58","full":8.0},"geometry":{"type":"Polygon","coordinates":[[[136.06883,36.00561],[136.06919,36.00552],[136.0689,36.00511],[136.06886,36.00512],[136.06886,36.00515],[136.06875,36.00522],[136.06874,36.00525],[136.06863,36.00529],[136.06862,36.00531],[136.06883,36.00561]]]}},{"type":"Feature","properties":{"pid":"3b309af1-7e55-4e35-ae11-d27b05ce277a","full":10.7},"geometry":{"type":"Polygon","coordinates":[[[136.06897,36.00509],[136.06913,36.00503],[136.06911,36.00499],[136.06923,36.00494],[136.06927,36.00483],[136.06908,36.00455],[136.06878,36.00462],[136.06868,36.00468],[136.06897,36.00509]]]}},{"type":"Feature","properties":{"pid":"b51733c2-436a-420c-8e77-bbf7c6c14f85","full":9.2},"geometry":{"type":"Polygon","coordinates":[[[136.06959,36.0053],[136.06983,36.00522],[136.06992,36.00517],[136.06966,36.00479],[136.06933,36.00494],[136.06959,36.0053]]]}},{"type":"Feature","properties":{"pid":"4b30c071-da2f-4184-a733-4a37cf1c7cbc","full":6.0},"geometry":{"type":"Polygon","coordinates":[[[136.0694,36.00575],[136.06963,36.00578],[136.06963,36.00575],[136.06966,36.00575],[136.06986,36.00577],[136.06962,36.00543],[136.06926,36.00554],[136.0694,36.00575]]]}},{"type":"Feature","properties":{"pid":"52d5c66c-c836-4d75-8668-e02c6c4cd062","full":2.6},"geometry":{"type":"Polygon","coordinates":[[[136.06989,36.00573],[136.07007,36.00567],[136.06983,36.00532],[136.06965,36.00538],[136.06989,36.00573]]]}},{"type":"Feature","properties":{"pid":"fe5f2d2d-541c-4afa-ad12-0e04ed096a5a","full":0.8},"geometry":{"type":"Polygon","coordinates":[[[136.07009,36.00565],[136.07022,36.0056],[136.06997,36.00526],[136.06984,36.00529],[136.07009,36.00565]]]}},{"type":"Feature","properties":{"pid":"73f034c9-151e-4e70-90ad-95a78301ad9c","full":17.9},"geometry":{"type":"Polygon","coordinates":[[[136.07025,36.00553],[136.07071,36.00536],[136.07071,36.00527],[136.07072,36.00524],[136.0708,36.00523],[136.07079,36.00516],[136.07077,36.00511],[136.07065,36.00492],[136.0702,36.0051],[136.07002,36.00521],[136.07025,36.00553]]]}},{"type":"Feature","properties":{"pid":"561e8222-e906-4bc7-bb74-959c70b87fb3","full":17.9},"geometry":{"type":"Polygon","coordinates":[[[136.06998,36.00514],[136.07015,36.00509],[136.07058,36.0049],[136.07055,36.00471],[136.07055,36.00466],[136.07051,36.00458],[136.07046,36.00454],[136.06991,36.00477],[136.06986,36.00476],[136.06982,36.00473],[136.06973,36.00477],[136.06998,36.00514]]]}},{"type":"Feature","properties":{"pid":"65feff1f-cbc5-4153-8353-beb8fce05420","full":6.5},"geometry":{"type":"Polygon","coordinates":[[[136.07433,36.00576],[136.07435,36.00575],[136.07453,36.00548],[136.0742,36.00531],[136.07413,36.0054],[136.0741,36.00548],[136.07408,36.00557],[136.07408,36.00565],[136.07429,36.00575],[136.07433,36.00576]]]}},{"type":"Feature","properties":{"pid":"3baeecee-4e4a-4fe4-8748-5e1c8a3d2cda","full":7.5},"geometry":{"type":"Polygon","coordinates":[[[136.07461,36.00549],[136.07498,36.00565],[136.075,36.00563],[136.07505,36.00544],[136.07505,36.0052],[136.07501,36.00503],[136.07497,36.00501],[136.0747,36.00538],[136.07462,36.00547],[136.07461,36.00549]]]}},{"type":"Feature","properties":{"pid":"11d38274-2147-4ede-8e4c-d90677d6e7c7","full":6.0},"geometry":{"type":"Polygon","coordinates":[[[136.07457,36.00547],[136.07459,36.00545],[136.0748,36.00519],[136.07477,36.00517],[136.07451,36.00507],[136.07432,36.00523],[136.07424,36.00531],[136.07457,36.00547]]]}},{"type":"Feature","properties":{"pid":"36cb8e72-e0af-451b-98e3-8d099b857e48","full":4.7},"geometry":{"type":"Polygon","coordinates":[[[136.07455,36.00505],[136.07481,36.00515],[136.07495,36.00495],[136.07491,36.00486],[136.07482,36.00476],[136.07468,36.00473],[136.07464,36.00484],[136.07463,36.00491],[136.07455,36.00505]]]}},{"type":"Feature","properties":{"pid":"15896e86-f86a-4579-8c2a-87b61a2acb0e","full":3.3},"geometry":{"type":"Polygon","coordinates":[[[136.07447,36.00567],[136.07488,36.00586],[136.07497,36.00569],[136.07458,36.0055],[136.07447,36.00567]]]}},{"type":"Feature","properties":{"pid":"ed187050-9e47-4283-9eb3-ebc1e4a559eb","full":2.0},"geometry":{"type":"Polygon","coordinates":[[[136.07486,36.00586],[136.07445,36.00568],[136.07437,36.00578],[136.07437,36.00579],[136.07438,36.00581],[136.07471,36.00596],[136.07476,36.00596],[136.07486,36.00586]]]}},{"type":"Feature","properties":{"pid":"10b16915-b086-4f41-b07f-1b69f8ad03c1","full":3.0},"geometry":{"type":"Polygon","coordinates":[[[136.07376,36.00605],[136.07392,36.00614],[136.07419,36.00577],[136.07404,36.0057],[136.07402,36.00571],[136.07376,36.00602],[136.07376,36.00605]]]}},{"type":"Feature","properties":{"pid":"fa5a89e7-2dae-4d27-9efa-dc1b5d6214cd","full":6.9},"geometry":{"type":"Polygon","coordinates":[[[136.07424,36.00629],[136.0747,36.00602],[136.07432,36.00585],[136.07405,36.00621],[136.07424,36.00629]]]}},{"type":"Feature","properties":{"pid":"6cc0e48d-83e8-4d49-ba5f-df545fce0026","full":12.6},"geometry":{"type":"Polygon","coordinates":[[[136.07386,36.0066],[136.07421,36.00632],[136.07372,36.00608],[136.07346,36.00638],[136.07346,36.00642],[136.07386,36.0066]]]}},{"type":"Feature","properties":{"pid":"1b11dea5-6f8a-484a-95cc-e365ef9afa03","full":8.6},"geometry":{"type":"Polygon","coordinates":[[[136.07344,36.00645],[136.0733,36.00658],[136.07309,36.00671],[136.07309,36.00673],[136.07331,36.00692],[136.07358,36.00677],[136.07382,36.00662],[136.07344,36.00645]]]}},{"type":"Feature","properties":{"pid":"b18cd5b8-d918-474c-bf7f-abafda59f11f","full":5.5},"geometry":{"type":"Polygon","coordinates":[[[136.0727,36.00707],[136.07283,36.00705],[136.07306,36.00701],[136.07326,36.00693],[136.07305,36.00673],[136.0726,36.00695],[136.0727,36.00707]]]}},{"type":"Feature","properties":{"pid":"510dea24-2d11-445e-90b6-44304998cd28","full":5.4},"geometry":{"type":"Polygon","coordinates":[[[136.07023,36.00728],[136.07048,36.00727],[136.07045,36.0072],[136.0702,36.00684],[136.07011,36.00675],[136.07007,36.00674],[136.06996,36.00686],[136.07011,36.00708],[136.07023,36.00728]]]}},{"type":"Feature","properties":{"pid":"bd0d94ad-0651-4f61-8815-87b1d4ae32b2","full":5.6},"geometry":{"type":"Polygon","coordinates":[[[136.06995,36.00585],[136.07012,36.0059],[136.07026,36.0059],[136.07056,36.00574],[136.07081,36.00564],[136.07083,36.00552],[136.07081,36.00548],[136.07038,36.00563],[136.07009,36.00576],[136.06995,36.00585]]]}},{"type":"Feature","properties":{"pid":"1b5ef6a8-bec5-4518-8ae4-b023ec11535a","full":1.8},"geometry":{"type":"Polygon","coordinates":[[[136.06747,36.00651],[136.06767,36.00637],[136.06761,36.00629],[136.06756,36.00626],[136.06732,36.00634],[136.06732,36.00638],[136.06734,36.00644],[136.06747,36.00651]]]}},{"type":"Feature","properties":{"pid":"4abfd090-375d-4e58-bf1e-bb8555662804","full":3.3},"geometry":{"type":"Polygon","coordinates":[[[136.06803,36.00574],[136.06819,36.00587],[136.06828,36.00588],[136.06837,36.00587],[136.0681,36.00549],[136.06788,36.00558],[136.06798,36.00573],[136.06803,36.00574]]]}}],"precision":5}