{"type":"FeatureCollection","features":[{"type":"Feature","properties":{"pid":"7f7e79d2-1e6c-453e-b2ee-11d3c30cccc6"},"geometry":{"type":"Polygon","coordinates":[[[135.90449010437086,35.48974157956076],[135.90450520927666,35.48973027899886],[135.9046384802734,35.489638331420636],[135.90459606822193,35.48961766130151],[135.90452233308073,35.489642840066885],[135.90449010437086,35.48974157956076]]]}},{"type":"Feature","properties":{"pid":"e88fdf75-3409-42f4-8f3e-fe6e1e905466"},"geometry":{"type":"Polygon","coordinates":[[[135.90412546474488,35.490182407564745],[135.90421902762586,35.49025864071038],[135.90432292193464,35.49000468890782],[135.90432296659588,35.4899669787602],[135.9042821417359,35.489898431368935],[135.9042219341232,35.48992250985797],[135.9041881090643,35.48995861362693],[135.90411268255085,35.490149161551706],[135.90412546474488,35.490182407564745]]]}},{"type":"Feature","properties":{"pid":"375ff5fe-47b0-4800-b662-7cfb54f1b676"},"geometry":{"type":"Polygon","coordinates":[[[135.9002668431719,35.48777752914257],[135.90030170212697,35.487855720254515],[135.900339067762,35.48793115690167],[135.90038633773338,35.48779216992497],[135.9002668431719,35.48777752914257]]]}},{"type":"Feature","properties":{"pid":"6af86680-c1f0-4521-b0d2-0a80a148f73b"},"geometry":{"type":"Polygon","coordinates":[[[135.900430628074,35.48769239981654],[135.9006087026718,35.48738313639396],[135.90049249073752,35.48730702834348],[135.90044080129093,35.48730094580468],[135.90021019046728,35.48750802507256],[135.90024130508272,35.48766976980772],[135.900430628074,35.48769239981654]]]}},{"type":"Feature","properties":{"pid":"a98d9045-2d2f-4f8a-b3c1-cb17d6ca8f35"},"geometry":{"type":"Polygon","coordinates":[[[135.89989065095213,35.48686705904567],[135.9003415195596,35.48699611280649],[135.90042084535108,35.486924303414675],[135.90005624997164,35.48678786481225],[135.89989065095213,35.48686705904567]]]}},{"type":"Feature","properties":{"pid":"bbe523b3-ef6b-46a5-8240-60f6065bd2ac"},"geometry":{"type":"Polygon","coordinates":[[[135.90033220971577,35.48620283897889],[135.9004554502079,35.48634266215395],[135.90061450101453,35.48625659193896],[135.90074273667676,35.48618164119734],[135.90072908999895,35.48597796533672],[135.90070850810872,35.48597516863391],[135.9005263084298,35.486062727556316],[135.90033220971577,35.48620283897889]]]}},{"type":"Feature","properties":{"pid":"e1c47b26-e2a1-4db5-8309-328260595641"},"geometry":{"type":"Polygon","coordinates":[[[135.89997263474996,35.4862450042067],[135.90018860723768,35.48650191742867],[135.90034685509482,35.486412693047626],[135.90018672505352,35.48621345838631],[135.90010287182375,35.48620354022457],[135.89997263474996,35.4862450042067]]]}},{"type":"Feature","properties":{"pid":"b25d841d-f523-4178-a314-2c21bcc6ca40"},"geometry":{"type":"Polygon","coordinates":[[[135.90018752374604,35.48670746251436],[135.90050296174098,35.486826839496786],[135.90058188582853,35.48670846063247],[135.90067067760398,35.48645255317702],[135.90018752374604,35.48670746251436]]]}},{"type":"Feature","properties":{"pid":"3b6e921c-75d6-48a4-b0b3-0f749b4970d7"},"geometry":{"type":"Polygon","coordinates":[[[135.9015575560233,35.486268934821794],[135.90165184092604,35.486334864745785],[135.90171811415954,35.48621863112957],[135.90160681708463,35.486186889636116],[135.9015575560233,35.486268934821794]]]}},{"type":"Feature","properties":{"pid":"860a2fab-c3be-4847-a114-bb955cb88b3b"},"geometry":{"type":"Polygon","coordinates":[[[135.9017453470718,35.48642725069341],[135.90179421008267,35.4864924812793],[135.90190693095246,35.486295485035946],[135.9018448809663,35.486264794371436],[135.9017453470718,35.48642725069341]]]}},{"type":"Feature","properties":{"pid":"e036664c-78d5-4791-93d6-7aaee4d90d26"},"geometry":{"type":"Polygon","coordinates":[[[135.9000205449225,35.48902013709811],[135.90003728452947,35.48920606231633],[135.9001247040639,35.489200050486794],[135.9001131025566,35.489012906473704],[135.9000205449225,35.48902013709811]]]}},{"type":"Feature","properties":{"pid":"a80844a1-6fab-40b0-a22f-c17c3480816b"},"geometry":{"type":"Polygon","coordinates":[[[135.90007917744367,35.488687710987044],[135.9001677774946,35.488688788040854],[135.90016916977447,35.488598758186455],[135.9002022696858,35.48842167783783],[135.90008679861646,35.488391996420454],[135.90005195016494,35.48840514869397],[135.90007917744367,35.488687710987044]]]}},{"type":"Feature","properties":{"pid":"b3638f4e-deb4-43bf-a112-dc253a8296fd"},"geometry":{"type":"Polygon","coordinates":[[[135.90011567625828,35.48996947771993],[135.90013156675084,35.49013664883453],[135.90020255563928,35.49013551504841],[135.90019350613161,35.48996222456248],[135.90011567625828,35.48996947771993]]]}},{"type":"Feature","properties":{"pid":"072f11e0-c786-4333-a8b2-3c0565db938a"},"geometry":{"type":"Polygon","coordinates":[[[135.9000720476383,35.489613782510595],[135.90010153059032,35.48986824018462],[135.9001933449129,35.489861019394404],[135.9001916778193,35.48961236059073],[135.9000720476383,35.489613782510595]]]}},{"type":"Feature","properties":{"pid":"816f22ea-edf5-4c02-95d3-834c86ce2947"},"geometry":{"type":"Polygon","coordinates":[[[135.90014247551562,35.48930399001615],[135.90004669258727,35.48931056160191],[135.90005640246108,35.4894184134727],[135.90014307899875,35.48941068047786],[135.90014247551562,35.48930399001615]]]}},{"type":"Feature","properties":{"pid":"027e8026-78ab-43d2-b6dc-e9aa3f6d57ce"},"geometry":{"type":"Polygon","coordinates":[[[135.90022909405081,35.49028986001366],[135.90014359230096,35.490295599751725],[135.90017915563698,35.49058735072302],[135.90026617892957,35.490582849197764],[135.90022909405081,35.49028986001366]]]}}]}