{"type":"FeatureCollection","features":[{"type":"Feature","properties":{"pid":"5e10e94b-fd29-4fd5-a83f-24b93d3ef19a"},"geometry":{"type":"Polygon","coordinates":[[[135.47353654725256,35.54244751992111],[135.47355434461073,35.54244538569256],[135.47352190819743,35.54236167526549],[135.47348376005695,35.54231557951874],[135.4734204830458,35.54234537860293],[135.47353654725256,35.54244751992111]]]}},{"type":"Feature","properties":{"pid":"5e523d07-a830-4b0e-a326-26c4c4375d62"},"geometry":{"type":"Polygon","coordinates":[[[135.4729948505033,35.541478375092105],[135.47316295893856,35.54163195898949],[135.47319971212923,35.54156189048039],[135.47313507049455,35.54149381692889],[135.47305488414932,35.54150329682659],[135.4729948505033,35.541478375092105]]]}},{"type":"Feature","properties":{"pid":"7cd25678-64cb-4f9b-a5f0-415ea704a110"},"geometry":{"type":"Polygon","coordinates":[[[135.47408564902605,35.543297342801516],[135.47414556204507,35.54334680296567],[135.47421240876798,35.543329326331026],[135.47423723714064,35.5433014078444],[135.47411630626164,35.54326739325234],[135.47408564902605,35.543297342801516]]]}}]}