{"type":"FeatureCollection","features":[{"type":"Feature","properties":{"pid":"e98b7aca-a3e8-4886-bf1c-4a22b6ebb7f2"},"geometry":{"type":"Polygon","coordinates":[[[136.32313027332873,36.02848601065784],[136.3233090809107,36.028598065887245],[136.32334552110518,36.028522555539865],[136.3231985423976,36.028499871172805],[136.32313027332873,36.02848601065784]]]}},{"type":"Feature","properties":{"pid":"c991018a-f67e-4db6-8bf3-8b9b13026c49"},"geometry":{"type":"Polygon","coordinates":[[[136.3247364992953,36.02906484617215],[136.3245666621087,36.02932429642888],[136.3248098494995,36.02938157675675],[136.3249537448869,36.02916220542531],[136.3247364992953,36.02906484617215]]]}},{"type":"Feature","properties":{"pid":"0607ed60-3b8e-4fca-b5df-d162878af1df"},"geometry":{"type":"Polygon","coordinates":[[[136.32437986993995,36.02917183639653],[136.32457681992048,36.02897098127191],[136.32443414102056,36.028850396527645],[136.3243035530707,36.02899427144575],[136.3242929543819,36.02903807595116],[136.32437986993995,36.02917183639653]]]}},{"type":"Feature","properties":{"pid":"ca2a0849-6c54-4014-bad7-a4d130ace6e5"},"geometry":{"type":"Polygon","coordinates":[[[136.3241388411798,36.02886790810247],[136.32420858311556,36.02889420564083],[136.32432472000178,36.02876975862942],[136.32425521409536,36.028728985925696],[136.3241388411798,36.02886790810247]]]}},{"type":"Feature","properties":{"pid":"3637c9b3-7ecd-4839-b67f-8c15c83156e2"},"geometry":{"type":"Polygon","coordinates":[[[136.3241481330153,36.028675034843445],[136.32399769779636,36.02861932428094],[136.3239331414109,36.02875097510197],[136.32403458565173,36.02881391141344],[136.3241481330153,36.028675034843445]]]}},{"type":"Feature","properties":{"pid":"89f608c3-86f7-4518-adcf-d2769b998b13"},"geometry":{"type":"Polygon","coordinates":[[[136.3237612865435,36.02856563485498],[136.3237307561854,36.028678769028375],[136.32382974459043,36.02870401022541],[136.3238845403631,36.02858951740708],[136.3237612865435,36.02856563485498]]]}},{"type":"Feature","properties":{"pid":"2ae96296-280b-4964-b982-5186122581da"},"geometry":{"type":"Polygon","coordinates":[[[136.3244399992997,36.02449548269464],[136.3243291117197,36.02432406432422],[136.32429290776,36.02434102577382],[136.3243890755895,36.02448400472112],[136.3244399992997,36.02449548269464]]]}},{"type":"Feature","properties":{"pid":"4e0754ea-329a-4e55-9d1a-83fffd03f0ba"},"geometry":{"type":"Polygon","coordinates":[[[136.323743448833,36.02416715435973],[136.32363876081686,36.024203234521515],[136.3237508215374,36.02437562308462],[136.3238725303334,36.0244002276934],[136.323743448833,36.02416715435973]]]}},{"type":"Feature","properties":{"pid":"7bc68c9b-1d6d-414e-8b32-161f2d5b3d2f"},"geometry":{"type":"Polygon","coordinates":[[[136.32367943530298,36.02408127383415],[136.32368046161292,36.02405767964694],[136.32353223259037,36.02381312441507],[136.32291682213656,36.0240592684045],[136.32307399455215,36.024274893791116],[136.32321695496879,36.02428436395836],[136.32359573330436,36.024352219943715],[136.3234950539443,36.02416736009573],[136.32352246018297,36.024137091990106],[136.32367943530298,36.02408127383415]]]}},{"type":"Feature","properties":{"pid":"68b79173-3e20-49cd-95e6-08d23f64edad"},"geometry":{"type":"Polygon","coordinates":[[[136.32466316391898,36.02402655449414],[136.32453645694267,36.023805600709444],[136.32388193502925,36.024074869023984],[136.3240204731464,36.024282297654764],[136.32466316391898,36.02402655449414]]]}},{"type":"Feature","properties":{"pid":"11691178-488c-40b5-a51f-d11d58113d35"},"geometry":{"type":"Polygon","coordinates":[[[136.32475282075538,36.024153517089495],[136.32468223272187,36.02418416670224],[136.32495472182447,36.02462799555323],[136.32505892227374,36.024642425263295],[136.32475282075538,36.024153517089495]]]}},{"type":"Feature","properties":{"pid":"5f410171-9273-44eb-a038-76d9620416df"},"geometry":{"type":"Polygon","coordinates":[[[136.32479518099586,36.024596876245354],[136.3245669007763,36.02422232056518],[136.32443729117983,36.02427744366869],[136.32460413190873,36.024531056111634],[136.32479518099586,36.024596876245354]]]}},{"type":"Feature","properties":{"pid":"06201e21-da8b-4dcc-9f80-0a30110ec2eb"},"geometry":{"type":"Polygon","coordinates":[[[136.3223400807195,36.02432873153236],[136.3228269882394,36.02430776771956],[136.32266759061844,36.02403339026587],[136.32235780532577,36.02412254474596],[136.3223400807195,36.02432873153236]]]}},{"type":"Feature","properties":{"pid":"239e7f41-33a9-48c4-be63-a1814ee66008"},"geometry":{"type":"Polygon","coordinates":[[[136.32209242308593,36.024155651983996],[136.3220985553015,36.024200405991444],[136.32221761159826,36.02418982479251],[136.3222340023158,36.02417487217753],[136.32223505753328,36.02415597387116],[136.32209242308593,36.024155651983996]]]}},{"type":"Feature","properties":{"pid":"ef51c18f-30a8-4cf1-ac5b-7c6d9a3081e2"},"geometry":{"type":"Polygon","coordinates":[[[136.3217323189716,36.024073388574614],[136.32205227534192,36.02403366859117],[136.32207764008763,36.02405677028524],[136.32219689067017,36.024056197220105],[136.32213351479362,36.023952381565294],[136.32172239202984,36.024016143591325],[136.3217323189716,36.024073388574614]]]}},{"type":"Feature","properties":{"pid":"b4ffa899-599c-4790-883c-13ac023fecef"},"geometry":{"type":"Polygon","coordinates":[[[136.3212255702618,36.02400326069662],[136.32123947561186,36.024117861286356],[136.32129308170127,36.02414736455965],[136.3212939994339,36.023946564473626],[136.3212255702618,36.02400326069662]]]}},{"type":"Feature","properties":{"pid":"401edd6e-c745-4d02-ae47-6e5b9513b339"},"geometry":{"type":"Polygon","coordinates":[[[136.32144960460982,36.024195128636144],[136.32157747403858,36.024228474891295],[136.32150466157415,36.023863334205],[136.32141481100695,36.023900528068815],[136.32141276953703,36.024169899623914],[136.32144960460982,36.024195128636144]]]}},{"type":"Feature","properties":{"pid":"550359d0-5b63-4326-896d-bc3ad0c6810c"},"geometry":{"type":"Polygon","coordinates":[[[136.32219731379755,36.02436166177334],[136.32220763250473,36.024289707113844],[136.3221190178157,36.02429487145325],[136.32211429966836,36.02435144182318],[136.32219731379755,36.02436166177334]]]}},{"type":"Feature","properties":{"pid":"74fddd86-2170-4b21-9394-031ecdd61778"},"geometry":{"type":"Polygon","coordinates":[[[136.31945141367567,36.02557533616259],[136.3195094720078,36.02553116419195],[136.31948467556185,36.02548186745439],[136.3194939269528,36.0254506965639],[136.31942903328417,36.025306873457275],[136.31939119389017,36.02531069153781],[136.3193816669919,36.025443372064],[136.3194220075683,36.02554373296838],[136.31945141367567,36.02557533616259]]]}},{"type":"Feature","properties":{"pid":"06cc9ec0-5ab7-43ce-8c16-9b08162069be"},"geometry":{"type":"Polygon","coordinates":[[[136.31842122305497,36.02417030828821],[136.31841476809404,36.02415823268823],[136.31801461408514,36.02429442834631],[136.31805202164625,36.024365292917786],[136.31842122305497,36.02417030828821]]]}},{"type":"Feature","properties":{"pid":"d5b30c1c-f4bc-4bba-b7ee-78b445527ec1"},"geometry":{"type":"Polygon","coordinates":[[[136.31880330754603,36.02517047142833],[136.31895354799803,36.02516268817918],[136.31896752398143,36.025157124903686],[136.31892567813793,36.02508518865512],[136.31880007263612,36.02514589608392],[136.31880330754603,36.02517047142833]]]}},{"type":"Feature","properties":{"pid":"70972db9-7c5b-49fd-950f-12fdc4866012"},"geometry":{"type":"Polygon","coordinates":[[[136.3202512453188,36.0238941148634],[136.31993814821166,36.02387254018048],[136.31992699097844,36.0239373049339],[136.3199652549876,36.02403693628104],[136.32024407449228,36.023946453436814],[136.3202512453188,36.0238941148634]]]}},{"type":"Feature","properties":{"pid":"a51982b0-cc6b-4bf4-8410-89d891cd5e13"},"geometry":{"type":"Polygon","coordinates":[[[136.31903302451144,36.02389656354035],[136.31899412042702,36.023842117608424],[136.31851672837234,36.02400119084808],[136.31853272987306,36.02403363548953],[136.31877845467534,36.02395172615398],[136.31903302451144,36.02389656354035]]]}},{"type":"Feature","properties":{"pid":"fe17e882-793b-4541-b68d-51bb302d212f"},"geometry":{"type":"Polygon","coordinates":[[[136.3186250727371,36.02417432675268],[136.31874566122065,36.024127648656034],[136.3187327574702,36.024080392573644],[136.31858921910793,36.024122709308116],[136.3186250727371,36.02417432675268]]]}},{"type":"Feature","properties":{"pid":"4b8af07b-b8f0-4dee-a49b-86cb5de4b7bd"},"geometry":{"type":"Polygon","coordinates":[[[136.31832341077097,36.02397777702875],[136.317924107027,36.02411980794482],[136.31796477389346,36.02420159474775],[136.31836824163645,36.024065448737815],[136.31832341077097,36.02397777702875]]]}},{"type":"Feature","properties":{"pid":"66de6ea9-5834-40d2-a63a-77717f9753c7"},"geometry":{"type":"Polygon","coordinates":[[[136.31827533849685,36.023884959384084],[136.31823449762481,36.02381852171828],[136.3180930325452,36.02384123555956],[136.3178271067442,36.0239128445771],[136.3178792482496,36.02402814854997],[136.31827533849685,36.023884959384084]]]}},{"type":"Feature","properties":{"pid":"bed11a2f-d8f4-4578-ba5c-83be71504110"},"geometry":{"type":"Polygon","coordinates":[[[136.31716921081264,36.02416432968539],[136.31721946674222,36.02425551902088],[136.3177279173184,36.02407890923075],[136.3176837113569,36.02399187876343],[136.31716921081264,36.02416432968539]]]}},{"type":"Feature","properties":{"pid":"fe158fa8-a930-4e62-aecb-0359490c5118"},"geometry":{"type":"Polygon","coordinates":[[[136.31650833681925,36.0244150419542],[136.31654428384897,36.0244777739397],[136.31704845136537,36.02430963151153],[136.31700020465192,36.02422617085545],[136.31650833681925,36.0244150419542]]]}},{"type":"Feature","properties":{"pid":"93679d09-40f0-4c4a-8ab5-e72ec58f4d2b"},"geometry":{"type":"Polygon","coordinates":[[[136.31598858653524,36.02472367441035],[136.31605900649527,36.024800401873115],[136.3160633551742,36.02484142332605],[136.3164192569923,36.02471085773287],[136.31632870885684,36.02453425598416],[136.31598858653524,36.02472367441035]]]}},{"type":"Feature","properties":{"pid":"b33f8ac0-6200-4fc0-8c3f-d66e42de3e9c"},"geometry":{"type":"Polygon","coordinates":[[[136.31659521915597,36.0250377554397],[136.31652386414953,36.024905011801465],[136.31628670933054,36.02498680876057],[136.31635729110272,36.0250075218426],[136.31659521915597,36.0250377554397]]]}},{"type":"Feature","properties":{"pid":"fd3210f2-94c7-42f8-867e-8fa2e64685c7"},"geometry":{"type":"Polygon","coordinates":[[[136.3172777541521,36.024737230088704],[136.3167633604793,36.0249116624852],[136.31682567884408,36.02503293241116],[136.31685657109927,36.025039053514966],[136.31739386598005,36.02500950969165],[136.3172777541521,36.024737230088704]]]}},{"type":"Feature","properties":{"pid":"9e4ea9c3-b4b5-4234-9a47-4c8f59fae0a4"},"geometry":{"type":"Polygon","coordinates":[[[136.31718457939408,36.024569069550225],[136.31667980511108,36.02474068960714],[136.31671404638317,36.02480739688245],[136.3172180569074,36.02464093401331],[136.31718457939408,36.024569069550225]]]}},{"type":"Feature","properties":{"pid":"632b3a98-43c4-454f-8c79-2c203ae9e69d"},"geometry":{"type":"Polygon","coordinates":[[[136.31659040970465,36.024582007163204],[136.3166231917229,36.024643820067205],[136.31712138535616,36.02447722644318],[136.31709708801043,36.02441428318404],[136.31659040970465,36.024582007163204]]]}},{"type":"Feature","properties":{"pid":"a496995a-a741-43d0-a5a6-4f92b249337c"},"geometry":{"type":"Polygon","coordinates":[[[136.31777033419235,36.02436993363732],[136.31736177006957,36.024504483920275],[136.31739356977087,36.02458017129859],[136.31781440871313,36.02445161823853],[136.31777033419235,36.02436993363732]]]}},{"type":"Feature","properties":{"pid":"71b99976-69cc-445e-8015-099ebf858169"},"geometry":{"type":"Polygon","coordinates":[[[136.31730158821506,36.02441491282588],[136.31781669430129,36.02425490607649],[136.317774799499,36.024178620200864],[136.3172705713368,36.02435297604648],[136.31730158821506,36.02441491282588]]]}},{"type":"Feature","properties":{"pid":"b18a1508-a964-49d4-bb31-9e8599d9c515"},"geometry":{"type":"Polygon","coordinates":[[[136.31755470650756,36.024896417006325],[136.31766185146842,36.02478846970698],[136.31785494476782,36.02470499167597],[136.31777340806488,36.02457515782571],[136.31744805145772,36.02468412478635],[136.31755470650756,36.024896417006325]]]}}]}