{"type":"FeatureCollection","features":[{"type":"Feature","properties":{"pid":"4d961542-041f-4150-9701-9e580b42d3a5","full":7.2},"geometry":{"type":"Polygon","coordinates":[[[136.47476,36.10812],[136.47484,36.10818],[136.47487,36.10822],[136.47492,36.10826],[136.47494,36.10826],[136.47505,36.10826],[136.47506,36.10825],[136.47514,36.10793],[136.47512,36.10791],[136.47511,36.10787],[136.47481,36.10778],[136.47479,36.10778],[136.47473,36.10791],[136.47478,36.10796],[136.47479,36.10798],[136.47476,36.1081],[136.47476,36.10812]]]}},{"type":"Feature","properties":{"pid":"5ccc5338-42af-4602-ad63-d4b497040834","full":14.4},"geometry":{"type":"Polygon","coordinates":[[[136.47444,36.10833],[136.47446,36.10833],[136.47472,36.10809],[136.47474,36.108],[136.47473,36.10798],[136.47467,36.10792],[136.47474,36.10776],[136.4744,36.10768],[136.47438,36.10766],[136.47436,36.10765],[136.47436,36.10762],[136.47437,36.10744],[136.47435,36.10744],[136.47435,36.10742],[136.47433,36.10741],[136.47428,36.10742],[136.47427,36.10744],[136.47423,36.10743],[136.4742,36.10746],[136.47418,36.10751],[136.47415,36.10754],[136.47444,36.10833]]]}},{"type":"Feature","properties":{"pid":"b8fc8e32-e8ea-4629-8334-e800e9a05aa9","full":2.3},"geometry":{"type":"Polygon","coordinates":[[[136.47514,36.10716],[136.47519,36.10704],[136.47501,36.10711],[136.47501,36.10713],[136.47493,36.10714],[136.47484,36.10742],[136.47495,36.10748],[136.47503,36.10754],[136.47505,36.10754],[136.47504,36.10751],[136.47508,36.10743],[136.47508,36.10739],[136.47508,36.10722],[136.47509,36.1072],[136.47514,36.10716]]]}},{"type":"Feature","properties":{"pid":"dfc75d57-0cb2-4c31-90ed-fd685c38ea30","full":4.3},"geometry":{"type":"Polygon","coordinates":[[[136.47276,36.1076],[136.4728,36.1076],[136.47313,36.10747],[136.47313,36.10741],[136.47307,36.10726],[136.47266,36.1074],[136.47276,36.1076]]]}},{"type":"Feature","properties":{"pid":"fb4f4016-5008-49f2-887b-167ea24dc430","full":0.8},"geometry":{"type":"Polygon","coordinates":[[[136.4739,36.10713],[136.47371,36.1072],[136.47371,36.10721],[136.4737,36.10722],[136.47383,36.10744],[136.47384,36.10744],[136.47387,36.10742],[136.47391,36.10733],[136.47392,36.1072],[136.47391,36.10714],[136.4739,36.10713]]]}},{"type":"Feature","properties":{"pid":"eac36be8-5fcf-4da0-a063-53cbe1a41b96","full":1.5},"geometry":{"type":"Polygon","coordinates":[[[136.47312,36.10784],[136.47291,36.10784],[136.47292,36.10792],[136.47295,36.10797],[136.473,36.10801],[136.47304,36.10803],[136.47312,36.10803],[136.47316,36.10801],[136.47322,36.10795],[136.47323,36.1079],[136.47322,36.10787],[136.47323,36.10785],[136.47322,36.10783],[136.47322,36.10782],[136.47312,36.10784]]]}},{"type":"Feature","properties":{"pid":"1fa29d14-fccf-4233-b1c8-0dd38de89069","full":14.5},"geometry":{"type":"Polygon","coordinates":[[[136.47331,36.10785],[136.47333,36.10786],[136.47345,36.10783],[136.4736,36.10783],[136.47379,36.10759],[136.47379,36.10756],[136.47364,36.10733],[136.47322,36.10736],[136.47321,36.10738],[136.4732,36.10747],[136.47327,36.10765],[136.47327,36.10772],[136.47331,36.10785]]]}},{"type":"Feature","properties":{"pid":"da1379b2-4aba-41c0-a39b-19d7d4cb6ad4","full":0.8},"geometry":{"type":"Polygon","coordinates":[[[136.47257,36.10829],[136.47261,36.10832],[136.4727,36.10834],[136.47278,36.10841],[136.47286,36.10835],[136.47285,36.10833],[136.47285,36.10831],[136.47282,36.10827],[136.47266,36.10814],[136.47259,36.10819],[136.47257,36.10818],[136.47255,36.10821],[136.47257,36.10829]]]}},{"type":"Feature","properties":{"pid":"3cb1ef44-d03f-4911-97c3-c6d9e43ecdf6","full":3.7},"geometry":{"type":"Polygon","coordinates":[[[136.46756,36.10772],[136.46759,36.10771],[136.46767,36.10764],[136.46768,36.10762],[136.46727,36.10714],[136.46725,36.10713],[136.46711,36.10719],[136.46711,36.1072],[136.46756,36.10772]]]}},{"type":"Feature","properties":{"pid":"dcc52586-b040-4f9d-b068-cd54531d6630","full":4.0},"geometry":{"type":"Polygon","coordinates":[[[136.4674,36.10786],[136.46745,36.10784],[136.46754,36.10775],[136.46708,36.10722],[136.46707,36.10722],[136.46693,36.10728],[136.46694,36.10731],[136.4673,36.10773],[136.46732,36.10775],[136.46733,36.10776],[136.4674,36.10786]]]}},{"type":"Feature","properties":{"pid":"2b8def18-372a-4d08-900f-45f7c67a3fa5","full":2.9},"geometry":{"type":"Polygon","coordinates":[[[136.46729,36.10799],[136.46734,36.10795],[136.46736,36.1079],[136.4669,36.10734],[136.46688,36.10732],[136.46676,36.10738],[136.46675,36.10739],[136.46727,36.108],[136.46729,36.10799]]]}},{"type":"Feature","properties":{"pid":"a205d629-6d2e-421e-8eb8-07f3c5f24130","full":2.2},"geometry":{"type":"Polygon","coordinates":[[[136.46686,36.10786],[136.46656,36.10751],[136.46652,36.10752],[136.46648,36.10755],[136.46643,36.10768],[136.46644,36.1077],[136.46648,36.10776],[136.46656,36.10781],[136.46662,36.10781],[136.46666,36.10782],[136.46669,36.10784],[136.46679,36.10786],[136.46683,36.10786],[136.46686,36.10786]]]}},{"type":"Feature","properties":{"pid":"ee088ceb-6f48-4187-a60b-b937c2c84fdf","full":0.8},"geometry":{"type":"Polygon","coordinates":[[[136.46668,36.10744],[136.46659,36.10749],[136.46701,36.10796],[136.46706,36.10799],[136.46718,36.10802],[136.46722,36.10806],[136.46723,36.10806],[136.46724,36.10805],[136.46671,36.10744],[136.46668,36.10744]]]}},{"type":"Feature","properties":{"pid":"dd17e12c-afe0-4296-a364-fd7cf220b3f1","full":0.6},"geometry":{"type":"Polygon","coordinates":[[[136.47256,36.10859],[136.47271,36.10845],[136.47271,36.10843],[136.47268,36.10842],[136.47267,36.1084],[136.47258,36.10837],[136.47257,36.10837],[136.47245,36.10851],[136.47245,36.10852],[136.47256,36.10859]]]}},{"type":"Feature","properties":{"pid":"67c3c87b-a0ab-454b-a4aa-ae45711c5a25","full":11.4},"geometry":{"type":"Polygon","coordinates":[[[136.47503,36.10831],[136.47502,36.10829],[136.47491,36.10829],[136.47476,36.10817],[136.47472,36.10818],[136.47472,36.10817],[136.4745,36.10838],[136.47451,36.10839],[136.47453,36.10846],[136.47455,36.10869],[136.47456,36.1087],[136.47478,36.10866],[136.47488,36.10865],[136.47491,36.10863],[136.47495,36.1086],[136.47504,36.10836],[136.47504,36.10834],[136.47503,36.10834],[136.47503,36.10831]]]}}],"precision":5}