{"type":"FeatureCollection","features":[{"type":"Feature","properties":{"pid":"c4dc3833-88e8-4b88-827f-2f5bb01a7987"},"geometry":{"type":"Polygon","coordinates":[[[136.02489840009926,35.96114598105008],[136.0250011646201,35.96118345196551],[136.02524163738082,35.961225449123],[136.02534888921497,35.96126104948638],[136.02541749239091,35.96122089023466],[136.02541790384825,35.961179007134696],[136.02520137197683,35.9611289290662],[136.02498103758543,35.96104973447826],[136.02489840009926,35.96114598105008]]]}},{"type":"Feature","properties":{"pid":"2992bbfe-cb4f-4680-825b-883adf0c36e9"},"geometry":{"type":"Polygon","coordinates":[[[136.0255335365315,35.96136776129299],[136.025658564686,35.96139902372019],[136.0256763750792,35.961267907711544],[136.02563104614907,35.96128300345999],[136.0255335365315,35.96136776129299]]]}},{"type":"Feature","properties":{"pid":"a96a6677-8aa9-4ffd-b5a8-226f02162b09"},"geometry":{"type":"Polygon","coordinates":[[[136.02581830801827,35.96121713375054],[136.02581008328167,35.96142341694699],[136.02594446793313,35.961463780331606],[136.02588904348596,35.961235802474874],[136.02585406655265,35.96120309364235],[136.02581830801827,35.96121713375054]]]}},{"type":"Feature","properties":{"pid":"1e3a4204-56b5-44af-a8f5-339a49227b84"},"geometry":{"type":"Polygon","coordinates":[[[136.02603926660606,35.961060581625794],[136.0260420321399,35.96109550920773],[136.02610575403122,35.96117785657706],[136.02617238420595,35.96141643638396],[136.0262532024928,35.96138477893986],[136.02612878455542,35.961081599710454],[136.02608837011874,35.96105759584691],[136.02603926660606,35.961060581625794]]]}},{"type":"Feature","properties":{"pid":"c6c92545-47e4-4079-8bad-c2513512092c"},"geometry":{"type":"Polygon","coordinates":[[[136.02624329685008,35.96102969913902],[136.02637747730046,35.961349919082224],[136.02647234539413,35.96135259495905],[136.02635468449998,35.96101577490469],[136.02624329685008,35.96102969913902]]]}},{"type":"Feature","properties":{"pid":"ed9fa24e-8c25-4577-9d10-fe39ecb8087d"},"geometry":{"type":"Polygon","coordinates":[[[136.02635241773984,35.96163952962989],[136.0265173796883,35.96167199055856],[136.02654627069433,35.961690158588716],[136.02656288567061,35.96165230456234],[136.02650522444907,35.96162829761498],[136.02635241773984,35.96163952962989]]]}},{"type":"Feature","properties":{"pid":"6f518ff7-c304-4c10-b6fa-23408985135a"},"geometry":{"type":"Polygon","coordinates":[[[136.02575437245997,35.96176372955614],[136.025960773696,35.961802529819096],[136.02628887147384,35.96190686962568],[136.02631891302727,35.961933180333666],[136.02634935471772,35.96184363722414],[136.0257664541359,35.96172082871092],[136.02575437245997,35.96176372955614]]]}},{"type":"Feature","properties":{"pid":"b0d29560-5444-4a30-957c-9b8e5bf8b47a"},"geometry":{"type":"Polygon","coordinates":[[[136.02517635876788,35.9621671597503],[136.02542377753542,35.96218754767716],[136.0254782294993,35.96213922981525],[136.02522446145596,35.962086664807984],[136.02517635876788,35.9621671597503]]]}},{"type":"Feature","properties":{"pid":"f9a1ae34-3f6a-48f0-8edd-ee437ca470a7"},"geometry":{"type":"Polygon","coordinates":[[[136.0253266908571,35.96197042131334],[136.02546281135983,35.96199120022902],[136.02551490120763,35.96187407706736],[136.02554686786152,35.961836506499125],[136.02537727794828,35.96181199333537],[136.0253266908571,35.96197042131334]]]}},{"type":"Feature","properties":{"pid":"cd6f18b7-9a79-4a1c-9e3c-ad1368d49c1a"},"geometry":{"type":"Polygon","coordinates":[[[136.02540949890565,35.961671634248425],[136.02540692184218,35.96169264071811],[136.0255097924992,35.96171720632884],[136.0256132076441,35.961725974237055],[136.02562485428678,35.961696121030855],[136.02540949890565,35.961671634248425]]]}},{"type":"Feature","properties":{"pid":"befce39e-9ab1-4c7c-af69-bf35a0c3e6ac"},"geometry":{"type":"Polygon","coordinates":[[[136.024987928253,35.96284133159981],[136.02508515386566,35.96292033308877],[136.02519937135625,35.962848462854666],[136.0252756026026,35.96276498766975],[136.02510540909972,35.96273961183786],[136.024987928253,35.96284133159981]]]}},{"type":"Feature","properties":{"pid":"9e7874c9-413e-4b71-8817-97f898104a92"},"geometry":{"type":"Polygon","coordinates":[[[136.0251663014709,35.96260680103905],[136.02533421809252,35.96262160306519],[136.02536741599056,35.96252953774293],[136.0251835190168,35.962511746264916],[136.0251663014709,35.96260680103905]]]}},{"type":"Feature","properties":{"pid":"ecab4ce0-1521-4552-8eba-a19fbef06f31"},"geometry":{"type":"Polygon","coordinates":[[[136.0251372516987,35.96229995733268],[136.0251490776213,35.96237537852087],[136.02535710098226,35.962389710100304],[136.0253660560942,35.962314984063916],[136.02515361086603,35.96228759014751],[136.0251372516987,35.96229995733268]]]}},{"type":"Feature","properties":{"pid":"2eeb11ee-c60d-4475-9704-61c66351b709"},"geometry":{"type":"Polygon","coordinates":[[[136.02658170356392,35.96278195481451],[136.02618040614854,35.9626275123311],[136.02613219948006,35.962711612933376],[136.02652082888673,35.96285655324349],[136.0265781324839,35.96281124372502],[136.02658170356392,35.96278195481451]]]}},{"type":"Feature","properties":{"pid":"22f9358d-b72c-4903-9302-a761d4d89ffc"},"geometry":{"type":"Polygon","coordinates":[[[136.02589673294852,35.9631085779786],[136.02619407783865,35.96322489541794],[136.02623621709284,35.96313642984005],[136.0259617653093,35.96303187991849],[136.02589673294852,35.9631085779786]]]}},{"type":"Feature","properties":{"pid":"eda048e0-0751-46ee-bb95-24df81d256ac"},"geometry":{"type":"Polygon","coordinates":[[[136.02603708880096,35.962916495734156],[136.0263086798612,35.96301975627322],[136.0264087357708,35.962952663351054],[136.02607003444012,35.96282057525515],[136.02603708880096,35.962916495734156]]]}},{"type":"Feature","properties":{"pid":"a2a0c344-968b-447d-aa3f-7ed2a6f13298"},"geometry":{"type":"Polygon","coordinates":[[[136.0257383387864,35.96329556570749],[136.02603254181977,35.9634047300392],[136.02609897916966,35.96332888909407],[136.02579233354967,35.963208380850496],[136.0257383387864,35.96329556570749]]]}},{"type":"Feature","properties":{"pid":"b738e2e1-1694-44af-a79d-5413b853a3da"},"geometry":{"type":"Polygon","coordinates":[[[136.02568551601712,35.96344344597715],[136.02564094251935,35.96349464786256],[136.02578787153445,35.96357214889824],[136.0258993825642,35.96352411371647],[136.02568551601712,35.96344344597715]]]}},{"type":"Feature","properties":{"pid":"761a3584-9608-4ff1-b5dc-cd455be1ea05"},"geometry":{"type":"Polygon","coordinates":[[[136.02542581547092,35.96365256737408],[136.0256333980689,35.96373963062081],[136.02568451409195,35.96367178631948],[136.0254952501567,35.963581983680115],[136.02544817380698,35.96360861650533],[136.02542581547092,35.96365256737408]]]}},{"type":"Feature","properties":{"pid":"a2959193-138e-4719-87d2-1cdbefbf05f7"},"geometry":{"type":"Polygon","coordinates":[[[136.02559625170755,35.96390003803073],[136.02532427327372,35.9637758846147],[136.02527312279813,35.96380556247201],[136.02524573182367,35.963852670709855],[136.02550541023038,35.96398718552604],[136.02558564088108,35.963955515161445],[136.02559625170755,35.96390003803073]]]}},{"type":"Feature","properties":{"pid":"91b38065-c0f6-4ac9-acd9-8ef9dd476d06"},"geometry":{"type":"Polygon","coordinates":[[[136.02542603730078,35.964103878597506],[136.02514651120086,35.96396225368093],[136.02506296257613,35.96407634818697],[136.02521857075484,35.96416137118951],[136.02529472211515,35.964158443674954],[136.02540706191368,35.96420752967893],[136.02542603730078,35.964103878597506]]]}},{"type":"Feature","properties":{"pid":"610eb743-0552-48e0-bbc3-54d2b18351d4"},"geometry":{"type":"Polygon","coordinates":[[[136.0263770964199,35.96566602382905],[136.02646961725097,35.96558127112124],[136.02647944462385,35.96555025709368],[136.02645447147614,35.965526247050384],[136.02636716735682,35.96563431017287],[136.0263770964199,35.96566602382905]]]}},{"type":"Feature","properties":{"pid":"62ea9dfb-765e-4374-9adf-810ef8d1cf47"},"geometry":{"type":"Polygon","coordinates":[[[136.04139473996418,35.97213659826205],[136.04142540177267,35.97228904699487],[136.04146411425688,35.972291894354946],[136.04153966279597,35.972267101093365],[136.04148771119762,35.97211148255725],[136.04139473996418,35.97213659826205]]]}},{"type":"Feature","properties":{"pid":"6bb7afa9-dd1a-4bbc-bc91-130c0266e986"},"geometry":{"type":"Polygon","coordinates":[[[136.04099220525126,35.97221384434013],[136.04102996079078,35.97231228038062],[136.0410836921995,35.97230664977348],[136.04104313256065,35.97220411863122],[136.04099220525126,35.97221384434013]]]}},{"type":"Feature","properties":{"pid":"555b9375-fc22-4952-93ac-d8918622106d"},"geometry":{"type":"Polygon","coordinates":[[[136.04418379855093,35.96606706949037],[136.04420547454683,35.96610910552285],[136.04431798885858,35.96608032980298],[136.04429670425077,35.96603919341553],[136.04418379855093,35.96606706949037]]]}},{"type":"Feature","properties":{"pid":"21dc9e83-bfe2-4ec5-91f0-3a2014420f65"},"geometry":{"type":"Polygon","coordinates":[[[136.0444403910077,35.96597029686867],[136.04448281126724,35.96605747203168],[136.04458541913067,35.96605491241619],[136.0445498126577,35.96595335471012],[136.0444403910077,35.96597029686867]]]}},{"type":"Feature","properties":{"pid":"c5666c68-8c65-43a5-aa75-b9ecb734de2f"},"geometry":{"type":"Polygon","coordinates":[[[136.04471582338866,35.965914940931626],[136.04476971287966,35.96607465119732],[136.04491083721018,35.96604519357607],[136.04483941024725,35.9658668340385],[136.04471582338866,35.965914940931626]]]}},{"type":"Feature","properties":{"pid":"28bdd838-eb7e-4482-9539-d76f9bf0921a"},"geometry":{"type":"Polygon","coordinates":[[[136.04498115916508,35.96581565065939],[136.04507021555725,35.96604340669122],[136.0452159364606,35.96599119472718],[136.04506879000004,35.96579435870363],[136.04498115916508,35.96581565065939]]]}},{"type":"Feature","properties":{"pid":"e9e040f8-7cd0-4166-8606-2b7d319c5028"},"geometry":{"type":"Polygon","coordinates":[[[136.04537456486543,35.965864237873],[136.04542402288698,35.96592480954209],[136.04569996680652,35.965857395534876],[136.04571855024292,35.96583397532769],[136.04546341440786,35.96575670932504],[136.04537456486543,35.965864237873]]]}},{"type":"Feature","properties":{"pid":"77eff091-80d6-4b90-985c-1ca1b12d026b"},"geometry":{"type":"Polygon","coordinates":[[[136.04549086367132,35.966080365401226],[136.0454959791836,35.96612343524257],[136.04571659543353,35.96608281794978],[136.04572516413452,35.96603911680808],[136.04549086367132,35.966080365401226]]]}},{"type":"Feature","properties":{"pid":"a67ab285-be0d-4fcb-8e69-adb1ffdf1dbf"},"geometry":{"type":"Polygon","coordinates":[[[136.04547994056344,35.96627206144415],[136.0456554049,35.96631226185145],[136.04566427419368,35.96621524682519],[136.04549163804916,35.96625224890235],[136.04547994056344,35.96627206144415]]]}},{"type":"Feature","properties":{"pid":"da060e85-28b3-439d-87ab-29d3249ac235"},"geometry":{"type":"Polygon","coordinates":[[[136.0454464929907,35.966387880686945],[136.04542411452218,35.96649640895915],[136.04546013718863,35.96650984723772],[136.04556962520977,35.966415721458056],[136.0454464929907,35.966387880686945]]]}},{"type":"Feature","properties":{"pid":"f69f68ac-747a-42a0-810c-7b38d8259a2a"},"geometry":{"type":"Polygon","coordinates":[[[136.04629002774905,35.965555581881304],[136.04635128263797,35.96569817209594],[136.04634798652233,35.965783460399],[136.0465366608184,35.96576210182373],[136.04646252224876,35.965437817691594],[136.04629002774905,35.965555581881304]]]}},{"type":"Feature","properties":{"pid":"7ee6f953-442e-46a3-b90f-f4f2fd5d07ad"},"geometry":{"type":"Polygon","coordinates":[[[136.04585618618216,35.96533318009366],[136.04617856223234,35.96544187017061],[136.04629839067786,35.96533749502478],[136.0459072980478,35.96522301340898],[136.04585618618216,35.96533318009366]]]}},{"type":"Feature","properties":{"pid":"1cc501ad-a73e-46fb-b8e6-40830156844b"},"geometry":{"type":"Polygon","coordinates":[[[136.04553650227794,35.96498576894967],[136.04592153184024,35.96510254618237],[136.04635875853853,35.96523249079016],[136.0463429775975,35.96517490153321],[136.0462450063979,35.96509812050014],[136.04555403048866,35.96488667671943],[136.04553650227794,35.96498576894967]]]}},{"type":"Feature","properties":{"pid":"efbbf7b6-8d01-401a-8dab-14b062c7c073"},"geometry":{"type":"Polygon","coordinates":[[[136.04548047583577,35.96509227826679],[136.04544223761593,35.965196671279685],[136.04574056970935,35.96529831738787],[136.04579351185737,35.96518536567974],[136.04548047583577,35.96509227826679]]]}},{"type":"Feature","properties":{"pid":"91b71f73-7ec3-44cc-9587-8240e8f2235a"},"geometry":{"type":"Polygon","coordinates":[[[136.04534211425462,35.965393392125584],[136.045963574885,35.96561298603185],[136.0460263101116,35.965559152561774],[136.04537240855112,35.965329183066615],[136.04534211425462,35.965393392125584]]]}},{"type":"Feature","properties":{"pid":"f318c5b4-7fe7-44b8-a36c-f1d42d06e5ca"},"geometry":{"type":"Polygon","coordinates":[[[136.04523589451648,35.96556594219466],[136.0458066490375,35.96574024266797],[136.04583996029572,35.96569279953757],[136.04526177350732,35.965495959848084],[136.04523589451648,35.96556594219466]]]}},{"type":"Feature","properties":{"pid":"6ddf9992-f337-4707-bf2c-699444ac9d25"},"geometry":{"type":"Polygon","coordinates":[[[136.04550364307,35.96463093562161],[136.04556034462445,35.96476876598717],[136.04620875360504,35.964955967745],[136.046208363709,35.96490655991998],[136.04610106986928,35.96477772179317],[136.04550364307,35.96463093562161]]]}},{"type":"Feature","properties":{"pid":"37c77d20-3643-481b-ab04-559fdf7274cd"},"geometry":{"type":"Polygon","coordinates":[[[136.04556802037638,35.964496720711765],[136.04601305819924,35.964608370467296],[136.046023165717,35.96451043380895],[136.0455931688827,35.96439377978869],[136.04556802037638,35.964496720711765]]]}},{"type":"Feature","properties":{"pid":"bb6983bf-79a5-4320-bd05-baf9e9901de3"},"geometry":{"type":"Polygon","coordinates":[[[136.04562365295376,35.96427587188181],[136.04598684490466,35.96437150216509],[136.04595156439834,35.96426990492762],[136.0456385354185,35.96419687014903],[136.04562365295376,35.96427587188181]]]}},{"type":"Feature","properties":{"pid":"626da100-edd2-4a9a-819f-b1bf3cc88b28"},"geometry":{"type":"Polygon","coordinates":[[[136.0456590026814,35.9640510532862],[136.04596486646324,35.964127656710595],[136.04599285962655,35.96396323548752],[136.04572695194656,35.963876884219935],[136.04567722942127,35.963949874243454],[136.04565415725668,35.96401705316371],[136.0456590026814,35.9640510532862]]]}},{"type":"Feature","properties":{"pid":"9b3698e8-0eaf-4140-b9f5-1e85a9b3bf5f"},"geometry":{"type":"Polygon","coordinates":[[[136.04579567856194,35.963773075519754],[136.0460442754709,35.96385355456172],[136.04608775093448,35.96378730682531],[136.04599515262726,35.96364177289457],[136.04588675779723,35.96369969355569],[136.04581520161918,35.96371777890705],[136.04579567856194,35.963773075519754]]]}},{"type":"Feature","properties":{"pid":"eb1db280-cf2b-4d9b-b413-d10400ffffde"},"geometry":{"type":"Polygon","coordinates":[[[136.04611895043806,35.96356705777581],[136.04622200175464,35.963743854934386],[136.04629441912016,35.963756820402416],[136.04620588836505,35.963521768692225],[136.04611895043806,35.96356705777581]]]}},{"type":"Feature","properties":{"pid":"ec92f459-a148-44a1-9b1c-956299d18517"},"geometry":{"type":"Polygon","coordinates":[[[136.04643285926113,35.963781804854925],[136.0465551495017,35.96375975809878],[136.04644996032317,35.9634522310255],[136.04632159812334,35.963487299424195],[136.04643285926113,35.963781804854925]]]}},{"type":"Feature","properties":{"pid":"f06c5855-7538-4f19-8223-ce7aad9d7b52"},"geometry":{"type":"Polygon","coordinates":[[[136.04658228667438,35.96341837521612],[136.04669666254932,35.9637283738387],[136.04679859740563,35.963701311851025],[136.04701319254139,35.96358885399033],[136.04688501973757,35.96331850760531],[136.04658228667438,35.96341837521612]]]}},{"type":"Feature","properties":{"pid":"2b455aaf-74f1-4720-8a2e-ad81b76296c4"},"geometry":{"type":"Polygon","coordinates":[[[136.0461863940229,35.96334506687863],[136.04637952814102,35.963286378956205],[136.04634663173485,35.963201974169515],[136.04621319566058,35.96321278454405],[136.0462173712157,35.963268718860924],[136.0461863940229,35.96334506687863]]]}},{"type":"Feature","properties":{"pid":"15935223-3c7a-4cbc-bd5a-cd19b46d7c02"},"geometry":{"type":"Polygon","coordinates":[[[136.04524798483305,35.96384747529032],[136.04524111362304,35.96386208086594],[136.04547119858654,35.96395248110908],[136.04548385491867,35.96392930209311],[136.04524798483305,35.96384747529032]]]}},{"type":"Feature","properties":{"pid":"7bfa11ec-85ba-4e86-9f89-2162577abe63"},"geometry":{"type":"Polygon","coordinates":[[[136.04472213297734,35.96376615017591],[136.04472862562275,35.96382392347414],[136.04485221745844,35.963848621178684],[136.04484983787393,35.96377379238657],[136.04472213297734,35.96376615017591]]]}},{"type":"Feature","properties":{"pid":"87ed767e-e0ae-4bd6-8930-65e3bb1179dc"},"geometry":{"type":"Polygon","coordinates":[[[136.04390349470754,35.96391977830023],[136.04390916931413,35.96399567112358],[136.04402143979001,35.963987745108504],[136.04400388123935,35.963848125697645],[136.04390349470754,35.96391977830023]]]}},{"type":"Feature","properties":{"pid":"f5294349-6b95-4282-9d5c-5f223f797149"},"geometry":{"type":"Polygon","coordinates":[[[136.04415380794305,35.96378706593015],[136.04417297767475,35.963961192909395],[136.044319517697,35.963915377028215],[136.04429607135765,35.9637445638723],[136.04415380794305,35.96378706593015]]]}},{"type":"Feature","properties":{"pid":"1fb24bef-8cb2-4514-a5dc-97495b0334ff"},"geometry":{"type":"Polygon","coordinates":[[[136.04307719598827,35.96402486721239],[136.0430808746022,35.96405760412952],[136.04319614965203,35.96403458574338],[136.04319184803555,35.9639774688822],[136.04307719598827,35.96402486721239]]]}},{"type":"Feature","properties":{"pid":"65f65cdc-4c10-4b0a-a950-b329ed223266"},"geometry":{"type":"Polygon","coordinates":[[[136.04237637422037,35.964692122419756],[136.042514719349,35.96469613829898],[136.04253358296495,35.96460518311204],[136.04239318210165,35.96460686359105],[136.04237637422037,35.964692122419756]]]}},{"type":"Feature","properties":{"pid":"054d18c9-b2db-473c-8998-830399454134"},"geometry":{"type":"Polygon","coordinates":[[[136.0423262714792,35.964917601044476],[136.04247654757117,35.96491284915693],[136.04251512719995,35.964816967294084],[136.04237136523773,35.96481725067235],[136.0423262714792,35.964917601044476]]]}},{"type":"Feature","properties":{"pid":"610d4f02-f823-460c-a19f-55a2084b98f3"},"geometry":{"type":"Polygon","coordinates":[[[136.04238404101082,35.964424744376295],[136.04239689431213,35.96448979257697],[136.0425472178926,35.964484575570644],[136.04257958808319,35.964350777752585],[136.04238404101082,35.964424744376295]]]}},{"type":"Feature","properties":{"pid":"2090fd36-6d7a-4dcd-8366-d3e7e54c7a3e"},"geometry":{"type":"Polygon","coordinates":[[[136.04012224450614,35.96319432005682],[136.0404254254222,35.963222386132045],[136.04044283672144,35.96319034760718],[136.0403750422153,35.96311781273366],[136.04012987580728,35.96310302948784],[136.04012224450614,35.96319432005682]]]}},{"type":"Feature","properties":{"pid":"7eb44cca-246d-49cd-ac68-21cf919cfedb"},"geometry":{"type":"Polygon","coordinates":[[[136.0400219675636,35.963562983011684],[136.0400466907792,35.963625106841256],[136.04031153444396,35.96364749418551],[136.04027420698176,35.96353712276871],[136.0402740682982,35.963492669714505],[136.0402953297035,35.963461520362614],[136.04004461045398,35.96345278479007],[136.0400219675636,35.963562983011684]]]}},{"type":"Feature","properties":{"pid":"75b29a47-4f57-45be-82b9-74694f0399c5"},"geometry":{"type":"Polygon","coordinates":[[[136.04009492589512,35.96334586770209],[136.04036189327158,35.96336181477738],[136.04037308782534,35.96334279886125],[136.0401042462493,35.963318806815884],[136.04009492589512,35.96334586770209]]]}},{"type":"Feature","properties":{"pid":"35e36610-6c43-4b2f-9bfe-fe6339e35a70"},"geometry":{"type":"Polygon","coordinates":[[[136.04006146912903,35.963828437536804],[136.04037235139253,35.96383564348542],[136.040347274086,35.96378606381077],[136.04005869244375,35.96376641806625],[136.04006146912903,35.963828437536804]]]}},{"type":"Feature","properties":{"pid":"59c1b0f9-b7da-4757-a0db-0949243dd141"},"geometry":{"type":"Polygon","coordinates":[[[136.04004559794438,35.96406363087844],[136.0404196397368,35.96409133302528],[136.0405160254288,35.963970509836024],[136.04006102519523,35.96395782135888],[136.04004559794438,35.96406363087844]]]}},{"type":"Feature","properties":{"pid":"78480c6c-5222-4ffa-a472-3f30e78bf198"},"geometry":{"type":"Polygon","coordinates":[[[136.0402536382644,35.96437397492245],[136.0402851649707,35.9643994100845],[136.04036645480545,35.964372385410606],[136.0403879271904,35.96434711991693],[136.0403643214708,35.96421478927312],[136.0402724621729,35.96420817842387],[136.0402536382644,35.96437397492245]]]}},{"type":"Feature","properties":{"pid":"83e0d125-07a4-4a09-8efd-c3ef92c9dd34"},"geometry":{"type":"Polygon","coordinates":[[[136.03986305794163,35.96431592870892],[136.04000171248398,35.96447054383186],[136.0400853586412,35.96442771099935],[136.03987230044373,35.96430045550185],[136.03986305794163,35.96431592870892]]]}},{"type":"Feature","properties":{"pid":"4fd58fc6-55ac-47ef-8549-3d888aa3cc18"},"geometry":{"type":"Polygon","coordinates":[[[136.03998816057393,35.964208877211014],[136.04014200339944,35.964303057475206],[136.0401526276928,35.964204933453615],[136.0399958211282,35.96419817638966],[136.03998816057393,35.964208877211014]]]}},{"type":"Feature","properties":{"pid":"b09f2cbf-6e71-41e6-938f-c4493bd09def"},"geometry":{"type":"Polygon","coordinates":[[[136.0396608605818,35.964399081185086],[136.0397350088356,35.96462530526804],[136.0398224936201,35.964583791776604],[136.0396608605818,35.964399081185086]]]}},{"type":"Feature","properties":{"pid":"c2e130c4-3abe-47fa-ba26-5b182252690b"},"geometry":{"type":"Polygon","coordinates":[[[136.0265910896312,35.965417944407655],[136.02661483749864,35.965444805568076],[136.02689196685208,35.965292270708055],[136.02682066983792,35.96523302132584],[136.0265910896312,35.965417944407655]]]}},{"type":"Feature","properties":{"pid":"6556aa31-1996-4358-b046-d20bbe72cd90"},"geometry":{"type":"Polygon","coordinates":[[[136.02701491010492,35.9650422205304],[136.027174570247,35.965149613843884],[136.0271909917965,35.965127388003395],[136.02719192920824,35.965108971800454],[136.0270323680502,35.9650099406371],[136.02701491010492,35.9650422205304]]]}},{"type":"Feature","properties":{"pid":"bbe2e28e-bba6-4b12-9d70-e3f2c688a648"},"geometry":{"type":"Polygon","coordinates":[[[136.02957266381748,35.96635249725607],[136.02960026865634,35.96637091991665],[136.02972755028608,35.966326960207184],[136.02969749066634,35.96628185051922],[136.02957266381748,35.96635249725607]]]}},{"type":"Feature","properties":{"pid":"d9d15edb-73e0-4497-8402-939203ac4931"},"geometry":{"type":"Polygon","coordinates":[[[136.0291649909509,35.96609881746192],[136.02916901620225,35.9661403825126],[136.02928429066955,35.96618291040058],[136.02943137881743,35.966104366640224],[136.0291649909509,35.96609881746192]]]}},{"type":"Feature","properties":{"pid":"0c3070d9-279a-4ae9-b2f1-0a869667eeca"},"geometry":{"type":"Polygon","coordinates":[[[136.02913978446992,35.96594568341005],[136.0291531398336,35.96598286620485],[136.02955805076186,35.965975547151814],[136.0295553838212,35.965935887020436],[136.02913978446992,35.96594568341005]]]}},{"type":"Feature","properties":{"pid":"59032992-61d7-4d02-b85b-d6f6944cf3c2"},"geometry":{"type":"Polygon","coordinates":[[[136.02912870332787,35.96560881333738],[136.0291332546118,35.96563950073694],[136.0294320068952,35.965630690507965],[136.02942386347488,35.96560141193522],[136.02912870332787,35.96560881333738]]]}},{"type":"Feature","properties":{"pid":"87d94583-37eb-4d71-9de4-77e8ff25b77c"},"geometry":{"type":"Polygon","coordinates":[[[136.02915851329087,35.96575555479123],[136.0291665941618,35.96581513096247],[136.0295218092713,35.96580795245825],[136.0294947368726,35.96574923581062],[136.02915851329087,35.96575555479123]]]}},{"type":"Feature","properties":{"pid":"2558db65-a662-4c34-8266-efc4b0817b9d"},"geometry":{"type":"Polygon","coordinates":[[[136.0291651052023,35.965480678299954],[136.0293773586429,35.96547235569869],[136.02936922747995,35.965411870774574],[136.0291748613854,35.96541548965286],[136.0291651052023,35.965480678299954]]]}},{"type":"Feature","properties":{"pid":"8ffba09f-2695-4c89-994d-c2a54559cba6"},"geometry":{"type":"Polygon","coordinates":[[[136.02925392050128,35.964979258965236],[136.02940528304788,35.96501384151425],[136.02941787734565,35.96499122792269],[136.02926269704366,35.96493720671562],[136.02925392050128,35.964979258965236]]]}},{"type":"Feature","properties":{"pid":"90294d20-a9cf-4681-9b96-50c9f10eeec6"},"geometry":{"type":"Polygon","coordinates":[[[136.0292785464138,35.96473260309437],[136.02926909357157,35.96480574114355],[136.0294768039991,35.96487345029588],[136.02948723739158,35.964860113111],[136.02952026793187,35.96471142084688],[136.02934894945477,35.96465044036925],[136.0292785464138,35.96473260309437]]]}},{"type":"Feature","properties":{"pid":"9c191590-a8d7-4a5d-a978-4646d2a1efbb"},"geometry":{"type":"Polygon","coordinates":[[[136.02962472087808,35.96419934328108],[136.02976494921646,35.964245201541175],[136.02978496323638,35.96421524221958],[136.02964984132717,35.96416548493674],[136.02962472087808,35.96419934328108]]]}},{"type":"Feature","properties":{"pid":"6c87c457-9ff0-4a31-bffd-8ed873ab00a1"},"geometry":{"type":"Polygon","coordinates":[[[136.0294278813767,35.964512039693254],[136.0296250283288,35.964581634486265],[136.0296949909661,35.964507601925376],[136.02971147484433,35.964408350781675],[136.02970334981836,35.96438886026426],[136.02951934193112,35.964325625476],[136.0294278813767,35.964512039693254]]]}},{"type":"Feature","properties":{"pid":"7e3ffbc3-0f7f-4dc3-ac9c-856d2572371d"},"geometry":{"type":"Polygon","coordinates":[[[136.02973639218104,35.964054435740955],[136.0298595571686,35.96409421488326],[136.02995074593173,35.964001934447396],[136.02981586839024,35.96400268522221],[136.02977723883654,35.964042845283075],[136.02973639218104,35.964054435740955]]]}},{"type":"Feature","properties":{"pid":"a35dcb05-96ae-4a3c-988d-ce48b74ef1ab"},"geometry":{"type":"Polygon","coordinates":[[[136.0298073615038,35.96386027428944],[136.03001538942203,35.96385536787775],[136.03000621745102,35.96380448511146],[136.02982771632674,35.963816194935916],[136.0298073615038,35.96386027428944]]]}},{"type":"Feature","properties":{"pid":"32d5ac95-97c8-492c-a8b8-aa805c4f93e8"},"geometry":{"type":"Polygon","coordinates":[[[136.0298865314139,35.96369037821523],[136.029974313963,35.96368416839108],[136.0299732983595,35.963646503682675],[136.02993257086987,35.96357535201701],[136.0298865314139,35.96369037821523]]]}},{"type":"Feature","properties":{"pid":"a574c5a4-de98-4fd2-a33e-dff6151e04dd"},"geometry":{"type":"Polygon","coordinates":[[[136.02811591444336,35.96340068012409],[136.0280926361585,35.963392026383495],[136.02803351692978,35.963438459743784],[136.02791948828698,35.96355681453271],[136.027917904699,35.963575553767456],[136.02801800236315,35.96360856001279],[136.02811591444336,35.96340068012409]]]}},{"type":"Feature","properties":{"pid":"7274ae10-5038-4bed-ae5d-d88b7c63c2d3"},"geometry":{"type":"Polygon","coordinates":[[[136.02769393014597,35.963909271091666],[136.0278324581901,35.96394649168676],[136.02788547277402,35.96382463301754],[136.02795758730167,35.96371046869154],[136.02786734086396,35.96368099524927],[136.02779347786495,35.96372903959663],[136.02771108923955,35.963825422603314],[136.02769393014597,35.963909271091666]]]}},{"type":"Feature","properties":{"pid":"573cb7cb-522f-44f2-b02a-4d7d65ce4aca"},"geometry":{"type":"Polygon","coordinates":[[[136.02759713863836,35.964217802300944],[136.02767042890062,35.96424246613707],[136.0277858268617,35.96403862634815],[136.0276631303738,35.964008847603154],[136.02759713863836,35.964217802300944]]]}},{"type":"Feature","properties":{"pid":"2573ba4e-d645-4e4b-bcef-5b614cf31601"},"geometry":{"type":"Polygon","coordinates":[[[136.02645369838896,35.96258715917863],[136.0266130956038,35.962653502992346],[136.0267786947343,35.9625373338798],[136.02676763769742,35.962508055624994],[136.02655970527258,35.96241937465075],[136.02645369838896,35.96258715917863]]]}},{"type":"Feature","properties":{"pid":"e6632a8d-e1f4-4e34-b5f0-be77d0e468c4"},"geometry":{"type":"Polygon","coordinates":[[[136.02790461678381,35.962961809537056],[136.02796250462077,35.963126407652915],[136.02801677639835,35.96314027324116],[136.02807670201213,35.9629993445039],[136.02790461678381,35.962961809537056]]]}},{"type":"Feature","properties":{"pid":"889be470-7b70-4036-8df0-ea3be4f2b86b"},"geometry":{"type":"Polygon","coordinates":[[[136.02805626910012,35.96286832348055],[136.02813725919546,35.962882944771344],[136.02829905383416,35.96265996330174],[136.0282753490406,35.962656546953205],[136.02820765747708,35.962754953072945],[136.02805626910012,35.96286832348055]]]}},{"type":"Feature","properties":{"pid":"632b4c0e-7b21-4688-ae37-e17f4fe2cccc"},"geometry":{"type":"Polygon","coordinates":[[[136.02828248954097,35.96252927268919],[136.02836628631687,35.96254073032055],[136.02838685162155,35.962392934806005],[136.02834569301498,35.96238514548276],[136.02828248954097,35.96252927268919]]]}},{"type":"Feature","properties":{"pid":"389c1439-8207-407b-8077-6a8871971fd1"},"geometry":{"type":"Polygon","coordinates":[[[136.0286564844016,35.96140170625282],[136.02872702242863,35.961427231219254],[136.02877632506355,35.961351963876325],[136.02878405516464,35.96131000693997],[136.0286855484408,35.96129778992761],[136.0286564844016,35.96140170625282]]]}},{"type":"Feature","properties":{"pid":"85c03e13-1260-4845-95d5-99d32ad3659d"},"geometry":{"type":"Polygon","coordinates":[[[136.02854789699174,35.96157482105292],[136.02861130815234,35.961590377784276],[136.0286570018273,35.961524290861945],[136.0285925654371,35.96150294074165],[136.02854789699174,35.96157482105292]]]}},{"type":"Feature","properties":{"pid":"cb5743e7-0f1f-465f-aedf-4e724a070d60"},"geometry":{"type":"Polygon","coordinates":[[[136.0280909258066,35.961578045253596],[136.0282685802611,35.96161463746373],[136.02830533022208,35.96154340266557],[136.02814226914077,35.961467366678235],[136.02809463225174,35.961469443957704],[136.0280909258066,35.961578045253596]]]}},{"type":"Feature","properties":{"pid":"aa360ec8-74bb-4563-ab60-8b56024469e1"},"geometry":{"type":"Polygon","coordinates":[[[136.02670786783906,35.96095999220362],[136.02687060075814,35.96143700499894],[136.02690767997,35.9614645129939],[136.0269432255388,35.961461445093484],[136.0267899616127,35.960980946963964],[136.0267608155584,35.9609618521194],[136.02670786783906,35.96095999220362]]]}},{"type":"Feature","properties":{"pid":"4beeb9f1-a2ab-4739-b05e-e5169247a96f"},"geometry":{"type":"Polygon","coordinates":[[[136.02647417032108,35.960967460951174],[136.02660714512527,35.96136043233161],[136.02672217086254,35.961381059141694],[136.0265788260453,35.96097215650218],[136.0265511057296,35.960956850612625],[136.02647417032108,35.960967460951174]]]}},{"type":"Feature","properties":{"pid":"6d3900cb-476d-44ff-9d82-004311a306c8"},"geometry":{"type":"Polygon","coordinates":[[[136.02692284382277,35.96096023893794],[136.0270743362617,35.96144148972476],[136.02715852881096,35.96142854796477],[136.02701484298908,35.96097524785991],[136.02692284382277,35.96096023893794]]]}},{"type":"Feature","properties":{"pid":"244ff37b-1ea0-4759-8244-37a0979ec2a3"},"geometry":{"type":"Polygon","coordinates":[[[136.02714450135164,35.96094222320243],[136.02727894222576,35.961373108580844],[136.02734964910942,35.96131432498744],[136.02721843254886,35.9609349591095],[136.02714450135164,35.96094222320243]]]}},{"type":"Feature","properties":{"pid":"357099f0-4dbb-4104-b4d2-591b2b76d623"},"geometry":{"type":"Polygon","coordinates":[[[136.0275777036533,35.96088190820977],[136.02769975353553,35.9612558753462],[136.0277864927189,35.961247975821095],[136.02766947384686,35.960863977253865],[136.02759101752395,35.960860121859405],[136.0275777036533,35.96088190820977]]]}},{"type":"Feature","properties":{"pid":"420eb483-41dc-4196-8a8d-510415274da0"},"geometry":{"type":"Polygon","coordinates":[[[136.02734673706493,35.96090285207393],[136.02748518081984,35.961280839207205],[136.02757681795867,35.96127951737508],[136.02744021786978,35.960898426814595],[136.02742229438286,35.9608876965851],[136.02734673706493,35.96090285207393]]]}},{"type":"Feature","properties":{"pid":"f71a0aea-b1d8-4d53-94d0-5d5097ef19f1"},"geometry":{"type":"Polygon","coordinates":[[[136.02897802367474,35.960961386595294],[136.02905927605156,35.960917495609614],[136.02899335007632,35.96067972943719],[136.02891291422154,35.960679537792934],[136.02897802367474,35.960961386595294]]]}},{"type":"Feature","properties":{"pid":"d89dcf05-3b54-4e89-9643-eedffc2d1795"},"geometry":{"type":"Polygon","coordinates":[[[136.02875485807994,35.9610113045898],[136.02885827061138,35.96100917751794],[136.02879237225332,35.9606921218307],[136.0287687542325,35.960674972415575],[136.02866626394282,35.96067793061565],[136.02875485807994,35.9610113045898]]]}},{"type":"Feature","properties":{"pid":"9b18653e-f267-4150-929d-32a2515e304a"},"geometry":{"type":"Polygon","coordinates":[[[136.0285121293396,35.960681241697756],[136.0284367915701,35.960686827454815],[136.028531975759,35.96099046500491],[136.02861867992743,35.96098408234065],[136.02853531599962,35.96069642141937],[136.0285121293396,35.960681241697756]]]}},{"type":"Feature","properties":{"pid":"b01f7f04-3f71-4aea-8e5d-9dd7eef9e637"},"geometry":{"type":"Polygon","coordinates":[[[136.02829841960474,35.960711709031294],[136.02821118186014,35.9607376250654],[136.02833039930715,35.96106593216129],[136.02840802624743,35.961010722723344],[136.02831953256728,35.960723299527224],[136.02829841960474,35.960711709031294]]]}},{"type":"Feature","properties":{"pid":"fbd4d3fe-bed4-44af-929b-39e3a37be74d"},"geometry":{"type":"Polygon","coordinates":[[[136.02805982237382,35.960772164741385],[136.02799742412353,35.9607857681919],[136.0281411452451,35.96122984835843],[136.02822601735568,35.96116260624269],[136.0280952664385,35.960794025069056],[136.02805982237382,35.960772164741385]]]}},{"type":"Feature","properties":{"pid":"717422ce-53ef-401d-934f-40862b86a4ec"},"geometry":{"type":"Polygon","coordinates":[[[136.0277883672571,35.96083065570798],[136.027911559294,35.96123877697708],[136.02801149501724,35.96123707541795],[136.02788411152076,35.960832022679625],[136.0278488262032,35.96081829361624],[136.0277883672571,35.96083065570798]]]}},{"type":"Feature","properties":{"pid":"556913d3-6202-4648-a38f-0e6092fd55cc"},"geometry":{"type":"Polygon","coordinates":[[[136.02893235628272,35.96117103779903],[136.02909845334534,35.96121080676155],[136.02915246088278,35.961069009995455],[136.0290687776127,35.96110605528537],[136.02893235628272,35.96117103779903]]]}},{"type":"Feature","properties":{"pid":"fe01050b-b2fb-4483-b343-efcf7e0b43a6"},"geometry":{"type":"Polygon","coordinates":[[[136.02922592251596,35.96125417885471],[136.0293234064146,35.96130250148446],[136.02944289476522,35.961039802025276],[136.02936215546745,35.96094312377761],[136.02932692325396,35.96099718202367],[136.02922592251596,35.96125417885471]]]}},{"type":"Feature","properties":{"pid":"4de770d5-5fc3-4066-8f23-c6c62d4a67b6"},"geometry":{"type":"Polygon","coordinates":[[[136.02945924107013,35.96136937722757],[136.0295255821397,35.96139260654417],[136.02959659211604,35.96121284587109],[136.0295583495919,35.961128053032496],[136.02945924107013,35.96136937722757]]]}},{"type":"Feature","properties":{"pid":"ab49e96a-7378-4443-9057-d8514af7dd24"},"geometry":{"type":"Polygon","coordinates":[[[136.0297736350689,35.961411872264094],[136.03020974918365,35.961437150916616],[136.0301003127729,35.961324239835825],[136.02991363223003,35.96123043854831],[136.02980906166925,35.961256466782636],[136.02976949504395,35.96138070992598],[136.0297736350689,35.961411872264094]]]}},{"type":"Feature","properties":{"pid":"d4640c50-50f5-4497-b606-ff2610042589"},"geometry":{"type":"Polygon","coordinates":[[[136.03089139085608,35.961840584241045],[136.0309645383671,35.96184244371559],[136.0310396440508,35.961811845901316],[136.03107291327677,35.96171149302698],[136.03094795471347,35.9617440827217],[136.03089139085608,35.961840584241045]]]}},{"type":"Feature","properties":{"pid":"856e4312-681f-4690-9cc8-985da7d9d247"},"geometry":{"type":"Polygon","coordinates":[[[136.03128307212265,35.96191061636642],[136.03150089067609,35.96190490625957],[136.03145200357503,35.96177277991668],[136.03134618395882,35.96181804068177],[136.03128307212265,35.96191061636642]]]}},{"type":"Feature","properties":{"pid":"b1a2d149-00ca-4db8-99b2-688899d0a916"},"geometry":{"type":"Polygon","coordinates":[[[136.03065754347594,35.96220108652407],[136.0307150795246,35.962250731067684],[136.03074662230068,35.96225235848812],[136.03086918601133,35.96215115545961],[136.03088247314327,35.962102432569246],[136.0307292602539,35.96208983211585],[136.03065754347594,35.96220108652407]]]}},{"type":"Feature","properties":{"pid":"81e11952-65fc-424c-bd7f-4f2d458ae0e9"},"geometry":{"type":"Polygon","coordinates":[[[136.02902816407513,35.961384598766585],[136.02898861448054,35.961419254570814],[136.02936017453618,35.961577156343616],[136.0293045493591,35.96150099126818],[136.02902816407513,35.961384598766585]]]}},{"type":"Feature","properties":{"pid":"44af75b3-85d6-44ff-9f73-988bf1241bc8"},"geometry":{"type":"Polygon","coordinates":[[[136.02889268593776,35.961526829284],[136.0292899919524,35.96170811343464],[136.0293007597476,35.96171410266409],[136.02930277303648,35.96169258096374],[136.02889268593776,35.961526829284]]]}},{"type":"Feature","properties":{"pid":"bc04adfa-873e-4154-ae8e-f3ab84ca84bd"},"geometry":{"type":"Polygon","coordinates":[[[136.0295919143505,35.96182066114015],[136.0296118661832,35.961930017917936],[136.0298025700915,35.96190217753464],[136.02992598342718,35.96194218734767],[136.02993067771618,35.96193183673468],[136.02984293380825,35.96187352403678],[136.0295919143505,35.96182066114015]]]}},{"type":"Feature","properties":{"pid":"a5134d97-0e20-4b5e-81be-7c6644b212a5"},"geometry":{"type":"Polygon","coordinates":[[[136.0302384429534,35.96205670210611],[136.03038002331405,35.96214493323849],[136.03045785282282,35.96216048375941],[136.03048376618327,35.96212520843195],[136.0302384429534,35.96205670210611]]]}},{"type":"Feature","properties":{"pid":"53b12eb6-7522-45e5-a8d7-08056d708b86"},"geometry":{"type":"Polygon","coordinates":[[[136.03053546366874,35.96233681736605],[136.0305485991487,35.96248161297196],[136.03056886505587,35.96248798635551],[136.03063218010874,35.9623728006545],[136.03053546366874,35.96233681736605]]]}},{"type":"Feature","properties":{"pid":"942205fe-393c-49fe-b09a-09287761e7b5"},"geometry":{"type":"Polygon","coordinates":[[[136.03158064553702,35.96173624959103],[136.03164204146756,35.961885075598815],[136.03188349942826,35.961835153038],[136.03187313197398,35.96177675599586],[136.03158064553702,35.96173624959103]]]}},{"type":"Feature","properties":{"pid":"14f3f071-604c-4df1-802d-d07d710c26d4"},"geometry":{"type":"Polygon","coordinates":[[[136.03213520704543,35.961484086588264],[136.0321386645402,35.9615493553739],[136.0323569011355,35.961549652572536],[136.03250631261923,35.961335080774084],[136.03226837345056,35.96145024974293],[136.03213520704543,35.961484086588264]]]}},{"type":"Feature","properties":{"pid":"9ed2f36e-af33-4bd3-9bcc-127f6dfb87c7"},"geometry":{"type":"Polygon","coordinates":[[[136.03248721802782,35.96157295513319],[136.03255548600652,35.96155220814127],[136.03267816515788,35.961383953334554],[136.03264145770072,35.961360389981216],[136.03248721802782,35.96157295513319]]]}},{"type":"Feature","properties":{"pid":"5908bd0c-2cd8-4d20-9f05-7af7a040d980"},"geometry":{"type":"Polygon","coordinates":[[[136.03270977743398,35.96155309044504],[136.03277485188278,35.96157541742581],[136.03283558291892,35.96148186024311],[136.03277862254998,35.9614557065038],[136.03270977743398,35.96155309044504]]]}},{"type":"Feature","properties":{"pid":"afb562de-45d1-431a-be8f-e06654bbfa6b"},"geometry":{"type":"Polygon","coordinates":[[[136.03329386195992,35.96159486618378],[136.03340600157466,35.961536469592545],[136.03345553926607,35.96146411718235],[136.03336888629545,35.96147810414133],[136.03332511191985,35.96152349995618],[136.03329386195992,35.96159486618378]]]}},{"type":"Feature","properties":{"pid":"d62e1c21-dee9-494a-ad13-73d9603690ec"},"geometry":{"type":"Polygon","coordinates":[[[136.0358309340805,35.962731726611466],[136.03586043130682,35.96278185182898],[136.03586175447808,35.96281688925901],[136.0359253388497,35.96274932121457],[136.03589970490196,35.96270668978696],[136.0358309340805,35.962731726611466]]]}},{"type":"Feature","properties":{"pid":"c3345bde-b794-436a-bc58-09aef56089d8"},"geometry":{"type":"Polygon","coordinates":[[[136.03574337573252,35.96253576387167],[136.0356673885919,35.96258021580431],[136.0357086117164,35.96262149528649],[136.0358014808403,35.962584733100556],[136.03574337573252,35.96253576387167]]]}},{"type":"Feature","properties":{"pid":"e319ea58-ed2a-4147-b447-472747a186da"},"geometry":{"type":"Polygon","coordinates":[[[136.03569461893147,35.961400909406485],[136.03588559155853,35.96149781944223],[136.03595908347472,35.96142157452992],[136.0360274300091,35.9613773593278],[136.0357850409023,35.96132641274005],[136.03569461893147,35.961400909406485]]]}},{"type":"Feature","properties":{"pid":"d00bb1ec-e67a-4928-ae25-95d95ec02d15"},"geometry":{"type":"Polygon","coordinates":[[[136.03544653132573,35.96168336866453],[136.0356403580403,35.96181365407354],[136.0356652021845,35.96178044694906],[136.03546932811074,35.96165090807688],[136.03544653132573,35.96168336866453]]]}},{"type":"Feature","properties":{"pid":"49500ec6-4ba5-436c-930b-1dd7d096347e"},"geometry":{"type":"Polygon","coordinates":[[[136.03530887500656,35.96184009731998],[136.0354794203437,35.961972688353555],[136.03553263721312,35.96191058489516],[136.03535183530929,35.96178641828755],[136.03530887500656,35.96184009731998]]]}},{"type":"Feature","properties":{"pid":"5d81a43e-d21e-44a4-9587-8e5254562ff2"},"geometry":{"type":"Polygon","coordinates":[[[136.03497982074762,35.962202610325235],[136.03502394092476,35.9622447889819],[136.03519455779374,35.96225384772659],[136.03506526201534,35.962143526336526],[136.03497982074762,35.962202610325235]]]}},{"type":"Feature","properties":{"pid":"3283169c-3133-4471-917b-8fa5fab4d71d"},"geometry":{"type":"Polygon","coordinates":[[[136.03515046523987,35.96108390522141],[136.0352003703294,35.9611128808056],[136.03547008767754,35.961145394467025],[136.03553839263824,35.961133740476484],[136.03515046523987,35.96108390522141]]]}},{"type":"Feature","properties":{"pid":"14104995-6254-411c-8ed6-caa1b272faae"},"geometry":{"type":"Polygon","coordinates":[[[136.03663649761046,35.96119382532217],[136.0366773548579,35.96122710904508],[136.03677983011372,35.96102869202757],[136.03672425291307,35.96100852412487],[136.03663649761046,35.96119382532217]]]}},{"type":"Feature","properties":{"pid":"49ec24c4-79c5-4f4a-a192-6ba83deb08a3"},"geometry":{"type":"Polygon","coordinates":[[[136.03625314427723,35.9611486755837],[136.03634481485122,35.96112305011689],[136.0364264299526,35.96112097726987],[136.03612680258345,35.96102527008086],[136.03605877142545,35.96111511005153],[136.03625314427723,35.9611486755837]]]}},{"type":"Feature","properties":{"pid":"49eda3b9-5eab-48ba-8562-ee663c4ebb21"},"geometry":{"type":"Polygon","coordinates":[[[136.0363659598713,35.96069112569079],[136.0365821061098,35.960759188647415],[136.03663743490554,35.960647478352634],[136.0363856078982,35.96063721457651],[136.0363659598713,35.96069112569079]]]}},{"type":"Feature","properties":{"pid":"75c5fdec-ce31-489d-97bd-20ae14a32574"},"geometry":{"type":"Polygon","coordinates":[[[136.03584265012796,35.9595314026316],[136.03657668964678,35.95978837136579],[136.03666699280612,35.959693585701345],[136.0359034342868,35.95941335197355],[136.03584265012796,35.9595314026316]]]}},{"type":"Feature","properties":{"pid":"8f377177-7d05-4187-8cfe-ad9188b9e50c"},"geometry":{"type":"Polygon","coordinates":[[[136.0355153551742,35.9600392340508],[136.035977146436,35.96011644789871],[136.03618509072618,35.95999571016779],[136.03630060877404,35.95996971861219],[136.03574123295286,35.959749082561565],[136.0356864420931,35.95976476042745],[136.0355538427572,35.95994722945928],[136.0355153551742,35.9600392340508]]]}},{"type":"Feature","properties":{"pid":"166fb109-ddba-4b47-84e2-cbb7d1ab64c6"},"geometry":{"type":"Polygon","coordinates":[[[136.03445745230002,35.96021031375109],[136.03454373878654,35.960211354518314],[136.0346123513416,35.96011294229738],[136.0345099310614,35.960096936333606],[136.03445745230002,35.96021031375109]]]}},{"type":"Feature","properties":{"pid":"4083ab89-5f13-4cad-a9a6-4639cffa2f72"},"geometry":{"type":"Polygon","coordinates":[[[136.0340887960747,35.96059160931551],[136.03414381322182,35.960678656162926],[136.03420795929995,35.960605166500244],[136.0340887960747,35.96059160931551]]]}},{"type":"Feature","properties":{"pid":"5735b984-7722-45b8-9205-f4c49ccaa49b"},"geometry":{"type":"Polygon","coordinates":[[[136.03362779163456,35.96102923109542],[136.03364098661672,35.961057570098056],[136.03383507659473,35.9609534130787],[136.0338570019497,35.96091737984033],[136.03374640178197,35.96094871415533],[136.03362779163456,35.96102923109542]]]}},{"type":"Feature","properties":{"pid":"18ae8c0d-d607-4db5-8ff7-4fd01eb89830"},"geometry":{"type":"Polygon","coordinates":[[[136.03290932265264,35.961329552078986],[136.03301517202772,35.9614001906904],[136.03304818041826,35.961270531940926],[136.03313671403117,35.96111554578797],[136.03308236148337,35.96110299117798],[136.03290932265264,35.961329552078986]]]}},{"type":"Feature","properties":{"pid":"913b4503-e206-426e-a42f-76027c27578d"},"geometry":{"type":"Polygon","coordinates":[[[136.03300912474313,35.96095053795542],[136.03321379638086,35.960991461919924],[136.03325808821074,35.960948110645234],[136.03303599050818,35.96089433990502],[136.03300912474313,35.96095053795542]]]}},{"type":"Feature","properties":{"pid":"00435ffb-9426-405f-bafb-8cb2952bf561"},"geometry":{"type":"Polygon","coordinates":[[[136.03314458616774,35.96078453608786],[136.03342412290164,35.96085822558122],[136.03350524216287,35.96079809889488],[136.03344795027203,35.960762076213975],[136.0332197857936,35.96069831021054],[136.03314458616774,35.96078453608786]]]}},{"type":"Feature","properties":{"pid":"b677699c-b73c-41b5-b65b-7d2d5d037479"},"geometry":{"type":"Polygon","coordinates":[[[136.03331663467264,35.96051854923079],[136.03328727492274,35.96058295795438],[136.03347633414543,35.9606267162626],[136.0334657225541,35.96053470158926],[136.03331663467264,35.96051854923079]]]}},{"type":"Feature","properties":{"pid":"8b9d67ea-045e-481c-8872-3d81cfaa0c41"},"geometry":{"type":"Polygon","coordinates":[[[136.03290360582577,35.96106913593144],[136.03285263243086,35.96112718997735],[136.0327164201311,35.96122794121732],[136.0327809566869,35.96126775534382],[136.03293157538266,35.96107326785419],[136.03290360582577,35.96106913593144]]]}},{"type":"Feature","properties":{"pid":"258db194-2994-415a-a736-6de287691431"},"geometry":{"type":"Polygon","coordinates":[[[136.03222705960187,35.958768587269006],[136.03248173146656,35.95891564491152],[136.03252438430948,35.95890451593623],[136.03234984479616,35.95863646907259],[136.03222705960187,35.958768587269006]]]}},{"type":"Feature","properties":{"pid":"0034b318-e2e1-4d76-9b3c-231208e7cb5f"},"geometry":{"type":"Polygon","coordinates":[[[136.03183380843183,35.95853652453957],[136.0321087293574,35.95869432517281],[136.0322764506701,35.95851760744742],[136.03204938979235,35.95830492004583],[136.03183380843183,35.95853652453957]]]}},{"type":"Feature","properties":{"pid":"036ee5a7-dd22-42a4-b7cb-d6f3e9d9d05c"},"geometry":{"type":"Polygon","coordinates":[[[136.03247744455035,35.95844945280149],[136.03260074352116,35.95863110882674],[136.03260963120505,35.958646265106516],[136.03268833248066,35.95852553878133],[136.0326017466414,35.95838596858564],[136.03255336746682,35.958357508892945],[136.03247744455035,35.95844945280149]]]}},{"type":"Feature","properties":{"pid":"b9ea6317-67fa-44d0-8f56-4f2360b492aa"},"geometry":{"type":"Polygon","coordinates":[[[136.03375699490545,35.95937382983731],[136.0338825379765,35.959389841696215],[136.03392940080005,35.959304094593755],[136.03381581664365,35.9592624839587],[136.03375699490545,35.95937382983731]]]}},{"type":"Feature","properties":{"pid":"31bbcfd5-391b-48b3-b165-883d442f1557"},"geometry":{"type":"Polygon","coordinates":[[[136.03387508861442,35.95914955163056],[136.03434524240717,35.959332278032264],[136.03438427558555,35.95926436706513],[136.03390808670446,35.959092208885735],[136.03387508861442,35.95914955163056]]]}},{"type":"Feature","properties":{"pid":"3c93b4fc-c457-453f-8c84-892aa38b5ebb"},"geometry":{"type":"Polygon","coordinates":[[[136.03458787034788,35.959348695542644],[136.03497826849502,35.95949401018981],[136.03503938572527,35.95938542077424],[136.0346495698444,35.9592388166142],[136.03458787034788,35.959348695542644]]]}},{"type":"Feature","properties":{"pid":"0c6acf1c-b1cc-4045-b0da-0ac3496ce326"},"geometry":{"type":"Polygon","coordinates":[[[136.03419105717543,35.95906893479855],[136.03446549623513,35.959163411023944],[136.03457653869253,35.95897424401093],[136.0344323512195,35.95897338360339],[136.03428551756306,35.95904396595533],[136.03419105717543,35.95906893479855]]]}},{"type":"Feature","properties":{"pid":"518d2d5e-49c3-42c0-87db-4441fab8550e"},"geometry":{"type":"Polygon","coordinates":[[[136.03480166526305,35.958972335600485],[136.0349827668474,35.959045079453674],[136.03501301370633,35.95897279220962],[136.0348073181704,35.958962818079776],[136.03480166526305,35.958972335600485]]]}},{"type":"Feature","properties":{"pid":"cdb13698-aa3d-42c0-bc23-0cf6dec0a18c"},"geometry":{"type":"Polygon","coordinates":[[[136.03509392213903,35.95908804754752],[136.0351739203645,35.95912053792189],[136.03522251196418,35.95903868134509],[136.03513487881628,35.9589895170126],[136.03509392213903,35.95908804754752]]]}},{"type":"Feature","properties":{"pid":"4846de40-bbf7-4176-81c5-6b8aa1b27d26"},"geometry":{"type":"Polygon","coordinates":[[[136.03471936698426,35.95913410067308],[136.03473596764744,35.95915355474002],[136.03509422674512,35.95928488092139],[136.0351143859421,35.9592484694627],[136.0347409823009,35.95909732260865],[136.03471936698426,35.95913410067308]]]}},{"type":"Feature","properties":{"pid":"52247904-f271-401e-87d6-56d3043311db"},"geometry":{"type":"Polygon","coordinates":[[[136.0351848870781,35.95943042054757],[136.03533310015217,35.959420915017894],[136.03542792831723,35.95943736953734],[136.03522185966926,35.959368552701704],[136.0351848870781,35.95943042054757]]]}},{"type":"Feature","properties":{"pid":"934af5db-3803-44c0-b9f7-52d7ebc9da35"},"geometry":{"type":"Polygon","coordinates":[[[136.03528604695003,35.95926462044907],[136.03568262270224,35.95939467276264],[136.03575045093248,35.95926716574395],[136.0354421463532,35.95916596328531],[136.03536338671188,35.95912300648532],[136.03528604695003,35.95926462044907]]]}},{"type":"Feature","properties":{"pid":"0ae66a1a-ed5d-41f8-bc96-6205a43e8ddc"},"geometry":{"type":"Polygon","coordinates":[[[136.0359710886737,35.95929918619486],[136.03598411097428,35.95932706883339],[136.036740166003,35.959609100259954],[136.0367551858307,35.95957267931458],[136.03665313427706,35.95953027714059],[136.03660325664544,35.959476999452264],[136.03599196528677,35.95926206083443],[136.0359710886737,35.95929918619486]]]}},{"type":"Feature","properties":{"pid":"4ab20c05-9d76-4b0d-a572-d7a2821d417f"},"geometry":{"type":"Polygon","coordinates":[[[136.03612918087552,35.95904446830839],[136.03605579867335,35.95915806194301],[136.03647463813743,35.95930076364757],[136.0363913901422,35.95918944358148],[136.03626006855143,35.95908975319801],[136.03612918087552,35.95904446830839]]]}},{"type":"Feature","properties":{"pid":"955bea3e-0e3b-41a6-a966-6450476a01cf"},"geometry":{"type":"Polygon","coordinates":[[[136.0356651536215,35.95899671423053],[136.03585508648976,35.959086562612335],[136.03593100817773,35.95894837444256],[136.0357252384581,35.958914717148076],[136.0356651536215,35.95899671423053]]]}},{"type":"Feature","properties":{"pid":"ae7c6977-b1a9-4893-a742-b0d542b2439f"},"geometry":{"type":"Polygon","coordinates":[[[136.03166087991224,35.95733224552646],[136.0319440723138,35.95744866775482],[136.0319892091551,35.95748241374684],[136.0320622074433,35.95741087979657],[136.0320515015741,35.95736679870558],[136.03201008004393,35.95734905628647],[136.03183989250851,35.95732956528973],[136.03166087991224,35.95733224552646]]]}},{"type":"Feature","properties":{"pid":"16e98130-0f04-40df-99e0-08cd0e992869"},"geometry":{"type":"Polygon","coordinates":[[[136.02991930232676,35.95748080732401],[136.03015403698245,35.95761506925603],[136.0302075148478,35.957600450058926],[136.0303010622057,35.95750524790978],[136.03033937232954,35.95750264979816],[136.03038617373994,35.95752481754867],[136.03045273408202,35.95744502688224],[136.03037087353468,35.957425626061266],[136.03026444053725,35.95737366590929],[136.0301137449854,35.95726261492816],[136.02991930232676,35.95748080732401]]]}},{"type":"Feature","properties":{"pid":"9d16b0c2-1222-48b5-8899-2d121b56715a"},"geometry":{"type":"Polygon","coordinates":[[[136.03059446055315,35.95746763467968],[136.0307721106465,35.957567045168005],[136.03082232836564,35.957512520999614],[136.03071897003164,35.957465775544506],[136.0306125491053,35.957448110106476],[136.03059446055315,35.95746763467968]]]}},{"type":"Feature","properties":{"pid":"f5bf95af-bfad-4ad1-b3df-c4b64009eff4"},"geometry":{"type":"Polygon","coordinates":[[[136.03122051745106,35.95732730075513],[136.0317668254866,35.957565660162615],[136.03180901906495,35.95751971423363],[136.03126284319416,35.95728810438394],[136.03122051745106,35.95732730075513]]]}},{"type":"Feature","properties":{"pid":"1bd21d1f-8529-4419-948d-5040a81d561e"},"geometry":{"type":"Polygon","coordinates":[[[136.03112291810348,35.957440941534834],[136.03139967931088,35.95756932457172],[136.03171245105008,35.957743055925434],[136.0317377840721,35.95769953870867],[136.03112291810348,35.957440941534834]]]}},{"type":"Feature","properties":{"pid":"5fbb21e8-2a01-433a-8a99-965d7470ee7c"},"geometry":{"type":"Polygon","coordinates":[[[136.03143493146493,35.958323488275994],[136.03156525928097,35.95839929993907],[136.0316146317172,35.95839055469162],[136.03182083107492,35.95813277278425],[136.03168892905643,35.95803625802532],[136.03143493146493,35.958323488275994]]]}},{"type":"Feature","properties":{"pid":"0cc84a9c-005d-4586-a54e-48c506e82696"},"geometry":{"type":"Polygon","coordinates":[[[136.03105741950364,35.95811884285644],[136.03132867617072,35.958268103910164],[136.03158718405192,35.95797247936249],[136.0313594167648,35.95782295164702],[136.03128143759426,35.95790146812838],[136.03122966190935,35.957925393195715],[136.03105741950364,35.95811884285644]]]}},{"type":"Feature","properties":{"pid":"2d3bc6a9-2035-4c06-ad51-ca4a1cc40032"},"geometry":{"type":"Polygon","coordinates":[[[136.0308503208882,35.95773843765302],[136.03096866984072,35.957833357271404],[136.0309633258121,35.95786286135223],[136.03089587803905,35.957946996324225],[136.03100146725865,35.95800823110714],[136.03112137722005,35.95787728556294],[136.03086480247427,35.95772300755091],[136.0308503208882,35.95773843765302]]]}},{"type":"Feature","properties":{"pid":"2c897ef9-8854-41a0-b491-6106a60cfc1e"},"geometry":{"type":"Polygon","coordinates":[[[136.0443282230847,35.95790172343919],[136.04444277511791,35.95790596641962],[136.0445457256999,35.95766325070768],[136.04443527097044,35.95764246808063],[136.0443282230847,35.95790172343919]]]}},{"type":"Feature","properties":{"pid":"28b9b2a3-8e77-47ae-83a3-2cf0646fd38c"},"geometry":{"type":"Polygon","coordinates":[[[136.0466526469536,35.957681646164],[136.04654090216047,35.95801091747136],[136.0467237331009,35.95805792191988],[136.04684508340085,35.95773236033489],[136.0466526469536,35.957681646164]]]}},{"type":"Feature","properties":{"pid":"3a0023a8-7549-406e-9b97-9059845a4eb8"},"geometry":{"type":"Polygon","coordinates":[[[136.0465404085692,35.95821335973942],[136.04701484689997,35.95832570030645],[136.04702166355204,35.958303931797104],[136.04654103808656,35.9581812014816],[136.0465404085692,35.95821335973942]]]}},{"type":"Feature","properties":{"pid":"66300869-ce13-4d42-acc7-a73491fb0536"},"geometry":{"type":"Polygon","coordinates":[[[136.04565979671446,35.95821747894453],[136.04624298459225,35.958356317821526],[136.04626196857168,35.958285558949534],[136.04625809080846,35.95816686156687],[136.04629501634673,35.95814177944742],[136.0463577533465,35.958142433715615],[136.046357186633,35.958128135071384],[136.04574598225662,35.957979049234034],[136.04565979671446,35.95821747894453]]]}},{"type":"Feature","properties":{"pid":"33959011-99ee-4fd2-bd28-b12fe46bc16c"},"geometry":{"type":"Polygon","coordinates":[[[136.0455940680607,35.95851532031432],[136.04579381472445,35.95859592760817],[136.0458676594014,35.95841051757207],[136.0456567409318,35.95836722880115],[136.0455940680607,35.95851532031432]]]}},{"type":"Feature","properties":{"pid":"54509a78-99a5-4afc-8baa-0946398c577f"},"geometry":{"type":"Polygon","coordinates":[[[136.0461884028656,35.95851148859831],[136.045990103606,35.95846939059463],[136.04595281746302,35.958562120115424],[136.0461126060276,35.95861986627224],[136.0461884028656,35.95851148859831]]]}},{"type":"Feature","properties":{"pid":"9840d78e-c8be-4cde-b1c7-e33381eb6c4f"},"geometry":{"type":"Polygon","coordinates":[[[136.04633307759494,35.95859505295913],[136.04664208131635,35.958572107630985],[136.04686663375065,35.95862647137365],[136.0468860809405,35.958564032787514],[136.04643486070518,35.95846247678396],[136.04633307759494,35.95859505295913]]]}},{"type":"Feature","properties":{"pid":"131b4e74-cd83-4410-a8a5-c34c68e2326c"},"geometry":{"type":"Polygon","coordinates":[[[136.0466534374483,35.958375399720346],[136.04688736112857,35.95843343204029],[136.0468935035272,35.95840488599242],[136.04665857496587,35.958355063445886],[136.0466534374483,35.958375399720346]]]}},{"type":"Feature","properties":{"pid":"a23ca790-6e6f-42a6-ab40-364fc51b7a0d"},"geometry":{"type":"Polygon","coordinates":[[[136.04529878595469,35.95829430069499],[136.04546448092503,35.9583761981604],[136.04562280032548,35.957943880653346],[136.0454396151217,35.957898796148804],[136.04529878595469,35.95829430069499]]]}},{"type":"Feature","properties":{"pid":"d1d96b8d-1f4c-4ea2-84ec-bef1e266c2b4"},"geometry":{"type":"Polygon","coordinates":[[[136.0451819166026,35.95820726540262],[136.04530507247583,35.95786424422141],[136.04512315034242,35.95782208931345],[136.04503736510125,35.958027534117456],[136.0451819166026,35.95820726540262]]]}},{"type":"Feature","properties":{"pid":"e6089e53-8df2-4078-8bd2-457474bd73e1"},"geometry":{"type":"Polygon","coordinates":[[[136.0446831892704,35.95792767318682],[136.04491276940183,35.95795301708379],[136.04497131908647,35.957774698873955],[136.04474345011286,35.95772744538958],[136.0446831892704,35.95792767318682]]]}},{"type":"Feature","properties":{"pid":"356de381-70c7-47b8-b964-ff12698365a9"},"geometry":{"type":"Polygon","coordinates":[[[136.04275191344558,35.95803448714931],[136.04281320398604,35.95810229321094],[136.0429135761103,35.958155966419945],[136.04298354007102,35.95809590042825],[136.04282582899197,35.957980917562516],[136.04275191344558,35.95803448714931]]]}},{"type":"Feature","properties":{"pid":"ac641e8c-f885-47e5-b493-fed6ebf54e65"},"geometry":{"type":"Polygon","coordinates":[[[136.0429479036228,35.95790753410545],[136.04308664353513,35.958011412707265],[136.04320666942436,35.957928185628454],[136.04299587587005,35.95781853262405],[136.0429479036228,35.95790753410545]]]}},{"type":"Feature","properties":{"pid":"0eccb184-df2e-49a1-a680-f7ecf9396f35"},"geometry":{"type":"Polygon","coordinates":[[[136.0428424153204,35.95748337200932],[136.04287360079266,35.9574848589278],[136.04298336532656,35.957223713149496],[136.0429350965379,35.957229507757056],[136.0428424153204,35.95748337200932]]]}},{"type":"Feature","properties":{"pid":"8bc7aa7d-5077-40b7-b966-89a254a64639"},"geometry":{"type":"Polygon","coordinates":[[[136.04323322897858,35.95734162067213],[136.0430637035359,35.957731245773786],[136.0433969487054,35.95788880599583],[136.0435769428049,35.95787742394612],[136.0437326030562,35.9574576484715],[136.04323322897858,35.95734162067213]]]}},{"type":"Feature","properties":{"pid":"9c09be99-ea5d-401a-b8bb-6269ea3768a8"},"geometry":{"type":"Polygon","coordinates":[[[136.04376679665674,35.95787083535377],[136.04390132209818,35.957529167592206],[136.0438943395466,35.957504679229025],[136.04388311408204,35.95750322202489],[136.04373953475186,35.957871841573024],[136.04376679665674,35.95787083535377]]]}},{"type":"Feature","properties":{"pid":"d2e92c29-206d-446f-8682-3741fa107271"},"geometry":{"type":"Polygon","coordinates":[[[136.04389747160403,35.957877267846825],[136.04400555832618,35.95787648800497],[136.0441202970436,35.957560973532935],[136.04403124664495,35.95754007848664],[136.04389747160403,35.957877267846825]]]}},{"type":"Feature","properties":{"pid":"6b3d015c-54e0-4982-93f3-c56aacf037be"},"geometry":{"type":"Polygon","coordinates":[[[136.04416888826384,35.95787717544071],[136.04420285143024,35.95788370210936],[136.0443145787035,35.957608471533966],[136.04427879150714,35.95760288986247],[136.04416888826384,35.95787717544071]]]}},{"type":"Feature","properties":{"pid":"dbb1971e-3f89-4319-93b9-eef0e4cdff5f"},"geometry":{"type":"Polygon","coordinates":[[[136.04172160434143,35.959440215994725],[136.04173744913547,35.95945399623401],[136.0419479226591,35.95951284683791],[136.04192230824015,35.95944424833857],[136.04172160434143,35.959440215994725]]]}},{"type":"Feature","properties":{"pid":"e85408bf-7523-4ae3-8a63-ecb948a95807"},"geometry":{"type":"Polygon","coordinates":[[[136.03673928594466,35.960268352778385],[136.03710502779253,35.96036521636924],[136.03713761768373,35.96035782187772],[136.0371901431544,35.96025917205404],[136.03710217617189,35.960228721192784],[136.03691985607097,35.96019772991171],[136.03675347769186,35.96018599680336],[136.03673928594466,35.960268352778385]]]}},{"type":"Feature","properties":{"pid":"fd415230-d754-4b6d-98fc-ede94247ad39"},"geometry":{"type":"Polygon","coordinates":[[[136.03726000507348,35.96040672639669],[136.03752610009448,35.96052521062834],[136.03759962221977,35.960433978259985],[136.03757053155076,35.96039487423291],[136.0375130950115,35.960362215292406],[136.03731954575733,35.9603041842496],[136.03726000507348,35.96040672639669]]]}},{"type":"Feature","properties":{"pid":"f31f855c-05b0-4311-9f5a-13259483eb51"},"geometry":{"type":"Polygon","coordinates":[[[136.0376580526671,35.96058779689402],[136.0379734507353,35.96077134810094],[136.0379322699688,35.96066461966369],[136.03786798778526,35.96058107430905],[136.03778600534798,35.9605161821466],[136.03772682179113,35.96049014333343],[136.0376580526671,35.96058779689402]]]}},{"type":"Feature","properties":{"pid":"eaedb734-1318-42ea-b866-0d3876b4efd7"},"geometry":{"type":"Polygon","coordinates":[[[136.0368131133662,35.960632036207585],[136.0369190003915,35.96066604759882],[136.0369556274802,35.96056410430261],[136.03685483246798,35.96053084981037],[136.0368131133662,35.960632036207585]]]}},{"type":"Feature","properties":{"pid":"e5b698b1-ba5b-4bc0-9dc6-e87ca3a5c444"},"geometry":{"type":"Polygon","coordinates":[[[136.0366900392686,35.96079902084533],[136.03681694947946,35.96084777354181],[136.03683846435788,35.96079072456947],[136.03671626501887,35.960750028803034],[136.0366900392686,35.96079902084533]]]}},{"type":"Feature","properties":{"pid":"5f6788ee-f616-4397-9a84-dfa072939ed0"},"geometry":{"type":"Polygon","coordinates":[[[136.03707955408393,35.960711811842735],[136.03756020141404,35.960881391258596],[136.03758261688793,35.96083507877403],[136.03711163340523,35.96061536946104],[136.03707955408393,35.960711811842735]]]}},{"type":"Feature","properties":{"pid":"95d778a2-f664-49fb-9b64-215b20d1d2fd"},"geometry":{"type":"Polygon","coordinates":[[[136.03699560162667,35.960884476067775],[136.03700418173796,35.96089944250313],[136.0373972664593,35.96102852434456],[136.0374863469426,35.96103016122605],[136.03750588417196,35.96098727214493],[136.03702164316553,35.9608287037264],[136.03699560162667,35.960884476067775]]]}},{"type":"Feature","properties":{"pid":"455d0bb2-4e5a-4477-b569-119ac9026f3f"},"geometry":{"type":"Polygon","coordinates":[[[136.03683948816214,35.96125303764043],[136.03689161149885,35.96125057704783],[136.03695936527757,35.96108378072825],[136.0369261464705,35.961072050702654],[136.03683948816214,35.96125303764043]]]}},{"type":"Feature","properties":{"pid":"7efc6dec-0db1-4dbc-877b-530cf3c74a3d"},"geometry":{"type":"Polygon","coordinates":[[[136.03707680317032,35.961222679684376],[136.03718706465781,35.96118436640367],[136.03726004579698,35.9611789149779],[136.03711538904,35.96113521978915],[136.03707680317032,35.961222679684376]]]}},{"type":"Feature","properties":{"pid":"f6ee5039-9a09-44ad-8704-29f36970115f"},"geometry":{"type":"Polygon","coordinates":[[[136.03764550081056,35.96114548982235],[136.03770893556873,35.96119075010596],[136.0380002408484,35.96109004122804],[136.03799622540475,35.96106563110719],[136.03774415139424,35.960917852343904],[136.03764550081056,35.96114548982235]]]}},{"type":"Feature","properties":{"pid":"c1eaef38-bbf4-4103-9942-d2b3ee1437b1"},"geometry":{"type":"Polygon","coordinates":[[[136.03776441485945,35.9613135459279],[136.03777400969733,35.961358942436156],[136.03802963348872,35.961314241885134],[136.03803183329495,35.96125994289806],[136.038009160471,35.96124054198404],[136.03776441485945,35.9613135459279]]]}},{"type":"Feature","properties":{"pid":"15d56dcd-cc9d-42ad-ad20-9089431546b6"},"geometry":{"type":"Polygon","coordinates":[[[136.03851418140133,35.96191325929688],[136.03868728426374,35.96202356308664],[136.03876770299024,35.962101706792126],[136.03919495429906,35.962165072903915],[136.0392109202741,35.96206208028887],[136.03914003895673,35.962022910777065],[136.03906480758272,35.961997537133065],[136.03893884326638,35.96200965404975],[136.03868637238128,35.96191128241501],[136.03851418140133,35.96191325929688]]]}},{"type":"Feature","properties":{"pid":"a95dc890-7efd-4b8b-8c04-d3c517b6791a"},"geometry":{"type":"Polygon","coordinates":[[[136.0379214888651,35.96168812256997],[136.0379616308717,35.961739442474226],[136.03813834786962,35.96183852486027],[136.03810427623253,35.96175335734757],[136.03809106727968,35.96164542215326],[136.0379214888651,35.96168812256997]]]}},{"type":"Feature","properties":{"pid":"68a48dbe-24b6-4033-9b62-1cbf03a55e43"},"geometry":{"type":"Polygon","coordinates":[[[136.03781936428686,35.96146795223579],[136.03785922425314,35.96157831036129],[136.0380878928789,35.96151688943178],[136.0380685240179,35.9614211952081],[136.03781936428686,35.96146795223579]]]}},{"type":"Feature","properties":{"pid":"3efd1f39-404e-4d8d-bbee-b1645b982b74"},"geometry":{"type":"Polygon","coordinates":[[[136.04014956353842,35.96297815835611],[136.0403330855908,35.96299377568173],[136.0403250492091,35.96287314236653],[136.0401762769518,35.962862361477335],[136.04014956353842,35.96297815835611]]]}},{"type":"Feature","properties":{"pid":"c703ac1f-166f-46d5-8265-87a2424abb0e"},"geometry":{"type":"Polygon","coordinates":[[[136.04010583593046,35.96250210377386],[136.04018795651376,35.9626231950579],[136.04019313929217,35.9627174620602],[136.0402767932683,35.96272497348255],[136.04021755572617,35.96260654497684],[136.04022951830635,35.96251992743399],[136.04010583593046,35.96250210377386]]]}},{"type":"Feature","properties":{"pid":"bae7b9f6-7d20-459c-bbd9-3fc40408db30"},"geometry":{"type":"Polygon","coordinates":[[[136.0400993587437,35.96236168762589],[136.04026748887154,35.96237803785813],[136.04023160245035,35.96226298240145],[136.04010982648123,35.962282471531104],[136.0400993587437,35.96236168762589]]]}},{"type":"Feature","properties":{"pid":"4fb93622-02ea-4688-b70a-d2b6c132c0da"},"geometry":{"type":"Polygon","coordinates":[[[136.03964092247128,35.96248356303262],[136.03976887492053,35.96246226971306],[136.039904806581,35.96245403452995],[136.03966471223512,35.96241397178888],[136.03964092247128,35.96248356303262]]]}},{"type":"Feature","properties":{"pid":"781fc090-6dcb-408b-b2f5-409263a32903"},"geometry":{"type":"Polygon","coordinates":[[[136.03939358944947,35.962224487428934],[136.03964593245368,35.9622722327158],[136.03965439566625,35.96223799146694],[136.0394119658542,35.96215819691577],[136.03939358944947,35.962224487428934]]]}},{"type":"Feature","properties":{"pid":"25eabaa1-9e7f-4e17-a90b-df356a462bd9"},"geometry":{"type":"Polygon","coordinates":[[[136.0406225589817,35.96195013332447],[136.04060303466386,35.961766507903846],[136.0405440490285,35.961810662979886],[136.04053836880536,35.961954484614104],[136.0406225589817,35.96195013332447]]]}},{"type":"Feature","properties":{"pid":"434892f5-3f1a-4b8a-b0d3-9389508c481f"},"geometry":{"type":"Polygon","coordinates":[[[136.04091775126363,35.96191731414055],[136.04095825472135,35.96191592832234],[136.04099435999422,35.96154841134682],[136.0409579015746,35.96156087704068],[136.04091775126363,35.96191731414055]]]}},{"type":"Feature","properties":{"pid":"4d17696d-0a62-4c33-b760-9041da5f646d"},"geometry":{"type":"Polygon","coordinates":[[[136.04108327938084,35.961914260018055],[136.04118088492487,35.96190961277718],[136.04121331886134,35.9615593201886],[136.0411228919612,35.96154421882391],[136.04108327938084,35.961914260018055]]]}},{"type":"Feature","properties":{"pid":"7ad61d97-c5fb-42a3-94c4-575d60cbb80e"},"geometry":{"type":"Polygon","coordinates":[[[136.0414281807293,35.96187531940614],[136.0416948813005,35.961864324892055],[136.04170964835507,35.96153912950301],[136.04145720026557,35.96157367595723],[136.0414281807293,35.96187531940614]]]}},{"type":"Feature","properties":{"pid":"24e0a96d-8c3a-4f76-8593-4850416516ab"},"geometry":{"type":"Polygon","coordinates":[[[136.0437979394611,35.96259084355541],[136.04385521356264,35.96275353757785],[136.04391723583453,35.96282218311887],[136.04394822742697,35.96283145246615],[136.04409319828457,35.96279779006027],[136.04431948215606,35.96279709132978],[136.0443945346249,35.962769779918666],[136.04436532145317,35.96265070581554],[136.04430555600786,35.96253689687872],[136.0437979394611,35.96259084355541]]]}},{"type":"Feature","properties":{"pid":"b313d6aa-8f32-4603-a8a2-460df8cb02be"},"geometry":{"type":"Polygon","coordinates":[[[136.0437906519898,35.96247315293669],[136.04421954348214,35.96241904080792],[136.04415440873885,35.96231990408166],[136.04413222344334,35.96231706461785],[136.04387749858844,35.962357216438605],[136.0438122331496,35.96242462411037],[136.0437906519898,35.96247315293669]]]}},{"type":"Feature","properties":{"pid":"5a02601b-e535-4db2-a8dc-26fdf9e3dce1"},"geometry":{"type":"Polygon","coordinates":[[[136.04428047906762,35.9617254343507],[136.0444832348673,35.961687065106055],[136.0444788444912,35.96148425875305],[136.04430435781126,35.96154538135267],[136.04428047906762,35.9617254343507]]]}},{"type":"Feature","properties":{"pid":"e3f9e1b9-5483-4260-8bf1-d153ce3cd3ed"},"geometry":{"type":"Polygon","coordinates":[[[136.04410097570496,35.961756860596665],[136.0441503887391,35.961749606035],[136.04416682516882,35.961593565816514],[136.04411422716436,35.96160725003195],[136.04410097570496,35.961756860596665]]]}},{"type":"Feature","properties":{"pid":"74da54c6-c041-4cf9-96b5-edebefd20219"},"geometry":{"type":"Polygon","coordinates":[[[136.04353865267683,35.96161643925082],[136.0435478102973,35.96179765260256],[136.0437084199691,35.9617838499454],[136.04369250536877,35.96162848700288],[136.04353865267683,35.96161643925082]]]}},{"type":"Feature","properties":{"pid":"fb092720-c8a6-4603-a494-fd9c22f6cda0"},"geometry":{"type":"Polygon","coordinates":[[[136.04321355545866,35.9615818724258],[136.04323304080765,35.96181430865003],[136.0434154320597,35.961805787815344],[136.04339503802925,35.96159998120833],[136.04321355545866,35.9615818724258]]]}},{"type":"Feature","properties":{"pid":"bcf62a6e-aded-4f98-8b12-05f6ed0947a6"},"geometry":{"type":"Polygon","coordinates":[[[136.04252944934186,35.96148520514909],[136.04255613255515,35.961835219206385],[136.04275524492533,35.96182804367742],[136.04273349380404,35.96150776736681],[136.04252944934186,35.96148520514909]]]}},{"type":"Feature","properties":{"pid":"80a95da1-75a9-47bb-9e68-d989761f4cef"},"geometry":{"type":"Polygon","coordinates":[[[136.0428741562091,35.96152613098137],[136.0428879790557,35.96182409541119],[136.0430858373908,35.96181765138042],[136.04306687508603,35.96155892813192],[136.0428741562091,35.96152613098137]]]}},{"type":"Feature","properties":{"pid":"53fc6a7c-2c7a-4ae8-96b1-2640c4b98488"},"geometry":{"type":"Polygon","coordinates":[[[136.0426067807276,35.96209400205383],[136.04260710504576,35.96213736262906],[136.04273644654464,35.962156902497235],[136.04280099553407,35.96213537146575],[136.04279651754538,35.962089510780665],[136.0426067807276,35.96209400205383]]]}},{"type":"Feature","properties":{"pid":"97a1d1dc-f778-48c1-a2bd-9734f527369e"},"geometry":{"type":"Polygon","coordinates":[[[136.04228520784852,35.96210583341103],[136.04228787012445,35.962186394262666],[136.04247038507117,35.96214925739969],[136.04246803997046,35.96210038358621],[136.04228520784852,35.96210583341103]]]}},{"type":"Feature","properties":{"pid":"c0eb5c39-f229-4bcc-b3eb-4df575abc655"},"geometry":{"type":"Polygon","coordinates":[[[136.0420188044678,35.9621097891416],[136.04202282842752,35.9621804126349],[136.0421487017486,35.96219182297308],[136.04214646905007,35.96210698844183],[136.0420188044678,35.9621097891416]]]}},{"type":"Feature","properties":{"pid":"85be0657-fa91-4c6b-a3ef-ecd345234cd0"},"geometry":{"type":"Polygon","coordinates":[[[136.04190580427567,35.96185467872191],[136.04209088462147,35.96184879917209],[136.042087651733,35.96181444727279],[136.04191084259006,35.96181560684795],[136.04190580427567,35.96185467872191]]]}},{"type":"Feature","properties":{"pid":"ce317e7a-b5a8-4289-a658-5d6008ad468f"},"geometry":{"type":"Polygon","coordinates":[[[136.04191536781343,35.961701590318526],[136.04208595382957,35.961701243532936],[136.04208477880417,35.961679820693725],[136.04202234505811,35.96164564634004],[136.0419170330163,35.961638055653225],[136.04191536781343,35.961701590318526]]]}},{"type":"Feature","properties":{"pid":"cd86cb7a-5c40-4437-8c7c-ae2775350976"},"geometry":{"type":"Polygon","coordinates":[[[136.04224711271823,35.9617210355585],[136.04226137247224,35.96184377229273],[136.04241931875129,35.961837999818954],[136.04239210933898,35.961464947292576],[136.04234647631426,35.96146304472388],[136.04233591141335,35.9616416143922],[136.04224711271823,35.9617210355585]]]}},{"type":"Feature","properties":{"pid":"492ae5f2-215d-4acb-9f5b-899420896acb"},"geometry":{"type":"Polygon","coordinates":[[[136.0424270028618,35.959744759211155],[136.04241482066794,35.9597706378192],[136.04251554683043,35.95987697350451],[136.04254209372255,35.959807674910195],[136.0424270028618,35.959744759211155]]]}},{"type":"Feature","properties":{"pid":"601df9db-d883-4922-ac74-60a2b34f6351"},"geometry":{"type":"Polygon","coordinates":[[[136.04268576852292,35.95987053411758],[136.04263195868668,35.95998065185443],[136.04267861253913,35.96002792396556],[136.04274349931424,35.959902480887536],[136.04268576852292,35.95987053411758]]]}},{"type":"Feature","properties":{"pid":"0f1053aa-d55a-4b79-b1aa-9b08ce052364"},"geometry":{"type":"Polygon","coordinates":[[[136.04409667502142,35.959856856749255],[136.04442709538262,35.95971985684657],[136.04442367751756,35.95969525659603],[136.04436877314424,35.95969137169932],[136.04415833652143,35.95977561957081],[136.04408009274442,35.95983351332214],[136.04409667502142,35.959856856749255]]]}},{"type":"Feature","properties":{"pid":"fd7988d3-293e-424c-ae27-cbacfccb3fa1"},"geometry":{"type":"Polygon","coordinates":[[[136.04419148280326,35.96001219724227],[136.0442062243483,35.96003561936408],[136.04447885091588,35.95991951392333],[136.044467363684,35.95989366779164],[136.04419148280326,35.96001219724227]]]}},{"type":"Feature","properties":{"pid":"15d0d0cb-21c8-46c4-8b35-b17fe30cb917"},"geometry":{"type":"Polygon","coordinates":[[[136.04364954429192,35.96130892147107],[136.04349792359602,35.96129528094231],[136.0434914112577,35.96135247297709],[136.04366230397005,35.96136324911864],[136.04364954429192,35.96130892147107]]]}},{"type":"Feature","properties":{"pid":"6ae0aad7-5e1d-4a0c-a0c0-f10cf2f7e3ef"},"geometry":{"type":"Polygon","coordinates":[[[136.0440078210303,35.96115035107423],[136.04419399285564,35.961155430602844],[136.04407726167457,35.96109412092034],[136.04402016878484,35.96109007026311],[136.0440078210303,35.96115035107423]]]}},{"type":"Feature","properties":{"pid":"7042fa7e-ceb0-48f1-a700-cb5c08018261"},"geometry":{"type":"Polygon","coordinates":[[[136.04498284513204,35.96126665614939],[136.04510127603623,35.96151954248864],[136.04530173011622,35.96144879620875],[136.0451672163712,35.961182262968954],[136.04498284513204,35.96126665614939]]]}},{"type":"Feature","properties":{"pid":"8c6c149c-7d9e-4e15-ab4d-14384a96086b"},"geometry":{"type":"Polygon","coordinates":[[[136.0448545652695,35.9610223818782],[136.0449740627944,35.96098676211646],[136.04477873016674,35.960728597028016],[136.04469490145317,35.96078519062673],[136.0448545652695,35.9610223818782]]]}},{"type":"Feature","properties":{"pid":"77e255b9-0dda-4263-a48d-42fefc8bfe79"},"geometry":{"type":"Polygon","coordinates":[[[136.04540282493033,35.960307892189086],[136.04545713067873,35.9603390264416],[136.04550373950792,35.96029234372755],[136.04549471724835,35.96021691333988],[136.04543184053674,35.96025084164958],[136.04540282493033,35.960307892189086]]]}},{"type":"Feature","properties":{"pid":"4631efef-0906-46ff-a2bd-f6d1e4f5c50c"},"geometry":{"type":"Polygon","coordinates":[[[136.04615719821825,35.9603885681781],[136.0463838201709,35.96046963006502],[136.04647332971467,35.960407917005135],[136.04647417238183,35.96035905408556],[136.04620999399032,35.960304032794355],[136.04615719821825,35.9603885681781]]]}},{"type":"Feature","properties":{"pid":"89204243-5f0f-476b-803e-83b91b43aed1"},"geometry":{"type":"Polygon","coordinates":[[[136.04567860372578,35.96017901152349],[136.0458052354038,35.96029073278116],[136.04590257877305,35.960215774978145],[136.0460151100797,35.960019654959936],[136.0459897914059,35.960004641078704],[136.04579010114395,35.960157734653436],[136.04574931537078,35.96016660378934],[136.0457079206435,35.96015201429082],[136.04567860372578,35.96017901152349]]]}},{"type":"Feature","properties":{"pid":"66b1dabc-2990-4139-a36a-fd7ab3317659"},"geometry":{"type":"Polygon","coordinates":[[[136.04568919543175,35.96160584571005],[136.0456011899106,35.96162240910989],[136.0457057438036,35.961857451271904],[136.0458109697351,35.96185291876089],[136.04568919543175,35.96160584571005]]]}},{"type":"Feature","properties":{"pid":"6bf7609f-58f3-4d44-97b1-3a84f7a18ab6"},"geometry":{"type":"Polygon","coordinates":[[[136.04523178223522,35.961762937796536],[136.04524142355336,35.9617921951612],[136.0452835627853,35.9618257829031],[136.04546738656566,35.96186707282099],[136.04539804637244,35.9617108186067],[136.04536783057583,35.96170170298835],[136.0453430952735,35.961724401294475],[136.04523178223522,35.961762937796536]]]}},{"type":"Feature","properties":{"pid":"2d0b8257-dab7-4f0b-982b-0e4e1232fc94"},"geometry":{"type":"Polygon","coordinates":[[[136.04461271056462,35.96166204835775],[136.04472224883378,35.96163568148377],[136.04463703046238,35.96142347118724],[136.04460799192432,35.96143679184215],[136.04461271056462,35.96166204835775]]]}},{"type":"Feature","properties":{"pid":"0f375bc5-3edf-4928-9a33-ba60b74ce2b2"},"geometry":{"type":"Polygon","coordinates":[[[136.0464184249429,35.96300527874473],[136.04650697093658,35.96323256383682],[136.04679758216525,35.96315203546442],[136.04681160306032,35.96313683777548],[136.04672221687943,35.9629621770902],[136.0464184249429,35.96300527874473]]]}},{"type":"Feature","properties":{"pid":"146c305b-d22e-49ce-ad85-f1b61ac104bb"},"geometry":{"type":"Polygon","coordinates":[[[136.0469366739267,35.96305813669905],[136.04696898811645,35.963085147358086],[136.04719099038905,35.96301767327784],[136.0471009466614,35.96291964131462],[136.0469964428224,35.962868901650566],[136.04686380947692,35.962916632332224],[136.0469366739267,35.96305813669905]]]}},{"type":"Feature","properties":{"pid":"9bebb574-6040-4f5e-b905-506f6e2c22e3"},"geometry":{"type":"Polygon","coordinates":[[[136.04734048326958,35.96277699215417],[136.04742967612526,35.96293538225546],[136.04770715890996,35.962855214951425],[136.04759975412279,35.962647116390876],[136.04734048326958,35.96277699215417]]]}},{"type":"Feature","properties":{"pid":"1eae828d-4b2d-4ba7-9e32-b2d512238f78"},"geometry":{"type":"Polygon","coordinates":[[[136.0477215668231,35.96258831563478],[136.04782483683044,35.96278064231035],[136.0478725483196,35.96281532629403],[136.04813021828602,35.96273870401837],[136.04792786273083,35.96237134185568],[136.04777536363062,35.96255134937919],[136.0477215668231,35.96258831563478]]]}},{"type":"Feature","properties":{"pid":"8e8c3211-047e-456a-9fc1-e17f19259434"},"geometry":{"type":"Polygon","coordinates":[[[136.04803223632206,35.962320357368874],[136.0482450049789,35.96269979069991],[136.04827384956192,35.96268917591644],[136.04812122599955,35.962407654468564],[136.04805745255092,35.962312206077094],[136.04803223632206,35.962320357368874]]]}},{"type":"Feature","properties":{"pid":"b156c8e7-33e6-4eb3-80c5-c7a60a21911d"},"geometry":{"type":"Polygon","coordinates":[[[136.04788162940818,35.96300953705166],[136.04799029737822,35.963256920819994],[136.0482392129338,35.96306626375096],[136.04817219380567,35.96292464503721],[136.04815431239655,35.96291755096834],[136.04788162940818,35.96300953705166]]]}},{"type":"Feature","properties":{"pid":"9a7772be-ca23-4cf5-9618-0519c9f14c08"},"geometry":{"type":"Polygon","coordinates":[[[136.0482924975511,35.96286986964894],[136.04836051388997,35.96302497896139],[136.0484771063104,35.96303431641133],[136.04856398656116,35.96303065497498],[136.04858454614956,35.9630164994035],[136.04848378245185,35.962809080051095],[136.0482924975511,35.96286986964894]]]}},{"type":"Feature","properties":{"pid":"2de86ae3-6a6e-4ad3-81e4-372747538b8e"},"geometry":{"type":"Polygon","coordinates":[[[136.04869680216507,35.96294082354464],[136.04878447862944,35.962868656046695],[136.0488473040715,35.96285591748721],[136.04876650286815,35.96271142822347],[136.04860859638345,35.96275811267558],[136.04869680216507,35.96294082354464]]]}},{"type":"Feature","properties":{"pid":"bbe8e3c7-72de-4a9b-bd57-95d3a2f74435"},"geometry":{"type":"Polygon","coordinates":[[[136.0486736686977,35.96234702710926],[136.0487706612801,35.962540751976555],[136.04884565866513,35.962517817957604],[136.0487905364492,35.962393434711295],[136.04872678046087,35.96234257226383],[136.0486736686977,35.96234702710926]]]}},{"type":"Feature","properties":{"pid":"f5f8806a-98ff-433e-84cb-90478733a9a8"},"geometry":{"type":"Polygon","coordinates":[[[136.04855726391256,35.962608659830494],[136.0486569055366,35.962577076489794],[136.04848392470572,35.962248026150014],[136.04836751440072,35.96226006109556],[136.04855726391256,35.962608659830494]]]}},{"type":"Feature","properties":{"pid":"8d1f1ec2-bccf-485b-97ca-842c6dd94ca1"},"geometry":{"type":"Polygon","coordinates":[[[136.04721434501272,35.96018599318932],[136.04722550968333,35.96015333843809],[136.04718234936948,35.96013115040106],[136.0471770170152,35.96009069517698],[136.04714770591545,35.960087858056994],[136.04712633857798,35.96016695069444],[136.04721434501272,35.96018599318932]]]}},{"type":"Feature","properties":{"pid":"af2efa10-a368-4a5e-9bb2-cb971acd56c4"},"geometry":{"type":"Polygon","coordinates":[[[136.04755573386785,35.9600083615987],[136.04772494026506,35.96003666301982],[136.04782144556694,35.959659620753214],[136.04764123763783,35.95965158789557],[136.04755573386785,35.9600083615987]]]}},{"type":"Feature","properties":{"pid":"3d3587a2-a1c1-432b-94d9-81964ef7d9c5"},"geometry":{"type":"Polygon","coordinates":[[[136.0478527041276,35.960071314654876],[136.04797139749317,35.96010005235596],[136.048077421138,35.959671259222034],[136.04795471251165,35.95966494062241],[136.0478527041276,35.960071314654876]]]}},{"type":"Feature","properties":{"pid":"afc7ca69-0029-4e19-bddc-675f6e237848"},"geometry":{"type":"Polygon","coordinates":[[[136.04748750948303,35.9601706209342],[136.04742636205992,35.960345423421366],[136.04778064888913,35.96043611402331],[136.04785204910826,35.96026066182864],[136.04748750948303,35.9601706209342]]]}},{"type":"Feature","properties":{"pid":"576bfdf0-a373-4985-81f4-e6489b879084"},"geometry":{"type":"Polygon","coordinates":[[[136.04798331009297,35.96029389994826],[136.04790564323227,35.96047118210138],[136.04800464364706,35.96051410755488],[136.0480093166102,35.96054001814026],[136.04798537307593,35.96059663539733],[136.04810794463452,35.960626803819295],[136.04823462841046,35.960354447720675],[136.04798331009297,35.96029389994826]]]}},{"type":"Feature","properties":{"pid":"9068e33d-b4b7-43d4-95d4-dfe29ebd09e5"},"geometry":{"type":"Polygon","coordinates":[[[136.0493600716233,35.96020904790116],[136.04930962148643,35.960179715991806],[136.0492602267923,35.96027898264831],[136.04933958308388,35.96029054509604],[136.0493600716233,35.96020904790116]]]}},{"type":"Feature","properties":{"pid":"69e8e165-5564-45e2-af4e-4cff1d2a5fd2"},"geometry":{"type":"Polygon","coordinates":[[[136.04896795276483,35.96020327119776],[136.04910747996482,35.9602386117649],[136.04914433120535,35.9601680196421],[136.04900329232103,35.960122937072335],[136.04896795276483,35.96020327119776]]]}},{"type":"Feature","properties":{"pid":"092eac0a-3eb5-4be1-b593-53331f41812a"},"geometry":{"type":"Polygon","coordinates":[[[136.0495371404791,35.960975658668794],[136.04957072521776,35.960885388263925],[136.04938681402626,35.96077751684763],[136.04927071289706,35.96074473932999],[136.04921610310234,35.960885969464115],[136.0495371404791,35.960975658668794]]]}},{"type":"Feature","properties":{"pid":"75863a04-e9d7-4473-8f70-9ab9a0c620f7"},"geometry":{"type":"Polygon","coordinates":[[[136.04887086867373,35.96082422061022],[136.04902097575712,35.960854116618364],[136.04906583956452,35.960732563014105],[136.04891932903706,35.960693898939766],[136.04887086867373,35.96082422061022]]]}},{"type":"Feature","properties":{"pid":"5f92a8d9-6539-4580-ab4c-8926dd2416f6"},"geometry":{"type":"Polygon","coordinates":[[[136.0490362407805,35.96048221175932],[136.04888088021184,35.9604451747625],[136.04886213470402,35.96049514090137],[136.0490585170144,35.960544015546844],[136.0490362407805,35.96048221175932]]]}},{"type":"Feature","properties":{"pid":"ab707f9d-0656-4bb8-a5d7-d0eb1ab20a6a"},"geometry":{"type":"Polygon","coordinates":[[[136.0485196759783,35.96099710293017],[136.04855645948393,35.96100069087526],[136.04868064808082,35.96067197506202],[136.04864392333175,35.96066316392049],[136.0485196759783,35.96099710293017]]]}},{"type":"Feature","properties":{"pid":"f4161fe2-c539-4f6b-aebe-254b2e3d2a4b"},"geometry":{"type":"Polygon","coordinates":[[[136.04869381398956,35.961034542057334],[136.04893646125083,35.96109144498468],[136.04899838631576,35.960953562781704],[136.04874301824398,35.96089889961479],[136.04869381398956,35.961034542057334]]]}},{"type":"Feature","properties":{"pid":"4de2d5b6-80ad-4084-91f3-b6e6c878e1cd"},"geometry":{"type":"Polygon","coordinates":[[[136.0491599059967,35.96107148732808],[136.04930772986,35.96111090147647],[136.04932433436883,35.961024093452856],[136.04919007715864,35.96099162533891],[136.0491599059967,35.96107148732808]]]}},{"type":"Feature","properties":{"pid":"49eaf147-dbcc-4638-8c14-5ef603317a19"},"geometry":{"type":"Polygon","coordinates":[[[136.05008662800546,35.96179351980169],[136.04981756990747,35.9617954548427],[136.04981281621068,35.96181811775771],[136.04988282614963,35.961841337643804],[136.05008719782776,35.96184217744018],[136.05008662800546,35.96179351980169]]]}},{"type":"Feature","properties":{"pid":"a4c73081-7e7f-4ba1-a605-531ba2de53e7"},"geometry":{"type":"Polygon","coordinates":[[[136.0498139209121,35.95909212321873],[136.04986481932494,35.959116699175],[136.04987608362637,35.95910823231717],[136.0499494738403,35.95882534254014],[136.04990229521513,35.95881299375697],[136.0498139209121,35.95909212321873]]]}},{"type":"Feature","properties":{"pid":"fbccb192-8ec4-4ee6-9e96-08ba79bbf819"},"geometry":{"type":"Polygon","coordinates":[[[136.0490897899204,35.958024084925405],[136.0490573355326,35.95805625484004],[136.04905294829553,35.95820806302079],[136.04920770868603,35.95819063857677],[136.04924200686366,35.95808109987584],[136.04923365614195,35.95806835967346],[136.0490897899204,35.958024084925405]]]}},{"type":"Feature","properties":{"pid":"821238c3-7b73-4150-b3e4-f184d4764b7e"},"geometry":{"type":"Polygon","coordinates":[[[136.04872235220512,35.95846885133747],[136.04900996241753,35.95851994241606],[136.04906176582026,35.958371333284184],[136.04879911429956,35.958406157346786],[136.0487288202928,35.95842889121406],[136.04872235220512,35.95846885133747]]]}},{"type":"Feature","properties":{"pid":"5098a76c-922b-479f-a4bb-e91bfb40905b"},"geometry":{"type":"Polygon","coordinates":[[[136.04809632931588,35.958025796450606],[136.0481362367854,35.95815772234975],[136.0483057782337,35.95813433741082],[136.04828291356642,35.95801661483936],[136.04809632931588,35.958025796450606]]]}},{"type":"Feature","properties":{"pid":"8bb81154-eb6e-422d-bfb1-12bdd5f5f9a8"},"geometry":{"type":"Polygon","coordinates":[[[136.04816633771773,35.957910730346256],[136.04827190778343,35.957908276812745],[136.04827701441263,35.95774389785661],[136.04821658277598,35.957733537563044],[136.04816633771773,35.957910730346256]]]}},{"type":"Feature","properties":{"pid":"a31c2c75-58c9-46b9-afe2-6c828590c642"},"geometry":{"type":"Polygon","coordinates":[[[136.04726832156544,35.95790242947508],[136.04738925502522,35.95793632027292],[136.04750374315498,35.95775794637532],[136.0473400082796,35.95771540449687],[136.04726832156544,35.95790242947508]]]}},{"type":"Feature","properties":{"pid":"7f3a68d9-8500-4025-b0ad-725407d063e8"},"geometry":{"type":"Polygon","coordinates":[[[136.0471569340118,35.95817243017483],[136.04721182536915,35.95818620922076],[136.04732945081378,35.95802632655709],[136.0472269716518,35.9579984354054],[136.0471569340118,35.95817243017483]]]}},{"type":"Feature","properties":{"pid":"6444df02-f1b9-41e9-935f-e114c1c2ab6a"},"geometry":{"type":"Polygon","coordinates":[[[136.0468491143852,35.958096032754334],[136.04703539143117,35.95814152088653],[136.04721534372894,35.95768055306696],[136.04702490560143,35.95762587141877],[136.0468491143852,35.958096032754334]]]}},{"type":"Feature","properties":{"pid":"34011707-0bf6-462e-a468-801b0bcf5c7c"},"geometry":{"type":"Polygon","coordinates":[[[136.04780486981582,35.95758758900042],[136.04775300219953,35.9576513447571],[136.04781793757525,35.95769339656463],[136.0478739344022,35.95762637898991],[136.04780486981582,35.95758758900042]]]}},{"type":"Feature","properties":{"pid":"699268a0-0093-44d8-b2ba-13d7a6a90557"},"geometry":{"type":"Polygon","coordinates":[[[136.0479282279804,35.957744301762794],[136.0480738160263,35.9577807845746],[136.04809492964105,35.957706068159816],[136.04798400889618,35.95767892054937],[136.0479282279804,35.957744301762794]]]}},{"type":"Feature","properties":{"pid":"d6f35c47-b82d-4d21-a573-7dcde99fd6da"},"geometry":{"type":"Polygon","coordinates":[[[136.04809558228652,35.957588382068536],[136.0482897785861,35.957633480924855],[136.04837666764135,35.957641599975354],[136.04837665757378,35.957624922955475],[136.04810615763535,35.957579348590755],[136.04809558228652,35.957588382068536]]]}},{"type":"Feature","properties":{"pid":"a08af336-89fa-4936-913d-d12f2da4ccde"},"geometry":{"type":"Polygon","coordinates":[[[136.04850855954388,35.95790094515254],[136.0486110830781,35.95790140277681],[136.04862735319887,35.95763051460767],[136.04855526260312,35.95762427289231],[136.0485192424762,35.95764212676091],[136.04850855954388,35.95790094515254]]]}},{"type":"Feature","properties":{"pid":"7c9eea9e-0a67-4a31-92d4-712e1d67c44e"},"geometry":{"type":"Polygon","coordinates":[[[136.04876681758657,35.95788159839569],[136.0490326683632,35.957881237827294],[136.04906626695725,35.957798587091276],[136.0487797951408,35.95772776165766],[136.04876681758657,35.95788159839569]]]}},{"type":"Feature","properties":{"pid":"52bc2737-e8d1-4f99-83d6-dc7afc2f4591"},"geometry":{"type":"Polygon","coordinates":[[[136.04942141603345,35.957144470022754],[136.04938197890453,35.95725778494953],[136.04943813718876,35.9572715298253],[136.04948143072568,35.95716045866146],[136.04942141603345,35.957144470022754]]]}},{"type":"Feature","properties":{"pid":"9f2e7a97-894f-483b-87f9-4087ab3192a3"},"geometry":{"type":"Polygon","coordinates":[[[136.04977394566663,35.96465650057768],[136.0498333831199,35.964639033439546],[136.0500209114675,35.96440229792],[136.04990674102268,35.96433051675803],[136.04974672342388,35.96448848550245],[136.04973463758836,35.964572686637254],[136.04974917440464,35.964636018135444],[136.04977394566663,35.96465650057768]]]}},{"type":"Feature","properties":{"pid":"95a16bf5-5e71-4ce6-8c48-ad9e98b54eeb"},"geometry":{"type":"Polygon","coordinates":[[[136.04765558067518,35.963070114641646],[136.04782624907781,35.96339150167043],[136.04787324576674,35.963323138611685],[136.04775161591476,35.963047735710184],[136.04773357282502,35.96304157456029],[136.04765558067518,35.963070114641646]]]}},{"type":"Feature","properties":{"pid":"cfd9ffd8-2f7d-4972-b434-3a524211992a"},"geometry":{"type":"Polygon","coordinates":[[[136.04702730215183,35.963257952052885],[136.04718284258084,35.963583590049566],[136.04723434047065,35.963594364025234],[136.04741898467205,35.96358338099139],[136.04741465084683,35.963519522622704],[136.0472761655252,35.96318982888271],[136.04702730215183,35.963257952052885]]]}},{"type":"Feature","properties":{"pid":"a93791c8-02d8-492e-82ca-0ccfa41742a3"},"geometry":{"type":"Polygon","coordinates":[[[136.04933794848733,35.96925133740148],[136.04954385325175,35.969263811579566],[136.04922552516283,35.96856534693443],[136.04918739585878,35.968573904497894],[136.04933794848733,35.96925133740148]]]}},{"type":"Feature","properties":{"pid":"b85821d7-5f59-4f36-89ea-89ac4dafc446"},"geometry":{"type":"Polygon","coordinates":[[[136.04921468357364,35.96924189160605],[136.0490731443571,35.96860121583508],[136.04895880824344,35.96862271560881],[136.04909250841797,35.96923031051341],[136.04921468357364,35.96924189160605]]]}},{"type":"Feature","properties":{"pid":"8dbb57b2-921d-4c96-a0c2-ab50535afd16"},"geometry":{"type":"Polygon","coordinates":[[[136.04852657164037,35.96871848009242],[136.04863396144708,35.969173413554834],[136.0489313073187,35.96920811338226],[136.04880700656238,35.9686557173488],[136.04852657164037,35.96871848009242]]]}},{"type":"Feature","properties":{"pid":"cfcf930e-fd12-4eb5-9cd3-7b847bd2a2f7"},"geometry":{"type":"Polygon","coordinates":[[[136.04808836514076,35.968792836458235],[136.04817498840347,35.96920705185386],[136.04827381623352,35.96918586085075],[136.04848284118185,35.96917476442391],[136.0483856460442,35.968746703345225],[136.04808836514076,35.968792836458235]]]}},{"type":"Feature","properties":{"pid":"a40dd770-548c-4f9d-8087-b1cc52a38f80"},"geometry":{"type":"Polygon","coordinates":[[[136.04729257495765,35.96898716025431],[136.0474156433798,35.96916598066093],[136.0475697268237,35.9691907345829],[136.0474972837679,35.968916902464414],[136.04729257495765,35.96898716025431]]]}},{"type":"Feature","properties":{"pid":"48780cbc-62a3-4930-b934-a1eb76277b7e"},"geometry":{"type":"Polygon","coordinates":[[[136.04763806454946,35.96888599312974],[136.04771887520062,35.96920410548046],[136.04802911373045,35.96923880139506],[136.04794607944945,35.96881619734344],[136.04779994983016,35.96887367619896],[136.04763806454946,35.96888599312974]]]}},{"type":"Feature","properties":{"pid":"a68f2dbd-41dd-4d74-9716-dffdc0e2d5ae"},"geometry":{"type":"Polygon","coordinates":[[[136.04963292718173,35.96854685653297],[136.04987450650316,35.96925639877727],[136.05001548471134,35.96857642294824],[136.04963292718173,35.96854685653297]]]}},{"type":"Feature","properties":{"pid":"5c37f3b1-7792-476d-b2d1-2a8e094df7f9"},"geometry":{"type":"Polygon","coordinates":[[[136.04973940562365,35.97075165663192],[136.04991188196624,35.97096373019836],[136.04992817428393,35.97095384285267],[136.04977868144206,35.9707402939717],[136.04973940562365,35.97075165663192]]]}},{"type":"Feature","properties":{"pid":"87c159d8-adea-4c26-9064-a76dd8f672a9"},"geometry":{"type":"Polygon","coordinates":[[[136.04940359942682,35.970817264528876],[136.0493791198245,35.970829983147645],[136.04965340101137,35.97116244186007],[136.04967111795503,35.971153410373454],[136.04940359942682,35.970817264528876]]]}},{"type":"Feature","properties":{"pid":"4ed038af-ce4f-4fcf-a0cc-07f6341698d1"},"geometry":{"type":"Polygon","coordinates":[[[136.04952420156735,35.97125455428838],[136.04954249608733,35.9712447377309],[136.0492376315244,35.97089674884782],[136.04952420156735,35.97125455428838]]]}},{"type":"Feature","properties":{"pid":"e31fc5b1-9bb6-4879-aa24-7e6fe05aa7b7"},"geometry":{"type":"Polygon","coordinates":[[[136.0490899847043,35.971198339436484],[136.04921859003122,35.971382206656024],[136.04925605267817,35.97137648139166],[136.04909227429107,35.9711821140345],[136.0490899847043,35.971198339436484]]]}}]}