{"type":"FeatureCollection","features":[{"type":"Feature","properties":{"pid":"31fe62ed-a439-4e35-bcc7-121226da0267"},"geometry":{"type":"Polygon","coordinates":[[[136.52640066444542,36.06567766573107],[136.52655848597036,36.065725619202965],[136.52662957633441,36.06578375426259],[136.52663658453108,36.06580907116829],[136.526619757401,36.065850419897274],[136.52664718366069,36.06586682138715],[136.52663970534763,36.06580077372574],[136.5266547749003,36.06574850489343],[136.52659164382464,36.065678376607615],[136.5264908647376,36.065650067952575],[136.52640066444542,36.06567766573107]]]}},{"type":"Feature","properties":{"pid":"4f7cb4b5-645f-45c2-a4bd-d52b7310853b"},"geometry":{"type":"Polygon","coordinates":[[[136.52661060458178,36.06540285295671],[136.52667133694504,36.065525968841115],[136.526727910848,36.06548590451317],[136.5266529807485,36.06538742777794],[136.52661060458178,36.06540285295671]]]}},{"type":"Feature","properties":{"pid":"a955ffab-1917-4ba2-b5d5-6bc48fa9a511"},"geometry":{"type":"Polygon","coordinates":[[[136.5262087365297,36.06602834434515],[136.52629356635427,36.0660899637498],[136.52633458375553,36.066056803507095],[136.52630161950262,36.06603129639118],[136.52628913183003,36.06596871966682],[136.5262582985293,36.065945678159125],[136.5262087365297,36.06602834434515]]]}},{"type":"Feature","properties":{"pid":"2c758861-1ae1-42eb-ba72-d3d6f4d73255"},"geometry":{"type":"Polygon","coordinates":[[[136.5253756003257,36.06796633853565],[136.52543581240164,36.06821882813073],[136.52567232590386,36.0680875150445],[136.52571689471517,36.068040580465805],[136.52558368318176,36.06793647809834],[136.5253756003257,36.06796633853565]]]}}]}