{"type":"FeatureCollection","features":[{"type":"Feature","properties":{"pid":"28c8f66f-d0a4-4ec8-a080-300f73c0865b"},"geometry":{"type":"Polygon","coordinates":[[[136.12573861674292,36.05711520668944],[136.12571126368226,36.057093797910206],[136.12570696405294,36.057064127590145],[136.1257928634458,36.05693564678509],[136.1255524058865,36.05693589875147],[136.1255068106974,36.057082789227415],[136.12573861674292,36.05711520668944]]]}},{"type":"Feature","properties":{"pid":"3f96e0d6-38d8-4849-ab0b-aaa0e209f2d5"},"geometry":{"type":"Polygon","coordinates":[[[136.12800315842028,36.05707600440385],[136.12799597771564,36.05713763862912],[136.12811042132546,36.057181553569066],[136.1281018423504,36.05709203237025],[136.12800315842028,36.05707600440385]]]}},{"type":"Feature","properties":{"pid":"99d970a1-4a93-4689-b1c7-b0fa1f221684"},"geometry":{"type":"Polygon","coordinates":[[[136.12726069445316,36.057039656026916],[136.12715820099623,36.05703082505399],[136.12709956128325,36.057158611397874],[136.12774657102506,36.057347012815114],[136.12778150376315,36.057272101977524],[136.12726069445316,36.057039656026916]]]}},{"type":"Feature","properties":{"pid":"14c51d10-6969-43af-9526-f4f2dad2c622"},"geometry":{"type":"Polygon","coordinates":[[[136.1261791639665,36.05716778806511],[136.12672368524056,36.05733587317221],[136.12677482081455,36.05721674318747],[136.12623637160613,36.0570459402306],[136.1261791639665,36.05716778806511]]]}},{"type":"Feature","properties":{"pid":"a49abc4e-6a44-4fbf-b7d5-01db7a24e7c5"},"geometry":{"type":"Polygon","coordinates":[[[136.12717406138086,36.05589664202519],[136.12713589349275,36.05658562342684],[136.12731709642333,36.05659447355498],[136.12736789596812,36.055908691954905],[136.12717406138086,36.05589664202519]]]}},{"type":"Feature","properties":{"pid":"ea9294e9-49a5-4754-8624-4a5d700f94bd"},"geometry":{"type":"Polygon","coordinates":[[[136.12803125329114,36.05676844173534],[136.1280233257623,36.05685406375028],[136.1281422258428,36.05686289877927],[136.12814860247636,36.05676989612592],[136.12803125329114,36.05676844173534]]]}},{"type":"Feature","properties":{"pid":"887fb366-acdb-437d-a1a7-2fa9bfebbafd"},"geometry":{"type":"Polygon","coordinates":[[[136.12912895618626,36.056824644649744],[136.12839990142317,36.056763542312616],[136.1283931481944,36.05691854566769],[136.1284161595747,36.056945024384035],[136.12911610659938,36.057070634745685],[136.12912895618626,36.056824644649744]]]}},{"type":"Feature","properties":{"pid":"842c6a53-58a0-477b-b773-e189fe00cbb9"},"geometry":{"type":"Polygon","coordinates":[[[136.1281502872512,36.05663111181863],[136.12817411977036,36.05635305550453],[136.12747008203777,36.05632240862797],[136.12745185837156,36.056602008568355],[136.1281502872512,36.05663111181863]]]}},{"type":"Feature","properties":{"pid":"a528c5b1-579d-4582-90bb-50f66e6786f9"},"geometry":{"type":"Polygon","coordinates":[[[136.1282013574591,36.05594018353011],[136.12750179422133,36.05590957157598],[136.1274786877625,36.05621631452826],[136.12817596284492,36.056243945906765],[136.1282013574591,36.05594018353011]]]}},{"type":"Feature","properties":{"pid":"0ada6787-2879-4591-baaa-4b47e2b173a0"},"geometry":{"type":"Polygon","coordinates":[[[136.12780686682686,36.05572956627797],[136.12784325449388,36.055181479683895],[136.12754733155933,36.05536644766927],[136.12751712835743,36.0557126228573],[136.12780686682686,36.05572956627797]]]}},{"type":"Feature","properties":{"pid":"7bcec79b-3f29-4aca-8105-483c4ccff601"},"geometry":{"type":"Polygon","coordinates":[[[136.12737365836435,36.05571711425433],[136.1273912670194,36.05548626948976],[136.1270802305483,36.055696967669505],[136.12737365836435,36.05571711425433]]]}},{"type":"Feature","properties":{"pid":"c539799f-39ce-4b00-88f9-d71498c65780"},"geometry":{"type":"Polygon","coordinates":[[[136.12618018667644,36.056528382547135],[136.12561552306008,36.056503902920554],[136.1256092575207,36.05654097023495],[136.12617773819073,36.05656561651229],[136.12618018667644,36.056528382547135]]]}},{"type":"Feature","properties":{"pid":"c6a58f7a-05a8-4a26-a5da-9add8805734f"},"geometry":{"type":"Polygon","coordinates":[[[136.12539439605163,36.05659963728504],[136.12475347702807,36.056564833050935],[136.12474468066446,36.05661865145095],[136.12537720138005,36.05669435933597],[136.12539439605163,36.05659963728504]]]}},{"type":"Feature","properties":{"pid":"defecde2-9061-440f-8f7a-2096a00bb776"},"geometry":{"type":"Polygon","coordinates":[[[136.12546923322057,36.056251311975025],[136.1250971788521,36.056164684199416],[136.12480567881053,36.05624480497064],[136.12478109880658,36.0564208388115],[136.12542588272984,36.05647388103965],[136.12546923322057,36.056251311975025]]]}},{"type":"Feature","properties":{"pid":"585ef64a-a0bd-4986-bdda-de91bf9a8259"},"geometry":{"type":"Polygon","coordinates":[[[136.12743757044356,36.04229421565484],[136.1270585892663,36.04217288218285],[136.12699534978768,36.042281065916356],[136.12738361564308,36.04240537163784],[136.12743757044356,36.04229421565484]]]}},{"type":"Feature","properties":{"pid":"d85e8b5b-031b-40b9-96f5-963effac3701"},"geometry":{"type":"Polygon","coordinates":[[[136.12619064360774,36.04220850381998],[136.12629363401504,36.042246333500515],[136.12635755805277,36.042096920489534],[136.12624244990553,36.042091154778014],[136.12619064360774,36.04220850381998]]]}},{"type":"Feature","properties":{"pid":"6c709fa9-5f04-43a1-83c1-874d882c7c4a"},"geometry":{"type":"Polygon","coordinates":[[[136.1267958737735,36.04210556131667],[136.12650877210774,36.04208643057427],[136.12642948586372,36.04227429230824],[136.12655793999951,36.042286464484434],[136.12686383208097,36.04223268596972],[136.1269119016883,36.042132975844275],[136.1267958737735,36.04210556131667]]]}},{"type":"Feature","properties":{"pid":"b82fcf36-32c7-42cb-9811-2ba92c4c7f99"},"geometry":{"type":"Polygon","coordinates":[[[136.1280279051719,36.04279150521118],[136.12799006803502,36.04269155470626],[136.12789910426358,36.04274840195181],[136.12798546265836,36.04282132222098],[136.1280279051719,36.04279150521118]]]}},{"type":"Feature","properties":{"pid":"9311ea69-285b-4535-9ec2-1c4d94ddce17"},"geometry":{"type":"Polygon","coordinates":[[[136.12770047437053,36.04253170587597],[136.12776835310916,36.042481960453614],[136.12757070595518,36.04235308894611],[136.127526194939,36.042434439339864],[136.12770047437053,36.04253170587597]]]}},{"type":"Feature","properties":{"pid":"e1cfd828-f694-4f00-a059-e40b3c3915c4"},"geometry":{"type":"Polygon","coordinates":[[[136.1255145941459,36.0426143120895],[136.1253774771638,36.042557032721966],[136.12482857680286,36.0423126892962],[136.124822119043,36.04237559177666],[136.12538180100933,36.04259392338903],[136.12540559682773,36.042618281985796],[136.12540882819306,36.04265340440507],[136.12548006573314,36.04265534195202],[136.12555967132482,36.04263969633483],[136.12557595583982,36.04262301387583],[136.1255145941459,36.0426143120895]]]}},{"type":"Feature","properties":{"pid":"8bf41bd7-c643-4845-ba7b-6da4ea0dffe1"},"geometry":{"type":"Polygon","coordinates":[[[136.12588090654353,36.04222445236555],[136.12593459667292,36.04219886059046],[136.12605688816865,36.04219281447405],[136.12611020145715,36.042059031434164],[136.12597536042708,36.042023712251904],[136.12588090654353,36.04222445236555]]]}},{"type":"Feature","properties":{"pid":"d73805b4-adb0-4242-8880-613b8e4263aa"},"geometry":{"type":"Polygon","coordinates":[[[136.12575410113044,36.0420606124019],[136.1251369552082,36.04178310917727],[136.1250499957772,36.04190352231743],[136.12568753628747,36.0421920767315],[136.12575410113044,36.0420606124019]]]}},{"type":"Feature","properties":{"pid":"c269a580-90fa-4de8-a375-a8a509de2d01"},"geometry":{"type":"Polygon","coordinates":[[[136.12565636509441,36.04230657538289],[136.12496768387243,36.04200410088289],[136.12489071481576,36.04211786560801],[136.12559904256904,36.04243395256721],[136.12565636509441,36.04230657538289]]]}},{"type":"Feature","properties":{"pid":"e8c2742e-7df0-40ef-a187-f70a9434e6ad"},"geometry":{"type":"Polygon","coordinates":[[[136.13303907289446,36.04776736270016],[136.13328675489583,36.04769802342313],[136.13329898151318,36.047695856661896],[136.13314078562948,36.04756960582169],[136.13301472590842,36.047615449085754],[136.13303907289446,36.04776736270016]]]}},{"type":"Feature","properties":{"pid":"2a653799-75ef-4355-9425-60888bd92de5"},"geometry":{"type":"Polygon","coordinates":[[[136.13325566165506,36.04747248084954],[136.1334060672978,36.047585800653344],[136.13348395261235,36.0473950023457],[136.13342592420014,36.0473813371112],[136.13335439657348,36.04743123882546],[136.13325566165506,36.04747248084954]]]}},{"type":"Feature","properties":{"pid":"f9a950f8-23ee-47fb-8902-4451f616ba80"},"geometry":{"type":"Polygon","coordinates":[[[136.14485606313104,36.04153616802906],[136.1448958000531,36.04153143041415],[136.1449262371162,36.04154679487262],[136.14572531649378,36.04112538218433],[136.1450420060335,36.040298788076846],[136.14424164789844,36.04074364887524],[136.144237328459,36.04077824696791],[136.14485606313104,36.04153616802906]]]}},{"type":"Feature","properties":{"pid":"c5c3a895-4cbe-426d-860a-cb75b1faf6f4"},"geometry":{"type":"Polygon","coordinates":[[[136.14732910253696,36.04152888192371],[136.14757944116923,36.040307593409544],[136.14731680279237,36.040274144065876],[136.14684757334564,36.041477435611334],[136.14732910253696,36.04152888192371]]]}},{"type":"Feature","properties":{"pid":"b779a40c-46d5-4df5-9faa-105cfd8ea63d"},"geometry":{"type":"Polygon","coordinates":[[[136.1479591831283,36.04162120865022],[136.14799198201064,36.041599881957374],[136.1482285433051,36.04042335810717],[136.14804520945222,36.04030824365304],[136.14797785031394,36.040298860259185],[136.14778953291915,36.04031643926988],[136.14774006303156,36.0403350787798],[136.14749954829372,36.04156065729663],[136.1479591831283,36.04162120865022]]]}},{"type":"Feature","properties":{"pid":"9da1d884-5841-4743-b210-92fffb328c7a"},"geometry":{"type":"Polygon","coordinates":[[[136.1481517937841,36.041643735375004],[136.1485392045516,36.041685198330946],[136.14850718965107,36.041525798166056],[136.14848478234651,36.04148968622751],[136.14849412469735,36.04143038680684],[136.14852441184365,36.04140595437895],[136.14855693740876,36.041261185472976],[136.14851255348407,36.041243685858575],[136.14849719702514,36.04121171975567],[136.14853161572162,36.04097203671476],[136.14857795071623,36.04093691867581],[136.1483956182314,36.040567387261675],[136.14835072314756,36.04056350156742],[136.1481517937841,36.041643735375004]]]}},{"type":"Feature","properties":{"pid":"ad8bf15d-1958-4da9-bfda-9426025420a5"},"geometry":{"type":"Polygon","coordinates":[[[136.147464504749,36.04168400249391],[136.14735902341675,36.04226915125159],[136.14785324072002,36.04232405710322],[136.14795879286837,36.04176328886302],[136.1479431950411,36.04174790176941],[136.147464504749,36.04168400249391]]]}},{"type":"Feature","properties":{"pid":"6f66774d-51f0-4615-a6d3-1d5df5745438"},"geometry":{"type":"Polygon","coordinates":[[[136.14699673000098,36.04162441530467],[136.1467863737335,36.04160477422953],[136.14665712840136,36.04191984039309],[136.14664171803213,36.04224006722519],[136.14669279696145,36.04252947144828],[136.14694161923126,36.04299757024356],[136.14703447583858,36.04300224403473],[136.14728563224435,36.04171695818448],[136.14727012109643,36.04170094942997],[136.1470291291791,36.04167716433969],[136.14700175321644,36.04165649489671],[136.14699673000098,36.04162441530467]]]}},{"type":"Feature","properties":{"pid":"1e7ffb81-688b-4b9d-a814-c59c88de4b4e"},"geometry":{"type":"Polygon","coordinates":[[[136.14729520886976,36.04256823895852],[136.14730725172186,36.04258437211616],[136.14779389945798,36.04262816643483],[136.14783402319526,36.04241696861688],[136.14733821823694,36.04236113781743],[136.14729520886976,36.04256823895852]]]}},{"type":"Feature","properties":{"pid":"0f8f1519-09b7-4ebc-a49e-a51f6cbd1a9a"},"geometry":{"type":"Polygon","coordinates":[[[136.148498746445,36.042257943193846],[136.14801731346913,36.042193914471945],[136.14785662614028,36.04304020793147],[136.1483284593669,36.04306059178196],[136.148498746445,36.042257943193846]]]}},{"type":"Feature","properties":{"pid":"7e9718ed-f51c-420d-af0b-64e32531faff"},"geometry":{"type":"Polygon","coordinates":[[[136.1485821607866,36.04183288209342],[136.14811025465423,36.041763257281076],[136.14804167200342,36.04210024068418],[136.1485235455549,36.04216456922455],[136.1485821607866,36.04183288209342]]]}},{"type":"Feature","properties":{"pid":"d557a5d5-c8b1-4589-8403-8a9757e179cb"},"geometry":{"type":"Polygon","coordinates":[[[136.14860806437738,36.042525111969816],[136.1488837456946,36.04256284866071],[136.14898699859143,36.042056479218324],[136.14873093480904,36.04199163991566],[136.14860806437738,36.042525111969816]]]}},{"type":"Feature","properties":{"pid":"ee9607ae-1d42-4119-b266-e829827e86ae"},"geometry":{"type":"Polygon","coordinates":[[[136.1485039477552,36.04307741083274],[136.14904406495174,36.043114800369956],[136.14912312934297,36.0427430908215],[136.14858780472846,36.04266678527027],[136.1485039477552,36.04307741083274]]]}},{"type":"Feature","properties":{"pid":"8eefe3c0-e451-4db1-9357-be0668913973"},"geometry":{"type":"Polygon","coordinates":[[[136.1483064506675,36.04320485819804],[136.14823815899524,36.043200932716466],[136.14835697835295,36.04402864975516],[136.14841654120917,36.04403452886674],[136.1483064506675,36.04320485819804]]]}},{"type":"Feature","properties":{"pid":"964107b3-43fe-4687-b68e-fd17230022b9"},"geometry":{"type":"Polygon","coordinates":[[[136.14842658916496,36.0432156646488],[136.14853332064231,36.04401845649845],[136.1494189604179,36.04394294801046],[136.14932523648272,36.043268648420984],[136.14842658916496,36.0432156646488]]]}},{"type":"Feature","properties":{"pid":"1a9fa710-0669-4e66-829c-492af81cbb85"},"geometry":{"type":"Polygon","coordinates":[[[136.14838167685517,36.04419012683776],[136.14847732897195,36.04474769931394],[136.14887607112777,36.04473239972335],[136.14892856140892,36.044756155362734],[136.14953114759126,36.0447184417405],[136.14944209303277,36.04407960153816],[136.14838167685517,36.04419012683776]]]}},{"type":"Feature","properties":{"pid":"374bbcbd-c04a-4cae-86b7-1a45517206d9"},"geometry":{"type":"Polygon","coordinates":[[[136.1482854521293,36.04479891247522],[136.14822333221724,36.044386292781674],[136.14787923699797,36.04442651997411],[136.14799189999798,36.04480323634416],[136.1482854521293,36.04479891247522]]]}},{"type":"Feature","properties":{"pid":"3bc2816a-5c65-41ed-9194-c97ae8959dbe"},"geometry":{"type":"Polygon","coordinates":[[[136.14817774174114,36.04407262477925],[136.14813809247025,36.04381195919905],[136.14761328940824,36.04386185221376],[136.14777907388208,36.044111601796644],[136.14817774174114,36.04407262477925]]]}},{"type":"Feature","properties":{"pid":"2fb6011d-fdaa-4964-8665-11ec18ff7dbf"},"geometry":{"type":"Polygon","coordinates":[[[136.14820689133626,36.04428855698995],[136.14819239788164,36.04417181980018],[136.1478170890472,36.04420899946627],[136.14784945481887,36.044325444695694],[136.14820689133626,36.04428855698995]]]}},{"type":"Feature","properties":{"pid":"f9c9bc84-e457-4b8b-afbe-23e721ece7c2"},"geometry":{"type":"Polygon","coordinates":[[[136.1481275411351,36.04371692786064],[136.14810133346157,36.04353287770935],[136.1474205601956,36.043596408302434],[136.14754810779732,36.04377199512472],[136.1481275411351,36.04371692786064]]]}},{"type":"Feature","properties":{"pid":"3b56f955-6849-4e35-86e3-4ec523b0ab5f"},"geometry":{"type":"Polygon","coordinates":[[[136.14707076381265,36.04313135332295],[136.14735298054586,36.043508092496126],[136.14809089611248,36.043439573229264],[136.14805400346842,36.043189455082675],[136.14707076381265,36.04313135332295]]]}},{"type":"Feature","properties":{"pid":"5aa25982-68a4-4805-a33e-3c512df3ae9e"},"geometry":{"type":"Polygon","coordinates":[[[136.14726184470067,36.04269392229935],[136.14719775305193,36.04300504649782],[136.14770255978354,36.043038531557954],[136.14777108626487,36.04272240886794],[136.14729217805277,36.04267891561721],[136.14726184470067,36.04269392229935]]]}},{"type":"Feature","properties":{"pid":"dbd10485-9daf-4c8a-9202-32413797b0f8"},"geometry":{"type":"Polygon","coordinates":[[[136.1460024149607,36.04348154558525],[136.14566138061866,36.04341934977092],[136.14600667747285,36.04394384555161],[136.14645584879398,36.04379123639344],[136.14636801400388,36.04368747633212],[136.14626623605562,36.043601832647056],[136.1460024149607,36.04348154558525]]]}},{"type":"Feature","properties":{"pid":"f87dc337-db84-4906-b48a-13d0dd3c528d"},"geometry":{"type":"Polygon","coordinates":[[[136.14686085601048,36.044368276041226],[136.1465182540808,36.04387350314476],[136.14607159317595,36.044026531091134],[136.14640527171687,36.04452478033429],[136.14686085601048,36.044368276041226]]]}},{"type":"Feature","properties":{"pid":"78985ea5-9638-4b13-a04e-1443add6d551"},"geometry":{"type":"Polygon","coordinates":[[[136.1461059523547,36.04443724119635],[136.1459568676198,36.044212964092914],[136.14554923624988,36.044345646438344],[136.14568257808742,36.04457841495983],[136.1461059523547,36.04443724119635]]]}},{"type":"Feature","properties":{"pid":"385d9d7a-0d2e-40b4-a87d-d79d26dfc8a8"},"geometry":{"type":"Polygon","coordinates":[[[136.14590266174,36.04412863248224],[136.14576826463673,36.04392531089822],[136.1453952185458,36.04405502734762],[136.1454972428858,36.044259317305574],[136.14590266174,36.04412863248224]]]}},{"type":"Feature","properties":{"pid":"593e89df-9842-4606-bd65-54a7f8437602"},"geometry":{"type":"Polygon","coordinates":[[[136.1457215727484,36.043838958730625],[136.1455308711366,36.04357363808479],[136.14517710723493,36.04369266541177],[136.14529767843263,36.04385203579892],[136.1453519650561,36.04396791156538],[136.1457215727484,36.043838958730625]]]}},{"type":"Feature","properties":{"pid":"a38675c2-68d9-4104-adaa-2bab9d1a092f"},"geometry":{"type":"Polygon","coordinates":[[[136.14475445866864,36.04306664358206],[136.14508073864965,36.04289284671341],[136.14513288221957,36.04290213171273],[136.1452271849165,36.04300085230713],[136.14539597754123,36.04291388049606],[136.14499278748644,36.041993347030086],[136.14483424239202,36.04177566476087],[136.14405154108687,36.04219295766674],[136.14475445866864,36.04306664358206]]]}},{"type":"Feature","properties":{"pid":"716d7955-67f7-41b0-b2b1-bd9c91865ff5"},"geometry":{"type":"Polygon","coordinates":[[[136.14575154261766,36.04200414432229],[136.14582184460312,36.04181097706672],[136.14561401598127,36.041916459660335],[136.145643991846,36.042000584445276],[136.14575154261766,36.04200414432229]]]}},{"type":"Feature","properties":{"pid":"37a52a6a-9622-4863-82d8-cab4ad77f8fa"},"geometry":{"type":"Polygon","coordinates":[[[136.14498709790945,36.041693602310346],[136.14509053155473,36.0418254388055],[136.1451722429321,36.04196154941669],[136.14581666218314,36.04162731760509],[136.14592156436302,36.041374319894196],[136.14581788279656,36.04124657683734],[136.14498709790945,36.041693602310346]]]}},{"type":"Feature","properties":{"pid":"7f506c75-cbf5-4f99-aff6-7c56c9532ee6"},"geometry":{"type":"Polygon","coordinates":[[[136.14368380127385,36.04163644949015],[136.14395432205808,36.04207965730681],[136.14473511923964,36.041663491550366],[136.14440715844376,36.04125244703724],[136.14368380127385,36.04163644949015]]]}},{"type":"Feature","properties":{"pid":"d39c31ff-bcee-4961-9e91-035cc53cb26d"},"geometry":{"type":"Polygon","coordinates":[[[136.1434476886854,36.04126022717174],[136.14362007206242,36.04155387831839],[136.14434638799312,36.04116652704647],[136.14412702898656,36.04089692639349],[136.1434476886854,36.04126022717174]]]}},{"type":"Feature","properties":{"pid":"c02629b9-f0bc-473b-b490-ad93037c3e45"},"geometry":{"type":"Polygon","coordinates":[[[136.1429319701788,36.04097105758035],[136.14287992514824,36.04088519398456],[136.1425392316628,36.04104808211128],[136.1425613318379,36.041080526219474],[136.14255824305786,36.04111089911729],[136.1424688710599,36.04116461912029],[136.14271768367902,36.041512880699116],[136.14278281168802,36.04152688629728],[136.1428642395346,36.04165196122338],[136.14303900273822,36.04185027533571],[136.14334092688694,36.04169651780755],[136.14332689676084,36.04166522903011],[136.14333746692392,36.04163796326023],[136.1431487243378,36.041317839434],[136.14310852783964,36.041281960114794],[136.14310757444127,36.04124540798409],[136.14304722406126,36.04114959343104],[136.14300686984495,36.0411135434359],[136.14300439108285,36.041080005177676],[136.14298489041002,36.041050077822895],[136.14293969131805,36.04102486425751],[136.1429319701788,36.04097105758035]]]}},{"type":"Feature","properties":{"pid":"8e288e74-129b-4668-bab4-3724d1a7a67a"},"geometry":{"type":"Polygon","coordinates":[[[136.14374627222466,36.04241249085344],[136.14383306179437,36.04236142655854],[136.1438036675252,36.04231936178205],[136.1436988101087,36.042374334795916],[136.14374627222466,36.04241249085344]]]}},{"type":"Feature","properties":{"pid":"8c71825b-ed92-4b59-8606-1325eae89a13"},"geometry":{"type":"Polygon","coordinates":[[[136.1436984801921,36.04220274217784],[136.14363282187765,36.042091876851806],[136.1432162684202,36.04231141006512],[136.1432431007583,36.04234765330357],[136.14341590584615,36.04226350068274],[136.14344973844553,36.042275741345975],[136.14349495511888,36.04232603005873],[136.1436984801921,36.04220274217784]]]}},{"type":"Feature","properties":{"pid":"31e050d6-60e2-4e3a-b02c-9ceea5edb516"},"geometry":{"type":"Polygon","coordinates":[[[136.14448625072762,36.04798973675059],[136.14454131865728,36.04799013170962],[136.14454384280845,36.047825770621756],[136.14449215383874,36.04784026119903],[136.14448625072762,36.04798973675059]]]}},{"type":"Feature","properties":{"pid":"cf74bae0-aecb-4660-aaa2-f46590fc47d7"},"geometry":{"type":"Polygon","coordinates":[[[136.1450471809167,36.047612387321884],[136.1455644869189,36.04761799651859],[136.14556810257793,36.04741302997207],[136.1450566850716,36.047405127584724],[136.1450471809167,36.047612387321884]]]}},{"type":"Feature","properties":{"pid":"1306d9f0-1de3-4700-9f38-918448399849"},"geometry":{"type":"Polygon","coordinates":[[[136.145758992404,36.047635535143186],[136.14598601793998,36.047641217591114],[136.1460081461765,36.04680950586967],[136.145791133905,36.04680605968566],[136.145758992404,36.047635535143186]]]}},{"type":"Feature","properties":{"pid":"d2254a27-351b-4e58-ae24-a5ad58752e9f"},"geometry":{"type":"Polygon","coordinates":[[[136.14610405793476,36.04763222058002],[136.14631606454313,36.047644029498024],[136.14633575813016,36.046826256134416],[136.1461243777931,36.04682144287191],[136.14610405793476,36.04763222058002]]]}},{"type":"Feature","properties":{"pid":"83c01e03-5636-40af-8e89-ea4d1d0518db"},"geometry":{"type":"Polygon","coordinates":[[[136.14500632870613,36.04730747335852],[136.14557275290076,36.04731720692625],[136.14559002678354,36.046820102151315],[136.1455713985936,36.04680293926412],[136.14543921840118,36.046804881662425],[136.14500632870613,36.04730747335852]]]}},{"type":"Feature","properties":{"pid":"a5f8385a-a090-4635-964b-2b4e542e98bf"},"geometry":{"type":"Polygon","coordinates":[[[136.14575795497032,36.044768375453515],[136.14623278383314,36.04461000355176],[136.14617647344392,36.04452089143338],[136.1457212080917,36.04467631397671],[136.14573545636455,36.04473923878499],[136.14575795497032,36.044768375453515]]]}},{"type":"Feature","properties":{"pid":"53d3caac-cb93-42b3-84bb-96e89cd65ae7"},"geometry":{"type":"Polygon","coordinates":[[[136.14588072775808,36.04483101583693],[136.14600445843135,36.04483838947557],[136.14628542640853,36.04490335528866],[136.14643426863975,36.04491240340992],[136.14628961538176,36.04469361581688],[136.14588072775808,36.04483101583693]]]}},{"type":"Feature","properties":{"pid":"2401faa6-f5a0-46b1-b688-4875a4194248"},"geometry":{"type":"Polygon","coordinates":[[[136.1470137769428,36.04489833646224],[136.14701949764734,36.04474804852034],[136.14698355199639,36.044689465743794],[136.1469507108475,36.044506595701016],[136.14691479281223,36.044452795533005],[136.14646391656123,36.04460812059367],[136.14667707742527,36.044931898964975],[136.1470137769428,36.04489833646224]]]}},{"type":"Feature","properties":{"pid":"b876ccb1-bfb9-4b48-85e0-ac89c3bdcc86"},"geometry":{"type":"Polygon","coordinates":[[[136.14590866238515,36.04569826520184],[136.1468714499685,36.04572963786406],[136.14688331402536,36.04527980380672],[136.1463864795792,36.04526722142663],[136.146021190082,36.04521659544211],[136.14590866238515,36.04569826520184]]]}},{"type":"Feature","properties":{"pid":"4325bff3-10d7-438d-8d34-38969d237863"},"geometry":{"type":"Polygon","coordinates":[[[136.14579771502162,36.04616964781089],[136.14578994434513,36.046669462397986],[136.14601701369602,36.046673720813395],[136.14604073987059,36.045865784813124],[136.14589473378317,36.04586050226685],[136.14588328711628,36.04589452698026],[136.14595616143876,36.045901190093105],[136.14598605497247,36.04593066890815],[136.14596767953162,36.04616941995533],[136.14592228134853,36.04618850743633],[136.14579771502162,36.04616964781089]]]}},{"type":"Feature","properties":{"pid":"e2cb1e87-1323-4007-acf5-b5b068c24481"},"geometry":{"type":"Polygon","coordinates":[[[136.14637325846417,36.04586826958235],[136.1461590670232,36.04586630446983],[136.146135327208,36.04667522375824],[136.14634863401676,36.04667685709677],[136.14637325846417,36.04586826958235]]]}},{"type":"Feature","properties":{"pid":"e4b23fe7-79f7-422f-8ebd-c7c68a26b1fb"},"geometry":{"type":"Polygon","coordinates":[[[136.14705834612954,36.04588443632573],[136.14649266995653,36.0458714339343],[136.1464647059575,36.046677247183],[136.1470294311407,36.04669191564777],[136.14705834612954,36.04588443632573]]]}},{"type":"Feature","properties":{"pid":"64cf57b7-cc9e-4fa7-84f8-5552c0baee6a"},"geometry":{"type":"Polygon","coordinates":[[[136.14730058342715,36.04589056081608],[136.14717680494851,36.045888458029076],[136.14714729986534,36.046694226445524],[136.14733208574592,36.04669775571745],[136.14733370791978,36.04630258479659],[136.14730058342715,36.04589056081608]]]}},{"type":"Feature","properties":{"pid":"3897cef7-7a01-40df-a4dd-44072f6a787f"},"geometry":{"type":"Polygon","coordinates":[[[136.1470228232555,36.04529684404204],[136.1470122266667,36.045734224359336],[136.14728591766908,36.045739569227365],[136.14725021096973,36.04556419169772],[136.14720951364177,36.04555675371058],[136.1471858355675,36.045529002947546],[136.14719575483244,36.04537860332114],[136.1470228232555,36.04529684404204]]]}},{"type":"Feature","properties":{"pid":"ef865908-6e38-4574-bd86-6bbec8f2c551"},"geometry":{"type":"Polygon","coordinates":[[[136.14837363781803,36.045409319730894],[136.1483254431003,36.045137840022626],[136.1481092043991,36.045171060381215],[136.148186059633,36.045427476995],[136.14837363781803,36.045409319730894]]]}},{"type":"Feature","properties":{"pid":"5a2d1543-5c4e-4569-b5e7-12a44d694fde"},"geometry":{"type":"Polygon","coordinates":[[[136.14917681190087,36.045683998070636],[136.14909156444295,36.04504455591366],[136.14899308201194,36.04505432091748],[136.14889117914703,36.04511973162867],[136.14853395612363,36.04515605421468],[136.14861864946835,36.045728309727686],[136.14917681190087,36.045683998070636]]]}},{"type":"Feature","properties":{"pid":"5e30647c-0bea-4977-81bd-af956acd17ca"},"geometry":{"type":"Polygon","coordinates":[[[136.14841572381073,36.04567527999741],[136.14839360971305,36.04550564980948],[136.14821122465125,36.04552195291149],[136.14825949778108,36.0456872381199],[136.14841572381073,36.04567527999741]]]}},{"type":"Feature","properties":{"pid":"4ef018bf-e30f-4798-acd1-cd97055ca25f"},"geometry":{"type":"Polygon","coordinates":[[[136.14843944009178,36.04585739234948],[136.14842656631333,36.04577273705499],[136.14828335513963,36.04578228190664],[136.1483023014772,36.04587168234839],[136.14843944009178,36.04585739234948]]]}},{"type":"Feature","properties":{"pid":"e0d6dfa8-7996-4bc3-aefc-8dff54ee9fed"},"geometry":{"type":"Polygon","coordinates":[[[136.14854813416167,36.0465482670897],[136.14844855301985,36.0459678908],[136.14832931030742,36.04597743499285],[136.14837295457798,36.04620336086987],[136.14838425866114,36.046559902217474],[136.14854813416167,36.0465482670897]]]}},{"type":"Feature","properties":{"pid":"ed710e2b-dd15-44b1-919e-9354093dc5e2"},"geometry":{"type":"Polygon","coordinates":[[[136.14924570786243,36.046718114667115],[136.14942044701678,36.046629387605016],[136.14930226076535,36.045819232441396],[136.1491240967114,36.04584025265129],[136.14924570786243,36.046718114667115]]]}},{"type":"Feature","properties":{"pid":"11786413-a60c-4481-b9ea-653d8f323ece"},"geometry":{"type":"Polygon","coordinates":[[[136.14862300126404,36.04587436304627],[136.14878872656226,36.046970768177424],[136.14912151525795,36.046758006106124],[136.148991247778,36.0458446915243],[136.14862300126404,36.04587436304627]]]}},{"type":"Feature","properties":{"pid":"05507bdd-a080-4d32-8a24-56bf659e33a5"},"geometry":{"type":"Polygon","coordinates":[[[136.14861510112317,36.047085420156186],[136.14859843069834,36.046868579407516],[136.14838490808467,36.04688960533291],[136.1483879957065,36.04721128218471],[136.14861510112317,36.047085420156186]]]}},{"type":"Feature","properties":{"pid":"ae482c47-50cf-4878-8ecd-5f3da11efd3a"},"geometry":{"type":"Polygon","coordinates":[[[136.14857771228247,36.046768573378884],[136.1485655160271,36.04664709148924],[136.1483863125083,36.04665789817953],[136.14838254986168,36.046785455063315],[136.14857771228247,36.046768573378884]]]}},{"type":"Feature","properties":{"pid":"e55addf0-b013-4ae7-a190-6f4a16c6d75e"},"geometry":{"type":"Polygon","coordinates":[[[136.14643611561445,36.04763026547447],[136.1464513256948,36.047645502508715],[136.14733525233223,36.04765961974466],[136.14733177653915,36.047505051766734],[136.14736223983428,36.04746824032759],[136.14733723033626,36.047239936572865],[136.1473330172806,36.04684100678724],[136.14645507169283,36.046829898776274],[136.14643611561445,36.04763026547447]]]}},{"type":"Feature","properties":{"pid":"04fbf8c9-7de8-41d4-8c10-d4b8868405c4"},"geometry":{"type":"Polygon","coordinates":[[[136.14894488708927,36.04965570656754],[136.14877668762995,36.049463062270036],[136.1487669256416,36.049653535905925],[136.14894488708927,36.04965570656754]]]}},{"type":"Feature","properties":{"pid":"9b6b53e1-9d42-4e43-9d23-81e02199c564"},"geometry":{"type":"Polygon","coordinates":[[[136.14816011811354,36.048831085881616],[136.14771721530397,36.04882681076615],[136.14769373186354,36.049631300171605],[136.14858026039806,36.049650728523694],[136.14858794919434,36.049283127372576],[136.1485706607346,36.0492448513943],[136.14827351300272,36.04889794812119],[136.14816011811354,36.048831085881616]]]}},{"type":"Feature","properties":{"pid":"7a092b9c-8b41-4a9a-929d-d7c43771b2bd"},"geometry":{"type":"Polygon","coordinates":[[[136.1475954259018,36.04881742810157],[136.14739280611627,36.048813230899505],[136.14736952997973,36.04962960647081],[136.14757213703783,36.049632692144534],[136.1475954259018,36.04881742810157]]]}},{"type":"Feature","properties":{"pid":"4ed0889b-3922-43a2-becc-ad9905b6d23b"},"geometry":{"type":"Polygon","coordinates":[[[136.14727325319944,36.04881134114662],[136.14672483422095,36.04880337440022],[136.14669199071318,36.0496106254817],[136.14724900789386,36.04962737144531],[136.14727325319944,36.04881134114662]]]}},{"type":"Feature","properties":{"pid":"dbf28c8a-3646-4390-a8a2-e1b4cc7051bb"},"geometry":{"type":"Polygon","coordinates":[[[136.1474263507972,36.047832026995906],[136.14739577760398,36.04780572266621],[136.14706750523976,36.04780079685451],[136.14703955534048,36.04861923713105],[136.1473976739327,36.048621818539196],[136.1474263507972,36.047832026995906]]]}},{"type":"Feature","properties":{"pid":"7efe1012-2f27-4a4e-9f1e-e537327931eb"},"geometry":{"type":"Polygon","coordinates":[[[136.1469480786551,36.04779696033968],[136.1467873560081,36.047794474899405],[136.14675931002833,36.04861071126197],[136.14692323067626,36.04861574205752],[136.1469480786551,36.04779696033968]]]}},{"type":"Feature","properties":{"pid":"718de8a0-0798-4c9e-b88b-3c93cbb3f774"},"geometry":{"type":"Polygon","coordinates":[[[136.1466699678199,36.04780487037973],[136.14664804770177,36.0477910039207],[136.1464422484112,36.04778690054433],[136.14641410570644,36.0486058876419],[136.14664243080054,36.048607579811474],[136.1466699678199,36.04780487037973]]]}},{"type":"Feature","properties":{"pid":"ca97aff7-209a-457e-a3d6-c8a8d579472b"},"geometry":{"type":"Polygon","coordinates":[[[136.14575180944362,36.047773502902615],[136.1457342586876,36.04858837673398],[136.14629785691514,36.048604077132026],[136.14632688548497,36.04779858345144],[136.14630668969886,36.04778447003846],[136.14575180944362,36.047773502902615]]]}},{"type":"Feature","properties":{"pid":"aee4ac4a-6fc2-49ee-815c-b3f6366e57f9"},"geometry":{"type":"Polygon","coordinates":[[[136.14532422212113,36.04857984153339],[136.1455400314456,36.0485814260402],[136.14556808806697,36.04776667932185],[136.14534443854868,36.04775947182865],[136.14532422212113,36.04857984153339]]]}},{"type":"Feature","properties":{"pid":"615bae6f-0929-44a2-b809-2c8d0d9786aa"},"geometry":{"type":"Polygon","coordinates":[[[136.14464871744678,36.048557762693406],[136.1452097597315,36.04857321261628],[136.14522872655525,36.04777685467169],[136.14520295907283,36.04775450542703],[136.14466443121626,36.04774781451869],[136.14464871744678,36.048557762693406]]]}},{"type":"Feature","properties":{"pid":"5792f54c-08f5-4718-8129-6f73b9842a4a"},"geometry":{"type":"Polygon","coordinates":[[[136.14390104831537,36.048547524123805],[136.14453193979546,36.04855270845034],[136.14453830790683,36.04809251673925],[136.14423728092038,36.048088434317926],[136.14390707712118,36.0483700727393],[136.14390104831537,36.048547524123805]]]}},{"type":"Feature","properties":{"pid":"e54320a2-a1df-4aef-a49a-5225b2048244"},"geometry":{"type":"Polygon","coordinates":[[[136.14553162841588,36.04877375799797],[136.1453147833056,36.04877627282121],[136.14528397032672,36.049581402409245],[136.1455028279291,36.04958988957072],[136.14553162841588,36.04877375799797]]]}},{"type":"Feature","properties":{"pid":"fbd9235f-94e3-45d5-b5e0-c7c27b444eec"},"geometry":{"type":"Polygon","coordinates":[[[136.14517911261802,36.04877172094222],[136.14463777474566,36.04876702772164],[136.14462420851717,36.049569280826546],[136.1451655397383,36.04958346491269],[136.1451930615976,36.048784253260344],[136.14517911261802,36.04877172094222]]]}},{"type":"Feature","properties":{"pid":"750c1495-4260-4c3e-84d3-28bb4cb54aa5"},"geometry":{"type":"Polygon","coordinates":[[[136.14450400535358,36.048763396590985],[136.1443291756255,36.04876017599296],[136.14430274573914,36.04956354965648],[136.14450469544778,36.049567400900976],[136.14451846342914,36.04877588562966],[136.14450400535358,36.048763396590985]]]}},{"type":"Feature","properties":{"pid":"e301b800-4b4e-46af-a054-34cb9c5613b4"},"geometry":{"type":"Polygon","coordinates":[[[136.14570206546924,36.04959387873961],[136.1465693286144,36.049609310090446],[136.14660328803933,36.04880585022779],[136.14573329418192,36.04878908757465],[136.14570206546924,36.04959387873961]]]}},{"type":"Feature","properties":{"pid":"cbff4638-602f-4f3e-b614-f1864848de17"},"geometry":{"type":"Polygon","coordinates":[[[136.14657344278046,36.04975358550742],[136.14602436523293,36.04974414728109],[136.14600397288584,36.05056478838836],[136.14655098628018,36.0505708738203],[136.14657344278046,36.04975358550742]]]}},{"type":"Feature","properties":{"pid":"0f27bb90-ad30-4a65-875e-92af08721ac7"},"geometry":{"type":"Polygon","coordinates":[[[136.1456784947973,36.05055757464556],[136.14587896650406,36.05056247149492],[136.14590614672454,36.04974152350411],[136.1457079228859,36.04973623340318],[136.1456784947973,36.05055757464556]]]}},{"type":"Feature","properties":{"pid":"0760fc21-7986-4ed9-a44b-856a327932b6"},"geometry":{"type":"Polygon","coordinates":[[[136.14493481020557,36.05052688985768],[136.14494986383693,36.05053785249403],[136.14547783009144,36.05054506470251],[136.14550411690882,36.049737977689716],[136.1449588620006,36.04972883128239],[136.14493481020557,36.05052688985768]]]}},{"type":"Feature","properties":{"pid":"913d2f02-ea5c-4a8d-9c23-39c3f2a7e5ca"},"geometry":{"type":"Polygon","coordinates":[[[136.14458732275392,36.05050787626411],[136.14462796758593,36.05053596318311],[136.14480947105818,36.05053579549951],[136.14483661723523,36.04972345715536],[136.14461497376516,36.04972036609375],[136.14458732275392,36.05050787626411]]]}},{"type":"Feature","properties":{"pid":"84d0ef6f-0413-4dff-9b48-568f7412c504"},"geometry":{"type":"Polygon","coordinates":[[[136.14542257419257,36.05145636973783],[136.1454591591037,36.05068120769805],[136.14406546375352,36.050658768861055],[136.1440531025038,36.05085502805509],[136.144362327546,36.050912940441336],[136.14449025015668,36.0509843061981],[136.14460739589498,36.05112810137103],[136.1446654784655,36.0511560111659],[136.1446910788868,36.05115514887255],[136.14476868232643,36.05110184791942],[136.14486114142522,36.051099901964136],[136.14498678379803,36.05112963971214],[136.14532368322512,36.05135526615714],[136.14542257419257,36.05145636973783]]]}},{"type":"Feature","properties":{"pid":"15728343-a715-4b89-9448-54542b246d1a"},"geometry":{"type":"Polygon","coordinates":[[[136.14651018104487,36.05072837667013],[136.14566103546125,36.050709594798356],[136.14564156346518,36.05151896401386],[136.14651858991022,36.05154192034936],[136.1465466140332,36.05075479263842],[136.14651018104487,36.05072837667013]]]}},{"type":"Feature","properties":{"pid":"c0a343b4-7de1-4804-b609-65be1174a599"},"geometry":{"type":"Polygon","coordinates":[[[136.14786067004468,36.05075296124399],[136.14766520484244,36.05074559233111],[136.1476400348081,36.0515615827104],[136.14785253558017,36.051566959402166],[136.14786067004468,36.05075296124399]]]}},{"type":"Feature","properties":{"pid":"72e359f3-9c9a-44d9-ba3e-0604d5ce6057"},"geometry":{"type":"Polygon","coordinates":[[[136.14699777009164,36.05073161046014],[136.1469745972435,36.05154645879706],[136.14751399327236,36.05155766893922],[136.14754243537766,36.05077788409852],[136.14750823422963,36.05074583970763],[136.14731860268498,36.05073978791506],[136.14729024340465,36.05076181325348],[136.14723932578428,36.05076541435489],[136.14718653999216,36.05073440468454],[136.14699777009164,36.05073161046014]]]}},{"type":"Feature","properties":{"pid":"eda4cbdf-17d3-4b83-a506-0c0809e9a27b"},"geometry":{"type":"Polygon","coordinates":[[[136.14685528219619,36.051548965326646],[136.1468740256916,36.05075153465624],[136.14685398327066,36.05073374367766],[136.1466712449963,36.0507289541081],[136.14664225420267,36.051546547401834],[136.14685528219619,36.051548965326646]]]}},{"type":"Feature","properties":{"pid":"f1351a5c-cc1c-490a-b439-d2d86364429a"},"geometry":{"type":"Polygon","coordinates":[[[136.14692782215565,36.04976746832729],[136.14668598252265,36.04975700098247],[136.1466720970552,36.050571104877854],[136.14689687706849,36.05057660566103],[136.14692782215565,36.04976746832729]]]}},{"type":"Feature","properties":{"pid":"a0ce01ff-e0a2-4fde-adda-1f7398988be2"},"geometry":{"type":"Polygon","coordinates":[[[136.147575379633,36.04977893610194],[136.1470471267252,36.04977071140367],[136.14701431476755,36.050577253365496],[136.14754468745784,36.05058697812064],[136.147575379633,36.04977893610194]]]}},{"type":"Feature","properties":{"pid":"f0ba228a-3a7a-44ad-9337-7b1c73f7f854"},"geometry":{"type":"Polygon","coordinates":[[[136.14832178562185,36.04979385594941],[136.14769372890706,36.049788953838],[136.14766608865474,36.050593441086356],[136.14829297273658,36.05061023746477],[136.14832178562185,36.04979385594941]]]}},{"type":"Feature","properties":{"pid":"fdeeb732-a4cb-4ca9-885c-361525a336b9"},"geometry":{"type":"Polygon","coordinates":[[[136.14845296851504,36.04979488003252],[136.14842310442248,36.05061372371652],[136.14856645527183,36.050617562490096],[136.14859090516882,36.049795956765195],[136.14845296851504,36.04979488003252]]]}},{"type":"Feature","properties":{"pid":"bd1f45fd-3c5e-4f91-86b0-460b233170db"},"geometry":{"type":"Polygon","coordinates":[[[136.14896564187623,36.04980199763809],[136.14875235086743,36.04979891919339],[136.14872613103122,36.05059609147101],[136.148797613192,36.050619600602026],[136.14893546757676,36.050622784321185],[136.14896564187623,36.04980199763809]]]}},{"type":"Feature","properties":{"pid":"05e5b97d-79c1-4b8c-9974-da19f8b642d1"},"geometry":{"type":"Polygon","coordinates":[[[136.14873072366217,36.05077563630472],[136.1487064950539,36.05158231786172],[136.1495585415968,36.05159807961357],[136.14958825346662,36.050806402088575],[136.1495685205032,36.05077924082036],[136.14873072366217,36.05077563630472]]]}},{"type":"Feature","properties":{"pid":"a9137f5c-8aed-4fb3-8efa-f94f2fa6865d"},"geometry":{"type":"Polygon","coordinates":[[[136.1482183061425,36.050760371099244],[136.1479820064393,36.05075523593855],[136.1479698932121,36.05156919305554],[136.1481928278502,36.051572527171416],[136.1482183061425,36.050760371099244]]]}},{"type":"Feature","properties":{"pid":"1d1d942f-f83a-40d8-9778-0c47f9746737"},"geometry":{"type":"Polygon","coordinates":[[[136.14854508158217,36.050768725020454],[136.14833512420748,36.05076309081166],[136.1483156713071,36.05157282661475],[136.14852393380178,36.051578254246834],[136.14854508158217,36.050768725020454]]]}},{"type":"Feature","properties":{"pid":"253ed281-8adc-4b54-adad-bdfd7ffed5c2"},"geometry":{"type":"Polygon","coordinates":[[[136.14867724194747,36.052541698590225],[136.1488976979062,36.052543860809664],[136.14892478669492,36.05173690377581],[136.14869813572685,36.05173293118635],[136.14867724194747,36.052541698590225]]]}},{"type":"Feature","properties":{"pid":"550690d4-91e0-4560-910c-8d632486eab0"},"geometry":{"type":"Polygon","coordinates":[[[136.1492491467048,36.05174390147694],[136.14904205438174,36.05173892755257],[136.14901504890463,36.05254723887672],[136.14922594418857,36.052551483172266],[136.1492491467048,36.05174390147694]]]}},{"type":"Feature","properties":{"pid":"312e2c38-8b71-4dfb-a7bb-a343aba04f18"},"geometry":{"type":"Polygon","coordinates":[[[136.14851813764307,36.051722368527194],[136.1476337127733,36.05171130629068],[136.14760816707306,36.05251660015614],[136.14849487739443,36.052530283325346],[136.14851813764307,36.051722368527194]]]}},{"type":"Feature","properties":{"pid":"b22da1b9-3c15-409f-ae71-ab7f2bb49a25"},"geometry":{"type":"Polygon","coordinates":[[[136.14747450772202,36.05250817225023],[136.14750289499815,36.05170730545044],[136.14731292604617,36.05170210759588],[136.14728397949318,36.052507230320316],[136.14747450772202,36.05250817225023]]]}},{"type":"Feature","properties":{"pid":"461a7fb0-fd0f-4369-9738-192410410f91"},"geometry":{"type":"Polygon","coordinates":[[[136.14719169732447,36.051700736770506],[136.14663928174465,36.05168483993378],[136.14661294322744,36.05249302558219],[136.14716840954384,36.05250257145999],[136.14719169732447,36.051700736770506]]]}},{"type":"Feature","properties":{"pid":"d5a81f94-745c-412d-913d-fc8075b587f1"},"geometry":{"type":"Polygon","coordinates":[[[136.14719735891111,36.05266557726027],[136.1470510625157,36.05266478326679],[136.14704306017413,36.05347207140064],[136.1471682974474,36.05346733634033],[136.14719735891111,36.05266557726027]]]}},{"type":"Feature","properties":{"pid":"4d9fca12-84c5-45b3-bb5c-9b360ef0128a"},"geometry":{"type":"Polygon","coordinates":[[[136.1472884779356,36.053345596218925],[136.14732537338176,36.05331389478439],[136.1474477972597,36.05329243023832],[136.14747652662928,36.05267356565226],[136.14731373293824,36.052668096776586],[136.1472884779356,36.053345596218925]]]}},{"type":"Feature","properties":{"pid":"751a70a4-ca9c-4808-92ed-e65a323cf8b2"},"geometry":{"type":"Polygon","coordinates":[[[136.14758901524803,36.05328423339287],[136.14807618258075,36.05330782844806],[136.148163766559,36.05329409779083],[136.14832436703864,36.05323833371049],[136.1484726756286,36.05321661756492],[136.14848639229533,36.05270402828631],[136.14761530017327,36.052675547894786],[136.14758901524803,36.05328423339287]]]}},{"type":"Feature","properties":{"pid":"f47cd88b-ee42-4c61-a738-352145f153c1"},"geometry":{"type":"Polygon","coordinates":[[[136.14867240618574,36.052694926173096],[136.14865429270134,36.05325118694833],[136.14880454869865,36.05332115117478],[136.14884619432854,36.05331829685139],[136.1488618146586,36.05269851790219],[136.14867240618574,36.052694926173096]]]}},{"type":"Feature","properties":{"pid":"f2b1007c-4b22-4d55-83fc-918ee3c8d0a0"},"geometry":{"type":"Polygon","coordinates":[[[136.14911640554362,36.05270295577386],[136.14899889387723,36.05270095734766],[136.14898388149095,36.053316272027],[136.14910639176938,36.05330504161974],[136.14911640554362,36.05270295577386]]]}},{"type":"Feature","properties":{"pid":"e5861271-2fb0-4438-b3b7-bf4e83b7f48f"},"geometry":{"type":"Polygon","coordinates":[[[136.14922280421945,36.0532677673302],[136.14927049112535,36.05321519534498],[136.14928469829195,36.05270899804723],[136.1492355983408,36.05270821251466],[136.14922280421945,36.0532677673302]]]}},{"type":"Feature","properties":{"pid":"d320cf63-bff7-40f2-9686-4704b036dffd"},"geometry":{"type":"Polygon","coordinates":[[[136.14910252826897,36.05348492561836],[136.14931466309494,36.05385713936111],[136.14939914728885,36.05386092857013],[136.14912142844398,36.05348498790655],[136.14910252826897,36.05348492561836]]]}},{"type":"Feature","properties":{"pid":"5a29092d-1087-47ab-a03a-887bb8666213"},"geometry":{"type":"Polygon","coordinates":[[[136.14897182398926,36.053490642678405],[136.1491436318399,36.05391692724751],[136.14919876482125,36.053884489315685],[136.14897182398926,36.053490642678405]]]}},{"type":"Feature","properties":{"pid":"4df843c0-79dc-4159-b590-f3b04967ad89"},"geometry":{"type":"Polygon","coordinates":[[[136.14692402183636,36.05340209974712],[136.14693215312147,36.05266947986435],[136.1465263892031,36.05266011874436],[136.14677773458527,36.05326522006403],[136.14692402183636,36.05340209974712]]]}},{"type":"Feature","properties":{"pid":"3a56c2fc-6b31-409a-8e92-6000ea899f34"},"geometry":{"type":"Polygon","coordinates":[[[136.14630483326928,36.05167627644238],[136.14627524806343,36.05240733182974],[136.1464057924652,36.05249441620389],[136.14648226564114,36.05249519749842],[136.14651323518606,36.05168391636919],[136.14630483326928,36.05167627644238]]]}},{"type":"Feature","properties":{"pid":"c75ff923-38be-4f10-9ce7-505b07c881b0"},"geometry":{"type":"Polygon","coordinates":[[[136.1461801880558,36.051671707388984],[136.1456286667983,36.051658875110924],[136.14593606102315,36.052181056475085],[136.14615707096345,36.052328492934215],[136.1461801880558,36.051671707388984]]]}},{"type":"Feature","properties":{"pid":"ceef3c8e-fc97-4f34-a0bb-acec4d3d1a77"},"geometry":{"type":"Polygon","coordinates":[[[136.14341857659193,36.051339425731925],[136.1433497278734,36.051434700389784],[136.14342438699862,36.05155871850252],[136.14362001460788,36.05143105471659],[136.14362383274272,36.05139156468867],[136.14341857659193,36.051339425731925]]]}},{"type":"Feature","properties":{"pid":"1b78734c-a1de-430b-8671-f23dbb2aa176"},"geometry":{"type":"Polygon","coordinates":[[[136.14356265481314,36.05102830457982],[136.14363429579726,36.05105694342585],[136.14369835064716,36.050946711324286],[136.1436241149409,36.05091957479746],[136.14356265481314,36.05102830457982]]]}},{"type":"Feature","properties":{"pid":"42590d42-a58f-4846-88f1-ffca232b9203"},"geometry":{"type":"Polygon","coordinates":[[[136.14324740335854,36.050735602201144],[136.1433266818272,36.05088386393741],[136.14345303499306,36.05099276605],[136.14353231626768,36.05085921827042],[136.14324740335854,36.050735602201144]]]}},{"type":"Feature","properties":{"pid":"c135859e-e03c-4c5e-93bc-9480fb0e0d17"},"geometry":{"type":"Polygon","coordinates":[[[136.14358202651923,36.05067420854612],[136.143582164403,36.050713636447895],[136.14392264799224,36.05085678311229],[136.14393053619725,36.0506783932235],[136.14391990222313,36.05067018659288],[136.14358202651923,36.05067420854612]]]}},{"type":"Feature","properties":{"pid":"c308f163-e10d-4d28-b189-2c8959e98e67"},"geometry":{"type":"Polygon","coordinates":[[[136.14449365537297,36.04971888404488],[136.1436218194567,36.04969923869517],[136.14359019644243,36.050510981731314],[136.14447054225178,36.050535829313894],[136.14449365537297,36.04971888404488]]]}},{"type":"Feature","properties":{"pid":"0422152a-f0c1-4a07-b231-03cf0a21040e"},"geometry":{"type":"Polygon","coordinates":[[[136.1432637670615,36.05050113497312],[136.14347373739264,36.05050836645396],[136.1435037059409,36.049698285399515],[136.1432951687565,36.04969176065785],[136.1432637670615,36.05050113497312]]]}},{"type":"Feature","properties":{"pid":"65e04516-c3a0-4ee7-be61-1780066aa5f9"},"geometry":{"type":"Polygon","coordinates":[[[136.14305208207801,36.04968415560278],[136.14266141994565,36.04967193281032],[136.14264358104697,36.05026141335042],[136.14303329793296,36.05030695000037],[136.14305208207801,36.04968415560278]]]}},{"type":"Feature","properties":{"pid":"76314fc7-e44b-4d30-af2a-ef66ff210a59"},"geometry":{"type":"Polygon","coordinates":[[[136.1423964753036,36.050087562331356],[136.14238136439545,36.0500837504931],[136.14230986885778,36.05027665920134],[136.14238085044053,36.05030500115206],[136.1423965834086,36.05029439285084],[136.1423964753036,36.050087562331356]]]}},{"type":"Feature","properties":{"pid":"746469ad-4e3e-4280-8301-1012d3a9aebc"},"geometry":{"type":"Polygon","coordinates":[[[136.14208420875104,36.05000971346358],[136.14203205923764,36.04999472575266],[136.14194841547652,36.050156011529715],[136.1420074902592,36.05017230446248],[136.14208420875104,36.05000971346358]]]}},{"type":"Feature","properties":{"pid":"717168c3-a3ed-455d-9fd5-3147af1566f8"},"geometry":{"type":"Polygon","coordinates":[[[136.1417556858775,36.050105546818266],[136.14183038952706,36.050124527452446],[136.1419122064374,36.04995454219722],[136.14184500365585,36.049934892985355],[136.1417556858775,36.050105546818266]]]}},{"type":"Feature","properties":{"pid":"a36fd860-dd31-4fcd-ac85-c89104e6ffa9"},"geometry":{"type":"Polygon","coordinates":[[[136.14162962129575,36.05010360357054],[136.1416607468217,36.05004822967567],[136.14173149403834,36.04989968259206],[136.141667100589,36.049878966013175],[136.14156011968058,36.05008150796725],[136.14162962129575,36.05010360357054]]]}},{"type":"Feature","properties":{"pid":"0cacd405-f2b6-42c8-ba63-9a60af568a78"},"geometry":{"type":"Polygon","coordinates":[[[136.14207096061173,36.04983823907222],[136.14212794082394,36.049857582202456],[136.14214141021498,36.049492821504124],[136.1420775113314,36.049490975569505],[136.14207096061173,36.04983823907222]]]}},{"type":"Feature","properties":{"pid":"e8281186-5711-4a3b-b90c-f1c2e9b987f6"},"geometry":{"type":"Polygon","coordinates":[[[136.14191956771216,36.0497940743504],[136.14194903968647,36.04980319402638],[136.1419574910793,36.0494872423311],[136.14192861440785,36.049485539494725],[136.14191956771216,36.0497940743504]]]}},{"type":"Feature","properties":{"pid":"8f2b3c04-6958-4df0-9326-e18b9b9382ab"},"geometry":{"type":"Polygon","coordinates":[[[136.14226020984552,36.04938320292684],[136.142292350335,36.04938473718196],[136.14231842726863,36.0488594987183],[136.14229020996729,36.048909638297005],[136.14226020984552,36.04938320292684]]]}},{"type":"Feature","properties":{"pid":"b6ef52ff-08d3-4695-ad7b-41467caec5c0"},"geometry":{"type":"Polygon","coordinates":[[[136.14224344436465,36.04989409903327],[136.1422876646578,36.0499063181356],[136.14230499092034,36.04950023274172],[136.1422575045794,36.04949693668625],[136.14224344436465,36.04989409903327]]]}},{"type":"Feature","properties":{"pid":"14719101-7a59-4ea3-9f4a-3bd352a2bc01"},"geometry":{"type":"Polygon","coordinates":[[[136.14401746801843,36.04874488548488],[136.14398813913093,36.048743804318576],[136.14396793635007,36.04955897070593],[136.1441812925862,36.04956055698626],[136.1442077804183,36.04875190043502],[136.1441638662087,36.048750281829],[136.14413215934326,36.04877745024837],[136.14407181802912,36.04878077640556],[136.14403581128468,36.048770060889936],[136.14401746801843,36.04874488548488]]]}},{"type":"Feature","properties":{"pid":"044a02a5-bb08-45ff-91ee-ed49544d89e9"},"geometry":{"type":"Polygon","coordinates":[[[136.1438494264191,36.04874230733046],[136.14363983831876,36.04873943217886],[136.1436198463773,36.04955937474016],[136.14385085097,36.049559191726004],[136.1438699491331,36.04875752565963],[136.1438494264191,36.04874230733046]]]}},{"type":"Feature","properties":{"pid":"91bd0b1b-1820-41fb-96b9-5be66332b7a7"},"geometry":{"type":"Polygon","coordinates":[[[136.1429447479028,36.04954563569306],[136.1434993017476,36.049558394287004],[136.14352106914123,36.048757637701286],[136.1434954427546,36.04873796773422],[136.1427526660855,36.048733454664955],[136.14263913703408,36.04877414104025],[136.14262601656472,36.049253729568775],[136.14290186904182,36.049258698017674],[136.14293531378163,36.04927224614054],[136.1429507548699,36.049304362125504],[136.1429447479028,36.04954563569306]]]}},{"type":"Feature","properties":{"pid":"8252bbe8-035f-45f4-a883-224111537aa0"},"geometry":{"type":"Polygon","coordinates":[[[136.1429219657197,36.048077142564225],[136.14302884118501,36.04836351612909],[136.14311396275536,36.04832411831198],[136.14354239949978,36.04833442763521],[136.14349355447115,36.048167790765305],[136.14346446894768,36.048139623827694],[136.14310823122057,36.04819135687096],[136.14307128739355,36.04817513940049],[136.14300724240442,36.04808658266806],[136.1429219657197,36.048077142564225]]]}},{"type":"Feature","properties":{"pid":"283645c2-655f-4271-8ff4-c9b2ccffb2a5"},"geometry":{"type":"Polygon","coordinates":[[[136.14309334413292,36.04855509422745],[136.14331214135927,36.04856095937235],[136.1433557929292,36.04855000115819],[136.14346190257118,36.04847113855026],[136.14346353522723,36.04844004860191],[136.14315027728873,36.048431214070774],[136.14309417956568,36.048460238189506],[136.14309334413292,36.04855509422745]]]}},{"type":"Feature","properties":{"pid":"60f327b4-1994-4a57-b1a5-15cea955c6eb"},"geometry":{"type":"Polygon","coordinates":[[[136.1421315113405,36.04918003472689],[136.1421539123119,36.04918134564262],[136.14216234984036,36.04891761843339],[136.14214779778334,36.04892272938741],[136.1421315113405,36.04918003472689]]]}},{"type":"Feature","properties":{"pid":"62efe259-05d8-4146-bda6-df8d9601eadd"},"geometry":{"type":"Polygon","coordinates":[[[136.14035625937925,36.04872829471471],[136.1405111576373,36.048790316077614],[136.14053422302072,36.048753227813265],[136.1404656207655,36.04872162579601],[136.14045866663588,36.048676275595895],[136.1403986015269,36.04865317237922],[136.14035625937925,36.04872829471471]]]}},{"type":"Feature","properties":{"pid":"143598b8-e8a2-4953-b13c-5f062feac5aa"},"geometry":{"type":"Polygon","coordinates":[[[136.14102645867567,36.04892913577675],[136.14094667064222,36.04889353787138],[136.14090587618372,36.048960456662876],[136.14098266270756,36.04899331906732],[136.14102645867567,36.04892913577675]]]}},{"type":"Feature","properties":{"pid":"e6e05852-c917-498d-9837-a914a2d2f189"},"geometry":{"type":"Polygon","coordinates":[[[136.14132702591857,36.04927178561198],[136.1412652879433,36.04924450059922],[136.14120655300025,36.04932900407426],[136.14126067980047,36.04935578645237],[136.14132702591857,36.04927178561198]]]}},{"type":"Feature","properties":{"pid":"48969f0b-a4eb-4dcc-956e-f1f0d21a2c17"},"geometry":{"type":"Polygon","coordinates":[[[136.1415434278163,36.04983627953937],[136.1414934026008,36.049817673451905],[136.14137965735986,36.05001335002343],[136.1414351326504,36.050031697638694],[136.1415434278163,36.04983627953937]]]}},{"type":"Feature","properties":{"pid":"b2d61719-2bd8-4899-ae22-c7ef36d3fd0d"},"geometry":{"type":"Polygon","coordinates":[[[136.141047206297,36.049319627630545],[136.14077477538046,36.04918392459852],[136.14071222249657,36.04929838233222],[136.14085530261426,36.04932059066023],[136.14100353493077,36.04938143044091],[136.141047206297,36.049319627630545]]]}},{"type":"Feature","properties":{"pid":"543c21cf-9395-49e7-bef7-a9887e3d6641"},"geometry":{"type":"Polygon","coordinates":[[[136.13411831182367,36.05091427365738],[136.13438074016656,36.05088423836124],[136.13434801402929,36.05080151960607],[136.1341373082533,36.050790657291714],[136.13411831182367,36.05091427365738]]]}},{"type":"Feature","properties":{"pid":"3320b350-7498-48e7-89e3-f52e89c8ef0f"},"geometry":{"type":"Polygon","coordinates":[[[136.1341581444026,36.05056067107784],[136.13414747388578,36.050695515855615],[136.13429869888864,36.050704158495435],[136.13424976603406,36.05060108512193],[136.1342302624852,36.05058154850433],[136.1341581444026,36.05056067107784]]]}},{"type":"Feature","properties":{"pid":"f28925e8-1a85-4538-a5ce-bc3bf82d69df"},"geometry":{"type":"Polygon","coordinates":[[[136.13420611572724,36.04995202443124],[136.13422314356674,36.04991440834084],[136.13436459472086,36.049754237995685],[136.13448636426014,36.0497032052731],[136.13454214078607,36.04965468842455],[136.13457628784644,36.04957333530075],[136.13466755679542,36.04949218245545],[136.1343566461738,36.049456312844654],[136.13426275750632,36.04947982076617],[136.13426903856606,36.04958147330812],[136.13420611572724,36.04995202443124]]]}},{"type":"Feature","properties":{"pid":"91049e14-0276-478a-9f82-ece9c097496a"},"geometry":{"type":"Polygon","coordinates":[[[136.13265728839593,36.04846515977703],[136.1336331900046,36.04846647332643],[136.13339436977623,36.048168937474216],[136.13336089785494,36.04815827411947],[136.13326702683867,36.04807875446458],[136.1332568886421,36.04802768367515],[136.1329467228995,36.048115823754955],[136.13290153536164,36.04810467551257],[136.13287085125825,36.0480604061909],[136.13252985158405,36.0482903054419],[136.13265728839593,36.04846515977703]]]}},{"type":"Feature","properties":{"pid":"44d61cc9-4698-45a1-a588-43363c5a20c4"},"geometry":{"type":"Polygon","coordinates":[[[136.1328200531328,36.049013287180415],[136.13286333960002,36.04903982630515],[136.1336543566712,36.04904756907532],[136.13366996055566,36.048743709171426],[136.13370722680963,36.04865981145657],[136.13365653797663,36.04859971386514],[136.1327683957088,36.04859640696576],[136.13281668102977,36.04870099662601],[136.1328200531328,36.049013287180415]]]}},{"type":"Feature","properties":{"pid":"25289420-7630-46c3-a521-123a82a457a6"},"geometry":{"type":"Polygon","coordinates":[[[136.13366340254703,36.049206989415495],[136.13278564318722,36.04919811051134],[136.1326751491277,36.04987645229096],[136.13271081389087,36.04993417974001],[136.13397700672576,36.049966705123516],[136.13399276448553,36.04994125216026],[136.13402821641415,36.049927969184054],[136.13405808048867,36.04954067297352],[136.1339112909586,36.04948240868078],[136.13378860142606,36.04938962445644],[136.13369070454402,36.04927748966343],[136.13366340254703,36.049206989415495]]]}},{"type":"Feature","properties":{"pid":"6f042cd0-575e-40f4-bc7b-987daa522fa7"},"geometry":{"type":"Polygon","coordinates":[[[136.13204584764782,36.04933174710165],[136.1321447681031,36.049256287124294],[136.13211028945875,36.04921441173621],[136.13206185277772,36.0492026000142],[136.1320188801343,36.04926386247759],[136.13204584764782,36.04933174710165]]]}},{"type":"Feature","properties":{"pid":"9c1e368a-7f5f-4ca3-babc-db14f22b56c0"},"geometry":{"type":"Polygon","coordinates":[[[136.1322555800305,36.049326145302494],[136.1320686896141,36.0494619011727],[136.13204766131716,36.04952228457323],[136.13220133778316,36.04957631369996],[136.1322555800305,36.049326145302494]]]}},{"type":"Feature","properties":{"pid":"d2b89885-2d82-42dc-83c9-836eef322d7e"},"geometry":{"type":"Polygon","coordinates":[[[136.13242706214155,36.04970325383647],[136.13250776840104,36.04933249402054],[136.1323822504394,36.049373427028584],[136.13232837824222,36.04963340541082],[136.13242706214155,36.04970325383647]]]}},{"type":"Feature","properties":{"pid":"779e590d-d69e-4387-aed5-103e8f45cb49"},"geometry":{"type":"Polygon","coordinates":[[[136.13274674537473,36.05082567632117],[136.13279444223534,36.050853409745606],[136.13390349729863,36.05086702132241],[136.13399228820873,36.050073980003255],[136.13275107047505,36.05005564581625],[136.13277065389124,36.0501521016756],[136.13274674537473,36.05082567632117]]]}},{"type":"Feature","properties":{"pid":"eaa01384-13e8-4a06-9927-343cc7702c7e"},"geometry":{"type":"Polygon","coordinates":[[[136.13270052715112,36.05098196695652],[136.13265536465042,36.05118947739656],[136.13257777612182,36.05135873512149],[136.13256275454523,36.05150720416307],[136.13250671810033,36.05161323902846],[136.13386236621096,36.05162441189933],[136.13388756706755,36.05100031882397],[136.13270052715112,36.05098196695652]]]}},{"type":"Feature","properties":{"pid":"3fad1402-d04e-4fc4-9f4f-204db6e74599"},"geometry":{"type":"Polygon","coordinates":[[[136.13383182780777,36.05231997343035],[136.13386616730193,36.05228229309551],[136.13386249583266,36.05173520565105],[136.13244236334106,36.051714887647606],[136.13230346661385,36.051925364006046],[136.1322456367816,36.05215181528206],[136.13222670303128,36.05230968527287],[136.13383182780777,36.05231997343035]]]}},{"type":"Feature","properties":{"pid":"aac3236c-41a4-4bd6-a78a-5225cf013f3d"},"geometry":{"type":"Polygon","coordinates":[[[136.13386595564555,36.052511899366955],[136.1321754240124,36.05249433801747],[136.13214152248224,36.05282582113611],[136.13207486754132,36.053035308371115],[136.13385596329482,36.053049813422625],[136.13386595564555,36.052511899366955]]]}},{"type":"Feature","properties":{"pid":"185078b8-ddaa-48f9-a19d-32e319fefd7b"},"geometry":{"type":"Polygon","coordinates":[[[136.1317265406561,36.05333597822041],[136.13166903266102,36.05331633499468],[136.13162585913696,36.05334626308857],[136.13111776939613,36.05348813058975],[136.1311085026615,36.05350323146965],[136.13115266356257,36.05364702172712],[136.13117180117442,36.05377615204785],[136.1310025910071,36.05395554124736],[136.13147836277773,36.05384829839738],[136.1317265406561,36.05333597822041]]]}},{"type":"Feature","properties":{"pid":"efc95770-71c9-4035-a53c-ffb9823dc51a"},"geometry":{"type":"Polygon","coordinates":[[[136.12910549507004,36.054694176100185],[136.12936394377581,36.05471827937177],[136.1300570140575,36.05474317453204],[136.130071289506,36.054499939363495],[136.12910549507004,36.054694176100185]]]}},{"type":"Feature","properties":{"pid":"faf73e55-ecd0-4a0f-aad9-0157a803382d"},"geometry":{"type":"Polygon","coordinates":[[[136.13139889503003,36.054789851741134],[136.13143152370802,36.0541855869289],[136.13020699561378,36.054491185940854],[136.13019644092358,36.054740508671834],[136.13139889503003,36.054789851741134]]]}},{"type":"Feature","properties":{"pid":"808aacc7-466c-47e9-ad88-a0301d88f95c"},"geometry":{"type":"Polygon","coordinates":[[[136.13242181782505,36.05422939095828],[136.13213824945018,36.05415545724566],[136.13194462276968,36.0541520140444],[136.1316319392196,36.05417908872542],[136.13158249903583,36.05480077289705],[136.1326819152455,36.05483134576569],[136.13269770063576,36.05434962482294],[136.13242181782505,36.05422939095828]]]}},{"type":"Feature","properties":{"pid":"066d68fe-7d52-4861-82b7-06474d230ada"},"geometry":{"type":"Polygon","coordinates":[[[136.13200510266836,36.05318903870851],[136.1317732370108,36.05378138377475],[136.13209371480752,36.053807777545195],[136.13243200908516,36.05388275762329],[136.13280220488394,36.05401804170474],[136.1329350685866,36.054082577959946],[136.13295370147694,36.05315496276467],[136.13204979094624,36.05314431036459],[136.1320358726487,36.053172750544],[136.13200510266836,36.05318903870851]]]}},{"type":"Feature","properties":{"pid":"b38ca961-dcd1-40de-9223-6d078ea03a28"},"geometry":{"type":"Polygon","coordinates":[[[136.13312529967806,36.054168674858985],[136.13381073481526,36.05452035498954],[136.13384139792285,36.05315262466232],[136.1331412753391,36.05315173166243],[136.13312529967806,36.054168674858985]]]}},{"type":"Feature","properties":{"pid":"b62fc869-336d-462f-a8cf-cb9e70146583"},"geometry":{"type":"Polygon","coordinates":[[[136.13316396352712,36.054640133587945],[136.13282408099133,36.05462880432188],[136.13281676788466,36.05485693371927],[136.13314290634605,36.05486530205832],[136.13316396352712,36.054640133587945]]]}},{"type":"Feature","properties":{"pid":"7311915b-581e-4640-80b1-cb0a6625d9b1"},"geometry":{"type":"Polygon","coordinates":[[[136.13467608113135,36.05424316661997],[136.13404849732137,36.05424386988786],[136.13402249905775,36.0546208510229],[136.13451607492436,36.05488432778855],[136.13502893369161,36.05521863714346],[136.13551323663168,36.05479019747989],[136.1354035996811,36.05476022843177],[136.13525066568522,36.05474982946659],[136.1351548901402,36.054705916561616],[136.13469872702422,36.05432837656106],[136.13467608113135,36.05424316661997]]]}},{"type":"Feature","properties":{"pid":"6dbc4436-43da-4ee2-9d81-3f80dbf00056"},"geometry":{"type":"Polygon","coordinates":[[[136.13602645084532,36.054677034536574],[136.1358970472552,36.0546117054215],[136.1357966006281,36.05471395253376],[136.13608491825693,36.05485224783171],[136.13602645084532,36.054677034536574]]]}},{"type":"Feature","properties":{"pid":"9588e8ea-9f2f-45d7-85fa-6667cd22d840"},"geometry":{"type":"Polygon","coordinates":[[[136.13407508335587,36.05262597950973],[136.1340408737035,36.05412683835861],[136.13463115673028,36.054130945589115],[136.13453915268872,36.05382778289585],[136.13457858451835,36.05327928822028],[136.13448885052804,36.052791927476775],[136.13440489886494,36.05274294717222],[136.134198991668,36.05267221826332],[136.13409622054,36.0526147707582],[136.13407508335587,36.05262597950973]]]}},{"type":"Feature","properties":{"pid":"1e01eaef-4671-47c2-bf0e-63c87d602c24"},"geometry":{"type":"Polygon","coordinates":[[[136.13688710573533,36.05636476495543],[136.13687800312422,36.05651982459294],[136.13691982577194,36.05656256338984],[136.13760212583628,36.05699321063457],[136.13851934274902,36.057532149063725],[136.13864475127127,36.057545722011405],[136.13866685541555,36.05757474077435],[136.13865708689175,36.057615282796014],[136.1387141147704,36.057653759547364],[136.1388908562528,36.057236711517405],[136.1389280339139,36.057112756315895],[136.1387887185958,36.05707534586506],[136.1385847814972,36.05699308266146],[136.13827337320126,36.05676521491129],[136.13736094564797,36.05658946049839],[136.1370446977465,36.0564627215985],[136.13688710573533,36.05636476495543]]]}},{"type":"Feature","properties":{"pid":"c2bf3e8a-bdd5-4c07-a139-72664d55bb9c"},"geometry":{"type":"Polygon","coordinates":[[[136.13513577063864,36.05602552041105],[136.1339579858635,36.055965575836005],[136.13390525227965,36.05683293746595],[136.13509137406564,36.0568650585703],[136.13514945544682,36.05604699296084],[136.13513577063864,36.05602552041105]]]}},{"type":"Feature","properties":{"pid":"f9683237-719e-497e-ab4a-5e1516e1b06c"},"geometry":{"type":"Polygon","coordinates":[[[136.1365689640528,36.05604747868569],[136.13653740228355,36.05595879536112],[136.13632196175203,36.05616519056019],[136.13662362214484,36.056380611005984],[136.13664984842345,36.056271872501],[136.13664484434602,36.05617199237106],[136.1365689640528,36.05604747868569]]]}},{"type":"Feature","properties":{"pid":"6b70de34-ba82-4e52-aa44-cc997b3191aa"},"geometry":{"type":"Polygon","coordinates":[[[136.13579368419755,36.05689949469333],[136.13584549757022,36.056875418768854],[136.13594107160904,36.056880074979794],[136.1359719447702,36.05689658660368],[136.13636095623335,36.056912003517425],[136.1363247060649,36.056601366047566],[136.13579097347008,36.0562119227491],[136.13557258009425,36.0560881527116],[136.13527628771504,36.05607712616011],[136.1352198943399,36.05687675238996],[136.13579368419755,36.05689949469333]]]}},{"type":"Feature","properties":{"pid":"978c6821-3e28-442a-b86e-49520060fe8a"},"geometry":{"type":"Polygon","coordinates":[[[136.13521130535767,36.055347068606615],[136.13621153299496,36.056093090183474],[136.13652289047224,36.05581760836676],[136.13657831066124,36.055698729844494],[136.1367072554236,36.05560919614174],[136.1367268603949,36.05552543496921],[136.1367099658811,36.055472773537325],[136.13642259141204,36.05527151059973],[136.1363037665469,36.0551193087878],[136.13568966568653,36.05485880335802],[136.13519153169844,36.05529518336716],[136.135211324827,36.05531727402021],[136.13521130535767,36.055347068606615]]]}},{"type":"Feature","properties":{"pid":"731379a1-5d92-4eed-88c2-dde40ca400bc"},"geometry":{"type":"Polygon","coordinates":[[[136.13446368709245,36.055234604577144],[136.13444339489288,36.05584295350582],[136.13535425189102,36.05588582772638],[136.13456401499596,36.055293848314456],[136.13446368709245,36.055234604577144]]]}},{"type":"Feature","properties":{"pid":"9286e23b-db91-4a9e-bed1-a38d6c4ed2bf"},"geometry":{"type":"Polygon","coordinates":[[[136.13397462147594,36.0558261789798],[136.13429114410457,36.0558458291106],[136.13432620919414,36.05515420479077],[136.13403805953283,36.054994697247594],[136.13397462147594,36.0558261789798]]]}},{"type":"Feature","properties":{"pid":"013de47f-da73-4b20-a7ce-86edf9524364"},"geometry":{"type":"Polygon","coordinates":[[[136.13382033372469,36.05503848676349],[136.13280762873467,36.05499872699216],[136.13275594235276,36.05581276861556],[136.13377702347736,36.055845705007236],[136.13382033372469,36.05503848676349]]]}},{"type":"Feature","properties":{"pid":"9b7d06ef-db6c-4968-9239-09dd3861c4fb"},"geometry":{"type":"Polygon","coordinates":[[[136.1334976529953,36.05679886483777],[136.1337064248546,36.056795568737776],[136.13375195706288,36.055992734592245],[136.13355062617148,36.055991636983336],[136.1334976529953,36.05679886483777]]]}},{"type":"Feature","properties":{"pid":"4a3ad5ee-78a3-44e1-b445-2332ec8aedd6"},"geometry":{"type":"Polygon","coordinates":[[[136.1330739582072,36.05597738914746],[136.13276109175607,36.05596511615095],[136.13270614958486,36.05676115933278],[136.13302617584665,36.05678053499447],[136.1330739582072,36.05597738914746]]]}},{"type":"Feature","properties":{"pid":"73357b31-f8ac-4bf7-8c29-1622c8c82374"},"geometry":{"type":"Polygon","coordinates":[[[136.1334211481316,36.05598744140561],[136.1332227372596,36.05597685620521],[136.13315446145623,36.05677348965246],[136.1331718161453,36.056781516846],[136.13336490186032,36.05678349479793],[136.13337239891843,36.05676691164045],[136.1334211481316,36.05598744140561]]]}},{"type":"Feature","properties":{"pid":"fc18a7fa-5e56-4a5b-bcde-fb6dc13d4efc"},"geometry":{"type":"Polygon","coordinates":[[[136.13215052025765,36.056743757292715],[136.1322404248554,36.056745279881646],[136.1323178672259,36.05672401047245],[136.13236232946514,36.056745685628734],[136.13252327398084,36.05675259293136],[136.13256556131182,36.0559537163485],[136.13222200789218,36.055937189643195],[136.13215052025765,36.056743757292715]]]}},{"type":"Feature","properties":{"pid":"5b89b3c9-ac4b-44ba-ab51-89db113030c3"},"geometry":{"type":"Polygon","coordinates":[[[136.1324838728193,36.05695775715264],[136.13147252606828,36.05690631357063],[136.13145799346182,36.05703199122178],[136.13148473578534,36.057051481783425],[136.1324641644156,36.057087338363594],[136.1324838728193,36.05695775715264]]]}},{"type":"Feature","properties":{"pid":"565738c2-a0ef-47bb-bc64-11fe7da98980"},"geometry":{"type":"Polygon","coordinates":[[[136.131828931453,36.056727181020555],[136.13202532868118,36.05673740285542],[136.13208297593405,36.0559426617993],[136.13189340426172,36.0559228828145],[136.131828931453,36.056727181020555]]]}},{"type":"Feature","properties":{"pid":"876c4cd4-57ff-4a0e-967e-e21ac92b8782"},"geometry":{"type":"Polygon","coordinates":[[[136.13150292267676,36.05591566429075],[136.13146570794072,36.05670485501987],[136.1317008766459,36.05671693721679],[136.1317554287987,36.0559283499685],[136.13150292267676,36.05591566429075]]]}},{"type":"Feature","properties":{"pid":"0f88e67e-4536-4efa-8f99-4c267dc508af"},"geometry":{"type":"Polygon","coordinates":[[[136.1326347616451,36.0549963550567],[136.13156272757018,36.05496450666905],[136.13151409050965,36.055763931190654],[136.1325858772157,36.05580555416298],[136.1326347616451,36.0549963550567]]]}},{"type":"Feature","properties":{"pid":"a0a63a0f-ee3f-459a-aaf9-55ad1a8ac116"},"geometry":{"type":"Polygon","coordinates":[[[136.1313346013397,36.05575887175572],[136.13138734334694,36.054947219173094],[136.13032926689786,36.054911927763676],[136.13028982301276,36.0557026340915],[136.1313346013397,36.05575887175572]]]}},{"type":"Feature","properties":{"pid":"010791ae-e445-4145-ab6b-bb99271fd473"},"geometry":{"type":"Polygon","coordinates":[[[136.1301836866623,36.05490142689882],[136.12952085015053,36.05487981207317],[136.12946882945633,36.055677121147994],[136.13016266901454,36.05570074143258],[136.1302023496815,36.05491495218066],[136.1301836866623,36.05490142689882]]]}},{"type":"Feature","properties":{"pid":"b26017f3-4e88-4e85-9a32-14e92d205bb1"},"geometry":{"type":"Polygon","coordinates":[[[136.12934214562463,36.05566759504493],[136.12939781543975,36.0548788734311],[136.12865341422344,36.05484386037464],[136.12847259390404,36.05495581046252],[136.1285035211881,36.055072859546335],[136.12851385834878,36.055205684216595],[136.1284871263408,36.055626189426704],[136.12934214562463,36.05566759504493]]]}},{"type":"Feature","properties":{"pid":"dc142b48-3f96-455c-8a0b-5f7e23cf4595"},"geometry":{"type":"Polygon","coordinates":[[[136.13013439238262,36.055877960222986],[136.1294371977863,36.05586882567597],[136.12938797616476,36.056621677363495],[136.13010415821563,36.05665059519965],[136.13013439238262,36.055877960222986]]]}},{"type":"Feature","properties":{"pid":"ac085f38-5987-4350-bb0f-d64fb09bdf44"},"geometry":{"type":"Polygon","coordinates":[[[136.12930778198265,36.05585635706031],[136.12845029448104,36.05582256934804],[136.1284010872216,36.05658556394269],[136.12925520824544,36.05662051643937],[136.12930778198265,36.05585635706031]]]}},{"type":"Feature","properties":{"pid":"652070e0-981a-458d-b502-a80c1a1e59b1"},"geometry":{"type":"Polygon","coordinates":[[[136.12930117805448,36.05681338937827],[136.1292973025868,36.056965312811805],[136.13003217181588,36.056997404135885],[136.13003786045527,36.05684170719399],[136.12930117805448,36.05681338937827]]]}},{"type":"Feature","properties":{"pid":"c155b1e5-f325-42b7-b0d9-6ca615b03045"},"geometry":{"type":"Polygon","coordinates":[[[136.13133199550376,36.05591714426423],[136.13026279976447,36.0558805561041],[136.13022932535202,36.05665530014231],[136.13127632365925,36.05670209397972],[136.13133199550376,36.05591714426423]]]}},{"type":"Feature","properties":{"pid":"909b02ba-6535-4e1c-ad1d-ae5d10050134"},"geometry":{"type":"Polygon","coordinates":[[[136.13122014382972,36.056877549444394],[136.13023392551503,36.05684924025292],[136.13021651481145,36.05728995163969],[136.13120622352847,36.057327766029836],[136.13122014382972,36.056877549444394]]]}},{"type":"Feature","properties":{"pid":"d9c2ea6b-862c-4cf8-80e5-34e320a49dfa"},"geometry":{"type":"Polygon","coordinates":[[[136.12927723141465,36.05707403027443],[136.12927528046936,36.057113872499244],[136.12950888283103,36.057175121214286],[136.1295158267275,36.05708633502012],[136.12927723141465,36.05707403027443]]]}},{"type":"Feature","properties":{"pid":"f04650af-bfd2-44e7-8bf8-9e4bb49c8fb7"},"geometry":{"type":"Polygon","coordinates":[[[136.13267474711648,36.05710265423488],[136.1336694366632,36.05714349407279],[136.13368145134072,36.056963185416784],[136.13268691723397,36.05693921205803],[136.13267474711648,36.05710265423488]]]}},{"type":"Feature","properties":{"pid":"cfaecc20-335e-4027-a370-36668a860e9e"},"geometry":{"type":"Polygon","coordinates":[[[136.14210175459525,36.05667969613425],[136.14233029287377,36.056643766399326],[136.1422759073285,36.056570433560715],[136.1421533543667,36.056605526020576],[136.14210175459525,36.05667969613425]]]}},{"type":"Feature","properties":{"pid":"631ecdc8-a378-4c2c-aa0b-b1f1a83bab34"},"geometry":{"type":"Polygon","coordinates":[[[136.14409773130362,36.0562710538928],[136.14392375183672,36.05624718023299],[136.14390483299155,36.05641226717942],[136.14411502676938,36.05643825987768],[136.14417249928627,36.05640039825646],[136.14409773130362,36.0562710538928]]]}},{"type":"Feature","properties":{"pid":"b5dd9b0b-e286-4608-b231-c643ba7ab589"},"geometry":{"type":"Polygon","coordinates":[[[136.14317772932375,36.05690070464007],[136.1436737602108,36.05702196594914],[136.14383877822354,36.05661211848966],[136.14371854852536,36.05666233953371],[136.14359955443712,36.0566630499547],[136.14317772932375,36.05690070464007]]]}},{"type":"Feature","properties":{"pid":"75337fd8-50c1-455c-8164-4afbde46eb96"},"geometry":{"type":"Polygon","coordinates":[[[136.14419330231453,36.05662142473184],[136.14405542253732,36.056566646938194],[136.1438557483417,36.057070548511064],[136.14399034488665,36.057104858188296],[136.14403422167834,36.05706077015705],[136.14409809022322,36.056921887614315],[136.14418136724336,36.05680602263451],[136.14426283115532,36.05674535669028],[136.14419330231453,36.05662142473184]]]}},{"type":"Feature","properties":{"pid":"e808c046-98aa-4b28-9b7d-a8274465088e"},"geometry":{"type":"Polygon","coordinates":[[[136.1493908460008,36.053137081393935],[136.1495438199584,36.05308604043809],[136.1495564834242,36.05271404294259],[136.14940469480774,36.052712747213256],[136.1493908460008,36.053137081393935]]]}},{"type":"Feature","properties":{"pid":"515b434c-7475-4a8e-a7ae-a900c4b336f2"},"geometry":{"type":"Polygon","coordinates":[[[136.1498021206458,36.05272253741794],[136.14967572113423,36.052719946326505],[136.14966349478638,36.053052728422244],[136.14979105087028,36.05303363739325],[136.1498021206458,36.05272253741794]]]}},{"type":"Feature","properties":{"pid":"a394239d-5444-4125-ab03-b642ca6965d5"},"geometry":{"type":"Polygon","coordinates":[[[136.14957254230475,36.05174397521537],[136.14937147817463,36.051744965145375],[136.14934882297828,36.05254662979332],[136.14954870120164,36.05255154529823],[136.14957254230475,36.05174397521537]]]}},{"type":"Feature","properties":{"pid":"9403757e-20a5-46e7-bc75-bd9344334ae9"},"geometry":{"type":"Polygon","coordinates":[[[136.1496708698635,36.05255423380534],[136.14989308726598,36.05256129814813],[136.14991190920006,36.05175457807463],[136.14969848909612,36.051749556435695],[136.1496708698635,36.05255423380534]]]}},{"type":"Feature","properties":{"pid":"b0249d6f-390c-455d-a166-8a6f1a87df4f"},"geometry":{"type":"Polygon","coordinates":[[[136.1497804179606,36.05079454587981],[136.14972215104788,36.050794648655994],[136.14970110756232,36.05160116017751],[136.14975576221073,36.05160231055891],[136.1497804179606,36.05079454587981]]]}},{"type":"Feature","properties":{"pid":"6f13b3e7-a5fb-45bb-8de7-dc60ff51be01"},"geometry":{"type":"Polygon","coordinates":[[[136.1499007568682,36.05080642285386],[136.14988011998568,36.05160289495152],[136.1499914220129,36.05160334630014],[136.15001518311817,36.05091820516174],[136.1499007568682,36.05080642285386]]]}},{"type":"Feature","properties":{"pid":"67632c0e-75f9-4124-8538-6f76470a188c"},"geometry":{"type":"Polygon","coordinates":[[[136.14905488539003,36.0506141396382],[136.149087671152,36.05058308103582],[136.14916301598498,36.05057969961272],[136.14920298197114,36.050593495207195],[136.1492187226859,36.05062591309785],[136.14976982138774,36.050634027327106],[136.14908815803645,36.049835621161904],[136.14905488539003,36.0506141396382]]]}},{"type":"Feature","properties":{"pid":"34c20bb6-a953-4ff5-8ad9-c10c0bd29280"},"geometry":{"type":"Polygon","coordinates":[[[136.1494967355865,36.048804808082885],[136.15003300298483,36.049418621982156],[136.15011264533126,36.04936057428868],[136.14975999034718,36.04904948030649],[136.1494967355865,36.048804808082885]]]}},{"type":"Feature","properties":{"pid":"e391cfc4-6d51-4c02-afcd-de00f82b725a"},"geometry":{"type":"Polygon","coordinates":[[[136.1493631309783,36.04832091143397],[136.14954338234196,36.04851919827442],[136.14957753300658,36.04844173177481],[136.1497622681822,36.048307117905125],[136.14975877047146,36.04824226548825],[136.14973799927287,36.04821704713204],[136.14966005477817,36.04820177780339],[136.14941585148532,36.04831692015816],[136.1493631309783,36.04832091143397]]]}},{"type":"Feature","properties":{"pid":"72715847-d6c1-4fe0-807f-b23c381eb10f"},"geometry":{"type":"Polygon","coordinates":[[[136.14957139828738,36.04653898568673],[136.14947219108774,36.04580259561958],[136.14942429190563,36.04580730754982],[136.14953290577787,36.04656039070427],[136.14957139828738,36.04653898568673]]]}},{"type":"Feature","properties":{"pid":"55bd8119-5c92-439f-a43c-69c976ab5883"},"geometry":{"type":"Polygon","coordinates":[[[136.14929721894214,36.04567427111817],[136.14959755695236,36.045643144386766],[136.1495071106396,36.04500815984349],[136.14920895538935,36.04503305515802],[136.14929721894214,36.04567427111817]]]}},{"type":"Feature","properties":{"pid":"f842adab-c8c6-4c56-8baf-6e2402d36fc7"},"geometry":{"type":"Polygon","coordinates":[[[136.14964802941043,36.04281520735293],[136.14923982625368,36.04275736114623],[136.14916199759324,36.043122590530004],[136.15008026480328,36.04317659296086],[136.1501317511606,36.04289692331578],[136.150113216018,36.04287697685472],[136.14976089674295,36.04282841207678],[136.14971598127192,36.04284002766054],[136.14964802941043,36.04281520735293]]]}},{"type":"Feature","properties":{"pid":"f55cb5bc-de43-4386-b3ce-ae75d9e24192"},"geometry":{"type":"Polygon","coordinates":[[[136.14981927791362,36.042390123278096],[136.1492043137175,36.04217504834727],[136.14909720489732,36.04209476271628],[136.14899746590422,36.042580444438116],[136.14976157920105,36.04268181947522],[136.14981927791362,36.042390123278096]]]}}]}