{"type":"FeatureCollection","features":[{"type":"Feature","properties":{"pid":"3883f4de-7c3d-466d-bc21-47e7c72ca2e3"},"geometry":{"type":"Polygon","coordinates":[[[135.89792531908765,35.55877074744101],[135.8980091794171,35.55883337480129],[135.89841550105675,35.55852029896898],[135.89835111336598,35.5584583374164],[135.89792531908765,35.55877074744101]]]}},{"type":"Feature","properties":{"pid":"b5f1b57d-da64-4387-bcd5-db24a5972983"},"geometry":{"type":"Polygon","coordinates":[[[135.89946174936114,35.55974324610225],[135.89976271394158,35.55955877507363],[135.89932341088047,35.55909741194754],[135.89928759716477,35.55907602806387],[135.89923247611407,35.55909839242736],[135.89901448174092,35.55926026702977],[135.89946174936114,35.55974324610225]]]}},{"type":"Feature","properties":{"pid":"92d70291-6607-47ad-9be6-bb192dd4ad80"},"geometry":{"type":"Polygon","coordinates":[[[135.8990825937533,35.55997172858982],[135.8993636696051,35.55980210563355],[135.89892391491708,35.559331294919396],[135.89867062372457,35.559538173970296],[135.8990825937533,35.55997172858982]]]}},{"type":"Feature","properties":{"pid":"e8b47b3f-8d33-4b85-8585-9b0ba91db404"},"geometry":{"type":"Polygon","coordinates":[[[135.89828593410365,35.559930493126586],[135.89858533203545,35.56025981926794],[135.8989807526244,35.560033319467465],[135.89858634051936,35.5596184858561],[135.89828593410365,35.559930493126586]]]}},{"type":"Feature","properties":{"pid":"c55b7a50-c09c-46b8-9627-7758c50eaf95"},"geometry":{"type":"Polygon","coordinates":[[[135.8992145571039,35.56078822908222],[135.8987932946642,35.56032247310791],[135.89853374055625,35.56047717374845],[135.89894613895703,35.56094634882585],[135.8992145571039,35.56078822908222]]]}},{"type":"Feature","properties":{"pid":"95f60437-6cee-4a17-bbf8-59e79130a56d"},"geometry":{"type":"Polygon","coordinates":[[[135.89943435217876,35.561003847883406],[135.8991061097828,35.56119557705025],[135.8994619394646,35.56158856449228],[135.89973395285762,35.561426517628895],[135.89943435217876,35.561003847883406]]]}},{"type":"Feature","properties":{"pid":"d557aaf8-ee5c-49a5-bc17-6697f527a731"},"geometry":{"type":"Polygon","coordinates":[[[135.89935950194115,35.561652196677564],[135.89900458119035,35.56125483836418],[135.8986143463377,35.56148035443953],[135.89885427080054,35.561579429324084],[135.89912760038646,35.5617967355837],[135.89935950194115,35.561652196677564]]]}},{"type":"Feature","properties":{"pid":"936dd60d-5cee-4865-8b5a-22ca024810d8"},"geometry":{"type":"Polygon","coordinates":[[[135.89797900002586,35.560642951878386],[135.89780105287872,35.56045195006549],[135.89748036489289,35.56079390814696],[135.8976128874438,35.56084903975328],[135.89797900002586,35.560642951878386]]]}},{"type":"Feature","properties":{"pid":"ee6e3cfc-dce1-4db2-a2b0-532d878e1afb"},"geometry":{"type":"Polygon","coordinates":[[[135.89782074702114,35.56091403959226],[135.89809366026958,35.56104418702054],[135.89824244740447,35.561160267552516],[135.8983606878081,35.561291699067105],[135.8986349857146,35.56112983350462],[135.89822381002315,35.56066563574318],[135.89782074702114,35.56091403959226]]]}},{"type":"Feature","properties":{"pid":"8592b9f6-6c52-4987-b458-28486f2c1528"},"geometry":{"type":"Polygon","coordinates":[[[135.8983211579153,35.560605359660194],[135.89873613974407,35.561069870639436],[135.8988419108859,35.56100881538036],[135.89843337722675,35.560537505237846],[135.8983211579153,35.560605359660194]]]}},{"type":"Feature","properties":{"pid":"c8e27dc7-7018-4a04-a23e-6c64be82f66a"},"geometry":{"type":"Polygon","coordinates":[[[135.89807594184325,35.56058557603486],[135.89822294082836,35.560490383238964],[135.8979956405226,35.560239404102866],[135.89787821166158,35.56037075665471],[135.89807594184325,35.56058557603486]]]}},{"type":"Feature","properties":{"pid":"2f76b3a4-5235-4f67-b488-1544a5760a27"},"geometry":{"type":"Polygon","coordinates":[[[135.89832271921836,35.560430073661145],[135.89849190316093,35.56032655985324],[135.89820609022723,35.5600142050405],[135.8980743956961,35.560154013699794],[135.89832271921836,35.560430073661145]]]}}]}