{"type":"FeatureCollection","features":[{"type":"Feature","properties":{"pid":"fea43143-162c-4c28-9861-ccb7348077f4"},"geometry":{"type":"Polygon","coordinates":[[[136.14971210881524,36.23447873923839],[136.15010118874332,36.234595330492],[136.15021218830455,36.23443944815673],[136.14983922621153,36.23428218973221],[136.14971210881524,36.23447873923839]]]}},{"type":"Feature","properties":{"pid":"e49fe811-927e-429c-9d00-5a6ea98ab84b"},"geometry":{"type":"Polygon","coordinates":[[[136.1490833136399,36.23446089014377],[136.14911391921416,36.234496732349875],[136.14923145360828,36.23445001396474],[136.1493606761479,36.234433402945655],[136.14957848949305,36.23444822887296],[136.1497154762686,36.23422706448516],[136.1493681121891,36.23406700081251],[136.1490833136399,36.23446089014377]]]}},{"type":"Feature","properties":{"pid":"bff40aa6-167c-4423-a669-3fce118a6ad7"},"geometry":{"type":"Polygon","coordinates":[[[136.14892517287598,36.23435941136683],[136.14897515351075,36.2343831053426],[136.149242830708,36.23400160488037],[136.14919517350185,36.233983857341094],[136.14892517287598,36.23435941136683]]]}},{"type":"Feature","properties":{"pid":"14030820-95ed-48a4-b3b3-813fdc381fd8"},"geometry":{"type":"Polygon","coordinates":[[[136.148524023342,36.233970521784],[136.14871878868442,36.23416164953648],[136.14893149816635,36.23386906249037],[136.14872978159624,36.2337826956931],[136.148524023342,36.233970521784]]]}},{"type":"Feature","properties":{"pid":"f0b5ae0a-3918-4702-a763-6680e23b32e7"},"geometry":{"type":"Polygon","coordinates":[[[136.14880298602378,36.2342414355603],[136.1488403166731,36.23427681102355],[136.1490813047589,36.23393638063625],[136.14903826540677,36.23391643340278],[136.14880298602378,36.2342414355603]]]}},{"type":"Feature","properties":{"pid":"e8c9da95-a46f-4a54-80ee-d905ee2963a0"},"geometry":{"type":"Polygon","coordinates":[[[136.14699331432172,36.233042166428106],[136.14722006015998,36.23327948053807],[136.14734174525344,36.233220126739226],[136.1471669384762,36.232865953479475],[136.14699331432172,36.233042166428106]]]}},{"type":"Feature","properties":{"pid":"9b365eec-e0d1-4f5f-8b79-474be561af2d"},"geometry":{"type":"Polygon","coordinates":[[[136.1467369812033,36.232910866039475],[136.14689532666844,36.23297652172412],[136.1471007312862,36.232769474620284],[136.14675954027373,36.232580820908815],[136.1467369812033,36.232910866039475]]]}},{"type":"Feature","properties":{"pid":"e3afef47-3be2-44f3-a759-f0fdf48d484d"},"geometry":{"type":"Polygon","coordinates":[[[136.14653294099963,36.23284641220102],[136.14661465254602,36.2328833161031],[136.1466389022227,36.23250975248385],[136.14655280650538,36.23245463933238],[136.14653294099963,36.23284641220102]]]}},{"type":"Feature","properties":{"pid":"e3a2b2fb-7cf1-4c06-a325-98f598684434"},"geometry":{"type":"Polygon","coordinates":[[[136.14631258300372,36.23273918319316],[136.1464113506301,36.23278825745707],[136.1464319203613,36.23237749296113],[136.14633583337206,36.2323332675559],[136.14631258300372,36.23273918319316]]]}},{"type":"Feature","properties":{"pid":"0077252c-a47a-4dfd-a14c-d6b07a60578f"},"geometry":{"type":"Polygon","coordinates":[[[136.145865325887,36.23265763052792],[136.14618026216343,36.23270052833321],[136.14620967076786,36.23225964775363],[136.1461616566482,36.232232279189944],[136.14588779085497,36.23225196134558],[136.145865325887,36.23265763052792]]]}},{"type":"Feature","properties":{"pid":"8fca9e67-1d78-4749-a06b-a5def91b4a75"},"geometry":{"type":"Polygon","coordinates":[[[136.14567347659076,36.23224413206775],[136.1454150802907,36.2322251897387],[136.14537903986223,36.23269995086242],[136.14565569215736,36.232628802488385],[136.14567347659076,36.23224413206775]]]}}]}