{"type":"FeatureCollection","features":[{"type":"Feature","properties":{"pid":"216d362b-653a-4fe5-8edf-a89da218a02c"},"geometry":{"type":"Polygon","coordinates":[[[136.0022636682419,35.66293234277347],[136.002365470963,35.66294974112583],[136.00242692805492,35.662928202359],[136.00243145796492,35.662910467369535],[136.00241855440322,35.662869928555054],[136.00233091265233,35.66278248044025],[136.0022636682419,35.66293234277347]]]}},{"type":"Feature","properties":{"pid":"db18dc34-5e0d-40bd-992e-ee37c2bff7cb"},"geometry":{"type":"Polygon","coordinates":[[[136.00272370311353,35.66253770330726],[136.00280269565582,35.66255954813895],[136.00288583763998,35.6623751080938],[136.00280563327675,35.66233932597821],[136.00272370311353,35.66253770330726]]]}},{"type":"Feature","properties":{"pid":"39b06cd3-192e-4ee4-8d0f-668406cd6faf"},"geometry":{"type":"Polygon","coordinates":[[[136.00256920345333,35.66250127276805],[136.00259836667172,35.66249999715998],[136.00269298036042,35.662265880231544],[136.00266392968769,35.662245246671155],[136.00256920345333,35.66250127276805]]]}},{"type":"Feature","properties":{"pid":"a213dcc6-059d-407d-916a-fbb712c5efc8"},"geometry":{"type":"Polygon","coordinates":[[[136.00241187786193,35.6624509678823],[136.00243980964032,35.66246264629199],[136.00256221062696,35.66213996578731],[136.00253165096257,35.662143675849244],[136.00241187786193,35.6624509678823]]]}},{"type":"Feature","properties":{"pid":"a9bc4157-7521-4777-b603-2a70f5a35eae"},"geometry":{"type":"Polygon","coordinates":[[[136.00226357414724,35.66238045499568],[136.0022867045864,35.662386914158134],[136.00239448899572,35.66213186464401],[136.00236209938058,35.66213186511502],[136.00226357414724,35.66238045499568]]]}},{"type":"Feature","properties":{"pid":"99b58b1c-38d2-442d-a43d-b244b2594f2b"},"geometry":{"type":"Polygon","coordinates":[[[136.00211394405372,35.662349198073805],[136.0021392555138,35.66235138561368],[136.00222404514003,35.66214378239769],[136.0021881396401,35.66214796903524],[136.00211394405372,35.662349198073805]]]}},{"type":"Feature","properties":{"pid":"d66a026e-4cf1-4191-823b-4567f623d7af"},"geometry":{"type":"Polygon","coordinates":[[[136.00001729282775,35.66309113031873],[136.00014270567917,35.66308334905177],[136.00031084385682,35.66266815385846],[136.0001986183229,35.66263210246921],[136.00001729282775,35.66309113031873]]]}}]}