{"type":"FeatureCollection","features":[{"type":"Feature","properties":{"pid":"2b63bd49-3f4a-48d2-ab93-3ded97c27d57","full":4.0},"geometry":{"type":"Polygon","coordinates":[[[136.23021,35.82337],[136.23016,35.82353],[136.23054,35.82359],[136.2308,35.82365],[136.23088,35.82366],[136.23108,35.82365],[136.23111,35.82357],[136.23021,35.82337]]]}},{"type":"Feature","properties":{"pid":"4d4f32fa-f5c2-4b9e-b5ca-f5162470b8e7","full":13.2},"geometry":{"type":"Polygon","coordinates":[[[136.23023,35.82334],[136.23025,35.82335],[136.23111,35.82354],[136.23113,35.82354],[136.23121,35.82331],[136.23031,35.8231],[136.23023,35.82334]]]}},{"type":"Feature","properties":{"pid":"81240b96-bc7d-4f1f-bd9a-10e5727b5dcb","full":10.1},"geometry":{"type":"Polygon","coordinates":[[[136.22952,35.82325],[136.22956,35.82326],[136.23001,35.82347],[136.23017,35.82311],[136.22967,35.82299],[136.22952,35.82325]]]}},{"type":"Feature","properties":{"pid":"7e7b1880-bd6c-4635-9e20-b5115e2e475e","full":15.7},"geometry":{"type":"Polygon","coordinates":[[[136.22903,35.82269],[136.22904,35.8227],[136.2293,35.82278],[136.22933,35.82277],[136.22961,35.82197],[136.2296,35.82194],[136.22933,35.82189],[136.2293,35.8219],[136.22903,35.82269]]]}},{"type":"Feature","properties":{"pid":"be20d8bc-e349-4a80-a738-817b05ee779e","full":13.5},"geometry":{"type":"Polygon","coordinates":[[[136.22989,35.82214],[136.22969,35.82199],[136.22965,35.82197],[136.22963,35.82198],[136.22936,35.82277],[136.22937,35.82278],[136.22965,35.82285],[136.22989,35.82214]]]}},{"type":"Feature","properties":{"pid":"76e5300c-5fd7-4492-a2ad-35358ce1dc81","full":7.5},"geometry":{"type":"Polygon","coordinates":[[[136.22951,35.82325],[136.22966,35.82299],[136.229,35.82283],[136.22894,35.82284],[136.2289,35.82287],[136.22905,35.82304],[136.22929,35.82315],[136.22951,35.82325]]]}},{"type":"Feature","properties":{"pid":"0863dea2-7f00-4435-b9fc-09538f014a55","full":3.5},"geometry":{"type":"Polygon","coordinates":[[[136.23129,35.82302],[136.23041,35.82282],[136.23036,35.82294],[136.23126,35.82315],[136.23129,35.82302]]]}},{"type":"Feature","properties":{"pid":"89c388c1-8a6d-46ca-9bf4-db11d7d09eb1","full":3.9},"geometry":{"type":"Polygon","coordinates":[[[136.23126,35.82316],[136.23036,35.82295],[136.2303,35.82309],[136.23121,35.82328],[136.23126,35.82316]]]}},{"type":"Feature","properties":{"pid":"cbf7b479-cb0d-4546-a26e-9f5384b03837","full":4.0},"geometry":{"type":"Polygon","coordinates":[[[136.2313,35.82302],[136.23132,35.82297],[136.23123,35.82294],[136.23081,35.82274],[136.23049,35.82258],[136.23041,35.82281],[136.2313,35.82302]]]}},{"type":"Feature","properties":{"pid":"47062f3d-e034-452a-ab02-322834adc1ad","full":5.7},"geometry":{"type":"Polygon","coordinates":[[[136.22999,35.82294],[136.23,35.82295],[136.23022,35.82299],[136.23039,35.82254],[136.23019,35.82238],[136.22999,35.82294]]]}},{"type":"Feature","properties":{"pid":"70116fc7-6239-4000-9a0c-fccd517fe9a9","full":11.1},"geometry":{"type":"Polygon","coordinates":[[[136.22996,35.82293],[136.23016,35.82236],[136.22991,35.82216],[136.22967,35.82285],[136.22969,35.82287],[136.22996,35.82293]]]}},{"type":"Feature","properties":{"pid":"16742743-c875-4e02-bbd5-cdfc0b0baa09","full":1.4},"geometry":{"type":"Polygon","coordinates":[[[136.23013,35.82184],[136.23024,35.82173],[136.23026,35.82167],[136.22982,35.82186],[136.22982,35.82188],[136.22998,35.82202],[136.23003,35.82201],[136.23013,35.82184]]]}},{"type":"Feature","properties":{"pid":"3752e4e4-f844-4b89-92d2-ecc5ebc890ab","full":15.1},"geometry":{"type":"Polygon","coordinates":[[[136.22867,35.82271],[136.22879,35.82276],[136.22887,35.82267],[136.2289,35.82267],[136.22898,35.82269],[136.22927,35.82191],[136.22927,35.82188],[136.22898,35.82181],[136.22867,35.82271]]]}},{"type":"Feature","properties":{"pid":"bf1f11d8-542f-42db-8a6c-1670c9c4ca44","full":16.2},"geometry":{"type":"Polygon","coordinates":[[[136.22864,35.82271],[136.22896,35.8218],[136.22867,35.82173],[136.22836,35.82257],[136.22864,35.82271]]]}},{"type":"Feature","properties":{"pid":"64c23131-dba7-45d3-b0a6-3b00edd6c451","full":13.0},"geometry":{"type":"Polygon","coordinates":[[[136.2274,35.82225],[136.22765,35.8215],[136.22743,35.82143],[136.22734,35.82143],[136.22713,35.82207],[136.22723,35.82212],[136.22727,35.82216],[136.22731,35.82221],[136.2274,35.82225]]]}},{"type":"Feature","properties":{"pid":"7718f9a9-40b9-44c5-abb0-49f441d6033b","full":13.4},"geometry":{"type":"Polygon","coordinates":[[[136.22768,35.82235],[136.22797,35.82155],[136.22767,35.8215],[136.22742,35.82225],[136.22747,35.82229],[136.22768,35.82235]]]}},{"type":"Feature","properties":{"pid":"07a3d5e6-7e01-470d-a558-6e33dc372ebe","full":17.0},"geometry":{"type":"Polygon","coordinates":[[[136.22799,35.8225],[136.22829,35.82164],[136.22799,35.82156],[136.2277,35.82235],[136.22775,35.8224],[136.22781,35.82244],[136.2279,35.82248],[136.22799,35.8225]]]}},{"type":"Feature","properties":{"pid":"1057c722-963c-43a5-830f-3318a113c690","full":13.2},"geometry":{"type":"Polygon","coordinates":[[[136.22802,35.82249],[136.22828,35.82255],[136.2283,35.82254],[136.22856,35.82171],[136.22831,35.82165],[136.22802,35.82249]]]}},{"type":"Feature","properties":{"pid":"0a4ac832-82c2-4360-9549-57e18638fb62","full":13.1},"geometry":{"type":"Polygon","coordinates":[[[136.22711,35.82207],[136.22733,35.82142],[136.22703,35.82133],[136.22678,35.82204],[136.22685,35.82206],[136.22693,35.82205],[136.22706,35.82208],[136.22711,35.82207]]]}},{"type":"Feature","properties":{"pid":"5e131bf2-868b-4c88-a4c9-c7d354d92c6a","full":19.6},"geometry":{"type":"Polygon","coordinates":[[[136.22638,35.82185],[136.22646,35.8219],[136.22652,35.82195],[136.22659,35.82199],[136.22675,35.82204],[136.22701,35.82134],[136.22659,35.82123],[136.22638,35.82185]]]}},{"type":"Feature","properties":{"pid":"e32657a4-2091-43ba-9037-682edb08d662","full":7.2},"geometry":{"type":"Polygon","coordinates":[[[136.22609,35.82167],[136.22624,35.82178],[136.2263,35.82181],[136.22651,35.82122],[136.22633,35.82118],[136.22625,35.82118],[136.22609,35.82167]]]}},{"type":"Feature","properties":{"pid":"ac0ea300-d5dd-4b29-b97c-516a50911f97","full":8.2},"geometry":{"type":"Polygon","coordinates":[[[136.22602,35.81984],[136.22608,35.81965],[136.22598,35.81963],[136.22587,35.81957],[136.22561,35.81953],[136.22499,35.81951],[136.22496,35.81959],[136.22602,35.81984]]]}},{"type":"Feature","properties":{"pid":"71a26a4f-97fe-4e20-8a6e-856f50b62ed3","full":9.7},"geometry":{"type":"Polygon","coordinates":[[[136.22495,35.81963],[136.22488,35.8198],[136.22592,35.82006],[136.22596,35.81997],[136.22598,35.81987],[136.22495,35.81963]]]}},{"type":"Feature","properties":{"pid":"bc7f2447-512e-4d3c-a87f-486f20749da7","full":18.2},"geometry":{"type":"Polygon","coordinates":[[[136.22555,35.82009],[136.22532,35.82073],[136.22573,35.82083],[136.22595,35.82019],[136.22555,35.82009]]]}},{"type":"Feature","properties":{"pid":"91da8864-a94e-4996-8bd8-84d6e387377a","full":18.6},"geometry":{"type":"Polygon","coordinates":[[[136.22511,35.81999],[136.22488,35.82063],[136.2253,35.82073],[136.22553,35.82009],[136.22511,35.81999]]]}},{"type":"Feature","properties":{"pid":"4c61b5c5-bdb5-4a67-aa3a-51de73120c74","full":8.9},"geometry":{"type":"Polygon","coordinates":[[[136.22472,35.82114],[136.22483,35.82114],[136.22521,35.82127],[136.22532,35.82094],[136.22483,35.82085],[136.22472,35.82114]]]}},{"type":"Feature","properties":{"pid":"b9127bbc-d9a0-4600-9e40-73743c483966","full":12.4},"geometry":{"type":"Polygon","coordinates":[[[136.22581,35.82106],[136.22538,35.82095],[136.22526,35.8213],[136.22535,35.82136],[136.22544,35.82144],[136.22547,35.8215],[136.22557,35.82156],[136.22563,35.82159],[136.22581,35.82106]]]}},{"type":"Feature","properties":{"pid":"92405be5-1065-4a9e-9d51-32dcf38d1512","full":14.5},"geometry":{"type":"Polygon","coordinates":[[[136.22608,35.82167],[136.22625,35.82117],[136.22586,35.82107],[136.22584,35.82107],[136.22565,35.82159],[136.22581,35.82164],[136.226,35.82164],[136.22608,35.82167]]]}},{"type":"Feature","properties":{"pid":"30aacf41-0b17-4a54-a6cd-e16b429670ca","full":18.2},"geometry":{"type":"Polygon","coordinates":[[[136.22695,35.82043],[136.22673,35.82106],[136.22714,35.82116],[136.22737,35.82053],[136.22698,35.82043],[136.22695,35.82043]]]}},{"type":"Feature","properties":{"pid":"cce70cfd-88ed-421c-91db-329437e38043","full":19.0},"geometry":{"type":"Polygon","coordinates":[[[136.2264,35.82032],[136.22618,35.82093],[136.22657,35.82103],[136.22661,35.82102],[136.22683,35.8204],[136.22646,35.8203],[136.2264,35.82032]]]}},{"type":"Feature","properties":{"pid":"487cd0ee-a558-47ea-9b96-57e1a96931ce","full":18.1},"geometry":{"type":"Polygon","coordinates":[[[136.22597,35.82019],[136.22575,35.82083],[136.22616,35.82092],[136.22638,35.82029],[136.22597,35.82019]]]}},{"type":"Feature","properties":{"pid":"f8819239-34b4-4bb3-aa96-7fd28bf1503a","full":7.0},"geometry":{"type":"Polygon","coordinates":[[[136.22613,35.81983],[136.22703,35.82006],[136.227,35.81997],[136.22695,35.8199],[136.22687,35.81984],[136.22678,35.81979],[136.22617,35.81966],[136.22615,35.81969],[136.22613,35.81983]]]}},{"type":"Feature","properties":{"pid":"a42aec49-e7e3-4c46-8ca6-af6b05245260","full":13.4},"geometry":{"type":"Polygon","coordinates":[[[136.22603,35.82008],[136.22699,35.82033],[136.22704,35.82029],[136.22705,35.82022],[136.22703,35.82008],[136.22609,35.81986],[136.22603,35.82008]]]}},{"type":"Feature","properties":{"pid":"ef253e35-c689-4b17-948e-e43bf4176b00","full":16.5},"geometry":{"type":"Polygon","coordinates":[[[136.22756,35.82125],[136.22778,35.82064],[136.22769,35.82064],[136.22751,35.82056],[136.22739,35.82052],[136.22716,35.82115],[136.22756,35.82125]]]}},{"type":"Feature","properties":{"pid":"28bc1a3f-1495-453d-8ce4-a5c7e4d5d958","full":4.7},"geometry":{"type":"Polygon","coordinates":[[[136.22777,35.82129],[136.22799,35.82066],[136.2278,35.82064],[136.22758,35.82125],[136.22775,35.82129],[136.22777,35.82129]]]}},{"type":"Feature","properties":{"pid":"c792c6e4-e0a0-45b3-98a8-5590b0d93552","full":6.8},"geometry":{"type":"Polygon","coordinates":[[[136.22778,35.8213],[136.22797,35.82135],[136.22799,35.82135],[136.22823,35.82066],[136.228,35.82066],[136.22778,35.8213]]]}},{"type":"Feature","properties":{"pid":"1b1760ae-7865-4b70-89f1-3902ca21276d","full":13.1},"geometry":{"type":"Polygon","coordinates":[[[136.22802,35.82136],[136.2283,35.82143],[136.22858,35.82065],[136.22836,35.82062],[136.22826,35.82066],[136.22802,35.82136]]]}},{"type":"Feature","properties":{"pid":"296e715e-ac17-48da-b121-bacbda93eb67","full":4.2},"geometry":{"type":"Polygon","coordinates":[[[136.22848,35.82149],[136.22879,35.82066],[136.22861,35.82065],[136.22833,35.82144],[136.22848,35.82149]]]}},{"type":"Feature","properties":{"pid":"b70646a6-c2a9-4441-a856-a717a38429fe","full":16.4},"geometry":{"type":"Polygon","coordinates":[[[136.2293,35.82069],[136.22913,35.82071],[136.22899,35.82069],[136.22868,35.82152],[136.22899,35.82159],[136.2293,35.82069]]]}},{"type":"Feature","properties":{"pid":"e088aeb5-c5d5-4ddf-82fc-3422bef381e0","full":18.9},"geometry":{"type":"Polygon","coordinates":[[[136.22903,35.8216],[136.22904,35.8216],[136.22933,35.82167],[136.2297,35.82067],[136.22935,35.82069],[136.22903,35.8216]]]}},{"type":"Feature","properties":{"pid":"3c379a83-09f8-4ed4-9b68-f999683d4ad9","full":16.3},"geometry":{"type":"Polygon","coordinates":[[[136.22935,35.82167],[136.22962,35.82173],[136.22999,35.82072],[136.22998,35.8207],[136.22994,35.82068],[136.22972,35.82067],[136.22935,35.82167]]]}},{"type":"Feature","properties":{"pid":"f391dc5f-90ab-4ae6-9734-fef1a2b49f5b","full":15.4},"geometry":{"type":"Polygon","coordinates":[[[136.22964,35.82173],[136.22968,35.82174],[136.22978,35.82173],[136.22985,35.82172],[136.22999,35.82166],[136.23022,35.82102],[136.23002,35.82073],[136.22964,35.82173]]]}},{"type":"Feature","properties":{"pid":"374175a0-c667-47cd-8ce2-d7a474deb4e1","full":5.7},"geometry":{"type":"Polygon","coordinates":[[[136.23001,35.82166],[136.23047,35.82146],[136.23049,35.82143],[136.23025,35.82107],[136.23022,35.82106],[136.23001,35.82166]]]}},{"type":"Feature","properties":{"pid":"0f2a4ba9-d965-4f66-b930-d2f1bb647b0a","full":15.4},"geometry":{"type":"Polygon","coordinates":[[[136.23118,35.82115],[136.2307,35.82039],[136.23044,35.82053],[136.23089,35.82126],[136.23092,35.82126],[136.23118,35.82115]]]}},{"type":"Feature","properties":{"pid":"7894d80a-05c7-4d17-9feb-74a5b2f0c76d","full":14.2},"geometry":{"type":"Polygon","coordinates":[[[136.23121,35.82113],[136.23147,35.82102],[136.23098,35.82026],[136.23073,35.82038],[136.23117,35.8211],[136.2312,35.8211],[136.23121,35.82113]]]}},{"type":"Feature","properties":{"pid":"19fdd4e2-0d9f-4c41-b8dc-760aa38cb908","full":17.7},"geometry":{"type":"Polygon","coordinates":[[[136.23087,35.82127],[136.2304,35.82054],[136.23018,35.82063],[136.23015,35.82061],[136.23009,35.82064],[136.23009,35.82066],[136.23056,35.8214],[136.23087,35.82127]]]}},{"type":"Feature","properties":{"pid":"74528109-3162-473e-88cf-b41c5e3cee3b","full":2.1},"geometry":{"type":"Polygon","coordinates":[[[136.22637,35.80953],[136.22637,35.8095],[136.2264,35.80949],[136.22636,35.80909],[136.22619,35.8091],[136.22623,35.80954],[136.22637,35.80953]]]}},{"type":"Feature","properties":{"pid":"2e5d93cc-d28f-44a6-98ac-1e1b0bec7671","full":1.6},"geometry":{"type":"Polygon","coordinates":[[[136.22657,35.80952],[136.22652,35.80909],[136.22636,35.80909],[136.22641,35.80952],[136.22648,35.80952],[136.22657,35.80952]]]}},{"type":"Feature","properties":{"pid":"558ba990-e4cc-4d74-bdfa-a36632e71542","full":9.8},"geometry":{"type":"Polygon","coordinates":[[[136.22658,35.80951],[136.22688,35.80948],[136.22688,35.80945],[136.227,35.80943],[136.22696,35.80908],[136.22653,35.8091],[136.22658,35.80951]]]}},{"type":"Feature","properties":{"pid":"5e4ea134-2935-42b8-9eb8-becc91935122","full":19.7},"geometry":{"type":"Polygon","coordinates":[[[136.2274,35.80955],[136.2272,35.81008],[136.22725,35.81008],[136.22737,35.81005],[136.22751,35.81004],[136.22768,35.81003],[136.22787,35.81006],[136.22792,35.81004],[136.22784,35.80951],[136.2274,35.80955]]]}},{"type":"Feature","properties":{"pid":"893fecc6-ab8f-44ad-b2ac-b5ec70ad5a75","full":5.5},"geometry":{"type":"Polygon","coordinates":[[[136.22849,35.80944],[136.22818,35.80947],[136.22824,35.80982],[136.22855,35.8098],[136.22849,35.80944]]]}},{"type":"Feature","properties":{"pid":"ac98496b-3cb5-4de3-b9be-a9723615402a","full":4.1},"geometry":{"type":"Polygon","coordinates":[[[136.2279,35.80978],[136.22821,35.80977],[136.22816,35.80948],[136.22815,35.80947],[136.22785,35.8095],[136.2279,35.80978]]]}},{"type":"Feature","properties":{"pid":"1825e1fc-63fb-405d-841d-d997d22d54b1","full":6.4},"geometry":{"type":"Polygon","coordinates":[[[136.22862,35.81025],[136.22855,35.8098],[136.22824,35.80983],[136.2283,35.81018],[136.22845,35.81023],[136.22862,35.81025]]]}},{"type":"Feature","properties":{"pid":"b31e863a-8ce7-42db-adfa-5f6eadd2aecd","full":5.1},"geometry":{"type":"Polygon","coordinates":[[[136.22821,35.80978],[136.2279,35.8098],[136.22794,35.81009],[136.22825,35.81017],[136.22827,35.81015],[136.22821,35.80978]]]}},{"type":"Feature","properties":{"pid":"09e98aa0-2c79-4ede-be41-fc066cc4798b","full":7.4},"geometry":{"type":"Polygon","coordinates":[[[136.22864,35.81025],[136.22874,35.81027],[136.22895,35.81026],[136.22895,35.81025],[136.22888,35.80981],[136.22887,35.8098],[136.22857,35.80982],[136.22864,35.81025]]]}},{"type":"Feature","properties":{"pid":"52f249af-8e0a-4bb1-bf45-c3da679ea67a","full":10.4},"geometry":{"type":"Polygon","coordinates":[[[136.22929,35.81024],[136.22919,35.80964],[136.22888,35.80967],[136.22897,35.81024],[136.22899,35.81026],[136.22929,35.81024]]]}},{"type":"Feature","properties":{"pid":"7f864aa4-fa12-448f-80f5-532377e9b2b1","full":1.7},"geometry":{"type":"Polygon","coordinates":[[[136.22995,35.81026],[136.22933,35.81032],[136.2293,35.81034],[136.22932,35.81035],[136.22935,35.81036],[136.2296,35.81041],[136.22961,35.81038],[136.2297,35.81039],[136.22968,35.81043],[136.22994,35.81048],[136.22998,35.81047],[136.22995,35.81026]]]}},{"type":"Feature","properties":{"pid":"54978f6e-565a-46f2-960a-3c1ec55acfcd","full":0.8},"geometry":{"type":"Polygon","coordinates":[[[136.23015,35.8105],[136.23012,35.81025],[136.22996,35.81026],[136.22999,35.81048],[136.23004,35.8105],[136.23013,35.81051],[136.23015,35.8105]]]}},{"type":"Feature","properties":{"pid":"98352d91-336d-421a-8bf5-0cd10bb1719a","full":6.3},"geometry":{"type":"Polygon","coordinates":[[[136.23022,35.81053],[136.23034,35.81052],[136.23038,35.81051],[136.23047,35.81045],[136.23077,35.81021],[136.23074,35.81018],[136.23016,35.81023],[136.23014,35.81026],[136.23016,35.8105],[136.23022,35.81053]]]}},{"type":"Feature","properties":{"pid":"cdf00671-662b-463c-ba47-985326874c55","full":0.6},"geometry":{"type":"Polygon","coordinates":[[[136.23094,35.81002],[136.23097,35.81002],[136.23107,35.80995],[136.23113,35.80989],[136.2311,35.80981],[136.2309,35.80983],[136.23094,35.81002]]]}},{"type":"Feature","properties":{"pid":"e76f3f6a-c972-4909-b72b-f0fcb4832d56","full":15.4},"geometry":{"type":"Polygon","coordinates":[[[136.22982,35.80929],[136.22997,35.81017],[136.23027,35.81014],[136.23013,35.80926],[136.22982,35.80929]]]}},{"type":"Feature","properties":{"pid":"99a7d6fc-5ebc-4e86-abbc-f31fd0525e02","full":16.8},"geometry":{"type":"Polygon","coordinates":[[[136.23029,35.81013],[136.23061,35.81011],[136.23048,35.80923],[136.23016,35.80926],[136.23029,35.81013]]]}},{"type":"Feature","properties":{"pid":"969df276-a703-4887-9ab6-dd45dcdc1f77","full":16.2},"geometry":{"type":"Polygon","coordinates":[[[136.23062,35.81011],[136.23078,35.8101],[136.23087,35.81008],[136.23092,35.81006],[136.2308,35.8092],[136.23049,35.80923],[136.23062,35.81011]]]}},{"type":"Feature","properties":{"pid":"e41bf7c1-5b5b-4259-9e74-74961462ad1e","full":7.3},"geometry":{"type":"Polygon","coordinates":[[[136.23081,35.80919],[136.23087,35.80962],[136.23119,35.80959],[136.23115,35.80918],[136.23113,35.80917],[136.23081,35.80919]]]}},{"type":"Feature","properties":{"pid":"d779e3a9-93ea-4469-893e-ba4b3bde61ca","full":8.7},"geometry":{"type":"Polygon","coordinates":[[[136.23041,35.80913],[136.23036,35.80887],[136.22978,35.80892],[136.22981,35.80919],[136.23041,35.80913]]]}},{"type":"Feature","properties":{"pid":"06dba17e-a306-4696-8bbe-b5acceef287a","full":16.5},"geometry":{"type":"Polygon","coordinates":[[[136.22996,35.81017],[136.22981,35.8093],[136.22951,35.80932],[136.2295,35.80934],[136.22964,35.81021],[136.22993,35.81019],[136.22996,35.81017]]]}},{"type":"Feature","properties":{"pid":"80b98170-0859-4249-a374-637ab09edb6b","full":17.3},"geometry":{"type":"Polygon","coordinates":[[[136.22963,35.81021],[136.2295,35.80934],[136.22917,35.80937],[136.2293,35.81022],[136.22933,35.81023],[136.22933,35.81024],[136.22963,35.81021]]]}},{"type":"Feature","properties":{"pid":"ceaee21d-e019-48fe-8c8c-dc3e4606c450","full":3.5},"geometry":{"type":"Polygon","coordinates":[[[136.22888,35.80966],[136.22919,35.80964],[136.22915,35.80937],[136.22887,35.8094],[136.22884,35.80941],[136.22888,35.80966]]]}},{"type":"Feature","properties":{"pid":"eb6459ec-7e7d-44b6-b9b3-1c5406c07d03","full":6.1},"geometry":{"type":"Polygon","coordinates":[[[136.22888,35.80979],[136.22882,35.8094],[136.2285,35.80943],[136.22857,35.80982],[136.22888,35.80979]]]}},{"type":"Feature","properties":{"pid":"51726c10-8617-4713-9bef-ab68e8c7dec6","full":10.8},"geometry":{"type":"Polygon","coordinates":[[[136.22981,35.80919],[136.22974,35.80871],[136.22937,35.80857],[136.22948,35.80922],[136.22981,35.80919]]]}},{"type":"Feature","properties":{"pid":"b1b84b9e-e2f0-4feb-8271-e28f9277a376","full":2.6},"geometry":{"type":"Polygon","coordinates":[[[136.23065,35.80911],[136.23062,35.80884],[136.23036,35.80886],[136.23041,35.80913],[136.23065,35.80911]]]}},{"type":"Feature","properties":{"pid":"71e01f71-181e-46ce-90ea-fa232e042a0c","full":2.0},"geometry":{"type":"Polygon","coordinates":[[[136.23063,35.80884],[136.23067,35.80911],[136.23089,35.80909],[136.23086,35.80885],[136.2308,35.80884],[136.23063,35.80884]]]}},{"type":"Feature","properties":{"pid":"d3bc4fe5-72e9-460a-ac20-00e55a6865de","full":21.2},"geometry":{"type":"Polygon","coordinates":[[[136.22543,35.80963],[136.22615,35.80956],[136.22608,35.80912],[136.22544,35.80919],[136.22538,35.80925],[136.22543,35.80963]]]}},{"type":"Feature","properties":{"pid":"2328aa80-7639-44f2-82d4-64b28658300d","full":14.5},"geometry":{"type":"Polygon","coordinates":[[[136.22538,35.80929],[136.22499,35.80932],[136.22499,35.80936],[136.22496,35.80939],[136.22489,35.80941],[136.22464,35.80943],[136.22464,35.80945],[136.22466,35.8097],[136.22469,35.80971],[136.22542,35.80963],[136.22538,35.80929]]]}},{"type":"Feature","properties":{"pid":"fc5ad84b-aa07-48a3-a071-746f24c4d65e","full":28.8},"geometry":{"type":"Polygon","coordinates":[[[136.22574,35.80968],[136.22515,35.80975],[136.22514,35.80976],[136.22523,35.81044],[136.22582,35.81035],[136.22577,35.81002],[136.22574,35.80968]]]}},{"type":"Feature","properties":{"pid":"176e3f5c-3ea8-494e-9a27-b94c811ff8b1","full":7.6},"geometry":{"type":"Polygon","coordinates":[[[136.22583,35.81035],[136.22625,35.81027],[136.22622,35.80997],[136.22578,35.81001],[136.22583,35.81035]]]}},{"type":"Feature","properties":{"pid":"e6a48071-af24-4581-8457-88c945140b8c","full":12.0},"geometry":{"type":"Polygon","coordinates":[[[136.22491,35.81049],[136.22494,35.8105],[136.22522,35.81045],[136.22513,35.80977],[136.22509,35.80977],[136.22485,35.80979],[136.22483,35.8098],[136.22491,35.81049]]]}},{"type":"Feature","properties":{"pid":"b7f52864-5cfa-4261-a669-3e19622cf3d2","full":12.3},"geometry":{"type":"Polygon","coordinates":[[[136.24165,35.81092],[136.24172,35.8103],[136.24141,35.81024],[136.24138,35.81025],[136.24132,35.81089],[136.24165,35.81092]]]}},{"type":"Feature","properties":{"pid":"84756ba5-2720-43e8-a5ac-d43098fa64b5","full":9.1},"geometry":{"type":"Polygon","coordinates":[[[136.24167,35.81092],[136.24183,35.81092],[136.24196,35.81091],[136.24202,35.81036],[136.24192,35.81033],[136.24184,35.81032],[136.24177,35.81031],[136.24173,35.81032],[136.24167,35.81092]]]}},{"type":"Feature","properties":{"pid":"9814f608-9b71-413a-84ea-1b24b3d2e822","full":10.5},"geometry":{"type":"Polygon","coordinates":[[[136.24198,35.81091],[136.24237,35.81088],[136.24242,35.81048],[136.24204,35.81038],[136.24198,35.81091]]]}},{"type":"Feature","properties":{"pid":"70e5d10d-c29e-43e5-b68b-bb9195561ce6","full":10.0},"geometry":{"type":"Polygon","coordinates":[[[136.24281,35.81094],[136.24286,35.81037],[136.24263,35.81044],[136.24247,35.81046],[136.24247,35.8109],[136.24268,35.81093],[136.24281,35.81094]]]}},{"type":"Feature","properties":{"pid":"36474637-d37e-4e70-8347-23921cd6a281","full":11.2},"geometry":{"type":"Polygon","coordinates":[[[136.24282,35.81094],[136.243,35.81093],[136.24315,35.81093],[136.2432,35.81039],[136.24313,35.81035],[136.24307,35.81033],[136.243,35.81032],[136.24293,35.81032],[136.24289,35.81034],[136.24288,35.81036],[136.24282,35.81094]]]}},{"type":"Feature","properties":{"pid":"fd06ed81-58bc-44da-921e-19c9de6bfb02","full":1.9},"geometry":{"type":"Polygon","coordinates":[[[136.24365,35.81097],[136.24369,35.81058],[136.24352,35.81055],[136.24348,35.81095],[136.24365,35.81097]]]}},{"type":"Feature","properties":{"pid":"a9c40389-e9eb-4651-a07c-b54db2ea74dc","full":6.9},"geometry":{"type":"Polygon","coordinates":[[[136.24347,35.81095],[136.24351,35.81055],[136.24343,35.81052],[136.24328,35.81042],[136.24321,35.81039],[136.24317,35.81092],[136.24334,35.81093],[136.24347,35.81095]]]}},{"type":"Feature","properties":{"pid":"9766d0c0-5594-4743-9fee-82cd41db5632","full":0.8},"geometry":{"type":"Polygon","coordinates":[[[136.24366,35.81097],[136.2438,35.81096],[136.24383,35.81059],[136.2437,35.81058],[136.24366,35.81097]]]}},{"type":"Feature","properties":{"pid":"3cbedc4f-b869-4dd9-9416-d61af34ad76e","full":6.9},"geometry":{"type":"Polygon","coordinates":[[[136.24384,35.81096],[136.24401,35.81088],[136.24414,35.81083],[136.24449,35.81079],[136.24446,35.81071],[136.24435,35.81066],[136.24414,35.81061],[136.24399,35.81059],[136.24384,35.81059],[136.24381,35.81096],[136.24384,35.81096]]]}},{"type":"Feature","properties":{"pid":"6cca21d8-488c-4c0e-9050-e8f7baa2fee8","full":12.5},"geometry":{"type":"Polygon","coordinates":[[[136.24129,35.81089],[136.24131,35.81088],[136.24137,35.81024],[136.2413,35.81021],[136.24106,35.81015],[136.24099,35.81086],[136.24129,35.81089]]]}},{"type":"Feature","properties":{"pid":"31983c87-43fa-4a61-aa89-f9050e79460a","full":13.8},"geometry":{"type":"Polygon","coordinates":[[[136.24097,35.81086],[136.24104,35.81014],[136.24096,35.81011],[136.24074,35.81],[136.24066,35.81083],[136.24097,35.81086]]]}},{"type":"Feature","properties":{"pid":"9cd7898b-dda1-4c43-a18a-edfd0c3d7d7a","full":6.6},"geometry":{"type":"Polygon","coordinates":[[[136.24064,35.81084],[136.24072,35.80999],[136.24067,35.80997],[136.24053,35.80995],[136.24044,35.81082],[136.24046,35.81083],[136.24064,35.81084]]]}},{"type":"Feature","properties":{"pid":"885e17e2-dfaf-4585-aaae-732e716b9aac","full":8.1},"geometry":{"type":"Polygon","coordinates":[[[136.24043,35.81083],[136.24052,35.80994],[136.24044,35.80992],[136.2403,35.80993],[136.24022,35.81081],[136.2404,35.81083],[136.24043,35.81083]]]}},{"type":"Feature","properties":{"pid":"9bf439f6-c2bc-410d-9dcc-c24de9fd86a8","full":6.7},"geometry":{"type":"Polygon","coordinates":[[[136.2402,35.81081],[136.24028,35.80992],[136.24008,35.80999],[136.24,35.81079],[136.2402,35.81081]]]}},{"type":"Feature","properties":{"pid":"73fc4977-3a00-4806-9aaf-043aba5d354f","full":6.1},"geometry":{"type":"Polygon","coordinates":[[[136.24005,35.80999],[136.23985,35.81001],[136.23978,35.81077],[136.23997,35.81079],[136.24005,35.80999]]]}},{"type":"Feature","properties":{"pid":"a85592ef-a034-497a-a860-877d89bd329e","full":2.5},"geometry":{"type":"Polygon","coordinates":[[[136.23975,35.81077],[136.23983,35.81001],[136.23968,35.81001],[136.23961,35.81077],[136.23968,35.81078],[136.23975,35.81077]]]}},{"type":"Feature","properties":{"pid":"d14f096a-a8c0-43b8-9964-607c7d03cba6","full":7.2},"geometry":{"type":"Polygon","coordinates":[[[136.2396,35.81],[136.23939,35.80995],[136.23937,35.81012],[136.23933,35.81074],[136.23934,35.81076],[136.23952,35.81077],[136.2396,35.81]]]}},{"type":"Feature","properties":{"pid":"d90125b1-3d4c-40d5-a7c0-809546e3e9af","full":7.5},"geometry":{"type":"Polygon","coordinates":[[[136.23903,35.81075],[136.23911,35.80988],[136.23892,35.80982],[136.23882,35.81074],[136.23903,35.81075]]]}},{"type":"Feature","properties":{"pid":"8317fde6-002c-44f4-9c99-09d1b9359926","full":6.3},"geometry":{"type":"Polygon","coordinates":[[[136.23912,35.8099],[136.23905,35.81074],[136.2392,35.81076],[136.23924,35.81075],[136.23932,35.80997],[136.23931,35.80994],[136.23912,35.8099]]]}},{"type":"Feature","properties":{"pid":"341eb35b-b0e9-46b7-b8c9-4866cd1e6732","full":22.9},"geometry":{"type":"Polygon","coordinates":[[[136.23849,35.81073],[136.23859,35.80968],[136.23849,35.80963],[136.23841,35.80962],[136.23825,35.80963],[136.23816,35.8107],[136.23849,35.81073]]]}},{"type":"Feature","properties":{"pid":"603ccefc-0a3a-4e7e-9259-63a37bac0849","full":17.9},"geometry":{"type":"Polygon","coordinates":[[[136.2388,35.81074],[136.2389,35.80982],[136.23873,35.80975],[136.23865,35.8097],[136.2386,35.80969],[136.2385,35.81072],[136.2388,35.81074]]]}},{"type":"Feature","properties":{"pid":"52fd193a-683a-4808-a43a-82253eda8fef","full":13.6},"geometry":{"type":"Polygon","coordinates":[[[136.23782,35.81059],[136.23789,35.80972],[136.23783,35.80974],[136.23761,35.80978],[136.23757,35.8098],[136.23752,35.81048],[136.23775,35.81056],[136.23782,35.81059]]]}},{"type":"Feature","properties":{"pid":"10127629-3c21-475a-a0d4-7196c3c125c9","full":19.0},"geometry":{"type":"Polygon","coordinates":[[[136.23814,35.81071],[136.23823,35.80963],[136.23805,35.80965],[136.23791,35.80971],[136.23783,35.8106],[136.23806,35.81069],[136.23814,35.81071]]]}},{"type":"Feature","properties":{"pid":"ec38f9f9-b0f6-402a-be31-e8f2f9796641","full":9.3},"geometry":{"type":"Polygon","coordinates":[[[136.23717,35.81036],[136.23722,35.80986],[136.2368,35.80991],[136.23679,35.8102],[136.2368,35.81024],[136.23688,35.81024],[136.23713,35.81036],[136.23717,35.81036]]]}},{"type":"Feature","properties":{"pid":"2b76e0ea-974f-46d0-b907-0a3de2a886db","full":10.7},"geometry":{"type":"Polygon","coordinates":[[[136.23751,35.81047],[136.23756,35.8098],[136.23736,35.80985],[136.23724,35.80986],[136.23718,35.81038],[136.23747,35.81046],[136.23751,35.81047]]]}},{"type":"Feature","properties":{"pid":"62f9031b-9a18-4e93-9846-6fb926f7d526","full":1.6},"geometry":{"type":"Polygon","coordinates":[[[136.23713,35.81091],[136.23731,35.81094],[136.23734,35.81064],[136.23725,35.8106],[136.23716,35.81059],[136.23713,35.81091]]]}},{"type":"Feature","properties":{"pid":"66a895d6-b4e7-479a-9cb5-0a33fb0a06ae","full":6.2},"geometry":{"type":"Polygon","coordinates":[[[136.23712,35.81091],[136.23715,35.8106],[136.23707,35.81057],[136.23689,35.81049],[136.23684,35.81048],[136.23679,35.81087],[136.23689,35.8109],[136.2371,35.81092],[136.23712,35.81091]]]}},{"type":"Feature","properties":{"pid":"667a6b74-2e8a-450d-8bb8-7854e6328b9c","full":7.7},"geometry":{"type":"Polygon","coordinates":[[[136.23679,35.81086],[136.23683,35.81047],[136.23669,35.81041],[136.23651,35.81043],[136.23652,35.81044],[136.23646,35.81093],[136.23649,35.81093],[136.2367,35.81087],[136.23679,35.81086]]]}},{"type":"Feature","properties":{"pid":"98eaab9e-b09d-4309-85e5-6b9de5e448b7","full":5.2},"geometry":{"type":"Polygon","coordinates":[[[136.23647,35.81046],[136.23616,35.81072],[136.23616,35.81074],[136.23624,35.81099],[136.23626,35.81101],[136.23645,35.81095],[136.2365,35.8105],[136.23647,35.81046]]]}},{"type":"Feature","properties":{"pid":"53d2e247-47bb-4d7c-8efc-17e4ec2c8aa0","full":4.0},"geometry":{"type":"Polygon","coordinates":[[[136.2364,35.81025],[136.23657,35.81022],[136.23672,35.81021],[136.23676,35.80993],[136.23673,35.80992],[136.23647,35.80999],[136.23641,35.81],[136.23641,35.81001],[136.23639,35.81002],[136.2364,35.81025]]]}},{"type":"Feature","properties":{"pid":"09ca245f-e909-458c-aebc-de51d0e66fa0","full":5.2},"geometry":{"type":"Polygon","coordinates":[[[136.23624,35.80992],[136.23626,35.80993],[136.23638,35.80991],[136.23659,35.80984],[136.2367,35.80978],[136.23673,35.80969],[136.23649,35.80962],[136.23633,35.80964],[136.23624,35.80961],[136.23624,35.80992]]]}},{"type":"Feature","properties":{"pid":"d28eccd9-1dfa-4362-b85a-7f13fa6f8345","full":5.2},"geometry":{"type":"Polygon","coordinates":[[[136.23476,35.81067],[136.23492,35.81074],[136.23505,35.81077],[136.2351,35.81042],[136.23507,35.8104],[136.2348,35.81033],[136.23476,35.81067]]]}},{"type":"Feature","properties":{"pid":"c8e6ba75-5277-41bd-9272-1c39b493cd7e","full":4.1},"geometry":{"type":"Polygon","coordinates":[[[136.23445,35.81049],[136.23471,35.81063],[136.23474,35.81063],[136.23478,35.81031],[136.23452,35.81023],[136.23448,35.81023],[136.23445,35.81049]]]}},{"type":"Feature","properties":{"pid":"cf5097d6-d926-4c90-ab86-f704fd3ea86a","full":1.9},"geometry":{"type":"Polygon","coordinates":[[[136.2346,35.80988],[136.23447,35.80987],[136.2344,35.81009],[136.23441,35.81012],[136.23446,35.81012],[136.23459,35.81015],[136.23461,35.81018],[136.23468,35.81019],[136.23466,35.81],[136.23462,35.80993],[136.2346,35.80988]]]}},{"type":"Feature","properties":{"pid":"737cbdbb-83ab-4fe1-b50a-db216091e17d","full":3.3},"geometry":{"type":"Polygon","coordinates":[[[136.23447,35.81021],[136.2342,35.81017],[136.23409,35.81014],[136.23403,35.81023],[136.23403,35.81026],[136.23441,35.81048],[136.23444,35.81048],[136.23447,35.81021]]]}},{"type":"Feature","properties":{"pid":"0200c8a3-2b59-4645-aa86-4ad5f3fd85a5","full":5.1},"geometry":{"type":"Polygon","coordinates":[[[136.23508,35.81078],[136.23515,35.81078],[136.23529,35.81077],[136.23539,35.81074],[136.23542,35.81044],[136.23541,35.81043],[136.23514,35.81041],[136.23513,35.81042],[136.23508,35.81078]]]}},{"type":"Feature","properties":{"pid":"499516c9-d5f0-4e26-8232-afdc5c28c9a9","full":4.4},"geometry":{"type":"Polygon","coordinates":[[[136.23541,35.81074],[136.23547,35.81074],[136.2358,35.81064],[136.23582,35.8106],[136.23581,35.81048],[136.23579,35.81046],[136.23558,35.81043],[136.23545,35.81043],[136.23541,35.81074]]]}},{"type":"Feature","properties":{"pid":"ad5ab487-8f51-4e50-b4ea-74eb7082fb7b","full":0.7},"geometry":{"type":"Polygon","coordinates":[[[136.23745,35.81101],[136.23749,35.81068],[136.23748,35.81067],[136.23736,35.81064],[136.23734,35.81066],[136.23732,35.81095],[136.23734,35.81096],[136.23745,35.81101]]]}},{"type":"Feature","properties":{"pid":"6d6eccb8-9e40-4d74-853d-034de0fa4a5e","full":2.0},"geometry":{"type":"Polygon","coordinates":[[[136.23981,35.81116],[136.23982,35.81096],[136.23944,35.81096],[136.23943,35.81108],[136.23957,35.81111],[136.23973,35.81116],[136.23981,35.81116]]]}},{"type":"Feature","properties":{"pid":"afacda9e-12a8-456b-8e54-155572dc476d","full":3.7},"geometry":{"type":"Polygon","coordinates":[[[136.24019,35.81125],[136.24023,35.81101],[136.23983,35.81099],[136.23982,35.81118],[136.24015,35.81125],[136.24019,35.81125]]]}},{"type":"Feature","properties":{"pid":"a5c89def-03cf-4c73-b5e0-4566f75cb215","full":1.1},"geometry":{"type":"Polygon","coordinates":[[[136.24023,35.81119],[136.24025,35.81119],[136.24025,35.81124],[136.24042,35.81123],[136.24045,35.81102],[136.24024,35.81101],[136.24023,35.81119]]]}},{"type":"Feature","properties":{"pid":"39fc6dbf-bd62-459f-b5be-1f6747507a4b","full":2.7},"geometry":{"type":"Polygon","coordinates":[[[136.24085,35.81104],[136.24045,35.81102],[136.24043,35.81122],[136.24084,35.8112],[136.24085,35.81104]]]}},{"type":"Feature","properties":{"pid":"ba559eb0-31ec-4963-a5ed-fa49d3f2eb8f","full":2.9},"geometry":{"type":"Polygon","coordinates":[[[136.24139,35.81117],[136.24137,35.81105],[136.24116,35.81105],[136.24086,35.81104],[136.24085,35.8112],[136.24106,35.81123],[136.24139,35.81117]]]}},{"type":"Feature","properties":{"pid":"cedcfc7d-cfb5-41b7-864e-82e5b1e633be","full":4.5},"geometry":{"type":"Polygon","coordinates":[[[136.23474,35.8197],[136.23482,35.81969],[136.23496,35.81964],[136.23503,35.81946],[136.2349,35.81936],[136.23485,35.81927],[136.23467,35.81929],[136.23474,35.8197]]]}},{"type":"Feature","properties":{"pid":"7866218b-2c86-4d5a-b3f5-9d9fc0b247dd","full":3.2},"geometry":{"type":"Polygon","coordinates":[[[136.23467,35.81929],[136.23445,35.81932],[136.2345,35.81967],[136.23464,35.81967],[136.23474,35.8197],[136.23467,35.81929]]]}},{"type":"Feature","properties":{"pid":"52e3db50-fa93-4239-bb83-4c76084c997b","full":11.3},"geometry":{"type":"Polygon","coordinates":[[[136.23448,35.81967],[136.23443,35.81932],[136.23392,35.81943],[136.234,35.81978],[136.23405,35.8198],[136.23442,35.8197],[136.23448,35.81967]]]}},{"type":"Feature","properties":{"pid":"a80faf05-c56e-40e4-9e4e-9f8eaf10a3f6","full":7.8},"geometry":{"type":"Polygon","coordinates":[[[136.23198,35.81959],[136.23269,35.81964],[136.23301,35.81948],[136.233,35.81943],[136.23215,35.81941],[136.23205,35.81947],[136.23199,35.81953],[136.23198,35.81956],[136.23198,35.81959]]]}},{"type":"Feature","properties":{"pid":"3bc3fefa-3390-4080-bc95-0d5dfe7533c8","full":6.2},"geometry":{"type":"Polygon","coordinates":[[[136.23319,35.81939],[136.23328,35.81936],[136.23329,35.81926],[136.23329,35.81921],[136.23274,35.81918],[136.23236,35.81932],[136.23223,35.81934],[136.23221,35.81937],[136.23319,35.81939]]]}},{"type":"Feature","properties":{"pid":"ac3b864a-b10c-41f5-9437-56798db20485","full":16.6},"geometry":{"type":"Polygon","coordinates":[[[136.23349,35.81999],[136.23375,35.81987],[136.23395,35.8198],[136.23386,35.81942],[136.23371,35.81943],[136.23338,35.81952],[136.23323,35.81959],[136.23349,35.81999]]]}},{"type":"Feature","properties":{"pid":"af09a6ec-1960-41f6-a9b6-2cf3cf16ee35","full":14.8},"geometry":{"type":"Polygon","coordinates":[[[136.2331,35.82021],[136.23345,35.82],[136.23318,35.8196],[136.23309,35.81964],[136.23298,35.8197],[136.23287,35.81979],[136.23275,35.81993],[136.2331,35.82021]]]}},{"type":"Feature","properties":{"pid":"287f1618-767f-4c3c-b53b-16db1970608d","full":7.8},"geometry":{"type":"Polygon","coordinates":[[[136.23304,35.82024],[136.23273,35.81999],[136.2324,35.82057],[136.23248,35.82059],[136.23279,35.82043],[136.23304,35.82024]]]}},{"type":"Feature","properties":{"pid":"b987fe72-8849-4dfe-be79-66257e21217d","full":8.3},"geometry":{"type":"Polygon","coordinates":[[[136.23196,35.81964],[136.23189,35.81979],[136.23194,35.81985],[136.23259,35.81991],[136.23276,35.81973],[136.23272,35.8197],[136.23196,35.81964]]]}},{"type":"Feature","properties":{"pid":"d196bcba-245b-4c21-bca0-6f8b2e21c4d7","full":14.7},"geometry":{"type":"Polygon","coordinates":[[[136.23176,35.82089],[136.23198,35.8208],[136.23201,35.82076],[136.23154,35.81999],[136.23129,35.82012],[136.23176,35.82089]]]}},{"type":"Feature","properties":{"pid":"681b7c68-d8e1-4878-8119-895249201a06","full":14.1},"geometry":{"type":"Polygon","coordinates":[[[136.23181,35.81983],[136.23178,35.81983],[136.23168,35.81989],[136.23156,35.81998],[136.23204,35.82073],[136.23217,35.82052],[136.23223,35.82047],[136.23181,35.81983]]]}},{"type":"Feature","properties":{"pid":"c20adfc6-1229-4b20-b1b9-e4d0b8b662c5","full":8.3},"geometry":{"type":"Polygon","coordinates":[[[136.23225,35.82045],[136.23253,35.81999],[136.23252,35.81996],[136.23193,35.81992],[136.23191,35.81992],[136.23225,35.82045]]]}},{"type":"Feature","properties":{"pid":"037051b9-7875-478f-898e-eca0f7f35e73","full":13.6},"geometry":{"type":"Polygon","coordinates":[[[136.23148,35.82101],[136.23173,35.82089],[136.23126,35.82014],[136.231,35.82025],[136.23148,35.82101]]]}},{"type":"Feature","properties":{"pid":"ebd4a8c6-9b4b-4328-89f5-816f57482c87","full":14.7},"geometry":{"type":"Polygon","coordinates":[[[136.2328,35.82419],[136.23307,35.82345],[136.23299,35.82338],[136.23279,35.82324],[136.23254,35.82398],[136.23264,35.82405],[136.2328,35.82419]]]}},{"type":"Feature","properties":{"pid":"35443f35-5f19-48d6-a262-fae7c6d54a09","full":16.8},"geometry":{"type":"Polygon","coordinates":[[[136.23253,35.82398],[136.23278,35.82324],[136.23274,35.82322],[136.23255,35.82323],[136.2324,35.82319],[136.23219,35.82383],[136.2322,35.82385],[136.23225,35.82389],[136.23242,35.82393],[136.23253,35.82398]]]}},{"type":"Feature","properties":{"pid":"e7d62717-e327-4021-b09e-f6b4ac9d1ed3","full":10.7},"geometry":{"type":"Polygon","coordinates":[[[136.23185,35.82374],[136.23212,35.8238],[136.23234,35.82317],[136.23231,35.82315],[136.23207,35.82307],[136.23205,35.8231],[136.23185,35.82374]]]}},{"type":"Feature","properties":{"pid":"f82aa2ac-a3a7-4d62-ac3f-5fe38730d888","full":11.6},"geometry":{"type":"Polygon","coordinates":[[[136.23149,35.82365],[136.2318,35.8237],[136.23181,35.82369],[136.23204,35.82307],[136.23183,35.82305],[136.23171,35.82306],[136.23149,35.82365]]]}},{"type":"Feature","properties":{"pid":"48f49e1b-0388-48eb-989e-8a8a1f095307","full":9.8},"geometry":{"type":"Polygon","coordinates":[[[136.23115,35.82364],[136.23148,35.82364],[136.23168,35.82305],[136.2316,35.82303],[136.23143,35.82296],[136.23129,35.82333],[136.23119,35.82356],[136.23115,35.82364]]]}}],"precision":5}