{"type":"FeatureCollection","features":[{"type":"Feature","properties":{"pid":"7a17875b-a429-4189-8712-f5c0c405bbe7"},"geometry":{"type":"Polygon","coordinates":[[[136.41276778210573,35.92348081359264],[136.41321101403878,35.923491251188736],[136.4132429629672,35.92345689893607],[136.41300672554712,35.92337390487426],[136.41277371966643,35.92338244268188],[136.41276778210573,35.92348081359264]]]}},{"type":"Feature","properties":{"pid":"3e2279ff-bda3-4f99-add4-bd7b3d66e351"},"geometry":{"type":"Polygon","coordinates":[[[136.4121607305701,35.923138428472576],[136.41217211670852,35.92323343686594],[136.41231859808406,35.923201996039765],[136.41231404574424,35.923116762296324],[136.41223031708086,35.92311705048135],[136.4121607305701,35.923138428472576]]]}},{"type":"Feature","properties":{"pid":"4fa9b98e-bb78-4f35-b4ac-c0c7e4bbc16a"},"geometry":{"type":"Polygon","coordinates":[[[136.4118524878644,35.92318362106124],[136.41184967719454,35.92337276874589],[136.4120452375954,35.923283633484075],[136.4120270348749,35.923155320231146],[136.4118524878644,35.92318362106124]]]}},{"type":"Feature","properties":{"pid":"35e8bfab-a1f0-42d2-98bb-0ae8e420c9dd"},"geometry":{"type":"Polygon","coordinates":[[[136.41148090398323,35.923236169340925],[136.4114722532279,35.92338987512903],[136.4117225658672,35.923415214458394],[136.4117268349596,35.923210304234956],[136.41162577696818,35.923233185728485],[136.41148090398323,35.923236169340925]]]}},{"type":"Feature","properties":{"pid":"8485b1ae-9543-43d8-a062-23027cd71733"},"geometry":{"type":"Polygon","coordinates":[[[136.41115432651586,35.92338487149179],[136.4113372587879,35.92338894837975],[136.4113455775048,35.92323187433651],[136.41115534103702,35.92321083668963],[136.41115432651586,35.92338487149179]]]}},{"type":"Feature","properties":{"pid":"a16af771-8489-49e4-bac2-8b8136995a06"},"geometry":{"type":"Polygon","coordinates":[[[136.4108409554273,35.92323768913998],[136.41084338163822,35.92337076842825],[136.41102826340955,35.92337900943326],[136.41102646347105,35.92320274892354],[136.4108409554273,35.92323768913998]]]}},{"type":"Feature","properties":{"pid":"aaa0e409-5579-4e77-825a-928701b06c15"},"geometry":{"type":"Polygon","coordinates":[[[136.41040260540956,35.92339873960743],[136.4107085202491,35.923373222577034],[136.41070469305657,35.92329318430753],[136.41045787623887,35.92338286217709],[136.41040260540956,35.92339873960743]]]}},{"type":"Feature","properties":{"pid":"9f07354d-0e84-48d8-928a-d192eace17e8"},"geometry":{"type":"Polygon","coordinates":[[[136.4101410194755,35.922338050445916],[136.41016426210507,35.92250903806621],[136.41025913295547,35.92262656478116],[136.41043609860378,35.922572586710814],[136.41037035367893,35.92236153622598],[136.41028897642252,35.92237576865105],[136.41021424895106,35.922352337033175],[136.41015550077492,35.92231415803093],[136.4101410194755,35.922338050445916]]]}},{"type":"Feature","properties":{"pid":"a2fc46a5-e27a-4dd7-9530-1db9a29dac34"},"geometry":{"type":"Polygon","coordinates":[[[136.4097403365808,35.922107682438636],[136.40980426765864,35.92210033303579],[136.40982251822322,35.921999507111316],[136.40975180708824,35.922005383250706],[136.4097403365808,35.922107682438636]]]}},{"type":"Feature","properties":{"pid":"8644e8f8-8145-4be5-a839-0961f5fd1c95"},"geometry":{"type":"Polygon","coordinates":[[[136.40974406335377,35.92248775718794],[136.40974130102845,35.922344961767116],[136.40976358188186,35.92220478897739],[136.4097102205963,35.922211311323586],[136.40969075537166,35.922300079616896],[136.40974406335377,35.92248775718794]]]}},{"type":"Feature","properties":{"pid":"c28c4bc2-bad3-4a12-926d-875e0e7774f2"},"geometry":{"type":"Polygon","coordinates":[[[136.41004468171766,35.92349015878621],[136.4102140177208,35.923458943137554],[136.41019996098748,35.9233006347237],[136.41005595987974,35.923331899626795],[136.41004468171766,35.92349015878621]]]}}]}