{"type":"FeatureCollection","features":[{"type":"Feature","properties":{"pid":"6230bf6b-b2a0-421c-b54b-d33fbedd0431","full":24.1},"geometry":{"type":"Polygon","coordinates":[[[135.82377,35.44594],[135.82423,35.4457],[135.82441,35.44569],[135.82443,35.44568],[135.82444,35.44562],[135.82451,35.44543],[135.82449,35.44541],[135.82435,35.44538],[135.82412,35.44541],[135.82389,35.44545],[135.82373,35.44551],[135.8234,35.44566],[135.82326,35.44574],[135.82316,35.4458],[135.82318,35.44583],[135.82322,35.44584],[135.82336,35.44588],[135.82341,35.44588],[135.8235,35.44577],[135.82363,35.44585],[135.82374,35.44594],[135.82377,35.44594]]]}},{"type":"Feature","properties":{"pid":"111bb2e8-3fd9-493b-b56e-0641456a9b47","full":1.2},"geometry":{"type":"Polygon","coordinates":[[[135.82496,35.44563],[135.82512,35.44563],[135.82514,35.44559],[135.82455,35.44542],[135.82449,35.44559],[135.82474,35.4456],[135.82496,35.44563]]]}},{"type":"Feature","properties":{"pid":"bf6f1c7d-79f9-411d-bc87-65a10c748ce8","full":1.3},"geometry":{"type":"Polygon","coordinates":[[[135.8231,35.44593],[135.82299,35.44587],[135.8229,35.44597],[135.82279,35.44614],[135.82273,35.44629],[135.82287,35.44632],[135.82292,35.44621],[135.82297,35.44611],[135.8231,35.44593]]]}},{"type":"Feature","properties":{"pid":"b75de3d6-1034-45f5-b6cb-99cd3d8f9348","full":14.7},"geometry":{"type":"Polygon","coordinates":[[[135.82272,35.44664],[135.82258,35.44662],[135.82256,35.44663],[135.82241,35.44701],[135.82254,35.44719],[135.82267,35.4472],[135.82296,35.44698],[135.82306,35.44688],[135.82306,35.44686],[135.82303,35.44684],[135.82272,35.44664]]]}},{"type":"Feature","properties":{"pid":"44394231-8a4b-4bfa-8941-2a0f13cffe41","full":25.3},"geometry":{"type":"Polygon","coordinates":[[[135.81267,35.45266],[135.81266,35.45262],[135.81256,35.45264],[135.81225,35.45272],[135.81196,35.45282],[135.81176,35.45291],[135.8117,35.45295],[135.81156,35.45312],[135.81152,35.45316],[135.81147,35.45322],[135.81172,35.4534],[135.81178,35.45342],[135.81184,35.45338],[135.8119,35.45332],[135.81219,35.45313],[135.81234,35.45301],[135.81252,35.45283],[135.81259,35.45273],[135.81267,35.45266]]]}},{"type":"Feature","properties":{"pid":"74b8810e-96aa-4da6-9485-2078fdab3109","full":21.9},"geometry":{"type":"Polygon","coordinates":[[[135.81096,35.45348],[135.81095,35.45347],[135.81079,35.45353],[135.81065,35.45357],[135.8105,35.4536],[135.81012,35.45365],[135.8102,35.45414],[135.81045,35.45413],[135.81057,35.45411],[135.81063,35.45408],[135.81066,35.45405],[135.81078,35.45386],[135.81096,35.45348]]]}},{"type":"Feature","properties":{"pid":"af1d86b0-6afb-422b-ab57-334264643874","full":11.4},"geometry":{"type":"Polygon","coordinates":[[[135.81174,35.45348],[135.81162,35.45339],[135.81142,35.45326],[135.81137,35.45329],[135.8113,35.45337],[135.81123,35.45347],[135.81095,35.45406],[135.81099,35.45407],[135.81104,35.45406],[135.81111,35.45397],[135.81116,35.45394],[135.81135,35.45374],[135.81143,35.45369],[135.81153,35.45367],[135.81157,35.45363],[135.81162,35.45358],[135.81163,35.45356],[135.81174,35.45348]]]}},{"type":"Feature","properties":{"pid":"ae2777ac-c8b7-419d-b21c-e04e78bb3dd3","full":18.9},"geometry":{"type":"Polygon","coordinates":[[[135.81009,35.45411],[135.81001,35.45368],[135.80925,35.45375],[135.80906,35.45374],[135.809,35.45376],[135.80942,35.454],[135.80948,35.45403],[135.80976,35.45412],[135.80992,35.45413],[135.81006,35.45413],[135.81009,35.45411]]]}},{"type":"Feature","properties":{"pid":"7c6f2233-fc15-4ea9-9707-ffde5612bea5","full":0.6},"geometry":{"type":"Polygon","coordinates":[[[135.80678,35.45596],[135.80697,35.45593],[135.80688,35.45573],[135.80682,35.45573],[135.80672,35.4559],[135.80673,35.45593],[135.80677,35.45593],[135.80678,35.45596]]]}},{"type":"Feature","properties":{"pid":"e3316085-8a93-4fb4-85a2-21ae707e7acf","full":1.5},"geometry":{"type":"Polygon","coordinates":[[[135.80697,35.45642],[135.807,35.45641],[135.80697,35.45596],[135.80675,35.45599],[135.80676,35.45605],[135.80691,35.45634],[135.80697,35.45642]]]}},{"type":"Feature","properties":{"pid":"38023e73-7ff2-4a57-92d8-6f36fc01567e","full":2.9},"geometry":{"type":"Polygon","coordinates":[[[135.80651,35.45702],[135.80689,35.45699],[135.80679,35.45678],[135.80648,35.4568],[135.80651,35.45702]]]}},{"type":"Feature","properties":{"pid":"5d1c89bc-c0f1-4687-afaf-b6fe5c7e9ce8","full":1.2},"geometry":{"type":"Polygon","coordinates":[[[135.80649,35.45678],[135.8068,35.45675],[135.80673,35.45659],[135.80648,35.45664],[135.80649,35.45678]]]}},{"type":"Feature","properties":{"pid":"41059586-e1c7-4998-9247-96a8bff1c95d","full":0.8},"geometry":{"type":"Polygon","coordinates":[[[135.80648,35.45662],[135.8067,35.45658],[135.80671,35.45656],[135.80666,35.45644],[135.80644,35.45647],[135.80645,35.45659],[135.80647,35.45659],[135.80648,35.45662]]]}},{"type":"Feature","properties":{"pid":"9f4bc316-3fe7-464a-b7f8-4e480e0e1e7a","full":0.6},"geometry":{"type":"Polygon","coordinates":[[[135.81522,35.44968],[135.81526,35.44962],[135.81535,35.44953],[135.81521,35.44941],[135.81516,35.44949],[135.8151,35.44958],[135.81522,35.44968]]]}},{"type":"Feature","properties":{"pid":"70db315a-73b0-4437-9399-016c814158cb","full":9.5},"geometry":{"type":"Polygon","coordinates":[[[135.81943,35.44759],[135.81941,35.44758],[135.81923,35.4476],[135.81907,35.44763],[135.81885,35.4477],[135.81878,35.44774],[135.81872,35.44779],[135.81871,35.44782],[135.81869,35.44792],[135.81863,35.44808],[135.81868,35.44812],[135.81879,35.4481],[135.81884,35.44808],[135.819,35.44791],[135.81912,35.44784],[135.81921,35.4478],[135.81943,35.44766],[135.81945,35.44764],[135.81943,35.44759]]]}},{"type":"Feature","properties":{"pid":"aba0c12f-323f-4dbe-8fd2-dae595cc47c2","full":1.7},"geometry":{"type":"Polygon","coordinates":[[[135.81969,35.44771],[135.81961,35.4477],[135.81955,35.44771],[135.81958,35.44797],[135.81983,35.44792],[135.81978,35.44785],[135.81982,35.44778],[135.81983,35.44773],[135.81969,35.44771]]]}},{"type":"Feature","properties":{"pid":"6233fd00-394d-4c1e-81ec-4754d1d4e6b5","full":0.7},"geometry":{"type":"Polygon","coordinates":[[[135.81985,35.44793],[135.82,35.44793],[135.82001,35.44776],[135.81986,35.44773],[135.81984,35.44779],[135.8198,35.44785],[135.81984,35.44791],[135.81985,35.44793]]]}},{"type":"Feature","properties":{"pid":"1cb42d43-a50d-4151-b3cd-5b1fcdcd2c92","full":2.1},"geometry":{"type":"Polygon","coordinates":[[[135.82048,35.44743],[135.82045,35.44723],[135.82037,35.44722],[135.81974,35.44732],[135.81975,35.44736],[135.81996,35.44737],[135.82018,35.44738],[135.82048,35.44743]]]}},{"type":"Feature","properties":{"pid":"c135851b-aec3-4a57-837f-270638a21c53","full":0.6},"geometry":{"type":"Polygon","coordinates":[[[135.82174,35.44738],[135.82188,35.44729],[135.82175,35.44719],[135.82171,35.44719],[135.82157,35.44726],[135.82174,35.44738]]]}},{"type":"Feature","properties":{"pid":"6b1075ec-6159-4d86-92e4-5b628a77090f","full":1.7},"geometry":{"type":"Polygon","coordinates":[[[135.81581,35.4492],[135.81592,35.44915],[135.81599,35.44911],[135.81603,35.44906],[135.81588,35.44893],[135.81566,35.44907],[135.81581,35.4492]]]}},{"type":"Feature","properties":{"pid":"045710d6-c3d4-4e28-87d4-c4032125bbc9","full":1.5},"geometry":{"type":"Polygon","coordinates":[[[135.81558,35.44936],[135.81578,35.44921],[135.81563,35.44909],[135.81542,35.44922],[135.81558,35.44936]]]}},{"type":"Feature","properties":{"pid":"07c025ed-9b9c-4ffc-b1b6-59e813c0594c","full":1.6},"geometry":{"type":"Polygon","coordinates":[[[135.81537,35.44952],[135.81557,35.44937],[135.81541,35.44923],[135.81531,35.44931],[135.81522,35.4494],[135.81537,35.44952]]]}}],"precision":5}