{"type":"FeatureCollection","features":[{"type":"Feature","properties":{"pid":"14fcafbb-9e11-4727-96b3-f7dc24641256","full":0.5},"geometry":{"type":"Polygon","coordinates":[[[136.10007,36.01234],[136.09994,36.01228],[136.09992,36.01228],[136.09984,36.01243],[136.09998,36.01251],[136.10007,36.01234]]]}},{"type":"Feature","properties":{"pid":"78f0374f-0b83-4365-a280-100263061d68","full":1.6},"geometry":{"type":"Polygon","coordinates":[[[136.09989,36.01226],[136.09971,36.01216],[136.09955,36.01236],[136.09961,36.01239],[136.09978,36.01243],[136.09989,36.01226]]]}},{"type":"Feature","properties":{"pid":"705d8faf-1d3a-4d19-8712-92253024f2c2","full":1.7},"geometry":{"type":"Polygon","coordinates":[[[136.09939,36.01235],[136.0995,36.01237],[136.0997,36.01215],[136.09959,36.01209],[136.09953,36.01207],[136.09936,36.01225],[136.09932,36.01231],[136.09935,36.01234],[136.09939,36.01235]]]}},{"type":"Feature","properties":{"pid":"b140a589-da77-4657-b142-ed2d7a8d732d","full":0.9},"geometry":{"type":"Polygon","coordinates":[[[136.09941,36.01191],[136.09933,36.0118],[136.09929,36.0118],[136.09916,36.01193],[136.09912,36.01206],[136.0991,36.01216],[136.09915,36.01216],[136.09941,36.01191]]]}},{"type":"Feature","properties":{"pid":"49cc9c36-7156-466e-addd-680d4de977ba","full":0.7},"geometry":{"type":"Polygon","coordinates":[[[136.09947,36.01197],[136.09942,36.01195],[136.09917,36.01219],[136.09916,36.01221],[136.09917,36.01223],[136.0992,36.01226],[136.09921,36.01229],[136.09925,36.0123],[136.0995,36.01204],[136.09947,36.01197]]]}},{"type":"Feature","properties":{"pid":"416e7971-7f03-4a72-b68f-9b38194fb802","full":1.4},"geometry":{"type":"Polygon","coordinates":[[[136.09926,36.01168],[136.09921,36.01155],[136.09896,36.01181],[136.09912,36.01191],[136.09926,36.01176],[136.09926,36.01168]]]}},{"type":"Feature","properties":{"pid":"7bce9b41-24cf-4269-bced-fe31419f500d","full":2.4},"geometry":{"type":"Polygon","coordinates":[[[136.0992,36.01145],[136.09916,36.01138],[136.09912,36.01139],[136.0988,36.01168],[136.09882,36.0117],[136.09891,36.01178],[136.09894,36.01179],[136.0992,36.01155],[136.09919,36.0115],[136.0992,36.01145]]]}},{"type":"Feature","properties":{"pid":"5ece7257-f1d0-4713-a906-19b0e7b7bac4","full":1.4},"geometry":{"type":"Polygon","coordinates":[[[136.09913,36.01122],[136.09902,36.01122],[136.09867,36.01153],[136.09879,36.01162],[136.09915,36.01128],[136.09913,36.01122]]]}},{"type":"Feature","properties":{"pid":"3d898b69-4548-4b63-bae6-5e304f652c6b","full":4.4},"geometry":{"type":"Polygon","coordinates":[[[136.09857,36.01112],[136.0985,36.01109],[136.09829,36.01114],[136.09824,36.01117],[136.09826,36.01125],[136.09827,36.01128],[136.09829,36.01133],[136.09834,36.01139],[136.09841,36.0114],[136.0985,36.01139],[136.09871,36.01121],[136.09857,36.01112]]]}},{"type":"Feature","properties":{"pid":"024269c8-a2c7-46b3-a8a7-f4f3d110b609","full":1.1},"geometry":{"type":"Polygon","coordinates":[[[136.09329,36.00922],[136.09341,36.00916],[136.0934,36.00911],[136.09324,36.009],[136.0932,36.00895],[136.09308,36.00901],[136.09307,36.00903],[136.09313,36.00909],[136.09318,36.00916],[136.09324,36.0092],[136.09329,36.00922]]]}},{"type":"Feature","properties":{"pid":"1b467418-4e76-4cba-9a25-fb8bf80da371","full":1.4},"geometry":{"type":"Polygon","coordinates":[[[136.09241,36.00736],[136.09257,36.00728],[136.09267,36.00719],[136.09259,36.00707],[136.09238,36.00717],[136.09236,36.00719],[136.09241,36.00736]]]}},{"type":"Feature","properties":{"pid":"78b0874f-8b84-4a27-92bf-c20d6e0b1ec4","full":1.1},"geometry":{"type":"Polygon","coordinates":[[[136.09247,36.00761],[136.09265,36.00755],[136.09257,36.00733],[136.09241,36.00742],[136.09242,36.0075],[136.09247,36.00761]]]}},{"type":"Feature","properties":{"pid":"115e2ce2-93ae-453f-a2f2-609eea17fa14","full":0.5},"geometry":{"type":"Polygon","coordinates":[[[136.09296,36.00893],[136.09312,36.00887],[136.09311,36.00884],[136.09293,36.00868],[136.09283,36.00873],[136.09292,36.00886],[136.09296,36.00893]]]}},{"type":"Feature","properties":{"pid":"b4665601-8545-4e84-a651-76d8d0c8acde","full":2.2},"geometry":{"type":"Polygon","coordinates":[[[136.09169,36.01248],[136.09173,36.01251],[136.09188,36.0125],[136.09179,36.01213],[136.09167,36.01213],[136.0916,36.01214],[136.09169,36.01248]]]}},{"type":"Feature","properties":{"pid":"75c563e3-8d1d-44be-96d4-cc6198ff9c5f","full":3.1},"geometry":{"type":"Polygon","coordinates":[[[136.09137,36.01242],[136.09153,36.01245],[136.09166,36.01248],[136.09157,36.01214],[136.0913,36.01218],[136.09137,36.01242]]]}},{"type":"Feature","properties":{"pid":"b18f2bb8-9ebd-4b27-abea-205765f68c08","full":1.5},"geometry":{"type":"Polygon","coordinates":[[[136.09135,36.01242],[136.09126,36.01215],[136.09119,36.01217],[136.09114,36.01224],[136.09101,36.01229],[136.0911,36.01242],[136.09119,36.01241],[136.09135,36.01242]]]}},{"type":"Feature","properties":{"pid":"f9bf085f-f1ce-4c90-89cf-aa9dba610037","full":1.3},"geometry":{"type":"Polygon","coordinates":[[[136.09206,36.01168],[136.09237,36.01167],[136.09238,36.01152],[136.09211,36.01151],[136.09206,36.01164],[136.09206,36.01168]]]}},{"type":"Feature","properties":{"pid":"7acdd286-7f06-4d65-9b24-6c45de8eac44","full":1.6},"geometry":{"type":"Polygon","coordinates":[[[136.09216,36.01109],[136.09234,36.01113],[136.09239,36.01105],[136.09244,36.01095],[136.09247,36.01091],[136.09226,36.01086],[136.0922,36.01095],[136.09216,36.01104],[136.09217,36.01106],[136.09216,36.01109]]]}},{"type":"Feature","properties":{"pid":"ddd9d0fe-3e4f-4fdf-9bc6-c228842762f8","full":2.8},"geometry":{"type":"Polygon","coordinates":[[[136.09238,36.01149],[136.09238,36.01144],[136.09236,36.01128],[136.09234,36.01123],[136.0923,36.01119],[136.09217,36.01117],[136.0921,36.01143],[136.09212,36.0115],[136.09238,36.01149]]]}},{"type":"Feature","properties":{"pid":"2b67d4ea-f0dc-4085-9991-e0bb64465719","full":5.6},"geometry":{"type":"Polygon","coordinates":[[[136.09242,36.01194],[136.09243,36.01192],[136.0924,36.0119],[136.09238,36.01187],[136.09237,36.01169],[136.09206,36.01169],[136.09194,36.01201],[136.09197,36.01204],[136.09242,36.01194]]]}},{"type":"Feature","properties":{"pid":"3d775139-1138-4490-9a7f-870796578cd7","full":4.0},"geometry":{"type":"Polygon","coordinates":[[[136.09196,36.01222],[136.09275,36.01208],[136.09275,36.01204],[136.09276,36.01199],[136.09273,36.01196],[136.0927,36.01195],[136.09267,36.01195],[136.09262,36.01197],[136.09251,36.01196],[136.09196,36.01207],[136.09194,36.01211],[136.09194,36.0122],[136.09196,36.01222]]]}},{"type":"Feature","properties":{"pid":"9c94079a-ea13-4147-ab37-dcb9bf9eee45","full":4.7},"geometry":{"type":"Polygon","coordinates":[[[136.0923,36.01279],[136.093,36.01264],[136.0929,36.01249],[136.09216,36.01264],[136.0923,36.01279]]]}},{"type":"Feature","properties":{"pid":"fc474fe2-441d-40a3-b29d-3f5379ba6b15","full":14.8},"geometry":{"type":"Polygon","coordinates":[[[136.09216,36.01258],[136.09278,36.01245],[136.09282,36.01244],[136.09276,36.01237],[136.09274,36.01233],[136.09276,36.01212],[136.09202,36.01226],[136.092,36.0123],[136.09204,36.01248],[136.09209,36.01255],[136.09214,36.01256],[136.09216,36.01258]]]}},{"type":"Feature","properties":{"pid":"684e012c-23f5-491d-afb8-b87f1da1fc31","full":0.6},"geometry":{"type":"Polygon","coordinates":[[[136.09342,36.00941],[136.09355,36.00937],[136.09357,36.00934],[136.09352,36.00926],[136.09345,36.0092],[136.09333,36.00926],[136.09331,36.0093],[136.09342,36.00941]]]}},{"type":"Feature","properties":{"pid":"f90ca394-ab8d-4a02-9d5d-03c1a8ab6e15","full":5.6},"geometry":{"type":"Polygon","coordinates":[[[136.09834,36.01082],[136.09806,36.01074],[136.09764,36.01079],[136.09778,36.0111],[136.09782,36.01111],[136.09805,36.01094],[136.09819,36.01087],[136.09834,36.01085],[136.09834,36.01082]]]}},{"type":"Feature","properties":{"pid":"f59e8af2-e587-4ece-abc2-a5d09d77eced","full":1.3},"geometry":{"type":"Polygon","coordinates":[[[136.0975,36.01078],[136.09747,36.01075],[136.09738,36.01081],[136.09738,36.01085],[136.09741,36.0109],[136.09743,36.01096],[136.09785,36.01149],[136.09789,36.01149],[136.09776,36.01123],[136.0975,36.01078]]]}},{"type":"Feature","properties":{"pid":"6e4fe86c-7d28-4356-985a-d398f7458ab5","full":1.6},"geometry":{"type":"Polygon","coordinates":[[[136.09795,36.01112],[136.09792,36.0111],[136.09786,36.01114],[136.09802,36.01147],[136.09806,36.01157],[136.09823,36.01165],[136.09827,36.01164],[136.0983,36.01162],[136.09804,36.01123],[136.09795,36.01112]]]}},{"type":"Feature","properties":{"pid":"aac84052-ca8e-425e-b20e-7f7c1bb1e729","full":9.8},"geometry":{"type":"Polygon","coordinates":[[[136.09607,36.01328],[136.09596,36.01327],[136.09544,36.01351],[136.09553,36.01369],[136.0956,36.01372],[136.09625,36.01342],[136.09622,36.01336],[136.09615,36.01331],[136.09607,36.01328]]]}},{"type":"Feature","properties":{"pid":"e6d8be81-5be0-4327-b0e5-98dc56e7279f","full":9.7},"geometry":{"type":"Polygon","coordinates":[[[136.09648,36.01362],[136.09628,36.01344],[136.09561,36.01376],[136.09578,36.01394],[136.09648,36.01362]]]}},{"type":"Feature","properties":{"pid":"7a6145c8-d196-4c94-93bf-48047c10de77","full":9.6},"geometry":{"type":"Polygon","coordinates":[[[136.09655,36.01369],[136.09651,36.01364],[136.09581,36.01396],[136.09584,36.01399],[136.09604,36.01414],[136.0965,36.01394],[136.09654,36.01393],[136.09655,36.01369]]]}},{"type":"Feature","properties":{"pid":"ef0b5f79-422d-4aaa-b2b4-fd3d4b586a94","full":4.6},"geometry":{"type":"Polygon","coordinates":[[[136.09663,36.01438],[136.09613,36.01432],[136.09614,36.0144],[136.09611,36.01457],[136.09643,36.01462],[136.09646,36.01461],[136.09649,36.01452],[136.09661,36.01443],[136.09662,36.01441],[136.09663,36.01438]]]}},{"type":"Feature","properties":{"pid":"1f772b9d-fffb-46d1-a35c-e302378f5f85","full":8.2},"geometry":{"type":"Polygon","coordinates":[[[136.09656,36.01397],[136.09653,36.01395],[136.09651,36.01396],[136.09605,36.01416],[136.09612,36.01428],[136.09615,36.0143],[136.09662,36.01436],[136.09663,36.01417],[136.09656,36.01397]]]}},{"type":"Feature","properties":{"pid":"999cb7d4-b3bf-47a6-b089-fa09bfe3c0a0","full":2.8},"geometry":{"type":"Polygon","coordinates":[[[136.09817,36.01456],[136.09805,36.0145],[136.09795,36.01452],[136.09782,36.01462],[136.09774,36.01474],[136.09791,36.01482],[136.09809,36.01468],[136.09817,36.01456]]]}},{"type":"Feature","properties":{"pid":"ba579a33-a8ba-43ba-8b8b-59f04c5e8327","full":0.9},"geometry":{"type":"Polygon","coordinates":[[[136.09775,36.01537],[136.09737,36.01529],[136.09732,36.01538],[136.09737,36.01541],[136.09757,36.01547],[136.09769,36.01546],[136.09776,36.01541],[136.09775,36.01537]]]}},{"type":"Feature","properties":{"pid":"c5a2e6ed-2001-4d10-a63b-bf0ce9824b73","full":0.6},"geometry":{"type":"Polygon","coordinates":[[[136.09778,36.01521],[136.09743,36.01516],[136.09738,36.01526],[136.09775,36.01533],[136.09778,36.01532],[136.09778,36.01521]]]}},{"type":"Feature","properties":{"pid":"7b407323-47e6-4a1d-bab5-7e69c7f5b2b8","full":5.2},"geometry":{"type":"Polygon","coordinates":[[[136.09791,36.01484],[136.0977,36.01475],[136.09753,36.01494],[136.09748,36.0151],[136.09778,36.01517],[136.09791,36.01484]]]}},{"type":"Feature","properties":{"pid":"c204d174-ae59-4848-b2b7-9ad4ba3d43e4","full":14.5},"geometry":{"type":"Polygon","coordinates":[[[136.0962,36.01571],[136.09578,36.01551],[136.09566,36.01559],[136.09554,36.01577],[136.09544,36.01588],[136.09581,36.0161],[136.0962,36.01571]]]}},{"type":"Feature","properties":{"pid":"d1b89c8c-ea7c-4939-b30e-d57df44b738a","full":4.0},"geometry":{"type":"Polygon","coordinates":[[[136.09624,36.01534],[136.09595,36.01529],[136.09593,36.01544],[136.09594,36.01548],[136.09627,36.01565],[136.09642,36.01558],[136.0963,36.01547],[136.09625,36.01541],[136.09624,36.01534]]]}},{"type":"Feature","properties":{"pid":"097153e9-b182-41cc-a11c-ccd5b278a9bb","full":1.9},"geometry":{"type":"Polygon","coordinates":[[[136.09632,36.01489],[136.09604,36.01486],[136.09597,36.01505],[136.09625,36.01509],[136.09627,36.01506],[136.09632,36.01489]]]}},{"type":"Feature","properties":{"pid":"cf155a9b-f282-49bd-983f-65726a54f73a","full":1.8},"geometry":{"type":"Polygon","coordinates":[[[136.09624,36.0151],[136.09597,36.01506],[136.09596,36.01516],[136.09596,36.01527],[136.09623,36.01531],[136.09622,36.0152],[136.09624,36.01513],[136.09624,36.0151]]]}},{"type":"Feature","properties":{"pid":"5543c506-9221-437e-be1d-44d487b83c95","full":2.9},"geometry":{"type":"Polygon","coordinates":[[[136.09641,36.01464],[136.09609,36.01459],[136.09606,36.01466],[136.09603,36.01482],[136.09633,36.01486],[136.09635,36.01478],[136.09641,36.01466],[136.09641,36.01464]]]}},{"type":"Feature","properties":{"pid":"b2654031-8a9d-4a5c-bc3d-dd4666a5d525","full":5.1},"geometry":{"type":"Polygon","coordinates":[[[136.09576,36.0161],[136.09541,36.01591],[136.09528,36.016],[136.09522,36.01608],[136.0956,36.0163],[136.09577,36.01612],[136.09576,36.0161]]]}},{"type":"Feature","properties":{"pid":"cc7ebc0e-c03d-4b08-b172-4e146eb2cba6","full":4.0},"geometry":{"type":"Polygon","coordinates":[[[136.09344,36.0163],[136.09344,36.01605],[136.09306,36.01606],[136.09307,36.01618],[136.0931,36.01631],[136.09344,36.0163]]]}},{"type":"Feature","properties":{"pid":"fe7efb13-75b2-4e5d-9990-f5c351f8aecf","full":4.2},"geometry":{"type":"Polygon","coordinates":[[[136.09345,36.01582],[136.09343,36.0158],[136.09303,36.01582],[136.09306,36.01603],[136.09309,36.01605],[136.09344,36.01603],[136.09345,36.01582]]]}},{"type":"Feature","properties":{"pid":"6bd16f4e-4811-4d31-a2e4-63a9339b707c","full":4.0},"geometry":{"type":"Polygon","coordinates":[[[136.09334,36.01555],[136.09329,36.01552],[136.09302,36.01554],[136.09301,36.01555],[136.09301,36.01577],[136.09342,36.01576],[136.09344,36.01575],[136.09338,36.01561],[136.09334,36.01555]]]}},{"type":"Feature","properties":{"pid":"e468fc9b-41fe-40ce-934e-72445d2b6760","full":2.8},"geometry":{"type":"Polygon","coordinates":[[[136.09325,36.01534],[136.09325,36.01525],[136.09295,36.01526],[136.093,36.01551],[136.0933,36.0155],[136.09326,36.01539],[136.09325,36.01534]]]}},{"type":"Feature","properties":{"pid":"31ffa51d-960c-403e-b264-afeca5451523","full":2.7},"geometry":{"type":"Polygon","coordinates":[[[136.09324,36.01523],[136.09338,36.01498],[136.09311,36.01498],[136.09294,36.01519],[136.09294,36.01524],[136.09324,36.01523]]]}},{"type":"Feature","properties":{"pid":"37d94e21-1997-4914-81b7-e38f6acdce6c","full":2.9},"geometry":{"type":"Polygon","coordinates":[[[136.09358,36.01469],[136.09355,36.01467],[136.09325,36.01473],[136.09323,36.01476],[136.09323,36.01484],[136.09322,36.01488],[136.09316,36.01495],[136.09318,36.01496],[136.09342,36.01495],[136.09352,36.01486],[136.09358,36.01469]]]}},{"type":"Feature","properties":{"pid":"f5a75864-475c-4f27-b8b3-410d361805de","full":11.0},"geometry":{"type":"Polygon","coordinates":[[[136.09358,36.01437],[136.09344,36.01425],[136.09294,36.01435],[136.09315,36.01459],[136.09318,36.01465],[136.09323,36.01467],[136.09364,36.0146],[136.09358,36.01437]]]}},{"type":"Feature","properties":{"pid":"29d4e72f-840e-4848-8be4-9e80969c6d0a","full":2.9},"geometry":{"type":"Polygon","coordinates":[[[136.09335,36.01412],[136.09329,36.01408],[136.09284,36.01417],[136.09282,36.01422],[136.09286,36.01425],[136.09289,36.0143],[136.09292,36.0143],[136.09294,36.01432],[136.09343,36.01422],[136.09335,36.01412]]]}},{"type":"Feature","properties":{"pid":"3b8ea71a-12c2-48f1-bac1-09b69dbaab9d","full":3.8},"geometry":{"type":"Polygon","coordinates":[[[136.09563,36.01307],[136.09557,36.01287],[136.09519,36.01304],[136.09519,36.0132],[136.09523,36.01325],[136.09563,36.01307]]]}},{"type":"Feature","properties":{"pid":"cce76fb6-4992-4769-b6a9-fcd648e37197","full":3.4},"geometry":{"type":"Polygon","coordinates":[[[136.09246,36.01307],[136.09249,36.01307],[136.09251,36.0131],[136.09313,36.01297],[136.09306,36.01284],[136.09241,36.01295],[136.09246,36.01307]]]}},{"type":"Feature","properties":{"pid":"2f26b13f-098e-49ac-94ac-f0b7692910a0","full":4.0},"geometry":{"type":"Polygon","coordinates":[[[136.09239,36.01294],[136.09305,36.01282],[136.09303,36.01266],[136.0923,36.0128],[136.09239,36.01294]]]}},{"type":"Feature","properties":{"pid":"5fe17cab-545a-406c-ba22-03fbbe28efd2","full":11.5},"geometry":{"type":"Polygon","coordinates":[[[136.09258,36.01339],[136.09261,36.01338],[136.09263,36.01341],[136.09319,36.01328],[136.09325,36.01317],[136.09322,36.0131],[136.09315,36.013],[136.09249,36.01314],[136.09258,36.01339]]]}},{"type":"Feature","properties":{"pid":"84d07fee-910f-4760-a46c-de59a292d7b7","full":4.7},"geometry":{"type":"Polygon","coordinates":[[[136.09319,36.01333],[136.09319,36.01331],[136.09259,36.01345],[136.0926,36.01349],[136.09258,36.01361],[136.09264,36.01364],[136.09311,36.01354],[136.09311,36.01342],[136.09319,36.01333]]]}},{"type":"Feature","properties":{"pid":"d7a39519-b26b-450a-99b0-1b70618429c7","full":2.4},"geometry":{"type":"Polygon","coordinates":[[[136.09313,36.01369],[136.09312,36.01357],[136.09258,36.01368],[136.09258,36.01371],[136.09262,36.01379],[136.09264,36.01379],[136.09268,36.0138],[136.09312,36.01373],[136.09313,36.01369]]]}},{"type":"Feature","properties":{"pid":"5a361c82-bf78-45ab-aa4d-4768c40125c3","full":2.1},"geometry":{"type":"Polygon","coordinates":[[[136.09311,36.01385],[136.09314,36.01375],[136.09264,36.01384],[136.09271,36.01399],[136.09312,36.01391],[136.09311,36.01385]]]}},{"type":"Feature","properties":{"pid":"6d6050fc-5212-414e-9100-b675c806ffd0","full":2.6},"geometry":{"type":"Polygon","coordinates":[[[136.09315,36.01393],[136.0931,36.01393],[136.09272,36.01401],[136.09278,36.01414],[136.09282,36.01416],[136.09324,36.01407],[136.09327,36.01406],[136.09323,36.01403],[136.09315,36.01393]]]}},{"type":"Feature","properties":{"pid":"48362a8f-b426-4d66-ac66-6f05447de370","full":5.7},"geometry":{"type":"Polygon","coordinates":[[[136.09346,36.01674],[136.09324,36.01674],[136.09322,36.01677],[136.09347,36.01708],[136.0935,36.0171],[136.09378,36.01701],[136.09374,36.01687],[136.09356,36.01679],[136.0935,36.01674],[136.09346,36.01674]]]}},{"type":"Feature","properties":{"pid":"130d4faf-3a44-41d2-a4c1-7e9719c4b20a","full":5.3},"geometry":{"type":"Polygon","coordinates":[[[136.09343,36.01654],[136.09342,36.01632],[136.09312,36.01632],[136.0931,36.01633],[136.09311,36.01661],[136.09315,36.01667],[136.09345,36.01666],[136.09343,36.01654]]]}},{"type":"Feature","properties":{"pid":"479bf33d-7641-43e2-83bd-dd4d770df9b1","full":1.0},"geometry":{"type":"Polygon","coordinates":[[[136.0942,36.01692],[136.09405,36.01681],[136.09392,36.01685],[136.09375,36.01688],[136.09379,36.01701],[136.0942,36.01692]]]}},{"type":"Feature","properties":{"pid":"2da4d64d-14d8-4513-b18c-29a95534d81d","full":0.8},"geometry":{"type":"Polygon","coordinates":[[[136.09471,36.01668],[136.09458,36.01659],[136.09448,36.01663],[136.09436,36.01673],[136.09449,36.01682],[136.09457,36.01676],[136.09466,36.0167],[136.09471,36.01668]]]}},{"type":"Feature","properties":{"pid":"45a91dad-7c95-4505-87c7-f2c2fbb641c5","full":0.6},"geometry":{"type":"Polygon","coordinates":[[[136.09498,36.0166],[136.0948,36.01646],[136.09472,36.01653],[136.09467,36.01656],[136.09459,36.01658],[136.09469,36.01664],[136.09473,36.01666],[136.09491,36.01661],[136.09498,36.0166]]]}},{"type":"Feature","properties":{"pid":"32a840a7-4c10-432e-ab1d-fc2c463d1071","full":3.8},"geometry":{"type":"Polygon","coordinates":[[[136.09538,36.01651],[136.095,36.01629],[136.09482,36.01644],[136.09482,36.01645],[136.09502,36.0166],[136.09534,36.01655],[136.09538,36.01651]]]}},{"type":"Feature","properties":{"pid":"99eb534f-8084-4e46-9d80-05c5606b39a8","full":3.7},"geometry":{"type":"Polygon","coordinates":[[[136.09558,36.01632],[136.09521,36.01611],[136.09514,36.01619],[136.09505,36.01626],[136.09543,36.01648],[136.09552,36.0164],[136.09558,36.01632]]]}},{"type":"Feature","properties":{"pid":"ec32b489-d0c1-4f61-b5c0-586f1df914f3","full":2.7},"geometry":{"type":"Polygon","coordinates":[[[136.09568,36.0167],[136.0955,36.01659],[136.09543,36.01667],[136.09562,36.01681],[136.0957,36.01693],[136.09589,36.01693],[136.09599,36.01684],[136.09608,36.01684],[136.09607,36.01677],[136.09587,36.01676],[136.09568,36.0167]]]}},{"type":"Feature","properties":{"pid":"b5f67335-3b72-46c3-9c40-c5f6b3ba0e8d","full":10.2},"geometry":{"type":"Polygon","coordinates":[[[136.08922,36.02324],[136.08915,36.02316],[136.08856,36.02336],[136.08854,36.02342],[136.08872,36.02358],[136.08923,36.02345],[136.08929,36.02339],[136.08922,36.02324]]]}},{"type":"Feature","properties":{"pid":"c2ecc4eb-6c3a-4caa-8fae-5cd66fd1fea8","full":3.0},"geometry":{"type":"Polygon","coordinates":[[[136.09515,36.02248],[136.09573,36.02255],[136.09575,36.02241],[136.09559,36.02239],[136.09555,36.02236],[136.09541,36.02231],[136.09531,36.02234],[136.09526,36.02238],[136.09519,36.0224],[136.09515,36.02248]]]}},{"type":"Feature","properties":{"pid":"a5059778-41f4-42c9-86b2-9d635c55f0e6","full":5.4},"geometry":{"type":"Polygon","coordinates":[[[136.09572,36.02256],[136.09514,36.02249],[136.09515,36.02271],[136.09568,36.02276],[136.09572,36.02256]]]}},{"type":"Feature","properties":{"pid":"7b1a7136-cc94-4662-8cac-7311f3fa080a","full":3.5},"geometry":{"type":"Polygon","coordinates":[[[136.09568,36.02278],[136.09515,36.02272],[136.09515,36.0229],[136.09564,36.02296],[136.09568,36.02278]]]}},{"type":"Feature","properties":{"pid":"91bf4247-4593-4f95-9800-cb291861b417","full":5.6},"geometry":{"type":"Polygon","coordinates":[[[136.09564,36.02297],[136.09515,36.02291],[136.09516,36.02309],[136.09536,36.0232],[136.09554,36.02326],[136.09559,36.02325],[136.09564,36.02297]]]}},{"type":"Feature","properties":{"pid":"39f12dd1-0bc6-4dbf-8ec4-aa00f5fd593d","full":7.6},"geometry":{"type":"Polygon","coordinates":[[[136.09618,36.02304],[136.09577,36.02297],[136.09572,36.02297],[136.09565,36.02327],[136.09611,36.02333],[136.09618,36.02304]]]}},{"type":"Feature","properties":{"pid":"ebd6f82b-fd12-43ca-ba2b-2cf4316034cd","full":4.0},"geometry":{"type":"Polygon","coordinates":[[[136.09608,36.02257],[136.09582,36.02254],[136.09576,36.02277],[136.09624,36.02284],[136.0962,36.02277],[136.09619,36.02266],[136.09608,36.02257]]]}},{"type":"Feature","properties":{"pid":"7325c410-a923-4616-8026-d51b74194fc3","full":3.5},"geometry":{"type":"Polygon","coordinates":[[[136.09623,36.02284],[136.09577,36.02277],[136.09573,36.02292],[136.09577,36.02296],[136.09619,36.02303],[136.09623,36.02284]]]}},{"type":"Feature","properties":{"pid":"6bb82584-55f3-4bad-9928-ecf815a8ff46","full":2.8},"geometry":{"type":"Polygon","coordinates":[[[136.09653,36.02339],[136.09638,36.02294],[136.09632,36.02292],[136.09622,36.02333],[136.09624,36.02337],[136.09653,36.02339]]]}},{"type":"Feature","properties":{"pid":"d623d07f-12ae-4051-b34c-03dc420ab8f6","full":22.5},"geometry":{"type":"Polygon","coordinates":[[[136.08811,36.02245],[136.08797,36.02233],[136.08789,36.02236],[136.08727,36.02283],[136.08726,36.02286],[136.08737,36.02288],[136.0875,36.02294],[136.08757,36.023],[136.08761,36.02307],[136.08776,36.02314],[136.08782,36.02308],[136.08786,36.02299],[136.08808,36.02277],[136.08803,36.02263],[136.08811,36.02245]]]}},{"type":"Feature","properties":{"pid":"7da29d69-e7af-47f6-b894-a830432e85fc","full":1.4},"geometry":{"type":"Polygon","coordinates":[[[136.07513,36.01844],[136.07515,36.01841],[136.07517,36.01818],[136.07498,36.01816],[136.07497,36.01844],[136.07503,36.01843],[136.07509,36.01845],[136.07513,36.01844]]]}},{"type":"Feature","properties":{"pid":"35eebeeb-bcef-492c-85cc-8229c4b69e7a","full":6.7},"geometry":{"type":"Polygon","coordinates":[[[136.07519,36.01847],[136.07524,36.0185],[136.07546,36.0185],[136.07558,36.01849],[136.07567,36.01847],[136.07566,36.01833],[136.07564,36.01827],[136.07563,36.01825],[136.07551,36.01823],[136.07544,36.01821],[136.07537,36.0182],[136.07524,36.01819],[136.07521,36.01821],[136.07519,36.01847]]]}},{"type":"Feature","properties":{"pid":"245e7a51-ba9e-4a4f-8abd-da76f9afbeca","full":7.7},"geometry":{"type":"Polygon","coordinates":[[[136.08489,36.00804],[136.08514,36.00782],[136.0851,36.00778],[136.08483,36.00765],[136.08476,36.00761],[136.08454,36.00784],[136.08455,36.00789],[136.08459,36.00792],[136.08482,36.008],[136.08489,36.00804]]]}},{"type":"Feature","properties":{"pid":"2b339e17-7933-4cbd-b871-a2a4d6c34586","full":7.5},"geometry":{"type":"Polygon","coordinates":[[[136.08519,36.00827],[136.08558,36.00794],[136.08552,36.00791],[136.08539,36.0079],[136.08521,36.00785],[136.08494,36.00807],[136.08493,36.00815],[136.08519,36.00827]]]}},{"type":"Feature","properties":{"pid":"632599b0-cd56-4421-b41e-c18f3103bf24","full":5.1},"geometry":{"type":"Polygon","coordinates":[[[136.08545,36.00838],[136.08579,36.00819],[136.08576,36.00812],[136.08576,36.00808],[136.08573,36.00803],[136.08564,36.00796],[136.08525,36.0083],[136.08545,36.00838]]]}}],"precision":5}