{"type":"FeatureCollection","features":[{"type":"Feature","properties":{"pid":"9bf2f386-481e-4b31-924c-18e39a1d8b85","full":24.9},"geometry":{"type":"Polygon","coordinates":[[[136.10929,35.97278],[136.10956,35.97311],[136.10967,35.97316],[136.10984,35.97323],[136.11026,35.97312],[136.11013,35.97265],[136.10929,35.97278]]]}},{"type":"Feature","properties":{"pid":"01b486d1-b019-4980-914a-90a94b4ad6c6","full":22.7},"geometry":{"type":"Polygon","coordinates":[[[136.10937,35.97223],[136.1095,35.97274],[136.11012,35.97264],[136.11,35.97213],[136.10937,35.97223]]]}},{"type":"Feature","properties":{"pid":"a5b181a7-d7d9-4f85-87d2-578f2e0d8dfc","full":8.1},"geometry":{"type":"Polygon","coordinates":[[[136.10888,35.97231],[136.10923,35.97274],[136.10944,35.97271],[136.10932,35.97225],[136.10888,35.97231]]]}},{"type":"Feature","properties":{"pid":"edba800b-c642-40c2-a2d9-33133315f58f","full":20.6},"geometry":{"type":"Polygon","coordinates":[[[136.10928,35.97224],[136.10927,35.9722],[136.10931,35.9722],[136.10917,35.97166],[136.10857,35.97176],[136.10887,35.9723],[136.10928,35.97224]]]}},{"type":"Feature","properties":{"pid":"07bdcbd1-ece2-4d54-aa8f-ac2066922f11","full":25.9},"geometry":{"type":"Polygon","coordinates":[[[136.11001,35.97211],[136.10991,35.97164],[136.10988,35.97157],[136.10923,35.97167],[136.10937,35.97222],[136.11001,35.97211]]]}},{"type":"Feature","properties":{"pid":"c8046576-3b42-47b0-b701-f97a5e656145","full":4.3},"geometry":{"type":"Polygon","coordinates":[[[136.11004,35.97057],[136.1103,35.97061],[136.11056,35.97054],[136.11053,35.97033],[136.11022,35.97035],[136.1102,35.97041],[136.11004,35.97057]]]}},{"type":"Feature","properties":{"pid":"8de58a8c-54e8-44e5-8293-e1dde8bf1912","full":0.9},"geometry":{"type":"Polygon","coordinates":[[[136.11074,35.97052],[136.11078,35.97039],[136.11081,35.97036],[136.11087,35.97035],[136.11087,35.97032],[136.11057,35.97032],[136.1106,35.97054],[136.11074,35.97052]]]}},{"type":"Feature","properties":{"pid":"d11121c9-0442-4987-adb2-8aff1d13e504","full":8.4},"geometry":{"type":"Polygon","coordinates":[[[136.11092,35.97088],[136.11102,35.97088],[136.11106,35.97085],[136.11121,35.97084],[136.11137,35.97083],[136.11145,35.97085],[136.1115,35.97076],[136.11148,35.97067],[136.11148,35.97056],[136.11144,35.97054],[136.1111,35.97059],[136.11085,35.97064],[136.11092,35.97088]]]}},{"type":"Feature","properties":{"pid":"7e38ea71-a992-47f0-8063-4aee5e762600","full":0.6},"geometry":{"type":"Polygon","coordinates":[[[136.11119,35.97038],[136.11092,35.97039],[136.11093,35.97053],[136.11119,35.97049],[136.11119,35.97038]]]}},{"type":"Feature","properties":{"pid":"3037fddd-8246-4901-ab66-55cbd913a0af","full":0.6},"geometry":{"type":"Polygon","coordinates":[[[136.11147,35.97036],[136.11123,35.97037],[136.11123,35.97051],[136.11148,35.97049],[136.11147,35.97036]]]}},{"type":"Feature","properties":{"pid":"c911d995-2922-452f-af10-85d0c7e007d5","full":13.9},"geometry":{"type":"Polygon","coordinates":[[[136.12474,35.97302],[136.1251,35.9729],[136.12503,35.9725],[136.12461,35.9725],[136.12458,35.97254],[136.12457,35.97267],[136.12465,35.97298],[136.12469,35.97302],[136.12474,35.97302]]]}},{"type":"Feature","properties":{"pid":"eb179969-8b50-499e-98b3-c147859ab5c6","full":3.6},"geometry":{"type":"Polygon","coordinates":[[[136.11545,35.96591],[136.11606,35.96596],[136.11597,35.96583],[136.11582,35.96577],[136.11564,35.96574],[136.11538,35.96572],[136.11542,35.96582],[136.11545,35.96591]]]}},{"type":"Feature","properties":{"pid":"d3162e64-8d80-4431-92c5-ed7356adf015","full":2.8},"geometry":{"type":"Polygon","coordinates":[[[136.11608,35.96599],[136.11545,35.96594],[136.11545,35.96599],[136.11548,35.96608],[136.11619,35.96614],[136.11618,35.96609],[136.11608,35.96599]]]}},{"type":"Feature","properties":{"pid":"51e96f55-bed6-4d3c-9f9d-ce4b8f0c4dfe","full":3.7},"geometry":{"type":"Polygon","coordinates":[[[136.11619,35.96617],[136.11549,35.96611],[136.11549,35.96626],[136.1162,35.96633],[136.11619,35.96617]]]}},{"type":"Feature","properties":{"pid":"e819a6af-3f06-4352-b0ed-bc46e70d1ba9","full":4.5},"geometry":{"type":"Polygon","coordinates":[[[136.1162,35.96635],[136.11549,35.96628],[136.11545,35.96638],[136.1154,35.96643],[136.11599,35.96649],[136.11616,35.96657],[136.1162,35.96635]]]}},{"type":"Feature","properties":{"pid":"a2684281-d018-4e9b-a7b6-d14a21b9025b","full":3.6},"geometry":{"type":"Polygon","coordinates":[[[136.11527,35.96657],[136.11536,35.9666],[136.11538,35.96663],[136.11542,35.96665],[136.11548,35.96663],[136.11576,35.96665],[136.11587,35.96664],[136.11592,35.9666],[136.11596,35.96651],[136.11539,35.96645],[136.11527,35.96657]]]}},{"type":"Feature","properties":{"pid":"c880d099-6be1-45d1-9000-ee282b60ac79","full":2.3},"geometry":{"type":"Polygon","coordinates":[[[136.11678,35.96681],[136.11709,35.96693],[136.11719,35.96675],[136.11694,35.96665],[136.11685,35.96674],[136.11679,35.96676],[136.11678,35.96681]]]}},{"type":"Feature","properties":{"pid":"e48d4ffb-656c-4082-818b-f1c9ef3c2b3e","full":3.0},"geometry":{"type":"Polygon","coordinates":[[[136.11216,35.96687],[136.11236,35.96696],[136.11262,35.96676],[136.1125,35.96658],[136.11216,35.96687]]]}},{"type":"Feature","properties":{"pid":"db6b34ba-527d-4e6d-8613-61d60b805a4b","full":0.5},"geometry":{"type":"Polygon","coordinates":[[[136.11113,35.96754],[136.11126,35.96754],[136.11137,35.96737],[136.11125,35.96734],[136.11119,35.96733],[136.11113,35.96754]]]}},{"type":"Feature","properties":{"pid":"e6814210-9e52-4cef-afcf-3ba9cffac569","full":1.1},"geometry":{"type":"Polygon","coordinates":[[[136.11086,35.96748],[136.1111,35.96753],[136.11116,35.96736],[136.11093,35.96732],[136.11086,35.96748]]]}},{"type":"Feature","properties":{"pid":"1271b3ef-c215-4e3c-8597-10751bda5c5f","full":13.3},"geometry":{"type":"Polygon","coordinates":[[[136.11064,35.96847],[136.11015,35.96827],[136.10985,35.96879],[136.1099,35.96881],[136.10995,35.96881],[136.11041,35.96869],[136.11047,35.96866],[136.11064,35.96847]]]}},{"type":"Feature","properties":{"pid":"f19a2f57-1276-42a0-adbf-4de5fb9d94f2","full":2.4},"geometry":{"type":"Polygon","coordinates":[[[136.11022,35.97032],[136.11044,35.9703],[136.11037,35.97022],[136.11028,35.97007],[136.11026,35.97001],[136.11013,35.97005],[136.11007,35.97019],[136.11009,35.97024],[136.11022,35.97032]]]}},{"type":"Feature","properties":{"pid":"eba8fd9d-6b25-4849-84c4-b82c5a46789b","full":6.7},"geometry":{"type":"Polygon","coordinates":[[[136.10844,35.96979],[136.10833,35.97011],[136.10863,35.97018],[136.10876,35.97003],[136.10893,35.96991],[136.10844,35.96979]]]}},{"type":"Feature","properties":{"pid":"3d9c744f-3470-4a11-90b9-1686973a8148","full":7.3},"geometry":{"type":"Polygon","coordinates":[[[136.10894,35.9699],[136.10904,35.96983],[136.10911,35.96977],[136.10915,35.9697],[136.10855,35.96954],[136.10845,35.96977],[136.10894,35.9699]]]}},{"type":"Feature","properties":{"pid":"c9e38e49-10cb-4d96-af2d-08ae6245e510","full":9.5},"geometry":{"type":"Polygon","coordinates":[[[136.10919,35.96969],[136.10931,35.96943],[136.1087,35.96928],[136.10856,35.96952],[136.10919,35.96969]]]}},{"type":"Feature","properties":{"pid":"ed08330f-430a-435c-a5b3-4f3bd88d5273","full":9.9},"geometry":{"type":"Polygon","coordinates":[[[136.10933,35.96942],[136.10946,35.96916],[136.1094,35.96914],[136.10887,35.96902],[136.10882,35.96905],[136.10872,35.96926],[136.10933,35.96942]]]}},{"type":"Feature","properties":{"pid":"7a07a59c-da87-4e64-b744-c536a0c2e829","full":7.3},"geometry":{"type":"Polygon","coordinates":[[[136.10891,35.96874],[136.10885,35.96892],[136.10888,35.96897],[136.1094,35.96908],[136.10943,35.96903],[136.10953,35.96905],[136.10962,35.9689],[136.10891,35.96874]]]}},{"type":"Feature","properties":{"pid":"3ddd5885-0253-4251-8ac3-be460c847503","full":12.0},"geometry":{"type":"Polygon","coordinates":[[[136.10962,35.96889],[136.10969,35.96877],[136.10974,35.96874],[136.10979,35.96865],[136.109,35.96847],[136.10894,35.96861],[136.10891,35.96873],[136.10962,35.96889]]]}},{"type":"Feature","properties":{"pid":"9c9fcc75-e06b-4204-b147-2cd05961cf6e","full":19.4},"geometry":{"type":"Polygon","coordinates":[[[136.10982,35.96864],[136.11001,35.96833],[136.10944,35.9682],[136.10916,35.96809],[136.10901,35.96846],[136.10982,35.96864]]]}},{"type":"Feature","properties":{"pid":"b030949e-ee2a-403a-b158-733b702a5ee4","full":1.6},"geometry":{"type":"Polygon","coordinates":[[[136.10977,35.96827],[136.10988,35.96811],[136.10959,35.96804],[136.1095,35.9682],[136.10977,35.96827]]]}},{"type":"Feature","properties":{"pid":"d355b8dc-fa60-4a57-ab64-1491fa773ae0","full":12.0},"geometry":{"type":"Polygon","coordinates":[[[136.11086,35.96815],[136.11032,35.96794],[136.11021,35.9682],[136.11016,35.96826],[136.11065,35.96845],[136.11076,35.96833],[136.11086,35.96815]]]}},{"type":"Feature","properties":{"pid":"0f57a10b-731d-44ea-93f0-bfd8b43b62c6","full":7.0},"geometry":{"type":"Polygon","coordinates":[[[136.1107,35.9676],[136.11051,35.96755],[136.11033,35.96792],[136.11084,35.96813],[136.11087,35.9681],[136.11094,35.96794],[136.11057,35.96778],[136.1107,35.9676]]]}},{"type":"Feature","properties":{"pid":"04e1a095-204c-4a79-ad61-f93bde73946c","full":11.0},"geometry":{"type":"Polygon","coordinates":[[[136.10977,35.96692],[136.10969,35.96705],[136.11,35.96715],[136.11001,35.96735],[136.11046,35.96746],[136.11057,35.96722],[136.11053,35.9672],[136.11054,35.96717],[136.10977,35.96692]]]}},{"type":"Feature","properties":{"pid":"f39d11df-ef4c-4818-af5f-89a3cac03959","full":10.7},"geometry":{"type":"Polygon","coordinates":[[[136.11054,35.96749],[136.11055,35.96749],[136.11054,35.9675],[136.1107,35.96753],[136.11077,35.96752],[136.11081,35.96749],[136.11115,35.96676],[136.11092,35.96669],[136.11054,35.96749]]]}},{"type":"Feature","properties":{"pid":"4654f042-df06-4f26-9ac4-84b44f7bc1b0","full":11.5},"geometry":{"type":"Polygon","coordinates":[[[136.11071,35.96692],[136.11081,35.9667],[136.11079,35.96668],[136.11081,35.96665],[136.11016,35.96647],[136.1101,35.96653],[136.11006,35.96651],[136.10995,35.96667],[136.11071,35.96692]]]}},{"type":"Feature","properties":{"pid":"d154ae9d-d32f-409c-800e-1dc22c7997a2","full":12.9},"geometry":{"type":"Polygon","coordinates":[[[136.11055,35.96716],[136.11056,35.96714],[136.11061,35.96714],[136.11071,35.96693],[136.10993,35.96668],[136.10978,35.96692],[136.11055,35.96716]]]}},{"type":"Feature","properties":{"pid":"70e6a104-1bcf-4182-808d-ff2dc7360130","full":14.5},"geometry":{"type":"Polygon","coordinates":[[[136.11045,35.96545],[136.11124,35.9657],[136.11125,35.96569],[136.11127,35.9657],[136.11138,35.96547],[136.11136,35.96546],[136.11049,35.96518],[136.11045,35.96518],[136.11041,35.96528],[136.11045,35.96545]]]}},{"type":"Feature","properties":{"pid":"93f03eb9-439e-4ff9-a3ae-1c8113b7b22f","full":10.0},"geometry":{"type":"Polygon","coordinates":[[[136.11045,35.96548],[136.11045,35.96573],[136.11112,35.96595],[136.11113,35.96594],[136.11114,35.96595],[136.11123,35.96573],[136.11045,35.96548]]]}},{"type":"Feature","properties":{"pid":"7bc5c2b9-eb93-4022-b005-066aeb6b2cf6","full":9.7},"geometry":{"type":"Polygon","coordinates":[[[136.11102,35.96621],[136.11112,35.96601],[136.1111,35.966],[136.11111,35.96598],[136.11042,35.96576],[136.11035,35.966],[136.11102,35.96621]]]}},{"type":"Feature","properties":{"pid":"a3121149-3777-4d1f-a061-a01eac98f105","full":15.6},"geometry":{"type":"Polygon","coordinates":[[[136.11036,35.96602],[136.11027,35.96622],[136.11018,35.96635],[136.11046,35.96645],[136.11083,35.96656],[136.11084,35.96655],[136.111,35.96623],[136.11036,35.96602]]]}},{"type":"Feature","properties":{"pid":"9cc45317-10ca-478b-86f4-8a582552cb9e","full":7.9},"geometry":{"type":"Polygon","coordinates":[[[136.11172,35.96611],[136.11128,35.96597],[136.11128,35.96598],[136.11126,35.96598],[136.11113,35.96624],[136.11159,35.96639],[136.11172,35.96611]]]}},{"type":"Feature","properties":{"pid":"160ef631-260f-4a09-9dad-25f40f0b4ca3","full":12.5},"geometry":{"type":"Polygon","coordinates":[[[136.11181,35.96646],[136.1121,35.96612],[136.11226,35.96599],[136.11211,35.96571],[136.11202,35.96569],[136.11162,35.96642],[136.11159,35.96642],[136.11151,35.96653],[136.11184,35.96661],[136.11185,35.96661],[136.11191,35.96652],[136.1119,35.96648],[136.11181,35.96646]]]}},{"type":"Feature","properties":{"pid":"c54831b0-efab-44a5-9e35-a554928cdbb7","full":14.6},"geometry":{"type":"Polygon","coordinates":[[[136.11127,35.96595],[136.11173,35.96609],[136.11192,35.96566],[136.11189,35.96563],[136.11149,35.9655],[136.11149,35.96551],[136.11148,35.96551],[136.11127,35.96595]]]}},{"type":"Feature","properties":{"pid":"21a507b9-66e6-423f-a515-fc2d38a3c8b7","full":1.2},"geometry":{"type":"Polygon","coordinates":[[[136.11222,35.96652],[136.11214,35.96645],[136.11207,35.96646],[136.11193,35.96658],[136.11181,35.96676],[136.11192,35.96679],[136.11222,35.96652]]]}},{"type":"Feature","properties":{"pid":"52947877-d88d-401f-8663-7047ce41ebd0","full":3.3},"geometry":{"type":"Polygon","coordinates":[[[136.11194,35.9668],[136.11213,35.96687],[136.11248,35.96656],[136.11243,35.96645],[136.11232,35.96647],[136.11227,35.9665],[136.11194,35.9668]]]}},{"type":"Feature","properties":{"pid":"e2d0b881-5b5e-47a3-a675-ad2767567138","full":18.2},"geometry":{"type":"Polygon","coordinates":[[[136.11257,35.96474],[136.11255,35.96473],[136.11236,35.9651],[136.11255,35.96518],[136.11299,35.96529],[136.11312,35.96488],[136.1126,35.96471],[136.11257,35.96474]]]}},{"type":"Feature","properties":{"pid":"67a3d58c-28e0-4717-b46b-2babc785ded8","full":8.1},"geometry":{"type":"Polygon","coordinates":[[[136.1115,35.96544],[136.11196,35.9656],[136.11201,35.96552],[136.11192,35.9653],[136.11176,35.96504],[136.11173,35.96501],[136.1117,35.96502],[136.11168,35.96506],[136.1115,35.96544]]]}},{"type":"Feature","properties":{"pid":"b5645bb0-b51d-4497-8499-bfa29e944b59","full":13.5},"geometry":{"type":"Polygon","coordinates":[[[136.11059,35.9649],[136.11048,35.96512],[136.11141,35.96542],[136.11152,35.96519],[136.11059,35.9649]]]}},{"type":"Feature","properties":{"pid":"24bc4d12-faa0-4d5d-95f3-e6226cebea90","full":20.2},"geometry":{"type":"Polygon","coordinates":[[[136.11181,35.96408],[136.11105,35.96384],[136.11097,35.96402],[136.11096,35.96406],[136.11097,35.96409],[136.11095,35.96415],[136.1111,35.96421],[136.11127,35.96431],[136.11156,35.96455],[136.1116,35.96454],[136.11181,35.96408]]]}},{"type":"Feature","properties":{"pid":"abe8d7c3-c761-4125-973b-11e506c8997c","full":10.5},"geometry":{"type":"Polygon","coordinates":[[[136.11313,35.96486],[136.11321,35.96456],[136.11273,35.96439],[136.11271,35.96442],[136.11269,35.96442],[136.11256,35.96469],[136.11313,35.96486]]]}},{"type":"Feature","properties":{"pid":"5a9a2684-3898-48fe-9fc9-55786e96660c","full":20.3},"geometry":{"type":"Polygon","coordinates":[[[136.1116,35.96291],[136.11145,35.96307],[136.11133,35.96326],[136.11205,35.96348],[136.11206,35.96346],[136.11208,35.96347],[136.11224,35.96311],[136.1116,35.96291]]]}},{"type":"Feature","properties":{"pid":"7c9efff6-767e-44f0-ad42-30c841fd69d2","full":15.0},"geometry":{"type":"Polygon","coordinates":[[[136.11204,35.96351],[136.11204,35.9635],[136.11132,35.96328],[136.11119,35.96356],[136.11195,35.9638],[136.11206,35.96352],[136.11204,35.96351]]]}},{"type":"Feature","properties":{"pid":"64f03fe0-bf03-44ac-8eda-49440cadff40","full":13.5},"geometry":{"type":"Polygon","coordinates":[[[136.11194,35.9638],[136.11118,35.96358],[136.11106,35.96383],[136.11181,35.96407],[136.11181,35.96406],[136.11182,35.96406],[136.11194,35.9638]]]}},{"type":"Feature","properties":{"pid":"3625062f-ed60-4696-a15b-64a6b6b7e556","full":22.4},"geometry":{"type":"Polygon","coordinates":[[[136.1111,35.9632],[136.11029,35.96295],[136.11011,35.96331],[136.11092,35.96356],[136.1111,35.9632]]]}},{"type":"Feature","properties":{"pid":"f8556bc3-e193-41dc-8bf6-d975c6ad6eae","full":10.7},"geometry":{"type":"Polygon","coordinates":[[[136.10953,35.96299],[136.1096,35.9631],[136.10961,35.96317],[136.10959,35.96327],[136.10952,35.96339],[136.10972,35.96349],[136.10992,35.96355],[136.1101,35.96317],[136.10953,35.96299]]]}},{"type":"Feature","properties":{"pid":"7770c788-bbf4-40c4-a22d-2f417ebbee8d","full":12.1},"geometry":{"type":"Polygon","coordinates":[[[136.11078,35.96387],[136.10997,35.96362],[136.10994,35.96368],[136.10999,35.96397],[136.11024,35.96399],[136.11045,35.96403],[136.11066,35.96407],[136.11078,35.96387]]]}},{"type":"Feature","properties":{"pid":"885c1dc7-9952-477e-a4f4-b990ac6e23f9","full":15.6},"geometry":{"type":"Polygon","coordinates":[[[136.11091,35.96358],[136.1101,35.96332],[136.10998,35.96361],[136.11078,35.96385],[136.11091,35.96358]]]}},{"type":"Feature","properties":{"pid":"3419efdb-2181-4da8-b21c-9f3e3b06dcf4","full":21.6},"geometry":{"type":"Polygon","coordinates":[[[136.10976,35.96464],[136.10996,35.96476],[136.11016,35.96491],[136.11039,35.96514],[136.11062,35.96465],[136.11059,35.96464],[136.11061,35.96459],[136.10988,35.96437],[136.10976,35.96464]]]}},{"type":"Feature","properties":{"pid":"b0c49892-e315-49c7-b76d-fc4594885adf","full":7.8},"geometry":{"type":"Polygon","coordinates":[[[136.10816,35.9641],[136.10826,35.96426],[136.1083,35.96425],[136.1084,35.96436],[136.10876,35.96421],[136.10862,35.96393],[136.10816,35.9641]]]}},{"type":"Feature","properties":{"pid":"bce38bfc-2fc5-4827-ab6b-3e3b25a07c76","full":2.2},"geometry":{"type":"Polygon","coordinates":[[[136.10868,35.96387],[136.10888,35.96379],[136.10872,35.96352],[136.10853,35.96359],[136.10868,35.96387]]]}},{"type":"Feature","properties":{"pid":"71ef3a50-aeea-49a6-b48a-94ee71c00025","full":10.5},"geometry":{"type":"Polygon","coordinates":[[[136.1087,35.96387],[136.1088,35.96406],[136.10889,35.96415],[136.1092,35.96403],[136.10934,35.964],[136.10932,35.96388],[136.10939,35.9638],[136.10923,35.96372],[136.10923,35.96368],[136.1087,35.96387]]]}},{"type":"Feature","properties":{"pid":"5d84a2c0-8d85-4395-b876-ddc0fb0f2f0f","full":6.3},"geometry":{"type":"Polygon","coordinates":[[[136.10923,35.96366],[136.10931,35.96356],[136.10922,35.96352],[136.10921,35.9635],[136.10922,35.96344],[136.1091,35.96342],[136.10873,35.96352],[136.10889,35.96379],[136.10923,35.96366]]]}},{"type":"Feature","properties":{"pid":"499dbda3-29b4-47cb-81bb-2e62e28dbca7","full":0.7},"geometry":{"type":"Polygon","coordinates":[[[136.1091,35.9634],[136.10908,35.96338],[136.10866,35.96331],[136.10873,35.9635],[136.1091,35.9634]]]}},{"type":"Feature","properties":{"pid":"0b3be60e-ee0e-4fc1-ab84-4cbc9c493c2f","full":2.7},"geometry":{"type":"Polygon","coordinates":[[[136.1094,35.96247],[136.10953,35.96214],[136.10957,35.96206],[136.10926,35.96207],[136.10922,35.96208],[136.1092,35.96215],[136.10936,35.96237],[136.10937,35.96242],[136.1094,35.96247]]]}},{"type":"Feature","properties":{"pid":"7f1948bf-7d22-4748-837a-fba3376c589d","full":11.9},"geometry":{"type":"Polygon","coordinates":[[[136.1101,35.96316],[136.11023,35.96291],[136.10936,35.96265],[136.10944,35.96289],[136.10952,35.96298],[136.1101,35.96316]]]}},{"type":"Feature","properties":{"pid":"c07c53b6-558f-4ed5-b813-5d86e227eb88","full":9.6},"geometry":{"type":"Polygon","coordinates":[[[136.11123,35.96299],[136.1104,35.96274],[136.11029,35.96294],[136.11111,35.96318],[136.11123,35.96299]]]}},{"type":"Feature","properties":{"pid":"d641d4df-d256-4881-b527-866ea90fec21","full":13.2},"geometry":{"type":"Polygon","coordinates":[[[136.11141,35.96277],[136.11051,35.96249],[136.1104,35.96273],[136.11124,35.96298],[136.11141,35.96277]]]}},{"type":"Feature","properties":{"pid":"92293842-ff91-4e9a-b186-ad804dde1c95","full":31.6},"geometry":{"type":"Polygon","coordinates":[[[136.11037,35.9626],[136.11064,35.96205],[136.11021,35.96201],[136.10962,35.96204],[136.10949,35.96233],[136.11037,35.9626]]]}},{"type":"Feature","properties":{"pid":"ab2ac77b-6118-4ebc-901e-1d3b83abce4b","full":19.0},"geometry":{"type":"Polygon","coordinates":[[[136.11022,35.96291],[136.11037,35.96261],[136.10948,35.96234],[136.10935,35.96264],[136.11022,35.96291]]]}},{"type":"Feature","properties":{"pid":"4c31149a-347f-440c-b568-18b9cd3e8215","full":3.1},"geometry":{"type":"Polygon","coordinates":[[[136.10881,35.96227],[136.10884,35.96227],[136.10911,35.96222],[136.10908,35.96216],[136.10908,35.96212],[136.1091,35.96207],[136.10908,35.96206],[136.10879,35.962],[136.10872,35.962],[136.10868,35.96204],[136.10881,35.96227]]]}},{"type":"Feature","properties":{"pid":"9813b4fd-d0a2-484b-b9fe-7e46b7124f68","full":4.0},"geometry":{"type":"Polygon","coordinates":[[[136.10839,35.96208],[136.10859,35.96242],[136.10862,35.96244],[136.10878,35.96238],[136.10875,35.96232],[136.1088,35.96228],[136.10864,35.96202],[136.10843,35.96208],[136.10839,35.96208]]]}},{"type":"Feature","properties":{"pid":"6f73980e-8b49-4e0b-9206-b5bf3d0102c9","full":6.1},"geometry":{"type":"Polygon","coordinates":[[[136.11159,35.96256],[136.11168,35.96247],[136.1115,35.96243],[136.11137,35.96236],[136.11133,35.96234],[136.11125,35.96232],[136.11127,35.9623],[136.11117,35.96225],[136.11072,35.96208],[136.11062,35.96226],[136.11159,35.96256]]]}},{"type":"Feature","properties":{"pid":"3de87a9c-8fbb-43fc-9612-cb6bd3f041f7","full":11.2},"geometry":{"type":"Polygon","coordinates":[[[136.11158,35.96257],[136.11062,35.96228],[136.11052,35.96248],[136.11142,35.96275],[136.11158,35.96257]]]}},{"type":"Feature","properties":{"pid":"938d6631-23ec-41ea-b320-5682674e7973","full":8.1},"geometry":{"type":"Polygon","coordinates":[[[136.1118,35.9627],[136.11161,35.9629],[136.11224,35.9631],[136.11234,35.96289],[136.11232,35.96288],[136.11233,35.96286],[136.1118,35.9627]]]}},{"type":"Feature","properties":{"pid":"1dc8741d-369d-498c-9903-de66f2bc7a74","full":1.9},"geometry":{"type":"Polygon","coordinates":[[[136.11592,35.95811],[136.11595,35.95861],[136.11598,35.95862],[136.11611,35.95857],[136.11608,35.95811],[136.11607,35.9581],[136.11592,35.95811]]]}},{"type":"Feature","properties":{"pid":"515bd790-8aea-4a73-a897-e646b4716bc8","full":1.7},"geometry":{"type":"Polygon","coordinates":[[[136.11579,35.95867],[136.11592,35.95865],[136.11591,35.95812],[136.11577,35.95812],[136.11577,35.95864],[136.11579,35.95867]]]}},{"type":"Feature","properties":{"pid":"bca8c65e-36e5-4a44-8958-4be5a5baba51","full":0.9},"geometry":{"type":"Polygon","coordinates":[[[136.1155,35.95891],[136.11585,35.95877],[136.11584,35.95872],[136.11554,35.95872],[136.11548,35.95873],[136.11547,35.9589],[136.1155,35.95891]]]}},{"type":"Feature","properties":{"pid":"15663d64-0b4b-448d-9663-bfbbc222b464","full":1.3},"geometry":{"type":"Polygon","coordinates":[[[136.11668,35.95842],[136.11684,35.95835],[136.11682,35.95805],[136.11666,35.95806],[136.11668,35.95842]]]}},{"type":"Feature","properties":{"pid":"e85889ef-1b80-4432-9834-ac3c8d2a152d","full":0.9},"geometry":{"type":"Polygon","coordinates":[[[136.11686,35.95835],[136.11702,35.95829],[136.117,35.95805],[136.11684,35.95805],[136.11686,35.95835]]]}},{"type":"Feature","properties":{"pid":"688db5bd-84d6-433f-b4e2-9f6c5ee53293","full":0.5},"geometry":{"type":"Polygon","coordinates":[[[136.11704,35.95828],[136.11713,35.95825],[136.11718,35.95824],[136.1172,35.95823],[136.11719,35.95805],[136.11703,35.95805],[136.11704,35.95828]]]}},{"type":"Feature","properties":{"pid":"a5ce9ad4-3a1b-4e0e-b61a-2decf8861dc6","full":3.0},"geometry":{"type":"Polygon","coordinates":[[[136.11705,35.95838],[136.11729,35.95864],[136.11751,35.95855],[136.1174,35.95843],[136.11735,35.95832],[136.11728,35.95832],[136.11705,35.95838]]]}},{"type":"Feature","properties":{"pid":"eed17315-4a96-450f-9565-e0c97223cad2","full":1.3},"geometry":{"type":"Polygon","coordinates":[[[136.11628,35.95809],[136.11631,35.9585],[136.11645,35.95846],[136.11645,35.95844],[136.11644,35.9581],[136.11644,35.95809],[136.11642,35.95808],[136.1164,35.95807],[136.11628,35.95809]]]}},{"type":"Feature","properties":{"pid":"dfccffb2-a25e-41bd-bd02-a2a2e8c29cef","full":1.5},"geometry":{"type":"Polygon","coordinates":[[[136.11614,35.95856],[136.11616,35.95855],[136.11629,35.95849],[136.11626,35.95808],[136.11611,35.95809],[136.11614,35.95856]]]}},{"type":"Feature","properties":{"pid":"2eb4b267-f667-4b03-9ef6-980f7ff12ca0","full":1.6},"geometry":{"type":"Polygon","coordinates":[[[136.11646,35.9581],[136.11648,35.95844],[136.1165,35.95844],[136.11663,35.95843],[136.11665,35.95841],[136.11663,35.95808],[136.11661,35.95807],[136.11654,35.95806],[136.11648,35.95807],[136.11646,35.9581]]]}},{"type":"Feature","properties":{"pid":"dd7abaec-7af7-4ccc-a0ac-a09f3f2e5346","full":1.9},"geometry":{"type":"Polygon","coordinates":[[[136.11612,35.95802],[136.11628,35.95801],[136.11625,35.95748],[136.1161,35.95748],[136.11612,35.95802]]]}},{"type":"Feature","properties":{"pid":"1e95d98b-f892-4969-99ac-200183b96e8c","full":1.6},"geometry":{"type":"Polygon","coordinates":[[[136.1163,35.95799],[136.11643,35.958],[136.11645,35.95799],[136.11642,35.95747],[136.11627,35.95748],[136.1163,35.95799]]]}},{"type":"Feature","properties":{"pid":"347f754f-c889-4344-82cf-f13f4596b907","full":1.9},"geometry":{"type":"Polygon","coordinates":[[[136.11666,35.95799],[136.11681,35.95799],[136.11678,35.95746],[136.11663,35.95746],[136.11666,35.95799]]]}},{"type":"Feature","properties":{"pid":"440383a9-a2fc-48f9-ad45-e6aae7119f4f","full":1.6},"geometry":{"type":"Polygon","coordinates":[[[136.11685,35.95798],[136.11699,35.95797],[136.11697,35.95744],[136.11681,35.95744],[136.11685,35.95798]]]}},{"type":"Feature","properties":{"pid":"e2d6bc1c-89ad-416b-af23-6ca2dc145a1e","full":1.8},"geometry":{"type":"Polygon","coordinates":[[[136.11703,35.95798],[136.11704,35.95796],[136.11714,35.95796],[136.11718,35.95794],[136.11716,35.95745],[136.117,35.95745],[136.11703,35.95798]]]}},{"type":"Feature","properties":{"pid":"9c6199bb-efa8-4fc9-bf29-c6b997262af3","full":1.1},"geometry":{"type":"Polygon","coordinates":[[[136.11722,35.95796],[136.11731,35.95796],[136.11733,35.95794],[136.11735,35.95789],[136.11733,35.95744],[136.1172,35.95744],[136.11722,35.95796]]]}},{"type":"Feature","properties":{"pid":"29829c84-0298-4ef8-bb1d-40bc9823dfda","full":1.9},"geometry":{"type":"Polygon","coordinates":[[[136.11758,35.95795],[136.11773,35.95794],[136.11769,35.95743],[136.11754,35.95743],[136.11756,35.95789],[136.11758,35.95795]]]}},{"type":"Feature","properties":{"pid":"a3a1ff0c-5734-4b5c-a5a4-d34e5c088f0e","full":1.7},"geometry":{"type":"Polygon","coordinates":[[[136.11754,35.95795],[136.11751,35.95743],[136.11737,35.95744],[136.11739,35.95796],[136.11754,35.95795]]]}},{"type":"Feature","properties":{"pid":"6286a2ea-7925-44e6-b844-b1b94652d4a2","full":1.5},"geometry":{"type":"Polygon","coordinates":[[[136.11775,35.95794],[136.11787,35.95793],[136.11789,35.9579],[136.11787,35.95742],[136.11773,35.95742],[136.11775,35.95794]]]}},{"type":"Feature","properties":{"pid":"539d1201-ec83-459d-93d0-eb5c0b47bde1","full":4.9},"geometry":{"type":"Polygon","coordinates":[[[136.11794,35.95786],[136.11808,35.95776],[136.11821,35.95766],[136.11823,35.95761],[136.11821,35.9574],[136.11794,35.95741],[136.11791,35.95744],[136.11794,35.95786]]]}},{"type":"Feature","properties":{"pid":"0a72edd1-8878-4b80-a24d-47835fa7fd30","full":46.2},"geometry":{"type":"Polygon","coordinates":[[[136.12323,35.95778],[136.12359,35.95849],[136.12367,35.95849],[136.12369,35.95852],[136.12429,35.95851],[136.12419,35.95777],[136.12323,35.95778]]]}},{"type":"Feature","properties":{"pid":"001d0c0f-c2ef-4755-85dd-b4520ff6d79b","full":36.7},"geometry":{"type":"Polygon","coordinates":[[[136.12299,35.95729],[136.12322,35.95775],[136.12328,35.95774],[136.1233,35.95777],[136.12418,35.95776],[136.12416,35.95728],[136.12299,35.95729]]]}},{"type":"Feature","properties":{"pid":"197bc97a-8e08-42e9-81e1-952b8d80a243","full":11.5},"geometry":{"type":"Polygon","coordinates":[[[136.12289,35.95742],[136.12224,35.95743],[136.12224,35.95771],[136.12297,35.9577],[136.12297,35.95768],[136.12301,35.95768],[136.12289,35.95742]]]}},{"type":"Feature","properties":{"pid":"e0e492a1-08a6-4981-b6d6-454be134a830","full":2.5},"geometry":{"type":"Polygon","coordinates":[[[136.12283,35.95741],[136.12282,35.95739],[136.12288,35.95738],[136.12275,35.95713],[136.12257,35.95714],[136.12258,35.95739],[136.12223,35.95739],[136.12223,35.95742],[136.12283,35.95741]]]}},{"type":"Feature","properties":{"pid":"9c0ee590-2670-48b1-9720-582eed491d76","full":14.0},"geometry":{"type":"Polygon","coordinates":[[[136.1221,35.95799],[136.1221,35.95796],[136.12213,35.95795],[136.12211,35.95737],[136.12209,35.95737],[136.12185,35.95755],[136.12172,35.95768],[136.12153,35.95793],[136.12145,35.958],[136.1221,35.95799]]]}},{"type":"Feature","properties":{"pid":"f0714e05-6d72-4bf8-9a4b-4b9064211fce","full":2.0},"geometry":{"type":"Polygon","coordinates":[[[136.12071,35.95918],[136.12077,35.95892],[136.12062,35.9589],[136.12061,35.95895],[136.12051,35.95894],[136.12048,35.95911],[136.12049,35.95917],[136.12071,35.95918]]]}},{"type":"Feature","properties":{"pid":"6dc44566-7436-4f78-8e25-0a3376a92c93","full":1.6},"geometry":{"type":"Polygon","coordinates":[[[136.12081,35.95893],[136.12075,35.95918],[136.12098,35.9592],[136.121,35.95897],[136.12081,35.95893]]]}},{"type":"Feature","properties":{"pid":"8b0f5a5e-2bed-4d21-80f1-a7ae91a342b5","full":10.0},"geometry":{"type":"Polygon","coordinates":[[[136.12161,35.95962],[136.1216,35.95928],[136.12107,35.95928],[136.12108,35.95939],[136.12116,35.95963],[136.12161,35.95962]]]}},{"type":"Feature","properties":{"pid":"5f393951-0742-49bf-9b35-ea08975dffe2","full":9.2},"geometry":{"type":"Polygon","coordinates":[[[136.12167,35.95961],[136.12215,35.9596],[136.12215,35.95927],[136.12167,35.95927],[136.12167,35.95961]]]}},{"type":"Feature","properties":{"pid":"c0aaf6e2-b5c9-47ef-959c-01d86b07e69d","full":8.4},"geometry":{"type":"Polygon","coordinates":[[[136.12215,35.95926],[136.12215,35.95897],[136.12213,35.95897],[136.12213,35.95894],[136.12166,35.95895],[136.12166,35.95926],[136.12215,35.95926]]]}},{"type":"Feature","properties":{"pid":"25bdd0e4-fb06-4d96-924c-f1bf67095393","full":8.0},"geometry":{"type":"Polygon","coordinates":[[[136.12166,35.95894],[136.12214,35.95893],[136.12214,35.95865],[136.12212,35.95862],[136.12167,35.95863],[136.12166,35.95894]]]}},{"type":"Feature","properties":{"pid":"63f43d42-74ec-487d-8281-51c32fe3590a","full":8.9},"geometry":{"type":"Polygon","coordinates":[[[136.1216,35.95926],[136.1216,35.95896],[136.12114,35.95896],[136.1211,35.959],[136.12107,35.95915],[136.12107,35.95927],[136.1216,35.95926]]]}},{"type":"Feature","properties":{"pid":"7aaf21cd-edf3-490c-b118-1ce2d411eb96","full":0.7},"geometry":{"type":"Polygon","coordinates":[[[136.12111,35.95894],[136.1216,35.95893],[136.1216,35.95885],[136.12139,35.95885],[136.12137,35.95884],[136.12134,35.9588],[136.12113,35.9588],[136.12111,35.95894]]]}},{"type":"Feature","properties":{"pid":"044e0ffa-65fb-469f-80fd-22298fe923ce","full":14.3},"geometry":{"type":"Polygon","coordinates":[[[136.12118,35.95828],[136.12117,35.95854],[136.12212,35.95853],[136.12212,35.9585],[136.12214,35.9585],[136.12214,35.95828],[136.12118,35.95828]]]}},{"type":"Feature","properties":{"pid":"194199d4-41f9-4339-9e87-91e0535a0613","full":12.0},"geometry":{"type":"Polygon","coordinates":[[[136.12212,35.95827],[136.12212,35.95822],[136.12214,35.95822],[136.12214,35.958],[136.12144,35.95801],[136.12119,35.95828],[136.12212,35.95827]]]}},{"type":"Feature","properties":{"pid":"321352ef-1f2a-493d-b54f-a33044121764","full":16.5},"geometry":{"type":"Polygon","coordinates":[[[136.12224,35.95827],[136.12225,35.95853],[136.12314,35.95852],[136.1234,35.95852],[136.12328,35.95826],[136.12224,35.95827]]]}},{"type":"Feature","properties":{"pid":"b7de6b4c-d356-4c95-bde9-ad7c46ef81cb","full":17.1},"geometry":{"type":"Polygon","coordinates":[[[136.12324,35.95826],[136.12322,35.95823],[136.12325,35.95822],[136.12313,35.95796],[136.12224,35.95797],[136.12225,35.95826],[136.12324,35.95826]]]}},{"type":"Feature","properties":{"pid":"41380358-ed3f-464d-ac18-85d471071b7d","full":10.6},"geometry":{"type":"Polygon","coordinates":[[[136.12313,35.95795],[136.12303,35.95775],[136.12296,35.95774],[136.12295,35.95772],[136.12224,35.95772],[136.12224,35.95796],[136.12313,35.95795]]]}},{"type":"Feature","properties":{"pid":"1337a54c-efaa-46e6-8c54-becb0dc7d359","full":32.2},"geometry":{"type":"Polygon","coordinates":[[[136.12324,35.95961],[136.12354,35.95962],[136.12382,35.95962],[136.12389,35.95959],[136.12387,35.95956],[136.12391,35.95955],[136.12346,35.95862],[136.12341,35.9586],[136.12322,35.9586],[136.12324,35.95961]]]}},{"type":"Feature","properties":{"pid":"b4b8bf85-fceb-4ce6-b337-34b4dbbcb4fb","full":31.6},"geometry":{"type":"Polygon","coordinates":[[[136.12224,35.95909],[136.12318,35.95908],[136.12318,35.95863],[136.12316,35.95863],[136.12316,35.9586],[136.12222,35.95863],[136.12224,35.95909]]]}},{"type":"Feature","properties":{"pid":"4e7b9d64-eeed-46c4-89a6-8010be3f0194","full":33.1},"geometry":{"type":"Polygon","coordinates":[[[136.12225,35.9591],[136.12224,35.95957],[136.12228,35.95956],[136.12228,35.9596],[136.12236,35.95958],[136.12245,35.95958],[136.12272,35.95958],[136.12318,35.95961],[136.12318,35.95909],[136.12225,35.9591]]]}},{"type":"Feature","properties":{"pid":"34430054-9bde-4e66-9863-e7540a31fe6e","full":8.3},"geometry":{"type":"Polygon","coordinates":[[[136.12324,35.95997],[136.12389,35.95997],[136.12387,35.95973],[136.12384,35.95972],[136.12324,35.95971],[136.12324,35.95997]]]}},{"type":"Feature","properties":{"pid":"92f0f189-e320-47c9-b629-daa9e754369e","full":9.1},"geometry":{"type":"Polygon","coordinates":[[[136.12248,35.95997],[136.12315,35.95997],[136.12314,35.95973],[136.1227,35.9597],[136.12248,35.9597],[136.12248,35.95997]]]}},{"type":"Feature","properties":{"pid":"b7f805ba-e674-43d3-922a-08a0bed7dc33","full":2.5},"geometry":{"type":"Polygon","coordinates":[[[136.12316,35.9601],[136.12316,35.95998],[136.12222,35.95999],[136.12226,35.9601],[136.12231,35.9601],[136.12232,35.96011],[136.12316,35.9601]]]}},{"type":"Feature","properties":{"pid":"df7dd77d-f2f8-4c6c-8ee0-ae482770fe2b","full":2.4},"geometry":{"type":"Polygon","coordinates":[[[136.12232,35.96024],[136.12317,35.96024],[136.12317,35.96013],[136.12313,35.96013],[136.12314,35.96011],[136.12231,35.96012],[136.12231,35.96014],[136.12228,35.96014],[136.12232,35.96024]]]}},{"type":"Feature","properties":{"pid":"a0dc5c98-8660-4722-843e-d5046a810fed","full":11.6},"geometry":{"type":"Polygon","coordinates":[[[136.12232,35.96025],[136.12242,35.96051],[136.12318,35.9605],[136.12317,35.96027],[136.12314,35.96026],[136.12314,35.96024],[136.12232,35.96025]]]}},{"type":"Feature","properties":{"pid":"b49ec1d0-bb5a-4537-999e-0fe762cd71ca","full":0.9},"geometry":{"type":"Polygon","coordinates":[[[136.12356,35.96145],[136.12373,35.96146],[136.12373,35.96144],[136.12376,35.96143],[136.12371,35.96123],[136.12354,35.96126],[136.12356,35.96145]]]}},{"type":"Feature","properties":{"pid":"f6250801-0c5a-42d5-98a7-15476e3554a2","full":0.6},"geometry":{"type":"Polygon","coordinates":[[[136.12284,35.96112],[136.12284,35.96097],[136.12258,35.96096],[136.12267,35.96113],[136.12284,35.96112]]]}},{"type":"Feature","properties":{"pid":"7ec77d6c-d0be-4fd7-9f7e-805194984b38","full":13.1},"geometry":{"type":"Polygon","coordinates":[[[136.12242,35.96052],[136.12254,35.96084],[136.12315,35.96084],[136.12315,35.96081],[136.12318,35.96081],[136.12317,35.96051],[136.12242,35.96052]]]}},{"type":"Feature","properties":{"pid":"cfb10225-8ba6-4aeb-8bd9-e90b364ee070","full":7.3},"geometry":{"type":"Polygon","coordinates":[[[136.12203,35.9609],[136.122,35.96091],[136.1221,35.96112],[136.12217,35.96123],[136.1222,35.96124],[136.12257,35.96111],[136.12246,35.96089],[136.1223,35.96089],[136.12203,35.96086],[136.12203,35.9609]]]}},{"type":"Feature","properties":{"pid":"a653cf37-7343-4960-b978-2f862b3b2ba8","full":1.8},"geometry":{"type":"Polygon","coordinates":[[[136.12153,35.96077],[136.12176,35.96077],[136.12172,35.96051],[136.12151,35.96051],[136.12153,35.96077]]]}},{"type":"Feature","properties":{"pid":"0095e88b-cdb6-49f5-afd7-cbc1658e93da","full":10.7},"geometry":{"type":"Polygon","coordinates":[[[136.12109,35.96074],[136.12108,35.96077],[136.12151,35.96078],[136.12148,35.96035],[136.12146,35.96034],[136.12108,35.96036],[136.12106,35.96073],[136.12109,35.96074]]]}},{"type":"Feature","properties":{"pid":"14df13e4-b8f3-4658-a930-d456ab9c658d","full":0.7},"geometry":{"type":"Polygon","coordinates":[[[136.12196,35.95961],[136.12167,35.95962],[136.12167,35.95977],[136.12186,35.95974],[136.12196,35.95971],[136.12196,35.95961]]]}},{"type":"Feature","properties":{"pid":"bfd6f60b-7f8c-40a3-aaf4-c036a226813e","full":2.6},"geometry":{"type":"Polygon","coordinates":[[[136.12117,35.95964],[136.12124,35.95982],[136.12127,35.95982],[136.12128,35.95984],[136.12161,35.95978],[136.12161,35.95963],[136.12117,35.95964]]]}},{"type":"Feature","properties":{"pid":"3e2da352-5c3d-4e36-a4fc-cbcd62d10e9c","full":18.1},"geometry":{"type":"Polygon","coordinates":[[[136.12051,35.9606],[136.12055,35.96063],[136.12074,35.96073],[136.12092,35.96074],[136.12097,35.96073],[136.12099,35.96054],[136.121,35.96021],[136.12107,35.96001],[136.12062,35.96011],[136.12051,35.96056],[136.12051,35.9606]]]}},{"type":"Feature","properties":{"pid":"62c6cc59-a507-4b90-abf9-335a63f71be1","full":1.9},"geometry":{"type":"Polygon","coordinates":[[[136.12024,35.9604],[136.12045,35.96039],[136.12051,35.96012],[136.12024,35.96017],[136.12024,35.9604]]]}},{"type":"Feature","properties":{"pid":"b6e5abee-8737-4fc4-951e-6a9488d42977","full":0.5},"geometry":{"type":"Polygon","coordinates":[[[136.12224,35.96163],[136.12236,35.96159],[136.1224,35.96154],[136.12231,35.96143],[136.12226,35.96144],[136.12219,35.96146],[136.12219,35.96154],[136.12221,35.96158],[136.12224,35.96163]]]}},{"type":"Feature","properties":{"pid":"4651e787-b68f-4771-a3fa-5848c6627fe0","full":5.6},"geometry":{"type":"Polygon","coordinates":[[[136.12243,35.96152],[136.12251,35.96163],[136.12256,35.9617],[136.12264,35.96171],[136.12286,35.96169],[136.12291,35.96153],[136.1229,35.96149],[136.12278,35.96137],[136.12243,35.96152]]]}},{"type":"Feature","properties":{"pid":"a980fcfd-2430-44de-823b-27e63881c006","full":8.4},"geometry":{"type":"Polygon","coordinates":[[[136.12425,35.96111],[136.12425,35.96109],[136.12427,35.96108],[136.12426,35.96089],[136.12368,35.96089],[136.12366,35.96093],[136.12365,35.96096],[136.12371,35.9612],[136.12425,35.96111]]]}},{"type":"Feature","properties":{"pid":"7dc3200a-d132-4dbc-b7a5-fe62b12e5827","full":7.2},"geometry":{"type":"Polygon","coordinates":[[[136.12445,35.96117],[136.12476,35.96115],[136.12495,35.9611],[136.12494,35.96083],[136.1248,35.96085],[136.12478,35.96084],[136.12445,35.96091],[136.12445,35.96117]]]}},{"type":"Feature","properties":{"pid":"d9229728-748c-4516-8068-89118a3a48b1","full":16.6},"geometry":{"type":"Polygon","coordinates":[[[136.12442,35.96027],[136.12445,35.96087],[136.12448,35.96087],[136.12448,35.96088],[136.12495,35.96078],[136.12476,35.9602],[136.12442,35.96027]]]}},{"type":"Feature","properties":{"pid":"58419f13-74a3-4935-a8f2-977f347520b6","full":65.0},"geometry":{"type":"Polygon","coordinates":[[[136.1241,35.95997],[136.12325,35.95998],[136.12327,35.96082],[136.12426,35.96083],[136.12426,35.96056],[136.12424,35.96041],[136.12422,35.96028],[136.12418,35.96016],[136.1241,35.95997]]]}},{"type":"Feature","properties":{"pid":"3b776c9a-c133-486b-b6eb-8e5c298d4140","full":1.1},"geometry":{"type":"Polygon","coordinates":[[[136.12475,35.96019],[136.1247,35.96003],[136.1244,35.96014],[136.12441,35.96016],[136.12439,35.96016],[136.12442,35.96026],[136.12475,35.96019]]]}},{"type":"Feature","properties":{"pid":"d91f3c63-2543-4268-9083-2215894f6f25","full":2.8},"geometry":{"type":"Polygon","coordinates":[[[136.09985,35.95728],[136.1,35.95745],[136.10013,35.95741],[136.10022,35.95734],[136.10025,35.95724],[136.10018,35.9571],[136.10016,35.9571],[136.10008,35.95718],[136.09985,35.95728]]]}},{"type":"Feature","properties":{"pid":"f90106b6-1c80-4007-966b-d59ec39756f7","full":1.0},"geometry":{"type":"Polygon","coordinates":[[[136.10042,35.95743],[136.10038,35.95702],[136.10026,35.95701],[136.10024,35.95702],[136.10021,35.95706],[136.10027,35.95719],[136.10027,35.95728],[136.10025,35.95735],[136.10018,35.95742],[136.10042,35.95743]]]}},{"type":"Feature","properties":{"pid":"b6b2fae1-3938-45e6-b825-2a460523d460","full":0.8},"geometry":{"type":"Polygon","coordinates":[[[136.10059,35.9574],[136.10053,35.95702],[136.10039,35.95702],[136.10044,35.95741],[136.10059,35.9574]]]}},{"type":"Feature","properties":{"pid":"6f8eb38e-1fd9-437c-8244-ebaac426c077","full":0.7},"geometry":{"type":"Polygon","coordinates":[[[136.10518,35.96261],[136.10524,35.9626],[136.10529,35.96262],[136.10539,35.96266],[136.10554,35.96269],[136.10559,35.96253],[136.10545,35.96253],[136.10521,35.96251],[136.10518,35.96261]]]}},{"type":"Feature","properties":{"pid":"e040bf2c-aa37-4a57-8ddc-93c044ca13bd","full":2.0},"geometry":{"type":"Polygon","coordinates":[[[136.10558,35.96269],[136.10579,35.96285],[136.10592,35.96268],[136.10575,35.96256],[136.10566,35.96253],[136.10563,35.96253],[136.10558,35.96269]]]}},{"type":"Feature","properties":{"pid":"10f65c69-bd00-47a0-b845-673f211bed28","full":0.9},"geometry":{"type":"Polygon","coordinates":[[[136.10581,35.96286],[136.10595,35.96296],[136.10616,35.96277],[136.10605,35.96277],[136.10595,35.9627],[136.10581,35.96286]]]}},{"type":"Feature","properties":{"pid":"ed6631a5-4a16-492b-8f21-276dd1a8b395","full":4.6},"geometry":{"type":"Polygon","coordinates":[[[136.1064,35.96301],[136.10629,35.96282],[136.10619,35.96279],[136.10596,35.96301],[136.10591,35.9631],[136.10583,35.96318],[136.10582,35.96324],[136.1064,35.96301]]]}},{"type":"Feature","properties":{"pid":"4ef575d3-f5f3-4bdb-ada5-40f79a8b8b5d","full":5.6},"geometry":{"type":"Polygon","coordinates":[[[136.10724,35.96268],[136.10719,35.96254],[136.10671,35.96272],[136.10654,35.96274],[136.1064,35.9628],[136.10649,35.96296],[136.10652,35.96297],[136.10724,35.96268]]]}},{"type":"Feature","properties":{"pid":"5bf58831-a41a-4af1-80d6-659aa5bbd2da","full":6.0},"geometry":{"type":"Polygon","coordinates":[[[136.1073,35.96287],[136.10724,35.96269],[136.10652,35.96298],[136.10653,35.96303],[136.10659,35.96313],[136.10661,35.96313],[136.1073,35.96287]]]}},{"type":"Feature","properties":{"pid":"35e018f9-89fa-4b51-9bbd-0b37d133331b","full":5.8},"geometry":{"type":"Polygon","coordinates":[[[136.10736,35.96305],[136.10731,35.96288],[136.10661,35.96314],[136.10661,35.96319],[136.10667,35.96329],[136.10671,35.9633],[136.10736,35.96305]]]}},{"type":"Feature","properties":{"pid":"fb9e6024-cbee-46b9-9986-ff5afcfcfc65","full":2.4},"geometry":{"type":"Polygon","coordinates":[[[136.10759,35.96272],[136.10744,35.96246],[136.10725,35.96253],[136.10734,35.96279],[136.10759,35.96272]]]}},{"type":"Feature","properties":{"pid":"c104e834-5ab7-40aa-8aa4-150f512db746","full":3.4},"geometry":{"type":"Polygon","coordinates":[[[136.10791,35.96257],[136.10822,35.96248],[136.10805,35.96221],[136.10802,35.96221],[136.10784,35.96227],[136.10783,35.9623],[136.10789,35.96242],[136.10791,35.96257]]]}},{"type":"Feature","properties":{"pid":"d28e3de5-178d-4f0f-9342-142eabde2b1d","full":5.7},"geometry":{"type":"Polygon","coordinates":[[[136.10832,35.96254],[136.10859,35.96245],[136.10836,35.96207],[136.10814,35.96216],[136.10813,35.96219],[136.10819,35.96232],[136.10832,35.96254]]]}},{"type":"Feature","properties":{"pid":"ac3337b2-462d-4afc-8a7b-c2aece0e8ca9","full":4.5},"geometry":{"type":"Polygon","coordinates":[[[136.10688,35.96362],[136.10751,35.96338],[136.10744,35.96322],[136.1068,35.96347],[136.10681,35.96352],[136.10685,35.96361],[136.10688,35.96362]]]}},{"type":"Feature","properties":{"pid":"285879ac-14bf-4ca9-ad1f-c58ce49d2ddd","full":5.1},"geometry":{"type":"Polygon","coordinates":[[[136.1069,35.96362],[136.1069,35.96367],[136.10696,35.96377],[136.10699,35.96378],[136.10771,35.96351],[136.10771,35.96349],[136.10757,35.96349],[136.10752,35.96339],[136.1069,35.96362]]]}},{"type":"Feature","properties":{"pid":"24fe90cc-0e34-4507-a615-eb9415862bd2","full":16.7},"geometry":{"type":"Polygon","coordinates":[[[136.10699,35.96383],[136.10715,35.9641],[136.10791,35.96381],[136.10785,35.9637],[136.10779,35.96372],[136.10773,35.96352],[136.10699,35.96379],[136.10699,35.96383]]]}},{"type":"Feature","properties":{"pid":"57e7ef0e-7b11-4724-8496-5ec2e3b5019b","full":7.0},"geometry":{"type":"Polygon","coordinates":[[[136.10861,35.96392],[136.10847,35.96367],[136.10802,35.96385],[136.10815,35.9641],[136.10861,35.96392]]]}},{"type":"Feature","properties":{"pid":"aed4892b-e7e6-4848-8a15-15352553d998","full":4.5},"geometry":{"type":"Polygon","coordinates":[[[136.10744,35.96447],[136.1075,35.96451],[136.10757,35.96451],[136.1078,35.96443],[136.10786,35.96453],[136.10797,35.96448],[136.10804,35.96456],[136.10827,35.96444],[136.10821,35.96435],[136.10825,35.96433],[136.10817,35.96421],[136.10744,35.96447]]]}},{"type":"Feature","properties":{"pid":"6f026cf6-4bbd-4c32-9e39-ed6eb2e5a042","full":0.7},"geometry":{"type":"Polygon","coordinates":[[[136.10711,35.96446],[136.10727,35.96443],[136.10713,35.96421],[136.10698,35.96425],[136.10711,35.96446]]]}},{"type":"Feature","properties":{"pid":"d55370da-ed0a-46d9-bfa7-a978358c7d66","full":20.0},"geometry":{"type":"Polygon","coordinates":[[[136.10735,35.96445],[136.10744,35.96446],[136.10816,35.96419],[136.10798,35.96387],[136.10717,35.96418],[136.10735,35.96445]]]}},{"type":"Feature","properties":{"pid":"c4ae38e2-de8e-4de4-a220-dbdecdc0a10f","full":5.6},"geometry":{"type":"Polygon","coordinates":[[[136.10698,35.96399],[136.10689,35.96383],[136.10614,35.96413],[136.10622,35.96428],[136.10698,35.96399]]]}},{"type":"Feature","properties":{"pid":"a4341052-4023-416b-9679-c03dbd04bcde","full":5.6},"geometry":{"type":"Polygon","coordinates":[[[136.10623,35.96428],[136.10631,35.96443],[136.10707,35.96415],[136.10698,35.96399],[136.10623,35.96428]]]}},{"type":"Feature","properties":{"pid":"2a705892-a51e-4d4e-a49e-2a6f9604c33f","full":2.0},"geometry":{"type":"Polygon","coordinates":[[[136.10695,35.9645],[136.10682,35.96432],[136.10641,35.96447],[136.10651,35.96463],[136.10657,35.96459],[136.10659,35.96454],[136.10664,35.96452],[136.10683,35.96451],[136.10695,35.9645]]]}},{"type":"Feature","properties":{"pid":"3ef38667-4a2e-41c1-8c05-462a8a8dcdb4","full":2.4},"geometry":{"type":"Polygon","coordinates":[[[136.10591,35.96464],[136.1061,35.96467],[136.10618,35.96477],[136.10626,35.9648],[136.10632,35.96477],[136.10642,35.96469],[136.10631,35.9645],[136.10591,35.96464]]]}},{"type":"Feature","properties":{"pid":"24a5365a-ccdb-449f-8534-8c4510cded80","full":4.6},"geometry":{"type":"Polygon","coordinates":[[[136.10544,35.96459],[136.10552,35.96473],[136.10626,35.96445],[136.10618,35.96431],[136.10544,35.96459]]]}},{"type":"Feature","properties":{"pid":"ef99b9f3-b50d-4a59-bff1-6841cdd3f5d9","full":5.4},"geometry":{"type":"Polygon","coordinates":[[[136.10679,35.96366],[136.1067,35.96351],[136.10595,35.9638],[136.10604,35.96395],[136.10679,35.96366]]]}},{"type":"Feature","properties":{"pid":"3be94758-e1ba-45e0-8a01-c194243c3319","full":6.1},"geometry":{"type":"Polygon","coordinates":[[[136.10688,35.96383],[136.10679,35.96367],[136.10605,35.96396],[136.10613,35.96412],[136.10688,35.96383]]]}},{"type":"Feature","properties":{"pid":"7330e366-014e-418d-a759-d65c082626cb","full":5.2},"geometry":{"type":"Polygon","coordinates":[[[136.10744,35.96322],[136.10739,35.96312],[136.10737,35.96305],[136.1067,35.96331],[136.10671,35.96335],[136.10677,35.96346],[136.1068,35.96346],[136.10744,35.96322]]]}},{"type":"Feature","properties":{"pid":"25155cc2-de8f-4872-a51a-6b48022e364d","full":4.5},"geometry":{"type":"Polygon","coordinates":[[[136.1065,35.96317],[136.10641,35.96303],[136.10582,35.96325],[136.10581,35.96336],[136.10576,35.96346],[136.1065,35.96317]]]}},{"type":"Feature","properties":{"pid":"18b2ffa7-8435-4ca4-96e8-e339ab3496e2","full":6.7},"geometry":{"type":"Polygon","coordinates":[[[136.1067,35.9635],[136.1066,35.96334],[136.10586,35.96362],[136.10595,35.96379],[136.1067,35.9635]]]}},{"type":"Feature","properties":{"pid":"753b8bb0-d9ef-4e8d-8a5b-9654774aff49","full":4.8},"geometry":{"type":"Polygon","coordinates":[[[136.10584,35.96361],[136.10659,35.96334],[136.10651,35.96318],[136.10577,35.96347],[136.10584,35.96361]]]}},{"type":"Feature","properties":{"pid":"a510450c-3653-4d90-ad95-631f485f3078","full":6.4},"geometry":{"type":"Polygon","coordinates":[[[136.10546,35.96394],[136.10586,35.96378],[136.1057,35.96347],[136.10533,35.96373],[136.10546,35.96394]]]}},{"type":"Feature","properties":{"pid":"3dfd9f2c-3fe7-41da-9b28-79cc33ff2615","full":0.8},"geometry":{"type":"Polygon","coordinates":[[[136.10529,35.964],[136.10545,35.96394],[136.10532,35.96374],[136.10517,35.96382],[136.10529,35.964]]]}},{"type":"Feature","properties":{"pid":"1381a3b8-cf1d-40c7-bb3e-50a168076860","full":3.3},"geometry":{"type":"Polygon","coordinates":[[[136.10599,35.96398],[136.10592,35.96386],[136.10517,35.96414],[136.10525,35.96426],[136.10599,35.96398]]]}},{"type":"Feature","properties":{"pid":"f2090899-39f2-439f-9d3b-71cd92f5b0b0","full":5.5},"geometry":{"type":"Polygon","coordinates":[[[136.10608,35.96413],[136.106,35.96398],[136.10525,35.96427],[136.10534,35.96443],[136.10608,35.96413]]]}},{"type":"Feature","properties":{"pid":"9a3a9d07-ed2d-4570-b757-b8f0c60013fc","full":6.0},"geometry":{"type":"Polygon","coordinates":[[[136.10618,35.9643],[136.10609,35.96414],[136.10534,35.96443],[136.10543,35.96458],[136.10618,35.9643]]]}},{"type":"Feature","properties":{"pid":"565537db-cbfb-4c6c-9fce-67d518c0bafd","full":5.2},"geometry":{"type":"Polygon","coordinates":[[[136.10513,35.96483],[136.10535,35.96481],[136.10544,35.96477],[136.10525,35.96443],[136.10498,35.96455],[136.10513,35.96483]]]}},{"type":"Feature","properties":{"pid":"b05629bd-d610-4362-86f0-2b064244e0d5","full":11.8},"geometry":{"type":"Polygon","coordinates":[[[136.10738,35.97042],[136.10752,35.97046],[136.10771,35.97059],[136.10775,35.97055],[136.1078,35.97035],[136.108,35.96984],[136.10824,35.96931],[136.10814,35.96928],[136.10808,35.96929],[136.10802,35.96937],[136.10783,35.96982],[136.10769,35.97011],[136.1076,35.97021],[136.10749,35.97026],[136.10743,35.97033],[136.10738,35.97042]]]}},{"type":"Feature","properties":{"pid":"42461ecb-bb30-4b15-b1e3-a517f3f9f75c","full":25.7},"geometry":{"type":"Polygon","coordinates":[[[136.10134,35.96631],[136.10118,35.96593],[136.10114,35.96594],[136.10113,35.96591],[136.10044,35.96602],[136.10051,35.9664],[136.10058,35.96651],[136.10134,35.96631]]]}},{"type":"Feature","properties":{"pid":"53220b39-2a02-48dd-bf6f-f7dbb3969f67","full":1.9},"geometry":{"type":"Polygon","coordinates":[[[136.10136,35.9663],[136.10153,35.96626],[136.10138,35.96589],[136.10121,35.96592],[136.10136,35.9663]]]}},{"type":"Feature","properties":{"pid":"c9af24ec-c92a-447e-adde-d17af813a9d7","full":11.2},"geometry":{"type":"Polygon","coordinates":[[[136.10222,35.96519],[136.10236,35.96524],[136.1026,35.96523],[136.10277,35.96521],[136.1029,35.96521],[136.10303,35.96516],[136.10304,35.96504],[136.10285,35.96498],[136.10243,35.96493],[136.10224,35.96507],[136.10222,35.96519]]]}},{"type":"Feature","properties":{"pid":"53bd47f7-9b52-4804-8311-6c010a18d858","full":0.7},"geometry":{"type":"Polygon","coordinates":[[[136.10194,35.96514],[136.10201,35.96514],[136.10214,35.96518],[136.10217,35.96516],[136.10211,35.96499],[136.10188,35.96502],[136.10194,35.96514]]]}},{"type":"Feature","properties":{"pid":"7807d02e-68f8-4591-ab1f-9173b0fdb60d","full":4.1},"geometry":{"type":"Polygon","coordinates":[[[136.10148,35.96486],[136.1016,35.96515],[136.10188,35.96517],[136.10191,35.96514],[136.10177,35.96484],[136.10148,35.96486]]]}},{"type":"Feature","properties":{"pid":"34be54b4-434d-448c-8ceb-02410f8e04c0","full":1.7},"geometry":{"type":"Polygon","coordinates":[[[136.10174,35.96482],[136.10159,35.96455],[136.10146,35.96457],[136.10147,35.96484],[136.10174,35.96482]]]}},{"type":"Feature","properties":{"pid":"47da0157-abba-47d8-8f3d-6027a3a51e6b","full":0.9},"geometry":{"type":"Polygon","coordinates":[[[136.1022,35.96505],[136.10237,35.9649],[136.10223,35.96478],[136.10212,35.9647],[136.10204,35.96472],[136.10204,35.96476],[136.10211,35.96483],[136.1022,35.96505]]]}},{"type":"Feature","properties":{"pid":"7c451b9a-4e9f-402c-9852-3419c92fa115","full":2.5},"geometry":{"type":"Polygon","coordinates":[[[136.10698,35.97049],[136.10703,35.97051],[136.10724,35.97053],[136.10735,35.97018],[136.10713,35.97017],[136.10712,35.97023],[136.10712,35.9703],[136.10698,35.97049]]]}},{"type":"Feature","properties":{"pid":"1192880b-512d-4330-9a40-debf1939aa3c","full":9.8},"geometry":{"type":"Polygon","coordinates":[[[136.10862,35.9702],[136.10833,35.97012],[136.10818,35.9705],[136.10814,35.97069],[136.1081,35.97093],[136.1082,35.97096],[136.10828,35.97081],[136.10844,35.97059],[136.10862,35.9702]]]}}],"precision":5}