{"type":"FeatureCollection","features":[{"type":"Feature","properties":{"pid":"e15d5569-ef7b-4877-a061-febd7278253b"},"geometry":{"type":"Polygon","coordinates":[[[136.05224605171628,35.59010189661704],[136.05223699486902,35.590168801650684],[136.05225126109437,35.59039597059838],[136.05237789644687,35.59042286425887],[136.05244983425516,35.59029017080456],[136.05242533228548,35.59020531802345],[136.05231032103077,35.59017277214661],[136.05224605171628,35.59010189661704]]]}},{"type":"Feature","properties":{"pid":"7cd0de89-0f85-4f26-90a2-d95aac44495b"},"geometry":{"type":"Polygon","coordinates":[[[136.05200915404527,35.5881942933196],[136.05207965197917,35.588242230304374],[136.05209675866834,35.588226909884696],[136.05213401350497,35.58809902050404],[136.05231483246527,35.58793091751508],[136.0523500557846,35.587878959450926],[136.05200915404527,35.5881942933196]]]}},{"type":"Feature","properties":{"pid":"5f7ebb31-778b-470d-a521-324c15118777"},"geometry":{"type":"Polygon","coordinates":[[[136.05192302804713,35.58811937240917],[136.05236240924964,35.58770637508419],[136.05233111634936,35.58765934690894],[136.05230401112766,35.58764337467617],[136.05184982268875,35.588064189334645],[136.05192302804713,35.58811937240917]]]}},{"type":"Feature","properties":{"pid":"11a2ae03-cf50-4658-9a48-a122bdeb4011"},"geometry":{"type":"Polygon","coordinates":[[[136.0516717095516,35.588239374135924],[136.0512381897154,35.58864000001955],[136.0512438317352,35.588652781185175],[136.05127971094916,35.588683969251285],[136.0517199948897,35.58826953405998],[136.0516717095516,35.588239374135924]]]}},{"type":"Feature","properties":{"pid":"f2f38ec5-fdb9-44e2-8acc-b62f07df057b"},"geometry":{"type":"Polygon","coordinates":[[[136.05110303475374,35.58851400883756],[136.0511289644106,35.5885425072068],[136.05145719610536,35.588234348057185],[136.05133949586622,35.58828829131257],[136.0511966393603,35.5884221882333],[136.05115922912157,35.5884388118924],[136.05110303475374,35.58851400883756]]]}},{"type":"Feature","properties":{"pid":"ce20f82c-8aa3-456d-87ab-bef2cf002fa6"},"geometry":{"type":"Polygon","coordinates":[[[136.05165693089964,35.58964409151554],[136.05205745823633,35.589674262841555],[136.05205145280925,35.5895873056946],[136.0519800823099,35.589495389213795],[136.05185619926806,35.589470625368314],[136.05176212088745,35.58947441383823],[136.0517122533933,35.58950406136653],[136.05168278777134,35.58954855077455],[136.05165693089964,35.58964409151554]]]}},{"type":"Feature","properties":{"pid":"738eb60f-594e-4418-b1ea-978315d0490a"},"geometry":{"type":"Polygon","coordinates":[[[136.0513376810738,35.58951778044077],[136.0512278754178,35.58946452717452],[136.0510913942824,35.5894384401321],[136.0508011923542,35.58955712866178],[136.0513367198637,35.589595944384634],[136.0513376810738,35.58951778044077]]]}},{"type":"Feature","properties":{"pid":"026f902d-dbf7-4665-be40-14855c4076c8"},"geometry":{"type":"Polygon","coordinates":[[[136.05131150465255,35.589717952917596],[136.05080680627816,35.58967560593146],[136.05079882034735,35.58975956750099],[136.0508367574406,35.58983319140093],[136.05129964256776,35.58986796547426],[136.05131150465255,35.589717952917596]]]}},{"type":"Feature","properties":{"pid":"e77d4d25-47c8-4cdf-9b2e-5dafbd9c8a19"},"geometry":{"type":"Polygon","coordinates":[[[136.05081289331744,35.59009763728562],[136.0512664459616,35.59012842441049],[136.0512825626943,35.589982810231895],[136.05084123311477,35.58995339093246],[136.05081289331744,35.59009763728562]]]}},{"type":"Feature","properties":{"pid":"75c0982c-7d58-4816-98cc-58bf9eaf69b6"},"geometry":{"type":"Polygon","coordinates":[[[136.05125834176735,35.59023770563468],[136.05082044326792,35.59020129544121],[136.05082569620637,35.59023957693389],[136.05125435498246,35.59027197947241],[136.05125834176735,35.59023770563468]]]}},{"type":"Feature","properties":{"pid":"acb703c0-724e-4bb5-8a09-e32d377214a8"},"geometry":{"type":"Polygon","coordinates":[[[136.05166012376588,35.58974759144832],[136.05161222225436,35.58990875655657],[136.05205777459415,35.58995052996763],[136.0520764799804,35.589791283389985],[136.05166012376588,35.58974759144832]]]}},{"type":"Feature","properties":{"pid":"8baf7aec-933d-488d-8bc6-408f8bc8333f"},"geometry":{"type":"Polygon","coordinates":[[[136.05153785472635,35.590177531084265],[136.0520296201122,35.590217439469264],[136.05203068186265,35.59005985368172],[136.05158449429027,35.59001122138669],[136.05153785472635,35.590177531084265]]]}},{"type":"Feature","properties":{"pid":"8f04a0ef-9c43-4a71-8fcb-21877a38331c"},"geometry":{"type":"Polygon","coordinates":[[[136.05151831809167,35.59032758863997],[136.0520308094901,35.59037254463024],[136.05203463665333,35.590368471671894],[136.0520316946577,35.59033056786145],[136.05152934619352,35.59028470614988],[136.05151831809167,35.59032758863997]]]}},{"type":"Feature","properties":{"pid":"2fdb7235-f9dc-41fe-a091-d736d949898c"},"geometry":{"type":"Polygon","coordinates":[[[136.05123832662247,35.59036829446336],[136.05084414102376,35.59033785497138],[136.05085899243298,35.590374449655954],[136.05122856037426,35.59040941108932],[136.05123832662247,35.59036829446336]]]}}]}