{"type":"FeatureCollection","features":[{"type":"Feature","properties":{"pid":"68bc86bd-3a7d-48f4-9a6f-2454fddd8ff5","full":3.3},"geometry":{"type":"Polygon","coordinates":[[[136.13995,35.82457],[136.13983,35.82435],[136.13957,35.82453],[136.13969,35.82472],[136.13975,35.82473],[136.13995,35.82457]]]}},{"type":"Feature","properties":{"pid":"8b66fffb-b538-4438-b467-6011ba2a01eb","full":5.4},"geometry":{"type":"Polygon","coordinates":[[[136.14037,35.8244],[136.14061,35.82432],[136.14075,35.82425],[136.14066,35.82401],[136.14026,35.82416],[136.14037,35.8244]]]}},{"type":"Feature","properties":{"pid":"a98ad5d7-e050-4fcb-ba32-de9c7316f2ef","full":5.5},"geometry":{"type":"Polygon","coordinates":[[[136.14117,35.8241],[136.14103,35.82384],[136.14072,35.82399],[136.1408,35.82422],[136.14084,35.82425],[136.14099,35.8242],[136.14104,35.82419],[136.14117,35.8241]]]}},{"type":"Feature","properties":{"pid":"4db6f304-cb3a-4ace-b94b-1e69b0b26a48","full":2.0},"geometry":{"type":"Polygon","coordinates":[[[136.14119,35.82399],[136.14122,35.82403],[136.14127,35.824],[136.14144,35.82371],[136.14144,35.82368],[136.1411,35.82376],[136.14109,35.82378],[136.14119,35.82399]]]}},{"type":"Feature","properties":{"pid":"06ccfeed-970b-4063-aca0-1a86e9fec0b0","full":13.7},"geometry":{"type":"Polygon","coordinates":[[[136.14615,35.8246],[136.1461,35.82459],[136.14584,35.82471],[136.14584,35.82473],[136.14623,35.82524],[136.14657,35.82514],[136.14615,35.8246]]]}},{"type":"Feature","properties":{"pid":"d189e053-63e4-421f-8a60-aa99851ee7eb","full":11.8},"geometry":{"type":"Polygon","coordinates":[[[136.14644,35.82444],[136.14642,35.82443],[136.14617,35.82455],[136.14661,35.82512],[136.14679,35.82505],[136.14681,35.82503],[136.14681,35.825],[136.14671,35.82473],[136.14648,35.82446],[136.14644,35.82444]]]}},{"type":"Feature","properties":{"pid":"ff29be36-12b7-42df-81bb-56b781d326ef","full":5.2},"geometry":{"type":"Polygon","coordinates":[[[136.14627,35.82445],[136.14657,35.8243],[136.14656,35.82427],[136.14644,35.8241],[136.14641,35.82408],[136.14636,35.82407],[136.14608,35.82421],[136.14625,35.82443],[136.14627,35.82445]]]}},{"type":"Feature","properties":{"pid":"25a89b24-4d34-4ed1-9213-d207bde706cc","full":18.2},"geometry":{"type":"Polygon","coordinates":[[[136.14616,35.82391],[136.14594,35.82385],[136.14535,35.8241],[136.1456,35.8244],[136.1464,35.82402],[136.1464,35.82401],[136.14632,35.82396],[136.14616,35.82391]]]}},{"type":"Feature","properties":{"pid":"cead4ef4-65b7-46db-9d7f-95a5b2eaa0bf","full":6.8},"geometry":{"type":"Polygon","coordinates":[[[136.1462,35.82445],[136.14604,35.82421],[136.14561,35.82443],[136.14578,35.82465],[136.1462,35.82446],[136.1462,35.82445]]]}},{"type":"Feature","properties":{"pid":"af804754-1af6-4e38-bcb1-c3535c787afc","full":5.9},"geometry":{"type":"Polygon","coordinates":[[[136.1453,35.82405],[136.14552,35.82396],[136.1455,35.82381],[136.14546,35.82364],[136.14533,35.8236],[136.14524,35.82371],[136.14519,35.82375],[136.14509,35.82379],[136.14528,35.82405],[136.1453,35.82405]]]}},{"type":"Feature","properties":{"pid":"0540cec4-5058-4ae3-8143-fbb1764ee1d2","full":4.1},"geometry":{"type":"Polygon","coordinates":[[[136.14672,35.82439],[136.14665,35.82434],[136.14655,35.82435],[136.14647,35.82441],[136.14672,35.82471],[136.14687,35.82466],[136.14701,35.82459],[136.14672,35.82439]]]}},{"type":"Feature","properties":{"pid":"c44c7ae7-b728-4e9f-a4bd-b114e307ba53","full":2.9},"geometry":{"type":"Polygon","coordinates":[[[136.14716,35.82471],[136.14707,35.82459],[136.14692,35.82465],[136.14674,35.82473],[136.14682,35.82489],[136.14719,35.82478],[136.14716,35.82471]]]}},{"type":"Feature","properties":{"pid":"4a9b89f9-53d4-4706-9039-13d434ecbf2e","full":2.4},"geometry":{"type":"Polygon","coordinates":[[[136.14721,35.82484],[136.1472,35.82479],[136.14682,35.8249],[136.14686,35.82498],[136.14685,35.82505],[136.14691,35.82505],[136.14722,35.82499],[136.14721,35.82484]]]}},{"type":"Feature","properties":{"pid":"c1fc9112-669f-4bcc-9dab-e8b8406c8cdd","full":7.5},"geometry":{"type":"Polygon","coordinates":[[[136.14821,35.82631],[136.148,35.82644],[136.14826,35.82663],[136.14856,35.82683],[136.14864,35.82678],[136.14883,35.82685],[136.14876,35.82676],[136.14862,35.82661],[136.14851,35.82652],[136.14821,35.82631]]]}},{"type":"Feature","properties":{"pid":"f3de93db-5997-4a47-b15d-bc0a98c9175c","full":15.0},"geometry":{"type":"Polygon","coordinates":[[[136.14744,35.82598],[136.14778,35.82649],[136.14815,35.82628],[136.14806,35.82619],[136.14791,35.82593],[136.14784,35.82585],[136.14782,35.82584],[136.14779,35.82584],[136.14744,35.82598]]]}},{"type":"Feature","properties":{"pid":"cc80c826-ff1d-4751-b09a-2e7fce4f17b1","full":6.4},"geometry":{"type":"Polygon","coordinates":[[[136.14758,35.82674],[136.14763,35.8268],[136.14774,35.82693],[136.14821,35.82662],[136.14806,35.82653],[136.14797,35.82646],[136.14758,35.82674]]]}},{"type":"Feature","properties":{"pid":"e6d4e84e-99f9-4454-b7fc-6fdd5877eba0","full":14.0},"geometry":{"type":"Polygon","coordinates":[[[136.14702,35.82617],[136.14748,35.82669],[136.14775,35.82651],[136.14739,35.826],[136.14702,35.82617]]]}},{"type":"Feature","properties":{"pid":"31edcd59-0a23-4134-ad53-efc50f74f3b4","full":6.7},"geometry":{"type":"Polygon","coordinates":[[[136.14694,35.82612],[136.14719,35.82601],[136.14673,35.82557],[136.14656,35.82566],[136.14679,35.82595],[136.14694,35.82612]]]}},{"type":"Feature","properties":{"pid":"65d9bfd1-b357-45b0-9cdc-6dd415d5ef0b","full":6.9},"geometry":{"type":"Polygon","coordinates":[[[136.14724,35.826],[136.14746,35.82589],[136.14701,35.82546],[136.14678,35.82557],[136.14724,35.826]]]}},{"type":"Feature","properties":{"pid":"74f0b3f0-2d23-42f8-95e4-88eb73d21617","full":5.1},"geometry":{"type":"Polygon","coordinates":[[[136.14752,35.82588],[136.14778,35.82578],[136.1478,35.82576],[136.14779,35.82572],[136.14767,35.82562],[136.14755,35.82549],[136.14727,35.82566],[136.14752,35.82588]]]}},{"type":"Feature","properties":{"pid":"bb3ad168-239c-4f02-9585-1c151906035b","full":12.0},"geometry":{"type":"Polygon","coordinates":[[[136.14721,35.82507],[136.14721,35.82502],[136.14685,35.82509],[136.14682,35.82511],[136.14682,35.82513],[136.14687,35.82522],[136.14698,35.82535],[136.14704,35.82542],[136.14726,35.82564],[136.14754,35.82547],[136.14737,35.82533],[136.14726,35.82518],[136.14721,35.82507]]]}},{"type":"Feature","properties":{"pid":"6b0ca332-7109-4b32-b9d6-ae91769db5c8","full":4.3},"geometry":{"type":"Polygon","coordinates":[[[136.14677,35.82514],[136.14675,35.82514],[136.14653,35.82521],[136.14652,35.82523],[136.14678,35.82554],[136.14698,35.82544],[136.14699,35.82541],[136.14697,35.8254],[136.14677,35.82514]]]}},{"type":"Feature","properties":{"pid":"5cfac752-03d1-4ed1-9782-1ebbf3ec61ae","full":3.7},"geometry":{"type":"Polygon","coordinates":[[[136.1465,35.82525],[136.14648,35.82524],[136.14645,35.82524],[136.14627,35.8253],[136.14649,35.82559],[136.14654,35.82564],[136.14656,35.82565],[136.14673,35.82556],[136.14673,35.82555],[136.1465,35.82525]]]}},{"type":"Feature","properties":{"pid":"d643dadb-3338-4005-8527-a40f8a644400","full":30.9},"geometry":{"type":"Polygon","coordinates":[[[136.14883,35.8269],[136.14874,35.82687],[136.14866,35.82684],[136.14857,35.82689],[136.14855,35.82687],[136.14804,35.8272],[136.14813,35.82731],[136.14844,35.82761],[136.14893,35.82737],[136.14892,35.82714],[136.14891,35.82702],[136.14883,35.8269]]]}},{"type":"Feature","properties":{"pid":"0095b680-7dc5-42cd-8b7b-f8cae1547a27","full":12.2},"geometry":{"type":"Polygon","coordinates":[[[136.14852,35.82684],[136.14822,35.82662],[136.14775,35.82693],[136.148,35.82717],[136.14803,35.82717],[136.14852,35.82684]]]}},{"type":"Feature","properties":{"pid":"6df59e84-9b98-4218-b4ab-2611a48d083d","full":13.9},"geometry":{"type":"Polygon","coordinates":[[[136.14871,35.82804],[136.14899,35.82796],[136.14897,35.82779],[136.14897,35.82745],[136.14895,35.82744],[136.14892,35.82744],[136.14844,35.82767],[136.14843,35.82772],[136.14851,35.82788],[136.14863,35.82799],[136.14871,35.82804]]]}},{"type":"Feature","properties":{"pid":"d5e50e0d-44ac-4872-89bf-57f40488baeb","full":1.4},"geometry":{"type":"Polygon","coordinates":[[[136.14877,35.82813],[136.1491,35.8284],[136.14918,35.82835],[136.14902,35.82807],[136.14896,35.82808],[136.14877,35.82813]]]}},{"type":"Feature","properties":{"pid":"1fd02dec-0a3c-4183-99d1-646a81ba3e1c","full":4.4},"geometry":{"type":"Polygon","coordinates":[[[136.14969,35.82872],[136.1499,35.82891],[136.1502,35.82873],[136.15006,35.82853],[136.14969,35.82872]]]}},{"type":"Feature","properties":{"pid":"e11022e7-2ca0-4de9-b4e6-27ef1e0750de","full":12.2},"geometry":{"type":"Polygon","coordinates":[[[136.14935,35.82841],[136.14942,35.82849],[136.14966,35.82869],[136.15017,35.82843],[136.14992,35.82827],[136.14987,35.82821],[136.14985,35.8282],[136.14935,35.82841]]]}},{"type":"Feature","properties":{"pid":"908d92c1-c9cf-4e57-8752-a952b952bbad","full":23.6},"geometry":{"type":"Polygon","coordinates":[[[136.14933,35.8284],[136.14987,35.82817],[136.14993,35.82811],[136.14995,35.82806],[136.14993,35.82797],[136.14986,35.82789],[136.1496,35.82774],[136.14912,35.82793],[136.14914,35.82801],[136.1492,35.82816],[136.14925,35.82827],[136.14933,35.8284]]]}},{"type":"Feature","properties":{"pid":"72e33de8-557b-4c7d-b56c-5541dd78e2cf","full":9.3},"geometry":{"type":"Polygon","coordinates":[[[136.14912,35.8279],[136.14958,35.82772],[136.14937,35.82749],[136.14924,35.82736],[136.14916,35.82734],[136.14908,35.82735],[136.14907,35.82737],[136.14906,35.8274],[136.14909,35.82778],[136.14911,35.82789],[136.14912,35.8279]]]}},{"type":"Feature","properties":{"pid":"5753646c-dffb-47e2-8f4e-341fc2a1cf11","full":4.8},"geometry":{"type":"Polygon","coordinates":[[[136.14514,35.84036],[136.14531,35.84043],[136.1454,35.84021],[136.14549,35.84004],[136.14534,35.83992],[136.14522,35.83986],[136.14514,35.84036]]]}},{"type":"Feature","properties":{"pid":"5a249907-5658-4405-8783-ad9c70b03e5c","full":5.9},"geometry":{"type":"Polygon","coordinates":[[[136.14491,35.84023],[136.14498,35.84028],[136.14512,35.84035],[136.14519,35.83985],[136.14497,35.83967],[136.14491,35.83974],[136.14493,35.83979],[136.14491,35.84023]]]}},{"type":"Feature","properties":{"pid":"295c01b3-097f-4b82-8a4d-a7f85dbd9203","full":2.5},"geometry":{"type":"Polygon","coordinates":[[[136.1442,35.83966],[136.14441,35.83982],[136.14466,35.83999],[136.14489,35.84017],[136.14489,35.84015],[136.1449,35.83991],[136.1449,35.83979],[136.14477,35.83983],[136.14469,35.83984],[136.14457,35.83982],[136.14451,35.8398],[136.14443,35.8398],[136.14438,35.83977],[136.14434,35.83974],[136.14425,35.83962],[136.1442,35.83966]]]}},{"type":"Feature","properties":{"pid":"1e8c4647-33b1-471d-93e3-18bbdf11f57f","full":15.0},"geometry":{"type":"Polygon","coordinates":[[[136.14377,35.83935],[136.14392,35.83943],[136.14396,35.83947],[136.14415,35.83964],[136.14418,35.83962],[136.1442,35.83962],[136.14427,35.83957],[136.14432,35.83949],[136.14438,35.83933],[136.14447,35.83921],[136.14428,35.83915],[136.14422,35.83911],[136.14411,35.83907],[136.14403,35.83902],[136.14399,35.83899],[136.14376,35.83934],[136.14377,35.83935]]]}},{"type":"Feature","properties":{"pid":"e3007ebc-aeca-4314-984b-6fba8e5bc123","full":1.8},"geometry":{"type":"Polygon","coordinates":[[[136.14001,35.8382],[136.13992,35.83826],[136.13981,35.83844],[136.13977,35.83848],[136.13975,35.83852],[136.13979,35.83852],[136.13999,35.83847],[136.14018,35.83835],[136.14001,35.8382]]]}},{"type":"Feature","properties":{"pid":"ff3720d3-db2d-407f-92ed-7b66ef025c42","full":1.8},"geometry":{"type":"Polygon","coordinates":[[[136.13955,35.83855],[136.13969,35.83848],[136.13975,35.83834],[136.13973,35.83826],[136.13957,35.83824],[136.13952,35.83837],[136.13943,35.83853],[136.13955,35.83855]]]}},{"type":"Feature","properties":{"pid":"21e3bf02-76e0-4b0e-b8b5-1787c40b8405","full":4.9},"geometry":{"type":"Polygon","coordinates":[[[136.13942,35.83852],[136.13951,35.83838],[136.13957,35.83823],[136.1393,35.83816],[136.13908,35.83845],[136.13942,35.83852]]]}},{"type":"Feature","properties":{"pid":"24c00d70-ba5d-4efa-9909-d4c799a5106b","full":2.8},"geometry":{"type":"Polygon","coordinates":[[[136.13907,35.83844],[136.13929,35.83816],[136.13917,35.83813],[136.13903,35.83815],[136.13884,35.83841],[136.13907,35.83844]]]}},{"type":"Feature","properties":{"pid":"c869b428-1253-47d4-bdb8-4e2fcf022121","full":2.5},"geometry":{"type":"Polygon","coordinates":[[[136.14019,35.83834],[136.14041,35.83823],[136.14033,35.83802],[136.14002,35.83819],[136.14019,35.83834]]]}},{"type":"Feature","properties":{"pid":"8b8194aa-4194-4267-b12e-7b7994fe1cec","full":2.5},"geometry":{"type":"Polygon","coordinates":[[[136.14044,35.83823],[136.14053,35.83821],[136.14063,35.8382],[136.14064,35.8382],[136.14064,35.83795],[136.14063,35.83793],[136.14054,35.83792],[136.14052,35.83793],[136.14035,35.83802],[136.14044,35.83823]]]}},{"type":"Feature","properties":{"pid":"e7ed82a6-40ff-4714-b5e1-793a8f5befda","full":9.4},"geometry":{"type":"Polygon","coordinates":[[[136.14072,35.83819],[136.14072,35.83821],[136.14113,35.83831],[136.14119,35.83832],[136.14122,35.83832],[136.14123,35.83831],[136.14127,35.8382],[136.14131,35.838],[136.14117,35.83798],[136.14097,35.83798],[136.14074,35.83796],[136.14072,35.83799],[136.14072,35.83819]]]}},{"type":"Feature","properties":{"pid":"886fc79b-7353-4a91-8622-aa1cb3185ec8","full":2.5},"geometry":{"type":"Polygon","coordinates":[[[136.14219,35.83862],[136.14229,35.83829],[136.14218,35.83827],[136.14205,35.8382],[136.14198,35.83845],[136.14203,35.83847],[136.14206,35.8385],[136.14213,35.83854],[136.14218,35.83862],[136.14219,35.83862]]]}},{"type":"Feature","properties":{"pid":"3578e84a-5f71-468a-beaf-e96b53e82d76","full":9.9},"geometry":{"type":"Polygon","coordinates":[[[136.14243,35.8389],[136.14247,35.83885],[136.14251,35.83884],[136.14266,35.83867],[136.14264,35.83863],[136.14262,35.83858],[136.14263,35.83846],[136.14262,35.83844],[136.14258,35.8384],[136.14251,35.83837],[136.14244,35.83834],[136.14231,35.8383],[136.1422,35.83865],[136.14243,35.8389]]]}},{"type":"Feature","properties":{"pid":"be995474-5b2b-40d1-a156-eebc1e3825be","full":6.4},"geometry":{"type":"Polygon","coordinates":[[[136.14245,35.83893],[136.14247,35.83894],[136.1427,35.83906],[136.14282,35.8391],[136.14293,35.83913],[136.14296,35.83913],[136.14297,35.83912],[136.14294,35.83904],[136.14293,35.83899],[136.14293,35.83893],[136.14295,35.83887],[136.14276,35.83871],[136.14267,35.83868],[136.14253,35.83887],[136.14249,35.83888],[136.14245,35.83893]]]}},{"type":"Feature","properties":{"pid":"e97aa0c4-2d33-4602-871c-c75a6ec421ab","full":8.2},"geometry":{"type":"Polygon","coordinates":[[[136.14298,35.83875],[136.1431,35.83886],[136.14316,35.8389],[136.14324,35.83894],[136.14327,35.83895],[136.14329,35.83895],[136.14331,35.83893],[136.14348,35.83865],[136.14346,35.83859],[136.14342,35.83853],[136.14334,35.83849],[136.14328,35.8385],[136.14316,35.83857],[136.14304,35.83859],[136.14297,35.8387],[136.14298,35.83875]]]}},{"type":"Feature","properties":{"pid":"e8818399-87cd-4209-bc60-c44a9a39ac6d","full":5.4},"geometry":{"type":"Polygon","coordinates":[[[136.14321,35.83918],[136.14337,35.83923],[136.14358,35.83927],[136.14364,35.83929],[136.14369,35.8393],[136.14371,35.83929],[136.14392,35.83896],[136.14393,35.83894],[136.14393,35.83893],[136.14391,35.83892],[136.14381,35.83901],[136.14372,35.83905],[136.14367,35.83906],[136.1435,35.83907],[136.14339,35.83906],[136.14331,35.83905],[136.14318,35.839],[136.14311,35.83897],[136.14304,35.83893],[136.14303,35.83897],[136.14303,35.839],[136.14308,35.83907],[136.14315,35.83916],[136.14321,35.83918]]]}},{"type":"Feature","properties":{"pid":"11dcd905-9db6-4541-a7c3-2fb2960a573a","full":5.9},"geometry":{"type":"Polygon","coordinates":[[[136.14333,35.83896],[136.14334,35.83897],[136.14338,35.83898],[136.1435,35.83899],[136.14364,35.83899],[136.14369,35.83898],[136.14373,35.83896],[136.1438,35.83889],[136.1439,35.83883],[136.14389,35.83881],[136.14382,35.83876],[136.14372,35.83871],[136.14357,35.83868],[136.14351,35.83868],[136.14333,35.83896]]]}},{"type":"Feature","properties":{"pid":"bed66135-d464-4321-b6a7-ebb9fabfa422","full":12.0},"geometry":{"type":"Polygon","coordinates":[[[136.14128,35.83833],[136.14191,35.83845],[136.14197,35.83845],[136.14203,35.83819],[136.14193,35.83818],[136.14187,35.83817],[136.14179,35.8381],[136.14175,35.83808],[136.14171,35.83807],[136.14154,35.83809],[136.14148,35.83808],[136.14136,35.83802],[136.14128,35.83833]]]}}],"precision":5}