{"type":"FeatureCollection","features":[{"type":"Feature","properties":{"pid":"e7afc74b-fa67-4a5c-bb50-758efb9c17bb","full":1.1},"geometry":{"type":"Polygon","coordinates":[[[136.35095,35.89503],[136.35098,35.89515],[136.35137,35.89509],[136.35137,35.89501],[136.35135,35.89496],[136.35095,35.89503]]]}},{"type":"Feature","properties":{"pid":"2d298be9-b462-4e4f-b99c-6600602712c6","full":0.5},"geometry":{"type":"Polygon","coordinates":[[[136.35094,35.8949],[136.35095,35.89501],[136.35134,35.89494],[136.35134,35.89484],[136.35094,35.8949]]]}},{"type":"Feature","properties":{"pid":"3d3c90ae-4117-48cf-b228-f8e57b9ab3ca","full":0.7},"geometry":{"type":"Polygon","coordinates":[[[136.35094,35.89488],[136.35133,35.89482],[136.35132,35.89473],[136.3513,35.89471],[136.35095,35.89476],[136.35094,35.89488]]]}},{"type":"Feature","properties":{"pid":"7a2c5f7f-81fd-481a-a646-6e29211bdf23","full":0.5},"geometry":{"type":"Polygon","coordinates":[[[136.35096,35.89473],[136.35132,35.89469],[136.35132,35.89458],[136.35098,35.89462],[136.35096,35.89467],[136.35096,35.89473]]]}},{"type":"Feature","properties":{"pid":"9e03ee2f-d7bc-4bda-a5e9-9553f69fbd46","full":31.3},"geometry":{"type":"Polygon","coordinates":[[[136.35044,35.89767],[136.35046,35.89766],[136.35121,35.89728],[136.35069,35.89698],[136.35067,35.89698],[136.35002,35.89711],[136.35002,35.89713],[136.35044,35.89767]]]}},{"type":"Feature","properties":{"pid":"823a56b9-a087-460f-afc7-e410d3471c09","full":6.5},"geometry":{"type":"Polygon","coordinates":[[[136.35131,35.89775],[136.35157,35.89754],[136.35149,35.89747],[136.35156,35.89738],[136.35156,35.89736],[136.35139,35.8973],[136.35106,35.8975],[136.35105,35.89752],[136.35116,35.8976],[136.35128,35.89776],[136.35131,35.89775]]]}},{"type":"Feature","properties":{"pid":"b6b2185b-0b19-4bc4-9cc8-2fef3f11e125","full":61.2},"geometry":{"type":"Polygon","coordinates":[[[136.34993,35.89803],[136.35034,35.8986],[136.3513,35.89813],[136.3512,35.8979],[136.35108,35.89774],[136.35087,35.89755],[136.34995,35.898],[136.34993,35.89803]]]}},{"type":"Feature","properties":{"pid":"900a0d06-aa63-438d-8196-8b139f73baf7","full":39.0},"geometry":{"type":"Polygon","coordinates":[[[136.34945,35.89909],[136.34945,35.89911],[136.34973,35.89929],[136.34992,35.89939],[136.35021,35.8995],[136.35066,35.89928],[136.35067,35.89925],[136.35026,35.89869],[136.34945,35.89909]]]}},{"type":"Feature","properties":{"pid":"ec8dca3c-f3e6-4682-b456-6c3c46d83ba7","full":50.7},"geometry":{"type":"Polygon","coordinates":[[[136.35037,35.89864],[136.35078,35.8992],[136.3508,35.8992],[136.35154,35.89885],[136.35132,35.89817],[136.35039,35.89863],[136.35037,35.89864]]]}},{"type":"Feature","properties":{"pid":"de8b255f-019e-4b08-bcd9-9fb7a17c354e","full":9.1},"geometry":{"type":"Polygon","coordinates":[[[136.35215,35.89898],[136.35249,35.89877],[136.35249,35.89843],[136.35206,35.89849],[136.35215,35.89898]]]}},{"type":"Feature","properties":{"pid":"64034aae-a4c1-4c4d-ad46-124a45c8532a","full":13.5},"geometry":{"type":"Polygon","coordinates":[[[136.35158,35.89859],[136.3518,35.89915],[136.35212,35.89899],[136.35203,35.89851],[136.35174,35.89855],[136.35158,35.89859]]]}},{"type":"Feature","properties":{"pid":"6b9990d8-1473-423b-9ea0-66065923d9a2","full":1.9},"geometry":{"type":"Polygon","coordinates":[[[136.35167,35.89822],[136.3517,35.89848],[136.3518,35.89847],[136.35193,35.89844],[136.35192,35.89828],[136.35187,35.89823],[136.35179,35.89823],[136.35171,35.89823],[136.35167,35.89822]]]}},{"type":"Feature","properties":{"pid":"e8283d3a-a3b7-4750-980b-045bf6e00850","full":3.5},"geometry":{"type":"Polygon","coordinates":[[[136.35149,35.89823],[136.3516,35.8982],[136.35174,35.89823],[136.35186,35.89821],[136.35183,35.89812],[136.35181,35.89797],[136.35176,35.89797],[136.35142,35.89803],[136.35149,35.89823]]]}},{"type":"Feature","properties":{"pid":"d947ee59-c2bd-4120-81d2-da27e7cdba67","full":5.0},"geometry":{"type":"Polygon","coordinates":[[[136.35176,35.89795],[136.35177,35.89791],[136.35158,35.89761],[136.35132,35.89781],[136.35131,35.89783],[136.35136,35.89788],[136.35142,35.89801],[136.35163,35.89798],[136.35176,35.89795]]]}},{"type":"Feature","properties":{"pid":"937779df-2477-4a69-bd70-fcc3a904abb2","full":3.5},"geometry":{"type":"Polygon","coordinates":[[[136.35161,35.8976],[136.35175,35.89781],[136.35208,35.89777],[136.35204,35.8977],[136.3519,35.89759],[136.35185,35.89755],[136.35186,35.89753],[136.35175,35.89748],[136.35169,35.89754],[136.35161,35.8976]]]}},{"type":"Feature","properties":{"pid":"e75fc35a-f8ce-44d4-a4db-23d92bcff4b0","full":1.2},"geometry":{"type":"Polygon","coordinates":[[[136.35188,35.89812],[136.35194,35.89812],[136.35201,35.89808],[136.35206,35.89807],[136.35205,35.898],[136.352,35.89793],[136.35197,35.89783],[136.35187,35.89783],[136.35182,35.89785],[136.35183,35.89793],[136.35188,35.89812]]]}},{"type":"Feature","properties":{"pid":"54fe75a8-677e-476f-bf83-9ed41b22a3b0","full":0.5},"geometry":{"type":"Polygon","coordinates":[[[136.35193,35.89827],[136.35194,35.89835],[136.35197,35.89842],[136.35214,35.8984],[136.35212,35.89827],[136.3521,35.89827],[136.35208,35.89825],[136.35193,35.89827]]]}},{"type":"Feature","properties":{"pid":"f221b2a8-9cd8-4d0f-bd70-60b6bd790e46","full":2.8},"geometry":{"type":"Polygon","coordinates":[[[136.35232,35.89819],[136.35232,35.89828],[136.35234,35.89839],[136.35268,35.89835],[136.35268,35.89822],[136.35266,35.89819],[136.35259,35.89817],[136.35244,35.89817],[136.35232,35.89819]]]}},{"type":"Feature","properties":{"pid":"31cd371f-90b0-4a8a-a658-b8617ac2d42b","full":4.2},"geometry":{"type":"Polygon","coordinates":[[[136.35251,35.89845],[136.3525,35.89875],[136.35269,35.89865],[136.35294,35.89857],[136.35293,35.89844],[136.35289,35.8984],[136.35255,35.89843],[136.35251,35.89845]]]}},{"type":"Feature","properties":{"pid":"c099c9d1-ca75-4ed2-a2ca-eaeca4cf3fa1","full":50.2},"geometry":{"type":"Polygon","coordinates":[[[136.35289,35.90015],[136.35293,35.90014],[136.35381,35.89944],[136.35382,35.89941],[136.35373,35.89933],[136.35368,35.8993],[136.35347,35.89938],[136.35328,35.89953],[136.35322,35.89954],[136.35281,35.89924],[136.35226,35.89958],[136.35223,35.89962],[136.35289,35.90015]]]}},{"type":"Feature","properties":{"pid":"e7b187bc-02d9-4ac0-99c8-2cfd31ccc0af","full":14.7},"geometry":{"type":"Polygon","coordinates":[[[136.35195,35.89981],[136.35262,35.90038],[136.35283,35.9002],[136.35284,35.90017],[136.35218,35.89963],[136.35195,35.89981]]]}},{"type":"Feature","properties":{"pid":"d43ff283-e141-465c-b74f-049a77530ff8","full":40.4},"geometry":{"type":"Polygon","coordinates":[[[136.35261,35.90039],[136.35193,35.89983],[136.35157,35.90011],[136.35159,35.90017],[136.35168,35.90027],[136.35173,35.9004],[136.35177,35.90042],[136.35189,35.90048],[136.35193,35.90052],[136.35193,35.90054],[136.35181,35.90062],[136.35179,35.90067],[136.35182,35.9008],[136.35189,35.9009],[136.35195,35.9009],[136.3521,35.90082],[136.35261,35.90039]]]}},{"type":"Feature","properties":{"pid":"19ab63c0-4c89-4586-ae82-6208d9ede398","full":60.2},"geometry":{"type":"Polygon","coordinates":[[[136.35306,35.90121],[136.35383,35.90062],[136.35384,35.90059],[136.35328,35.90012],[136.35324,35.90011],[136.35248,35.90069],[136.35248,35.90072],[136.35306,35.90121]]]}},{"type":"Feature","properties":{"pid":"e636c475-9b56-458d-8f97-acd5db530cac","full":38.0},"geometry":{"type":"Polygon","coordinates":[[[136.35409,35.90207],[136.35416,35.90203],[136.35416,35.90193],[136.35417,35.90174],[136.35412,35.90157],[136.35405,35.90152],[136.35395,35.90143],[136.35394,35.90134],[136.354,35.9013],[136.35409,35.90129],[136.35365,35.90092],[136.35362,35.90091],[136.35319,35.90126],[136.35318,35.90129],[136.35409,35.90207]]]}},{"type":"Feature","properties":{"pid":"7d86fbe2-d39f-4fc6-9ea8-3e84313b748c","full":25.4},"geometry":{"type":"Polygon","coordinates":[[[136.35284,35.90155],[136.35376,35.90231],[136.354,35.90212],[136.35402,35.90209],[136.35312,35.90136],[136.35308,35.90136],[136.35284,35.90155]]]}},{"type":"Feature","properties":{"pid":"b3ad521c-980b-428c-9318-05539e3972e8","full":87.9},"geometry":{"type":"Polygon","coordinates":[[[136.35375,35.90232],[136.35282,35.90157],[136.35215,35.90209],[136.35217,35.90213],[136.35216,35.90217],[136.353,35.90291],[136.35375,35.90232]]]}},{"type":"Feature","properties":{"pid":"7d0d1a3e-e5fd-4f95-be97-fc44c9c555c0","full":59.5},"geometry":{"type":"Polygon","coordinates":[[[136.35211,35.90199],[136.353,35.90129],[136.35301,35.90125],[136.35244,35.9008],[136.35241,35.90079],[136.35194,35.90117],[136.35189,35.90122],[136.35193,35.90141],[136.35191,35.90146],[136.35187,35.90147],[136.35185,35.90149],[136.35191,35.90173],[136.35202,35.90199],[136.35206,35.902],[136.35211,35.90199]]]}},{"type":"Feature","properties":{"pid":"39cd1ca5-e5cb-4ba7-8f7d-87a82b64768f","full":61.4},"geometry":{"type":"Polygon","coordinates":[[[136.35127,35.90257],[136.35132,35.90257],[136.35181,35.90215],[136.35182,35.90212],[136.35173,35.902],[136.35167,35.90184],[136.35163,35.90138],[136.35161,35.90093],[136.35157,35.90068],[136.35151,35.90051],[136.35142,35.90037],[136.35136,35.90038],[136.35127,35.90056],[136.35125,35.901],[136.35124,35.90108],[136.35118,35.90139],[136.35115,35.90169],[136.35115,35.9019],[136.35117,35.90203],[136.35127,35.90257]]]}},{"type":"Feature","properties":{"pid":"0b183c42-d109-414b-9fad-6199f9034880","full":77.9},"geometry":{"type":"Polygon","coordinates":[[[136.35275,35.90505],[136.35277,35.90505],[136.35323,35.9047],[136.3532,35.90465],[136.35321,35.90463],[136.3515,35.90317],[136.35145,35.90318],[136.35144,35.90321],[136.35153,35.90347],[136.35185,35.90403],[136.35203,35.90433],[136.35218,35.90453],[136.35224,35.90458],[136.35226,35.90461],[136.35275,35.90505]]]}},{"type":"Feature","properties":{"pid":"bb898876-94e2-4685-b29e-5086bb232aff","full":108.9},"geometry":{"type":"Polygon","coordinates":[[[136.35224,35.90369],[136.35228,35.90369],[136.35297,35.90313],[136.35298,35.90307],[136.35199,35.90224],[136.35195,35.90222],[136.35136,35.90268],[136.35137,35.9027],[136.35134,35.90272],[136.35138,35.90297],[136.35139,35.90299],[136.35224,35.90369]]]}},{"type":"Feature","properties":{"pid":"e21ff21a-1bdf-44cf-9ab1-5119ea7a9aa1","full":109.5},"geometry":{"type":"Polygon","coordinates":[[[136.35334,35.90461],[136.35337,35.9046],[136.35408,35.90405],[136.35407,35.90401],[136.35408,35.90398],[136.35307,35.90316],[136.35303,35.90316],[136.353,35.90316],[136.35231,35.90371],[136.35229,35.90374],[136.35334,35.90461]]]}},{"type":"Feature","properties":{"pid":"91c9d264-4657-4882-b43f-f556e22aeeb5","full":9.6},"geometry":{"type":"Polygon","coordinates":[[[136.35314,35.90643],[136.35314,35.90645],[136.35338,35.90709],[136.35375,35.90702],[136.35381,35.907],[136.35382,35.90699],[136.35318,35.90639],[136.35314,35.90643]]]}},{"type":"Feature","properties":{"pid":"b975a4f5-158b-4dad-858a-0c0ee6c85110","full":1.0},"geometry":{"type":"Polygon","coordinates":[[[136.35295,35.90655],[136.35296,35.90666],[136.35299,35.90674],[136.35309,35.90692],[136.35321,35.9069],[136.35305,35.90649],[136.35298,35.90653],[136.35295,35.90655]]]}},{"type":"Feature","properties":{"pid":"820b4fc0-b47d-4488-a654-742226c1f01e","full":1.1},"geometry":{"type":"Polygon","coordinates":[[[136.3562,35.90701],[136.35624,35.90707],[136.35652,35.90695],[136.35662,35.90694],[136.35662,35.90689],[136.35658,35.90683],[136.35654,35.90685],[136.35648,35.90683],[136.35641,35.90685],[136.35627,35.90691],[136.3562,35.90701]]]}},{"type":"Feature","properties":{"pid":"75d9b862-9ff8-4bcb-b5fe-f0a78853b400","full":4.7},"geometry":{"type":"Polygon","coordinates":[[[136.35565,35.90686],[136.35593,35.90707],[136.35595,35.90706],[136.3561,35.9069],[136.35571,35.90657],[136.35565,35.90686]]]}},{"type":"Feature","properties":{"pid":"c4e91c48-c306-460c-b19b-67abed105324","full":21.9},"geometry":{"type":"Polygon","coordinates":[[[136.3552,35.90732],[136.35537,35.90717],[136.35542,35.90695],[136.35539,35.90694],[136.35542,35.9068],[136.35514,35.90655],[136.35512,35.90655],[136.35472,35.90685],[136.35471,35.90688],[136.35513,35.90728],[136.35518,35.90729],[136.3552,35.90732]]]}},{"type":"Feature","properties":{"pid":"f05b100b-eb16-443a-91fc-e6c946a8f5d5","full":119.4},"geometry":{"type":"Polygon","coordinates":[[[136.35463,35.90673],[136.35466,35.90671],[136.3547,35.90673],[136.35502,35.90647],[136.35503,35.90646],[136.35449,35.90601],[136.35448,35.90599],[136.35466,35.90584],[136.35465,35.90582],[136.35337,35.90475],[136.35334,35.90474],[136.35288,35.90511],[136.3529,35.90516],[136.35287,35.90518],[136.35295,35.90527],[136.35324,35.90551],[136.35359,35.90583],[136.35363,35.90584],[136.35423,35.90639],[136.35463,35.90673]]]}},{"type":"Feature","properties":{"pid":"7c42b24c-0a28-4ae1-8e62-869d45bfe118","full":137.7},"geometry":{"type":"Polygon","coordinates":[[[136.35474,35.90581],[136.35476,35.90581],[136.355,35.90562],[136.355,35.90557],[136.35494,35.90551],[136.35542,35.90514],[136.35541,35.90512],[136.35542,35.90509],[136.3542,35.90409],[136.35418,35.90409],[136.35342,35.90467],[136.35342,35.90469],[136.35474,35.90581]]]}},{"type":"Feature","properties":{"pid":"b478a3d4-fe6e-48cf-ab9a-5f88bb63a99b","full":3.9},"geometry":{"type":"Polygon","coordinates":[[[136.3552,35.90646],[136.35547,35.90669],[136.3555,35.90667],[136.35558,35.90626],[136.35559,35.90622],[136.35558,35.90619],[136.35555,35.90618],[136.35521,35.90645],[136.3552,35.90646]]]}},{"type":"Feature","properties":{"pid":"5a120736-85c9-45fd-861a-f68e1649ef8d","full":0.6},"geometry":{"type":"Polygon","coordinates":[[[136.3567,35.90525],[136.35672,35.90537],[136.3568,35.90536],[136.35682,35.90565],[136.35691,35.90565],[136.35693,35.90523],[136.3567,35.90525]]]}},{"type":"Feature","properties":{"pid":"a7ef18a5-8024-43e2-b0a6-074a69dec40e","full":2.1},"geometry":{"type":"Polygon","coordinates":[[[136.35699,35.90368],[136.35697,35.90372],[136.35692,35.90375],[136.35713,35.904],[136.35721,35.90397],[136.35718,35.90383],[136.35719,35.90373],[136.35713,35.90359],[136.35709,35.90355],[136.35697,35.90366],[136.35699,35.90368]]]}},{"type":"Feature","properties":{"pid":"63f8b206-cc7d-4c2e-88f3-14fce39a282f","full":0.7},"geometry":{"type":"Polygon","coordinates":[[[136.35637,35.90319],[136.35653,35.90325],[136.3566,35.9032],[136.35671,35.90321],[136.35679,35.90322],[136.35675,35.90316],[136.35657,35.90304],[136.35637,35.90319]]]}},{"type":"Feature","properties":{"pid":"68acb974-6e46-4775-a845-6fc37df72e62","full":3.8},"geometry":{"type":"Polygon","coordinates":[[[136.35626,35.90291],[136.35586,35.90284],[136.3558,35.90284],[136.35579,35.90287],[136.35584,35.90294],[136.35589,35.90298],[136.35617,35.90314],[136.3564,35.90295],[136.35626,35.90291]]]}},{"type":"Feature","properties":{"pid":"9a57ab50-f3f0-4281-83b5-b3a29cd93c83","full":91.0},"geometry":{"type":"Polygon","coordinates":[[[136.35659,35.90454],[136.35663,35.90453],[136.35677,35.90438],[136.35676,35.90421],[136.35662,35.90396],[136.35656,35.90377],[136.35655,35.90369],[136.3565,35.90362],[136.35644,35.90351],[136.35641,35.90339],[136.35636,35.90332],[136.35619,35.90322],[136.35583,35.90303],[136.35569,35.90292],[136.35518,35.90333],[136.35517,35.90336],[136.35659,35.90454]]]}},{"type":"Feature","properties":{"pid":"65ea3070-6c2e-424e-8f64-f19ffe8e0e7d","full":145.3},"geometry":{"type":"Polygon","coordinates":[[[136.35583,35.90528],[136.35592,35.90482],[136.35649,35.9047],[136.35651,35.90468],[136.35652,35.90463],[136.35507,35.90337],[136.35432,35.90396],[136.3543,35.90398],[136.35566,35.90509],[136.35581,35.9053],[136.35583,35.90528]]]}},{"type":"Feature","properties":{"pid":"eebb8fd8-c6b0-4b62-98a2-44e0cb16de65","full":121.3},"geometry":{"type":"Polygon","coordinates":[[[136.35423,35.90393],[136.35496,35.90335],[136.35499,35.90331],[136.35391,35.90238],[136.35387,35.90239],[136.35306,35.90296],[136.35423,35.90393]]]}},{"type":"Feature","properties":{"pid":"86a2a800-f2a8-4780-a7fd-a74267eed86a","full":67.7},"geometry":{"type":"Polygon","coordinates":[[[136.355,35.90321],[136.3551,35.90324],[136.35564,35.90281],[136.35562,35.90274],[136.35552,35.90261],[136.35536,35.90248],[136.35514,35.9024],[136.35477,35.90228],[136.35456,35.90229],[136.35444,35.90231],[136.35431,35.90229],[136.35412,35.9022],[136.35394,35.90232],[136.355,35.90321]]]}},{"type":"Feature","properties":{"pid":"5c8b55af-0422-4346-95a5-14aadabe6aaf","full":8.0},"geometry":{"type":"Polygon","coordinates":[[[136.35553,35.90176],[136.3553,35.90183],[136.35519,35.90183],[136.35499,35.902],[136.35499,35.90205],[136.35529,35.90223],[136.35533,35.90223],[136.35538,35.9022],[136.35556,35.90179],[136.35553,35.90176]]]}},{"type":"Feature","properties":{"pid":"74a96f33-f592-4604-8de4-f6e9fa7adda8","full":0.8},"geometry":{"type":"Polygon","coordinates":[[[136.35577,35.90206],[136.35588,35.90205],[136.35589,35.90199],[136.35589,35.90191],[136.35584,35.90176],[136.35582,35.90181],[136.35579,35.90186],[136.3557,35.90191],[136.35566,35.90197],[136.35577,35.90206]]]}},{"type":"Feature","properties":{"pid":"c7e4bb08-beb1-4e65-ad09-f9eba3baacea","full":1.0},"geometry":{"type":"Polygon","coordinates":[[[136.35557,35.90164],[136.35565,35.90163],[136.35571,35.90144],[136.35563,35.90142],[136.35554,35.90133],[136.35544,35.90143],[136.35551,35.90151],[136.35557,35.90164]]]}},{"type":"Feature","properties":{"pid":"650edf27-7c42-41b3-bd85-2516e8cda75e","full":4.7},"geometry":{"type":"Polygon","coordinates":[[[136.35556,35.90129],[136.35519,35.90106],[136.35502,35.90123],[136.35503,35.90125],[136.35513,35.90132],[136.35533,35.90142],[136.3554,35.90144],[136.35556,35.90129]]]}},{"type":"Feature","properties":{"pid":"4e518de7-e221-4859-93cc-79692382b423","full":1.1},"geometry":{"type":"Polygon","coordinates":[[[136.35475,35.90138],[136.35454,35.90124],[136.35446,35.90141],[136.35446,35.90148],[136.3545,35.90149],[136.35456,35.9015],[136.3546,35.90149],[136.35475,35.90138]]]}},{"type":"Feature","properties":{"pid":"707b5e7e-3975-4634-89c4-0226bee9b9c8","full":12.7},"geometry":{"type":"Polygon","coordinates":[[[136.35554,35.90169],[136.35555,35.90166],[136.35551,35.90157],[136.35542,35.90148],[136.35501,35.90128],[136.35497,35.90128],[136.35484,35.90139],[136.35484,35.90144],[136.3548,35.90148],[136.35482,35.9015],[136.35488,35.90155],[136.3551,35.90167],[136.35512,35.90174],[136.35518,35.90179],[136.35524,35.90179],[136.35533,35.90177],[136.35554,35.90169]]]}},{"type":"Feature","properties":{"pid":"cb2b5acd-f718-4c66-8641-a2006f19bf37","full":7.2},"geometry":{"type":"Polygon","coordinates":[[[136.35465,35.90174],[136.3548,35.90194],[136.35491,35.90201],[136.35494,35.90201],[136.35515,35.90182],[136.3551,35.90176],[136.35508,35.90169],[136.35485,35.90156],[136.35482,35.90156],[136.35465,35.90172],[136.35465,35.90174]]]}},{"type":"Feature","properties":{"pid":"3cdb0fa0-69ba-464c-a8f2-4f93c34eddda","full":14.3},"geometry":{"type":"Polygon","coordinates":[[[136.35418,35.90123],[136.35423,35.90121],[136.35427,35.90114],[136.35432,35.90109],[136.35447,35.90099],[136.35453,35.90097],[136.35461,35.90095],[136.35461,35.90092],[136.35432,35.90065],[136.35429,35.90066],[136.35426,35.90066],[136.35384,35.90099],[136.35383,35.90101],[136.35411,35.90123],[136.35418,35.90123]]]}},{"type":"Feature","properties":{"pid":"3e130b3d-00bb-4c5b-8f36-4513fdc92d32","full":9.7},"geometry":{"type":"Polygon","coordinates":[[[136.35496,35.90121],[136.35521,35.90099],[136.35507,35.90082],[136.35505,35.90085],[136.35456,35.90109],[136.35452,35.90114],[136.35453,35.90117],[136.35457,35.90122],[136.35476,35.90134],[136.35482,35.90133],[136.35495,35.90125],[136.35496,35.90121]]]}},{"type":"Feature","properties":{"pid":"7a3df335-f66c-4000-9219-fea6caf11e1c","full":0.8},"geometry":{"type":"Polygon","coordinates":[[[136.35477,35.90093],[136.35495,35.90083],[136.35501,35.90078],[136.35529,35.90067],[136.35532,35.90065],[136.35519,35.90052],[136.35473,35.9009],[136.35477,35.90093]]]}},{"type":"Feature","properties":{"pid":"a4f8d8da-d151-4a69-b444-c84cdfa3437b","full":3.9},"geometry":{"type":"Polygon","coordinates":[[[136.35444,35.90065],[136.35454,35.90074],[136.35459,35.90074],[136.35504,35.9004],[136.3549,35.90028],[136.35444,35.90065]]]}},{"type":"Feature","properties":{"pid":"f73e2909-0e7f-4361-bf21-089f7d8bff59","full":1.6},"geometry":{"type":"Polygon","coordinates":[[[136.3546,35.90077],[136.35471,35.90086],[136.35515,35.90052],[136.35507,35.90042],[136.3546,35.90077]]]}},{"type":"Feature","properties":{"pid":"789092b8-2713-4944-97a9-2e0bba7820f6","full":56.9},"geometry":{"type":"Polygon","coordinates":[[[136.35388,35.90056],[136.35461,35.89996],[136.35419,35.89958],[136.35415,35.89957],[136.35406,35.8995],[136.354,35.89949],[136.3533,35.90006],[136.35328,35.90009],[136.35388,35.90056]]]}},{"type":"Feature","properties":{"pid":"3402e8f1-1617-4ce3-a61a-fb6e60523b4e","full":2.7},"geometry":{"type":"Polygon","coordinates":[[[136.35478,35.90013],[136.3551,35.90041],[136.35523,35.9003],[136.35493,35.90001],[136.35478,35.90013]]]}},{"type":"Feature","properties":{"pid":"95b63992-f6ef-4acb-b897-f7a8c17b6a15","full":8.2},"geometry":{"type":"Polygon","coordinates":[[[136.35561,35.89977],[136.35612,35.89943],[136.35593,35.89925],[136.35542,35.89959],[136.35542,35.89962],[136.35552,35.8997],[136.35561,35.89977]]]}},{"type":"Feature","properties":{"pid":"ead88a39-d56f-438c-9250-deeed14c3eac","full":22.5},"geometry":{"type":"Polygon","coordinates":[[[136.3557,35.89976],[136.35557,35.89997],[136.35599,35.90028],[136.35602,35.90026],[136.3561,35.90011],[136.3562,35.90002],[136.35621,35.89999],[136.35617,35.89995],[136.35616,35.89993],[136.35636,35.89968],[136.35637,35.89964],[136.35614,35.89945],[136.3557,35.89976]]]}},{"type":"Feature","properties":{"pid":"a3e67750-56d9-417e-8a1d-113c8e3d102a","full":1.5},"geometry":{"type":"Polygon","coordinates":[[[136.35511,35.90042],[136.3553,35.9006],[136.35546,35.90049],[136.35527,35.9003],[136.35511,35.90042]]]}},{"type":"Feature","properties":{"pid":"0d6c8b07-6db3-41e8-96eb-9dd81043fe3b","full":5.1},"geometry":{"type":"Polygon","coordinates":[[[136.3558,35.90116],[136.35554,35.9009],[136.35526,35.90101],[136.35523,35.90104],[136.35556,35.90128],[136.3558,35.90116]]]}},{"type":"Feature","properties":{"pid":"0b335cde-fd8c-415e-98e5-17cc3cd41395","full":7.4},"geometry":{"type":"Polygon","coordinates":[[[136.36403,35.89278],[136.36424,35.89299],[136.36457,35.89279],[136.36449,35.89273],[136.36453,35.8926],[136.36454,35.8925],[136.36449,35.89246],[136.36446,35.89246],[136.36403,35.89278]]]}},{"type":"Feature","properties":{"pid":"3d3f8a79-59bd-4cfb-842b-840445608dce","full":4.7},"geometry":{"type":"Polygon","coordinates":[[[136.36387,35.89265],[136.364,35.89277],[136.36452,35.89238],[136.36454,35.89233],[136.36453,35.89229],[136.36445,35.89222],[136.36387,35.89265]]]}},{"type":"Feature","properties":{"pid":"cf45c09b-0cf5-4df6-aa70-f8c09d19fdc2","full":5.9},"geometry":{"type":"Polygon","coordinates":[[[136.36435,35.89212],[136.36427,35.89216],[136.3642,35.89211],[136.36371,35.89251],[136.36385,35.89264],[136.36443,35.8922],[136.36435,35.89212]]]}},{"type":"Feature","properties":{"pid":"854928f9-9642-44cc-9f01-c9ad5fc9b1d3","full":9.7},"geometry":{"type":"Polygon","coordinates":[[[136.36293,35.89232],[136.36331,35.89265],[136.36357,35.89246],[136.36312,35.89209],[136.36296,35.89221],[136.36293,35.89232]]]}},{"type":"Feature","properties":{"pid":"fe34d0b1-ec7f-4210-b529-a309a30267a7","full":6.9},"geometry":{"type":"Polygon","coordinates":[[[136.36267,35.89249],[136.36306,35.89285],[136.36327,35.89268],[136.36289,35.89234],[136.36267,35.89249]]]}},{"type":"Feature","properties":{"pid":"c5d319fb-2da0-4162-99ee-dc3df1d8978a","full":6.6},"geometry":{"type":"Polygon","coordinates":[[[136.36306,35.893],[136.3632,35.89314],[136.36379,35.89268],[136.36363,35.89254],[136.36306,35.893]]]}},{"type":"Feature","properties":{"pid":"c89a9346-d05c-4c61-b73a-922888f0bdf4","full":4.9},"geometry":{"type":"Polygon","coordinates":[[[136.36322,35.89315],[136.36335,35.89326],[136.36395,35.89282],[136.36381,35.89269],[136.36322,35.89315]]]}},{"type":"Feature","properties":{"pid":"3ed6be51-a431-4fdb-bcf7-9771f490c236","full":10.7},"geometry":{"type":"Polygon","coordinates":[[[136.36339,35.89328],[136.36362,35.89349],[136.36379,35.89332],[136.36394,35.89321],[136.36417,35.89304],[136.36397,35.89285],[136.36339,35.89328]]]}},{"type":"Feature","properties":{"pid":"8bb503a1-8272-48e2-afc3-771987375636","full":4.0},"geometry":{"type":"Polygon","coordinates":[[[136.36258,35.89362],[136.36269,35.89374],[136.36328,35.89329],[136.36315,35.89319],[136.36258,35.89362]]]}},{"type":"Feature","properties":{"pid":"d3926e1d-387a-4bb5-af28-053b1500ff85","full":3.4},"geometry":{"type":"Polygon","coordinates":[[[136.3633,35.89332],[136.36272,35.89376],[136.36279,35.89381],[136.36297,35.89371],[136.36312,35.89364],[136.36346,35.89352],[136.3633,35.89332]]]}},{"type":"Feature","properties":{"pid":"849e0b7e-1bf3-4086-a6e8-1ce0d68e03f5","full":5.5},"geometry":{"type":"Polygon","coordinates":[[[136.3624,35.89349],[136.36253,35.89361],[136.36313,35.89317],[136.36298,35.89304],[136.3624,35.89349]]]}},{"type":"Feature","properties":{"pid":"70332129-4218-400b-bba2-7e140dc94e90","full":4.6},"geometry":{"type":"Polygon","coordinates":[[[136.36195,35.89409],[136.36204,35.89418],[136.36207,35.89418],[136.36211,35.89419],[136.36264,35.89379],[136.3625,35.89367],[136.36195,35.89409]]]}},{"type":"Feature","properties":{"pid":"f73e1ed1-c976-4783-95e6-55f07372b43d","full":5.0},"geometry":{"type":"Polygon","coordinates":[[[136.3618,35.89395],[136.36192,35.89407],[136.36194,35.89408],[136.36248,35.89366],[136.36234,35.89354],[136.3618,35.89395]]]}},{"type":"Feature","properties":{"pid":"e8654da6-0a8c-4b2d-883b-3ebca89f01af","full":20.3},"geometry":{"type":"Polygon","coordinates":[[[136.36137,35.89347],[136.36176,35.8938],[136.36223,35.89344],[136.36183,35.89309],[136.36137,35.89347]]]}},{"type":"Feature","properties":{"pid":"8f8ed708-339a-4910-be0d-f1f6c8ce6a90","full":7.3},"geometry":{"type":"Polygon","coordinates":[[[136.36189,35.89304],[136.3623,35.89341],[136.36251,35.89323],[136.36208,35.89288],[136.36189,35.89304]]]}},{"type":"Feature","properties":{"pid":"960bb4f9-35ce-40c5-be3e-ad3925c9a465","full":19.5},"geometry":{"type":"Polygon","coordinates":[[[136.36216,35.89283],[136.36255,35.89317],[136.36278,35.893],[136.36281,35.89302],[136.36286,35.89299],[136.36284,35.89297],[136.36288,35.89294],[136.36291,35.89295],[136.36302,35.89286],[136.36264,35.89251],[136.36235,35.89268],[136.36216,35.89283]]]}},{"type":"Feature","properties":{"pid":"026bbb6c-db32-4a9f-842b-7c6f594b0da3","full":10.8},"geometry":{"type":"Polygon","coordinates":[[[136.36111,35.89228],[136.36146,35.8926],[136.36152,35.89263],[136.36179,35.89244],[136.36135,35.89206],[136.36113,35.89223],[136.36112,35.89226],[136.36111,35.89228]]]}},{"type":"Feature","properties":{"pid":"a8ccbb05-9014-4d13-b86b-26a5637217e5","full":10.1},"geometry":{"type":"Polygon","coordinates":[[[136.36069,35.89257],[136.36112,35.89294],[136.36137,35.89273],[136.36097,35.89239],[136.36093,35.89238],[136.3609,35.8924],[136.3607,35.89256],[136.36069,35.89257]]]}},{"type":"Feature","properties":{"pid":"ab576528-579d-43b2-bcf0-97f4e782be88","full":11.4},"geometry":{"type":"Polygon","coordinates":[[[136.36039,35.89282],[136.36078,35.89318],[136.36081,35.89318],[136.36108,35.89295],[136.36065,35.89262],[136.36058,35.89264],[136.3604,35.89279],[136.36039,35.89282]]]}},{"type":"Feature","properties":{"pid":"b874ea8b-c409-45df-912d-c7a8ba35281d","full":12.1},"geometry":{"type":"Polygon","coordinates":[[[136.36006,35.89305],[136.36047,35.89341],[136.36077,35.89321],[136.36033,35.89282],[136.36005,35.89303],[136.36006,35.89305]]]}},{"type":"Feature","properties":{"pid":"7e75ce83-f4f6-4c2d-b0d1-ed633df9c96e","full":7.3},"geometry":{"type":"Polygon","coordinates":[[[136.36004,35.89251],[136.36029,35.89273],[136.36032,35.89273],[136.36058,35.89254],[136.36022,35.89222],[136.36019,35.89225],[136.36004,35.89251]]]}},{"type":"Feature","properties":{"pid":"afec8757-c96d-45fa-a44b-9fb66dc2fcc1","full":3.3},"geometry":{"type":"Polygon","coordinates":[[[136.35984,35.89288],[136.35998,35.89298],[136.36025,35.89277],[136.36002,35.89258],[136.36,35.89258],[136.35984,35.89288]]]}},{"type":"Feature","properties":{"pid":"eb503528-ab78-48b5-a943-57916aaeb56b","full":11.9},"geometry":{"type":"Polygon","coordinates":[[[136.35974,35.8933],[136.36016,35.89365],[136.36017,35.89364],[136.36044,35.89344],[136.36002,35.89307],[136.36,35.89307],[136.35975,35.89326],[136.35974,35.8933]]]}},{"type":"Feature","properties":{"pid":"95d27e57-3bfa-4905-a6b9-5484319c1803","full":8.5},"geometry":{"type":"Polygon","coordinates":[[[136.35921,35.89383],[136.35926,35.89389],[136.35951,35.8941],[136.35954,35.8941],[136.35978,35.89396],[136.35938,35.89356],[136.35921,35.89377],[136.3592,35.8938],[136.35921,35.89383]]]}},{"type":"Feature","properties":{"pid":"47fc2229-c5b3-43b4-bf38-948d54d404cd","full":10.7},"geometry":{"type":"Polygon","coordinates":[[[136.35942,35.89355],[136.35979,35.89391],[136.35981,35.8939],[136.36008,35.89371],[136.35965,35.89332],[136.35959,35.89336],[136.35942,35.89355]]]}},{"type":"Feature","properties":{"pid":"d1ce9028-448d-46c4-87ae-7842c65ff76f","full":8.0},"geometry":{"type":"Polygon","coordinates":[[[136.36112,35.89365],[136.3615,35.894],[136.36174,35.89382],[136.36136,35.89347],[136.36112,35.89365]]]}},{"type":"Feature","properties":{"pid":"60a4aeab-d946-4b01-8f4f-9310e965cb33","full":7.9},"geometry":{"type":"Polygon","coordinates":[[[136.36086,35.89383],[136.36126,35.89418],[136.36128,35.89418],[136.36149,35.89401],[136.3611,35.89366],[136.36086,35.89383]]]}},{"type":"Feature","properties":{"pid":"a0da1c7d-6d72-450a-8c3f-ef0d35d76145","full":5.6},"geometry":{"type":"Polygon","coordinates":[[[136.3613,35.89456],[136.36185,35.89413],[136.3617,35.89401],[136.36116,35.89442],[136.36115,35.89444],[136.3613,35.89456]]]}},{"type":"Feature","properties":{"pid":"4eb40c91-fd0a-45d2-995e-646de20a62d5","full":3.9},"geometry":{"type":"Polygon","coordinates":[[[136.36048,35.89498],[136.36057,35.89506],[136.36119,35.89459],[136.36107,35.8945],[136.36105,35.89449],[136.36049,35.89492],[136.36048,35.89498]]]}},{"type":"Feature","properties":{"pid":"d3534d94-8f5a-4ab6-83f9-04edf6cee7e8","full":5.7},"geometry":{"type":"Polygon","coordinates":[[[136.36058,35.89507],[136.36068,35.89517],[136.36075,35.89517],[136.36134,35.89472],[136.3612,35.8946],[136.36058,35.89507]]]}},{"type":"Feature","properties":{"pid":"1fdda471-53cb-4f55-816d-1b6dc2e1ff72","full":5.6},"geometry":{"type":"Polygon","coordinates":[[[136.36017,35.89435],[136.36057,35.89471],[136.36075,35.89458],[136.36036,35.89421],[136.36017,35.89435]]]}},{"type":"Feature","properties":{"pid":"406ad427-4a80-4f78-8c05-108b79d01492","full":1.1},"geometry":{"type":"Polygon","coordinates":[[[136.36048,35.89413],[136.36087,35.89448],[136.36098,35.8944],[136.36058,35.89406],[136.36048,35.89413]]]}},{"type":"Feature","properties":{"pid":"8932c96f-758e-446e-837e-a8d45c215026","full":7.4},"geometry":{"type":"Polygon","coordinates":[[[136.36063,35.89401],[136.36102,35.89437],[136.36124,35.8942],[136.36085,35.89384],[136.36063,35.89401]]]}},{"type":"Feature","properties":{"pid":"a5840deb-3d98-41f4-bbb2-6a882e20a46f","full":8.4},"geometry":{"type":"Polygon","coordinates":[[[136.35892,35.89418],[136.35916,35.89439],[136.35918,35.89439],[136.35945,35.89419],[136.35947,35.89417],[136.35912,35.89388],[136.3591,35.89388],[136.35901,35.89398],[136.35892,35.89414],[136.35892,35.89418]]]}},{"type":"Feature","properties":{"pid":"67e66f74-73cd-4dd3-afd9-a637dc523274","full":12.4},"geometry":{"type":"Polygon","coordinates":[[[136.35956,35.89483],[136.35991,35.89517],[136.36023,35.89494],[136.36024,35.89492],[136.3599,35.89458],[136.35956,35.89483]]]}},{"type":"Feature","properties":{"pid":"0776b74b-d400-401e-8905-bf79e9fc8d71","full":2.5},"geometry":{"type":"Polygon","coordinates":[[[136.35979,35.89542],[136.35989,35.89552],[136.36047,35.89512],[136.36046,35.8951],[136.36039,35.89504],[136.36035,35.89503],[136.35979,35.89542]]]}},{"type":"Feature","properties":{"pid":"0d9e93af-4918-486e-b0a4-5f080a073119","full":20.9},"geometry":{"type":"Polygon","coordinates":[[[136.35875,35.89541],[136.35908,35.89575],[136.35959,35.8954],[136.3596,35.89537],[136.35928,35.89503],[136.35875,35.89539],[136.35875,35.89541]]]}},{"type":"Feature","properties":{"pid":"c6301eb0-9ccb-4de3-9e03-1251970b3ad2","full":1.8},"geometry":{"type":"Polygon","coordinates":[[[136.35911,35.89589],[136.35921,35.89599],[136.3598,35.89556],[136.3597,35.89548],[136.35911,35.89589]]]}},{"type":"Feature","properties":{"pid":"8e0e67de-2e8e-4771-bf8a-2acd100990f5","full":4.4},"geometry":{"type":"Polygon","coordinates":[[[136.3599,35.89554],[136.36003,35.89566],[136.36062,35.89524],[136.36051,35.89515],[136.3605,35.89517],[136.36045,35.89516],[136.3599,35.89554]]]}},{"type":"Feature","properties":{"pid":"340b1f13-bba6-4362-b31d-bb9159e756f6","full":4.0},"geometry":{"type":"Polygon","coordinates":[[[136.3602,35.89581],[136.3603,35.89593],[136.36089,35.89552],[136.36079,35.89542],[136.36077,35.89542],[136.36075,35.89541],[136.3602,35.89581]]]}},{"type":"Feature","properties":{"pid":"97159c99-5d04-4c22-8116-c165ceffbb88","full":4.2},"geometry":{"type":"Polygon","coordinates":[[[136.36004,35.89567],[136.36016,35.8958],[136.36076,35.89538],[136.36066,35.89527],[136.36065,35.89529],[136.3606,35.8953],[136.36004,35.89567]]]}},{"type":"Feature","properties":{"pid":"b254b358-b57b-4ca6-bcbb-be15d5586eaa","full":4.8},"geometry":{"type":"Polygon","coordinates":[[[136.36086,35.89535],[136.36097,35.89546],[136.36099,35.89545],[136.36163,35.89498],[136.3615,35.89486],[136.36086,35.89535]]]}},{"type":"Feature","properties":{"pid":"9530baeb-1dc7-4578-a52a-552ab647730a","full":5.5},"geometry":{"type":"Polygon","coordinates":[[[136.36075,35.89523],[136.36085,35.89533],[136.36149,35.89485],[136.36135,35.89473],[136.36076,35.89518],[136.36075,35.89523]]]}},{"type":"Feature","properties":{"pid":"d415a4f8-b4bc-40b3-9a70-35858c01823a","full":10.4},"geometry":{"type":"Polygon","coordinates":[[[136.36102,35.89549],[136.36115,35.89561],[136.36119,35.89561],[136.36124,35.89559],[136.36186,35.89521],[136.36165,35.89501],[136.36102,35.89549]]]}},{"type":"Feature","properties":{"pid":"77e96777-2d71-487a-900b-ed5d14b67908","full":11.4},"geometry":{"type":"Polygon","coordinates":[[[136.36175,35.89497],[136.36199,35.89518],[136.36236,35.89489],[136.3625,35.89473],[136.36232,35.89455],[136.36175,35.89497]]]}},{"type":"Feature","properties":{"pid":"f6f85c63-884f-465a-900f-07f531518082","full":4.1},"geometry":{"type":"Polygon","coordinates":[[[136.36162,35.89483],[136.36174,35.89495],[136.3623,35.89454],[136.36217,35.89443],[136.36162,35.89483]]]}},{"type":"Feature","properties":{"pid":"cfb85dbf-07b0-46db-bdf4-0c1ffb5885c7","full":4.5},"geometry":{"type":"Polygon","coordinates":[[[136.36148,35.89472],[136.3616,35.89482],[136.36216,35.89441],[136.36205,35.89429],[136.36202,35.89431],[136.362,35.89429],[136.36149,35.8947],[136.36148,35.89472]]]}},{"type":"Feature","properties":{"pid":"7f367f90-651a-4881-92d5-0bb2e785b9da","full":4.4},"geometry":{"type":"Polygon","coordinates":[[[136.36133,35.89459],[136.36144,35.8947],[136.362,35.89428],[136.3619,35.89417],[136.36186,35.89415],[136.36133,35.89459]]]}},{"type":"Feature","properties":{"pid":"d1e46299-8a07-4372-ae3a-5018b8d66c20","full":11.4},"geometry":{"type":"Polygon","coordinates":[[[136.3621,35.89422],[136.36249,35.8946],[136.3626,35.89446],[136.36258,35.89408],[136.36261,35.89401],[136.36271,35.89385],[136.36265,35.8938],[136.3621,35.89422]]]}},{"type":"Feature","properties":{"pid":"cdbde8c4-f9f7-4bfe-9923-7f03e78408ab","full":5.8},"geometry":{"type":"Polygon","coordinates":[[[136.36275,35.89445],[136.36309,35.89407],[136.3628,35.89389],[136.36268,35.89407],[136.3627,35.89441],[136.36271,35.89442],[136.36275,35.89445]]]}},{"type":"Feature","properties":{"pid":"355b5c71-6f1d-40d0-a673-eb49e68a7dc1","full":3.1},"geometry":{"type":"Polygon","coordinates":[[[136.35897,35.8969],[136.35907,35.897],[136.3591,35.89699],[136.35963,35.89661],[136.35956,35.89655],[136.35951,35.89652],[136.35898,35.89688],[136.35897,35.8969]]]}},{"type":"Feature","properties":{"pid":"7c9503fe-a200-4722-b3d2-58788257ba41","full":4.0},"geometry":{"type":"Polygon","coordinates":[[[136.35932,35.89707],[136.35962,35.89687],[136.35962,35.89685],[136.35981,35.89671],[136.35971,35.89664],[136.35968,35.89666],[136.35966,35.89663],[136.3591,35.89703],[136.3592,35.89713],[136.35932,35.89707]]]}},{"type":"Feature","properties":{"pid":"9bf77113-3f5f-4440-90e0-01539fa71e1a","full":8.7},"geometry":{"type":"Polygon","coordinates":[[[136.36053,35.89614],[136.36109,35.8957],[136.36109,35.89567],[136.36095,35.89556],[136.36093,35.89556],[136.36092,35.89556],[136.36035,35.89595],[136.36053,35.89614]]]}},{"type":"Feature","properties":{"pid":"09f70e87-5a39-4c95-a4e3-28ba1a8c180b","full":4.1},"geometry":{"type":"Polygon","coordinates":[[[136.35951,35.89628],[136.35962,35.89641],[136.36023,35.89597],[136.36012,35.89586],[136.35951,35.89628]]]}},{"type":"Feature","properties":{"pid":"65496251-ac08-4ccd-a532-7b6c93f14108","full":12.3},"geometry":{"type":"Polygon","coordinates":[[[136.35966,35.89642],[136.35989,35.89664],[136.36045,35.89619],[136.36038,35.8961],[136.36027,35.896],[136.35966,35.89642]]]}},{"type":"Feature","properties":{"pid":"3e4f6b20-afba-4a43-89ee-666e9f1eba0a","full":15.8},"geometry":{"type":"Polygon","coordinates":[[[136.3587,35.89662],[136.35893,35.89687],[136.35956,35.89645],[136.3593,35.89621],[136.35924,35.89625],[136.3587,35.89662]]]}},{"type":"Feature","properties":{"pid":"46527896-3bcb-4ff3-b1eb-d4983a793cf6","full":5.7},"geometry":{"type":"Polygon","coordinates":[[[136.35921,35.896],[136.35934,35.89613],[136.35997,35.89571],[136.35983,35.89558],[136.35921,35.896]]]}},{"type":"Feature","properties":{"pid":"4ec2dafe-8d9d-465f-a6c3-165951023b9c","full":27.9},"geometry":{"type":"Polygon","coordinates":[[[136.35802,35.89594],[136.35819,35.89612],[136.35833,35.89624],[136.35906,35.89576],[136.35872,35.89543],[136.3587,35.89542],[136.35802,35.89594]]]}},{"type":"Feature","properties":{"pid":"98bf8fd0-4d8c-4fb6-93c1-110cf237aa96","full":1.0},"geometry":{"type":"Polygon","coordinates":[[[136.3587,35.89616],[136.35881,35.89625],[136.35912,35.89603],[136.35903,35.89593],[136.3587,35.89616]]]}},{"type":"Feature","properties":{"pid":"9d0d7a22-2a3b-42c9-be99-63d0097fc57d","full":5.7},"geometry":{"type":"Polygon","coordinates":[[[136.35855,35.89647],[136.35868,35.8966],[136.35927,35.89619],[136.35917,35.89608],[136.35914,35.8961],[136.35911,35.89607],[136.35856,35.89645],[136.35855,35.89647]]]}},{"type":"Feature","properties":{"pid":"bb9e8ce6-7816-4110-a99e-8f41ca9986cf","full":7.0},"geometry":{"type":"Polygon","coordinates":[[[136.35769,35.89614],[136.35803,35.89647],[136.35806,35.89646],[136.35828,35.89631],[136.35793,35.89598],[136.35777,35.8961],[136.35769,35.89614]]]}},{"type":"Feature","properties":{"pid":"603268e5-9f94-43a5-99c5-7bbedaf08295","full":6.6},"geometry":{"type":"Polygon","coordinates":[[[136.35745,35.89632],[136.35777,35.89664],[136.3578,35.89664],[136.35802,35.8965],[136.35767,35.89616],[136.35745,35.89632]]]}},{"type":"Feature","properties":{"pid":"a7346817-9e69-4ad7-b226-95bc4a00f784","full":5.9},"geometry":{"type":"Polygon","coordinates":[[[136.3572,35.8965],[136.35752,35.89681],[136.35756,35.8968],[136.35776,35.89668],[136.35743,35.89635],[136.35742,35.89635],[136.3572,35.8965]]]}},{"type":"Feature","properties":{"pid":"d9f955fa-706f-4012-b1af-dfbd4d6c29e8","full":2.8},"geometry":{"type":"Polygon","coordinates":[[[136.35707,35.89734],[136.35715,35.89741],[136.35778,35.89698],[136.35768,35.89687],[136.3573,35.89713],[136.35725,35.89719],[136.35707,35.89734]]]}},{"type":"Feature","properties":{"pid":"f5e136fc-c5e5-4d1b-9dcc-431cb0e6ebab","full":10.6},"geometry":{"type":"Polygon","coordinates":[[[136.35684,35.89678],[136.35704,35.89693],[136.35717,35.89705],[136.3575,35.89685],[136.35718,35.89652],[136.35684,35.89675],[136.35684,35.89678]]]}},{"type":"Feature","properties":{"pid":"b717d3d3-f593-4f9e-9aaf-41621861fe11","full":2.4},"geometry":{"type":"Polygon","coordinates":[[[136.35665,35.89687],[136.357,35.8972],[136.35715,35.8971],[136.35677,35.89678],[136.35665,35.89687]]]}},{"type":"Feature","properties":{"pid":"8a8bf64b-cc5d-4d45-928d-a57224d251ff","full":7.8},"geometry":{"type":"Polygon","coordinates":[[[136.35635,35.89706],[136.35671,35.8974],[136.35698,35.89722],[136.35662,35.89692],[136.35654,35.89697],[136.35648,35.89698],[136.35635,35.89706]]]}},{"type":"Feature","properties":{"pid":"5aa21b2d-f669-4369-9aeb-88769c265a13","full":4.2},"geometry":{"type":"Polygon","coordinates":[[[136.35715,35.89743],[136.35727,35.89753],[136.35791,35.89711],[136.35783,35.89701],[136.35779,35.89702],[136.35776,35.89701],[136.35715,35.89743]]]}},{"type":"Feature","properties":{"pid":"acfef94a-621a-4d6e-845c-ea9814233526","full":4.0},"geometry":{"type":"Polygon","coordinates":[[[136.35731,35.89755],[136.35743,35.89766],[136.35806,35.89724],[136.35798,35.89716],[136.35796,35.89719],[136.35789,35.89716],[136.35731,35.89755]]]}},{"type":"Feature","properties":{"pid":"ba9343ba-a17b-4f1a-a0e9-5172768638de","full":4.0},"geometry":{"type":"Polygon","coordinates":[[[136.35746,35.89769],[136.35758,35.8978],[136.3582,35.89738],[136.35811,35.89728],[136.3581,35.8973],[136.35808,35.8973],[136.35805,35.89728],[136.35746,35.89769]]]}},{"type":"Feature","properties":{"pid":"cd0e77a1-5f03-485a-8274-06895812be32","full":14.6},"geometry":{"type":"Polygon","coordinates":[[[136.35835,35.89641],[136.35777,35.89681],[136.35777,35.89683],[136.35798,35.89704],[136.35801,35.89704],[136.35861,35.89664],[136.35837,35.89642],[136.35835,35.89641]]]}},{"type":"Feature","properties":{"pid":"888c92cc-4a0f-4f8d-9c50-4f0cbf70d6c0","full":4.2},"geometry":{"type":"Polygon","coordinates":[[[136.35801,35.89708],[136.35813,35.89718],[136.35875,35.89677],[136.35863,35.89665],[136.35801,35.89708]]]}},{"type":"Feature","properties":{"pid":"960a7828-3ad4-4f8a-953f-6292b08293e0","full":5.0},"geometry":{"type":"Polygon","coordinates":[[[136.35816,35.89721],[136.35816,35.89723],[136.35827,35.89733],[136.35829,35.89732],[136.3589,35.89691],[136.35877,35.89678],[136.35816,35.89721]]]}},{"type":"Feature","properties":{"pid":"5e54644a-4824-4f00-b4df-42e2b032a15c","full":0.6},"geometry":{"type":"Polygon","coordinates":[[[136.35887,35.89718],[136.35897,35.89728],[136.35916,35.89716],[136.35905,35.89706],[136.35887,35.89718]]]}},{"type":"Feature","properties":{"pid":"c301880f-e34c-4cd2-928c-99c90a21e708","full":4.5},"geometry":{"type":"Polygon","coordinates":[[[136.3584,35.89746],[136.35898,35.89708],[136.35903,35.89703],[136.35892,35.89691],[136.35828,35.89735],[136.3584,35.89746]]]}},{"type":"Feature","properties":{"pid":"0740c74c-5825-41fc-b025-34e3b03aafeb","full":4.4},"geometry":{"type":"Polygon","coordinates":[[[136.3576,35.89783],[136.35771,35.89795],[136.35834,35.89751],[136.35826,35.89742],[136.35822,35.89743],[136.3582,35.89741],[136.3576,35.89783]]]}},{"type":"Feature","properties":{"pid":"7bf3b108-0b84-4906-800b-691c576442cc","full":9.1},"geometry":{"type":"Polygon","coordinates":[[[136.35774,35.89797],[136.35787,35.89813],[136.35818,35.89799],[136.35829,35.8979],[136.3584,35.89779],[136.35847,35.89768],[136.35837,35.89756],[136.35832,35.89756],[136.35774,35.89797]]]}},{"type":"Feature","properties":{"pid":"fa08924e-defb-4ee2-8176-80a34f46c893","full":3.8},"geometry":{"type":"Polygon","coordinates":[[[136.35728,35.89861],[136.3577,35.89803],[136.35762,35.89797],[136.35746,35.8981],[136.3573,35.89829],[136.35719,35.89841],[136.35712,35.89854],[136.35728,35.89861]]]}},{"type":"Feature","properties":{"pid":"146c2121-95d5-4a48-9e04-37b5ad61a6d8","full":0.9},"geometry":{"type":"Polygon","coordinates":[[[136.35732,35.89862],[136.35747,35.89867],[136.35749,35.89866],[136.35763,35.89836],[136.35771,35.89825],[136.3578,35.89815],[136.3578,35.89814],[136.35773,35.89808],[136.35771,35.89807],[136.35732,35.89862]]]}},{"type":"Feature","properties":{"pid":"dea9fbbe-3249-4de8-9cfd-b4c67158596d","full":5.0},"geometry":{"type":"Polygon","coordinates":[[[136.35676,35.89835],[136.35689,35.89846],[136.35718,35.89826],[136.35723,35.89826],[136.35728,35.89822],[136.35734,35.89813],[136.35756,35.89794],[136.35749,35.89786],[136.35746,35.89786],[136.35676,35.89835]]]}},{"type":"Feature","properties":{"pid":"e97212d3-7abf-46b2-8d15-b04742efb7e1","full":2.5},"geometry":{"type":"Polygon","coordinates":[[[136.35653,35.898],[136.3572,35.89755],[136.357,35.89735],[136.35697,35.89738],[136.35698,35.89746],[136.35688,35.89754],[136.35679,35.89769],[136.35664,35.89785],[136.35653,35.898]]]}},{"type":"Feature","properties":{"pid":"11aee40e-d87c-453b-8d39-ececbc4c9cd4","full":5.5},"geometry":{"type":"Polygon","coordinates":[[[136.3566,35.8982],[136.35673,35.89833],[136.35746,35.89781],[136.35735,35.8977],[136.3566,35.8982]]]}},{"type":"Feature","properties":{"pid":"7641873a-d830-4988-ae67-7e41566bd22a","full":7.2},"geometry":{"type":"Polygon","coordinates":[[[136.35649,35.8981],[136.35659,35.89819],[136.35734,35.89769],[136.35721,35.89756],[136.35649,35.89803],[136.35649,35.8981]]]}},{"type":"Feature","properties":{"pid":"ac4a2e72-5476-4a14-b33f-6d3bfe2de3c3","full":1.0},"geometry":{"type":"Polygon","coordinates":[[[136.35664,35.8978],[136.35671,35.89773],[136.35686,35.89753],[136.35694,35.89745],[136.35694,35.89739],[136.3565,35.89767],[136.35664,35.8978]]]}},{"type":"Feature","properties":{"pid":"6af64c38-774d-4674-b1d9-4f8b700ae16c","full":2.3},"geometry":{"type":"Polygon","coordinates":[[[136.35626,35.89788],[136.35645,35.89806],[136.3566,35.8978],[136.35648,35.89769],[136.35627,35.89783],[136.35626,35.89788]]]}},{"type":"Feature","properties":{"pid":"e50ec886-9a6f-4729-b3ea-41a9c7a4a24b","full":8.9},"geometry":{"type":"Polygon","coordinates":[[[136.35549,35.89766],[136.35584,35.89799],[136.35588,35.89799],[136.35613,35.89783],[136.35575,35.89747],[136.35549,35.89766]]]}},{"type":"Feature","properties":{"pid":"487f261d-b4b3-4c0d-ae27-b23379b430b7","full":26.4},"geometry":{"type":"Polygon","coordinates":[[[136.35477,35.89817],[136.35477,35.89819],[136.35509,35.8985],[136.35512,35.89849],[136.35574,35.89806],[136.35573,35.89804],[136.35573,35.898],[136.35542,35.89771],[136.35477,35.89817]]]}},{"type":"Feature","properties":{"pid":"d658068a-88f0-4d10-983d-0cf99f3490d3","full":6.6},"geometry":{"type":"Polygon","coordinates":[[[136.35593,35.89809],[136.35625,35.89839],[136.35633,35.89836],[136.35646,35.89819],[136.35619,35.89792],[136.35615,35.89791],[136.35593,35.89809]]]}},{"type":"Feature","properties":{"pid":"565896ff-f3dc-40af-ac1a-19598bf68e06","full":13.8},"geometry":{"type":"Polygon","coordinates":[[[136.35587,35.89903],[136.35592,35.89903],[136.3565,35.89861],[136.35652,35.89857],[136.35623,35.89849],[136.35617,35.89852],[136.35605,35.8986],[136.35601,35.89859],[136.35599,35.89856],[136.35597,35.89856],[136.35561,35.89879],[136.35587,35.89903]]]}},{"type":"Feature","properties":{"pid":"608bfbcd-c848-41e8-a7d2-8c28d30638c5","full":12.8},"geometry":{"type":"Polygon","coordinates":[[[136.35658,35.8986],[136.35594,35.89905],[136.35594,35.89908],[136.35613,35.89925],[136.35658,35.89895],[136.35658,35.89891],[136.3567,35.89875],[136.35681,35.89864],[136.35682,35.89862],[136.35661,35.89859],[136.35658,35.8986]]]}},{"type":"Feature","properties":{"pid":"69acb340-195b-4de6-a376-9f3a7d388193","full":8.3},"geometry":{"type":"Polygon","coordinates":[[[136.3562,35.89932],[136.3562,35.89936],[136.35647,35.8996],[136.35653,35.89964],[136.35658,35.89958],[136.3567,35.89906],[136.35666,35.89901],[136.3562,35.89932]]]}},{"type":"Feature","properties":{"pid":"9a2c8132-60f7-47eb-9a76-b344cbb46a0a","full":34.3},"geometry":{"type":"Polygon","coordinates":[[[136.35476,35.89892],[136.3552,35.89932],[136.35519,35.89935],[136.35497,35.89949],[136.35496,35.89957],[136.35499,35.89959],[136.35517,35.89962],[136.35573,35.89914],[136.35545,35.8988],[136.35547,35.89878],[136.35526,35.89856],[136.35477,35.89889],[136.35476,35.89892]]]}},{"type":"Feature","properties":{"pid":"e2815fa7-c44d-45d3-85e2-c00da0b5307d","full":3.9},"geometry":{"type":"Polygon","coordinates":[[[136.35531,35.89852],[136.35554,35.8987],[136.35567,35.89861],[136.35582,35.89857],[136.3556,35.89836],[136.35556,35.89834],[136.35532,35.8985],[136.35531,35.89852]]]}},{"type":"Feature","properties":{"pid":"59646158-3738-4b5b-bd4f-0ccb912892be","full":31.4},"geometry":{"type":"Polygon","coordinates":[[[136.35397,35.89865],[136.35438,35.89901],[136.35441,35.89901],[136.35503,35.89856],[136.35503,35.89853],[136.3547,35.89821],[136.35467,35.89821],[136.35399,35.89862],[136.35397,35.89865]]]}},{"type":"Feature","properties":{"pid":"41f85f52-d18f-4493-8fa5-a6d25f3b41ca","full":0.6},"geometry":{"type":"Polygon","coordinates":[[[136.35373,35.89797],[136.35382,35.89809],[136.35385,35.89808],[136.35415,35.89787],[136.35415,35.89785],[136.35411,35.89781],[136.35373,35.89797]]]}},{"type":"Feature","properties":{"pid":"6c8e96cd-fc60-4987-8136-d5a7e477be2c","full":9.2},"geometry":{"type":"Polygon","coordinates":[[[136.35579,35.89745],[136.35615,35.89779],[136.35643,35.8976],[136.35608,35.89725],[136.35579,35.89745]]]}},{"type":"Feature","properties":{"pid":"516fe934-6af1-43e3-987b-2edb4e902759","full":7.1},"geometry":{"type":"Polygon","coordinates":[[[136.35609,35.89723],[136.35644,35.89757],[136.35668,35.89741],[136.35633,35.89707],[136.35609,35.89723]]]}},{"type":"Feature","properties":{"pid":"2946e7f0-61e0-498b-8b36-25a068d6469c","full":4.4},"geometry":{"type":"Polygon","coordinates":[[[136.358,35.89489],[136.35801,35.89493],[136.35819,35.89507],[136.35821,35.89507],[136.3585,35.89488],[136.35828,35.8947],[136.35826,35.89469],[136.35819,35.89477],[136.358,35.89489]]]}},{"type":"Feature","properties":{"pid":"02d792f6-9b50-435e-993b-de1398e5c0a8","full":6.0},"geometry":{"type":"Polygon","coordinates":[[[136.3583,35.89467],[136.35853,35.89487],[136.35882,35.89465],[136.35856,35.89442],[136.35849,35.89447],[136.35831,35.89464],[136.3583,35.89467]]]}},{"type":"Feature","properties":{"pid":"0d5cf275-6006-4e46-98f9-27895acb2046","full":6.2},"geometry":{"type":"Polygon","coordinates":[[[136.35861,35.8944],[136.35884,35.89462],[136.35913,35.89441],[136.35888,35.89419],[136.35863,35.89434],[136.35861,35.89438],[136.35861,35.8944]]]}},{"type":"Feature","properties":{"pid":"3a39eb21-b4da-453f-ad36-48399c55e57e","full":22.4},"geometry":{"type":"Polygon","coordinates":[[[136.36102,35.89118],[136.36164,35.89173],[136.36196,35.89151],[136.3613,35.89092],[136.36114,35.89101],[136.36107,35.89107],[136.36102,35.89117],[136.36102,35.89118]]]}},{"type":"Feature","properties":{"pid":"e63fb349-8cef-4a41-a2e2-0fa2e09e67ad","full":10.3},"geometry":{"type":"Polygon","coordinates":[[[136.36039,35.89154],[136.36042,35.89153],[136.36076,35.89125],[136.36049,35.89086],[136.36046,35.89086],[136.36024,35.89099],[136.36025,35.89101],[136.3603,35.89112],[136.36035,35.89133],[136.36037,35.89152],[136.36039,35.89154]]]}},{"type":"Feature","properties":{"pid":"a589336c-555e-44b0-91a2-7fed24e77949","full":4.4},"geometry":{"type":"Polygon","coordinates":[[[136.36097,35.89096],[136.36079,35.89074],[136.36056,35.89082],[136.36056,35.89084],[136.36053,35.89085],[136.36054,35.89087],[136.3607,35.89109],[136.36073,35.8911],[136.3609,35.89104],[136.36097,35.89096]]]}},{"type":"Feature","properties":{"pid":"0f1a1798-9498-41e6-8cd2-7877c3e6313a","full":2.1},"geometry":{"type":"Polygon","coordinates":[[[136.36049,35.89071],[136.36052,35.89071],[136.36057,35.89067],[136.36058,35.89058],[136.36057,35.89054],[136.3604,35.89038],[136.36026,35.89042],[136.36024,35.89049],[136.36049,35.89071]]]}},{"type":"Feature","properties":{"pid":"52664658-9f32-447c-b81c-0dfdfa7f9502","full":4.7},"geometry":{"type":"Polygon","coordinates":[[[136.36018,35.89094],[136.36021,35.89094],[136.36045,35.89079],[136.36049,35.89073],[136.36023,35.8905],[136.36006,35.89077],[136.36018,35.89094]]]}},{"type":"Feature","properties":{"pid":"17cbed28-3b12-47c4-87c2-535437569b7c","full":1.5},"geometry":{"type":"Polygon","coordinates":[[[136.36005,35.89074],[136.3602,35.89052],[136.36016,35.89047],[136.36008,35.89047],[136.35983,35.89065],[136.36,35.89074],[136.36002,35.89072],[136.36005,35.89074]]]}},{"type":"Feature","properties":{"pid":"ca180d4f-add1-41a0-9bb1-da7753e35449","full":12.0},"geometry":{"type":"Polygon","coordinates":[[[136.36024,35.89218],[136.36045,35.89235],[136.36048,35.89239],[136.36062,35.89251],[136.36092,35.89229],[136.36045,35.8919],[136.36042,35.89189],[136.36035,35.89202],[136.36024,35.89218]]]}},{"type":"Feature","properties":{"pid":"7fdc7cd2-e39a-4836-b1c4-eaf3fb036a66","full":16.2},"geometry":{"type":"Polygon","coordinates":[[[136.36046,35.89171],[136.36051,35.89177],[136.36101,35.89222],[136.36129,35.89201],[136.3607,35.89149],[136.36063,35.89153],[136.36046,35.89171]]]}},{"type":"Feature","properties":{"pid":"7f8ecab3-6195-49fa-b4d3-e3dc9abde393","full":18.1},"geometry":{"type":"Polygon","coordinates":[[[136.36073,35.89146],[136.36081,35.89155],[136.36131,35.89198],[136.36133,35.89198],[136.36161,35.89177],[136.361,35.89123],[136.36098,35.89123],[136.36093,35.8913],[136.36073,35.89146]]]}},{"type":"Feature","properties":{"pid":"ed5137bf-592d-4e32-8244-cba3a4be40bf","full":13.0},"geometry":{"type":"Polygon","coordinates":[[[136.3614,35.89205],[136.36181,35.89241],[136.36213,35.89219],[136.36169,35.89181],[136.3614,35.89203],[136.3614,35.89205]]]}},{"type":"Feature","properties":{"pid":"15cb0cd6-669e-4a74-85cf-3bec05590490","full":12.4},"geometry":{"type":"Polygon","coordinates":[[[136.36173,35.89181],[136.36215,35.89216],[136.36244,35.89193],[136.36204,35.89157],[136.36175,35.89178],[136.36173,35.89181]]]}},{"type":"Feature","properties":{"pid":"08790199-ef7d-4c68-bf1d-d4d52f4a8878","full":12.4},"geometry":{"type":"Polygon","coordinates":[[[136.36207,35.89157],[136.36246,35.89193],[136.36274,35.89173],[136.36276,35.8917],[136.36235,35.89134],[136.36233,35.89134],[136.36207,35.89152],[136.36208,35.89155],[136.36207,35.89157]]]}},{"type":"Feature","properties":{"pid":"0ac8719d-22e2-4967-9530-82b6016d16ee","full":12.2},"geometry":{"type":"Polygon","coordinates":[[[136.36237,35.89132],[136.3628,35.89169],[136.36306,35.89144],[136.36268,35.8911],[136.36266,35.89111],[136.36238,35.89129],[136.36237,35.89132]]]}},{"type":"Feature","properties":{"pid":"e8a36202-208e-405d-b406-8de816437d76","full":15.3},"geometry":{"type":"Polygon","coordinates":[[[136.36141,35.89083],[136.36141,35.89086],[136.36164,35.89111],[136.36201,35.89146],[136.36227,35.89127],[136.36161,35.89069],[136.36159,35.89068],[136.36156,35.89069],[136.36141,35.89083]]]}},{"type":"Feature","properties":{"pid":"88a1f931-7daa-4fcf-a527-a61006213370","full":22.1},"geometry":{"type":"Polygon","coordinates":[[[136.36161,35.89066],[136.3623,35.89126],[136.3626,35.89104],[136.3619,35.89041],[136.36161,35.89066]]]}},{"type":"Feature","properties":{"pid":"68085630-9a89-411e-86aa-c9195466b0af","full":19.6},"geometry":{"type":"Polygon","coordinates":[[[136.36193,35.8904],[136.3626,35.89098],[136.36263,35.89096],[136.36269,35.8909],[136.36288,35.89057],[136.36209,35.89025],[136.36194,35.89038],[136.36193,35.8904]]]}},{"type":"Feature","properties":{"pid":"c71124eb-bdb7-4411-98f0-5f6f6ffd361a","full":10.2},"geometry":{"type":"Polygon","coordinates":[[[136.3627,35.89108],[136.36307,35.89141],[136.36313,35.89135],[136.36332,35.89109],[136.36282,35.89085],[136.3627,35.89105],[136.3627,35.89108]]]}},{"type":"Feature","properties":{"pid":"26ce535a-5f37-4ba7-beda-aa824275134d","full":8.9},"geometry":{"type":"Polygon","coordinates":[[[136.36285,35.89082],[136.36335,35.89107],[136.3635,35.89086],[136.3635,35.89083],[136.36349,35.89081],[136.36298,35.8906],[136.36296,35.8906],[136.36285,35.89081],[136.36285,35.89082]]]}},{"type":"Feature","properties":{"pid":"842c5635-e58f-410b-82f6-7913a30a9356","full":8.3},"geometry":{"type":"Polygon","coordinates":[[[136.36301,35.89058],[136.36354,35.8908],[136.36358,35.89077],[136.36368,35.89062],[136.36367,35.89058],[136.36313,35.89036],[136.36311,35.89036],[136.36299,35.89056],[136.36301,35.89058]]]}},{"type":"Feature","properties":{"pid":"e896fe61-cbb0-4d22-a27e-c9ba7e1da1c4","full":9.4},"geometry":{"type":"Polygon","coordinates":[[[136.36377,35.89144],[136.36436,35.89173],[136.36438,35.89172],[136.36453,35.89151],[136.36394,35.89124],[136.36392,35.89124],[136.36382,35.89138],[136.36378,35.89142],[136.36377,35.89144]]]}},{"type":"Feature","properties":{"pid":"6bc90a92-6830-4cda-991c-6848a22111e3","full":1.7},"geometry":{"type":"Polygon","coordinates":[[[136.36427,35.89187],[136.36436,35.89176],[136.36375,35.89146],[136.36373,35.89149],[136.36373,35.89151],[136.36414,35.89185],[136.36417,35.89182],[136.36427,35.89187]]]}},{"type":"Feature","properties":{"pid":"63288d29-ab5a-4615-a73f-d4518a8b99a6","full":9.9},"geometry":{"type":"Polygon","coordinates":[[[136.36319,35.89205],[136.36361,35.89243],[136.36386,35.89225],[136.36342,35.89184],[136.36319,35.89205]]]}},{"type":"Feature","properties":{"pid":"ac163175-2a5a-454d-a575-f5408cbadc05","full":14.7},"geometry":{"type":"Polygon","coordinates":[[[136.36343,35.89182],[136.36388,35.89223],[136.36404,35.8921],[136.36417,35.89197],[136.36369,35.89155],[136.36343,35.89182]]]}},{"type":"Feature","properties":{"pid":"6965bf92-2121-49d4-90a9-f8a24e558beb","full":8.2},"geometry":{"type":"Polygon","coordinates":[[[136.3645,35.89184],[136.36437,35.89201],[136.36437,35.89203],[136.36458,35.89224],[136.36464,35.89226],[136.36468,35.89224],[136.36476,35.89218],[136.36479,35.89217],[136.36485,35.89219],[136.36489,35.89223],[136.365,35.89216],[136.36504,35.89217],[136.36508,35.89222],[136.3651,35.89221],[136.36516,35.89214],[136.36452,35.89183],[136.3645,35.89184]]]}},{"type":"Feature","properties":{"pid":"972541ef-2f4b-4bd1-9754-e2af37ce4f99","full":9.4},"geometry":{"type":"Polygon","coordinates":[[[136.3647,35.89157],[136.36532,35.89186],[136.36534,35.89186],[136.36541,35.89173],[136.36544,35.89164],[136.36486,35.89136],[136.36485,35.89137],[136.36471,35.89155],[136.3647,35.89157]]]}},{"type":"Feature","properties":{"pid":"114532d7-df24-470f-a2fd-99a9358e655b","full":4.2},"geometry":{"type":"Polygon","coordinates":[[[136.36505,35.89142],[136.36543,35.8916],[136.36544,35.8916],[136.36547,35.89152],[136.36547,35.89143],[136.36544,35.89136],[136.3654,35.89129],[136.3652,35.8912],[136.36505,35.89142]]]}},{"type":"Feature","properties":{"pid":"2219cf27-b113-4d2d-a38c-faa00cba6bf8","full":9.6},"geometry":{"type":"Polygon","coordinates":[[[136.36452,35.8918],[136.36516,35.8921],[136.36518,35.89209],[136.3653,35.8919],[136.36472,35.8916],[136.36469,35.8916],[136.36452,35.8918]]]}},{"type":"Feature","properties":{"pid":"54d28a3c-6060-4ecb-9d51-5bc8af728709","full":1.9},"geometry":{"type":"Polygon","coordinates":[[[136.36563,35.8916],[136.36573,35.89165],[136.36591,35.89139],[136.36589,35.89137],[136.36567,35.89127],[136.36565,35.89137],[136.36563,35.8916]]]}},{"type":"Feature","properties":{"pid":"502fd028-c7a6-481f-a1e0-8f02340ef908","full":0.6},"geometry":{"type":"Polygon","coordinates":[[[136.36572,35.89084],[136.3655,35.89073],[136.3654,35.89083],[136.36553,35.8909],[136.36562,35.89097],[136.36572,35.89084]]]}},{"type":"Feature","properties":{"pid":"16e8af58-9f40-45ec-ab96-8bca9e71a761","full":6.5},"geometry":{"type":"Polygon","coordinates":[[[136.36461,35.89058],[136.36463,35.8906],[136.36502,35.89078],[136.36505,35.89078],[136.36518,35.89059],[136.36516,35.89058],[136.36515,35.89056],[136.36474,35.89036],[136.36469,35.89039],[136.36461,35.89058]]]}},{"type":"Feature","properties":{"pid":"a2fe7c2c-ca22-46e5-a970-2f536a595e1b","full":0.6},"geometry":{"type":"Polygon","coordinates":[[[136.3652,35.89087],[136.3653,35.89091],[136.36548,35.89071],[136.36533,35.89064],[136.3652,35.89085],[136.3652,35.89087]]]}},{"type":"Feature","properties":{"pid":"41ca573a-71ca-4778-a4f6-dec942ded95b","full":9.5},"geometry":{"type":"Polygon","coordinates":[[[136.36411,35.89098],[136.3647,35.89125],[136.36473,35.89124],[136.36487,35.89104],[136.36427,35.89076],[136.36425,35.89077],[136.36411,35.89097],[136.36411,35.89098]]]}},{"type":"Feature","properties":{"pid":"a92b9b81-46b3-4991-9c3f-992fd8a26090","full":9.2},"geometry":{"type":"Polygon","coordinates":[[[136.36395,35.89121],[136.36455,35.89149],[136.36469,35.89128],[136.36409,35.891],[136.36395,35.89121]]]}},{"type":"Feature","properties":{"pid":"c8b96043-b368-4500-8741-2e41c3d40bec","full":6.4},"geometry":{"type":"Polygon","coordinates":[[[136.36446,35.89083],[136.36487,35.89102],[136.3649,35.89101],[136.36504,35.8908],[136.36461,35.89061],[136.36459,35.89062],[136.36446,35.89081],[136.36446,35.89083]]]}}],"precision":5}