{"type":"FeatureCollection","features":[{"type":"Feature","properties":{"pid":"4b978cda-cb92-41a7-b054-727c3bad5285","full":22.1},"geometry":{"type":"Polygon","coordinates":[[[136.14331,35.60782],[136.14428,35.6072],[136.144,35.607],[136.14309,35.6076],[136.1432,35.60774],[136.14331,35.60782]]]}},{"type":"Feature","properties":{"pid":"f9e9815a-036a-4fc2-94b8-a1290a9197f3","full":42.4},"geometry":{"type":"Polygon","coordinates":[[[136.14466,35.6077],[136.1447,35.60767],[136.14464,35.60756],[136.14459,35.6075],[136.14447,35.6074],[136.14442,35.60736],[136.14439,35.60733],[136.14429,35.60723],[136.14337,35.60781],[136.14356,35.60799],[136.14366,35.60814],[136.14466,35.6077]]]}},{"type":"Feature","properties":{"pid":"100cbbcc-f7ea-4228-83fd-9bb14efa20c7","full":11.2},"geometry":{"type":"Polygon","coordinates":[[[136.14428,35.60872],[136.14495,35.60872],[136.14497,35.60837],[136.14429,35.60849],[136.14428,35.60872]]]}},{"type":"Feature","properties":{"pid":"62c0df6d-cf4d-41bc-bb47-79e0473fe13a","full":42.6},"geometry":{"type":"Polygon","coordinates":[[[136.14466,35.60836],[136.14498,35.60827],[136.14488,35.60795],[136.14476,35.60773],[136.14471,35.60772],[136.14368,35.60817],[136.14373,35.60824],[136.14375,35.60829],[136.14376,35.60837],[136.14377,35.60843],[136.14382,35.60848],[136.14386,35.6085],[136.14388,35.6085],[136.14401,35.60844],[136.14408,35.60845],[136.1442,35.60842],[136.14432,35.6084],[136.14445,35.60838],[136.14466,35.60836]]]}},{"type":"Feature","properties":{"pid":"2ee1dfea-1935-4a83-847d-c17aad06fca4","full":16.3},"geometry":{"type":"Polygon","coordinates":[[[136.14489,35.6123],[136.1455,35.61197],[136.14544,35.61185],[136.14541,35.61172],[136.1449,35.61179],[136.14488,35.61182],[136.14483,35.61183],[136.1448,35.61212],[136.14484,35.61224],[136.14489,35.6123]]]}},{"type":"Feature","properties":{"pid":"cd1ad2ae-df34-4aaf-a4a9-0901094052ac","full":21.9},"geometry":{"type":"Polygon","coordinates":[[[136.14574,35.61237],[136.14573,35.61231],[136.14576,35.6122],[136.14578,35.61217],[136.14563,35.61203],[136.14557,35.61202],[136.14551,35.612],[136.14494,35.61233],[136.14494,35.61236],[136.14492,35.6124],[136.14519,35.61268],[136.14574,35.61237]]]}},{"type":"Feature","properties":{"pid":"17808958-2c1d-4a35-82c0-dbbd85e6e134","full":12.9},"geometry":{"type":"Polygon","coordinates":[[[136.144,35.61216],[136.1443,35.61215],[136.14433,35.61207],[136.14436,35.61205],[136.14446,35.61171],[136.14444,35.61171],[136.14443,35.61169],[136.14444,35.61166],[136.14405,35.61162],[136.14402,35.61181],[136.14393,35.61181],[136.14392,35.61188],[136.144,35.61216]]]}},{"type":"Feature","properties":{"pid":"75a74956-52ab-4448-bf01-ff4325b1216b","full":16.7},"geometry":{"type":"Polygon","coordinates":[[[136.14398,35.61105],[136.14397,35.61106],[136.14395,35.61106],[136.14395,35.6111],[136.14402,35.61142],[136.14404,35.61147],[136.14405,35.61156],[136.14445,35.6116],[136.14455,35.61115],[136.14451,35.61113],[136.14451,35.61109],[136.14398,35.61105]]]}},{"type":"Feature","properties":{"pid":"85ce4ce5-e351-4343-8355-65935c5ded78","full":23.0},"geometry":{"type":"Polygon","coordinates":[[[136.14396,35.61101],[136.14456,35.61106],[136.14464,35.61055],[136.1446,35.61055],[136.14461,35.61052],[136.14401,35.61047],[136.14396,35.61101]]]}},{"type":"Feature","properties":{"pid":"93ad34f3-07d9-4bc9-844f-d4bc78ea1dda","full":30.5},"geometry":{"type":"Polygon","coordinates":[[[136.14473,35.60981],[136.1441,35.60977],[136.14404,35.61038],[136.14405,35.61041],[136.14409,35.61043],[136.14462,35.61048],[136.14478,35.60986],[136.14475,35.60985],[136.14473,35.60983],[136.14473,35.60981]]]}},{"type":"Feature","properties":{"pid":"12dc9022-0582-4662-ba61-5f8d0a13a095","full":24.0},"geometry":{"type":"Polygon","coordinates":[[[136.14412,35.60973],[136.14481,35.60978],[136.14492,35.60933],[136.14485,35.60932],[136.14486,35.60929],[136.14417,35.60926],[136.14412,35.60973]]]}},{"type":"Feature","properties":{"pid":"277a743e-5891-4c3d-9cbe-829b90a508a6","full":23.8},"geometry":{"type":"Polygon","coordinates":[[[136.14422,35.6092],[136.14493,35.60922],[136.14497,35.60885],[136.14492,35.60875],[136.14426,35.60875],[136.14424,35.60877],[136.1442,35.60903],[136.14419,35.60919],[136.14422,35.6092]]]}},{"type":"Feature","properties":{"pid":"40900fb0-346e-4fbc-96b2-ea48823ff499","full":6.8},"geometry":{"type":"Polygon","coordinates":[[[136.14378,35.61015],[136.14392,35.61015],[136.144,35.60959],[136.14387,35.60961],[136.14369,35.60973],[136.14366,35.60985],[136.14368,35.60999],[136.14368,35.61007],[136.14378,35.61015]]]}},{"type":"Feature","properties":{"pid":"a31928c0-ee9a-4e13-bb61-34815bb3b110","full":0.5},"geometry":{"type":"Polygon","coordinates":[[[136.1451,35.61522],[136.14506,35.61505],[136.14489,35.61509],[136.14496,35.61528],[136.1451,35.61522]]]}},{"type":"Feature","properties":{"pid":"4f63a4ad-ffc4-42c0-937f-8ed997bc93fc","full":9.7},"geometry":{"type":"Polygon","coordinates":[[[136.14518,35.61602],[136.1451,35.61578],[136.14503,35.61578],[136.14485,35.61569],[136.1447,35.61569],[136.14463,35.61571],[136.14467,35.61593],[136.14478,35.61614],[136.14518,35.61602]]]}},{"type":"Feature","properties":{"pid":"99001fba-e7e2-4ccc-b12f-a172c8628f81","full":0.8},"geometry":{"type":"Polygon","coordinates":[[[136.14512,35.61376],[136.14528,35.61368],[136.14521,35.61353],[136.145,35.61362],[136.14512,35.61376]]]}},{"type":"Feature","properties":{"pid":"725d8d19-1e88-439e-a840-129d7cd57336","full":8.7},"geometry":{"type":"Polygon","coordinates":[[[136.14557,35.61336],[136.146,35.61326],[136.146,35.61302],[136.14602,35.61296],[136.14602,35.61293],[136.14547,35.61306],[136.14548,35.6131],[136.14546,35.61311],[136.14557,35.61336]]]}},{"type":"Feature","properties":{"pid":"746601e3-27af-4b8f-b030-448ffb235987","full":15.5},"geometry":{"type":"Polygon","coordinates":[[[136.14529,35.6128],[136.14545,35.61303],[136.14578,35.61296],[136.14602,35.61288],[136.14593,35.61242],[136.14529,35.6128]]]}},{"type":"Feature","properties":{"pid":"a750f2ef-cbf3-4c03-805e-456361ad59db","full":8.9},"geometry":{"type":"Polygon","coordinates":[[[136.14556,35.61643],[136.14552,35.61603],[136.14489,35.61617],[136.14501,35.61641],[136.14529,35.61633],[136.14556,35.61643]]]}},{"type":"Feature","properties":{"pid":"e783fd01-939d-4556-bc70-e7818420cc41","full":7.8},"geometry":{"type":"Polygon","coordinates":[[[136.14583,35.61678],[136.14569,35.61661],[136.14548,35.61665],[136.14535,35.61663],[136.14536,35.61648],[136.14524,35.61647],[136.14524,35.61637],[136.14503,35.61643],[136.14516,35.6166],[136.14525,35.61692],[136.14583,35.61678]]]}},{"type":"Feature","properties":{"pid":"9e1c5a23-bd37-4c43-922b-407d140c1641","full":22.3},"geometry":{"type":"Polygon","coordinates":[[[136.14526,35.61761],[136.14532,35.61792],[136.14639,35.61766],[136.14628,35.61735],[136.14526,35.61761]]]}},{"type":"Feature","properties":{"pid":"77ec621f-6439-46f2-bd2c-bf30141e11d7","full":11.9},"geometry":{"type":"Polygon","coordinates":[[[136.14624,35.61734],[136.14612,35.61713],[136.14528,35.61734],[136.14521,35.61736],[136.14522,35.61749],[136.14526,35.61758],[136.14624,35.61734]]]}},{"type":"Feature","properties":{"pid":"93b9ae00-d004-49ab-b2b5-6904384a515a","full":17.8},"geometry":{"type":"Polygon","coordinates":[[[136.14523,35.61733],[136.14611,35.61711],[136.14585,35.61683],[136.14515,35.617],[136.14513,35.61708],[136.14514,35.61715],[136.14519,35.61719],[136.14523,35.61728],[136.14523,35.61733]]]}},{"type":"Feature","properties":{"pid":"1b2374e1-931a-43ea-8a3f-60b3e2d76d29","full":36.8},"geometry":{"type":"Polygon","coordinates":[[[136.14584,35.61867],[136.1466,35.6185],[136.14661,35.61844],[136.14665,35.61842],[136.1465,35.61798],[136.14547,35.61822],[136.14584,35.61867]]]}},{"type":"Feature","properties":{"pid":"b2e48dfc-50cb-415c-b7a6-b3fab0759566","full":14.6},"geometry":{"type":"Polygon","coordinates":[[[136.14545,35.61816],[136.14646,35.61792],[136.14645,35.6179],[136.14647,35.61788],[136.1464,35.61769],[136.14532,35.61795],[136.14533,35.61805],[136.14539,35.61809],[136.14545,35.61816]]]}},{"type":"Feature","properties":{"pid":"cbe82245-d4d0-4860-9b87-4766f5206935","full":22.5},"geometry":{"type":"Polygon","coordinates":[[[136.14585,35.61868],[136.14608,35.61902],[136.14677,35.61894],[136.14676,35.61891],[136.14679,35.6189],[136.14675,35.61865],[136.14669,35.61849],[136.14585,35.61868]]]}},{"type":"Feature","properties":{"pid":"0be4f673-c0e8-42e0-a421-3acc8814deea","full":14.8},"geometry":{"type":"Polygon","coordinates":[[[136.14614,35.61938],[136.14682,35.61931],[136.14681,35.61927],[136.14684,35.61927],[136.1468,35.61897],[136.14608,35.61905],[136.14614,35.61938]]]}},{"type":"Feature","properties":{"pid":"62b89476-40a6-47cf-b874-2ddbfabdc493","full":18.6},"geometry":{"type":"Polygon","coordinates":[[[136.14652,35.62105],[136.14713,35.62097],[136.14707,35.62054],[136.1464,35.62061],[136.14652,35.62105]]]}},{"type":"Feature","properties":{"pid":"c1e536df-6ff5-4853-99ef-64920e860e3e","full":22.9},"geometry":{"type":"Polygon","coordinates":[[[136.14701,35.6231],[136.14747,35.62296],[136.14734,35.6224],[136.14676,35.62261],[136.14674,35.62271],[136.14693,35.62304],[136.14701,35.6231]]]}},{"type":"Feature","properties":{"pid":"8bb37698-b56f-40b4-a1a3-af367c9e93cc","full":11.5},"geometry":{"type":"Polygon","coordinates":[[[136.14725,35.62179],[136.14683,35.62187],[136.1471,35.62244],[136.14732,35.62237],[136.14731,35.62235],[136.14734,35.62234],[136.14725,35.62179]]]}},{"type":"Feature","properties":{"pid":"17fd3150-c22c-4cad-8890-5224356f204a","full":28.6},"geometry":{"type":"Polygon","coordinates":[[[136.14724,35.62168],[136.14713,35.62101],[136.14654,35.62108],[136.14654,35.62131],[136.14656,35.62136],[136.14667,35.62147],[136.14684,35.6218],[136.1472,35.62173],[136.14721,35.6217],[136.14724,35.62168]]]}},{"type":"Feature","properties":{"pid":"f7a818ce-f316-40f2-9390-c77cb3911eb1","full":17.6},"geometry":{"type":"Polygon","coordinates":[[[136.14648,35.62055],[136.14701,35.62048],[136.14701,35.62045],[136.14704,35.62045],[136.14697,35.62001],[136.14639,35.62008],[136.14646,35.62029],[136.14648,35.62055]]]}},{"type":"Feature","properties":{"pid":"2c9e169e-e1d5-4e0d-9f51-6b3cbe2a0156","full":27.7},"geometry":{"type":"Polygon","coordinates":[[[136.14638,35.62002],[136.14687,35.61996],[136.14688,35.61993],[136.14694,35.61992],[136.14695,35.61991],[136.14685,35.61935],[136.14615,35.61943],[136.14638,35.62002]]]}},{"type":"Feature","properties":{"pid":"c01cd1e9-ea37-4d80-8b2a-03e02179abb3","full":14.7},"geometry":{"type":"Polygon","coordinates":[[[136.14782,35.6238],[136.14749,35.623],[136.14735,35.62304],[136.14705,35.62313],[136.14704,35.62315],[136.14726,35.62333],[136.14732,35.62344],[136.14739,35.62352],[136.14755,35.6237],[136.14776,35.62385],[136.14782,35.6238]]]}}],"precision":5}