{"type":"FeatureCollection","features":[{"type":"Feature","properties":{"pid":"c911341f-137b-406e-bc2e-6a2066fd28ce","full":12.0},"geometry":{"type":"Polygon","coordinates":[[[136.17729,36.05691],[136.17691,36.0568],[136.1767,36.05726],[136.17708,36.05738],[136.17729,36.05691]]]}},{"type":"Feature","properties":{"pid":"f36dc787-c81a-427d-8faa-aed960791cbb","full":101.5},"geometry":{"type":"Polygon","coordinates":[[[136.17588,36.05566],[136.17513,36.05514],[136.17494,36.05558],[136.17451,36.05546],[136.17434,36.05586],[136.17438,36.0559],[136.17611,36.05643],[136.17636,36.05595],[136.17588,36.05566]]]}},{"type":"Feature","properties":{"pid":"8e1259f3-cfac-4f42-b043-ddb0de339d78","full":11.6},"geometry":{"type":"Polygon","coordinates":[[[136.17651,36.05668],[136.17614,36.05657],[136.17594,36.05702],[136.17597,36.05705],[136.1763,36.05714],[136.17651,36.05668]]]}},{"type":"Feature","properties":{"pid":"363540ec-d5cc-4697-90d4-c64fe13c589e","full":12.0},"geometry":{"type":"Polygon","coordinates":[[[136.1769,36.0568],[136.17652,36.05668],[136.17631,36.05714],[136.17669,36.05726],[136.1769,36.0568]]]}},{"type":"Feature","properties":{"pid":"773493d9-9a26-483f-b721-f345b5f62b16","full":8.8},"geometry":{"type":"Polygon","coordinates":[[[136.17772,36.05671],[136.17736,36.05651],[136.1772,36.05687],[136.17765,36.057],[136.17775,36.05678],[136.17772,36.05671]]]}},{"type":"Feature","properties":{"pid":"09c8e526-d04e-45a7-ac03-2210a7465f4b","full":1.2},"geometry":{"type":"Polygon","coordinates":[[[136.18907,36.05603],[136.18893,36.056],[136.18882,36.05638],[136.18897,36.05641],[136.18907,36.05603]]]}},{"type":"Feature","properties":{"pid":"1cefa878-0614-47cb-a093-e10cd7fe4d4e","full":1.6},"geometry":{"type":"Polygon","coordinates":[[[136.18924,36.05606],[136.18908,36.05603],[136.18898,36.05639],[136.18901,36.0564],[136.189,36.05642],[136.18913,36.05644],[136.18924,36.05606]]]}},{"type":"Feature","properties":{"pid":"554e65ca-d44b-4080-9429-e69cfbc733e0","full":1.1},"geometry":{"type":"Polygon","coordinates":[[[136.18969,36.05585],[136.1895,36.05581],[136.1895,36.05583],[136.18946,36.05583],[136.18943,36.05596],[136.18945,36.056],[136.18964,36.05603],[136.18969,36.05585]]]}},{"type":"Feature","properties":{"pid":"d74fef37-5a47-47aa-a98e-95a81f4c5ef9","full":0.7},"geometry":{"type":"Polygon","coordinates":[[[136.18988,36.05587],[136.18969,36.05585],[136.18965,36.05603],[136.1898,36.05606],[136.18983,36.05605],[136.18988,36.05587]]]}},{"type":"Feature","properties":{"pid":"fe1dd4f7-c34c-4c62-a000-8335a2669e3e","full":4.3},"geometry":{"type":"Polygon","coordinates":[[[136.18989,36.05573],[136.1899,36.05571],[136.18992,36.05571],[136.18997,36.05547],[136.18979,36.05544],[136.18978,36.05548],[136.18956,36.05544],[136.18951,36.05566],[136.18989,36.05573]]]}},{"type":"Feature","properties":{"pid":"0280f0f6-06bb-45e0-a77e-6cdce2f0f7fb","full":3.6},"geometry":{"type":"Polygon","coordinates":[[[136.18592,36.05616],[136.18555,36.05609],[136.18555,36.05633],[136.18558,36.05636],[136.18585,36.05638],[136.18592,36.05616]]]}},{"type":"Feature","properties":{"pid":"7ec30c3f-a9eb-4b7b-a777-3d0054cf9a80","full":2.4},"geometry":{"type":"Polygon","coordinates":[[[136.18349,36.05696],[136.18348,36.05682],[136.18308,36.05685],[136.18305,36.05687],[136.18306,36.057],[136.18308,36.05701],[136.18347,36.05699],[136.18346,36.05697],[136.18349,36.05696]]]}},{"type":"Feature","properties":{"pid":"6569adad-310c-4809-9e57-58822ac521d9","full":1.9},"geometry":{"type":"Polygon","coordinates":[[[136.18434,36.05735],[136.1843,36.057],[136.18412,36.05702],[136.18415,36.05736],[136.18434,36.05735]]]}},{"type":"Feature","properties":{"pid":"5510aeff-9ec0-4109-910c-bfedb8d4a8d7","full":2.5},"geometry":{"type":"Polygon","coordinates":[[[136.18663,36.05478],[136.18644,36.05477],[136.18634,36.05513],[136.18653,36.05517],[136.18663,36.05478]]]}},{"type":"Feature","properties":{"pid":"a3a31ff7-c8e4-4f38-8f53-67600eff50c2","full":4.2},"geometry":{"type":"Polygon","coordinates":[[[136.1902,36.05396],[136.18998,36.05383],[136.18995,36.05384],[136.18974,36.05408],[136.18999,36.05422],[136.1902,36.05396]]]}},{"type":"Feature","properties":{"pid":"f51756fa-4729-4700-8a96-36561209dcb5","full":1.0},"geometry":{"type":"Polygon","coordinates":[[[136.18985,36.05382],[136.18996,36.05367],[136.18958,36.0537],[136.18959,36.05382],[136.18963,36.05382],[136.18964,36.05385],[136.1898,36.05383],[136.18985,36.05382]]]}},{"type":"Feature","properties":{"pid":"2b928f6b-5585-4e3d-affd-9cfb24a17d84","full":2.2},"geometry":{"type":"Polygon","coordinates":[[[136.18959,36.05386],[136.18954,36.05351],[136.18934,36.05353],[136.18939,36.05385],[136.1894,36.05384],[136.18941,36.05387],[136.18959,36.05386]]]}},{"type":"Feature","properties":{"pid":"76645252-4edc-4a2a-a79f-edd7ab43034e","full":3.7},"geometry":{"type":"Polygon","coordinates":[[[136.18956,36.05344],[136.18952,36.0531],[136.18926,36.05312],[136.1893,36.05344],[136.18932,36.05344],[136.18933,36.05345],[136.18956,36.05344]]]}},{"type":"Feature","properties":{"pid":"2a86f117-3fac-45de-a985-2032f5397c6c","full":2.7},"geometry":{"type":"Polygon","coordinates":[[[136.18979,36.05341],[136.18975,36.05308],[136.18953,36.0531],[136.18956,36.05341],[136.1896,36.0534],[136.1896,36.05343],[136.18979,36.05341]]]}},{"type":"Feature","properties":{"pid":"4011c88d-ade0-4074-95fe-f89568f9fc60","full":5.9},"geometry":{"type":"Polygon","coordinates":[[[136.18978,36.05301],[136.18973,36.05266],[136.1894,36.05269],[136.18944,36.05301],[136.18946,36.05301],[136.18947,36.05304],[136.18978,36.05301]]]}},{"type":"Feature","properties":{"pid":"cc202ebd-d89b-4328-8b62-dfe253f961db","full":4.3},"geometry":{"type":"Polygon","coordinates":[[[136.19006,36.05299],[136.19002,36.05264],[136.18974,36.05266],[136.18978,36.05298],[136.18981,36.05298],[136.18981,36.053],[136.19006,36.05299]]]}},{"type":"Feature","properties":{"pid":"ef27589b-8381-4050-9a57-b1764b9398f4","full":4.0},"geometry":{"type":"Polygon","coordinates":[[[136.18944,36.05304],[136.18939,36.05269],[136.18912,36.05272],[136.18916,36.05302],[136.18919,36.05302],[136.18919,36.05306],[136.18944,36.05304]]]}},{"type":"Feature","properties":{"pid":"d56d593f-3e62-428c-954b-5cef46dd9276","full":3.1},"geometry":{"type":"Polygon","coordinates":[[[136.18916,36.05306],[136.18911,36.05272],[136.18891,36.05274],[136.1889,36.05275],[136.1889,36.05305],[136.18893,36.05305],[136.18893,36.05308],[136.18916,36.05306]]]}},{"type":"Feature","properties":{"pid":"25b11873-d7ca-44d0-8c0f-3b06f19e9567","full":4.7},"geometry":{"type":"Polygon","coordinates":[[[136.19046,36.05147],[136.18991,36.05145],[136.1899,36.0516],[136.19018,36.0516],[136.19017,36.05174],[136.19044,36.05175],[136.19046,36.05147]]]}},{"type":"Feature","properties":{"pid":"04c2cb65-6b29-451e-b3ec-784771a213c8","full":1.7},"geometry":{"type":"Polygon","coordinates":[[[136.18932,36.05108],[136.1895,36.05107],[136.18946,36.05073],[136.18929,36.05075],[136.18929,36.05078],[136.18928,36.05078],[136.18932,36.05108]]]}},{"type":"Feature","properties":{"pid":"21ae8cf1-79a4-43a2-bb2a-7f4ed79e72f6","full":3.7},"geometry":{"type":"Polygon","coordinates":[[[136.19002,36.05061],[136.18998,36.05027],[136.18962,36.0503],[136.18964,36.05046],[136.18979,36.05045],[136.1898,36.05061],[136.18983,36.05061],[136.18984,36.05062],[136.19002,36.05061]]]}},{"type":"Feature","properties":{"pid":"ae55abb5-59f1-43b8-8dc8-3e796c7ccf10","full":3.3},"geometry":{"type":"Polygon","coordinates":[[[136.18998,36.0502],[136.18993,36.04986],[136.18956,36.04989],[136.18959,36.05006],[136.18978,36.05004],[136.1898,36.05019],[136.18983,36.05019],[136.18983,36.05021],[136.18998,36.0502]]]}},{"type":"Feature","properties":{"pid":"cadc4a46-b6f0-47c8-9f49-1d2f5d1d42f7","full":0.6},"geometry":{"type":"Polygon","coordinates":[[[136.18963,36.05023],[136.18979,36.05021],[136.18977,36.05004],[136.18959,36.05006],[136.1896,36.05019],[136.18963,36.05019],[136.18963,36.05023]]]}},{"type":"Feature","properties":{"pid":"1c4ec56c-4f4c-4888-93ee-ec5adc6d6579","full":1.5},"geometry":{"type":"Polygon","coordinates":[[[136.18847,36.05073],[136.18849,36.05075],[136.1887,36.05073],[136.18867,36.05051],[136.18846,36.05053],[136.18846,36.05055],[136.18844,36.05056],[136.18847,36.05073]]]}},{"type":"Feature","properties":{"pid":"88a4efaf-45d4-4269-91c5-64100b5eadb7","full":1.9},"geometry":{"type":"Polygon","coordinates":[[[136.18837,36.05073],[136.18835,36.05056],[136.18802,36.05059],[136.1881,36.05075],[136.18816,36.05077],[136.18835,36.05076],[136.18837,36.05073]]]}},{"type":"Feature","properties":{"pid":"863e52d7-fd6e-4fe3-81f3-5d8e3faf4acb","full":1.1},"geometry":{"type":"Polygon","coordinates":[[[136.18825,36.04978],[136.18822,36.04976],[136.18788,36.04978],[136.1879,36.04992],[136.18826,36.04988],[136.18825,36.04978]]]}},{"type":"Feature","properties":{"pid":"64f78e96-f978-4765-9f9c-3b1eaadccd6f","full":0.6},"geometry":{"type":"Polygon","coordinates":[[[136.18822,36.0496],[136.1882,36.04958],[136.18803,36.0496],[136.18806,36.04977],[136.18824,36.04975],[136.18822,36.0496]]]}},{"type":"Feature","properties":{"pid":"21262ad7-1b2e-4315-89e3-45aa84373a0a","full":0.6},"geometry":{"type":"Polygon","coordinates":[[[136.18856,36.04969],[136.18855,36.04958],[136.18852,36.04957],[136.18851,36.04955],[136.18832,36.04957],[136.18832,36.04959],[136.18833,36.04971],[136.18856,36.04969]]]}},{"type":"Feature","properties":{"pid":"1cb43822-724f-4309-8f7c-daae4955cd82","full":1.3},"geometry":{"type":"Polygon","coordinates":[[[136.18981,36.04895],[136.18976,36.04852],[136.18961,36.0486],[136.18966,36.04896],[136.18981,36.04895]]]}},{"type":"Feature","properties":{"pid":"214dd641-e23e-49b4-bdc8-e9eb4c0fe61f","full":87.9},"geometry":{"type":"Polygon","coordinates":[[[136.1758,36.0482],[136.17466,36.04799],[136.17442,36.0489],[136.17555,36.04911],[136.1758,36.0482]]]}},{"type":"Feature","properties":{"pid":"dea05e9e-c150-4856-9f74-331e46f25c12","full":12.3},"geometry":{"type":"Polygon","coordinates":[[[136.1761,36.04838],[136.17607,36.04837],[136.17607,36.04835],[136.1759,36.04832],[136.17576,36.04881],[136.17616,36.04889],[136.1763,36.04839],[136.1761,36.04836],[136.1761,36.04838]]]}},{"type":"Feature","properties":{"pid":"15a2721c-1631-426d-b532-35c09f95f128","full":12.6},"geometry":{"type":"Polygon","coordinates":[[[136.17582,36.04933],[136.17584,36.04934],[136.17584,36.04935],[136.17603,36.04939],[136.17616,36.0489],[136.17576,36.04882],[136.17564,36.04926],[136.17563,36.04931],[136.17581,36.04934],[136.17582,36.04933]]]}},{"type":"Feature","properties":{"pid":"30c5447d-58a4-44a1-85ef-35d2e6ee067f","full":0.9},"geometry":{"type":"Polygon","coordinates":[[[136.17583,36.04941],[136.17581,36.04941],[136.17581,36.0494],[136.17562,36.04936],[136.17558,36.04955],[136.17578,36.04958],[136.17583,36.04941]]]}},{"type":"Feature","properties":{"pid":"202b7f9b-ea11-4676-9437-aa62bfc8c980","full":3.5},"geometry":{"type":"Polygon","coordinates":[[[136.17596,36.04962],[136.17558,36.04955],[136.17554,36.04976],[136.17586,36.04983],[136.17588,36.0498],[136.17591,36.0498],[136.17596,36.04962]]]}},{"type":"Feature","properties":{"pid":"d23fc721-1213-44fd-aaa9-ae05a2fef8c5","full":0.7},"geometry":{"type":"Polygon","coordinates":[[[136.17601,36.04944],[136.17599,36.04944],[136.17599,36.04943],[136.17583,36.0494],[136.17578,36.04958],[136.17596,36.04961],[136.17601,36.04944]]]}},{"type":"Feature","properties":{"pid":"adc52288-04d4-4a9f-b4f6-cdc1c82a5bcd","full":150.4},"geometry":{"type":"Polygon","coordinates":[[[136.17711,36.05063],[136.17731,36.05067],[136.17745,36.05019],[136.17555,36.04981],[136.1753,36.05068],[136.17534,36.05069],[136.17532,36.05075],[136.17697,36.05108],[136.17711,36.05063]]]}},{"type":"Feature","properties":{"pid":"0d2708aa-2a21-4252-a879-0f9d1e9726f9","full":174.0},"geometry":{"type":"Polygon","coordinates":[[[136.17522,36.05091],[136.17497,36.05179],[136.175,36.05179],[136.175,36.05182],[136.17695,36.0522],[136.17723,36.05128],[136.17721,36.05125],[136.17713,36.05122],[136.17533,36.05088],[136.17526,36.05088],[136.17522,36.05091]]]}},{"type":"Feature","properties":{"pid":"4be30355-97da-4195-a70e-789acf47b5c7","full":170.0},"geometry":{"type":"Polygon","coordinates":[[[136.17693,36.05225],[136.17503,36.05186],[136.17496,36.05187],[136.17493,36.05189],[136.17466,36.05283],[136.17666,36.0532],[136.1768,36.05273],[136.17661,36.05269],[136.17667,36.0525],[136.17686,36.05254],[136.17693,36.05225]]]}},{"type":"Feature","properties":{"pid":"7042c7d6-a1cb-469f-9409-5d84dff0c00d","full":93.1},"geometry":{"type":"Polygon","coordinates":[[[136.17698,36.04409],[136.17576,36.04387],[136.17553,36.04476],[136.17674,36.04498],[136.17698,36.04409]]]}},{"type":"Feature","properties":{"pid":"5f111525-d9e2-455b-952e-7e62d0fb04b8","full":64.7},"geometry":{"type":"Polygon","coordinates":[[[136.17713,36.04343],[136.1771,36.04333],[136.17705,36.04328],[136.17667,36.04334],[136.1765,36.04328],[136.17627,36.0432],[136.17621,36.04314],[136.17599,36.0431],[136.17579,36.04381],[136.177,36.04403],[136.17707,36.04377],[136.17713,36.04343]]]}},{"type":"Feature","properties":{"pid":"e9b674d4-04bd-49f7-ba1d-05c52eefb5e4","full":89.7},"geometry":{"type":"Polygon","coordinates":[[[136.17586,36.04309],[136.17441,36.04281],[136.17421,36.04353],[136.1757,36.0438],[136.17588,36.04314],[136.17585,36.04313],[136.17586,36.04309]]]}},{"type":"Feature","properties":{"pid":"29a2e94c-ba76-448b-a9be-549ed0e80b64","full":47.4},"geometry":{"type":"Polygon","coordinates":[[[136.17489,36.04232],[136.17456,36.04227],[136.17443,36.04274],[136.17446,36.04277],[136.17584,36.04302],[136.17586,36.04299],[136.17592,36.043],[136.176,36.04267],[136.17557,36.0426],[136.17492,36.04236],[136.17489,36.04232]]]}},{"type":"Feature","properties":{"pid":"192fd0d5-7b0c-49e9-8012-672b8c53c2f6","full":0.5},"geometry":{"type":"Polygon","coordinates":[[[136.1753,36.04245],[136.17522,36.04221],[136.17496,36.04232],[136.1753,36.04245]]]}},{"type":"Feature","properties":{"pid":"8f4f8acb-12ef-480d-a47f-841beb4a853a","full":35.4},"geometry":{"type":"Polygon","coordinates":[[[136.17781,36.04074],[136.17731,36.04062],[136.177,36.04089],[136.17682,36.04106],[136.17724,36.04114],[136.17719,36.0413],[136.17723,36.04133],[136.17722,36.04137],[136.17757,36.04164],[136.17781,36.04074]]]}},{"type":"Feature","properties":{"pid":"5de66c32-9d36-44fa-998d-d67582a3932e","full":20.5},"geometry":{"type":"Polygon","coordinates":[[[136.17664,36.04221],[136.17612,36.0422],[136.17613,36.04262],[136.17602,36.04304],[136.17633,36.04311],[136.17638,36.04286],[136.17639,36.04275],[136.17649,36.04253],[136.17673,36.04231],[136.17663,36.04231],[136.17664,36.04221]]]}},{"type":"Feature","properties":{"pid":"6fbe4149-6f26-44ac-98e7-d9772e859fe8","full":3.0},"geometry":{"type":"Polygon","coordinates":[[[136.17886,36.04277],[136.17853,36.04254],[136.17842,36.04276],[136.17879,36.0429],[136.17886,36.04277]]]}},{"type":"Feature","properties":{"pid":"4681791d-6a6b-463b-a3a8-b41b9dc1837e","full":2.4},"geometry":{"type":"Polygon","coordinates":[[[136.1785,36.04255],[136.17822,36.04245],[136.17815,36.04267],[136.17838,36.04276],[136.1785,36.04255]]]}},{"type":"Feature","properties":{"pid":"58c62eaa-337b-4c19-b68e-c29273b58d1b","full":1.4},"geometry":{"type":"Polygon","coordinates":[[[136.17884,36.04214],[136.17847,36.04208],[136.17846,36.04212],[136.17843,36.04211],[136.17841,36.04221],[136.1788,36.04229],[136.17884,36.04214]]]}},{"type":"Feature","properties":{"pid":"a3c6262f-d50f-4ac4-91ae-d8758bd41170","full":3.2},"geometry":{"type":"Polygon","coordinates":[[[136.17889,36.04194],[136.17853,36.04188],[136.17849,36.04191],[136.17845,36.04207],[136.17884,36.04214],[136.17889,36.04194]]]}},{"type":"Feature","properties":{"pid":"314e8564-0858-4158-af69-456cd6fdd0c7","full":1.1},"geometry":{"type":"Polygon","coordinates":[[[136.17739,36.04189],[136.17768,36.04208],[136.1777,36.04207],[136.17773,36.04208],[136.17779,36.042],[136.17749,36.04178],[136.17743,36.04184],[136.17745,36.04185],[136.17742,36.04187],[136.17741,36.04187],[136.17739,36.04189]]]}},{"type":"Feature","properties":{"pid":"1c16f851-a7f4-4f88-8ae7-6e52f1001f9e","full":61.8},"geometry":{"type":"Polygon","coordinates":[[[136.17867,36.04089],[136.17787,36.04074],[136.17763,36.04163],[136.17769,36.04167],[136.17844,36.04181],[136.17869,36.0409],[136.17867,36.04089]]]}},{"type":"Feature","properties":{"pid":"f9cb0c0b-d63d-45f1-8f03-e6a54ac765a3","full":1.9},"geometry":{"type":"Polygon","coordinates":[[[136.17815,36.04196],[136.17838,36.042],[136.17841,36.04187],[136.17839,36.04187],[136.17839,36.04185],[136.17803,36.04179],[136.17799,36.04194],[136.17813,36.04205],[136.17815,36.04196]]]}},{"type":"Feature","properties":{"pid":"7c64ab42-1333-412d-be70-42e88d37866b","full":1.5},"geometry":{"type":"Polygon","coordinates":[[[136.17956,36.04189],[136.17896,36.04177],[136.17893,36.04189],[136.17953,36.042],[136.17956,36.04189]]]}},{"type":"Feature","properties":{"pid":"8ebc15d7-7fea-4303-9d8f-53012b6a7856","full":1.2},"geometry":{"type":"Polygon","coordinates":[[[136.179,36.04163],[136.17897,36.04174],[136.17957,36.04186],[136.1796,36.04174],[136.179,36.04163]]]}},{"type":"Feature","properties":{"pid":"e44b4d0a-99bc-4703-a1d5-2542368403cd","full":0.9},"geometry":{"type":"Polygon","coordinates":[[[136.17939,36.04157],[136.17904,36.0415],[136.179,36.04162],[136.17936,36.04169],[136.17939,36.04157]]]}},{"type":"Feature","properties":{"pid":"4ac6500b-599a-4919-86e3-9a5add785b84","full":23.0},"geometry":{"type":"Polygon","coordinates":[[[136.17913,36.04097],[136.17878,36.04091],[136.17875,36.04092],[136.17851,36.04182],[136.17888,36.04189],[136.17913,36.04097]]]}},{"type":"Feature","properties":{"pid":"68bf294a-eb9b-4a5c-850a-8557659a6ebf","full":1.6},"geometry":{"type":"Polygon","coordinates":[[[136.17968,36.04147],[136.17909,36.04136],[136.17906,36.04148],[136.17965,36.04159],[136.17968,36.04147]]]}},{"type":"Feature","properties":{"pid":"b1bac83c-e5e4-4a90-ab35-c4e0b8e66668","full":7.7},"geometry":{"type":"Polygon","coordinates":[[[136.17949,36.04215],[136.1789,36.04205],[136.17884,36.04229],[136.17943,36.04239],[136.17949,36.04215]]]}},{"type":"Feature","properties":{"pid":"8ec34879-4f88-41ff-acc2-74aa756f3211","full":2.9},"geometry":{"type":"Polygon","coordinates":[[[136.17901,36.04333],[136.17903,36.04334],[136.17908,36.04321],[136.17872,36.04309],[136.17864,36.04321],[136.17871,36.04325],[136.17873,36.04332],[136.17896,36.0434],[136.17901,36.04333]]]}},{"type":"Feature","properties":{"pid":"69a4d93d-d1de-4df1-a05c-2e3689c57b50","full":1.2},"geometry":{"type":"Polygon","coordinates":[[[136.17908,36.04303],[136.17879,36.04293],[136.17872,36.04307],[136.17903,36.04317],[136.17908,36.04303]]]}},{"type":"Feature","properties":{"pid":"7c589a4d-6b19-497d-ae22-3e3f505dc4f6","full":2.7},"geometry":{"type":"Polygon","coordinates":[[[136.17879,36.04292],[136.1784,36.04279],[136.17831,36.04295],[136.17871,36.04309],[136.17879,36.04292]]]}},{"type":"Feature","properties":{"pid":"5c453314-5b6f-4b3c-8e8b-48b772166ea2","full":1.3},"geometry":{"type":"Polygon","coordinates":[[[136.17838,36.04319],[136.1785,36.04303],[136.17826,36.04296],[136.17818,36.04315],[136.17832,36.0432],[136.17834,36.04318],[136.17838,36.04319]]]}},{"type":"Feature","properties":{"pid":"b159c366-bd97-4335-8f0a-7d543cb3d0f3","full":2.2},"geometry":{"type":"Polygon","coordinates":[[[136.17956,36.04374],[136.17936,36.0437],[136.17927,36.04401],[136.17948,36.04404],[136.17956,36.04374]]]}},{"type":"Feature","properties":{"pid":"2d58a375-e2ec-45df-a3f1-5fb8da39ace3","full":114.4},"geometry":{"type":"Polygon","coordinates":[[[136.17672,36.04506],[136.17552,36.04484],[136.17522,36.04594],[136.17642,36.04615],[136.17672,36.04506]]]}},{"type":"Feature","properties":{"pid":"ecb4840d-adf2-4e72-8017-c2589c671abe","full":3.9},"geometry":{"type":"Polygon","coordinates":[[[136.17756,36.04698],[136.17736,36.04695],[136.17723,36.04743],[136.17741,36.04746],[136.17742,36.04743],[136.17744,36.04743],[136.17756,36.04698]]]}},{"type":"Feature","properties":{"pid":"23291044-8a26-4d5b-a9b9-920ba4aab97b","full":3.7},"geometry":{"type":"Polygon","coordinates":[[[136.17735,36.04695],[136.17715,36.04691],[136.17704,36.04737],[136.17706,36.04738],[136.17706,36.04739],[136.17722,36.04743],[136.17735,36.04695]]]}},{"type":"Feature","properties":{"pid":"d2c8797f-764d-4083-8ab0-c6a583b7fd8f","full":11.8},"geometry":{"type":"Polygon","coordinates":[[[136.17674,36.04683],[136.17634,36.04676],[136.17623,36.04722],[136.17625,36.04722],[136.17625,36.04724],[136.17662,36.04731],[136.17674,36.04683]]]}},{"type":"Feature","properties":{"pid":"2ce4039e-d9e6-4515-8e74-87e2e755f606","full":2.7},"geometry":{"type":"Polygon","coordinates":[[[136.17693,36.04686],[136.17675,36.04683],[136.17662,36.04731],[136.1768,36.04735],[136.17693,36.04686]]]}},{"type":"Feature","properties":{"pid":"2faa9320-8d82-479b-bded-0f33f33f9c47","full":106.3},"geometry":{"type":"Polygon","coordinates":[[[136.1764,36.0462],[136.17521,36.04598],[136.17492,36.04697],[136.17495,36.04701],[136.17612,36.04721],[136.1764,36.0462]]]}},{"type":"Feature","properties":{"pid":"a92457bd-8165-4a66-b974-2500c8eb2e7d","full":85.6},"geometry":{"type":"Polygon","coordinates":[[[136.17602,36.04726],[136.17496,36.04708],[136.17491,36.0471],[136.17467,36.04794],[136.17582,36.04815],[136.17605,36.04731],[136.17602,36.04726]]]}},{"type":"Feature","properties":{"pid":"780cab93-0201-4446-96da-8fd1d1c239bf","full":12.5},"geometry":{"type":"Polygon","coordinates":[[[136.1759,36.04828],[136.17631,36.04835],[136.17645,36.04786],[136.17604,36.04779],[136.1759,36.04828]]]}},{"type":"Feature","properties":{"pid":"19ffe529-b933-4f27-baba-bd23c3ab7f09","full":12.5},"geometry":{"type":"Polygon","coordinates":[[[136.17659,36.04736],[136.17618,36.04729],[136.17604,36.04778],[136.17645,36.04784],[136.17659,36.04736]]]}},{"type":"Feature","properties":{"pid":"33e3902f-2f79-4b57-8a8b-a5a370a925be","full":3.4},"geometry":{"type":"Polygon","coordinates":[[[136.17797,36.04706],[136.17777,36.04702],[136.17764,36.0475],[136.17783,36.04753],[136.17797,36.04706]]]}},{"type":"Feature","properties":{"pid":"04118f9e-1741-4f1b-a232-a8b05e5490da","full":3.6},"geometry":{"type":"Polygon","coordinates":[[[136.17776,36.04702],[136.17757,36.04698],[136.17745,36.04743],[136.17746,36.04744],[136.17745,36.04746],[136.17763,36.04749],[136.17776,36.04702]]]}},{"type":"Feature","properties":{"pid":"0d2bfaf6-abdc-43bb-8cbe-f3efd4d8cce7","full":10.3},"geometry":{"type":"Polygon","coordinates":[[[136.18075,36.04674],[136.18039,36.04663],[136.18033,36.04677],[136.18026,36.04713],[136.18053,36.04717],[136.18054,36.04714],[136.18061,36.04715],[136.18075,36.04674]]]}},{"type":"Feature","properties":{"pid":"a5ced308-830f-4dcd-8269-7f3118da9ef0","full":2.2},"geometry":{"type":"Polygon","coordinates":[[[136.18083,36.04658],[136.18049,36.04647],[136.18039,36.04662],[136.18072,36.04672],[136.18079,36.0467],[136.18083,36.04658]]]}},{"type":"Feature","properties":{"pid":"7dfbd654-4d70-42da-b043-4a012793c732","full":3.2},"geometry":{"type":"Polygon","coordinates":[[[136.18279,36.04497],[136.18277,36.04498],[136.18276,36.04497],[136.18249,36.04522],[136.18266,36.04535],[136.18295,36.04509],[136.18279,36.04497]]]}},{"type":"Feature","properties":{"pid":"e8a828a0-9b94-4337-9dca-21168f7fe098","full":1.1},"geometry":{"type":"Polygon","coordinates":[[[136.18292,36.04471],[136.18263,36.04469],[136.18263,36.04471],[136.18261,36.04471],[136.1826,36.04473],[136.18262,36.04476],[136.18286,36.04494],[136.18288,36.04493],[136.18292,36.04471]]]}},{"type":"Feature","properties":{"pid":"6e196092-ce07-45c8-a402-aa60d0d469c4","full":1.7},"geometry":{"type":"Polygon","coordinates":[[[136.18379,36.04728],[136.18394,36.04727],[136.184,36.04685],[136.18397,36.04684],[136.18397,36.04682],[136.18383,36.04676],[136.1838,36.04701],[136.18383,36.04701],[136.18379,36.04728]]]}},{"type":"Feature","properties":{"pid":"927c3e5b-bf9a-489c-b997-d8e9f7a38663","full":1.2},"geometry":{"type":"Polygon","coordinates":[[[136.18328,36.04651],[136.18316,36.04644],[136.18285,36.04672],[136.18297,36.0468],[136.18328,36.04651]]]}},{"type":"Feature","properties":{"pid":"ebc1db76-29f9-4162-8a1e-81f01dd316fc","full":3.5},"geometry":{"type":"Polygon","coordinates":[[[136.18382,36.04676],[136.18367,36.04669],[136.18361,36.0467],[136.18344,36.04694],[136.18346,36.04697],[136.18379,36.04701],[136.18382,36.04676]]]}},{"type":"Feature","properties":{"pid":"41e04f65-d80e-4a79-a009-78ca0d96ab79","full":2.3},"geometry":{"type":"Polygon","coordinates":[[[136.18383,36.04702],[136.18346,36.04698],[136.18346,36.047],[136.18342,36.047],[136.18342,36.04715],[136.1838,36.04719],[136.18383,36.04702]]]}},{"type":"Feature","properties":{"pid":"f6a2cf40-b585-435d-bf17-6f2d2afa1625","full":1.7},"geometry":{"type":"Polygon","coordinates":[[[136.18847,36.04211],[136.18809,36.04207],[136.18806,36.04222],[136.18842,36.04225],[136.18843,36.04223],[136.18846,36.04221],[136.18847,36.04211]]]}},{"type":"Feature","properties":{"pid":"7dc88391-d727-4559-952a-a83fdbf33951","full":4.9},"geometry":{"type":"Polygon","coordinates":[[[136.19021,36.041],[136.1902,36.04098],[136.18996,36.04095],[136.18993,36.04096],[136.18987,36.04129],[136.18989,36.04131],[136.19015,36.04134],[136.19021,36.041]]]}},{"type":"Feature","properties":{"pid":"44c5b0fa-3daf-4958-8df2-ddcacac8cac9","full":8.7},"geometry":{"type":"Polygon","coordinates":[[[136.18713,36.04179],[136.1867,36.04174],[136.1867,36.04177],[136.18668,36.04177],[136.18663,36.04207],[136.18708,36.04212],[136.1871,36.04211],[136.18715,36.04181],[136.18713,36.04179]]]}},{"type":"Feature","properties":{"pid":"a0adc8e1-ba57-4e4e-a3f9-06b5e3eed8ac","full":1.8},"geometry":{"type":"Polygon","coordinates":[[[136.18534,36.04163],[136.18492,36.04158],[136.1849,36.04173],[136.1853,36.04177],[136.1853,36.04176],[136.18533,36.04176],[136.18534,36.04163]]]}},{"type":"Feature","properties":{"pid":"e8db2925-e27f-4509-9723-9abf34a7fb6b","full":2.0},"geometry":{"type":"Polygon","coordinates":[[[136.18537,36.04147],[136.18494,36.04143],[136.18492,36.04158],[136.18535,36.04162],[136.18537,36.04147]]]}},{"type":"Feature","properties":{"pid":"d059f6dd-22ee-4d7a-a1a9-f4e545025d01","full":0.6},"geometry":{"type":"Polygon","coordinates":[[[136.18562,36.04179],[136.18559,36.04196],[136.18578,36.04198],[136.18581,36.04181],[136.18562,36.04179]]]}},{"type":"Feature","properties":{"pid":"b65df80d-7b4f-4bec-ab9a-7c2fee0e4407","full":1.3},"geometry":{"type":"Polygon","coordinates":[[[136.18591,36.0414],[136.18568,36.04137],[136.18565,36.04155],[136.18567,36.04157],[136.18588,36.04159],[136.18591,36.0414]]]}},{"type":"Feature","properties":{"pid":"1161f1e9-b05d-483a-b24d-bb6ee21f81e3","full":1.9},"geometry":{"type":"Polygon","coordinates":[[[136.18617,36.04101],[136.18598,36.04099],[136.18593,36.04126],[136.18614,36.04129],[136.18618,36.04102],[136.18617,36.04101]]]}},{"type":"Feature","properties":{"pid":"686dfb43-3f00-487e-9118-0d7fdf6e4b26","full":2.2},"geometry":{"type":"Polygon","coordinates":[[[136.18597,36.04098],[136.18578,36.04096],[136.18574,36.04098],[136.1857,36.04124],[136.18593,36.04126],[136.18597,36.04098]]]}},{"type":"Feature","properties":{"pid":"c8aab440-4811-4f02-90ba-aa47d1135ffb","full":128.7},"geometry":{"type":"Polygon","coordinates":[[[136.18395,36.0415],[136.18301,36.04131],[136.18264,36.04268],[136.18372,36.04287],[136.18379,36.0428],[136.1839,36.04246],[136.18395,36.0415]]]}},{"type":"Feature","properties":{"pid":"64b9adf4-35e6-422f-b0b5-8a41c0a4133d","full":12.6},"geometry":{"type":"Polygon","coordinates":[[[136.18314,36.04334],[136.18248,36.04323],[136.18233,36.04374],[136.18236,36.04377],[136.18245,36.04379],[136.18314,36.04334]]]}},{"type":"Feature","properties":{"pid":"99b5720c-90a7-4fa0-a12b-c87bbf00de64","full":18.9},"geometry":{"type":"Polygon","coordinates":[[[136.18329,36.04286],[136.18261,36.04274],[136.1825,36.04314],[136.18317,36.04327],[136.18329,36.04286]]]}},{"type":"Feature","properties":{"pid":"0a2300af-9327-4e54-b249-caf3b0123e90","full":3.1},"geometry":{"type":"Polygon","coordinates":[[[136.18251,36.04392],[136.18234,36.04388],[136.18229,36.04391],[136.18221,36.04418],[136.18225,36.0442],[136.18224,36.04423],[136.18243,36.04426],[136.18251,36.04392]]]}},{"type":"Feature","properties":{"pid":"69ef8fd5-0f43-4602-89b6-82f936a89877","full":2.1},"geometry":{"type":"Polygon","coordinates":[[[136.18262,36.04441],[136.18216,36.04434],[136.18212,36.04448],[136.18254,36.04456],[136.18255,36.04453],[136.18258,36.04454],[136.18262,36.04441]]]}},{"type":"Feature","properties":{"pid":"914ce91a-d692-43f6-bef9-522dcf963a3d","full":2.7},"geometry":{"type":"Polygon","coordinates":[[[136.18095,36.04341],[136.18076,36.04334],[136.18066,36.04371],[136.18086,36.04374],[136.18095,36.04341]]]}},{"type":"Feature","properties":{"pid":"b52e30c2-1969-4650-9f36-cba990d71028","full":1.9},"geometry":{"type":"Polygon","coordinates":[[[136.18134,36.04354],[136.18114,36.04347],[136.18107,36.04378],[136.18126,36.04382],[136.18134,36.04354]]]}},{"type":"Feature","properties":{"pid":"29ac8cd6-cc31-49ea-9fd9-1982ae54097a","full":138.9},"geometry":{"type":"Polygon","coordinates":[[[136.18271,36.04169],[136.18162,36.04149],[136.18123,36.04293],[136.18232,36.04313],[136.18271,36.04169]]]}},{"type":"Feature","properties":{"pid":"7b72b3a2-fa67-49a8-b50a-781f6cc968b1","full":153.3},"geometry":{"type":"Polygon","coordinates":[[[136.18163,36.04148],[136.18272,36.04167],[136.18315,36.0401],[136.18206,36.0399],[136.18163,36.04148]]]}},{"type":"Feature","properties":{"pid":"75056884-71e4-48e9-b410-25c5dec613e5","full":92.8},"geometry":{"type":"Polygon","coordinates":[[[136.18301,36.04129],[136.18395,36.04147],[136.18397,36.04107],[136.18436,36.04031],[136.18332,36.04013],[136.18301,36.04129]]]}},{"type":"Feature","properties":{"pid":"11df6740-3a20-4f29-83d2-a05cfd67517d","full":2.5},"geometry":{"type":"Polygon","coordinates":[[[136.18479,36.04075],[136.18481,36.04061],[136.1844,36.04057],[136.18432,36.04071],[136.18433,36.04072],[136.18435,36.04073],[136.18474,36.04077],[136.18479,36.04075]]]}},{"type":"Feature","properties":{"pid":"2474ab60-ef85-4953-b7e3-d0621311e3b2","full":2.0},"geometry":{"type":"Polygon","coordinates":[[[136.18473,36.04084],[136.18455,36.04082],[136.18449,36.04116],[136.18465,36.04118],[136.18469,36.04116],[136.18473,36.04084]]]}},{"type":"Feature","properties":{"pid":"5ccfb034-e2fe-41a6-8dcd-ca0bd73bfdbc","full":1.9},"geometry":{"type":"Polygon","coordinates":[[[136.18558,36.04057],[136.18537,36.04056],[136.18533,36.04081],[136.18536,36.04081],[136.18535,36.04084],[136.18553,36.04086],[136.18558,36.04057]]]}},{"type":"Feature","properties":{"pid":"c2d2905e-991f-4e71-a344-d79104871c4b","full":1.5},"geometry":{"type":"Polygon","coordinates":[[[136.1792,36.04094],[136.17979,36.04104],[136.17983,36.04092],[136.17923,36.04082],[136.1792,36.04094]]]}},{"type":"Feature","properties":{"pid":"cfbe242c-f297-4267-a8c5-7c483c0f609c","full":2.5},"geometry":{"type":"Polygon","coordinates":[[[136.1902,36.04091],[136.19055,36.04093],[136.19054,36.04086],[136.19069,36.0408],[136.19069,36.04073],[136.1904,36.04074],[136.19036,36.04073],[136.19023,36.04073],[136.1902,36.04091]]]}},{"type":"Feature","properties":{"pid":"80dca850-4a2f-4d8a-9368-d240f223274a","full":4.0},"geometry":{"type":"Polygon","coordinates":[[[136.19672,36.04064],[136.1967,36.04044],[136.19647,36.04045],[136.19648,36.04065],[136.19641,36.04076],[136.19638,36.04084],[136.19665,36.04083],[136.19665,36.04081],[136.19668,36.04081],[136.19672,36.04064]]]}},{"type":"Feature","properties":{"pid":"ee2e2eef-14f3-4cc6-a053-16521f41e6ef","full":0.9},"geometry":{"type":"Polygon","coordinates":[[[136.19723,36.0411],[136.19723,36.04107],[136.19724,36.04107],[136.19721,36.04086],[136.19704,36.04088],[136.19707,36.04111],[136.19723,36.0411]]]}},{"type":"Feature","properties":{"pid":"2df7e645-8250-40d3-bc58-2a245246297d","full":3.2},"geometry":{"type":"Polygon","coordinates":[[[136.19742,36.04108],[136.19736,36.04061],[136.19714,36.04063],[136.19714,36.04065],[136.19713,36.04065],[136.19716,36.04086],[136.19722,36.04086],[136.19725,36.04107],[136.19726,36.04109],[136.19742,36.04108]]]}},{"type":"Feature","properties":{"pid":"3de3dd5f-466c-466e-be27-dc34ed93b733","full":1.5},"geometry":{"type":"Polygon","coordinates":[[[136.19952,36.04112],[136.19945,36.04074],[136.19929,36.04076],[136.19937,36.04117],[136.19952,36.04112]]]}},{"type":"Feature","properties":{"pid":"448efc91-5de5-498d-be72-c4fb06f0cc44","full":1.6},"geometry":{"type":"Polygon","coordinates":[[[136.19991,36.04101],[136.20026,36.04086],[136.20028,36.04083],[136.20026,36.04077],[136.20023,36.04077],[136.20022,36.04076],[136.19987,36.0408],[136.19991,36.04101]]]}},{"type":"Feature","properties":{"pid":"a6b69d10-db25-4851-b080-99cbdc7e258f","full":2.1},"geometry":{"type":"Polygon","coordinates":[[[136.19867,36.04126],[136.19862,36.04098],[136.1984,36.04101],[136.19845,36.04127],[136.19848,36.04127],[136.19848,36.04128],[136.19867,36.04126]]]}},{"type":"Feature","properties":{"pid":"2289d000-3a84-4e53-8f60-c6e8a2cdc4ad","full":5.9},"geometry":{"type":"Polygon","coordinates":[[[136.19071,36.0412],[136.19042,36.041],[136.19034,36.04099],[136.19031,36.04117],[136.19019,36.04116],[136.19016,36.04134],[136.19017,36.04135],[136.19044,36.04137],[136.19049,36.04136],[136.19065,36.04126],[136.19071,36.0412]]]}},{"type":"Feature","properties":{"pid":"d0c47dfc-a8ba-4593-aff2-eae4493088d3","full":2.0},"geometry":{"type":"Polygon","coordinates":[[[136.19104,36.04762],[136.19103,36.04795],[136.19118,36.04794],[136.19123,36.04792],[136.19124,36.04763],[136.19104,36.04762]]]}},{"type":"Feature","properties":{"pid":"3d4a2e07-d52f-4447-bbbd-e3deadeffee7","full":3.1},"geometry":{"type":"Polygon","coordinates":[[[136.19468,36.04771],[136.19448,36.0477],[136.19445,36.04773],[136.19448,36.04802],[136.1945,36.04804],[136.19472,36.04802],[136.19468,36.04771]]]}},{"type":"Feature","properties":{"pid":"516ec34d-d978-404d-95b4-8be543f2222f","full":2.0},"geometry":{"type":"Polygon","coordinates":[[[136.19621,36.04791],[136.19614,36.04793],[136.19608,36.04814],[136.19629,36.04819],[136.19631,36.04815],[136.19636,36.04805],[136.19638,36.04794],[136.19621,36.04791]]]}},{"type":"Feature","properties":{"pid":"9215c86e-d0cc-4d66-9cde-c023c2f8666d","full":1.8},"geometry":{"type":"Polygon","coordinates":[[[136.19717,36.04814],[136.19715,36.04801],[136.19666,36.04805],[136.1966,36.04818],[136.19717,36.04814]]]}},{"type":"Feature","properties":{"pid":"d604fd41-6186-4d96-a822-a63207a06cff","full":3.9},"geometry":{"type":"Polygon","coordinates":[[[136.19789,36.04796],[136.19787,36.0478],[136.19724,36.04785],[136.19724,36.04787],[136.19723,36.04787],[136.19724,36.04801],[136.19726,36.04801],[136.19789,36.04796]]]}},{"type":"Feature","properties":{"pid":"48246759-4116-4489-a5db-800faf522990","full":2.9},"geometry":{"type":"Polygon","coordinates":[[[136.19631,36.04949],[136.19626,36.04911],[136.19607,36.04912],[136.19604,36.04915],[136.19609,36.04946],[136.19631,36.04949]]]}},{"type":"Feature","properties":{"pid":"ddf86497-d17c-4911-ad6d-d473a2697ddb","full":2.7},"geometry":{"type":"Polygon","coordinates":[[[136.19727,36.04904],[136.19725,36.04903],[136.19695,36.04905],[136.19698,36.04927],[136.1973,36.04924],[136.19727,36.04904]]]}},{"type":"Feature","properties":{"pid":"4d1726f5-0f66-401d-ad98-01a82004c9f3","full":5.5},"geometry":{"type":"Polygon","coordinates":[[[136.1972,36.04838],[136.19717,36.04814],[136.19667,36.04818],[136.19669,36.04841],[136.1972,36.04838]]]}},{"type":"Feature","properties":{"pid":"2a435d24-3339-4d9e-883a-27f2c03550a9","full":5.6},"geometry":{"type":"Polygon","coordinates":[[[136.19683,36.04875],[136.19681,36.04851],[136.19642,36.04853],[136.19639,36.04855],[136.19628,36.04876],[136.19628,36.04878],[136.19683,36.04875]]]}},{"type":"Feature","properties":{"pid":"4c53abe1-c0c4-4ad8-ae82-877a350015b2","full":5.5},"geometry":{"type":"Polygon","coordinates":[[[136.19671,36.04899],[136.19668,36.04876],[136.19625,36.04879],[136.19613,36.04901],[136.19616,36.04903],[136.19671,36.04899]]]}},{"type":"Feature","properties":{"pid":"acc53d00-153d-4d00-ac5f-5fdab499ca5f","full":1.6},"geometry":{"type":"Polygon","coordinates":[[[136.19546,36.04882],[136.19564,36.04856],[136.19564,36.04855],[136.19542,36.04856],[136.19527,36.04876],[136.1954,36.04883],[136.19541,36.04882],[136.19546,36.04882]]]}},{"type":"Feature","properties":{"pid":"88aa2ba9-f0c2-437c-8aa3-5814e455be01","full":1.9},"geometry":{"type":"Polygon","coordinates":[[[136.19513,36.0484],[136.19531,36.04838],[136.19527,36.04805],[136.19513,36.04806],[136.19509,36.04808],[136.19513,36.0484]]]}},{"type":"Feature","properties":{"pid":"2b8366d6-0cd6-46b3-af30-c656b81c3735","full":1.3},"geometry":{"type":"Polygon","coordinates":[[[136.19441,36.04828],[136.19414,36.04828],[136.19413,36.04844],[136.19438,36.04845],[136.19443,36.04842],[136.19441,36.04828]]]}},{"type":"Feature","properties":{"pid":"9461de42-08a9-4ab7-92b6-b1d3c4780a84","full":2.2},"geometry":{"type":"Polygon","coordinates":[[[136.19471,36.04901],[136.19438,36.04885],[136.19437,36.04886],[136.19436,36.04885],[136.19424,36.04896],[136.1946,36.04915],[136.19471,36.04901]]]}},{"type":"Feature","properties":{"pid":"e0ed3581-06ec-4273-b92d-90b7ef9a121d","full":4.8},"geometry":{"type":"Polygon","coordinates":[[[136.19495,36.04868],[136.19493,36.04867],[136.19456,36.04869],[136.19438,36.04884],[136.19471,36.04901],[136.19495,36.04868]]]}},{"type":"Feature","properties":{"pid":"3af8a18a-2d87-4fb9-a167-811d19760259","full":1.8},"geometry":{"type":"Polygon","coordinates":[[[136.19526,36.04876],[136.19541,36.04856],[136.19514,36.04858],[136.19511,36.0486],[136.19511,36.04864],[136.19504,36.04873],[136.19506,36.04875],[136.19505,36.04877],[136.19534,36.04892],[136.1954,36.04883],[136.19526,36.04876]]]}},{"type":"Feature","properties":{"pid":"5c782914-134e-4529-9d59-f8b0200e5b56","full":7.3},"geometry":{"type":"Polygon","coordinates":[[[136.19537,36.04894],[136.19502,36.04876],[136.19482,36.049],[136.19483,36.04902],[136.19482,36.04905],[136.19515,36.04921],[136.19537,36.04894]]]}},{"type":"Feature","properties":{"pid":"51e140f0-a191-4c7e-a8df-d40ed86c5d66","full":2.3},"geometry":{"type":"Polygon","coordinates":[[[136.19484,36.04961],[136.19451,36.04944],[136.19449,36.04945],[136.19447,36.04944],[136.19438,36.04956],[136.19473,36.04975],[136.19484,36.04961]]]}},{"type":"Feature","properties":{"pid":"d881e918-e747-4d63-969d-4988331262d0","full":4.0},"geometry":{"type":"Polygon","coordinates":[[[136.19473,36.04976],[136.19438,36.04957],[136.19425,36.04973],[136.19425,36.04976],[136.19457,36.04993],[136.1946,36.04993],[136.19473,36.04976]]]}},{"type":"Feature","properties":{"pid":"e1c18fdc-580c-4a67-a12b-9a4d98ad1ca6","full":1.8},"geometry":{"type":"Polygon","coordinates":[[[136.1944,36.04941],[136.19399,36.04919],[136.19387,36.04929],[136.1943,36.04952],[136.1944,36.04941]]]}},{"type":"Feature","properties":{"pid":"c6c4493b-787c-477b-80fb-c7c72ba253f4","full":6.9},"geometry":{"type":"Polygon","coordinates":[[[136.19459,36.04916],[136.19423,36.04897],[136.19399,36.04919],[136.1944,36.0494],[136.19459,36.04916]]]}},{"type":"Feature","properties":{"pid":"9176ee9f-eadd-4c02-a716-1380ec899767","full":2.6},"geometry":{"type":"Polygon","coordinates":[[[136.1941,36.04942],[136.19388,36.0493],[136.19385,36.04931],[136.19368,36.04946],[136.19369,36.04947],[136.19395,36.04961],[136.1941,36.04942]]]}},{"type":"Feature","properties":{"pid":"e4392ba3-fe9e-481b-b99e-540203b5aa70","full":2.2},"geometry":{"type":"Polygon","coordinates":[[[136.194,36.04988],[136.19371,36.0497],[136.19358,36.04984],[136.19386,36.05002],[136.19387,36.05],[136.19389,36.05001],[136.194,36.04988]]]}},{"type":"Feature","properties":{"pid":"4b576270-7ac5-4e3f-bff8-3a013de93a0d","full":0.7},"geometry":{"type":"Polygon","coordinates":[[[136.19408,36.04978],[136.19381,36.04962],[136.19378,36.04962],[136.19372,36.0497],[136.194,36.04988],[136.19408,36.04979],[136.19408,36.04978]]]}},{"type":"Feature","properties":{"pid":"a3123ba0-b5e6-4d73-bf4b-0f6df7b33cad","full":2.0},"geometry":{"type":"Polygon","coordinates":[[[136.19204,36.04804],[136.19185,36.04803],[136.19183,36.04837],[136.19202,36.04838],[136.19204,36.04804]]]}},{"type":"Feature","properties":{"pid":"b9dca591-a0a8-4dff-80d4-e67542c3c295","full":1.2},"geometry":{"type":"Polygon","coordinates":[[[136.19156,36.04803],[136.1914,36.04802],[136.19139,36.04836],[136.19155,36.04837],[136.19156,36.04803]]]}},{"type":"Feature","properties":{"pid":"1bae5a57-6bc5-47ae-8a87-fd01a510e664","full":6.7},"geometry":{"type":"Polygon","coordinates":[[[136.1914,36.04802],[136.19102,36.04802],[136.191,36.04833],[136.19103,36.04835],[136.19139,36.04836],[136.1914,36.04802]]]}},{"type":"Feature","properties":{"pid":"6ee1bd0c-9fd2-482d-af95-bab6395a1e69","full":2.3},"geometry":{"type":"Polygon","coordinates":[[[136.19253,36.04942],[136.19233,36.04942],[136.19231,36.04975],[136.19251,36.04976],[136.19253,36.04942]]]}},{"type":"Feature","properties":{"pid":"75608dd2-d97c-467e-b531-a34cb3522eb6","full":0.6},"geometry":{"type":"Polygon","coordinates":[[[136.19179,36.04999],[136.19178,36.05015],[136.19195,36.05015],[136.19197,36.05014],[136.19198,36.04999],[136.19179,36.04999]]]}},{"type":"Feature","properties":{"pid":"a6b38dae-4104-4671-be8f-100124a4b3d3","full":1.4},"geometry":{"type":"Polygon","coordinates":[[[136.19106,36.05046],[136.19089,36.05044],[136.19087,36.05076],[136.19105,36.05076],[136.19106,36.05046]]]}},{"type":"Feature","properties":{"pid":"0d5d58b1-9fef-454c-b483-6e402c6e8e34","full":3.6},"geometry":{"type":"Polygon","coordinates":[[[136.19048,36.05112],[136.19047,36.05111],[136.1901,36.05115],[136.19008,36.05135],[136.19044,36.05135],[136.19044,36.05133],[136.19047,36.05133],[136.19048,36.05112]]]}},{"type":"Feature","properties":{"pid":"de181c29-dede-42d9-b87a-fc008bc97467","full":3.4},"geometry":{"type":"Polygon","coordinates":[[[136.1928,36.05158],[136.1924,36.05149],[136.19233,36.05168],[136.19274,36.05177],[136.1928,36.05158]]]}},{"type":"Feature","properties":{"pid":"590dbe61-4154-4f3f-a779-6442e302af2e","full":1.6},"geometry":{"type":"Polygon","coordinates":[[[136.19331,36.05107],[136.19313,36.051],[136.1931,36.05101],[136.19302,36.05123],[136.19324,36.05128],[136.19331,36.05107]]]}},{"type":"Feature","properties":{"pid":"25cbc941-ce7e-4b8c-b99e-911937c35aa5","full":5.5},"geometry":{"type":"Polygon","coordinates":[[[136.19328,36.05066],[136.19299,36.05047],[136.1927,36.05079],[136.19299,36.05083],[136.19309,36.05085],[136.19328,36.05066]]]}},{"type":"Feature","properties":{"pid":"0dbc7d40-0317-4b37-a727-acbcc91dbf35","full":2.8},"geometry":{"type":"Polygon","coordinates":[[[136.19343,36.05049],[136.19314,36.05031],[136.19299,36.05047],[136.19329,36.05065],[136.19343,36.05049]]]}},{"type":"Feature","properties":{"pid":"9b983137-5935-4a8d-bd82-d37ca4e7ea09","full":2.1},"geometry":{"type":"Polygon","coordinates":[[[136.19356,36.05035],[136.19328,36.05017],[136.19315,36.05031],[136.19344,36.05048],[136.19356,36.05035]]]}},{"type":"Feature","properties":{"pid":"3b828cde-1ec6-49ff-9fc5-5cda2b419958","full":2.1},"geometry":{"type":"Polygon","coordinates":[[[136.19369,36.05021],[136.19341,36.05002],[136.19328,36.05016],[136.19357,36.05034],[136.19369,36.05021]]]}},{"type":"Feature","properties":{"pid":"9b2e4420-1ed1-4336-a0c1-c40e9003742b","full":3.3},"geometry":{"type":"Polygon","coordinates":[[[136.19387,36.05003],[136.19359,36.04986],[136.19358,36.04987],[136.19355,36.04987],[136.19341,36.05002],[136.1937,36.0502],[136.19387,36.05003]]]}},{"type":"Feature","properties":{"pid":"1195bf16-5cfe-4d71-9288-ddccef7be65f","full":1.6},"geometry":{"type":"Polygon","coordinates":[[[136.19479,36.05067],[136.19439,36.05046],[136.1943,36.05058],[136.1947,36.05078],[136.19479,36.05067]]]}},{"type":"Feature","properties":{"pid":"f91d5332-6e2b-460c-909f-efa8c4a9c721","full":2.7},"geometry":{"type":"Polygon","coordinates":[[[136.19491,36.05053],[136.1945,36.05032],[136.19439,36.05046],[136.1948,36.05066],[136.19491,36.05053]]]}},{"type":"Feature","properties":{"pid":"13029573-16ec-4404-9b89-e0f0dc0559ca","full":2.4},"geometry":{"type":"Polygon","coordinates":[[[136.19442,36.05016],[136.19404,36.04997],[136.19392,36.05009],[136.19431,36.0503],[136.19442,36.05016]]]}},{"type":"Feature","properties":{"pid":"72dbad80-4b39-4bd3-8d38-898cc0424e01","full":1.2},"geometry":{"type":"Polygon","coordinates":[[[136.19471,36.05009],[136.19469,36.05009],[136.19459,36.05022],[136.19486,36.05037],[136.19495,36.05027],[136.19471,36.05009]]]}},{"type":"Feature","properties":{"pid":"930eef75-1d21-4e4a-a50f-65de66978fc1","full":2.7},"geometry":{"type":"Polygon","coordinates":[[[136.1925,36.05184],[136.19229,36.05178],[136.19217,36.05213],[136.19219,36.05215],[136.1924,36.05213],[136.1925,36.05184]]]}},{"type":"Feature","properties":{"pid":"78f7ddf2-a64a-4257-836d-1150777ca438","full":3.7},"geometry":{"type":"Polygon","coordinates":[[[136.19159,36.05284],[136.19155,36.0525],[136.19129,36.05252],[136.19133,36.05284],[136.19136,36.05284],[136.19137,36.05286],[136.19159,36.05284]]]}},{"type":"Feature","properties":{"pid":"a1d846d4-e4b6-4244-8021-5b8ee2baa5bb","full":1.8},"geometry":{"type":"Polygon","coordinates":[[[136.19122,36.05333],[136.19117,36.05295],[136.191,36.05297],[136.19105,36.05333],[136.19108,36.05333],[136.19109,36.05334],[136.19122,36.05333]]]}},{"type":"Feature","properties":{"pid":"cfbded32-ddaa-4edb-a83a-9a866e9047d3","full":0.6},"geometry":{"type":"Polygon","coordinates":[[[136.19042,36.05355],[136.19028,36.05347],[136.19026,36.05349],[136.19024,36.05349],[136.19015,36.0536],[136.19031,36.05369],[136.19042,36.05355]]]}},{"type":"Feature","properties":{"pid":"acca033c-4772-4ee8-915c-672b9c7c8c04","full":1.0},"geometry":{"type":"Polygon","coordinates":[[[136.19091,36.05402],[136.19052,36.05395],[136.19049,36.05407],[136.19088,36.05414],[136.19091,36.05402]]]}},{"type":"Feature","properties":{"pid":"66feb9ad-19b1-4a1c-a0ec-e4692e066cbf","full":5.6},"geometry":{"type":"Polygon","coordinates":[[[136.19138,36.05419],[136.19098,36.05413],[136.19091,36.0544],[136.19129,36.05445],[136.1913,36.05444],[136.19132,36.05444],[136.19138,36.05419]]]}},{"type":"Feature","properties":{"pid":"34e766c6-3946-4442-98ae-36caaaf88b6d","full":2.4},"geometry":{"type":"Polygon","coordinates":[[[136.19123,36.05469],[136.19086,36.05463],[136.19082,36.05479],[136.19123,36.05487],[136.19126,36.05472],[136.19123,36.05469]]]}},{"type":"Feature","properties":{"pid":"e398c242-1333-4457-8f2e-a577db1318f4","full":0.6},"geometry":{"type":"Polygon","coordinates":[[[136.19051,36.05544],[136.19047,36.05543],[136.19048,36.0554],[136.19039,36.05538],[136.1903,36.05573],[136.19044,36.05575],[136.19051,36.05544]]]}},{"type":"Feature","properties":{"pid":"db6ef5e1-7293-4e55-89c6-464c2f338d1f","full":6.5},"geometry":{"type":"Polygon","coordinates":[[[136.19081,36.05546],[136.19053,36.05541],[136.19044,36.05575],[136.19093,36.05584],[136.19099,36.05583],[136.19103,36.05568],[136.19077,36.05564],[136.19081,36.05546]]]}},{"type":"Feature","properties":{"pid":"44b2f216-20cf-403a-bebe-51e1ccd07035","full":5.2},"geometry":{"type":"Polygon","coordinates":[[[136.19052,36.05584],[136.19022,36.05578],[136.19013,36.05612],[136.19044,36.05617],[136.19052,36.05584]]]}},{"type":"Feature","properties":{"pid":"92c1acc8-702a-4e45-8a80-7a3097062e98","full":3.4},"geometry":{"type":"Polygon","coordinates":[[[136.19126,36.05599],[136.19147,36.05602],[136.19149,36.05594],[136.19128,36.0559],[136.19132,36.05573],[136.19112,36.0557],[136.19102,36.05614],[136.19141,36.0562],[136.19143,36.05612],[136.19124,36.05609],[136.19126,36.05599]]]}},{"type":"Feature","properties":{"pid":"3e43ef43-9ff7-4d32-a87f-b9600b48db06","full":1.4},"geometry":{"type":"Polygon","coordinates":[[[136.19218,36.05609],[136.19192,36.05605],[136.19188,36.05623],[136.19214,36.05627],[136.19218,36.05609]]]}}],"precision":5}