{"type":"FeatureCollection","features":[{"type":"Feature","properties":{"pid":"5f6673d2-50f0-4d06-bfb3-6e53cf40abe6"},"geometry":{"type":"Polygon","coordinates":[[[135.89960055721866,35.59387497604914],[135.89986103913654,35.594094154094144],[135.90022413829087,35.5934975943485],[135.90012802878556,35.59340684041322],[135.89960055721866,35.59387497604914]]]}},{"type":"Feature","properties":{"pid":"e8f16ed0-571f-46c5-811b-74298ceca225"},"geometry":{"type":"Polygon","coordinates":[[[135.89908498357406,35.59436969611622],[135.89902597770867,35.59458072438683],[135.89949581709214,35.594669665402364],[135.8995700087199,35.594534655213074],[135.89942580769397,35.5944076456506],[135.89935091425448,35.59443942049633],[135.8992832343532,35.59444657670217],[135.89908498357406,35.59436969611622]]]}},{"type":"Feature","properties":{"pid":"ed3ce152-caee-4fad-9c11-c966bb2dad47"},"geometry":{"type":"Polygon","coordinates":[[[135.89988379450648,35.59317931640761],[135.89950026500813,35.59350994588419],[135.89957944997226,35.59360981318244],[135.89957855176203,35.59364722535849],[135.89952045311338,35.59374316994008],[135.89955228055138,35.59377166931972],[135.9000494813303,35.593332927549454],[135.89988379450648,35.59317931640761]]]}},{"type":"Feature","properties":{"pid":"c0f6c53a-09c3-48a7-a2ef-d0c02a6f24dc"},"geometry":{"type":"Polygon","coordinates":[[[135.89980712505618,35.59310430017853],[135.89962076080357,35.592929166745726],[135.8993154779618,35.5931724895811],[135.89954366202267,35.59332568776677],[135.89980712505618,35.59310430017853]]]}},{"type":"Feature","properties":{"pid":"97c67400-5d57-4430-bd94-167bbe0102ef"},"geometry":{"type":"Polygon","coordinates":[[[135.89763310637912,35.59411598374937],[135.89773587531835,35.59404027829413],[135.89776916916406,35.594001080030274],[135.8976676115955,35.59396505664962],[135.8976075595891,35.59409496667979],[135.89763310637912,35.59411598374937]]]}},{"type":"Feature","properties":{"pid":"20fd0a1f-ae01-4547-b16c-244548256bf4"},"geometry":{"type":"Polygon","coordinates":[[[135.89738831810345,35.59376012500485],[135.89732800509293,35.593970392854395],[135.89747130994016,35.59401051272502],[135.89758737698818,35.59379149082298],[135.89738831810345,35.59376012500485]]]}},{"type":"Feature","properties":{"pid":"441ac701-f3ef-4a3c-834c-09e2c36b3684"},"geometry":{"type":"Polygon","coordinates":[[[135.8970803751024,35.59372225555655],[135.8970689437432,35.5939139614164],[135.89718030788674,35.59393104085365],[135.89723990994236,35.59371136160133],[135.8970803751024,35.59372225555655]]]}},{"type":"Feature","properties":{"pid":"03600ca0-99cf-4b08-957c-ea7fda3d1c1b"},"geometry":{"type":"Polygon","coordinates":[[[135.8968749446935,35.59369395233391],[135.89689589067902,35.59384990448263],[135.89694206031564,35.593867148223104],[135.8969545331048,35.59371611758792],[135.8968749446935,35.59369395233391]]]}},{"type":"Feature","properties":{"pid":"c645749e-4990-4f7c-bd29-e0c12d45d3af"},"geometry":{"type":"Polygon","coordinates":[[[135.89682088205643,35.60020351350234],[135.89682321204194,35.60022339608588],[135.89688443889878,35.60026461548294],[135.8972191363178,35.600107691055385],[135.89733925099287,35.6000215075012],[135.89750949693754,35.59995015825585],[135.89726393778835,35.59977833606007],[135.89682088205643,35.60020351350234]]]}},{"type":"Feature","properties":{"pid":"c1be59e9-7570-41f9-8614-50b12b67033e"},"geometry":{"type":"Polygon","coordinates":[[[135.89753409062914,35.59900133396802],[135.89749403785117,35.59897333101923],[135.89691898022926,35.599344317610345],[135.8970863270528,35.59945793209586],[135.89753409062914,35.59900133396802]]]}},{"type":"Feature","properties":{"pid":"b2ef870f-e9c8-4b7a-bfda-eafec8593238"},"geometry":{"type":"Polygon","coordinates":[[[135.8964586074962,35.59996016585795],[135.8965317084686,35.60002034600147],[135.8965575654102,35.60001550555863],[135.8969870182229,35.599585785720826],[135.89679052378503,35.59945447841046],[135.8966293243608,35.59961063053368],[135.89652753252486,35.599772676855856],[135.8964586074962,35.59996016585795]]]}},{"type":"Feature","properties":{"pid":"a3a8a21d-a56f-4111-9114-0cbd56adb6a7"},"geometry":{"type":"Polygon","coordinates":[[[135.896650189543,35.60007982443521],[135.896660811445,35.60011541612248],[135.89671081527965,35.60015007181648],[135.89717172347284,35.59971264970898],[135.8970773818182,35.599650343695],[135.896650189543,35.60007982443521]]]}},{"type":"Feature","properties":{"pid":"fa9dc62f-869b-44c9-8199-91a44ad697c2"},"geometry":{"type":"Polygon","coordinates":[[[135.89780305319798,35.599796384498845],[135.89814894229835,35.59944142702568],[135.8979825386992,35.59931577557919],[135.89754105268293,35.59976598683372],[135.897664438013,35.5998517867415],[135.897709349902,35.59981595759394],[135.89780305319798,35.599796384498845]]]}},{"type":"Feature","properties":{"pid":"43c009c6-a73c-4b6d-b507-ac833e832bec"},"geometry":{"type":"Polygon","coordinates":[[[135.8979643200498,35.599804537543655],[135.89806486268105,35.599820154413],[135.89831500373154,35.59955953627451],[135.89824700997434,35.59950785176806],[135.8979643200498,35.599804537543655]]]}},{"type":"Feature","properties":{"pid":"44443b56-08b6-4d7b-8742-ca62ff9bd475"},"geometry":{"type":"Polygon","coordinates":[[[135.8984457832876,35.59942623081594],[135.89884329842977,35.599019322213444],[135.89866423182818,35.59889542639936],[135.89825527003669,35.599305104687545],[135.8984457832876,35.59942623081594]]]}},{"type":"Feature","properties":{"pid":"c1daee93-1d34-405a-8678-9048fba92700"},"geometry":{"type":"Polygon","coordinates":[[[135.89744131750646,35.599702256480185],[135.89789047895823,35.59924787235799],[135.89762849486593,35.599066540020296],[135.89718489656502,35.599525439480125],[135.89744131750646,35.599702256480185]]]}},{"type":"Feature","properties":{"pid":"a9691caf-512c-4037-86c1-596552c0760d"},"geometry":{"type":"Polygon","coordinates":[[[135.8979318962805,35.5986978874846],[135.89764344394243,35.598881399361574],[135.89792514128231,35.599080316005164],[135.8981471608615,35.598851885515074],[135.8979318962805,35.5986978874846]]]}},{"type":"Feature","properties":{"pid":"f69590e5-9c85-4f8d-86a9-ab3967979c37"},"geometry":{"type":"Polygon","coordinates":[[[135.89802881198312,35.59914469830959],[135.89816022984914,35.5992326566762],[135.89857634343068,35.59881490152435],[135.89843812328616,35.598724215669975],[135.89802881198312,35.59914469830959]]]}},{"type":"Feature","properties":{"pid":"cc40288b-a194-49da-ac77-56fa0773820d"},"geometry":{"type":"Polygon","coordinates":[[[135.89833449807887,35.59866053252916],[135.8981711164047,35.598544621761924],[135.89802425523087,35.598638493475086],[135.8982190291183,35.59877822957139],[135.89833449807887,35.59866053252916]]]}},{"type":"Feature","properties":{"pid":"7b7022d2-7dbf-4da1-8780-e1c9547e649e"},"geometry":{"type":"Polygon","coordinates":[[[135.89888915185296,35.59808384922047],[135.89831180675975,35.59845037631711],[135.89844872902003,35.59854473172771],[135.89888915185296,35.59808384922047]]]}},{"type":"Feature","properties":{"pid":"af768c3b-be8e-4b69-9b25-896c1d47bed3"},"geometry":{"type":"Polygon","coordinates":[[[135.89646278513425,35.59929797224542],[135.89651537259982,35.59932062171339],[135.89670621063826,35.5991696377513],[135.8970398400625,35.598954279346344],[135.89681648220144,35.59882731856464],[135.89666189741072,35.59904173900952],[135.89661720674036,35.599061590442616],[135.89646278513425,35.59929797224542]]]}},{"type":"Feature","properties":{"pid":"5b08709f-b28d-4306-b5d8-f5b3d7fb9cab"},"geometry":{"type":"Polygon","coordinates":[[[135.89636600535232,35.59870905117056],[135.8963084553421,35.59878779855653],[135.89652745900196,35.59887344753268],[135.89655876492398,35.59882154874557],[135.89636600535232,35.59870905117056]]]}},{"type":"Feature","properties":{"pid":"f6b24508-9d12-4d05-9474-06890dc4a05a"},"geometry":{"type":"Polygon","coordinates":[[[135.89613231833468,35.59914907287377],[135.89628939826736,35.59923315942872],[135.89643299370874,35.5990212251275],[135.8962674185135,35.59896019775873],[135.89613231833468,35.59914907287377]]]}},{"type":"Feature","properties":{"pid":"420187b9-971b-4625-89a5-c96233ab0678"},"geometry":{"type":"Polygon","coordinates":[[[135.89599632941454,35.59909039589212],[135.89601195626278,35.59909898961087],[135.8961426400133,35.59891538084058],[135.89599352347687,35.598835498481954],[135.89599632941454,35.59909039589212]]]}},{"type":"Feature","properties":{"pid":"5a097bbb-26a5-4a3d-bfa5-2b52b00512d3"},"geometry":{"type":"Polygon","coordinates":[[[135.89597810370648,35.59862995385815],[135.89618287929378,35.598740730022],[135.89625616846726,35.59863637799427],[135.89603855173362,35.59851095869293],[135.89597810370648,35.59862995385815]]]}},{"type":"Feature","properties":{"pid":"b58a9f62-b6c7-43d4-bab6-0a94ab999a21"},"geometry":{"type":"Polygon","coordinates":[[[135.8964355136753,35.59860766606589],[135.89662652643398,35.59871587132876],[135.89663958068212,35.59869344726616],[135.8964583447517,35.59857866620266],[135.8964355136753,35.59860766606589]]]}},{"type":"Feature","properties":{"pid":"18a947cb-d38e-48ae-9c44-8615eb402d7d"},"geometry":{"type":"Polygon","coordinates":[[[135.89788964978632,35.59490919312877],[135.89783260362196,35.59500446487821],[135.89868096590232,35.59516704687937],[135.89870449863474,35.59508619908189],[135.8981631874952,35.59498443709816],[135.89792964606613,35.594933353009274],[135.89788964978632,35.59490919312877]]]}},{"type":"Feature","properties":{"pid":"6ae6db75-04af-4429-b96f-fc8ef7aa1202"},"geometry":{"type":"Polygon","coordinates":[[[135.8986188857566,35.59538555822906],[135.89865418827432,35.595260404118314],[135.89777550375624,35.595093526837736],[135.89770620687486,35.595205491465464],[135.8986188857566,35.59538555822906]]]}},{"type":"Feature","properties":{"pid":"4564ae8c-ea4d-40a5-a1d9-3b779b865bbc"},"geometry":{"type":"Polygon","coordinates":[[[135.89857677971833,35.59553482302274],[135.8985926900093,35.59547842379761],[135.89766902834828,35.5953069070561],[135.89765399998777,35.59535640753726],[135.89857677971833,35.59553482302274]]]}},{"type":"Feature","properties":{"pid":"25457c22-a3af-4a9f-a62a-d92d072d442a"},"geometry":{"type":"Polygon","coordinates":[[[135.898530824458,35.59569775708879],[135.89855031681913,35.59562863940539],[135.89762953845704,35.59544968151004],[135.8976163561331,35.595520355716154],[135.898530824458,35.59569775708879]]]}},{"type":"Feature","properties":{"pid":"21541252-9027-4149-8e10-502dc525a059"},"geometry":{"type":"Polygon","coordinates":[[[135.89843482066397,35.5960278195092],[135.8984788833519,35.59586860711154],[135.89760554620585,35.595711337026856],[135.8975990540401,35.59587245831289],[135.89843482066397,35.5960278195092]]]}},{"type":"Feature","properties":{"pid":"ebdb1a6c-9084-4b16-8fb4-27bd19348b11"},"geometry":{"type":"Polygon","coordinates":[[[135.8977327181284,35.59629912355736],[135.89774396982426,35.5963280231757],[135.89778389710688,35.59635583481627],[135.89831201719846,35.59645290693901],[135.8983243675534,35.596409727009764],[135.8977327181284,35.59629912355736]]]}},{"type":"Feature","properties":{"pid":"ab6e2d8f-9b13-4ea2-b841-544d1278280e"},"geometry":{"type":"Polygon","coordinates":[[[135.89760549105182,35.59597771598484],[135.89768933215106,35.596187697669365],[135.89835277065364,35.5963114574936],[135.8984058908001,35.59612954954379],[135.89760549105182,35.59597771598484]]]}},{"type":"Feature","properties":{"pid":"a93cd695-ae65-4034-bd7e-a01fbb55114f"},"geometry":{"type":"Polygon","coordinates":[[[135.89779229755104,35.59645598998525],[135.89788923990673,35.59668398104176],[135.89811976914072,35.59712490861748],[135.8982847562051,35.59654820739254],[135.89779229755104,35.59645598998525]]]}},{"type":"Feature","properties":{"pid":"325be7e4-551f-4982-840e-2093bb53629b"},"geometry":{"type":"Polygon","coordinates":[[[135.89769049449586,35.59724318942638],[135.89778871413782,35.59737640162172],[135.89784145155252,35.597358811437545],[135.8977412518286,35.59722372393879],[135.89769049449586,35.59724318942638]]]}},{"type":"Feature","properties":{"pid":"ca4262f2-110f-4261-9c2d-e5be1c6b4b24"},"geometry":{"type":"Polygon","coordinates":[[[135.89749850017893,35.596547368895585],[135.8975703023644,35.59670825622902],[135.89766435419153,35.59668867317811],[135.89759418631405,35.59652813403655],[135.89749850017893,35.596547368895585]]]}},{"type":"Feature","properties":{"pid":"afd2d997-c431-46dd-b4e4-b5c390e84d99"},"geometry":{"type":"Polygon","coordinates":[[[135.89822710656256,35.597408073017604],[135.8981844549893,35.59744175297118],[135.8983279815148,35.597616772870985],[135.89859620957228,35.59782619427627],[135.89871668949814,35.597884732403095],[135.89890502252607,35.597708539222566],[135.89902504878611,35.59755715953017],[135.89822710656256,35.597408073017604]]]}},{"type":"Feature","properties":{"pid":"dcb352ec-624f-4955-a256-f412c526e6a6"},"geometry":{"type":"Polygon","coordinates":[[[135.8997364365349,35.59757584083191],[135.90000751325215,35.597142430331346],[135.9000873114337,35.59697335809804],[135.90026427415867,35.596808394590894],[135.90016285646686,35.59672268572547],[135.900113252177,35.59674313833802],[135.9000713251509,35.59673401330929],[135.89986430642224,35.59653647306759],[135.89965456465936,35.59676076516005],[135.89961535785096,35.59704064231556],[135.89949109706825,35.59738471714975],[135.8994373906649,35.5974787552519],[135.8997364365349,35.59757584083191]]]}},{"type":"Feature","properties":{"pid":"b282b098-fac7-401f-a5cd-245a98900521"},"geometry":{"type":"Polygon","coordinates":[[[135.89909123306631,35.597461823529564],[135.89918366542443,35.597296457878926],[135.89829852462142,35.59712707810675],[135.89824822132803,35.59730329679555],[135.89909123306631,35.597461823529564]]]}},{"type":"Feature","properties":{"pid":"ad484afa-781d-48ac-bc4f-43fe4cc9ac30"},"geometry":{"type":"Polygon","coordinates":[[[135.898369734531,35.59685300807709],[135.898319632599,35.597025866082305],[135.8992286987108,35.597196686951946],[135.89927012523157,35.597054847604404],[135.89925134194917,35.59701731208963],[135.898369734531,35.59685300807709]]]}},{"type":"Feature","properties":{"pid":"0b2028e8-5aab-4e47-acfb-cb4e793b6044"},"geometry":{"type":"Polygon","coordinates":[[[135.89839785643235,35.59675597729494],[135.89927632839994,35.596923546822396],[135.89930335354148,35.596846724030165],[135.89930769296893,35.59674556174999],[135.89844709262445,35.596586080944064],[135.89839785643235,35.59675597729494]]]}},{"type":"Feature","properties":{"pid":"b7dd8e66-abad-41b1-b460-a9d7e0f6cc63"},"geometry":{"type":"Polygon","coordinates":[[[135.89856364211553,35.59618392249083],[135.8984745190787,35.59649144416234],[135.89930621253885,35.59664810556966],[135.89927287511946,35.59631824606028],[135.89856364211553,35.59618392249083]]]}},{"type":"Feature","properties":{"pid":"f8a3b220-16c3-4781-8012-7563527a2b97"},"geometry":{"type":"Polygon","coordinates":[[[135.8985916420332,35.596086686785185],[135.89926036010874,35.596213655486956],[135.8992376444589,35.59601988815447],[135.89864260051283,35.5959083383911],[135.8985916420332,35.596086686785185]]]}},{"type":"Feature","properties":{"pid":"0f86aa4e-68a0-4df0-95e9-29073369c6bd"},"geometry":{"type":"Polygon","coordinates":[[[135.89951420395343,35.59616545385349],[135.89954508562386,35.59637681331155],[135.89954587259447,35.59638268099584],[135.89962942404813,35.596285862617],[135.89951420395343,35.59616545385349]]]}},{"type":"Feature","properties":{"pid":"98867eb1-ba6e-46ef-9072-ec2480039beb"},"geometry":{"type":"Polygon","coordinates":[[[135.89887484003566,35.595121532624304],[135.89879790273946,35.595367821743295],[135.899197998673,35.595446847792466],[135.899243890998,35.595192446258984],[135.89887484003566,35.595121532624304]]]}},{"type":"Feature","properties":{"pid":"1c265c10-96bc-4e10-8b7f-4855402714c7"},"geometry":{"type":"Polygon","coordinates":[[[135.89894849877263,35.594834021769856],[135.8993648990597,35.59491485370129],[135.89944668104388,35.59475951661963],[135.89899809860563,35.59467365749408],[135.89894849877263,35.594834021769856]]]}},{"type":"Feature","properties":{"pid":"237cb40d-7afb-40fb-b73d-903eeef63954"},"geometry":{"type":"Polygon","coordinates":[[[135.89892106439706,35.59492848716988],[135.89889515058076,35.595018254420545],[135.8992772688881,35.59509506560538],[135.89931824131233,35.595007001670865],[135.89892106439706,35.59492848716988]]]}},{"type":"Feature","properties":{"pid":"408bd923-6b86-4edb-b696-4cf97890703b"},"geometry":{"type":"Polygon","coordinates":[[[135.89985891749922,35.59484194690038],[135.89961527392484,35.59527227180673],[135.89993656602667,35.59537631428949],[135.90007849676257,35.59510375303338],[135.89985891749922,35.59484194690038]]]}},{"type":"Feature","properties":{"pid":"be858dd5-7045-4954-ada0-73890cd5b8f3"},"geometry":{"type":"Polygon","coordinates":[[[135.89854879275097,35.598612982296416],[135.89880614280776,35.598787133623176],[135.899245743606,35.59833184411185],[135.89898988194543,35.59815474610022],[135.89854879275097,35.598612982296416]]]}},{"type":"Feature","properties":{"pid":"cdb93064-4fa9-4666-b5ff-a8ed946caa02"},"geometry":{"type":"Polygon","coordinates":[[[135.89857900373346,35.599527220375066],[135.898753741789,35.59931436067019],[135.89881162891353,35.599235035228006],[135.89854688022425,35.59950624283096],[135.89857900373346,35.599527220375066]]]}}]}