{"type":"FeatureCollection","features":[{"type":"Feature","properties":{"pid":"f4425423-f108-4fc7-a77d-d8b358378ae3","full":218.1},"geometry":{"type":"Polygon","coordinates":[[[136.18192,36.0398],[136.18196,36.03979],[136.1822,36.03891],[136.18218,36.03888],[136.17976,36.03844],[136.17966,36.03846],[136.17929,36.03907],[136.17941,36.03911],[136.17934,36.03934],[136.18059,36.03957],[136.1806,36.03951],[136.18072,36.03953],[136.18071,36.03958],[136.18114,36.03966],[136.18117,36.03958],[136.18139,36.03963],[136.18136,36.0397],[136.18192,36.0398]]]}},{"type":"Feature","properties":{"pid":"451fabaa-935f-4309-9b28-ea9f843ca9d0","full":136.2},"geometry":{"type":"Polygon","coordinates":[[[136.18246,36.03797],[136.18109,36.03772],[136.18056,36.03807],[136.1802,36.03824],[136.1799,36.03837],[136.17989,36.03839],[136.17992,36.0384],[136.18217,36.03882],[136.18223,36.0388],[136.18246,36.03797]]]}},{"type":"Feature","properties":{"pid":"5b076e02-ab92-490a-b07b-cdcce9a6f7e9","full":0.8},"geometry":{"type":"Polygon","coordinates":[[[136.18389,36.03858],[136.18376,36.03855],[136.18363,36.03903],[136.18376,36.03906],[136.18389,36.03858]]]}},{"type":"Feature","properties":{"pid":"4f22cac8-9d86-495d-943a-5943dff0ab8d","full":79.9},"geometry":{"type":"Polygon","coordinates":[[[136.18364,36.03818],[136.18254,36.03798],[136.1823,36.03881],[136.18234,36.03884],[136.1834,36.03904],[136.18364,36.03818]]]}},{"type":"Feature","properties":{"pid":"318670e4-8bb4-42da-b3f7-21d11a0893d2","full":78.4},"geometry":{"type":"Polygon","coordinates":[[[136.18388,36.0373],[136.18278,36.03709],[136.18254,36.03793],[136.18365,36.03813],[136.18388,36.0373]]]}},{"type":"Feature","properties":{"pid":"0d9e7fd7-1445-43af-b20b-4a46ce02ff3c","full":0.7},"geometry":{"type":"Polygon","coordinates":[[[136.18403,36.03806],[136.1839,36.03803],[136.18377,36.03853],[136.1839,36.03855],[136.18403,36.03806]]]}},{"type":"Feature","properties":{"pid":"d34221f7-02b7-4a7f-8aa0-c32b407d1e38","full":11.8},"geometry":{"type":"Polygon","coordinates":[[[136.18442,36.03814],[136.18404,36.03806],[136.1839,36.03856],[136.18429,36.03863],[136.18442,36.03814]]]}},{"type":"Feature","properties":{"pid":"36103ff9-d549-4e97-bdfd-a630af220742","full":3.8},"geometry":{"type":"Polygon","coordinates":[[[136.18463,36.03818],[136.18442,36.03814],[136.1843,36.03863],[136.18449,36.03866],[136.18463,36.03818]]]}},{"type":"Feature","properties":{"pid":"c7e2e498-aa54-453d-b52f-bd1c553cef94","full":0.8},"geometry":{"type":"Polygon","coordinates":[[[136.18418,36.03753],[136.18405,36.03751],[136.18391,36.038],[136.18404,36.03802],[136.18418,36.03753]]]}},{"type":"Feature","properties":{"pid":"5ac86b9c-5dba-42a9-aa12-43a4786bd0a0","full":3.8},"geometry":{"type":"Polygon","coordinates":[[[136.18457,36.03761],[136.18438,36.03757],[136.18424,36.03806],[136.18444,36.0381],[136.18457,36.03761]]]}},{"type":"Feature","properties":{"pid":"c57c81bb-f7f9-4e1e-b65b-913cecf9a6b6","full":3.4},"geometry":{"type":"Polygon","coordinates":[[[136.18418,36.03753],[136.18404,36.03802],[136.18423,36.03806],[136.18437,36.03757],[136.18418,36.03753]]]}},{"type":"Feature","properties":{"pid":"3d4c9018-26bf-42b0-b85d-a656fa486e34","full":4.0},"geometry":{"type":"Polygon","coordinates":[[[136.18479,36.03765],[136.18458,36.03761],[136.18445,36.0381],[136.18465,36.03814],[136.18479,36.03765]]]}},{"type":"Feature","properties":{"pid":"9110effb-81fe-4113-8c27-3e7fb4d9452b","full":1.2},"geometry":{"type":"Polygon","coordinates":[[[136.18466,36.03811],[136.18481,36.038],[136.18491,36.03788],[136.18492,36.03767],[136.18479,36.03765],[136.18466,36.03811]]]}},{"type":"Feature","properties":{"pid":"878068a7-e43b-435b-aed2-497cbae646a5","full":3.7},"geometry":{"type":"Polygon","coordinates":[[[136.18494,36.03823],[136.18485,36.03822],[136.18471,36.0387],[136.18502,36.03876],[136.18494,36.03823]]]}},{"type":"Feature","properties":{"pid":"2a6866cb-1f9d-4874-a878-1565c257fed3","full":4.1},"geometry":{"type":"Polygon","coordinates":[[[136.18484,36.03821],[136.18464,36.03818],[136.1845,36.03866],[136.18471,36.0387],[136.18484,36.03821]]]}},{"type":"Feature","properties":{"pid":"089320cd-7f61-44b9-b9e1-e36045256a6a","full":3.9},"geometry":{"type":"Polygon","coordinates":[[[136.1841,36.03862],[136.1839,36.03858],[136.18376,36.03906],[136.18396,36.0391],[136.1841,36.03862]]]}},{"type":"Feature","properties":{"pid":"d9dd3e5e-9f15-4035-9e39-41d479534bed","full":3.5},"geometry":{"type":"Polygon","coordinates":[[[136.18448,36.03869],[136.18429,36.03865],[136.18416,36.03913],[136.18436,36.03917],[136.18448,36.03869]]]}},{"type":"Feature","properties":{"pid":"5580d5b8-553f-4ab5-8545-1425d350c8e1","full":3.1},"geometry":{"type":"Polygon","coordinates":[[[136.18429,36.03865],[136.1841,36.03862],[136.18397,36.0391],[136.18416,36.03913],[136.18429,36.03865]]]}},{"type":"Feature","properties":{"pid":"54ee7374-9458-49f2-8ada-76cf159d393f","full":2.8},"geometry":{"type":"Polygon","coordinates":[[[136.18469,36.03872],[136.18449,36.03869],[136.18439,36.03906],[136.18453,36.03908],[136.1845,36.0392],[136.18456,36.03921],[136.18469,36.03872]]]}},{"type":"Feature","properties":{"pid":"18feff90-5e92-4c58-a376-d80cd4cc4339","full":4.0},"geometry":{"type":"Polygon","coordinates":[[[136.18457,36.03921],[136.18477,36.03925],[136.1849,36.03876],[136.1847,36.03872],[136.18457,36.03921]]]}},{"type":"Feature","properties":{"pid":"09a61dcc-b491-4efb-9418-167a06559b25","full":3.6},"geometry":{"type":"Polygon","coordinates":[[[136.18478,36.03925],[136.18495,36.03928],[136.18507,36.03904],[136.18503,36.03878],[136.1849,36.03876],[136.18478,36.03925]]]}},{"type":"Feature","properties":{"pid":"b9bf700c-9ce1-4699-8c96-3f33b5f30230","full":89.0},"geometry":{"type":"Polygon","coordinates":[[[136.18485,36.03936],[136.1836,36.03913],[136.18336,36.04003],[136.1844,36.04023],[136.18485,36.03936]]]}},{"type":"Feature","properties":{"pid":"c24bab7c-fc7a-49cb-b180-eae5a6d5171d","full":85.9},"geometry":{"type":"Polygon","coordinates":[[[136.18339,36.03909],[136.18232,36.0389],[136.18231,36.03892],[136.18228,36.03892],[136.18204,36.0398],[136.18314,36.04],[136.18339,36.03909]]]}},{"type":"Feature","properties":{"pid":"d81b2a2b-665f-4e8c-88f0-a086d8e82c2f","full":1.7},"geometry":{"type":"Polygon","coordinates":[[[136.18562,36.04028],[136.18544,36.04026],[136.18542,36.04028],[136.18538,36.04053],[136.18542,36.04055],[136.18558,36.04056],[136.18562,36.04028]]]}},{"type":"Feature","properties":{"pid":"5d0fa118-bb7e-4dd8-bbaf-7557951a21fb","full":2.0},"geometry":{"type":"Polygon","coordinates":[[[136.1875,36.03951],[136.18733,36.03949],[136.18727,36.03984],[136.18742,36.03986],[136.18746,36.03984],[136.18751,36.03952],[136.1875,36.03951]]]}},{"type":"Feature","properties":{"pid":"76dc2878-7f5c-4e0f-b674-fee5866912eb","full":4.0},"geometry":{"type":"Polygon","coordinates":[[[136.19019,36.03844],[136.18992,36.0384],[136.18986,36.03874],[136.18987,36.03875],[136.19013,36.03876],[136.19019,36.03844]]]}},{"type":"Feature","properties":{"pid":"c8fd43dc-ec20-4917-9400-917fa0b65ce2","full":1.5},"geometry":{"type":"Polygon","coordinates":[[[136.18957,36.03843],[136.18941,36.03843],[136.18941,36.03873],[136.18958,36.03874],[136.18959,36.03846],[136.18957,36.03843]]]}},{"type":"Feature","properties":{"pid":"5a70faf6-f8a5-4882-9cde-2342ed226faf","full":2.1},"geometry":{"type":"Polygon","coordinates":[[[136.19023,36.03821],[136.18997,36.03818],[136.18992,36.0384],[136.19019,36.03843],[136.19023,36.03821]]]}},{"type":"Feature","properties":{"pid":"f9d28a99-4324-4dab-a922-c8a4b90d0319","full":19.1},"geometry":{"type":"Polygon","coordinates":[[[136.1891,36.03544],[136.18908,36.03514],[136.18814,36.0352],[136.18809,36.03523],[136.18812,36.0355],[136.18814,36.03552],[136.18874,36.03547],[136.18874,36.03545],[136.18885,36.03545],[136.18885,36.03546],[136.1891,36.03544]]]}},{"type":"Feature","properties":{"pid":"9d9d81aa-b498-4f0b-b19a-d5eff9a634c3","full":23.2},"geometry":{"type":"Polygon","coordinates":[[[136.18931,36.0357],[136.18929,36.03548],[136.1888,36.03552],[136.18881,36.03559],[136.18867,36.03561],[136.18866,36.03553],[136.18815,36.03557],[136.18812,36.0356],[136.18814,36.03597],[136.18817,36.036],[136.18931,36.0357]]]}},{"type":"Feature","properties":{"pid":"7f4f0049-2e02-4f82-a961-f1c7f6706b6f","full":0.6},"geometry":{"type":"Polygon","coordinates":[[[136.18936,36.03514],[136.18934,36.03512],[136.18922,36.03512],[136.18925,36.03543],[136.18939,36.03541],[136.18936,36.03514]]]}},{"type":"Feature","properties":{"pid":"6fdec658-14e6-4929-bb9c-346a35bd8b06","full":0.6},"geometry":{"type":"Polygon","coordinates":[[[136.18924,36.03543],[136.18922,36.03512],[136.18908,36.03514],[136.18911,36.03544],[136.18924,36.03543]]]}},{"type":"Feature","properties":{"pid":"a2b8dbe7-94ad-42d6-be57-b4be0f1f0c6b","full":30.8},"geometry":{"type":"Polygon","coordinates":[[[136.18972,36.03501],[136.18986,36.03503],[136.18988,36.03481],[136.18991,36.03474],[136.18986,36.03412],[136.18983,36.0341],[136.18938,36.03412],[136.18936,36.03414],[136.18943,36.03503],[136.18972,36.03501]]]}},{"type":"Feature","properties":{"pid":"9c4a2852-079b-4c24-a3ed-8a91b945ce59","full":17.6},"geometry":{"type":"Polygon","coordinates":[[[136.19049,36.03412],[136.19039,36.03407],[136.18995,36.03409],[136.18993,36.03412],[136.18996,36.03457],[136.19052,36.03455],[136.19049,36.03412]]]}},{"type":"Feature","properties":{"pid":"c2715aaf-65c4-48af-9778-ddc829b3c17f","full":94.3},"geometry":{"type":"Polygon","coordinates":[[[136.18932,36.03503],[136.18925,36.03413],[136.18804,36.03419],[136.18802,36.03421],[136.18809,36.03513],[136.18932,36.03503]]]}},{"type":"Feature","properties":{"pid":"753258c1-dce2-4f0f-a9c9-4ef654a0c6ea","full":92.7},"geometry":{"type":"Polygon","coordinates":[[[136.18789,36.03422],[136.18787,36.0342],[136.18672,36.03425],[136.1867,36.03427],[136.18677,36.0352],[136.18796,36.03514],[136.18789,36.03422]]]}},{"type":"Feature","properties":{"pid":"1b2fec50-4d38-4e08-bbbe-aa886991d2eb","full":85.2},"geometry":{"type":"Polygon","coordinates":[[[136.18801,36.03603],[136.18796,36.03523],[136.18679,36.03528],[136.18684,36.03616],[136.1869,36.03618],[136.18761,36.03614],[136.18801,36.03603]]]}},{"type":"Feature","properties":{"pid":"6a49de35-0f07-467e-9c3e-3b6d59aaeb2a","full":4.0},"geometry":{"type":"Polygon","coordinates":[[[136.18506,36.03443],[136.1849,36.03441],[136.18476,36.0349],[136.18502,36.03494],[136.18506,36.03443]]]}},{"type":"Feature","properties":{"pid":"28bd3b09-0da0-4447-8e6f-ba9694b60930","full":33.7},"geometry":{"type":"Polygon","coordinates":[[[136.18444,36.03533],[136.18471,36.03437],[136.18435,36.0343],[136.18434,36.03434],[136.18405,36.0343],[136.18393,36.03474],[136.18423,36.0348],[136.18413,36.03515],[136.18403,36.03513],[136.184,36.03525],[136.18444,36.03533]]]}},{"type":"Feature","properties":{"pid":"b407c10f-181e-4f8e-b0a2-80fa33ceeec9","full":67.8},"geometry":{"type":"Polygon","coordinates":[[[136.18441,36.03536],[136.18373,36.03524],[136.18361,36.0354],[136.18343,36.03559],[136.18312,36.03588],[136.18307,36.03602],[136.1831,36.03604],[136.1831,36.03607],[136.18416,36.03625],[136.18441,36.03536]]]}},{"type":"Feature","properties":{"pid":"716c5371-c408-4f0c-9424-b9391bc9d4e4","full":12.3},"geometry":{"type":"Polygon","coordinates":[[[136.18497,36.03551],[136.18462,36.03544],[136.18448,36.03592],[136.18451,36.03594],[136.18492,36.03602],[136.18497,36.03551]]]}},{"type":"Feature","properties":{"pid":"cca2a6d2-9db0-4ba8-b62c-03097e673eeb","full":3.7},"geometry":{"type":"Polygon","coordinates":[[[136.1848,36.03602],[136.1846,36.03599],[136.18447,36.03648],[136.18467,36.03651],[136.1848,36.03602]]]}},{"type":"Feature","properties":{"pid":"769915bf-0e92-4ad0-be22-eac803d51d1c","full":2.8},"geometry":{"type":"Polygon","coordinates":[[[136.18491,36.03658],[136.1848,36.03656],[136.18468,36.03706],[136.18492,36.0371],[136.18491,36.03658]]]}},{"type":"Feature","properties":{"pid":"9fadcd4a-e59b-481e-90ea-5b6d3a1c7c7b","full":3.3},"geometry":{"type":"Polygon","coordinates":[[[136.18432,36.03699],[136.18451,36.03703],[136.18464,36.03654],[136.18446,36.0365],[136.18432,36.03699]]]}},{"type":"Feature","properties":{"pid":"7bcb1d8a-3aa8-4a39-ab06-0e348e6a9136","full":1.8},"geometry":{"type":"Polygon","coordinates":[[[136.18467,36.03706],[136.18479,36.03656],[136.18465,36.03654],[136.18452,36.03703],[136.18467,36.03706]]]}},{"type":"Feature","properties":{"pid":"8fc46bc8-3d11-4adc-9ab4-c6b24073658c","full":81.8},"geometry":{"type":"Polygon","coordinates":[[[136.18414,36.03631],[136.18305,36.0361],[136.18281,36.03699],[136.18391,36.03719],[136.18414,36.03631]]]}},{"type":"Feature","properties":{"pid":"7fb4e5be-f5ff-43b4-9fea-bc1ead7a7551","full":23.5},"geometry":{"type":"Polygon","coordinates":[[[136.18274,36.03698],[136.183,36.03601],[136.18295,36.03602],[136.18203,36.03685],[136.18274,36.03698]]]}},{"type":"Feature","properties":{"pid":"f4fdcf02-ccc7-4eea-8527-f03c8f9376bf","full":74.1},"geometry":{"type":"Polygon","coordinates":[[[136.18112,36.03768],[136.18248,36.03792],[136.1827,36.03711],[136.18267,36.03711],[136.18267,36.03707],[136.18203,36.03695],[136.18197,36.03696],[136.18192,36.03698],[136.18112,36.03768]]]}},{"type":"Feature","properties":{"pid":"dc6cc144-231e-447a-8362-db4a1f463459","full":22.2},"geometry":{"type":"Polygon","coordinates":[[[136.18072,36.03459],[136.18035,36.03455],[136.18031,36.0346],[136.18021,36.03484],[136.18021,36.03489],[136.18008,36.03513],[136.17997,36.03528],[136.1804,36.03534],[136.18044,36.03531],[136.18066,36.03489],[136.18078,36.03461],[136.18072,36.03459]]]}},{"type":"Feature","properties":{"pid":"c7e1a5cf-b9fd-4b96-9a33-51680ac9f2f1","full":26.2},"geometry":{"type":"Polygon","coordinates":[[[136.18087,36.03421],[136.18091,36.03378],[136.18047,36.03372],[136.18045,36.03373],[136.18038,36.03408],[136.18038,36.03414],[136.18039,36.03418],[136.18039,36.03432],[136.18034,36.03452],[136.18038,36.03454],[136.18076,36.03458],[136.18079,36.03457],[136.18087,36.03421]]]}},{"type":"Feature","properties":{"pid":"a37f43b3-158b-4f1f-b331-7d41e381a45a","full":65.6},"geometry":{"type":"Polygon","coordinates":[[[136.18028,36.0342],[136.17976,36.03411],[136.17972,36.03413],[136.17937,36.03465],[136.17929,36.0348],[136.17915,36.03516],[136.17982,36.0353],[136.17997,36.03511],[136.1801,36.03487],[136.1802,36.03464],[136.18027,36.03442],[136.1803,36.03429],[136.18028,36.0342]]]}},{"type":"Feature","properties":{"pid":"d08db07c-0ff8-45a6-873c-55eed09aa6d3","full":23.5},"geometry":{"type":"Polygon","coordinates":[[[136.18018,36.03568],[136.18035,36.03546],[136.18041,36.03537],[136.1804,36.03535],[136.17995,36.03529],[136.17985,36.03539],[136.17967,36.03561],[136.17937,36.03592],[136.17988,36.03598],[136.18018,36.03568]]]}},{"type":"Feature","properties":{"pid":"4253bf27-b01c-4388-9e0b-b5c365f1cca0","full":38.1},"geometry":{"type":"Polygon","coordinates":[[[136.17631,36.03694],[136.17633,36.03694],[136.17635,36.03696],[136.17682,36.03679],[136.17722,36.03663],[136.17793,36.03636],[136.17787,36.03628],[136.17768,36.03626],[136.17743,36.03626],[136.17716,36.03619],[136.17674,36.03635],[136.17662,36.03645],[136.1765,36.03658],[136.17625,36.03671],[136.17622,36.03676],[136.17623,36.03681],[136.17631,36.03694]]]}},{"type":"Feature","properties":{"pid":"b7e47b31-53f5-45ed-8a4d-06c8b052da2b","full":7.6},"geometry":{"type":"Polygon","coordinates":[[[136.17528,36.03691],[136.17524,36.03688],[136.17519,36.03689],[136.17516,36.03692],[136.17513,36.03701],[136.17486,36.03727],[136.17486,36.03731],[136.1751,36.03749],[136.17516,36.03748],[136.17541,36.03733],[136.1752,36.03714],[136.17519,36.03711],[136.1753,36.03702],[136.17531,36.03696],[136.17528,36.03691]]]}},{"type":"Feature","properties":{"pid":"76a52c1f-1da8-4822-8a44-a00390e82eb2","full":31.4},"geometry":{"type":"Polygon","coordinates":[[[136.17794,36.03644],[136.1764,36.03703],[136.17646,36.0371],[136.17755,36.03695],[136.17801,36.0368],[136.17855,36.03651],[136.17854,36.03649],[136.17802,36.03646],[136.17794,36.03644]]]}},{"type":"Feature","properties":{"pid":"56af2162-d1c0-4c3b-ae8d-786e1156c7e0","full":26.3},"geometry":{"type":"Polygon","coordinates":[[[136.17987,36.03601],[136.17934,36.03595],[136.17866,36.03656],[136.17866,36.03664],[136.17873,36.03665],[136.17907,36.03662],[136.17927,36.03657],[136.17932,36.03654],[136.17987,36.03601]]]}},{"type":"Feature","properties":{"pid":"5f73787c-9268-4f1a-9741-8e5cd3e2c18b","full":35.6},"geometry":{"type":"Polygon","coordinates":[[[136.17975,36.03531],[136.17916,36.0352],[136.17903,36.03539],[136.17894,36.03563],[136.17889,36.03588],[136.17887,36.03592],[136.17859,36.03616],[136.17833,36.0363],[136.17817,36.03637],[136.17819,36.03638],[136.1786,36.03641],[136.17868,36.0364],[136.17896,36.03616],[136.17916,36.03592],[136.17938,36.03575],[136.17977,36.03533],[136.17975,36.03531]]]}},{"type":"Feature","properties":{"pid":"1fc40715-d208-4833-ad7d-541545890585","full":3.1},"geometry":{"type":"Polygon","coordinates":[[[136.17958,36.03957],[136.17951,36.03981],[136.17972,36.03985],[136.17975,36.03973],[136.18013,36.03979],[136.18016,36.03967],[136.17958,36.03957]]]}},{"type":"Feature","properties":{"pid":"4a390001-00c7-40ce-863b-bb9602ffedad","full":0.9},"geometry":{"type":"Polygon","coordinates":[[[136.18009,36.03996],[136.1795,36.03985],[136.17947,36.03995],[136.18006,36.04006],[136.18009,36.03996]]]}},{"type":"Feature","properties":{"pid":"6d29d6ff-62b2-4782-ba78-3f4a320e0479","full":1.5},"geometry":{"type":"Polygon","coordinates":[[[136.17947,36.03996],[136.17943,36.04008],[136.18003,36.04018],[136.18006,36.04007],[136.17947,36.03996]]]}},{"type":"Feature","properties":{"pid":"a006192a-ecc0-4893-be5f-667d5ece8211","full":1.4},"geometry":{"type":"Polygon","coordinates":[[[136.17939,36.04023],[136.17936,36.04035],[136.17996,36.04045],[136.17999,36.04034],[136.17939,36.04023]]]}},{"type":"Feature","properties":{"pid":"e1a095b2-2027-42d1-a49e-eec4c6459e41","full":1.1},"geometry":{"type":"Polygon","coordinates":[[[136.17995,36.04049],[136.17936,36.04038],[136.17933,36.04049],[136.17992,36.0406],[136.17995,36.04049]]]}},{"type":"Feature","properties":{"pid":"3e5d3c6d-dd0b-4977-b7a0-0679a2ca1bbf","full":35.0},"geometry":{"type":"Polygon","coordinates":[[[136.17952,36.03956],[136.17915,36.03949],[136.17878,36.04083],[136.17879,36.04085],[136.17914,36.04092],[136.17952,36.03956]]]}},{"type":"Feature","properties":{"pid":"7d506d70-8ce9-4f44-9b81-354cca0f4a71","full":62.5},"geometry":{"type":"Polygon","coordinates":[[[136.17902,36.03968],[136.17899,36.03965],[136.1788,36.03971],[136.17806,36.04004],[136.17789,36.04069],[136.17869,36.04083],[136.17871,36.04082],[136.17902,36.03968]]]}},{"type":"Feature","properties":{"pid":"84d0c409-a768-4ea8-8221-e8e987567058","full":5.9},"geometry":{"type":"Polygon","coordinates":[[[136.17783,36.04068],[136.17799,36.0401],[136.17738,36.04058],[136.17783,36.04068]]]}},{"type":"Feature","properties":{"pid":"692f3b61-0b51-4e5c-8798-ebcdc9d9e52c","full":27.2},"geometry":{"type":"Polygon","coordinates":[[[136.1756,36.02986],[136.17522,36.02932],[136.17451,36.02963],[136.1743,36.02976],[136.17438,36.02987],[136.17448,36.02985],[136.17559,36.02988],[136.1756,36.02986]]]}},{"type":"Feature","properties":{"pid":"c6703643-b05c-4fe1-aa15-1deb12cb242b","full":24.4},"geometry":{"type":"Polygon","coordinates":[[[136.17578,36.02925],[136.17567,36.0291],[136.17523,36.02932],[136.17561,36.02987],[136.17567,36.02988],[136.17603,36.0299],[136.17602,36.02983],[136.17595,36.02958],[136.17578,36.02925]]]}},{"type":"Feature","properties":{"pid":"aa363f9b-1645-4ad1-a98a-54a159fdf131","full":27.4},"geometry":{"type":"Polygon","coordinates":[[[136.17564,36.02906],[136.17506,36.02832],[136.17503,36.02833],[136.17501,36.02831],[136.17467,36.02848],[136.17523,36.02925],[136.17564,36.02906]]]}},{"type":"Feature","properties":{"pid":"9ababebb-a82f-4d75-8312-36fb57f2d57b","full":38.6},"geometry":{"type":"Polygon","coordinates":[[[136.17512,36.02784],[136.17546,36.02767],[136.17542,36.02754],[136.1754,36.0272],[136.17533,36.02689],[136.17528,36.02677],[136.17457,36.02718],[136.17512,36.02784]]]}},{"type":"Feature","properties":{"pid":"88be2847-f5a3-408f-83ab-71a0d7b7517b","full":89.9},"geometry":{"type":"Polygon","coordinates":[[[136.1766,36.02754],[136.17807,36.027],[136.17753,36.02629],[136.17635,36.02695],[136.17644,36.02725],[136.1766,36.02754]]]}},{"type":"Feature","properties":{"pid":"d82d1b6a-c840-4243-a713-e92a51366dd1","full":56.2},"geometry":{"type":"Polygon","coordinates":[[[136.17748,36.02894],[136.17892,36.02834],[136.17872,36.02796],[136.17719,36.02851],[136.17748,36.02894]]]}},{"type":"Feature","properties":{"pid":"bda45acf-5165-4c84-9487-25d3e0be42ff","full":63.1},"geometry":{"type":"Polygon","coordinates":[[[136.17718,36.0285],[136.17872,36.02794],[136.1784,36.02751],[136.17691,36.02806],[136.17718,36.0285]]]}},{"type":"Feature","properties":{"pid":"33fbb3c8-300e-41de-b7f4-5829a808589d","full":60.1},"geometry":{"type":"Polygon","coordinates":[[[136.1769,36.02804],[136.17839,36.02749],[136.17808,36.02706],[136.17662,36.02761],[136.1769,36.02804]]]}},{"type":"Feature","properties":{"pid":"48e1b124-379e-42a2-a0f6-3deaab11f06c","full":35.1},"geometry":{"type":"Polygon","coordinates":[[[136.17873,36.02969],[136.17951,36.02918],[136.17908,36.02848],[136.17885,36.02858],[136.17873,36.02969]]]}},{"type":"Feature","properties":{"pid":"63898b64-6f27-46e8-8844-42237fb27e06","full":15.0},"geometry":{"type":"Polygon","coordinates":[[[136.17826,36.02911],[136.17873,36.0291],[136.17876,36.0286],[136.17874,36.02854],[136.17823,36.02872],[136.17826,36.02911]]]}},{"type":"Feature","properties":{"pid":"b0467c54-bdd8-4e2b-8dff-57b6bbbac959","full":21.0},"geometry":{"type":"Polygon","coordinates":[[[136.17824,36.02959],[136.17827,36.02956],[136.17819,36.02876],[136.17752,36.029],[136.17771,36.02923],[136.17793,36.0294],[136.17824,36.02959]]]}},{"type":"Feature","properties":{"pid":"05749f9c-449a-47c1-a1a1-487d2ccb548c","full":15.3},"geometry":{"type":"Polygon","coordinates":[[[136.17854,36.02976],[136.17865,36.02979],[136.17868,36.02974],[136.17873,36.02913],[136.17826,36.02913],[136.17831,36.02963],[136.17854,36.02976]]]}},{"type":"Feature","properties":{"pid":"22da0502-fbe9-4f21-a36a-2998f08999dd","full":44.1},"geometry":{"type":"Polygon","coordinates":[[[136.1788,36.03049],[136.17885,36.03051],[136.17991,36.0298],[136.17964,36.02937],[136.17874,36.02998],[136.1788,36.03049]]]}},{"type":"Feature","properties":{"pid":"1c9fc47d-da6b-4010-8de8-c21a151b637c","full":52.3},"geometry":{"type":"Polygon","coordinates":[[[136.17883,36.03056],[136.17913,36.03099],[136.18027,36.03022],[136.17993,36.02983],[136.17883,36.03056]]]}},{"type":"Feature","properties":{"pid":"04724e90-7e24-4b09-b547-5530fb78beae","full":53.7},"geometry":{"type":"Polygon","coordinates":[[[136.17945,36.03143],[136.18065,36.03062],[136.18054,36.03052],[136.1803,36.03024],[136.17915,36.03103],[136.17945,36.03143]]]}},{"type":"Feature","properties":{"pid":"ac33a5df-26b5-4885-a3ec-e249089198de","full":9.6},"geometry":{"type":"Polygon","coordinates":[[[136.17918,36.03161],[136.17941,36.03147],[136.17876,36.03057],[136.17878,36.03073],[136.17889,36.03113],[136.17899,36.03134],[136.17918,36.03161]]]}},{"type":"Feature","properties":{"pid":"94200eb4-dbca-46a8-8dc0-69927c329d90","full":10.8},"geometry":{"type":"Polygon","coordinates":[[[136.17988,36.0322],[136.18,36.03201],[136.17962,36.03176],[136.17945,36.03151],[136.17921,36.03164],[136.17943,36.03193],[136.17947,36.03193],[136.17949,36.03199],[136.17988,36.0322]]]}},{"type":"Feature","properties":{"pid":"948cae24-5ce1-48c7-a3c8-9edc08dbdda3","full":27.3},"geometry":{"type":"Polygon","coordinates":[[[136.18197,36.03265],[136.18224,36.0326],[136.18235,36.03252],[136.18236,36.03238],[136.18187,36.03184],[136.18145,36.03212],[136.18197,36.03265]]]}},{"type":"Feature","properties":{"pid":"a5398be3-77b1-4090-b2a8-124f167009ff","full":20.3},"geometry":{"type":"Polygon","coordinates":[[[136.18144,36.03279],[136.18157,36.03276],[136.18193,36.03265],[136.18141,36.03215],[136.18097,36.03247],[136.18144,36.03279]]]}},{"type":"Feature","properties":{"pid":"d389751c-c363-4dd1-98ee-22d92cccbd82","full":10.9},"geometry":{"type":"Polygon","coordinates":[[[136.18083,36.03256],[136.18093,36.03239],[136.18073,36.03227],[136.1803,36.03212],[136.18005,36.032],[136.17993,36.03221],[136.18083,36.03256]]]}},{"type":"Feature","properties":{"pid":"12ae0a59-5c35-4bcc-b315-4bb202a8e82a","full":43.1},"geometry":{"type":"Polygon","coordinates":[[[136.181,36.03238],[136.18186,36.03181],[136.18146,36.03144],[136.18044,36.03213],[136.18083,36.03226],[136.181,36.03238]]]}},{"type":"Feature","properties":{"pid":"7779a54b-629c-4375-85de-91feb148a633","full":52.5},"geometry":{"type":"Polygon","coordinates":[[[136.17987,36.03185],[136.18017,36.03202],[136.18041,36.03211],[136.18143,36.03143],[136.18107,36.03104],[136.17987,36.03185]]]}},{"type":"Feature","properties":{"pid":"1936803a-bb81-4f55-932c-f59d066f16b6","full":57.2},"geometry":{"type":"Polygon","coordinates":[[[136.17982,36.03183],[136.18103,36.03101],[136.18066,36.03064],[136.17946,36.03145],[136.17967,36.03171],[136.17982,36.03183]]]}},{"type":"Feature","properties":{"pid":"36342603-2395-41f2-b0d3-cb662559e944","full":54.5},"geometry":{"type":"Polygon","coordinates":[[[136.18531,36.03035],[136.1841,36.03032],[136.18408,36.03091],[136.1853,36.03093],[136.18531,36.03035]]]}},{"type":"Feature","properties":{"pid":"841d0810-7c12-4c76-8d4a-7ed91be28f91","full":52.8},"geometry":{"type":"Polygon","coordinates":[[[136.1853,36.03098],[136.18408,36.03096],[136.18408,36.03131],[136.18433,36.03131],[136.18433,36.03155],[136.18446,36.03155],[136.18464,36.03159],[136.18482,36.0316],[136.18488,36.03162],[136.18493,36.03162],[136.18528,36.03171],[136.1853,36.03098]]]}},{"type":"Feature","properties":{"pid":"2192a93c-c0fa-429b-b249-af68ba16155e","full":60.1},"geometry":{"type":"Polygon","coordinates":[[[136.18782,36.03414],[136.18778,36.03345],[136.1868,36.03348],[136.18681,36.03358],[136.18666,36.03359],[136.1867,36.03418],[136.18782,36.03414]]]}},{"type":"Feature","properties":{"pid":"18bc130f-3cd9-4e9d-9c3b-ebb27002254a","full":68.9},"geometry":{"type":"Polygon","coordinates":[[[136.18822,36.03325],[136.18798,36.03321],[136.18798,36.0335],[136.18803,36.03413],[136.18925,36.03407],[136.18922,36.03361],[136.18822,36.03325]]]}},{"type":"Feature","properties":{"pid":"0d0a10e1-5116-40c5-9cbe-1b25b1553e01","full":11.2},"geometry":{"type":"Polygon","coordinates":[[[136.19028,36.03402],[136.18927,36.03363],[136.18931,36.03407],[136.19028,36.03402]]]}},{"type":"Feature","properties":{"pid":"506a8bc3-0ad3-4e3f-b0c1-eff6c3eeb5c5","full":33.8},"geometry":{"type":"Polygon","coordinates":[[[136.18992,36.03217],[136.18882,36.03216],[136.18881,36.03245],[136.18886,36.03247],[136.18961,36.03249],[136.1896,36.03302],[136.1899,36.03314],[136.18992,36.03217]]]}},{"type":"Feature","properties":{"pid":"23928a8f-8221-490b-836f-13b1a94340f2","full":22.0},"geometry":{"type":"Polygon","coordinates":[[[136.18875,36.03216],[136.18793,36.03215],[136.18796,36.03245],[136.18874,36.03268],[136.18875,36.03216]]]}},{"type":"Feature","properties":{"pid":"303dd694-3a6e-4c99-86b9-c4f49ba429df","full":68.9},"geometry":{"type":"Polygon","coordinates":[[[136.18873,36.03103],[136.1879,36.03102],[136.18789,36.03191],[136.18796,36.03191],[136.18798,36.03209],[136.18872,36.0321],[136.18873,36.03103]]]}},{"type":"Feature","properties":{"pid":"db3beddf-bd46-4a2a-915e-6c5f7d12f3e5","full":101.1},"geometry":{"type":"Polygon","coordinates":[[[136.18995,36.03101],[136.18907,36.03099],[136.18884,36.03103],[136.18883,36.0321],[136.18992,36.03212],[136.18995,36.03101]]]}},{"type":"Feature","properties":{"pid":"c2f7128b-18a5-4853-9c0c-7e36509b678c","full":43.9},"geometry":{"type":"Polygon","coordinates":[[[136.18672,36.03156],[136.18777,36.03157],[136.18778,36.03102],[136.18682,36.031],[136.18674,36.03101],[136.18672,36.03156]]]}},{"type":"Feature","properties":{"pid":"925c0355-c9c4-4bf1-a174-10a6eee13133","full":50.8},"geometry":{"type":"Polygon","coordinates":[[[136.18777,36.03159],[136.18672,36.03158],[136.18671,36.03209],[136.18673,36.03212],[136.18762,36.03236],[136.18767,36.03235],[136.1877,36.03191],[136.18777,36.03191],[136.18777,36.03159]]]}},{"type":"Feature","properties":{"pid":"3da9ac83-c431-48b5-8159-50e31da08c00","full":23.1},"geometry":{"type":"Polygon","coordinates":[[[136.18628,36.031],[136.18627,36.03199],[136.18662,36.03208],[136.18664,36.031],[136.18628,36.031]]]}},{"type":"Feature","properties":{"pid":"21b0eb5f-d177-43c8-8360-69819a921bbf","full":17.7},"geometry":{"type":"Polygon","coordinates":[[[136.18627,36.031],[136.18595,36.03099],[136.18593,36.03189],[136.18625,36.03198],[136.18627,36.031]]]}},{"type":"Feature","properties":{"pid":"b1c86589-c223-43cb-9b6b-9d634c387ab8","full":31.0},"geometry":{"type":"Polygon","coordinates":[[[136.18591,36.03099],[136.18537,36.03098],[136.18536,36.03173],[136.1859,36.03187],[136.18591,36.03099]]]}},{"type":"Feature","properties":{"pid":"4d323e5a-63d9-498b-a830-9125a3b54bd4","full":14.5},"geometry":{"type":"Polygon","coordinates":[[[136.18665,36.03072],[136.18542,36.0307],[136.18541,36.0309],[136.18546,36.03092],[136.18659,36.03094],[136.18665,36.03091],[136.18665,36.03072]]]}},{"type":"Feature","properties":{"pid":"55c309cb-405a-48bb-ba50-d80eb66f14db","full":18.8},"geometry":{"type":"Polygon","coordinates":[[[136.18666,36.03045],[136.18542,36.03043],[136.18542,36.03068],[136.18665,36.0307],[136.18666,36.03045]]]}},{"type":"Feature","properties":{"pid":"8e71eefe-4243-4ba4-bf1c-2fa01389b46f","full":13.8},"geometry":{"type":"Polygon","coordinates":[[[136.18666,36.03021],[136.18543,36.03019],[136.18542,36.03041],[136.18666,36.03043],[136.18666,36.03021]]]}},{"type":"Feature","properties":{"pid":"f98d56fe-f3e1-4d96-97d0-c97fc2381996","full":14.0},"geometry":{"type":"Polygon","coordinates":[[[136.18666,36.02997],[136.18543,36.02995],[136.18543,36.03017],[136.18666,36.03018],[136.18666,36.02997]]]}},{"type":"Feature","properties":{"pid":"2591932b-aff0-467f-bb46-096adb92d59e","full":2.4},"geometry":{"type":"Polygon","coordinates":[[[136.18544,36.02993],[136.18667,36.02995],[136.18667,36.02981],[136.18548,36.02984],[136.18544,36.02987],[136.18544,36.02993]]]}},{"type":"Feature","properties":{"pid":"dc7779c7-32bb-42c7-9998-125feb0c1974","full":2.2},"geometry":{"type":"Polygon","coordinates":[[[136.18536,36.02981],[136.18508,36.02976],[136.185,36.02992],[136.18531,36.03001],[136.18536,36.03],[136.18536,36.02981]]]}},{"type":"Feature","properties":{"pid":"7770864b-beb0-40db-95bf-b1e2eba00df5","full":1.1},"geometry":{"type":"Polygon","coordinates":[[[136.18529,36.02937],[136.18545,36.02942],[136.18549,36.02933],[136.18522,36.02924],[136.18498,36.02965],[136.185,36.02967],[136.18499,36.02969],[136.18511,36.02973],[136.18529,36.02937]]]}},{"type":"Feature","properties":{"pid":"3373ddc6-0760-4968-8918-01ff4f9b2319","full":8.0},"geometry":{"type":"Polygon","coordinates":[[[136.18553,36.02886],[136.18503,36.0288],[136.18496,36.02899],[136.18496,36.02901],[136.18551,36.0292],[136.18553,36.02886]]]}},{"type":"Feature","properties":{"pid":"91d44db0-ae6c-4634-9916-d2ad5b53b38b","full":13.8},"geometry":{"type":"Polygon","coordinates":[[[136.1867,36.02857],[136.18559,36.02856],[136.18559,36.02878],[136.1867,36.0288],[136.1867,36.02857]]]}},{"type":"Feature","properties":{"pid":"8a285e8d-19a3-446e-9a0b-a6cd7e100530","full":19.2},"geometry":{"type":"Polygon","coordinates":[[[136.1867,36.02882],[136.18559,36.0288],[136.18558,36.02908],[136.18669,36.0291],[136.1867,36.02882]]]}},{"type":"Feature","properties":{"pid":"238bb7da-be78-45b8-af56-7b8a4ce65f2f","full":20.5},"geometry":{"type":"Polygon","coordinates":[[[136.18669,36.02912],[136.18558,36.0291],[136.18558,36.02922],[136.18668,36.0296],[136.18669,36.02912]]]}},{"type":"Feature","properties":{"pid":"42ab7479-4fd0-42e4-b41b-7765cb64f9b1","full":13.3},"geometry":{"type":"Polygon","coordinates":[[[136.18782,36.02896],[136.18676,36.02895],[136.18676,36.02918],[136.18782,36.02919],[136.18782,36.02896]]]}},{"type":"Feature","properties":{"pid":"bcf7e765-b7d3-4e3a-a58c-872959f4ba32","full":14.6},"geometry":{"type":"Polygon","coordinates":[[[136.18783,36.0287],[136.18677,36.02868],[136.18676,36.02893],[136.18782,36.02894],[136.18783,36.0287]]]}},{"type":"Feature","properties":{"pid":"26d2c18f-a395-46bb-b94a-55773d440e42","full":13.7},"geometry":{"type":"Polygon","coordinates":[[[136.18782,36.02922],[136.18676,36.0292],[136.18675,36.02943],[136.18781,36.02945],[136.18782,36.02922]]]}},{"type":"Feature","properties":{"pid":"3dda9a6a-92aa-46a0-9532-8c9319c676a4","full":12.7},"geometry":{"type":"Polygon","coordinates":[[[136.18781,36.02948],[136.18675,36.02945],[136.18675,36.02962],[136.18703,36.02968],[136.18716,36.0297],[136.18771,36.02971],[136.18781,36.02964],[136.18781,36.02948]]]}},{"type":"Feature","properties":{"pid":"8ec39276-a4d8-4cd1-8a93-a90751dd8ca7","full":93.1},"geometry":{"type":"Polygon","coordinates":[[[136.18777,36.03036],[136.18776,36.03033],[136.18779,36.03032],[136.1878,36.02992],[136.18769,36.02983],[136.18704,36.02983],[136.18692,36.02981],[136.18676,36.02976],[136.18673,36.0309],[136.18778,36.03092],[136.18779,36.03037],[136.18777,36.03036]]]}},{"type":"Feature","properties":{"pid":"230743cb-b50d-490f-a9c6-c5d3c75e8cad","full":12.3},"geometry":{"type":"Polygon","coordinates":[[[136.18916,36.02954],[136.18793,36.02952],[136.18793,36.02964],[136.18803,36.02972],[136.18916,36.02973],[136.18916,36.02954]]]}},{"type":"Feature","properties":{"pid":"beb984af-91b7-4457-a0fb-fb852a5e30f7","full":58.4},"geometry":{"type":"Polygon","coordinates":[[[136.18873,36.03093],[136.18875,36.02985],[136.18804,36.02984],[136.18792,36.02994],[136.18791,36.03079],[136.1881,36.03079],[136.18812,36.03066],[136.18843,36.03066],[136.18844,36.03093],[136.18873,36.03093]]]}},{"type":"Feature","properties":{"pid":"a09f9f8d-0cc3-4b72-8d1a-db23cb891d3c","full":15.9},"geometry":{"type":"Polygon","coordinates":[[[136.18941,36.03035],[136.18951,36.02986],[136.18916,36.02985],[136.18915,36.03012],[136.18882,36.03012],[136.1888,36.03042],[136.18938,36.0304],[136.18941,36.03035]]]}},{"type":"Feature","properties":{"pid":"6c350c65-9901-4866-8cec-bbba3f3dd444","full":3.3},"geometry":{"type":"Polygon","coordinates":[[[136.18994,36.02988],[136.18991,36.02986],[136.1898,36.02986],[136.18983,36.03038],[136.19002,36.03036],[136.19007,36.03002],[136.18993,36.03002],[136.18994,36.02988]]]}},{"type":"Feature","properties":{"pid":"071b16f5-8cf1-46ff-be4f-4d32a98b33a8","full":16.2},"geometry":{"type":"Polygon","coordinates":[[[136.18967,36.02912],[136.18923,36.02911],[136.18922,36.02971],[136.18965,36.02971],[136.18967,36.02912]]]}},{"type":"Feature","properties":{"pid":"c337572b-da40-466d-8ba3-3c73de00f726","full":3.1},"geometry":{"type":"Polygon","coordinates":[[[136.18985,36.02912],[136.18968,36.02912],[136.18966,36.02971],[136.18983,36.02971],[136.18985,36.02912]]]}},{"type":"Feature","properties":{"pid":"08f0307d-ca73-4702-8152-fa16b5610b57","full":13.9},"geometry":{"type":"Polygon","coordinates":[[[136.19027,36.0296],[136.19029,36.02913],[136.18986,36.02912],[136.18984,36.02971],[136.19009,36.02971],[136.19009,36.0296],[136.19027,36.0296]]]}},{"type":"Feature","properties":{"pid":"fc3ed633-e287-4e1a-aaad-9b0ca82f06e2","full":14.2},"geometry":{"type":"Polygon","coordinates":[[[136.19062,36.02887],[136.18923,36.02886],[136.18923,36.02906],[136.19061,36.02907],[136.19062,36.02907],[136.19062,36.02887]]]}},{"type":"Feature","properties":{"pid":"4979c817-a532-42c1-af1e-9c78ecb043d6","full":14.0},"geometry":{"type":"Polygon","coordinates":[[[136.18924,36.02884],[136.19062,36.02885],[136.19063,36.02866],[136.18924,36.02863],[136.18924,36.02884]]]}},{"type":"Feature","properties":{"pid":"e1c51ced-7939-44ed-b621-0d98036ed34f","full":35.3},"geometry":{"type":"Polygon","coordinates":[[[136.18918,36.02865],[136.18795,36.02863],[136.18794,36.02904],[136.18917,36.02906],[136.18918,36.02865]]]}},{"type":"Feature","properties":{"pid":"a48c33aa-0322-4e22-a133-dad11959f743","full":11.7},"geometry":{"type":"Polygon","coordinates":[[[136.18916,36.02933],[136.18793,36.02931],[136.18793,36.02951],[136.18916,36.02953],[136.18916,36.02933]]]}},{"type":"Feature","properties":{"pid":"65826be8-36ea-49d4-836d-d42e3ac5dc09","full":13.4},"geometry":{"type":"Polygon","coordinates":[[[136.18793,36.0293],[136.18916,36.02932],[136.18916,36.02911],[136.18803,36.02909],[136.18794,36.02909],[136.18793,36.0293]]]}},{"type":"Feature","properties":{"pid":"64b99096-0983-4ed5-9f96-e203ce4bfe5a","full":16.1},"geometry":{"type":"Polygon","coordinates":[[[136.18919,36.0279],[136.18796,36.02789],[136.18796,36.02812],[136.18919,36.02814],[136.18919,36.0279]]]}},{"type":"Feature","properties":{"pid":"1fd2c226-defc-489d-bc5a-046634c74c13","full":37.0},"geometry":{"type":"Polygon","coordinates":[[[136.18795,36.02861],[136.18918,36.02862],[136.18919,36.0282],[136.18796,36.02819],[136.18795,36.02861]]]}},{"type":"Feature","properties":{"pid":"add41950-e4c5-47c7-a19a-c50b031c4b13","full":14.8},"geometry":{"type":"Polygon","coordinates":[[[136.19063,36.02844],[136.18924,36.02841],[136.18924,36.02862],[136.19063,36.02864],[136.19063,36.02844]]]}},{"type":"Feature","properties":{"pid":"6127cb40-74e7-431b-a9f9-31174e1f212b","full":15.2},"geometry":{"type":"Polygon","coordinates":[[[136.18924,36.0284],[136.19063,36.02842],[136.19063,36.02821],[136.18924,36.02819],[136.18924,36.0284]]]}},{"type":"Feature","properties":{"pid":"c108604a-58d2-4021-a10c-f835f387ac07","full":226.8},"geometry":{"type":"Polygon","coordinates":[[[136.19066,36.02629],[136.18931,36.02627],[136.18929,36.02629],[136.18925,36.02814],[136.19064,36.02816],[136.19067,36.0263],[136.19066,36.02629]]]}},{"type":"Feature","properties":{"pid":"82a42267-2839-4d9a-b381-e9e2bf0b98bc","full":11.6},"geometry":{"type":"Polygon","coordinates":[[[136.18922,36.02685],[136.1881,36.02684],[136.18803,36.02695],[136.18801,36.02704],[136.18921,36.02705],[136.18922,36.02685]]]}},{"type":"Feature","properties":{"pid":"c557a317-56c2-4a6c-b41d-5d9709d378c9","full":19.4},"geometry":{"type":"Polygon","coordinates":[[[136.18921,36.02707],[136.18801,36.02705],[136.188,36.02712],[136.18798,36.02732],[136.1892,36.02733],[136.18921,36.02707]]]}},{"type":"Feature","properties":{"pid":"9b2dcf2b-d75f-4c08-9a2c-13d6373742ec","full":16.0},"geometry":{"type":"Polygon","coordinates":[[[136.1892,36.02766],[136.18797,36.02763],[136.18796,36.02787],[136.18919,36.02789],[136.1892,36.02766]]]}},{"type":"Feature","properties":{"pid":"715db18d-6a87-4cb0-8e4c-ba02977c5c3c","full":21.2},"geometry":{"type":"Polygon","coordinates":[[[136.1892,36.02735],[136.18798,36.02734],[136.18797,36.02762],[136.1892,36.02764],[136.1892,36.02735]]]}},{"type":"Feature","properties":{"pid":"32bd8f9f-f04f-450b-8d5c-1aca21eea2d6","full":16.9},"geometry":{"type":"Polygon","coordinates":[[[136.18678,36.02727],[136.18786,36.02728],[136.18789,36.02702],[136.18678,36.027],[136.18678,36.02727]]]}},{"type":"Feature","properties":{"pid":"3d2ab0f9-2d89-4f58-be21-a8c612be1e9f","full":17.2},"geometry":{"type":"Polygon","coordinates":[[[136.18785,36.02757],[136.18678,36.02755],[136.18678,36.02782],[136.18785,36.02784],[136.18785,36.02757]]]}},{"type":"Feature","properties":{"pid":"6aab8e60-871f-4837-8058-accc9d36a010","full":15.4},"geometry":{"type":"Polygon","coordinates":[[[136.18786,36.0273],[136.18678,36.02728],[136.18678,36.02753],[136.18785,36.02755],[136.18786,36.0273]]]}},{"type":"Feature","properties":{"pid":"6007917b-caac-41a8-a5d6-8036fc493e2e","full":16.8},"geometry":{"type":"Polygon","coordinates":[[[136.18785,36.02786],[136.18678,36.02783],[136.18678,36.0281],[136.18779,36.02811],[136.18784,36.0281],[136.18785,36.02786]]]}},{"type":"Feature","properties":{"pid":"cba3063b-bd88-4f49-9f09-c03e0c6facac","full":13.7},"geometry":{"type":"Polygon","coordinates":[[[136.18783,36.02845],[136.18677,36.02843],[136.18677,36.02867],[136.18783,36.02869],[136.18783,36.02845]]]}},{"type":"Feature","properties":{"pid":"3387d10c-5ecc-499b-bd74-094af74e18fa","full":15.4},"geometry":{"type":"Polygon","coordinates":[[[136.18677,36.02842],[136.18783,36.02843],[136.18784,36.02818],[136.18678,36.02816],[136.18677,36.02842]]]}},{"type":"Feature","properties":{"pid":"06082fa4-b104-4dc5-ae47-39d137ec5b9e","full":17.8},"geometry":{"type":"Polygon","coordinates":[[[136.18671,36.02784],[136.18561,36.02782],[136.1856,36.02809],[136.18672,36.02811],[136.18672,36.02787],[136.18671,36.02784]]]}},{"type":"Feature","properties":{"pid":"631be29d-63d6-4a16-9006-a5151f305d8d","full":9.7},"geometry":{"type":"Polygon","coordinates":[[[136.1856,36.02834],[136.18671,36.02835],[136.18671,36.02816],[136.1856,36.02815],[136.1856,36.02834]]]}},{"type":"Feature","properties":{"pid":"e7b94f94-0597-4209-965d-59ac724ac97f","full":9.5},"geometry":{"type":"Polygon","coordinates":[[[136.18671,36.02837],[136.1856,36.02836],[136.18559,36.02854],[136.1867,36.02856],[136.18671,36.02837]]]}},{"type":"Feature","properties":{"pid":"aa6285a9-f6b7-4f19-9c3f-443e43252675","full":4.3},"geometry":{"type":"Polygon","coordinates":[[[136.1855,36.02817],[136.18528,36.02817],[136.18521,36.02833],[136.18522,36.02835],[136.1853,36.02838],[136.18532,36.02842],[136.18529,36.02852],[136.18544,36.02859],[136.18553,36.02859],[136.18554,36.02818],[136.1855,36.02817]]]}},{"type":"Feature","properties":{"pid":"bdfddb20-a442-436f-b338-b3f63ba55b6b","full":15.8},"geometry":{"type":"Polygon","coordinates":[[[136.18672,36.02757],[136.18561,36.02755],[136.18561,36.0278],[136.18671,36.02782],[136.18672,36.02757]]]}},{"type":"Feature","properties":{"pid":"eb5f8cf7-7d60-4494-a721-83b81807865f","full":15.9},"geometry":{"type":"Polygon","coordinates":[[[136.18673,36.0273],[136.18562,36.02729],[136.18561,36.02753],[136.18672,36.02755],[136.18673,36.0273]]]}},{"type":"Feature","properties":{"pid":"535f3853-2ec6-4608-a77a-16714bdcf557","full":15.7},"geometry":{"type":"Polygon","coordinates":[[[136.18562,36.02727],[136.18673,36.02728],[136.18673,36.027],[136.18599,36.02699],[136.18562,36.02724],[136.18562,36.02727]]]}},{"type":"Feature","properties":{"pid":"42d0919e-eda5-4d53-bf81-9c5636c3c130","full":8.5},"geometry":{"type":"Polygon","coordinates":[[[136.18502,36.02678],[136.18483,36.02674],[136.18466,36.02679],[136.18471,36.02701],[136.1847,36.02714],[136.18507,36.02715],[136.18509,36.02714],[136.1851,36.0269],[136.18502,36.02678]]]}},{"type":"Feature","properties":{"pid":"ae19f8de-8159-4641-9308-a3bee85be027","full":64.7},"geometry":{"type":"Polygon","coordinates":[[[136.18555,36.02722],[136.18472,36.0272],[136.18456,36.02787],[136.18451,36.02794],[136.18439,36.02805],[136.1844,36.02807],[136.18554,36.02809],[136.18555,36.02722]]]}},{"type":"Feature","properties":{"pid":"62650d2f-a620-4a22-ad5c-808ecdf89721","full":11.7},"geometry":{"type":"Polygon","coordinates":[[[136.18455,36.02816],[136.18422,36.02816],[136.18392,36.02864],[136.18394,36.02866],[136.18425,36.02877],[136.18457,36.02816],[136.18455,36.02816]]]}},{"type":"Feature","properties":{"pid":"de97150d-d8ac-432d-9cb7-0082437e3b2b","full":2.4},"geometry":{"type":"Polygon","coordinates":[[[136.1852,36.02817],[136.18486,36.02817],[136.18484,36.0283],[136.185,36.02835],[136.18515,36.0284],[136.18523,36.02818],[136.1852,36.02817]]]}},{"type":"Feature","properties":{"pid":"3b8ee638-5efc-4603-a17e-2b0c98745495","full":5.0},"geometry":{"type":"Polygon","coordinates":[[[136.18499,36.02877],[136.18446,36.02866],[136.18444,36.0287],[136.18434,36.02868],[136.18429,36.02878],[136.18491,36.02899],[136.18499,36.02877]]]}},{"type":"Feature","properties":{"pid":"ef695951-48c2-4920-9df6-bda384d0b0f9","full":9.2},"geometry":{"type":"Polygon","coordinates":[[[136.18394,36.02901],[136.18377,36.02895],[136.18374,36.02897],[136.18363,36.02916],[136.18423,36.02923],[136.18438,36.02895],[136.18403,36.02883],[136.18394,36.02901]]]}},{"type":"Feature","properties":{"pid":"c4c38315-e903-4b34-bbf9-8c03a3df6c74","full":1.5},"geometry":{"type":"Polygon","coordinates":[[[136.1846,36.02902],[136.18442,36.02896],[136.18429,36.02921],[136.18432,36.02921],[136.18432,36.02924],[136.18447,36.02926],[136.1846,36.02902]]]}},{"type":"Feature","properties":{"pid":"872ac3ef-213a-43aa-836c-7dd9814ba399","full":0.6},"geometry":{"type":"Polygon","coordinates":[[[136.18456,36.0293],[136.18443,36.0293],[136.18427,36.02945],[136.18442,36.02953],[136.18456,36.02934],[136.18454,36.02933],[136.18456,36.0293]]]}},{"type":"Feature","properties":{"pid":"d3df8097-a693-4804-8607-87fb96109295","full":1.5},"geometry":{"type":"Polygon","coordinates":[[[136.18519,36.02923],[136.18495,36.02914],[136.18485,36.02932],[136.18509,36.02939],[136.18519,36.02923]]]}},{"type":"Feature","properties":{"pid":"de50edec-247e-41cd-ad6f-ebda14ecf816","full":2.5},"geometry":{"type":"Polygon","coordinates":[[[136.18452,36.02975],[136.1845,36.02975],[136.18437,36.02995],[136.18462,36.0301],[136.18466,36.02996],[136.18473,36.02984],[136.18452,36.02975]]]}},{"type":"Feature","properties":{"pid":"e2a70c01-39c5-4571-ac1b-b07c589e238a","full":3.0},"geometry":{"type":"Polygon","coordinates":[[[136.18434,36.02995],[136.18433,36.02995],[136.18433,36.03026],[136.18434,36.03027],[136.18483,36.03027],[136.18457,36.03009],[136.18434,36.02995]]]}},{"type":"Feature","properties":{"pid":"df55cee8-eb55-45ca-871e-04c8f5cd1241","full":26.9},"geometry":{"type":"Polygon","coordinates":[[[136.18431,36.02994],[136.18388,36.02973],[136.18386,36.02974],[136.18386,36.02977],[136.18349,36.02978],[136.18347,36.03026],[136.18431,36.03027],[136.18431,36.02994]]]}},{"type":"Feature","properties":{"pid":"37a2148c-9f8d-449c-817d-e72c67dee201","full":13.8},"geometry":{"type":"Polygon","coordinates":[[[136.18403,36.02923],[136.18362,36.0292],[136.1833,36.02975],[136.18384,36.02976],[136.18386,36.02946],[136.18403,36.02923]]]}},{"type":"Feature","properties":{"pid":"7e745b83-8e20-4d4a-bde1-06de53101130","full":9.3},"geometry":{"type":"Polygon","coordinates":[[[136.18005,36.02568],[136.18041,36.0257],[136.18042,36.02553],[136.18033,36.02534],[136.17969,36.02569],[136.17997,36.02602],[136.18001,36.02596],[136.18005,36.02568]]]}},{"type":"Feature","properties":{"pid":"b42e05fd-6327-491f-80d1-ef267a597bf6","full":3.3},"geometry":{"type":"Polygon","coordinates":[[[136.1804,36.02427],[136.18031,36.02412],[136.17979,36.02434],[136.1799,36.02448],[136.1804,36.02427]]]}},{"type":"Feature","properties":{"pid":"fa217fd4-012f-4206-9bfa-3279d4530730","full":7.9},"geometry":{"type":"Polygon","coordinates":[[[136.18158,36.02387],[136.18143,36.02365],[136.18089,36.02387],[136.18104,36.02409],[136.18158,36.02387]]]}},{"type":"Feature","properties":{"pid":"5218e67d-2aeb-478e-8ab8-941726de72bc","full":14.1},"geometry":{"type":"Polygon","coordinates":[[[136.1883,36.0266],[136.18922,36.02661],[136.18923,36.02631],[136.18919,36.02629],[136.18877,36.0263],[136.18875,36.02626],[136.18866,36.02626],[136.18861,36.02632],[136.1883,36.0266]]]}},{"type":"Feature","properties":{"pid":"1cbe1bed-3c50-4822-ba2d-48d0b389487e","full":11.5},"geometry":{"type":"Polygon","coordinates":[[[136.18922,36.02663],[136.18828,36.02661],[136.18817,36.02672],[136.18811,36.02683],[136.18922,36.02684],[136.18922,36.02663]]]}},{"type":"Feature","properties":{"pid":"a068e9b4-82ff-4335-9e99-c628b90d41a8","full":158.0},"geometry":{"type":"Polygon","coordinates":[[[136.19005,36.02513],[136.18963,36.02449],[136.18961,36.02449],[136.18959,36.0245],[136.18897,36.02449],[136.189,36.02572],[136.18894,36.02595],[136.1888,36.02621],[136.19016,36.02622],[136.19018,36.02551],[136.19018,36.02522],[136.19005,36.02513]]]}},{"type":"Feature","properties":{"pid":"d9353b5e-57b7-49ee-a4b6-32db90c0f354","full":15.5},"geometry":{"type":"Polygon","coordinates":[[[136.18917,36.02374],[136.18915,36.02368],[136.1891,36.02374],[136.18902,36.02392],[136.18899,36.02402],[136.18897,36.02424],[136.18897,36.02448],[136.18957,36.02449],[136.1896,36.02447],[136.18929,36.02404],[136.1892,36.02389],[136.18917,36.02374]]]}},{"type":"Feature","properties":{"pid":"8cdf6e81-9ca6-432c-967b-e09d27230a66","full":3.2},"geometry":{"type":"Polygon","coordinates":[[[136.18024,36.02401],[136.18015,36.02387],[136.17962,36.0241],[136.17971,36.02423],[136.18024,36.02401]]]}},{"type":"Feature","properties":{"pid":"efd1e84b-f994-4fac-a037-1056e9cb60ec","full":158.3},"geometry":{"type":"Polygon","coordinates":[[[136.17899,36.02358],[136.17847,36.023],[136.17774,36.02341],[136.17922,36.02514],[136.17993,36.02474],[136.17976,36.02452],[136.17899,36.02358]]]}},{"type":"Feature","properties":{"pid":"0f4f69e6-ae32-4055-b9f8-bc9c92a33fe7","full":93.0},"geometry":{"type":"Polygon","coordinates":[[[136.17723,36.02538],[136.17861,36.02459],[136.17813,36.02403],[136.17675,36.02482],[136.17688,36.02501],[136.177,36.02516],[136.1771,36.02524],[136.17723,36.02538]],[[136.177,36.02499],[136.17705,36.02506],[136.17698,36.0251],[136.17692,36.02504],[136.177,36.02499]]]}},{"type":"Feature","properties":{"pid":"dcc1ffb7-0641-4481-84be-6f22c491eaa9","full":35.1},"geometry":{"type":"Polygon","coordinates":[[[136.18031,36.02529],[136.17995,36.02478],[136.17925,36.02518],[136.17966,36.02566],[136.18031,36.02529]]]}},{"type":"Feature","properties":{"pid":"db0bab46-9dd0-4d4d-82e4-410177e9f4f4","full":50.7},"geometry":{"type":"Polygon","coordinates":[[[136.17956,36.0257],[136.17919,36.02528],[136.17821,36.02583],[136.17818,36.02591],[136.1785,36.02631],[136.17956,36.0257]]]}},{"type":"Feature","properties":{"pid":"77041053-5d48-4adf-9a12-7c10d46fa76b","full":49.5},"geometry":{"type":"Polygon","coordinates":[[[136.17986,36.02606],[136.17959,36.02575],[136.17854,36.02634],[136.17891,36.02678],[136.17975,36.02629],[136.17981,36.02623],[136.17986,36.02606]]]}},{"type":"Feature","properties":{"pid":"78822920-97f9-42eb-b47b-51e8ad4cb5e5","full":20.9},"geometry":{"type":"Polygon","coordinates":[[[136.17876,36.02671],[136.17819,36.02605],[136.17786,36.02622],[136.17842,36.02689],[136.17876,36.02671]]]}},{"type":"Feature","properties":{"pid":"f7a1f332-2175-457e-b0ee-8778ea65fa05","full":91.3},"geometry":{"type":"Polygon","coordinates":[[[136.1791,36.02521],[136.17864,36.02465],[136.17725,36.02542],[136.17771,36.02598],[136.1791,36.02521]]]}},{"type":"Feature","properties":{"pid":"8a358978-dbf6-4f89-922d-5a69f5e8cd8b","full":49.1},"geometry":{"type":"Polygon","coordinates":[[[136.17608,36.0261],[136.17697,36.02561],[136.17643,36.02496],[136.17596,36.02525],[136.17601,36.02568],[136.17608,36.0261]]]}},{"type":"Feature","properties":{"pid":"40f6f68f-75ea-4f57-9937-a7f596c79977","full":48.2},"geometry":{"type":"Polygon","coordinates":[[[136.17624,36.02669],[136.17734,36.02606],[136.17698,36.02562],[136.17609,36.02612],[136.17624,36.02669]]]}},{"type":"Feature","properties":{"pid":"93a2421c-2a4b-4ec3-92d7-6fcdb0fb3ab8","full":27.4},"geometry":{"type":"Polygon","coordinates":[[[136.17588,36.02519],[136.17597,36.02519],[136.17641,36.02493],[136.17585,36.02428],[136.17554,36.02443],[136.17568,36.02473],[136.17588,36.02519]]]}},{"type":"Feature","properties":{"pid":"86aeb2a1-c153-4899-98cc-dbdce1404313","full":96.1},"geometry":{"type":"Polygon","coordinates":[[[136.17812,36.02402],[136.17764,36.02345],[136.17624,36.02423],[136.17674,36.02481],[136.17812,36.02402]]]}},{"type":"Feature","properties":{"pid":"ba447cd7-91b2-4a86-87d6-eed9d10a2183","full":13.5},"geometry":{"type":"Polygon","coordinates":[[[136.17554,36.02441],[136.17584,36.02426],[136.17528,36.02362],[136.17507,36.02374],[136.17554,36.02441]]]}},{"type":"Feature","properties":{"pid":"3f3b23c0-1f72-46a2-8e17-658e32160636","full":81.5},"geometry":{"type":"Polygon","coordinates":[[[136.19126,36.02524],[136.19026,36.02523],[136.19024,36.02621],[136.19026,36.02622],[136.19128,36.02624],[136.19131,36.02621],[136.19132,36.02618],[136.19125,36.02606],[136.19126,36.02524]]]}},{"type":"Feature","properties":{"pid":"d880b9f3-9638-44ab-8902-5ed84ffe6136","full":48.1},"geometry":{"type":"Polygon","coordinates":[[[136.19441,36.02629],[136.19432,36.02632],[136.1941,36.02635],[136.19371,36.02644],[136.19371,36.02709],[136.19456,36.02707],[136.1946,36.02645],[136.19458,36.0264],[136.19454,36.02636],[136.19441,36.02629]]]}},{"type":"Feature","properties":{"pid":"e9ffc9b7-2bde-44b1-a2bd-86ffd78a7cef","full":15.4},"geometry":{"type":"Polygon","coordinates":[[[136.19738,36.02948],[136.19749,36.02953],[136.19785,36.02953],[136.1979,36.02933],[136.19789,36.02932],[136.19713,36.02907],[136.19712,36.02958],[136.19715,36.02959],[136.19738,36.02948]]]}},{"type":"Feature","properties":{"pid":"88e905a6-a7a6-48a6-bd3b-cac403d0b1d8","full":51.6},"geometry":{"type":"Polygon","coordinates":[[[136.19639,36.02982],[136.19686,36.02982],[136.19705,36.0297],[136.19706,36.02954],[136.19703,36.02952],[136.1955,36.02952],[136.19549,36.03003],[136.19595,36.03012],[136.19594,36.03018],[136.19617,36.03014],[136.19639,36.03002],[136.19639,36.02982]]]}},{"type":"Feature","properties":{"pid":"08718f81-7bd8-4116-aca8-a2000602d7ca","full":125.6},"geometry":{"type":"Polygon","coordinates":[[[136.19637,36.0283],[136.19609,36.02841],[136.19593,36.02842],[136.1958,36.02841],[136.19562,36.0286],[136.19551,36.02876],[136.19544,36.02883],[136.19535,36.02888],[136.19519,36.02891],[136.19519,36.02943],[136.19524,36.02946],[136.19705,36.02948],[136.19706,36.02912],[136.19702,36.02913],[136.19691,36.02909],[136.19681,36.02903],[136.1967,36.02885],[136.1966,36.02881],[136.19655,36.02876],[136.1965,36.0287],[136.19649,36.02861],[136.19653,36.0284],[136.19637,36.0283]]]}},{"type":"Feature","properties":{"pid":"3727096e-1e7f-4eae-b513-4b72d15f9e9f","full":172.2},"geometry":{"type":"Polygon","coordinates":[[[136.19336,36.02641],[136.19292,36.02624],[136.19219,36.02639],[136.19215,36.02818],[136.19288,36.02819],[136.19314,36.02779],[136.1933,36.02745],[136.19331,36.02709],[136.19335,36.02707],[136.19336,36.02641]]]}},{"type":"Feature","properties":{"pid":"121a32c2-eaea-458a-ab12-385ecc6f8f13","full":168.8},"geometry":{"type":"Polygon","coordinates":[[[136.1921,36.02776],[136.19212,36.0264],[136.19205,36.02641],[136.19172,36.02638],[136.19152,36.02633],[136.19146,36.02629],[136.19075,36.02629],[136.19074,36.0263],[136.19071,36.02774],[136.1921,36.02776]]]}},{"type":"Feature","properties":{"pid":"57c6a82e-c7c8-45d7-9753-c2443bef2e81","full":41.7},"geometry":{"type":"Polygon","coordinates":[[[136.1921,36.02776],[136.19071,36.02774],[136.1907,36.02816],[136.19209,36.02818],[136.1921,36.02776]]]}},{"type":"Feature","properties":{"pid":"b741d1cc-1e9a-4df2-a80c-c11b3772110e","full":98.3},"geometry":{"type":"Polygon","coordinates":[[[136.19209,36.02823],[136.1907,36.02821],[136.19069,36.02907],[136.1907,36.02908],[136.19207,36.02909],[136.19209,36.02823]]]}},{"type":"Feature","properties":{"pid":"baf5a959-37ef-4335-95aa-194741c0a6ea","full":50.4},"geometry":{"type":"Polygon","coordinates":[[[136.19291,36.02824],[136.19215,36.02823],[136.19213,36.02906],[136.1931,36.02907],[136.19299,36.02888],[136.19294,36.02876],[136.19291,36.02868],[136.1929,36.02859],[136.1929,36.02835],[136.19291,36.02824]]]}},{"type":"Feature","properties":{"pid":"02be9734-299d-4abd-9a00-43106c1251fc","full":10.7},"geometry":{"type":"Polygon","coordinates":[[[136.19287,36.02916],[136.19257,36.02915],[136.19255,36.02978],[136.19286,36.02982],[136.19287,36.02916]]]}},{"type":"Feature","properties":{"pid":"0a215159-d7d0-4d11-8dd1-b82f5fa90024","full":10.3},"geometry":{"type":"Polygon","coordinates":[[[136.19255,36.02915],[136.19223,36.02915],[136.19223,36.02974],[136.19253,36.02978],[136.19255,36.02915]]]}},{"type":"Feature","properties":{"pid":"cdef5a6d-eebb-40a4-b44c-5abdbca1a420","full":9.0},"geometry":{"type":"Polygon","coordinates":[[[136.19221,36.02915],[136.19191,36.02914],[136.19191,36.02971],[136.1922,36.02973],[136.19221,36.02915]]]}},{"type":"Feature","properties":{"pid":"7d5d104f-8e33-4585-8615-1994d6ff8ee4","full":10.4},"geometry":{"type":"Polygon","coordinates":[[[136.19189,36.02914],[136.19156,36.02914],[136.19156,36.0297],[136.19176,36.0297],[136.19188,36.02971],[136.19189,36.02914]]]}},{"type":"Feature","properties":{"pid":"b255f811-6443-4a51-8bc1-d30d6029c5ca","full":10.3},"geometry":{"type":"Polygon","coordinates":[[[136.1903,36.02913],[136.19028,36.02971],[136.19061,36.02971],[136.19062,36.02914],[136.19061,36.02913],[136.1903,36.02913]]]}},{"type":"Feature","properties":{"pid":"58efd753-78e5-4323-8e8a-03b52e7f8eb1","full":15.3},"geometry":{"type":"Polygon","coordinates":[[[136.1911,36.02971],[136.19111,36.02913],[136.19069,36.02913],[136.19067,36.02971],[136.1911,36.02971]]]}},{"type":"Feature","properties":{"pid":"281a8d42-1f60-43d8-ba2f-5c4fc688f0fc","full":14.4},"geometry":{"type":"Polygon","coordinates":[[[136.19154,36.0297],[136.19154,36.02914],[136.19113,36.02913],[136.19112,36.02971],[136.19154,36.0297]]]}},{"type":"Feature","properties":{"pid":"fd8428d8-1ee0-4568-9a6c-8226777b4f9b","full":12.8},"geometry":{"type":"Polygon","coordinates":[[[136.19298,36.03058],[136.19304,36.03029],[136.19293,36.03027],[136.19292,36.03029],[136.19263,36.03027],[136.19265,36.02994],[136.19234,36.0299],[136.19231,36.02992],[136.19237,36.03037],[136.19258,36.03038],[136.19259,36.03052],[136.19298,36.03058]]]}},{"type":"Feature","properties":{"pid":"482a5f22-1ad6-49ef-b09d-5d8f97e5a6ac","full":9.9},"geometry":{"type":"Polygon","coordinates":[[[136.19388,36.03012],[136.19344,36.03006],[136.19343,36.03015],[136.19345,36.03016],[136.19361,36.03016],[136.19361,36.03054],[136.19328,36.03054],[136.19328,36.03063],[136.19336,36.03064],[136.19395,36.03066],[136.19388,36.03012]]]}},{"type":"Feature","properties":{"pid":"e9effd83-63fd-4387-9d98-57d7b6b79eb3","full":5.8},"geometry":{"type":"Polygon","coordinates":[[[136.19289,36.02916],[136.19288,36.02983],[136.19309,36.02985],[136.1931,36.02916],[136.19289,36.02916]]]}},{"type":"Feature","properties":{"pid":"8e484aa7-b210-4646-9e63-61cbfb7d618a","full":148.6},"geometry":{"type":"Polygon","coordinates":[[[136.19506,36.02997],[136.1951,36.02997],[136.19512,36.02889],[136.19491,36.02879],[136.19483,36.02876],[136.19478,36.02877],[136.19473,36.02882],[136.19463,36.02894],[136.19447,36.02897],[136.19433,36.02911],[136.19415,36.02921],[136.19385,36.02927],[136.1937,36.02928],[136.19317,36.02917],[136.19315,36.02987],[136.19433,36.03004],[136.1947,36.03008],[136.19506,36.03014],[136.19506,36.02997]]]}},{"type":"Feature","properties":{"pid":"3b354adc-0b52-4056-bcf6-576a6f045d3b","full":0.9},"geometry":{"type":"Polygon","coordinates":[[[136.19441,36.03053],[136.19416,36.03048],[136.19419,36.03067],[136.19438,36.03068],[136.19441,36.03053]]]}},{"type":"Feature","properties":{"pid":"eb0d8ef4-0272-49f6-9f95-4b0246543a95","full":105.4},"geometry":{"type":"Polygon","coordinates":[[[136.1931,36.03193],[136.19391,36.03185],[136.19393,36.03186],[136.19575,36.03169],[136.1958,36.03167],[136.19582,36.03163],[136.19575,36.03121],[136.195,36.03119],[136.19484,36.03128],[136.19472,36.03133],[136.19458,36.03135],[136.19415,36.03135],[136.19406,36.0314],[136.19336,36.03147],[136.19333,36.03125],[136.193,36.03129],[136.19309,36.03192],[136.1931,36.03193]]]}},{"type":"Feature","properties":{"pid":"204abbd5-5746-4c35-864a-c4efb99c3511","full":1.4},"geometry":{"type":"Polygon","coordinates":[[[136.19297,36.03107],[136.19265,36.03105],[136.19261,36.03123],[136.19294,36.0312],[136.19297,36.03107]]]}},{"type":"Feature","properties":{"pid":"4e024834-c3e2-47a9-b528-34f44fe23060","full":3.1},"geometry":{"type":"Polygon","coordinates":[[[136.19381,36.03137],[136.1938,36.03118],[136.19339,36.03121],[136.19341,36.03141],[136.19381,36.03137]]]}},{"type":"Feature","properties":{"pid":"ff159112-4416-496e-810c-710befdaea95","full":1.0},"geometry":{"type":"Polygon","coordinates":[[[136.19256,36.03105],[136.19237,36.03101],[136.19234,36.03126],[136.19252,36.03124],[136.19256,36.03105]]]}},{"type":"Feature","properties":{"pid":"b41ed022-dceb-41e4-bb89-9c0067b12a5b","full":2.2},"geometry":{"type":"Polygon","coordinates":[[[136.19237,36.03101],[136.1921,36.03096],[136.19214,36.03127],[136.19216,36.03127],[136.19233,36.03126],[136.19237,36.03101]]]}},{"type":"Feature","properties":{"pid":"eb1afbac-de09-4bdc-99df-ac5fe15da52d","full":47.8},"geometry":{"type":"Polygon","coordinates":[[[136.19182,36.03037],[136.1915,36.03034],[136.19135,36.03034],[136.19118,36.03038],[136.19078,36.03043],[136.19074,36.03044],[136.19082,36.03095],[136.19198,36.03084],[136.19199,36.03083],[136.192,36.03062],[136.19204,36.03052],[136.19182,36.03037]]]}},{"type":"Feature","properties":{"pid":"fd9c6e1f-9ac2-4626-9790-807995707d1b","full":13.1},"geometry":{"type":"Polygon","coordinates":[[[136.19072,36.03096],[136.19065,36.03047],[136.19043,36.03057],[136.19022,36.0307],[136.19018,36.03075],[136.18992,36.03086],[136.18977,36.03088],[136.18977,36.03094],[136.19072,36.03096]]]}},{"type":"Feature","properties":{"pid":"c4a9699a-a060-421f-958b-5ff4af28364f","full":107.6},"geometry":{"type":"Polygon","coordinates":[[[136.19214,36.03202],[136.19197,36.0309],[136.19083,36.03101],[136.191,36.03213],[136.19214,36.03202]]]}},{"type":"Feature","properties":{"pid":"f6b06ea9-1989-4f79-8e87-529cd5962a56","full":72.3},"geometry":{"type":"Polygon","coordinates":[[[136.19073,36.03101],[136.19001,36.03101],[136.18999,36.03212],[136.1909,36.03213],[136.19073,36.03101]]]}},{"type":"Feature","properties":{"pid":"19cd4c07-6821-4e05-89ba-9b8b558ce48a","full":39.7},"geometry":{"type":"Polygon","coordinates":[[[136.19303,36.03191],[136.19293,36.03129],[136.19211,36.03138],[136.1922,36.03201],[136.19302,36.03193],[136.19303,36.03191]]]}},{"type":"Feature","properties":{"pid":"d0080d3a-6df9-493a-b4cb-797c7762252d","full":132.4},"geometry":{"type":"Polygon","coordinates":[[[136.19234,36.03344],[136.19214,36.03207],[136.19101,36.03218],[136.19114,36.03311],[136.1912,36.0331],[136.1913,36.03355],[136.19161,36.03356],[136.19201,36.0335],[136.19234,36.03344]]]}},{"type":"Feature","properties":{"pid":"87be405c-9fe1-40be-9133-fdf525b1a442","full":80.9},"geometry":{"type":"Polygon","coordinates":[[[136.19062,36.03299],[136.19103,36.033],[136.19091,36.03219],[136.18999,36.03217],[136.18997,36.0332],[136.19032,36.03334],[136.19061,36.03343],[136.19062,36.03299]]]}},{"type":"Feature","properties":{"pid":"732ddf56-c09f-40b4-a2e3-83cc41cb3913","full":258.7},"geometry":{"type":"Polygon","coordinates":[[[136.19589,36.03231],[136.19581,36.03172],[136.19225,36.03206],[136.19221,36.03207],[136.1924,36.0334],[136.19291,36.03321],[136.19386,36.03272],[136.19421,36.0326],[136.19431,36.03257],[136.19465,36.03242],[136.19523,36.03237],[136.1955,36.03237],[136.19571,36.03233],[136.19589,36.03231]]]}},{"type":"Feature","properties":{"pid":"833a8bb8-61a6-4c0c-9426-7495851b23da","full":116.0},"geometry":{"type":"Polygon","coordinates":[[[136.19554,36.0339],[136.1953,36.03304],[136.19522,36.03304],[136.19474,36.03313],[136.19425,36.03333],[136.19367,36.03364],[136.19381,36.03417],[136.19385,36.0342],[136.19554,36.0339]]]}},{"type":"Feature","properties":{"pid":"5ebbc656-a1e1-4642-a73b-aadbe1e1daf5","full":18.7},"geometry":{"type":"Polygon","coordinates":[[[136.19588,36.03382],[136.19567,36.03301],[136.19532,36.03304],[136.19555,36.0339],[136.19587,36.03384],[136.19588,36.03382]]]}},{"type":"Feature","properties":{"pid":"960f74b3-be74-4a5a-9448-c50ea60dc4a0","full":15.8},"geometry":{"type":"Polygon","coordinates":[[[136.19629,36.03377],[136.19608,36.033],[136.19591,36.03303],[136.19575,36.03304],[136.19596,36.03383],[136.19629,36.03377]]]}},{"type":"Feature","properties":{"pid":"37fa755e-93f2-4a7a-94ab-2a1e841beae5","full":22.0},"geometry":{"type":"Polygon","coordinates":[[[136.19672,36.03369],[136.19653,36.03296],[136.19609,36.03299],[136.1963,36.03376],[136.19672,36.03369]]]}},{"type":"Feature","properties":{"pid":"94138746-d801-4785-b7ef-8bae4bdb8caf","full":35.7},"geometry":{"type":"Polygon","coordinates":[[[136.19786,36.03372],[136.19763,36.03288],[136.19707,36.03292],[136.19731,36.03381],[136.19786,36.03372]]]}},{"type":"Feature","properties":{"pid":"da7e621d-19ce-46d8-ba02-a4a7a481927d","full":23.2},"geometry":{"type":"Polygon","coordinates":[[[136.1972,36.03361],[136.19702,36.03292],[136.19654,36.03296],[136.19673,36.03369],[136.1972,36.03361]]]}},{"type":"Feature","properties":{"pid":"f88fde32-10f4-41a6-8dfc-fc7318b87963","full":29.4},"geometry":{"type":"Polygon","coordinates":[[[136.19635,36.03232],[136.1962,36.03121],[136.1958,36.03119],[136.19596,36.03235],[136.19635,36.03232]]]}},{"type":"Feature","properties":{"pid":"19a5efe0-5ab5-4c95-a125-40f066020b56","full":32.7},"geometry":{"type":"Polygon","coordinates":[[[136.1968,36.03229],[136.19667,36.03123],[136.19622,36.03121],[136.19637,36.03232],[136.1968,36.03229]]]}},{"type":"Feature","properties":{"pid":"0379d1d6-7320-4194-afac-8054a8572094","full":4.2},"geometry":{"type":"Polygon","coordinates":[[[136.19574,36.03075],[136.19549,36.03075],[136.19549,36.03109],[136.19549,36.03112],[136.19572,36.03113],[136.19577,36.03082],[136.19577,36.03076],[136.19574,36.03075]]]}},{"type":"Feature","properties":{"pid":"d74236e6-5b88-45e1-b905-4d72b682d98e","full":20.8},"geometry":{"type":"Polygon","coordinates":[[[136.19719,36.03125],[136.19731,36.03212],[136.19741,36.0321],[136.19772,36.03175],[136.19764,36.03127],[136.19762,36.03124],[136.19756,36.03126],[136.19719,36.03125]]]}},{"type":"Feature","properties":{"pid":"bcefa639-4baa-4065-b01f-be86cf6b24fc","full":35.9},"geometry":{"type":"Polygon","coordinates":[[[136.19731,36.03224],[136.19718,36.03125],[136.19668,36.03123],[136.19682,36.03228],[136.1973,36.03225],[136.19731,36.03224]]]}},{"type":"Feature","properties":{"pid":"419a566c-a24c-45f2-927f-9626f89c8c21","full":10.0},"geometry":{"type":"Polygon","coordinates":[[[136.19792,36.03123],[136.19773,36.03117],[136.19771,36.03117],[136.1978,36.03178],[136.19784,36.03177],[136.19798,36.03167],[136.19818,36.03162],[136.19814,36.03134],[136.19792,36.03123]]]}},{"type":"Feature","properties":{"pid":"4c7d34d6-bcc4-408a-bc89-037f8a96b6f7","full":14.8},"geometry":{"type":"Polygon","coordinates":[[[136.19944,36.03344],[136.19927,36.03278],[136.19891,36.03279],[136.1991,36.0335],[136.19944,36.03344]]]}},{"type":"Feature","properties":{"pid":"c4870c93-ea99-42c4-b4b5-dd15204f46a7","full":21.1},"geometry":{"type":"Polygon","coordinates":[[[136.19909,36.0335],[136.1989,36.03279],[136.19847,36.03281],[136.19867,36.03357],[136.19909,36.0335]]]}},{"type":"Feature","properties":{"pid":"5e928f04-c658-4796-a0f8-fa287d7e3522","full":19.7},"geometry":{"type":"Polygon","coordinates":[[[136.19866,36.03358],[136.19846,36.03281],[136.19807,36.03284],[136.19829,36.03364],[136.19866,36.03358]]]}},{"type":"Feature","properties":{"pid":"2e5ccc38-3171-4cac-a870-5399f67225db","full":23.9},"geometry":{"type":"Polygon","coordinates":[[[136.19828,36.03365],[136.19806,36.03284],[136.19763,36.03288],[136.19786,36.03372],[136.19828,36.03365]]]}},{"type":"Feature","properties":{"pid":"cb0909e5-80a9-45bd-8727-caf4356b42e7","full":27.3},"geometry":{"type":"Polygon","coordinates":[[[136.19915,36.0342],[136.19898,36.03358],[136.19844,36.03367],[136.19842,36.0337],[136.19861,36.03437],[136.19915,36.0342]]]}},{"type":"Feature","properties":{"pid":"6d2d5174-6d44-4b0c-b9b3-d4e2caa2630e","full":13.8},"geometry":{"type":"Polygon","coordinates":[[[136.19951,36.03409],[136.19935,36.03351],[136.19899,36.03358],[136.19916,36.0342],[136.19951,36.03409]]]}},{"type":"Feature","properties":{"pid":"14a42a40-eac8-42b5-87e2-e573e33a9595","full":11.7},"geometry":{"type":"Polygon","coordinates":[[[136.19985,36.03399],[136.1997,36.03345],[136.19936,36.03351],[136.19952,36.03409],[136.19985,36.03399]]]}},{"type":"Feature","properties":{"pid":"a7527b0b-210a-40c0-bc95-71acf70bf21a","full":27.9},"geometry":{"type":"Polygon","coordinates":[[[136.19967,36.0328],[136.19965,36.03278],[136.19928,36.03278],[136.19945,36.03344],[136.20009,36.03333],[136.19996,36.03282],[136.19967,36.0328]]]}},{"type":"Feature","properties":{"pid":"f3117c0b-0942-4c0f-8932-ec59d4e49e8b","full":4.0},"geometry":{"type":"Polygon","coordinates":[[[136.1999,36.03401],[136.20005,36.03397],[136.1999,36.03342],[136.19971,36.03345],[136.19986,36.03399],[136.19989,36.03398],[136.1999,36.03401]]]}},{"type":"Feature","properties":{"pid":"315c4251-20b2-4a5c-ba60-a023d12b2a4e","full":64.4},"geometry":{"type":"Polygon","coordinates":[[[136.19836,36.03371],[136.19833,36.03369],[136.19733,36.03387],[136.19752,36.03462],[136.19753,36.03463],[136.19763,36.03464],[136.19817,36.0345],[136.19855,36.03439],[136.19836,36.03371]]]}},{"type":"Feature","properties":{"pid":"2dcf3597-9d65-4d88-a828-dcec241dc200","full":1.6},"geometry":{"type":"Polygon","coordinates":[[[136.19741,36.03687],[136.19738,36.03677],[136.19663,36.03691],[136.19666,36.03702],[136.19741,36.03687]]]}},{"type":"Feature","properties":{"pid":"faaf70ef-69f7-450d-9a8f-cde91d3f0ad1","full":0.9},"geometry":{"type":"Polygon","coordinates":[[[136.19687,36.03532],[136.19702,36.0353],[136.19702,36.03528],[136.19705,36.03528],[136.197,36.03509],[136.19681,36.03512],[136.19687,36.03532]]]}},{"type":"Feature","properties":{"pid":"9e8a51cd-c4cc-4901-b86f-9e62513a8822","full":20.3},"geometry":{"type":"Polygon","coordinates":[[[136.19591,36.03391],[136.19588,36.0339],[136.19515,36.03403],[136.19525,36.03441],[136.19601,36.03428],[136.19591,36.03391]]]}},{"type":"Feature","properties":{"pid":"bc3dd47f-8557-44f0-b71c-58352ed7f7f3","full":11.5},"geometry":{"type":"Polygon","coordinates":[[[136.19525,36.03443],[136.19514,36.03403],[136.19467,36.03411],[136.19478,36.0345],[136.19525,36.03443]]]}},{"type":"Feature","properties":{"pid":"23768b12-9fa0-4971-9832-e71e1ccc916e","full":2.1},"geometry":{"type":"Polygon","coordinates":[[[136.1946,36.03459],[136.19448,36.03414],[136.19431,36.03417],[136.19443,36.03462],[136.1946,36.03459]]]}},{"type":"Feature","properties":{"pid":"b98bedae-8257-4e60-b45a-c81891bdd651","full":2.8},"geometry":{"type":"Polygon","coordinates":[[[136.19479,36.03456],[136.19466,36.03411],[136.19448,36.03414],[136.1946,36.03459],[136.19479,36.03456]]]}},{"type":"Feature","properties":{"pid":"bcd6b2d2-cf54-418b-ba8a-ab2fb4761cd9","full":2.0},"geometry":{"type":"Polygon","coordinates":[[[136.19432,36.03464],[136.1942,36.03419],[136.19404,36.03422],[136.19416,36.03467],[136.19432,36.03464]]]}},{"type":"Feature","properties":{"pid":"011dbe90-88f2-4b5d-85ff-164a5984e29e","full":1.0},"geometry":{"type":"Polygon","coordinates":[[[136.19508,36.03483],[136.19504,36.03465],[136.19488,36.03467],[136.19486,36.0347],[136.19494,36.03495],[136.19505,36.03493],[136.19504,36.03485],[136.19508,36.03483]]]}},{"type":"Feature","properties":{"pid":"5b1dfebb-80e9-48aa-b4e6-d7ab9ae1d947","full":4.7},"geometry":{"type":"Polygon","coordinates":[[[136.19501,36.03565],[136.19496,36.03545],[136.19451,36.03553],[136.19456,36.03573],[136.19458,36.03575],[136.19499,36.03567],[136.19501,36.03565]]]}},{"type":"Feature","properties":{"pid":"ff03fadb-214b-46a3-b1b4-4efbed2b26da","full":15.5},"geometry":{"type":"Polygon","coordinates":[[[136.19441,36.03546],[136.19365,36.03559],[136.19365,36.0356],[136.19373,36.03589],[136.19374,36.0359],[136.19446,36.03578],[136.19445,36.03576],[136.19449,36.03575],[136.19441,36.03546]]]}},{"type":"Feature","properties":{"pid":"6e6cde08-c993-4197-a7a7-100555a13ebd","full":3.1},"geometry":{"type":"Polygon","coordinates":[[[136.19363,36.03512],[136.19357,36.03485],[136.19328,36.0349],[136.19335,36.03514],[136.19363,36.03512]]]}},{"type":"Feature","properties":{"pid":"7fd396b2-14d4-474c-9215-da865cced9bf","full":2.9},"geometry":{"type":"Polygon","coordinates":[[[136.19383,36.03533],[136.19369,36.03535],[136.19366,36.03518],[136.19346,36.03519],[136.19356,36.03554],[136.19387,36.03548],[136.19383,36.03533]]]}},{"type":"Feature","properties":{"pid":"5e0b9130-600a-47ad-bc8b-fbe94da5d9b7","full":46.4},"geometry":{"type":"Polygon","coordinates":[[[136.19375,36.0343],[136.19372,36.03428],[136.19367,36.03428],[136.19198,36.03469],[136.19203,36.03492],[136.19232,36.03488],[136.19277,36.03484],[136.19322,36.03483],[136.19385,36.03472],[136.19375,36.0343]]]}},{"type":"Feature","properties":{"pid":"26f5bd67-ef9b-408a-99f7-f0408f7be4ae","full":61.7},"geometry":{"type":"Polygon","coordinates":[[[136.19197,36.03463],[136.19372,36.03422],[136.19374,36.0342],[136.19362,36.03374],[136.19334,36.03379],[136.193,36.03394],[136.19278,36.03401],[136.19201,36.03416],[136.19187,36.03418],[136.19197,36.03463]]]}},{"type":"Feature","properties":{"pid":"88214484-a346-4ece-8a13-87c7c80d5a5e","full":11.4},"geometry":{"type":"Polygon","coordinates":[[[136.19187,36.03463],[136.19177,36.03418],[136.19143,36.0342],[136.19143,36.03424],[136.19135,36.03424],[136.1914,36.03463],[136.19163,36.03463],[136.19187,36.03463]]]}},{"type":"Feature","properties":{"pid":"e016674c-3172-43dd-b39e-fc1b29fd2a89","full":22.5},"geometry":{"type":"Polygon","coordinates":[[[136.19124,36.03465],[136.19118,36.03424],[136.19115,36.03425],[136.19114,36.0342],[136.19054,36.03408],[136.19058,36.03462],[136.19071,36.03461],[136.19073,36.03471],[136.19123,36.03465],[136.19124,36.03465]]]}},{"type":"Feature","properties":{"pid":"bb76db2f-e090-4ad0-a9b0-d6c6c3b6afe6","full":2.0},"geometry":{"type":"Polygon","coordinates":[[[136.19094,36.03647],[136.1909,36.03647],[136.1907,36.03648],[136.1907,36.03649],[136.19068,36.03649],[136.19079,36.03675],[136.19095,36.03672],[136.19097,36.03669],[136.19094,36.03647]]]}},{"type":"Feature","properties":{"pid":"042da94a-6f79-4a11-8154-014a75c639f0","full":4.5},"geometry":{"type":"Polygon","coordinates":[[[136.1953,36.03637],[136.19527,36.03624],[136.19559,36.0362],[136.19555,36.03603],[136.19502,36.03612],[136.19509,36.03638],[136.1953,36.03637]]]}},{"type":"Feature","properties":{"pid":"67d112e9-1104-44b5-a2c0-3d5a942e5faf","full":3.9},"geometry":{"type":"Polygon","coordinates":[[[136.19454,36.03813],[136.19421,36.03812],[136.19419,36.03813],[136.19418,36.03834],[136.19422,36.03834],[136.19422,36.03836],[136.19456,36.03837],[136.19455,36.03815],[136.19454,36.03813]]]}},{"type":"Feature","properties":{"pid":"6d9f5c0b-4f18-4c0b-82b1-440a032f561e","full":9.5},"geometry":{"type":"Polygon","coordinates":[[[136.19528,36.03876],[136.19519,36.03842],[136.19469,36.0385],[136.1947,36.03875],[136.19473,36.03876],[136.19526,36.03878],[136.19525,36.03876],[136.19528,36.03876]]]}},{"type":"Feature","properties":{"pid":"d0a18ce2-c4f8-4270-a873-b9a7a5876849","full":3.5},"geometry":{"type":"Polygon","coordinates":[[[136.19526,36.03885],[136.19501,36.03884],[136.19499,36.03914],[136.19501,36.03915],[136.19524,36.03915],[136.19526,36.03913],[136.19529,36.03887],[136.19526,36.03887],[136.19526,36.03885]]]}},{"type":"Feature","properties":{"pid":"376e9268-23fc-4833-b56a-8a1f845e4381","full":1.9},"geometry":{"type":"Polygon","coordinates":[[[136.19482,36.03883],[136.19464,36.03883],[136.19463,36.03913],[136.19483,36.03914],[136.19484,36.03886],[136.19483,36.03886],[136.19482,36.03883]]]}},{"type":"Feature","properties":{"pid":"75b7d3b1-3ba1-4e48-871e-c5307242a694","full":1.0},"geometry":{"type":"Polygon","coordinates":[[[136.19501,36.03884],[136.19487,36.03883],[136.19487,36.03885],[136.19485,36.03886],[136.19483,36.03914],[136.19499,36.03914],[136.19501,36.03884]]]}},{"type":"Feature","properties":{"pid":"5ed206d4-a4e9-4dfa-9a09-53ff3406d9c6","full":1.8},"geometry":{"type":"Polygon","coordinates":[[[136.19459,36.03886],[136.19438,36.03886],[136.19437,36.03908],[136.19438,36.03909],[136.19439,36.03912],[136.19458,36.03912],[136.19459,36.03886]]]}},{"type":"Feature","properties":{"pid":"f572dc64-7946-4163-a279-961e5a847e07","full":2.2},"geometry":{"type":"Polygon","coordinates":[[[136.19397,36.03934],[136.19397,36.03919],[136.19359,36.03917],[136.19358,36.0392],[136.19355,36.0392],[136.19354,36.03934],[136.19395,36.03935],[136.19397,36.03934]]]}},{"type":"Feature","properties":{"pid":"9048b515-a95a-437d-b795-aab1954bd7da","full":4.6},"geometry":{"type":"Polygon","coordinates":[[[136.19332,36.03816],[136.1929,36.03814],[136.19289,36.03839],[136.1933,36.0384],[136.19332,36.03816]]]}},{"type":"Feature","properties":{"pid":"b8dad962-7e57-4f1f-9b95-2d86a8f37ddd","full":3.8},"geometry":{"type":"Polygon","coordinates":[[[136.19244,36.0376],[136.19224,36.03759],[136.19223,36.03762],[136.19221,36.03763],[136.19219,36.03796],[136.19221,36.03798],[136.19243,36.03799],[136.19244,36.0376]]]}},{"type":"Feature","properties":{"pid":"127769a9-4c92-4131-b813-616d9db3eb00","full":8.4},"geometry":{"type":"Polygon","coordinates":[[[136.19284,36.03761],[136.19245,36.0376],[136.19243,36.03799],[136.19281,36.038],[136.19282,36.03797],[136.19284,36.03761]]]}},{"type":"Feature","properties":{"pid":"ed054664-f603-484b-b4f2-f6d31e3298eb","full":8.7},"geometry":{"type":"Polygon","coordinates":[[[136.19029,36.03788],[136.19105,36.03789],[136.19104,36.03773],[136.19102,36.03772],[136.19002,36.0377],[136.19,36.03772],[136.18999,36.03792],[136.19002,36.03794],[136.19028,36.03795],[136.19029,36.03788]]]}},{"type":"Feature","properties":{"pid":"1318f019-ecd3-4dee-a3e2-cfce33e953d6","full":5.6},"geometry":{"type":"Polygon","coordinates":[[[136.19318,36.03935],[136.19317,36.03935],[136.19316,36.03933],[136.1928,36.03932],[136.19278,36.03961],[136.19317,36.03963],[136.19318,36.03935]]]}},{"type":"Feature","properties":{"pid":"f2c62f5f-f56b-447d-9645-539c0172166a","full":2.9},"geometry":{"type":"Polygon","coordinates":[[[136.19341,36.03934],[136.19319,36.03933],[136.19318,36.03963],[136.19342,36.03964],[136.19343,36.03962],[136.19344,36.03935],[136.19342,36.03936],[136.19341,36.03934]]]}},{"type":"Feature","properties":{"pid":"22925889-9e32-4f21-aef6-c201524cae2c","full":6.0},"geometry":{"type":"Polygon","coordinates":[[[136.19396,36.03935],[136.19354,36.03934],[136.19353,36.0396],[136.19355,36.03961],[136.19356,36.03962],[136.19393,36.03964],[136.19395,36.03963],[136.19397,36.03936],[136.19396,36.03935]]]}},{"type":"Feature","properties":{"pid":"e7da1854-4bc3-4ce6-b529-cb6b1679d56e","full":1.5},"geometry":{"type":"Polygon","coordinates":[[[136.19457,36.03925],[136.19443,36.03924],[136.1944,36.03926],[136.19438,36.03957],[136.19456,36.03958],[136.19457,36.03925]]]}},{"type":"Feature","properties":{"pid":"2a08f97e-3228-4701-9a23-6e33d7644f9a","full":0.7},"geometry":{"type":"Polygon","coordinates":[[[136.19475,36.03925],[136.19462,36.03925],[136.1946,36.03972],[136.1947,36.03972],[136.1947,36.0397],[136.19473,36.03969],[136.19475,36.03925]]]}},{"type":"Feature","properties":{"pid":"6544ad0e-4926-4b37-94fe-67bfdab7f78c","full":2.8},"geometry":{"type":"Polygon","coordinates":[[[136.195,36.0398],[136.19485,36.03979],[136.19484,36.03981],[136.19483,36.03982],[136.19481,36.04026],[136.1949,36.04026],[136.195,36.04021],[136.19501,36.03982],[136.195,36.0398]]]}},{"type":"Feature","properties":{"pid":"1b9227bd-1807-4399-86c7-2cf1337014cf","full":2.2},"geometry":{"type":"Polygon","coordinates":[[[136.19646,36.04016],[136.19645,36.04004],[136.19643,36.04004],[136.19643,36.04005],[136.19625,36.04011],[136.19621,36.04015],[136.19623,36.04035],[136.19645,36.04034],[136.19646,36.04016]]]}},{"type":"Feature","properties":{"pid":"3f582a74-dbbb-4dce-a408-e29fb4e178fd","full":1.4},"geometry":{"type":"Polygon","coordinates":[[[136.1967,36.04044],[136.19668,36.04023],[136.19646,36.04024],[136.19646,36.04045],[136.1967,36.04044]]]}},{"type":"Feature","properties":{"pid":"44ce22cb-411c-4987-b220-9145cd58990b","full":2.6},"geometry":{"type":"Polygon","coordinates":[[[136.19795,36.04051],[136.19789,36.04005],[136.19787,36.04005],[136.19786,36.04003],[136.19772,36.04005],[136.19775,36.04029],[136.19773,36.0403],[136.19775,36.04053],[136.19795,36.04051]]]}},{"type":"Feature","properties":{"pid":"d710fe31-809f-4da3-a790-c457582d779a","full":0.8},"geometry":{"type":"Polygon","coordinates":[[[136.19727,36.04033],[136.19724,36.04012],[136.19723,36.04012],[136.19722,36.0401],[136.19707,36.04011],[136.1971,36.04034],[136.19727,36.04033]]]}},{"type":"Feature","properties":{"pid":"2d625afc-cf0d-4d8d-a9a2-f18f3abc6828","full":1.2},"geometry":{"type":"Polygon","coordinates":[[[136.19762,36.03987],[136.19761,36.03981],[136.19742,36.03982],[136.19744,36.04],[136.19746,36.04],[136.19746,36.04002],[136.19772,36.04],[136.19771,36.03993],[136.19762,36.03987]]]}},{"type":"Feature","properties":{"pid":"03e9d49e-bd6a-40d9-b8dc-9aeab65516b7","full":1.2},"geometry":{"type":"Polygon","coordinates":[[[136.19617,36.03931],[136.19603,36.0393],[136.196,36.03976],[136.19613,36.03977],[136.19613,36.03974],[136.19615,36.03974],[136.19617,36.03931]]]}},{"type":"Feature","properties":{"pid":"f68bd7b5-353a-45b4-b8c2-535c10cf6800","full":6.7},"geometry":{"type":"Polygon","coordinates":[[[136.19649,36.03931],[136.19617,36.03931],[136.19615,36.03974],[136.19617,36.03974],[136.19618,36.03977],[136.19646,36.0397],[136.19649,36.03931]]]}},{"type":"Feature","properties":{"pid":"fce4fee4-94b5-4b2c-ad6c-023e7158f850","full":1.3},"geometry":{"type":"Polygon","coordinates":[[[136.19666,36.04],[136.19664,36.03999],[136.19646,36.04003],[136.19647,36.04017],[136.19646,36.04023],[136.19665,36.04022],[136.19668,36.0402],[136.19666,36.04]]]}},{"type":"Feature","properties":{"pid":"d00151b2-739d-486b-a4c0-3d7b22278e49","full":4.1},"geometry":{"type":"Polygon","coordinates":[[[136.19602,36.0393],[136.1958,36.03929],[136.19578,36.03973],[136.19578,36.03976],[136.196,36.03976],[136.19602,36.0393]]]}},{"type":"Feature","properties":{"pid":"8c009d34-9692-498d-ae90-a19bdbe058e5","full":1.2},"geometry":{"type":"Polygon","coordinates":[[[136.19579,36.03929],[136.19565,36.03928],[136.19562,36.03975],[136.19574,36.03975],[136.19575,36.03973],[136.19577,36.03972],[136.19579,36.03929]]]}},{"type":"Feature","properties":{"pid":"0c05f490-c89b-4e21-add9-5ae7dbe43d6b","full":1.2},"geometry":{"type":"Polygon","coordinates":[[[136.19536,36.03974],[136.19547,36.03974],[136.1955,36.03929],[136.1954,36.03927],[136.19536,36.03929],[136.19533,36.03973],[136.19536,36.03974]]]}},{"type":"Feature","properties":{"pid":"eee2c711-84d6-4485-96c8-d6c229a0db25","full":4.1},"geometry":{"type":"Polygon","coordinates":[[[136.19759,36.03909],[136.19758,36.03892],[136.19725,36.03896],[136.19723,36.03898],[136.19729,36.03921],[136.19733,36.03924],[136.19756,36.03925],[136.19756,36.0391],[136.19759,36.03909]]]}},{"type":"Feature","properties":{"pid":"49eebd49-f4c6-4109-959e-06d8281729bd","full":2.4},"geometry":{"type":"Polygon","coordinates":[[[136.19845,36.03928],[136.19845,36.03925],[136.19847,36.03925],[136.19846,36.03907],[136.19813,36.03908],[136.19815,36.03927],[136.19845,36.03928]]]}},{"type":"Feature","properties":{"pid":"94f36c06-7cb7-4bc4-92a0-830a13498534","full":0.7},"geometry":{"type":"Polygon","coordinates":[[[136.19896,36.03929],[136.19895,36.03905],[136.19879,36.03906],[136.1988,36.03929],[136.19896,36.03929]]]}},{"type":"Feature","properties":{"pid":"1e6c63a3-e696-4ed7-af80-a89e29fc4fe0","full":2.6},"geometry":{"type":"Polygon","coordinates":[[[136.19894,36.03905],[136.19893,36.03878],[136.19866,36.03881],[136.19866,36.03883],[136.19865,36.03883],[136.19867,36.03906],[136.19894,36.03905]]]}},{"type":"Feature","properties":{"pid":"137bedd4-ec65-4dcf-baed-2f574744b983","full":12.7},"geometry":{"type":"Polygon","coordinates":[[[136.19852,36.03834],[136.19844,36.038],[136.19785,36.0381],[136.19793,36.03843],[136.19795,36.03842],[136.19795,36.03844],[136.19852,36.03834]]]}},{"type":"Feature","properties":{"pid":"7121112f-e44f-4260-acd6-206c54331210","full":1.7},"geometry":{"type":"Polygon","coordinates":[[[136.19967,36.03867],[136.19966,36.03866],[136.19945,36.0387],[136.19946,36.03872],[136.19944,36.03872],[136.19949,36.03892],[136.19973,36.03888],[136.19967,36.03867]]]}},{"type":"Feature","properties":{"pid":"a27d36c9-42aa-4313-80df-30e35061b57c","full":2.4},"geometry":{"type":"Polygon","coordinates":[[[136.19926,36.03986],[136.19907,36.03985],[136.19915,36.04026],[136.19933,36.04024],[136.19926,36.03986]]]}},{"type":"Feature","properties":{"pid":"373b2ca2-558e-439b-9b33-e67e54224f47","full":2.9},"geometry":{"type":"Polygon","coordinates":[[[136.19847,36.04019],[136.19839,36.03982],[136.19823,36.03982],[136.19821,36.03984],[136.19823,36.04022],[136.19847,36.04019]]]}},{"type":"Feature","properties":{"pid":"5b1d1f7b-fe88-41e2-9c26-d7de8bc1e0e7","full":0.7},"geometry":{"type":"Polygon","coordinates":[[[136.19868,36.04017],[136.19865,36.04003],[136.19863,36.04003],[136.19862,36.04001],[136.19844,36.04004],[136.19847,36.04019],[136.19868,36.04017]]]}},{"type":"Feature","properties":{"pid":"60eefd8f-0087-465a-a777-efb0c09e1e87","full":4.9},"geometry":{"type":"Polygon","coordinates":[[[136.19893,36.03984],[136.19871,36.03983],[136.19869,36.03985],[136.19878,36.04029],[136.1988,36.0403],[136.19902,36.04027],[136.19893,36.03984]]]}},{"type":"Feature","properties":{"pid":"147680ec-82b2-443d-9623-aa4b95308ba8","full":2.0},"geometry":{"type":"Polygon","coordinates":[[[136.19922,36.04071],[136.19914,36.04032],[136.19897,36.04034],[136.19904,36.04073],[136.19922,36.04071]]]}},{"type":"Feature","properties":{"pid":"704241f3-1477-47a7-831a-cb48e9dfd2cb","full":1.1},"geometry":{"type":"Polygon","coordinates":[[[136.19875,36.04052],[136.19872,36.04034],[136.1985,36.04037],[136.19853,36.04056],[136.19873,36.04053],[136.19875,36.04052]]]}},{"type":"Feature","properties":{"pid":"3763b17e-3daa-4710-814a-993b4a6a3504","full":0.8},"geometry":{"type":"Polygon","coordinates":[[[136.19817,36.04048],[136.19814,36.04032],[136.19793,36.04034],[136.19795,36.04048],[136.19797,36.04048],[136.19797,36.0405],[136.19816,36.04048],[136.19817,36.04048]]]}},{"type":"Feature","properties":{"pid":"6606973b-cb71-4966-8150-dc26c1193260","full":1.9},"geometry":{"type":"Polygon","coordinates":[[[136.19939,36.04069],[136.19932,36.0403],[136.19915,36.04032],[136.19922,36.04071],[136.19939,36.04069]]]}},{"type":"Feature","properties":{"pid":"01fa0de4-225c-467e-a03d-e17a3c8c4609","full":1.5},"geometry":{"type":"Polygon","coordinates":[[[136.19975,36.04044],[136.19972,36.04026],[136.1997,36.04026],[136.19969,36.04024],[136.19947,36.04028],[136.1995,36.04047],[136.19975,36.04044]]]}},{"type":"Feature","properties":{"pid":"9c6a62cb-d180-4cf1-b099-afd5294a2a7a","full":5.8},"geometry":{"type":"Polygon","coordinates":[[[136.20018,36.04059],[136.2002,36.04057],[136.20015,36.04041],[136.20012,36.04041],[136.20012,36.0404],[136.1995,36.04047],[136.19954,36.04067],[136.20018,36.04059]]]}}],"precision":5}